<?xml version='1.0' encoding='UTF-8'?>
<osm version="0.6" generator="libosmium/2.20.0">
  <way id="31482003" version="4" timestamp="2009-10-22T21:56:21Z" uid="36809" user="pfoten_weg_!_" changeset="2925817">
    <nd ref="462182476"/>
    <nd ref="278535701"/>
    <nd ref="278535702"/>
    <nd ref="278535703"/>
    <nd ref="278535704"/>
    <nd ref="278535705"/>
    <tag k="highway" v="unclassified"/>
    <tag k="tracktype" v="grade1"/>
  </way>
  <way id="31482137" version="4" timestamp="2010-03-02T11:57:34Z" uid="115477" user="wowik" changeset="4016198">
    <nd ref="351904300"/>
    <nd ref="351904303"/>
    <nd ref="351904306"/>
    <nd ref="351904310"/>
    <nd ref="351904312"/>
    <nd ref="351904315"/>
    <nd ref="351904318"/>
    <nd ref="351904322"/>
    <nd ref="351904324"/>
    <nd ref="351904326"/>
    <nd ref="351904330"/>
    <nd ref="351904333"/>
    <nd ref="351904300"/>
    <tag k="addr:housenumber" v="11к7"/>
    <tag k="building" v="yes"/>
    <tag k="cladr:code" v="77000000000191300"/>
    <tag k="name" v="Институт радиотехники и электроники им. В.А.Котельникова РАН"/>
  </way>
  <way id="31482137" version="7" timestamp="2011-04-20T12:59:40Z" uid="115477" user="wowik" changeset="7916018">
    <nd ref="351904300"/>
    <nd ref="351904303"/>
    <nd ref="351904306"/>
    <nd ref="351904310"/>
    <nd ref="351904312"/>
    <nd ref="351904315"/>
    <nd ref="351904318"/>
    <nd ref="351904322"/>
    <nd ref="351904324"/>
    <nd ref="351904326"/>
    <nd ref="351904330"/>
    <nd ref="351904333"/>
    <nd ref="351904300"/>
    <tag k="addr:city" v="Москва"/>
    <tag k="addr:country" v="RU"/>
    <tag k="addr:housenumber" v="11 к7"/>
    <tag k="building" v="yes"/>
    <tag k="cladr:code" v="77000000000191300"/>
    <tag k="name" v="Институт радиотехники и электроники им. В.А.Котельникова РАН"/>
    <tag k="office" v="research"/>
  </way>
  <way id="31482137" version="8" timestamp="2011-04-20T14:15:46Z" uid="115477" user="wowik" changeset="7916622">
    <nd ref="351904300"/>
    <nd ref="351904303"/>
    <nd ref="351904306"/>
    <nd ref="351904310"/>
    <nd ref="351904312"/>
    <nd ref="351904315"/>
    <nd ref="351904318"/>
    <nd ref="351904322"/>
    <nd ref="351904324"/>
    <nd ref="351904326"/>
    <nd ref="351904330"/>
    <nd ref="351904333"/>
    <nd ref="351904300"/>
    <tag k="addr:city" v="Москва"/>
    <tag k="addr:country" v="RU"/>
    <tag k="addr:housenumber" v="11 к7"/>
    <tag k="addr:street" v="Моховая улица"/>
    <tag k="building" v="yes"/>
    <tag k="cladr:code" v="77000000000191300"/>
    <tag k="name" v="Институт радиотехники и электроники им. В.А.Котельникова РАН"/>
    <tag k="office" v="research"/>
  </way>
  <way id="31482137" version="9" timestamp="2011-04-20T14:16:34Z" uid="115477" user="wowik" changeset="7916622">
    <nd ref="351904300"/>
    <nd ref="351904303"/>
    <nd ref="351904306"/>
    <nd ref="351904310"/>
    <nd ref="351904312"/>
    <nd ref="351904315"/>
    <nd ref="351904318"/>
    <nd ref="351904322"/>
    <nd ref="351904324"/>
    <nd ref="351904326"/>
    <nd ref="351904330"/>
    <nd ref="351904333"/>
    <nd ref="351904300"/>
    <tag k="addr:city" v="Москва"/>
    <tag k="addr:country" v="RU"/>
    <tag k="addr:housenumber" v="11 к7"/>
    <tag k="addr:street" v="Моховая улица"/>
    <tag k="building" v="yes"/>
    <tag k="cladr:code" v="77000000000191300"/>
    <tag k="name" v="Институт радиотехники и электроники им. В.А.Котельникова РАН"/>
    <tag k="office" v="research"/>
    <tag k="website" v="http://cplire.ru"/>
  </way>
  <way id="31482139" version="5" timestamp="2011-04-20T12:59:27Z" uid="115477" user="wowik" changeset="7916018">
    <nd ref="351904336"/>
    <nd ref="351904339"/>
    <nd ref="351904342"/>
    <nd ref="351904344"/>
    <nd ref="351904348"/>
    <nd ref="351904351"/>
    <nd ref="351904353"/>
    <nd ref="351904355"/>
    <nd ref="351904357"/>
    <nd ref="351904361"/>
    <nd ref="351904364"/>
    <nd ref="351904375"/>
    <nd ref="351904336"/>
    <tag k="addr:city" v="Москва"/>
    <tag k="addr:country" v="RU"/>
    <tag k="amenity" v="university"/>
    <tag k="building" v="yes"/>
    <tag k="cladr:code" v="77000000000711100"/>
    <tag k="name" v="НИИ нормальной физиологии им. П. К. Анохина"/>
  </way>
  <way id="31482140" version="6" timestamp="2011-04-20T12:57:32Z" uid="115477" user="wowik" changeset="7916018">
    <nd ref="351904387"/>
    <nd ref="351904400"/>
    <nd ref="351904402"/>
    <nd ref="351904395"/>
    <nd ref="351904387"/>
    <tag k="addr:city" v="Москва"/>
    <tag k="addr:country" v="RU"/>
    <tag k="addr:housenumber" v="6"/>
    <tag k="addr:street" v="Большая Никитская улица"/>
    <tag k="amenity" v="public_building"/>
    <tag k="building" v="yes"/>
    <tag k="cladr:code" v="77000000000711100"/>
  </way>
  <way id="31482142" version="11" timestamp="2011-04-20T12:59:36Z" uid="115477" user="wowik" changeset="7916018">
    <nd ref="351904446"/>
    <nd ref="666830038"/>
    <nd ref="351904464"/>
    <nd ref="916076897"/>
    <nd ref="351904467"/>
    <nd ref="1156130012"/>
    <nd ref="1156130021"/>
    <nd ref="351904470"/>
    <nd ref="351904473"/>
    <nd ref="351904477"/>
    <nd ref="976191368"/>
    <nd ref="351904480"/>
    <nd ref="351904404"/>
    <nd ref="351904405"/>
    <nd ref="351904410"/>
    <nd ref="351904416"/>
    <nd ref="351904423"/>
    <nd ref="916076641"/>
    <nd ref="916076772"/>
    <nd ref="351904425"/>
    <nd ref="351904428"/>
    <nd ref="351904430"/>
    <nd ref="351904433"/>
    <nd ref="351904435"/>
    <nd ref="351904437"/>
    <nd ref="351904440"/>
    <nd ref="351904443"/>
    <nd ref="351904446"/>
    <tag k="addr:city" v="Москва"/>
    <tag k="addr:country" v="RU"/>
    <tag k="addr:housenumber" v="11 с1"/>
    <tag k="amenity" v="university"/>
    <tag k="building" v="yes"/>
    <tag k="cladr:code" v="77000000000711100"/>
    <tag k="int_name" v="The Institute of Asian and African Studies (MSU)"/>
    <tag k="name" v="Институт стран Азии и Африки (ИСАА)"/>
  </way>
  <way id="31482142" version="12" timestamp="2011-04-20T14:15:45Z" uid="115477" user="wowik" changeset="7916622">
    <nd ref="351904446"/>
    <nd ref="666830038"/>
    <nd ref="351904464"/>
    <nd ref="916076897"/>
    <nd ref="351904467"/>
    <nd ref="1156130012"/>
    <nd ref="1156130021"/>
    <nd ref="351904470"/>
    <nd ref="351904473"/>
    <nd ref="351904477"/>
    <nd ref="976191368"/>
    <nd ref="351904480"/>
    <nd ref="351904404"/>
    <nd ref="351904405"/>
    <nd ref="351904410"/>
    <nd ref="351904416"/>
    <nd ref="351904423"/>
    <nd ref="916076641"/>
    <nd ref="916076772"/>
    <nd ref="351904425"/>
    <nd ref="351904428"/>
    <nd ref="351904430"/>
    <nd ref="351904433"/>
    <nd ref="351904435"/>
    <nd ref="351904437"/>
    <nd ref="351904440"/>
    <nd ref="351904443"/>
    <nd ref="351904446"/>
    <tag k="addr:city" v="Москва"/>
    <tag k="addr:country" v="RU"/>
    <tag k="addr:housenumber" v="11 с1"/>
    <tag k="addr:street" v="Моховая улица"/>
    <tag k="amenity" v="university"/>
    <tag k="building" v="yes"/>
    <tag k="cladr:code" v="77000000000711100"/>
    <tag k="int_name" v="The Institute of Asian and African Studies (MSU)"/>
    <tag k="name" v="Институт стран Азии и Африки (ИСАА)"/>
  </way>
  <way id="31482144" version="4" timestamp="2011-04-20T12:59:28Z" uid="115477" user="wowik" changeset="7916018">
    <nd ref="351904483"/>
    <nd ref="351904487"/>
    <nd ref="351904489"/>
    <nd ref="351904492"/>
    <nd ref="351904495"/>
    <nd ref="351904499"/>
    <nd ref="351904501"/>
    <nd ref="351904503"/>
    <nd ref="351904506"/>
    <nd ref="351904509"/>
    <nd ref="351904511"/>
    <nd ref="351904514"/>
    <nd ref="351904517"/>
    <nd ref="351904522"/>
    <nd ref="351904525"/>
    <nd ref="351904527"/>
    <nd ref="351904530"/>
    <nd ref="351904533"/>
    <nd ref="351904483"/>
    <tag k="addr:city" v="Москва"/>
    <tag k="addr:country" v="RU"/>
    <tag k="building" v="yes"/>
    <tag k="cladr:code" v="77000000000191300"/>
  </way>
  <way id="31482144" version="5" timestamp="2011-04-20T14:15:44Z" uid="115477" user="wowik" changeset="7916622">
    <nd ref="351904483"/>
    <nd ref="351904487"/>
    <nd ref="351904489"/>
    <nd ref="351904492"/>
    <nd ref="351904495"/>
    <nd ref="351904499"/>
    <nd ref="351904501"/>
    <nd ref="351904503"/>
    <nd ref="351904506"/>
    <nd ref="351904509"/>
    <nd ref="351904511"/>
    <nd ref="351904514"/>
    <nd ref="351904517"/>
    <nd ref="351904522"/>
    <nd ref="351904525"/>
    <nd ref="351904527"/>
    <nd ref="351904530"/>
    <nd ref="351904533"/>
    <nd ref="351904483"/>
    <tag k="addr:city" v="Москва"/>
    <tag k="addr:country" v="RU"/>
    <tag k="addr:housenumber" v="11 к2"/>
    <tag k="addr:street" v="Моховая улица"/>
    <tag k="building" v="yes"/>
    <tag k="cladr:code" v="77000000000191300"/>
    <tag k="name" v="Государственный геологический музей им. В.И. Вернадского"/>
    <tag k="tourism" v="museum"/>
  </way>
  <way id="31482148" version="5" timestamp="2011-04-20T12:57:23Z" uid="115477" user="wowik" changeset="7916018">
    <nd ref="351904572"/>
    <nd ref="351904579"/>
    <nd ref="351904581"/>
    <nd ref="351904574"/>
    <nd ref="1146881785"/>
    <nd ref="351904572"/>
    <tag k="addr:city" v="Москва"/>
    <tag k="addr:country" v="RU"/>
    <tag k="addr:housenumber" v="6"/>
    <tag k="addr:street" v="Газетный переулок"/>
    <tag k="building" v="yes"/>
    <tag k="cladr:code" v="77000000000713500"/>
  </way>
  <way id="31482149" version="4" timestamp="2011-04-20T12:59:49Z" uid="115477" user="wowik" changeset="7916018">
    <nd ref="351904584"/>
    <nd ref="351904586"/>
    <nd ref="351904593"/>
    <nd ref="351904600"/>
    <nd ref="351904607"/>
    <nd ref="351904615"/>
    <nd ref="351904623"/>
    <nd ref="351904631"/>
    <nd ref="351904584"/>
    <tag k="addr:city" v="Москва"/>
    <tag k="addr:country" v="RU"/>
    <tag k="building" v="yes"/>
    <tag k="cladr:code" v="77000000000712600"/>
    <tag k="landuse" v="commercial"/>
  </way>
  <way id="31482156" version="10" timestamp="2011-04-20T12:59:34Z" uid="115477" user="wowik" changeset="7916018">
    <nd ref="351904706"/>
    <nd ref="351904708"/>
    <nd ref="351904712"/>
    <nd ref="351904714"/>
    <nd ref="351904719"/>
    <nd ref="351904722"/>
    <nd ref="351904727"/>
    <nd ref="351904733"/>
    <nd ref="351904706"/>
    <tag k="addr:city" v="Москва"/>
    <tag k="addr:country" v="RU"/>
    <tag k="addr:housenumber" v="11 с9"/>
    <tag k="amenity" v="university"/>
    <tag k="building" v="yes"/>
    <tag k="int_name" v="MSU Faculty of Psychology"/>
    <tag k="name" v="Факультет психологии МГУ"/>
  </way>
  <way id="31482156" version="11" timestamp="2011-04-20T14:15:45Z" uid="115477" user="wowik" changeset="7916622">
    <nd ref="351904706"/>
    <nd ref="351904708"/>
    <nd ref="351904712"/>
    <nd ref="351904714"/>
    <nd ref="351904719"/>
    <nd ref="351904722"/>
    <nd ref="351904727"/>
    <nd ref="351904733"/>
    <nd ref="351904706"/>
    <tag k="addr:city" v="Москва"/>
    <tag k="addr:country" v="RU"/>
    <tag k="addr:housenumber" v="11 с9"/>
    <tag k="addr:street" v="Моховая улица"/>
    <tag k="amenity" v="university"/>
    <tag k="building" v="yes"/>
    <tag k="int_name" v="MSU Faculty of Psychology"/>
    <tag k="name" v="Факультет психологии МГУ"/>
  </way>
  <way id="31482157" version="8" timestamp="2011-04-20T12:59:42Z" uid="115477" user="wowik" changeset="7916018">
    <nd ref="351904741"/>
    <nd ref="351904747"/>
    <nd ref="351904752"/>
    <nd ref="351904758"/>
    <nd ref="351904763"/>
    <nd ref="351904770"/>
    <nd ref="351904776"/>
    <nd ref="351904782"/>
    <nd ref="351904741"/>
    <tag k="addr:city" v="Москва"/>
    <tag k="addr:country" v="RU"/>
    <tag k="addr:housenumber" v="11 с8"/>
    <tag k="building" v="yes"/>
    <tag k="cladr:code" v="77000000000191300"/>
    <tag k="name" v="Московская городская избирательная комиссия"/>
  </way>
  <way id="31482157" version="9" timestamp="2011-04-20T14:15:46Z" uid="115477" user="wowik" changeset="7916622">
    <nd ref="351904741"/>
    <nd ref="351904747"/>
    <nd ref="351904752"/>
    <nd ref="351904758"/>
    <nd ref="351904763"/>
    <nd ref="351904770"/>
    <nd ref="351904776"/>
    <nd ref="351904782"/>
    <nd ref="351904741"/>
    <tag k="addr:city" v="Москва"/>
    <tag k="addr:country" v="RU"/>
    <tag k="addr:housenumber" v="11 с8"/>
    <tag k="addr:street" v="Моховая улица"/>
    <tag k="building" v="yes"/>
    <tag k="cladr:code" v="77000000000191300"/>
    <tag k="name" v="Московская городская избирательная комиссия"/>
  </way>
  <way id="31482158" version="11" timestamp="2011-04-20T13:00:00Z" uid="115477" user="wowik" changeset="7916018">
    <nd ref="351904787"/>
    <nd ref="351904793"/>
    <nd ref="351904801"/>
    <nd ref="351904806"/>
    <nd ref="351904814"/>
    <nd ref="351904820"/>
    <nd ref="351904787"/>
    <tag k="addr:city" v="Москва"/>
    <tag k="addr:country" v="RU"/>
    <tag k="addr:housenumber" v="11 с10"/>
    <tag k="amenity" v="university"/>
    <tag k="building" v="yes"/>
    <tag k="cladr:code" v="77000000000191300"/>
    <tag k="name" v="Кафедры анатомии, гистологии, микробиологи академии им. И.М. Сеченова"/>
  </way>
  <way id="31482158" version="12" timestamp="2011-04-20T14:15:46Z" uid="115477" user="wowik" changeset="7916622">
    <nd ref="351904787"/>
    <nd ref="351904793"/>
    <nd ref="351904801"/>
    <nd ref="351904806"/>
    <nd ref="351904814"/>
    <nd ref="351904820"/>
    <nd ref="351904787"/>
    <tag k="addr:city" v="Москва"/>
    <tag k="addr:country" v="RU"/>
    <tag k="addr:housenumber" v="11 с10"/>
    <tag k="addr:street" v="Моховая улица"/>
    <tag k="amenity" v="university"/>
    <tag k="building" v="yes"/>
    <tag k="cladr:code" v="77000000000191300"/>
    <tag k="name" v="Кафедры анатомии, гистологии, микробиологи академии им. И.М. Сеченова"/>
  </way>
  <way id="31482159" version="5" timestamp="2011-04-20T12:59:29Z" uid="115477" user="wowik" changeset="7916018">
    <nd ref="351904826"/>
    <nd ref="351904829"/>
    <nd ref="351904831"/>
    <nd ref="351904834"/>
    <nd ref="351904838"/>
    <nd ref="351904840"/>
    <nd ref="351904844"/>
    <nd ref="351904846"/>
    <nd ref="351904851"/>
    <nd ref="351904854"/>
    <nd ref="351904857"/>
    <nd ref="351904862"/>
    <nd ref="351904826"/>
    <tag k="addr:city" v="Москва"/>
    <tag k="addr:country" v="RU"/>
    <tag k="amenity" v="university"/>
    <tag k="building" v="yes"/>
    <tag k="cladr:code" v="77000000000713500"/>
    <tag k="name" v="Институт Европы Российской академии наук"/>
  </way>
  <way id="31482160" version="4" timestamp="2011-04-20T12:57:28Z" uid="115477" user="wowik" changeset="7916018">
    <nd ref="351904863"/>
    <nd ref="351904867"/>
    <nd ref="351904871"/>
    <nd ref="351904875"/>
    <nd ref="351904387"/>
    <nd ref="351904400"/>
    <nd ref="351904876"/>
    <nd ref="351904879"/>
    <nd ref="351904863"/>
    <tag k="addr:city" v="Москва"/>
    <tag k="addr:country" v="RU"/>
    <tag k="addr:housenumber" v="6"/>
    <tag k="addr:street" v="Большая Никитская улица"/>
    <tag k="building" v="yes"/>
    <tag k="cladr:code" v="77000000000711100"/>
  </way>
  <way id="31482163" version="7" timestamp="2011-04-20T12:57:17Z" uid="115477" user="wowik" changeset="7916018">
    <nd ref="351904901"/>
    <nd ref="666830029"/>
    <nd ref="351904892"/>
    <nd ref="351904895"/>
    <nd ref="351904898"/>
    <nd ref="351904901"/>
    <tag k="addr:city" v="Москва"/>
    <tag k="addr:country" v="RU"/>
    <tag k="addr:housenumber" v="5"/>
    <tag k="addr:street" v="Большая Никитская улица"/>
    <tag k="building" v="yes"/>
    <tag k="building:levels" v="3"/>
    <tag k="cladr:code" v="77000000000716000"/>
  </way>
  <way id="31482164" version="4" timestamp="2011-04-20T12:57:55Z" uid="115477" user="wowik" changeset="7916018">
    <nd ref="351904925"/>
    <nd ref="351904930"/>
    <nd ref="351904932"/>
    <nd ref="351904948"/>
    <nd ref="666830034"/>
    <nd ref="666830032"/>
    <nd ref="666830030"/>
    <nd ref="351904937"/>
    <nd ref="351904941"/>
    <nd ref="351904925"/>
    <tag k="addr:city" v="Москва"/>
    <tag k="addr:country" v="RU"/>
    <tag k="addr:housenumber" v="3"/>
    <tag k="addr:street" v="Большая Никитская улица"/>
    <tag k="building" v="yes"/>
  </way>
  <way id="31482165" version="4" timestamp="2011-04-20T12:59:27Z" uid="115477" user="wowik" changeset="7916018">
    <nd ref="351904932"/>
    <nd ref="351904948"/>
    <nd ref="351904952"/>
    <nd ref="351904945"/>
    <nd ref="351904932"/>
    <tag k="addr:city" v="Москва"/>
    <tag k="addr:country" v="RU"/>
    <tag k="building" v="yes"/>
    <tag k="cladr:code" v="77000000000711100"/>
  </way>
  <way id="31482166" version="3" timestamp="2011-04-20T12:59:48Z" uid="115477" user="wowik" changeset="7916018">
    <nd ref="351904956"/>
    <nd ref="351904967"/>
    <nd ref="351904970"/>
    <nd ref="351904960"/>
    <nd ref="351904956"/>
    <tag k="addr:city" v="Москва"/>
    <tag k="addr:country" v="RU"/>
    <tag k="building" v="yes"/>
    <tag k="cladr:code" v="77000000000713500"/>
  </way>
  <way id="31482170" version="4" timestamp="2011-04-20T12:58:02Z" uid="115477" user="wowik" changeset="7916018">
    <nd ref="351905022"/>
    <nd ref="351905027"/>
    <nd ref="666830063"/>
    <nd ref="666830062"/>
    <nd ref="351905032"/>
    <nd ref="351905025"/>
    <nd ref="351905022"/>
    <tag k="addr:city" v="Москва"/>
    <tag k="addr:country" v="RU"/>
    <tag k="addr:housenumber" v="5 к2"/>
    <tag k="addr:street" v="Никитский переулок"/>
    <tag k="building" v="yes"/>
  </way>
  <way id="31482171" version="5" timestamp="2011-04-20T12:57:01Z" uid="115477" user="wowik" changeset="7916018">
    <nd ref="351905035"/>
    <nd ref="351905042"/>
    <nd ref="1161548231"/>
    <nd ref="351905218"/>
    <nd ref="351905207"/>
    <nd ref="1161548584"/>
    <nd ref="1161548477"/>
    <nd ref="351905048"/>
    <nd ref="351905040"/>
    <nd ref="351905035"/>
    <tag k="addr:city" v="Москва"/>
    <tag k="addr:country" v="RU"/>
    <tag k="addr:housenumber" v="1/12 к2 с5"/>
    <tag k="addr:street" v="Брюсов переулок"/>
    <tag k="building" v="yes"/>
    <tag k="cladr:code" v="77000000000712600"/>
  </way>
  <way id="31482173" version="4" timestamp="2011-04-20T12:57:48Z" uid="115477" user="wowik" changeset="7916018">
    <nd ref="1161652568"/>
    <nd ref="1161652626"/>
    <nd ref="351905052"/>
    <nd ref="351905055"/>
    <nd ref="351905061"/>
    <nd ref="351905064"/>
    <nd ref="351905069"/>
    <nd ref="1161652568"/>
    <tag k="addr:city" v="Москва"/>
    <tag k="addr:country" v="RU"/>
    <tag k="addr:housenumber" v="2 с8"/>
    <tag k="addr:street" v="Брюсов переулок"/>
    <tag k="building" v="yes"/>
    <tag k="cladr:code" v="77000000000703600"/>
  </way>
  <way id="31482175" version="4" timestamp="2011-04-20T12:57:29Z" uid="115477" user="wowik" changeset="7916018">
    <nd ref="351905127"/>
    <nd ref="351905134"/>
    <nd ref="351905137"/>
    <nd ref="351905142"/>
    <nd ref="351905146"/>
    <nd ref="351905153"/>
    <nd ref="351905160"/>
    <nd ref="351905166"/>
    <nd ref="351905172"/>
    <nd ref="351905127"/>
    <tag k="addr:city" v="Москва"/>
    <tag k="addr:country" v="RU"/>
    <tag k="addr:housenumber" v="16/4"/>
    <tag k="addr:housenumber2" v="4/16"/>
    <tag k="addr:street" v="Вознесенский переулок"/>
    <tag k="addr:street2" v="Елисеевский переулок"/>
    <tag k="building" v="yes"/>
    <tag k="cladr:code" v="77000000000716800"/>
  </way>
  <way id="31482176" version="6" timestamp="2011-04-20T12:57:02Z" uid="115477" user="wowik" changeset="7916018">
    <nd ref="351905178"/>
    <nd ref="351905190"/>
    <nd ref="351905194"/>
    <nd ref="351905184"/>
    <nd ref="351905178"/>
    <tag k="addr:city" v="Москва"/>
    <tag k="addr:country" v="RU"/>
    <tag k="addr:housenumber" v="4"/>
    <tag k="addr:street" v="Брюсов переулок"/>
    <tag k="building" v="yes"/>
    <tag k="cladr:code" v="77000000000703600"/>
  </way>
  <way id="31482177" version="3" timestamp="2011-04-20T12:57:13Z" uid="115477" user="wowik" changeset="7916018">
    <nd ref="351905200"/>
    <nd ref="351905212"/>
    <nd ref="351905218"/>
    <nd ref="351905207"/>
    <nd ref="351905200"/>
    <tag k="addr:city" v="Москва"/>
    <tag k="addr:country" v="RU"/>
    <tag k="addr:housenumber" v="2/14 к4"/>
    <tag k="addr:street" v="Брюсов переулок"/>
    <tag k="building" v="yes"/>
  </way>
  <way id="31482301" version="2" timestamp="2009-06-14T14:46:50Z" uid="43863" user="Rundling" changeset="1515135"/>
  <way id="31482304" version="3" timestamp="2009-06-14T14:46:50Z" uid="43863" user="Rundling" changeset="1515135">
    <nd ref="351902230"/>
    <nd ref="351907137"/>
    <nd ref="351907100"/>
    <tag k="highway" v="service"/>
  </way>
  <way id="31482365" version="5" timestamp="2009-03-08T13:19:52Z" uid="6975" user="ulfl" changeset="757880">
    <nd ref="343707744"/>
    <nd ref="343715381"/>
    <nd ref="343715379"/>
    <nd ref="343715377"/>
    <nd ref="343715375"/>
    <nd ref="343715373"/>
    <nd ref="343715371"/>
    <nd ref="343715369"/>
    <nd ref="343715368"/>
    <nd ref="343715367"/>
    <nd ref="343715366"/>
    <nd ref="343715365"/>
    <nd ref="343715364"/>
    <nd ref="343715363"/>
    <nd ref="343715362"/>
    <nd ref="343715361"/>
    <nd ref="343715360"/>
    <nd ref="343715358"/>
    <nd ref="343715357"/>
    <nd ref="343715356"/>
    <nd ref="343715354"/>
    <nd ref="343715353"/>
    <nd ref="343715351"/>
    <nd ref="343715349"/>
    <nd ref="343715348"/>
    <nd ref="343715347"/>
    <nd ref="343715346"/>
    <nd ref="343715345"/>
    <nd ref="343715344"/>
    <nd ref="343715343"/>
    <nd ref="343715342"/>
    <nd ref="343715341"/>
    <nd ref="343715339"/>
    <nd ref="343715338"/>
    <nd ref="343715337"/>
    <nd ref="343715336"/>
    <nd ref="343715335"/>
    <nd ref="343715333"/>
    <nd ref="343715332"/>
    <nd ref="343715330"/>
    <nd ref="343718982"/>
    <nd ref="343718981"/>
    <nd ref="343718980"/>
    <nd ref="343718979"/>
    <nd ref="343718978"/>
    <nd ref="343718977"/>
    <nd ref="343718976"/>
    <nd ref="343718975"/>
    <nd ref="343718974"/>
    <nd ref="343718973"/>
    <nd ref="343718972"/>
    <nd ref="343718970"/>
    <nd ref="343718969"/>
    <nd ref="343718968"/>
    <nd ref="343718967"/>
    <nd ref="343718966"/>
    <nd ref="343718965"/>
    <nd ref="343718964"/>
    <nd ref="343718963"/>
    <nd ref="343718962"/>
    <nd ref="343718961"/>
    <nd ref="343718960"/>
    <nd ref="343718959"/>
    <nd ref="343718958"/>
    <nd ref="343718957"/>
    <nd ref="343718955"/>
    <nd ref="343718954"/>
    <nd ref="343718953"/>
    <nd ref="343718952"/>
    <nd ref="343718951"/>
    <nd ref="343718950"/>
    <nd ref="343718949"/>
    <nd ref="343718948"/>
    <nd ref="343718947"/>
    <nd ref="343718946"/>
    <nd ref="343718945"/>
    <nd ref="343718944"/>
    <nd ref="343718943"/>
    <nd ref="343718941"/>
    <nd ref="343718940"/>
    <nd ref="343718939"/>
    <nd ref="343718938"/>
    <nd ref="343718937"/>
    <nd ref="343718936"/>
    <nd ref="343718935"/>
    <nd ref="343718934"/>
    <nd ref="343718933"/>
    <nd ref="343718932"/>
    <nd ref="343718931"/>
    <nd ref="343718930"/>
    <nd ref="343718929"/>
    <nd ref="343718928"/>
    <nd ref="343718927"/>
    <nd ref="343718926"/>
    <nd ref="343718924"/>
    <nd ref="343718923"/>
    <nd ref="343718922"/>
    <nd ref="343718921"/>
    <nd ref="343718920"/>
    <nd ref="343718919"/>
    <nd ref="343718918"/>
    <nd ref="343718917"/>
    <nd ref="343718916"/>
    <nd ref="343718915"/>
    <nd ref="343718913"/>
    <nd ref="343718912"/>
    <nd ref="343718911"/>
    <nd ref="343718910"/>
    <nd ref="343718909"/>
    <nd ref="343718908"/>
    <nd ref="343718907"/>
    <nd ref="343718906"/>
    <nd ref="343718905"/>
    <nd ref="343718904"/>
    <nd ref="343718903"/>
    <nd ref="343718902"/>
    <nd ref="343718901"/>
    <nd ref="343718900"/>
    <nd ref="343718899"/>
    <nd ref="343718897"/>
    <nd ref="343718896"/>
    <nd ref="343718895"/>
    <nd ref="343718894"/>
    <nd ref="343718893"/>
    <nd ref="343718892"/>
    <nd ref="343718891"/>
    <nd ref="343718890"/>
    <nd ref="343718889"/>
    <nd ref="343718888"/>
    <nd ref="343718887"/>
    <nd ref="343718885"/>
    <nd ref="343718884"/>
    <nd ref="343718882"/>
    <nd ref="343718880"/>
    <nd ref="343718877"/>
    <nd ref="343718875"/>
    <nd ref="343718871"/>
    <nd ref="343718869"/>
    <nd ref="343718866"/>
    <nd ref="343718864"/>
    <nd ref="343718862"/>
    <nd ref="343718860"/>
    <nd ref="343718857"/>
    <nd ref="343718855"/>
    <nd ref="343718853"/>
    <nd ref="343718851"/>
    <nd ref="343718848"/>
    <nd ref="343718846"/>
    <nd ref="343718844"/>
    <nd ref="343718842"/>
    <nd ref="343718840"/>
    <nd ref="343718838"/>
    <nd ref="343718836"/>
    <nd ref="343718834"/>
    <nd ref="343718832"/>
    <nd ref="343715535"/>
    <nd ref="351908212"/>
    <nd ref="351908214"/>
    <nd ref="351908216"/>
    <nd ref="351908217"/>
    <nd ref="351908219"/>
    <nd ref="351908221"/>
    <nd ref="351908222"/>
    <nd ref="351908223"/>
    <nd ref="351908224"/>
    <nd ref="351908225"/>
    <nd ref="351908227"/>
    <nd ref="351908228"/>
    <nd ref="351908229"/>
    <nd ref="351908230"/>
    <nd ref="351908232"/>
    <nd ref="351908233"/>
    <nd ref="351908235"/>
    <nd ref="351908236"/>
    <nd ref="351908238"/>
    <nd ref="351908240"/>
    <nd ref="351908241"/>
    <nd ref="351908242"/>
    <nd ref="351908244"/>
    <nd ref="351908247"/>
    <nd ref="351908249"/>
    <nd ref="351908253"/>
    <nd ref="351908255"/>
    <nd ref="351908257"/>
    <nd ref="351908258"/>
    <nd ref="351908261"/>
    <nd ref="351908263"/>
    <nd ref="351908265"/>
    <nd ref="351908267"/>
    <nd ref="351908268"/>
    <nd ref="351908270"/>
    <nd ref="351908271"/>
    <nd ref="351908272"/>
    <nd ref="351908273"/>
    <nd ref="351908274"/>
    <nd ref="351908275"/>
    <nd ref="351908277"/>
    <nd ref="351908280"/>
    <nd ref="351908282"/>
    <nd ref="351908283"/>
    <nd ref="351908284"/>
    <nd ref="351908285"/>
    <nd ref="351908286"/>
    <nd ref="351908287"/>
    <nd ref="351908288"/>
    <nd ref="351908289"/>
    <nd ref="351908293"/>
    <nd ref="351908294"/>
    <nd ref="351908295"/>
    <nd ref="351908297"/>
    <nd ref="351908300"/>
    <nd ref="351908301"/>
    <nd ref="351908302"/>
    <nd ref="351908304"/>
    <nd ref="351908307"/>
    <nd ref="351908309"/>
    <nd ref="351908310"/>
    <nd ref="351908314"/>
    <nd ref="351908315"/>
    <nd ref="351908317"/>
    <nd ref="351908319"/>
    <nd ref="351908320"/>
    <nd ref="351908321"/>
    <nd ref="351908323"/>
    <nd ref="351908325"/>
    <nd ref="351908327"/>
    <nd ref="351908328"/>
    <nd ref="351908331"/>
    <nd ref="351908332"/>
    <nd ref="351908334"/>
    <nd ref="351908336"/>
    <nd ref="351908338"/>
    <nd ref="351908339"/>
    <nd ref="351908343"/>
    <nd ref="351908344"/>
    <nd ref="351908346"/>
    <nd ref="351908347"/>
    <nd ref="351908349"/>
    <nd ref="351908352"/>
    <nd ref="351908353"/>
    <nd ref="351908355"/>
    <nd ref="351908357"/>
    <nd ref="351908358"/>
    <nd ref="351908360"/>
    <nd ref="351908362"/>
    <nd ref="351908364"/>
    <nd ref="351908367"/>
    <nd ref="351908368"/>
    <nd ref="351908370"/>
    <nd ref="351908373"/>
    <nd ref="351908376"/>
    <nd ref="351908377"/>
    <nd ref="351908380"/>
    <nd ref="351908381"/>
    <nd ref="351908383"/>
    <nd ref="351908384"/>
    <nd ref="351908387"/>
    <nd ref="351908390"/>
    <nd ref="351908391"/>
    <nd ref="351908394"/>
    <nd ref="351908395"/>
    <nd ref="351908397"/>
    <nd ref="351908400"/>
    <nd ref="351908401"/>
    <nd ref="351908404"/>
    <nd ref="351908405"/>
    <nd ref="351908406"/>
    <nd ref="351908409"/>
    <nd ref="351908410"/>
    <nd ref="351908411"/>
    <nd ref="351908414"/>
    <nd ref="351908415"/>
    <nd ref="351908419"/>
    <nd ref="351908420"/>
    <nd ref="351908422"/>
    <nd ref="347080894"/>
    <nd ref="347080895"/>
    <nd ref="347080896"/>
    <nd ref="347080899"/>
    <nd ref="347080900"/>
    <nd ref="347080901"/>
    <nd ref="347080902"/>
    <nd ref="347080903"/>
    <nd ref="347080904"/>
    <nd ref="347080907"/>
    <nd ref="347080908"/>
    <nd ref="347080909"/>
    <nd ref="347080910"/>
    <nd ref="347080911"/>
    <nd ref="347080913"/>
    <nd ref="347080915"/>
    <nd ref="347080916"/>
    <nd ref="347080917"/>
    <nd ref="347080918"/>
    <nd ref="347080919"/>
    <nd ref="347080921"/>
    <nd ref="347080923"/>
    <nd ref="347080924"/>
    <nd ref="347080925"/>
    <nd ref="347080926"/>
    <nd ref="347080927"/>
    <nd ref="347080928"/>
    <nd ref="347080929"/>
    <nd ref="347080930"/>
    <nd ref="347080931"/>
    <nd ref="347080932"/>
    <nd ref="347080933"/>
    <nd ref="347080934"/>
    <nd ref="347080935"/>
    <nd ref="347080936"/>
    <nd ref="347080937"/>
    <nd ref="347080938"/>
    <nd ref="347080939"/>
    <nd ref="347080940"/>
    <nd ref="347080941"/>
    <nd ref="347080942"/>
    <nd ref="347080943"/>
    <nd ref="347080944"/>
    <nd ref="347080945"/>
    <nd ref="347080946"/>
    <nd ref="347080947"/>
    <nd ref="347080948"/>
    <nd ref="347080949"/>
    <nd ref="347080950"/>
    <nd ref="347080951"/>
    <nd ref="347080952"/>
    <nd ref="347080953"/>
    <nd ref="347080954"/>
    <nd ref="347080955"/>
    <nd ref="347080958"/>
    <nd ref="347080959"/>
    <nd ref="347080960"/>
    <nd ref="347080962"/>
    <nd ref="347080964"/>
    <nd ref="347080965"/>
    <nd ref="347080966"/>
    <nd ref="347080968"/>
    <nd ref="347080970"/>
    <nd ref="347080971"/>
    <nd ref="347080972"/>
    <nd ref="347080973"/>
    <nd ref="347080974"/>
    <nd ref="347080976"/>
    <nd ref="347080978"/>
    <nd ref="347080979"/>
    <nd ref="347080980"/>
    <nd ref="347080981"/>
    <nd ref="347080982"/>
    <nd ref="347080985"/>
    <nd ref="347080986"/>
    <nd ref="347080987"/>
    <nd ref="347080988"/>
    <nd ref="347080989"/>
    <nd ref="347080992"/>
    <nd ref="347080993"/>
    <nd ref="347080994"/>
    <nd ref="347080995"/>
    <nd ref="347080996"/>
    <nd ref="347080997"/>
    <nd ref="347080999"/>
    <nd ref="347081000"/>
    <nd ref="347081001"/>
    <nd ref="347081003"/>
    <nd ref="350493813"/>
    <tag k="access" v="permissive"/>
    <tag k="alt_name" v="Burbank power and Light Road"/>
    <tag k="bicycle" v="yes"/>
    <tag k="foot" v="yes"/>
    <tag k="highway" v="track"/>
    <tag k="loc_name" v="BPL Road"/>
    <tag k="name" v="4N35"/>
    <tag k="ohv" v="no"/>
    <tag k="ref" v="4N35"/>
    <tag k="smoothmess" v="horrible"/>
    <tag k="surface" v="unpaved"/>
    <tag k="tracktype" v="grade3"/>
  </way>
  <way id="31482403" version="1" timestamp="2009-02-24T21:01:55Z" uid="67142" user="zottel" changeset="657223">
    <nd ref="351907772"/>
    <nd ref="351907776"/>
    <nd ref="351907782"/>
    <nd ref="351907787"/>
    <nd ref="351907772"/>
    <tag k="building" v="yes"/>
    <tag k="source" v="DOP_LVA_BY_01"/>
  </way>
  <way id="31482405" version="1" timestamp="2009-02-24T21:01:55Z" uid="67142" user="zottel" changeset="657223">
    <nd ref="351907797"/>
    <nd ref="351907802"/>
    <nd ref="351907810"/>
    <nd ref="351907813"/>
    <nd ref="351907797"/>
    <tag k="building" v="yes"/>
    <tag k="source" v="DOP_LVA_BY_01"/>
  </way>
  <way id="31482406" version="1" timestamp="2009-02-24T21:01:56Z" uid="67142" user="zottel" changeset="657223">
    <nd ref="351907820"/>
    <nd ref="351907826"/>
    <nd ref="351907828"/>
    <nd ref="351907829"/>
    <nd ref="351907831"/>
    <nd ref="351907833"/>
    <nd ref="351907820"/>
    <tag k="building" v="yes"/>
    <tag k="source" v="DOP_LVA_BY_01"/>
  </way>
  <way id="31482408" version="1" timestamp="2009-02-24T21:01:56Z" uid="67142" user="zottel" changeset="657223">
    <nd ref="351907835"/>
    <nd ref="351907836"/>
    <nd ref="351907838"/>
    <nd ref="351907840"/>
    <nd ref="351907835"/>
    <tag k="building" v="yes"/>
    <tag k="source" v="DOP_LVA_BY_01"/>
  </way>
  <way id="31482411" version="1" timestamp="2009-02-24T21:01:56Z" uid="67142" user="zottel" changeset="657223">
    <nd ref="351907841"/>
    <nd ref="351907845"/>
    <nd ref="351907848"/>
    <nd ref="351907850"/>
    <nd ref="351907841"/>
    <tag k="building" v="yes"/>
    <tag k="source" v="DOP_LVA_BY_01"/>
  </way>
  <way id="31482412" version="1" timestamp="2009-02-24T21:01:57Z" uid="67142" user="zottel" changeset="657223">
    <nd ref="351907852"/>
    <nd ref="351907855"/>
    <nd ref="351907858"/>
    <nd ref="351907861"/>
    <nd ref="351907852"/>
    <tag k="building" v="yes"/>
    <tag k="source" v="DOP_LVA_BY_01"/>
  </way>
  <way id="31482415" version="1" timestamp="2009-02-24T21:01:59Z" uid="67142" user="zottel" changeset="657223">
    <nd ref="351907863"/>
    <nd ref="351907865"/>
    <nd ref="351907866"/>
    <nd ref="351907868"/>
    <nd ref="351907870"/>
    <nd ref="351907871"/>
    <nd ref="351907863"/>
    <tag k="building" v="yes"/>
    <tag k="source" v="DOP_LVA_BY_01"/>
  </way>
  <way id="31482417" version="1" timestamp="2009-02-24T21:02:00Z" uid="67142" user="zottel" changeset="657223">
    <nd ref="351907873"/>
    <nd ref="351907876"/>
    <nd ref="351907878"/>
    <nd ref="351907880"/>
    <nd ref="351907881"/>
    <nd ref="351907885"/>
    <nd ref="351907873"/>
    <tag k="building" v="yes"/>
    <tag k="source" v="DOP_LVA_BY_01"/>
  </way>
  <way id="31482418" version="1" timestamp="2009-02-24T21:02:00Z" uid="67142" user="zottel" changeset="657223">
    <nd ref="351907887"/>
    <nd ref="351907890"/>
    <nd ref="351907893"/>
    <nd ref="351907904"/>
    <nd ref="351907887"/>
    <tag k="building" v="yes"/>
  </way>
  <way id="31482420" version="1" timestamp="2009-02-24T21:02:00Z" uid="67142" user="zottel" changeset="657223">
    <nd ref="351907911"/>
    <nd ref="351907912"/>
    <nd ref="351907915"/>
    <nd ref="351907917"/>
    <nd ref="351907911"/>
    <tag k="building" v="yes"/>
    <tag k="source" v="DOP_LVA_BY_01"/>
  </way>
  <way id="31482422" version="1" timestamp="2009-02-24T21:02:01Z" uid="67142" user="zottel" changeset="657223">
    <nd ref="351907924"/>
    <nd ref="351907926"/>
    <nd ref="351907930"/>
    <nd ref="351907933"/>
    <nd ref="351907924"/>
    <tag k="building" v="yes"/>
    <tag k="source" v="DOP_LVA_BY_01"/>
  </way>
  <way id="31482423" version="1" timestamp="2009-02-24T21:02:01Z" uid="67142" user="zottel" changeset="657223">
    <nd ref="351907935"/>
    <nd ref="351907938"/>
    <nd ref="351907940"/>
    <nd ref="351907967"/>
    <nd ref="351907935"/>
    <tag k="building" v="yes"/>
    <tag k="source" v="DOP_LVA_BY_01"/>
  </way>
  <way id="31482425" version="1" timestamp="2009-02-24T21:02:02Z" uid="67142" user="zottel" changeset="657223">
    <nd ref="351907969"/>
    <nd ref="351907970"/>
    <nd ref="351907972"/>
    <nd ref="351907973"/>
    <nd ref="351908197"/>
    <nd ref="351908195"/>
    <nd ref="351907969"/>
    <tag k="building" v="yes"/>
    <tag k="source" v="DOP_LVA_BY_01"/>
  </way>
  <way id="31482426" version="1" timestamp="2009-02-24T21:02:02Z" uid="67142" user="zottel" changeset="657223">
    <nd ref="351907975"/>
    <nd ref="351907976"/>
    <nd ref="351907978"/>
    <nd ref="351907979"/>
    <nd ref="351907975"/>
    <tag k="building" v="yes"/>
    <tag k="source" v="DOP_LVA_BY_01"/>
  </way>
  <way id="31482428" version="1" timestamp="2009-02-24T21:02:02Z" uid="67142" user="zottel" changeset="657223">
    <nd ref="351907981"/>
    <nd ref="351907982"/>
    <nd ref="351908003"/>
    <nd ref="351908004"/>
    <nd ref="351907981"/>
    <tag k="building" v="yes"/>
    <tag k="source" v="DOP_LVA_BY_01"/>
  </way>
  <way id="31482429" version="1" timestamp="2009-02-24T21:02:03Z" uid="67142" user="zottel" changeset="657223">
    <nd ref="351908009"/>
    <nd ref="351908011"/>
    <nd ref="351908019"/>
    <nd ref="351908026"/>
    <nd ref="351908009"/>
    <tag k="building" v="yes"/>
    <tag k="source" v="DOP_LVA_BY_01"/>
  </way>
  <way id="31482431" version="1" timestamp="2009-02-24T21:02:03Z" uid="67142" user="zottel" changeset="657223">
    <nd ref="351908028"/>
    <nd ref="351908029"/>
    <nd ref="351908031"/>
    <nd ref="351908032"/>
    <nd ref="351908028"/>
    <tag k="building" v="yes"/>
    <tag k="source" v="DOP_LVA_BY_01"/>
  </way>
  <way id="31482432" version="1" timestamp="2009-02-24T21:02:03Z" uid="67142" user="zottel" changeset="657223">
    <nd ref="351908034"/>
    <nd ref="351908036"/>
    <nd ref="351908038"/>
    <nd ref="351908041"/>
    <nd ref="351908034"/>
    <tag k="building" v="yes"/>
    <tag k="source" v="DOP_LVA_BY_01"/>
  </way>
  <way id="31482434" version="1" timestamp="2009-02-24T21:02:04Z" uid="67142" user="zottel" changeset="657223">
    <nd ref="351908043"/>
    <nd ref="351908038"/>
    <nd ref="351908045"/>
    <nd ref="351908050"/>
    <nd ref="351908043"/>
    <tag k="building" v="yes"/>
    <tag k="source" v="DOP_LVA_BY_01"/>
  </way>
  <way id="31482435" version="1" timestamp="2009-02-24T21:02:04Z" uid="67142" user="zottel" changeset="657223">
    <nd ref="351908057"/>
    <nd ref="351908059"/>
    <nd ref="351908060"/>
    <nd ref="351908062"/>
    <nd ref="351908057"/>
    <tag k="building" v="yes"/>
    <tag k="source" v="DOP_LVA_BY_01"/>
  </way>
  <way id="31482437" version="1" timestamp="2009-02-24T21:02:05Z" uid="67142" user="zottel" changeset="657223">
    <nd ref="351908075"/>
    <nd ref="351908077"/>
    <nd ref="351908078"/>
    <nd ref="351908099"/>
    <nd ref="351908085"/>
    <nd ref="351908117"/>
    <nd ref="351908075"/>
    <tag k="building" v="yes"/>
    <tag k="source" v="DOP_LVA_BY_01"/>
  </way>
  <way id="31482439" version="1" timestamp="2009-02-24T21:02:05Z" uid="67142" user="zottel" changeset="657223">
    <nd ref="351908135"/>
    <nd ref="351908147"/>
    <nd ref="351908156"/>
    <nd ref="351908163"/>
    <nd ref="351908135"/>
    <tag k="building" v="yes"/>
    <tag k="source" v="DOP_LVA_BY_01"/>
  </way>
  <way id="31482440" version="1" timestamp="2009-02-24T21:02:06Z" uid="67142" user="zottel" changeset="657223">
    <nd ref="351908173"/>
    <nd ref="351908184"/>
    <nd ref="351908191"/>
    <nd ref="351908194"/>
    <nd ref="351908173"/>
    <tag k="building" v="yes"/>
    <tag k="source" v="DOP_LVA_BY_01"/>
  </way>
  <way id="31482442" version="1" timestamp="2009-02-24T21:02:06Z" uid="67142" user="zottel" changeset="657223">
    <nd ref="351908198"/>
    <nd ref="351908206"/>
    <nd ref="351908209"/>
    <nd ref="351908211"/>
    <nd ref="351908215"/>
    <nd ref="351908218"/>
    <nd ref="351908243"/>
    <nd ref="351908246"/>
    <nd ref="351908198"/>
    <tag k="building" v="yes"/>
    <tag k="source" v="DOP_LVA_BY_01"/>
  </way>
  <way id="31482444" version="1" timestamp="2009-02-24T21:02:06Z" uid="67142" user="zottel" changeset="657223">
    <nd ref="351908250"/>
    <nd ref="351908256"/>
    <nd ref="351908260"/>
    <nd ref="351908262"/>
    <nd ref="351908250"/>
    <tag k="building" v="yes"/>
    <tag k="source" v="DOP_LVA_BY_01"/>
  </way>
  <way id="31482445" version="1" timestamp="2009-02-24T21:02:07Z" uid="67142" user="zottel" changeset="657223">
    <nd ref="351908266"/>
    <nd ref="351908292"/>
    <nd ref="351908298"/>
    <nd ref="351908306"/>
    <nd ref="351908311"/>
    <nd ref="351908316"/>
    <nd ref="351908324"/>
    <nd ref="351908329"/>
    <nd ref="351908337"/>
    <nd ref="351908342"/>
    <nd ref="351908348"/>
    <nd ref="351908354"/>
    <nd ref="351908266"/>
    <tag k="building" v="yes"/>
    <tag k="source" v="DOP_LVA_BY_01"/>
  </way>
  <way id="31482447" version="1" timestamp="2009-02-24T21:02:07Z" uid="67142" user="zottel" changeset="657223">
    <nd ref="351908359"/>
    <nd ref="351908365"/>
    <nd ref="351908371"/>
    <nd ref="351908412"/>
    <nd ref="351908359"/>
    <tag k="building" v="yes"/>
    <tag k="source" v="DOP_LVA_BY_01"/>
  </way>
  <way id="31482449" version="1" timestamp="2009-02-24T21:02:08Z" uid="67142" user="zottel" changeset="657223">
    <nd ref="351908416"/>
    <nd ref="351908421"/>
    <nd ref="351908425"/>
    <nd ref="351908429"/>
    <nd ref="351908432"/>
    <nd ref="351908435"/>
    <nd ref="351908439"/>
    <nd ref="351908451"/>
    <nd ref="351908416"/>
    <tag k="building" v="yes"/>
    <tag k="source" v="DOP_LVA_BY_01"/>
  </way>
  <way id="31482450" version="1" timestamp="2009-02-24T21:02:08Z" uid="67142" user="zottel" changeset="657223">
    <nd ref="351908454"/>
    <nd ref="351908456"/>
    <nd ref="351908459"/>
    <nd ref="351908461"/>
    <nd ref="351908454"/>
    <tag k="building" v="yes"/>
    <tag k="source" v="DOP_LVA_BY_01"/>
  </way>
  <way id="31482452" version="1" timestamp="2009-02-24T21:02:09Z" uid="67142" user="zottel" changeset="657223">
    <nd ref="351908483"/>
    <nd ref="351908487"/>
    <nd ref="351908494"/>
    <nd ref="351908500"/>
    <nd ref="351908483"/>
    <tag k="building" v="yes"/>
    <tag k="source" v="DOP_LVA_BY_01"/>
  </way>
  <way id="31482453" version="1" timestamp="2009-02-24T21:02:09Z" uid="67142" user="zottel" changeset="657223">
    <nd ref="351908506"/>
    <nd ref="351908508"/>
    <nd ref="351908511"/>
    <nd ref="351908514"/>
    <nd ref="351908506"/>
    <tag k="building" v="yes"/>
    <tag k="source" v="DOP_LVA_BY_01"/>
  </way>
  <way id="31482455" version="1" timestamp="2009-02-24T21:02:09Z" uid="67142" user="zottel" changeset="657223">
    <nd ref="351908516"/>
    <nd ref="351908519"/>
    <nd ref="351908521"/>
    <nd ref="351908524"/>
    <nd ref="351908516"/>
    <tag k="building" v="yes"/>
    <tag k="source" v="DOP_LVA_BY_01"/>
  </way>
  <way id="31482456" version="1" timestamp="2009-02-24T21:02:10Z" uid="67142" user="zottel" changeset="657223">
    <nd ref="351908532"/>
    <nd ref="351908534"/>
    <nd ref="351908537"/>
    <nd ref="351908539"/>
    <nd ref="351908532"/>
    <tag k="building" v="yes"/>
    <tag k="source" v="DOP_LVA_BY_01"/>
  </way>
  <way id="31482458" version="1" timestamp="2009-02-24T21:02:10Z" uid="67142" user="zottel" changeset="657223">
    <nd ref="351908542"/>
    <nd ref="351908544"/>
    <nd ref="351908547"/>
    <nd ref="351908550"/>
    <nd ref="351908542"/>
    <tag k="building" v="yes"/>
    <tag k="source" v="DOP_LVA_BY_01"/>
  </way>
  <way id="31482459" version="1" timestamp="2009-02-24T21:02:10Z" uid="67142" user="zottel" changeset="657223">
    <nd ref="351908553"/>
    <nd ref="351908555"/>
    <nd ref="351908570"/>
    <nd ref="351908572"/>
    <nd ref="351908553"/>
    <tag k="building" v="yes"/>
    <tag k="source" v="DOP_LVA_BY_01"/>
  </way>
  <way id="31482461" version="1" timestamp="2009-02-24T21:02:11Z" uid="67142" user="zottel" changeset="657223">
    <nd ref="351908573"/>
    <nd ref="351908575"/>
    <nd ref="351908576"/>
    <nd ref="351908578"/>
    <nd ref="351908573"/>
    <tag k="building" v="yes"/>
    <tag k="source" v="DOP_LVA_BY_01"/>
  </way>
  <way id="31482463" version="1" timestamp="2009-02-24T21:02:11Z" uid="67142" user="zottel" changeset="657223">
    <nd ref="351908579"/>
    <nd ref="351908581"/>
    <nd ref="351908582"/>
    <nd ref="351908584"/>
    <nd ref="351908585"/>
    <nd ref="351908587"/>
    <nd ref="351908588"/>
    <nd ref="351908590"/>
    <nd ref="351908596"/>
    <nd ref="351908600"/>
    <nd ref="351908610"/>
    <nd ref="351908618"/>
    <nd ref="351908579"/>
    <tag k="building" v="yes"/>
    <tag k="source" v="DOP_LVA_BY_01"/>
  </way>
  <way id="31482464" version="1" timestamp="2009-02-24T21:02:12Z" uid="67142" user="zottel" changeset="657223">
    <nd ref="351908630"/>
    <nd ref="351908638"/>
    <nd ref="351908645"/>
    <nd ref="351908703"/>
    <nd ref="351908708"/>
    <nd ref="351908651"/>
    <nd ref="351908630"/>
    <tag k="building" v="yes"/>
    <tag k="source" v="DOP_LVA_BY_01"/>
  </way>
  <way id="31482466" version="1" timestamp="2009-02-24T21:02:12Z" uid="67142" user="zottel" changeset="657223">
    <nd ref="351908656"/>
    <nd ref="351908661"/>
    <nd ref="351908665"/>
    <nd ref="351908671"/>
    <nd ref="351908676"/>
    <nd ref="351908696"/>
    <nd ref="351908656"/>
    <tag k="building" v="yes"/>
    <tag k="source" v="DOP_LVA_BY_01"/>
  </way>
  <way id="31482468" version="1" timestamp="2009-02-24T21:02:13Z" uid="67142" user="zottel" changeset="657223">
    <nd ref="351908683"/>
    <nd ref="351908689"/>
    <nd ref="351908696"/>
    <nd ref="351908656"/>
    <nd ref="351908703"/>
    <nd ref="351908708"/>
    <nd ref="351908683"/>
    <tag k="building" v="yes"/>
    <tag k="source" v="DOP_LVA_BY_01"/>
  </way>
  <way id="31482470" version="1" timestamp="2009-02-24T21:02:14Z" uid="67142" user="zottel" changeset="657223">
    <nd ref="351908724"/>
    <nd ref="351908726"/>
    <nd ref="351908728"/>
    <nd ref="351908729"/>
    <nd ref="351908731"/>
    <nd ref="351908736"/>
    <nd ref="351908724"/>
    <tag k="building" v="yes"/>
    <tag k="source" v="DOP_LVA_BY_01"/>
  </way>
  <way id="31482472" version="1" timestamp="2009-02-24T21:02:14Z" uid="67142" user="zottel" changeset="657223">
    <nd ref="351908737"/>
    <nd ref="351908739"/>
    <nd ref="351908740"/>
    <nd ref="351908742"/>
    <nd ref="351908745"/>
    <nd ref="351908750"/>
    <nd ref="351908737"/>
    <tag k="building" v="yes"/>
    <tag k="source" v="DOP_LVA_BY_01"/>
  </way>
  <way id="31482473" version="1" timestamp="2009-02-24T21:02:15Z" uid="67142" user="zottel" changeset="657223">
    <nd ref="351908762"/>
    <nd ref="351908763"/>
    <nd ref="351908765"/>
    <nd ref="351908769"/>
    <nd ref="351908770"/>
    <nd ref="351908774"/>
    <nd ref="351908762"/>
    <tag k="building" v="yes"/>
    <tag k="source" v="DOP_LVA_BY_01"/>
  </way>
  <way id="31482476" version="1" timestamp="2009-02-24T21:02:16Z" uid="67142" user="zottel" changeset="657223">
    <nd ref="351908789"/>
    <nd ref="351908791"/>
    <nd ref="351908795"/>
    <nd ref="351908796"/>
    <nd ref="351908798"/>
    <nd ref="351908799"/>
    <nd ref="351908810"/>
    <nd ref="351908811"/>
    <nd ref="351908789"/>
    <tag k="building" v="yes"/>
    <tag k="source" v="DOP_LVA_BY_01"/>
  </way>
  <way id="31482478" version="1" timestamp="2009-02-24T21:02:16Z" uid="67142" user="zottel" changeset="657223">
    <nd ref="351908813"/>
    <nd ref="351908814"/>
    <nd ref="351908816"/>
    <nd ref="351908818"/>
    <nd ref="351908813"/>
    <tag k="building" v="yes"/>
    <tag k="source" v="DOP_LVA_BY_01"/>
  </way>
  <way id="31482480" version="1" timestamp="2009-02-24T21:02:17Z" uid="67142" user="zottel" changeset="657223">
    <nd ref="351908820"/>
    <nd ref="351908828"/>
    <nd ref="351908830"/>
    <nd ref="351908834"/>
    <nd ref="351908836"/>
    <nd ref="351908837"/>
    <nd ref="351908841"/>
    <nd ref="351908844"/>
    <nd ref="351908820"/>
    <tag k="building" v="yes"/>
    <tag k="source" v="DOP_LVA_BY_01"/>
  </way>
  <way id="31482481" version="1" timestamp="2009-02-24T21:02:17Z" uid="67142" user="zottel" changeset="657223">
    <nd ref="351908847"/>
    <nd ref="351908850"/>
    <nd ref="351908853"/>
    <nd ref="351908863"/>
    <nd ref="351908847"/>
    <tag k="building" v="yes"/>
    <tag k="source" v="DOP_LVA_BY_01"/>
  </way>
  <way id="31482483" version="1" timestamp="2009-02-24T21:02:17Z" uid="67142" user="zottel" changeset="657223">
    <nd ref="351908865"/>
    <nd ref="351908866"/>
    <nd ref="351908868"/>
    <nd ref="351908870"/>
    <nd ref="351908865"/>
    <tag k="building" v="yes"/>
    <tag k="source" v="DOP_LVA_BY_01"/>
  </way>
  <way id="31482484" version="1" timestamp="2009-02-24T21:02:18Z" uid="67142" user="zottel" changeset="657223">
    <nd ref="351908871"/>
    <nd ref="351908873"/>
    <nd ref="351908875"/>
    <nd ref="351908886"/>
    <nd ref="351908871"/>
    <tag k="building" v="yes"/>
    <tag k="source" v="DOP_LVA_BY_01"/>
  </way>
  <way id="31482486" version="1" timestamp="2009-02-24T21:02:18Z" uid="67142" user="zottel" changeset="657223">
    <nd ref="351908890"/>
    <nd ref="351908892"/>
    <nd ref="351908893"/>
    <nd ref="351908895"/>
    <nd ref="351908890"/>
    <tag k="building" v="yes"/>
    <tag k="source" v="DOP_LVA_BY_01"/>
  </way>
  <way id="31482487" version="1" timestamp="2009-02-24T21:02:20Z" uid="67142" user="zottel" changeset="657223">
    <nd ref="351908901"/>
    <nd ref="351908902"/>
    <nd ref="351908904"/>
    <nd ref="351908905"/>
    <nd ref="351908901"/>
    <tag k="building" v="yes"/>
    <tag k="source" v="DOP_LVA_BY_01"/>
  </way>
  <way id="31482489" version="1" timestamp="2009-02-24T21:02:20Z" uid="67142" user="zottel" changeset="657223">
    <nd ref="351908907"/>
    <nd ref="351908926"/>
    <nd ref="351908965"/>
    <nd ref="351908966"/>
    <nd ref="351908968"/>
    <nd ref="351908969"/>
    <nd ref="351908971"/>
    <nd ref="351908973"/>
    <nd ref="351908907"/>
    <tag k="building" v="yes"/>
    <tag k="source" v="DOP_LVA_BY_01"/>
  </way>
  <way id="31482490" version="1" timestamp="2009-02-24T21:02:20Z" uid="67142" user="zottel" changeset="657223">
    <nd ref="351908976"/>
    <nd ref="351908978"/>
    <nd ref="351908979"/>
    <nd ref="351908981"/>
    <nd ref="351908982"/>
    <nd ref="351908983"/>
    <nd ref="351908976"/>
    <tag k="building" v="yes"/>
    <tag k="source" v="DOP_LVA_BY_01"/>
  </way>
  <way id="31482492" version="1" timestamp="2009-02-24T21:02:21Z" uid="67142" user="zottel" changeset="657223">
    <nd ref="351908984"/>
    <nd ref="351908985"/>
    <nd ref="351908986"/>
    <nd ref="351908987"/>
    <nd ref="351908984"/>
    <tag k="building" v="yes"/>
    <tag k="source" v="DOP_LVA_BY_01"/>
  </way>
  <way id="31482494" version="1" timestamp="2009-02-24T21:02:21Z" uid="67142" user="zottel" changeset="657223">
    <nd ref="351908989"/>
    <nd ref="351908990"/>
    <nd ref="351908991"/>
    <nd ref="351908992"/>
    <nd ref="351908997"/>
    <nd ref="351909002"/>
    <nd ref="351908989"/>
    <tag k="building" v="yes"/>
    <tag k="source" v="DOP_LVA_BY_01"/>
  </way>
  <way id="31482496" version="1" timestamp="2009-02-24T21:02:22Z" uid="67142" user="zottel" changeset="657223">
    <nd ref="351909005"/>
    <nd ref="351909007"/>
    <nd ref="351909008"/>
    <nd ref="351909009"/>
    <nd ref="351909010"/>
    <nd ref="351909011"/>
    <nd ref="351909013"/>
    <nd ref="351909017"/>
    <nd ref="351909005"/>
    <tag k="building" v="yes"/>
    <tag k="source" v="DOP_LVA_BY_01"/>
  </way>
  <way id="31482497" version="1" timestamp="2009-02-24T21:02:22Z" uid="67142" user="zottel" changeset="657223">
    <nd ref="351909021"/>
    <nd ref="351909022"/>
    <nd ref="351909023"/>
    <nd ref="351909024"/>
    <nd ref="351909021"/>
    <tag k="building" v="yes"/>
    <tag k="source" v="DOP_LVA_BY_01"/>
  </way>
  <way id="31482611" version="2" timestamp="2009-10-22T21:56:19Z" uid="36809" user="pfoten_weg_!_" changeset="2925817">
    <nd ref="320497769"/>
    <nd ref="351910190"/>
    <nd ref="351910192"/>
    <nd ref="351910196"/>
    <nd ref="351910199"/>
    <nd ref="351910202"/>
    <nd ref="351910206"/>
    <nd ref="351910210"/>
    <nd ref="351910215"/>
    <nd ref="351910221"/>
    <nd ref="351910224"/>
    <nd ref="351910228"/>
    <nd ref="351910234"/>
    <nd ref="351910241"/>
    <nd ref="351910246"/>
    <nd ref="351910249"/>
    <nd ref="351910253"/>
    <tag k="highway" v="unclassified"/>
    <tag k="oneway" v="no"/>
  </way>
  <way id="31482612" version="5" timestamp="2009-10-22T21:56:23Z" uid="36809" user="pfoten_weg_!_" changeset="2925817">
    <nd ref="351910253"/>
    <nd ref="278535726"/>
    <nd ref="278535727"/>
    <nd ref="278535728"/>
    <nd ref="278535729"/>
    <nd ref="278535730"/>
    <nd ref="278535731"/>
    <nd ref="351913749"/>
    <nd ref="351913748"/>
    <nd ref="351913745"/>
    <nd ref="351913743"/>
    <nd ref="351913741"/>
    <nd ref="351913738"/>
    <nd ref="351913734"/>
    <nd ref="351913732"/>
    <nd ref="351913731"/>
    <nd ref="351913730"/>
    <nd ref="351913729"/>
    <nd ref="351913728"/>
    <nd ref="351913727"/>
    <nd ref="278535732"/>
    <nd ref="278535733"/>
    <nd ref="278535734"/>
    <nd ref="278535735"/>
    <tag k="highway" v="unclassified"/>
    <tag k="oneway" v="no"/>
  </way>
  <way id="31482623" version="5" timestamp="2010-03-28T01:06:37Z" uid="20587" user="balrog-kun" changeset="4250871">
    <nd ref="330973325"/>
    <nd ref="122715285"/>
    <tag k="bridge" v="yes"/>
    <tag k="highway" v="primary"/>
    <tag k="layer" v="1"/>
    <tag k="name" v="Glenwood Drive"/>
  </way>
  <way id="31482667" version="6" timestamp="2010-02-03T18:06:53Z" uid="38524" user="Kuddy" changeset="3784825">
    <nd ref="338994477"/>
    <nd ref="351910144"/>
    <nd ref="351910151"/>
    <nd ref="351910156"/>
    <nd ref="351910158"/>
    <nd ref="351910160"/>
    <nd ref="627852992"/>
    <nd ref="351910162"/>
    <nd ref="351910164"/>
    <nd ref="351910166"/>
    <nd ref="351910168"/>
    <nd ref="351910170"/>
    <nd ref="351910172"/>
    <nd ref="351910174"/>
    <nd ref="351910176"/>
    <nd ref="351910180"/>
    <nd ref="351910182"/>
    <nd ref="351910186"/>
    <nd ref="351910188"/>
    <nd ref="510600873"/>
    <tag k="highway" v="tertiary"/>
    <tag k="ref" v="K 4"/>
  </way>
  <way id="31482749" version="2" timestamp="2010-07-08T04:36:19Z" uid="74617" user="JohnSmith" changeset="5163091">
    <nd ref="348997242"/>
    <nd ref="351911747"/>
    <nd ref="351911750"/>
    <nd ref="351911751"/>
    <nd ref="351911752"/>
    <nd ref="351911753"/>
    <nd ref="351125915"/>
    <nd ref="351911754"/>
    <tag k="highway" v="residential"/>
    <tag k="maxspeed" v="50"/>
    <tag k="maxspeed:source" v="default residential speed limit in Australia"/>
    <tag k="name" v="Kikarra Cr"/>
    <tag k="surface" v="paved"/>
  </way>
  <way id="31482749" version="3" timestamp="2011-01-16T08:29:52Z" uid="4467" user="Rosscoe" changeset="6984856">
    <nd ref="348997242"/>
    <nd ref="351911747"/>
    <nd ref="351911750"/>
    <nd ref="351911751"/>
    <nd ref="351911752"/>
    <nd ref="351911753"/>
    <nd ref="351125915"/>
    <nd ref="351911754"/>
    <tag k="highway" v="residential"/>
    <tag k="maxspeed" v="50"/>
    <tag k="maxspeed:source" v="default residential speed limit in Australia"/>
    <tag k="name" v="Kikarra Crescent"/>
    <tag k="surface" v="paved"/>
  </way>
</osm>
