<?xml version='1.0' encoding='UTF-8'?>
<osm version="0.6" generator="libosmium/2.20.0">
  <way id="31496078" version="4" timestamp="2010-03-28T01:07:09Z" uid="20587" user="balrog-kun" changeset="4250871">
    <nd ref="65494771"/>
    <nd ref="65447093"/>
    <nd ref="65494774"/>
    <nd ref="65465677"/>
    <nd ref="65466775"/>
    <nd ref="65396303"/>
    <nd ref="65494776"/>
    <tag k="highway" v="residential"/>
    <tag k="name" v="Cortez Avenue"/>
    <tag k="tiger:cfcc" v="A41"/>
    <tag k="tiger:county" v="San Mateo, CA"/>
    <tag k="tiger:name_base" v="Cortez"/>
    <tag k="tiger:name_type" v="Ave"/>
    <tag k="tiger:separated" v="no"/>
    <tag k="tiger:source" v="tiger_import_dch_v0.6_20070809"/>
    <tag k="tiger:tlid" v="192375281:192375364:192375378:192376266:192376268:192376240:192375383:192375271"/>
    <tag k="tiger:zip_left" v="94010"/>
    <tag k="tiger:zip_right" v="94010"/>
  </way>
  <way id="31496086" version="5" timestamp="2010-03-28T01:07:10Z" uid="20587" user="balrog-kun" changeset="4250871">
    <nd ref="65429463"/>
    <nd ref="65494771"/>
    <nd ref="65429361"/>
    <nd ref="341555840"/>
    <nd ref="265709585"/>
    <nd ref="65402802"/>
    <nd ref="265709567"/>
    <nd ref="65467336"/>
    <nd ref="429146142"/>
    <nd ref="65432990"/>
    <tag k="bicycle" v="designated"/>
    <tag k="highway" v="residential"/>
    <tag k="lcn" v="yes"/>
    <tag k="name" v="Carmelita Avenue"/>
    <tag k="tiger:cfcc" v="A41"/>
    <tag k="tiger:county" v="San Mateo, CA"/>
    <tag k="tiger:name_base" v="Carmelita"/>
    <tag k="tiger:name_type" v="Ave"/>
    <tag k="tiger:separated" v="no"/>
    <tag k="tiger:source" v="tiger_import_dch_v0.6_20070809"/>
    <tag k="tiger:tlid" v="192391092:192391093:192390625"/>
    <tag k="tiger:zip_left" v="94010"/>
  </way>
  <way id="31496111" version="4" timestamp="2010-03-28T01:07:10Z" uid="20587" user="balrog-kun" changeset="4250871">
    <nd ref="65432990"/>
    <nd ref="351118824"/>
    <nd ref="65471533"/>
    <nd ref="340160377"/>
    <nd ref="65446276"/>
    <nd ref="65417073"/>
    <tag k="highway" v="residential"/>
    <tag k="name" v="Carmelita Avenue"/>
    <tag k="tiger:cfcc" v="A41"/>
    <tag k="tiger:county" v="San Mateo, CA"/>
    <tag k="tiger:name_base" v="Carmelita"/>
    <tag k="tiger:name_type" v="Ave"/>
    <tag k="tiger:separated" v="no"/>
    <tag k="tiger:source" v="tiger_import_dch_v0.6_20070809"/>
    <tag k="tiger:tlid" v="192391092:192391093:192390625"/>
    <tag k="tiger:zip_left" v="94010"/>
  </way>
  <way id="31496168" version="5" timestamp="2010-03-28T01:07:10Z" uid="20587" user="balrog-kun" changeset="4250871">
    <nd ref="65415438"/>
    <nd ref="252520353"/>
    <nd ref="297806992"/>
    <nd ref="65432982"/>
    <nd ref="65432984"/>
    <nd ref="65432985"/>
    <nd ref="65432990"/>
    <tag k="bicycle" v="designated"/>
    <tag k="highway" v="residential"/>
    <tag k="name" v="Paloma Avenue"/>
    <tag k="tiger:cfcc" v="A41"/>
    <tag k="tiger:county" v="San Mateo, CA"/>
    <tag k="tiger:name_base" v="Paloma"/>
    <tag k="tiger:name_type" v="Ave"/>
    <tag k="tiger:separated" v="no"/>
    <tag k="tiger:source" v="tiger_import_dch_v0.6_20070809"/>
    <tag k="tiger:tlid" v="192375356:192376231:192375336:192376250:192376343:192376345:192376318:192376368:192376256"/>
    <tag k="tiger:zip_left" v="94010"/>
    <tag k="tiger:zip_right" v="94010"/>
  </way>
  <way id="31496181" version="2" timestamp="2010-03-28T01:07:11Z" uid="20587" user="balrog-kun" changeset="4250871">
    <nd ref="65415433"/>
    <nd ref="252520344"/>
    <nd ref="65431077"/>
    <tag k="created_by" v="Potlatch 0.10f"/>
    <tag k="highway" v="residential"/>
    <tag k="name" v="Acacia Drive"/>
    <tag k="tiger:cfcc" v="A41"/>
    <tag k="tiger:county" v="San Mateo, CA"/>
    <tag k="tiger:name_base" v="Acacia"/>
    <tag k="tiger:name_type" v="Dr"/>
    <tag k="tiger:reviewed" v="no"/>
    <tag k="tiger:separated" v="no"/>
    <tag k="tiger:source" v="tiger_import_dch_v0.6_20070809"/>
    <tag k="tiger:tlid" v="192376362:192376370"/>
    <tag k="tiger:zip_left" v="94010"/>
    <tag k="tiger:zip_right" v="94010"/>
  </way>
  <way id="31496185" version="4" timestamp="2010-03-28T01:07:11Z" uid="20587" user="balrog-kun" changeset="4250871">
    <nd ref="65415433"/>
    <nd ref="65415438"/>
    <tag k="bicycle" v="designated"/>
    <tag k="created_by" v="Potlatch 0.10f"/>
    <tag k="highway" v="residential"/>
    <tag k="name" v="Palm Drive"/>
    <tag k="tiger:cfcc" v="A41"/>
    <tag k="tiger:county" v="San Mateo, CA"/>
    <tag k="tiger:name_base" v="Palm"/>
    <tag k="tiger:name_type" v="Dr"/>
    <tag k="tiger:reviewed" v="no"/>
    <tag k="tiger:separated" v="no"/>
    <tag k="tiger:source" v="tiger_import_dch_v0.6_20070809"/>
    <tag k="tiger:tlid" v="192376367:192376389:192376391:192376392:192376395:192376369"/>
    <tag k="tiger:zip_left" v="94010"/>
    <tag k="tiger:zip_right" v="94010"/>
  </way>
  <way id="31496188" version="3" timestamp="2010-03-28T01:07:11Z" uid="20587" user="balrog-kun" changeset="4250871">
    <nd ref="65415438"/>
    <nd ref="65415439"/>
    <tag k="highway" v="residential"/>
    <tag k="name" v="Palm Drive"/>
    <tag k="tiger:cfcc" v="A41"/>
    <tag k="tiger:county" v="San Mateo, CA"/>
    <tag k="tiger:name_base" v="Palm"/>
    <tag k="tiger:name_type" v="Dr"/>
    <tag k="tiger:separated" v="no"/>
    <tag k="tiger:source" v="tiger_import_dch_v0.6_20070809"/>
    <tag k="tiger:tlid" v="192376367:192376389:192376391:192376392:192376395:192376369"/>
    <tag k="tiger:zip_left" v="94010"/>
    <tag k="tiger:zip_right" v="94010"/>
  </way>
  <way id="31496209" version="4" timestamp="2010-03-28T01:07:11Z" uid="20587" user="balrog-kun" changeset="4250871">
    <nd ref="65431074"/>
    <nd ref="65432980"/>
    <nd ref="65402828"/>
    <tag k="highway" v="tertiary"/>
    <tag k="name" v="Oak Grove Avenue"/>
    <tag k="tiger:cfcc" v="A41"/>
    <tag k="tiger:county" v="San Mateo, CA"/>
    <tag k="tiger:name_base" v="Oak Grove"/>
    <tag k="tiger:name_type" v="Ave"/>
    <tag k="tiger:separated" v="no"/>
    <tag k="tiger:source" v="tiger_import_dch_v0.6_20070809"/>
    <tag k="tiger:tlid" v="192376706"/>
    <tag k="tiger:zip_left" v="94010"/>
  </way>
  <way id="31496242" version="6" timestamp="2010-03-28T01:07:12Z" uid="20587" user="balrog-kun" changeset="4250871">
    <nd ref="65448213"/>
    <nd ref="651005729"/>
    <nd ref="651005738"/>
    <nd ref="65471434"/>
    <nd ref="65485037"/>
    <nd ref="65448790"/>
    <nd ref="331366917"/>
    <nd ref="282127561"/>
    <nd ref="65417061"/>
    <nd ref="65507949"/>
    <nd ref="340160835"/>
    <nd ref="65433371"/>
    <nd ref="65454444"/>
    <nd ref="65507951"/>
    <nd ref="65428385"/>
    <nd ref="65431074"/>
    <tag k="bicycle" v="designated"/>
    <tag k="highway" v="tertiary"/>
    <tag k="name" v="Oak Grove Avenue"/>
    <tag k="tiger:cfcc" v="A41"/>
    <tag k="tiger:county" v="San Mateo, CA"/>
    <tag k="tiger:name_base" v="Oak Grove"/>
    <tag k="tiger:name_type" v="Ave"/>
    <tag k="tiger:separated" v="no"/>
    <tag k="tiger:source" v="tiger_import_dch_v0.6_20070809"/>
    <tag k="tiger:tlid" v="192376706"/>
    <tag k="tiger:zip_left" v="94010"/>
  </way>
  <way id="31496301" version="3" timestamp="2011-04-20T12:57:00Z" uid="115477" user="wowik" changeset="7916018">
    <nd ref="352254640"/>
    <nd ref="352254657"/>
    <nd ref="352254665"/>
    <nd ref="352254648"/>
    <nd ref="352254640"/>
    <tag k="addr:city" v="Москва"/>
    <tag k="addr:country" v="RU"/>
    <tag k="addr:housenumber" v="1 c1"/>
    <tag k="addr:street" v="Большой Кисловский переулок"/>
    <tag k="building" v="yes"/>
  </way>
  <way id="31496302" version="3" timestamp="2011-04-20T12:59:51Z" uid="115477" user="wowik" changeset="7916018">
    <nd ref="352254671"/>
    <nd ref="669833449"/>
    <nd ref="352254688"/>
    <nd ref="352254693"/>
    <nd ref="352254679"/>
    <nd ref="352254671"/>
    <tag k="addr:city" v="Москва"/>
    <tag k="addr:country" v="RU"/>
    <tag k="building" v="yes"/>
  </way>
  <way id="31496304" version="6" timestamp="2011-04-20T12:59:35Z" uid="115477" user="wowik" changeset="7916018">
    <nd ref="352254693"/>
    <nd ref="352254709"/>
    <nd ref="352254716"/>
    <nd ref="352254723"/>
    <nd ref="352254701"/>
    <nd ref="352254679"/>
    <nd ref="352254693"/>
    <tag k="addr:city" v="Москва"/>
    <tag k="addr:country" v="RU"/>
    <tag k="addr:housenumber" v="1 с2"/>
    <tag k="building" v="yes"/>
    <tag k="cladr:code" v="77000000000721200"/>
  </way>
  <way id="31496306" version="6" timestamp="2011-04-20T12:57:59Z" uid="115477" user="wowik" changeset="7916018">
    <nd ref="352254735"/>
    <nd ref="352254883"/>
    <nd ref="352254877"/>
    <nd ref="352254871"/>
    <nd ref="352254864"/>
    <nd ref="352254857"/>
    <nd ref="352254851"/>
    <nd ref="352254847"/>
    <nd ref="352254807"/>
    <nd ref="352254798"/>
    <nd ref="352254788"/>
    <nd ref="352254902"/>
    <nd ref="352254909"/>
    <nd ref="352254916"/>
    <nd ref="352254926"/>
    <nd ref="352254934"/>
    <nd ref="352254778"/>
    <nd ref="352254769"/>
    <nd ref="352254947"/>
    <nd ref="352255028"/>
    <nd ref="352255036"/>
    <nd ref="352255023"/>
    <nd ref="352254955"/>
    <nd ref="352254941"/>
    <nd ref="352254763"/>
    <nd ref="352254755"/>
    <nd ref="352254748"/>
    <nd ref="352254743"/>
    <nd ref="352254727"/>
    <nd ref="352254735"/>
    <tag k="addr:city" v="Москва"/>
    <tag k="addr:country" v="RU"/>
    <tag k="addr:housenumber" v="16 с1"/>
    <tag k="addr:street" v="улица Воздвиженка"/>
    <tag k="building" v="yes"/>
    <tag k="cladr:code" v="77000000000099200"/>
  </way>
  <way id="31496307" version="5" timestamp="2011-04-20T07:30:56Z" uid="115477" user="wowik" changeset="7913535">
    <nd ref="352255042"/>
    <nd ref="352255047"/>
    <nd ref="352255055"/>
    <nd ref="352255061"/>
    <nd ref="352255067"/>
    <nd ref="352255075"/>
    <nd ref="352255081"/>
    <nd ref="352255087"/>
    <nd ref="352255095"/>
    <nd ref="352255101"/>
    <nd ref="352255108"/>
    <nd ref="352255117"/>
    <nd ref="352255124"/>
    <nd ref="352255042"/>
    <tag k="addr:city" v="Москва"/>
    <tag k="addr:country" v="RU"/>
    <tag k="addr:housenumber" v="18/9"/>
    <tag k="addr:street" v="улица Воздвиженка"/>
    <tag k="building" v="yes"/>
    <tag k="cladr:code" v="77000000000099200"/>
  </way>
  <way id="31496308" version="3" timestamp="2011-04-20T12:59:51Z" uid="115477" user="wowik" changeset="7916018">
    <nd ref="352255134"/>
    <nd ref="352255150"/>
    <nd ref="352255155"/>
    <nd ref="352255143"/>
    <nd ref="352255134"/>
    <tag k="addr:city" v="Москва"/>
    <tag k="addr:country" v="RU"/>
    <tag k="building" v="yes"/>
    <tag k="cladr:code" v="77000000000147700"/>
  </way>
  <way id="31496309" version="4" timestamp="2011-04-20T12:57:46Z" uid="115477" user="wowik" changeset="7916018">
    <nd ref="352255162"/>
    <nd ref="352255172"/>
    <nd ref="352255181"/>
    <nd ref="352255168"/>
    <nd ref="352255162"/>
    <tag k="addr:city" v="Москва"/>
    <tag k="addr:country" v="RU"/>
    <tag k="addr:housenumber" v="5"/>
    <tag k="addr:street" v="Большой Кисловский переулок"/>
    <tag k="building" v="yes"/>
    <tag k="cladr:code" v="77000000000721200"/>
  </way>
  <way id="31496311" version="5" timestamp="2011-04-20T12:59:45Z" uid="115477" user="wowik" changeset="7916018">
    <nd ref="352255190"/>
    <nd ref="352255199"/>
    <nd ref="352255207"/>
    <nd ref="352255215"/>
    <nd ref="352255222"/>
    <nd ref="352255229"/>
    <nd ref="352255237"/>
    <nd ref="352255245"/>
    <nd ref="352255253"/>
    <nd ref="352255259"/>
    <nd ref="352255268"/>
    <nd ref="352255276"/>
    <nd ref="352255190"/>
    <tag k="addr:city" v="Москва"/>
    <tag k="addr:country" v="RU"/>
    <tag k="addr:housenumber" v="6 с1"/>
    <tag k="building" v="yes"/>
    <tag k="cladr:code" v="77000000000700200"/>
  </way>
  <way id="31496312" version="2" timestamp="2011-04-20T12:59:26Z" uid="115477" user="wowik" changeset="7916018">
    <nd ref="352255285"/>
    <nd ref="352255302"/>
    <nd ref="352255308"/>
    <nd ref="352255294"/>
    <nd ref="352255285"/>
    <tag k="addr:city" v="Москва"/>
    <tag k="addr:country" v="RU"/>
    <tag k="building" v="yes"/>
  </way>
  <way id="31496313" version="3" timestamp="2011-04-20T12:59:32Z" uid="115477" user="wowik" changeset="7916018">
    <nd ref="352255315"/>
    <nd ref="352255320"/>
    <nd ref="352255329"/>
    <nd ref="352255336"/>
    <nd ref="352255315"/>
    <tag k="addr:city" v="Москва"/>
    <tag k="addr:country" v="RU"/>
    <tag k="addr:housenumber" v="4с5"/>
    <tag k="building" v="yes"/>
  </way>
  <way id="31496315" version="2" timestamp="2011-04-20T12:59:58Z" uid="115477" user="wowik" changeset="7916018">
    <nd ref="352255342"/>
    <nd ref="352255355"/>
    <nd ref="352255361"/>
    <nd ref="352255349"/>
    <nd ref="352255342"/>
    <tag k="addr:city" v="Москва"/>
    <tag k="addr:country" v="RU"/>
    <tag k="building" v="yes"/>
  </way>
  <way id="31496319" version="2" timestamp="2011-04-20T12:59:36Z" uid="115477" user="wowik" changeset="7916018">
    <nd ref="352255367"/>
    <nd ref="352255377"/>
    <nd ref="352255383"/>
    <nd ref="352255372"/>
    <nd ref="352255367"/>
    <tag k="addr:city" v="Москва"/>
    <tag k="addr:country" v="RU"/>
    <tag k="building" v="yes"/>
  </way>
  <way id="31496320" version="3" timestamp="2011-04-20T12:59:59Z" uid="115477" user="wowik" changeset="7916018">
    <nd ref="352255408"/>
    <nd ref="352255418"/>
    <nd ref="352255399"/>
    <nd ref="669833379"/>
    <nd ref="669833378"/>
    <nd ref="669833359"/>
    <nd ref="352255408"/>
    <tag k="addr:city" v="Москва"/>
    <tag k="addr:country" v="RU"/>
    <tag k="building" v="yes"/>
  </way>
  <way id="31496322" version="2" timestamp="2011-04-20T12:59:48Z" uid="115477" user="wowik" changeset="7916018">
    <nd ref="352255426"/>
    <nd ref="352255442"/>
    <nd ref="352255451"/>
    <nd ref="352255433"/>
    <nd ref="352255426"/>
    <tag k="addr:city" v="Москва"/>
    <tag k="addr:country" v="RU"/>
    <tag k="building" v="yes"/>
  </way>
  <way id="31496323" version="4" timestamp="2011-04-20T12:59:53Z" uid="115477" user="wowik" changeset="7916018">
    <nd ref="352255461"/>
    <nd ref="352255478"/>
    <nd ref="352255487"/>
    <nd ref="669833826"/>
    <nd ref="669833824"/>
    <nd ref="352255469"/>
    <nd ref="352255461"/>
    <tag k="addr:city" v="Москва"/>
    <tag k="addr:country" v="RU"/>
    <tag k="building" v="yes"/>
    <tag k="cladr:code" v="77000000000147800"/>
  </way>
  <way id="31496324" version="7" timestamp="2011-04-20T12:57:10Z" uid="115477" user="wowik" changeset="7916018">
    <nd ref="1014793374"/>
    <nd ref="1014061573"/>
    <nd ref="1014061574"/>
    <nd ref="1014061575"/>
    <nd ref="1014793343"/>
    <nd ref="352255498"/>
    <nd ref="352255591"/>
    <nd ref="352255582"/>
    <nd ref="352255602"/>
    <nd ref="352255574"/>
    <nd ref="352255568"/>
    <nd ref="352255559"/>
    <nd ref="352255549"/>
    <nd ref="352255539"/>
    <nd ref="352255528"/>
    <nd ref="352255519"/>
    <nd ref="1014793374"/>
    <tag k="addr:city" v="Москва"/>
    <tag k="addr:country" v="RU"/>
    <tag k="addr:housenumber" v="3 с6"/>
    <tag k="addr:street" v="Романов переулок"/>
    <tag k="building" v="yes"/>
    <tag k="building:levels" v="4"/>
    <tag k="cladr:code" v="77000000000716000"/>
  </way>
  <way id="31496325" version="9" timestamp="2010-03-28T01:07:12Z" uid="20587" user="balrog-kun" changeset="4250871">
    <nd ref="65448786"/>
    <nd ref="249968149"/>
    <nd ref="65373460"/>
    <nd ref="65448788"/>
    <nd ref="65373472"/>
    <nd ref="65448790"/>
    <nd ref="65394136"/>
    <nd ref="65448791"/>
    <nd ref="331366887"/>
    <nd ref="65416573"/>
    <nd ref="65435450"/>
    <nd ref="338839072"/>
    <nd ref="65448793"/>
    <nd ref="65431789"/>
    <nd ref="529824097"/>
    <nd ref="65447086"/>
    <tag k="highway" v="residential"/>
    <tag k="lcn" v="yes"/>
    <tag k="name" v="Carolan Avenue"/>
    <tag k="tiger:cfcc" v="A41"/>
    <tag k="tiger:county" v="San Mateo, CA"/>
    <tag k="tiger:name_base" v="Carolan"/>
    <tag k="tiger:name_type" v="Ave"/>
    <tag k="tiger:separated" v="no"/>
    <tag k="tiger:source" v="tiger_import_dch_v0.6_20070809"/>
    <tag k="tiger:tlid" v="192376224:192376227:192376352:192376357:192376326:192376388:192376423:192376460:192403113:192403114:192376379"/>
    <tag k="tiger:zip_left" v="94010"/>
    <tag k="tiger:zip_right" v="94010"/>
  </way>
  <way id="31496391" version="4" timestamp="2010-03-28T01:07:13Z" uid="20587" user="balrog-kun" changeset="4250871">
    <nd ref="65448786"/>
    <nd ref="65477387"/>
    <tag k="highway" v="unclassified"/>
    <tag k="name" v="North Lane"/>
    <tag k="oneway" v="yes"/>
    <tag k="tiger:cfcc" v="A41"/>
    <tag k="tiger:county" v="San Mateo, CA"/>
    <tag k="tiger:name_base" v="North"/>
    <tag k="tiger:name_type" v="Ln"/>
    <tag k="tiger:separated" v="no"/>
    <tag k="tiger:source" v="tiger_import_dch_v0.6_20070809"/>
    <tag k="tiger:tlid" v="192376895:192376901:192376902"/>
    <tag k="tiger:zip_left" v="94010"/>
    <tag k="tiger:zip_right" v="94010"/>
  </way>
  <way id="31496447" version="14" timestamp="2010-03-28T01:07:13Z" uid="20587" user="balrog-kun" changeset="4250871">
    <nd ref="65417055"/>
    <nd ref="541078861"/>
    <nd ref="282129970"/>
    <nd ref="541078865"/>
    <nd ref="65417058"/>
    <nd ref="65415882"/>
    <nd ref="65417060"/>
    <nd ref="65413032"/>
    <nd ref="282127530"/>
    <nd ref="65417061"/>
    <nd ref="299382677"/>
    <nd ref="65415425"/>
    <nd ref="331366861"/>
    <nd ref="65417064"/>
    <nd ref="65417069"/>
    <nd ref="614124246"/>
    <nd ref="65417073"/>
    <nd ref="614124230"/>
    <nd ref="529824092"/>
    <nd ref="65417076"/>
    <nd ref="65417079"/>
    <tag k="bicycle" v="designated"/>
    <tag k="highway" v="secondary"/>
    <tag k="name" v="California Drive"/>
    <tag k="note" v="Bicycle lanes planned"/>
    <tag k="tiger:cfcc" v="A41"/>
    <tag k="tiger:county" v="San Mateo, CA"/>
    <tag k="tiger:name_base" v="California"/>
    <tag k="tiger:name_type" v="Dr"/>
    <tag k="tiger:source" v="tiger_import_dch_v0.6_20070809"/>
    <tag k="tiger:tlid" v="192375025:192375031"/>
  </way>
  <way id="31496969" version="7" timestamp="2011-04-20T12:57:46Z" uid="115477" user="wowik" changeset="7916018">
    <nd ref="352279368"/>
    <nd ref="352279375"/>
    <nd ref="352279382"/>
    <nd ref="352279390"/>
    <nd ref="352279398"/>
    <nd ref="352279411"/>
    <nd ref="352279424"/>
    <nd ref="352279450"/>
    <nd ref="352279469"/>
    <nd ref="820793397"/>
    <nd ref="820793406"/>
    <nd ref="820794036"/>
    <nd ref="820793630"/>
    <nd ref="352279478"/>
    <nd ref="352279487"/>
    <nd ref="352279493"/>
    <nd ref="820793300"/>
    <nd ref="820793953"/>
    <nd ref="352279501"/>
    <nd ref="352279507"/>
    <nd ref="352279368"/>
    <tag k="addr:city" v="Москва"/>
    <tag k="addr:country" v="RU"/>
    <tag k="addr:housenumber" v="2/6 с3"/>
    <tag k="addr:street" v="Романов переулок"/>
    <tag k="building" v="yes"/>
    <tag k="cladr:code" v="77000000000716000"/>
  </way>
  <way id="31496970" version="6" timestamp="2011-04-20T12:57:14Z" uid="115477" user="wowik" changeset="7916018">
    <nd ref="352279515"/>
    <nd ref="352279532"/>
    <nd ref="352279540"/>
    <nd ref="352279524"/>
    <nd ref="352279515"/>
    <tag k="addr:city" v="Москва"/>
    <tag k="addr:country" v="RU"/>
    <tag k="addr:housenumber" v="4"/>
    <tag k="addr:street" v="Романов переулок"/>
    <tag k="building" v="yes"/>
    <tag k="building:levels" v="5"/>
    <tag k="cladr:code" v="77000000000716000"/>
  </way>
  <way id="31496971" version="6" timestamp="2011-04-20T12:57:28Z" uid="115477" user="wowik" changeset="7916018">
    <nd ref="352279524"/>
    <nd ref="352279560"/>
    <nd ref="352279567"/>
    <nd ref="352279553"/>
    <nd ref="352279540"/>
    <nd ref="352279524"/>
    <tag k="addr:city" v="Москва"/>
    <tag k="addr:country" v="RU"/>
    <tag k="addr:housenumber" v="2 с1"/>
    <tag k="addr:street" v="Романов переулок"/>
    <tag k="building" v="yes"/>
    <tag k="cladr:code" v="77000000000716000"/>
  </way>
  <way id="31496973" version="6" timestamp="2011-04-20T12:57:04Z" uid="115477" user="wowik" changeset="7916018">
    <nd ref="352279816"/>
    <nd ref="352279810"/>
    <nd ref="352279752"/>
    <nd ref="352279759"/>
    <nd ref="352279764"/>
    <nd ref="352279771"/>
    <nd ref="352279779"/>
    <nd ref="352279785"/>
    <nd ref="352279790"/>
    <nd ref="352279793"/>
    <nd ref="352279798"/>
    <nd ref="352279804"/>
    <nd ref="352279628"/>
    <nd ref="352279636"/>
    <nd ref="352279641"/>
    <nd ref="352279649"/>
    <nd ref="352279656"/>
    <nd ref="352279674"/>
    <nd ref="352279680"/>
    <nd ref="352279688"/>
    <nd ref="352279695"/>
    <nd ref="352279704"/>
    <nd ref="352279710"/>
    <nd ref="352279717"/>
    <nd ref="352279816"/>
    <tag k="addr:city" v="Москва"/>
    <tag k="addr:country" v="RU"/>
    <tag k="addr:housenumber" v="5"/>
    <tag k="addr:street" v="Романов переулок"/>
    <tag k="building" v="yes"/>
    <tag k="building:levels" v="5"/>
    <tag k="cladr:code" v="77000000000716000"/>
  </way>
  <way id="31496974" version="5" timestamp="2011-04-20T12:57:43Z" uid="115477" user="wowik" changeset="7916018">
    <nd ref="352279810"/>
    <nd ref="352279816"/>
    <nd ref="352279723"/>
    <nd ref="352279729"/>
    <nd ref="352279737"/>
    <nd ref="352279745"/>
    <nd ref="352279810"/>
    <tag k="addr:city" v="Москва"/>
    <tag k="addr:country" v="RU"/>
    <tag k="addr:housenumber" v="3 с7"/>
    <tag k="addr:street" v="Романов переулок"/>
    <tag k="building" v="yes"/>
    <tag k="building:levels" v="4"/>
  </way>
  <way id="31496975" version="7" timestamp="2011-04-20T12:57:52Z" uid="115477" user="wowik" changeset="7916018">
    <nd ref="352279822"/>
    <nd ref="352279829"/>
    <nd ref="352279835"/>
    <nd ref="352279825"/>
    <nd ref="352279841"/>
    <nd ref="352279851"/>
    <nd ref="352279854"/>
    <nd ref="352279847"/>
    <nd ref="352279822"/>
    <tag k="addr:city" v="Москва"/>
    <tag k="addr:country" v="RU"/>
    <tag k="addr:housenumber" v="3 с1"/>
    <tag k="addr:street" v="Романов переулок"/>
    <tag k="building" v="yes"/>
    <tag k="building:levels" v="4"/>
    <tag k="cladr:code" v="77000000000716000"/>
  </way>
  <way id="31496976" version="8" timestamp="2011-04-20T12:59:38Z" uid="115477" user="wowik" changeset="7916018">
    <nd ref="352279862"/>
    <nd ref="352279869"/>
    <nd ref="352279877"/>
    <nd ref="820793934"/>
    <nd ref="820794127"/>
    <nd ref="820793581"/>
    <nd ref="820794025"/>
    <nd ref="820793392"/>
    <nd ref="820793868"/>
    <nd ref="820794102"/>
    <nd ref="820793443"/>
    <nd ref="820794055"/>
    <nd ref="820793714"/>
    <nd ref="820793328"/>
    <nd ref="820793979"/>
    <nd ref="820793495"/>
    <nd ref="820794085"/>
    <nd ref="352279884"/>
    <nd ref="352279889"/>
    <nd ref="820794006"/>
    <nd ref="820793372"/>
    <nd ref="820793810"/>
    <nd ref="352279896"/>
    <nd ref="352279862"/>
    <tag k="addr:city" v="Москва"/>
    <tag k="addr:country" v="RU"/>
    <tag k="addr:housenumber" v="9 с9"/>
    <tag k="amenity" v="public_building"/>
    <tag k="building" v="yes"/>
    <tag k="cladr:code" v="77000000000191300"/>
    <tag k="name" v="Библиотека им. А.М. Горького"/>
  </way>
</osm>
