<?xml version='1.0' encoding='UTF-8'?>
<osm version="0.6" generator="libosmium/2.20.0">
  <way id="31505262" version="2" timestamp="2010-06-01T06:08:47Z" uid="4467" user="Rosscoe" changeset="4871953">
    <nd ref="352570881"/>
    <nd ref="352571514"/>
    <nd ref="352571490"/>
    <nd ref="352571278"/>
    <nd ref="352571666"/>
    <nd ref="352571878"/>
    <nd ref="352571929"/>
    <nd ref="352570908"/>
    <nd ref="352570934"/>
    <nd ref="352570956"/>
    <nd ref="352572257"/>
    <nd ref="352570984"/>
    <nd ref="352571015"/>
    <tag k="highway" v="residential"/>
    <tag k="name" v="Albatross Avenue"/>
    <tag k="surface" v="paved"/>
  </way>
  <way id="31505262" version="3" timestamp="2010-07-08T04:37:12Z" uid="74617" user="JohnSmith" changeset="5163091">
    <nd ref="352570881"/>
    <nd ref="352571514"/>
    <nd ref="352571490"/>
    <nd ref="352571278"/>
    <nd ref="352571666"/>
    <nd ref="352571878"/>
    <nd ref="352571929"/>
    <nd ref="352570908"/>
    <nd ref="352570934"/>
    <nd ref="352570956"/>
    <nd ref="352572257"/>
    <nd ref="352570984"/>
    <nd ref="352571015"/>
    <tag k="highway" v="residential"/>
    <tag k="maxspeed" v="50"/>
    <tag k="maxspeed:source" v="default residential speed limit in Australia"/>
    <tag k="name" v="Albatross Avenue"/>
    <tag k="surface" v="paved"/>
  </way>
  <way id="31505263" version="2" timestamp="2010-06-01T06:28:57Z" uid="4467" user="Rosscoe" changeset="4872015">
    <nd ref="352571047"/>
    <nd ref="352572115"/>
    <nd ref="352571078"/>
    <nd ref="352571110"/>
    <nd ref="352571142"/>
    <nd ref="352571167"/>
    <nd ref="352572033"/>
    <nd ref="352571191"/>
    <nd ref="352571217"/>
    <nd ref="352572089"/>
    <nd ref="352571242"/>
    <tag k="highway" v="residential"/>
    <tag k="name" v="Roonwarra Drive"/>
    <tag k="surface" v="paved"/>
  </way>
  <way id="31505263" version="3" timestamp="2010-07-08T04:38:41Z" uid="74617" user="JohnSmith" changeset="5163091">
    <nd ref="352571047"/>
    <nd ref="352572115"/>
    <nd ref="352571078"/>
    <nd ref="352571110"/>
    <nd ref="352571142"/>
    <nd ref="352571167"/>
    <nd ref="352572033"/>
    <nd ref="352571191"/>
    <nd ref="352571217"/>
    <nd ref="352572089"/>
    <nd ref="352571242"/>
    <tag k="highway" v="residential"/>
    <tag k="maxspeed" v="50"/>
    <tag k="maxspeed:source" v="default residential speed limit in Australia"/>
    <tag k="name" v="Roonwarra Drive"/>
    <tag k="surface" v="paved"/>
  </way>
  <way id="31505263" version="4" timestamp="2011-01-16T08:27:27Z" uid="4467" user="Rosscoe" changeset="6984843">
    <nd ref="352571047"/>
    <nd ref="352571015"/>
    <nd ref="352572115"/>
    <nd ref="352571078"/>
    <nd ref="352571110"/>
    <nd ref="352571142"/>
    <nd ref="352571167"/>
    <nd ref="352572033"/>
    <nd ref="352571191"/>
    <nd ref="352571217"/>
    <nd ref="352572089"/>
    <nd ref="352571242"/>
    <tag k="highway" v="residential"/>
    <tag k="maxspeed" v="50"/>
    <tag k="maxspeed:source" v="default residential speed limit in Australia"/>
    <tag k="name" v="Roonwarra Drive"/>
    <tag k="surface" v="paved"/>
  </way>
  <way id="31505266" version="2" timestamp="2010-06-01T08:07:10Z" uid="4467" user="Rosscoe" changeset="4872520">
    <nd ref="352571278"/>
    <nd ref="352571309"/>
    <tag k="highway" v="residential"/>
    <tag k="name" v="Kurrawong Avenue"/>
    <tag k="surface" v="paved"/>
  </way>
  <way id="31505266" version="3" timestamp="2010-07-08T04:37:41Z" uid="74617" user="JohnSmith" changeset="5163091">
    <nd ref="352571278"/>
    <nd ref="352571309"/>
    <tag k="highway" v="residential"/>
    <tag k="maxspeed" v="50"/>
    <tag k="maxspeed:source" v="default residential speed limit in Australia"/>
    <tag k="name" v="Kurrawong Avenue"/>
    <tag k="surface" v="paved"/>
  </way>
  <way id="31505266" version="4" timestamp="2011-01-16T08:27:34Z" uid="4467" user="Rosscoe" changeset="6984843">
    <nd ref="352571278"/>
    <nd ref="1105812829"/>
    <nd ref="352571309"/>
    <tag k="highway" v="residential"/>
    <tag k="maxspeed" v="50"/>
    <tag k="maxspeed:source" v="default residential speed limit in Australia"/>
    <tag k="name" v="Kurrawong Avenue"/>
    <tag k="surface" v="paved"/>
  </way>
  <way id="31505268" version="2" timestamp="2010-06-01T08:07:51Z" uid="4467" user="Rosscoe" changeset="4872520">
    <nd ref="352571340"/>
    <nd ref="352571465"/>
    <nd ref="352571566"/>
    <nd ref="352571367"/>
    <nd ref="352571393"/>
    <nd ref="352571419"/>
    <nd ref="352571734"/>
    <nd ref="352571778"/>
    <nd ref="352571442"/>
    <tag k="highway" v="residential"/>
    <tag k="name" v="Mermaid Avenue"/>
  </way>
  <way id="31505268" version="3" timestamp="2010-07-08T04:36:01Z" uid="74617" user="JohnSmith" changeset="5163091">
    <nd ref="352571340"/>
    <nd ref="352571465"/>
    <nd ref="352571566"/>
    <nd ref="352571367"/>
    <nd ref="352571393"/>
    <nd ref="352571419"/>
    <nd ref="352571734"/>
    <nd ref="352571778"/>
    <nd ref="352571442"/>
    <tag k="highway" v="residential"/>
    <tag k="maxspeed" v="50"/>
    <tag k="maxspeed:source" v="default residential speed limit in Australia"/>
    <tag k="name" v="Mermaid Avenue"/>
  </way>
  <way id="31505268" version="4" timestamp="2011-01-16T08:27:10Z" uid="4467" user="Rosscoe" changeset="6984843">
    <nd ref="352571340"/>
    <nd ref="1105812933"/>
    <nd ref="352571465"/>
    <nd ref="352571309"/>
    <nd ref="352571566"/>
    <nd ref="352571367"/>
    <nd ref="352571393"/>
    <nd ref="352571419"/>
    <nd ref="352571734"/>
    <nd ref="352571778"/>
    <nd ref="352571442"/>
    <tag k="highway" v="residential"/>
    <tag k="maxspeed" v="50"/>
    <tag k="maxspeed:source" v="default residential speed limit in Australia"/>
    <tag k="name" v="Mermaid Avenue"/>
  </way>
  <way id="31505271" version="2" timestamp="2010-06-01T06:10:32Z" uid="4467" user="Rosscoe" changeset="4871953">
    <nd ref="352571465"/>
    <nd ref="352571490"/>
    <tag k="highway" v="residential"/>
    <tag k="name" v="Dolphin Avenue"/>
    <tag k="surface" v="paved"/>
  </way>
  <way id="31505271" version="3" timestamp="2010-07-08T04:38:04Z" uid="74617" user="JohnSmith" changeset="5163091">
    <nd ref="352571465"/>
    <nd ref="352571490"/>
    <tag k="highway" v="residential"/>
    <tag k="maxspeed" v="50"/>
    <tag k="maxspeed:source" v="default residential speed limit in Australia"/>
    <tag k="name" v="Dolphin Avenue"/>
    <tag k="surface" v="paved"/>
  </way>
  <way id="31505271" version="4" timestamp="2011-01-16T08:27:39Z" uid="4467" user="Rosscoe" changeset="6984843">
    <nd ref="352571465"/>
    <nd ref="1105812866"/>
    <nd ref="352571490"/>
    <tag k="highway" v="residential"/>
    <tag k="maxspeed" v="50"/>
    <tag k="maxspeed:source" v="default residential speed limit in Australia"/>
    <tag k="name" v="Dolphin Avenue"/>
    <tag k="surface" v="paved"/>
  </way>
  <way id="31505272" version="2" timestamp="2010-06-01T06:10:21Z" uid="4467" user="Rosscoe" changeset="4871953">
    <nd ref="352571514"/>
    <nd ref="352571540"/>
    <tag k="highway" v="residential"/>
    <tag k="name" v="Curlew Avenue"/>
    <tag k="surface" v="paved"/>
  </way>
  <way id="31505272" version="3" timestamp="2010-07-08T04:38:32Z" uid="74617" user="JohnSmith" changeset="5163091">
    <nd ref="352571514"/>
    <nd ref="352571540"/>
    <tag k="highway" v="residential"/>
    <tag k="maxspeed" v="50"/>
    <tag k="maxspeed:source" v="default residential speed limit in Australia"/>
    <tag k="name" v="Curlew Avenue"/>
    <tag k="surface" v="paved"/>
  </way>
  <way id="31505272" version="4" timestamp="2011-01-16T08:27:20Z" uid="4467" user="Rosscoe" changeset="6984843">
    <nd ref="352571514"/>
    <nd ref="1105812907"/>
    <nd ref="1105812933"/>
    <nd ref="352571540"/>
    <tag k="highway" v="residential"/>
    <tag k="maxspeed" v="50"/>
    <tag k="maxspeed:source" v="default residential speed limit in Australia"/>
    <tag k="name" v="Curlew Avenue"/>
    <tag k="surface" v="paved"/>
  </way>
  <way id="31505273" version="2" timestamp="2010-06-01T08:06:37Z" uid="4467" user="Rosscoe" changeset="4872520">
    <nd ref="352571566"/>
    <nd ref="352571687"/>
    <nd ref="352571592"/>
    <nd ref="352571618"/>
    <nd ref="352571643"/>
    <nd ref="352571666"/>
    <tag k="highway" v="residential"/>
    <tag k="name" v="Ibis Avenue"/>
    <tag k="surface" v="paved"/>
  </way>
  <way id="31505273" version="3" timestamp="2010-07-08T04:36:24Z" uid="74617" user="JohnSmith" changeset="5163091">
    <nd ref="352571566"/>
    <nd ref="352571687"/>
    <nd ref="352571592"/>
    <nd ref="352571618"/>
    <nd ref="352571643"/>
    <nd ref="352571666"/>
    <tag k="highway" v="residential"/>
    <tag k="maxspeed" v="50"/>
    <tag k="maxspeed:source" v="default residential speed limit in Australia"/>
    <tag k="name" v="Ibis Avenue"/>
    <tag k="surface" v="paved"/>
  </way>
  <way id="31505273" version="4" timestamp="2011-01-16T08:27:28Z" uid="4467" user="Rosscoe" changeset="6984843">
    <nd ref="352571566"/>
    <nd ref="352571687"/>
    <nd ref="1105812912"/>
    <nd ref="352571592"/>
    <nd ref="352571618"/>
    <nd ref="352571643"/>
    <nd ref="352571666"/>
    <tag k="highway" v="residential"/>
    <tag k="maxspeed" v="50"/>
    <tag k="maxspeed:source" v="default residential speed limit in Australia"/>
    <tag k="name" v="Ibis Avenue"/>
    <tag k="surface" v="paved"/>
  </way>
  <way id="31505276" version="2" timestamp="2010-06-01T06:27:39Z" uid="4467" user="Rosscoe" changeset="4872015">
    <nd ref="352571687"/>
    <nd ref="352571710"/>
    <tag k="highway" v="residential"/>
    <tag k="name" v="Flamingo Drive"/>
    <tag k="surface" v="paved"/>
  </way>
  <way id="31505276" version="3" timestamp="2010-07-08T04:37:26Z" uid="74617" user="JohnSmith" changeset="5163091">
    <nd ref="352571687"/>
    <nd ref="352571710"/>
    <tag k="highway" v="residential"/>
    <tag k="maxspeed" v="50"/>
    <tag k="maxspeed:source" v="default residential speed limit in Australia"/>
    <tag k="name" v="Flamingo Drive"/>
    <tag k="surface" v="paved"/>
  </way>
  <way id="31505277" version="2" timestamp="2010-06-01T08:09:04Z" uid="4467" user="Rosscoe" changeset="4872520">
    <nd ref="352571734"/>
    <nd ref="352571825"/>
    <nd ref="352571750"/>
    <tag k="highway" v="residential"/>
    <tag k="name" v="Pelican Avenue"/>
    <tag k="surface" v="paved"/>
  </way>
  <way id="31505277" version="3" timestamp="2010-07-08T04:38:59Z" uid="74617" user="JohnSmith" changeset="5163091">
    <nd ref="352571734"/>
    <nd ref="352571825"/>
    <nd ref="352571750"/>
    <tag k="highway" v="residential"/>
    <tag k="maxspeed" v="50"/>
    <tag k="maxspeed:source" v="default residential speed limit in Australia"/>
    <tag k="name" v="Pelican Avenue"/>
    <tag k="surface" v="paved"/>
  </way>
  <way id="31505279" version="2" timestamp="2010-07-08T04:35:52Z" uid="74617" user="JohnSmith" changeset="5163091">
    <nd ref="352571778"/>
    <nd ref="352571800"/>
    <nd ref="352571825"/>
    <tag k="highway" v="residential"/>
    <tag k="maxspeed" v="50"/>
    <tag k="maxspeed:source" v="default residential speed limit in Australia"/>
    <tag k="name" v="Pelican Lane"/>
    <tag k="surface" v="unpaved"/>
  </way>
  <way id="31505281" version="2" timestamp="2010-06-01T06:10:40Z" uid="4467" user="Rosscoe" changeset="4871953">
    <nd ref="352571750"/>
    <nd ref="352571856"/>
    <nd ref="352571710"/>
    <tag k="highway" v="residential"/>
    <tag k="name" v="Eagle Avenue"/>
    <tag k="surface" v="paved"/>
  </way>
  <way id="31505281" version="3" timestamp="2010-07-08T04:36:31Z" uid="74617" user="JohnSmith" changeset="5163091">
    <nd ref="352571750"/>
    <nd ref="352571856"/>
    <nd ref="352571710"/>
    <tag k="highway" v="residential"/>
    <tag k="maxspeed" v="50"/>
    <tag k="maxspeed:source" v="default residential speed limit in Australia"/>
    <tag k="name" v="Eagle Avenue"/>
    <tag k="surface" v="paved"/>
  </way>
  <way id="31505283" version="2" timestamp="2010-06-01T08:08:14Z" uid="4467" user="Rosscoe" changeset="4872520">
    <nd ref="352571878"/>
    <nd ref="352571900"/>
    <tag k="highway" v="residential"/>
    <tag k="name" v="Monterra Avenue"/>
    <tag k="surface" v="paved"/>
  </way>
  <way id="31505283" version="3" timestamp="2010-07-08T04:37:08Z" uid="74617" user="JohnSmith" changeset="5163091">
    <nd ref="352571878"/>
    <nd ref="352571900"/>
    <tag k="highway" v="residential"/>
    <tag k="maxspeed" v="50"/>
    <tag k="maxspeed:source" v="default residential speed limit in Australia"/>
    <tag k="name" v="Monterra Avenue"/>
    <tag k="surface" v="paved"/>
  </way>
  <way id="31505283" version="4" timestamp="2011-01-16T08:27:26Z" uid="4467" user="Rosscoe" changeset="6984843">
    <nd ref="352571878"/>
    <nd ref="1105812931"/>
    <nd ref="352571900"/>
    <tag k="highway" v="residential"/>
    <tag k="maxspeed" v="50"/>
    <tag k="maxspeed:source" v="default residential speed limit in Australia"/>
    <tag k="name" v="Monterra Avenue"/>
    <tag k="surface" v="paved"/>
  </way>
  <way id="31505284" version="2" timestamp="2010-06-01T08:08:28Z" uid="4467" user="Rosscoe" changeset="4872520">
    <nd ref="352571929"/>
    <nd ref="352571952"/>
    <nd ref="352571979"/>
    <nd ref="352572003"/>
    <nd ref="352572033"/>
    <tag k="highway" v="residential"/>
    <tag k="name" v="Muneela Avenue"/>
    <tag k="surface" v="paved"/>
  </way>
  <way id="31505284" version="3" timestamp="2010-07-08T04:37:34Z" uid="74617" user="JohnSmith" changeset="5163091">
    <nd ref="352571929"/>
    <nd ref="352571952"/>
    <nd ref="352571979"/>
    <nd ref="352572003"/>
    <nd ref="352572033"/>
    <tag k="highway" v="residential"/>
    <tag k="maxspeed" v="50"/>
    <tag k="maxspeed:source" v="default residential speed limit in Australia"/>
    <tag k="name" v="Muneela Avenue"/>
    <tag k="surface" v="paved"/>
  </way>
  <way id="31505284" version="4" timestamp="2011-01-16T08:27:38Z" uid="4467" user="Rosscoe" changeset="6984843">
    <nd ref="352571929"/>
    <nd ref="1105812891"/>
    <nd ref="352571952"/>
    <nd ref="352571979"/>
    <nd ref="352572003"/>
    <nd ref="352572033"/>
    <tag k="highway" v="residential"/>
    <tag k="maxspeed" v="50"/>
    <tag k="maxspeed:source" v="default residential speed limit in Australia"/>
    <tag k="name" v="Muneela Avenue"/>
    <tag k="surface" v="paved"/>
  </way>
  <way id="31505285" version="2" timestamp="2010-06-02T02:55:22Z" uid="4467" user="Rosscoe" changeset="4880285">
    <nd ref="352572060"/>
    <nd ref="352572089"/>
    <tag k="highway" v="residential"/>
    <tag k="name" v="Kiewa Street"/>
    <tag k="surface" v="paved"/>
  </way>
  <way id="31505285" version="3" timestamp="2010-07-08T04:35:30Z" uid="74617" user="JohnSmith" changeset="5163091">
    <nd ref="352572060"/>
    <nd ref="352572089"/>
    <tag k="highway" v="residential"/>
    <tag k="maxspeed" v="50"/>
    <tag k="maxspeed:source" v="default residential speed limit in Australia"/>
    <tag k="name" v="Kiewa Street"/>
    <tag k="surface" v="paved"/>
  </way>
  <way id="31505285" version="4" timestamp="2011-01-16T08:27:07Z" uid="4467" user="Rosscoe" changeset="6984843">
    <nd ref="352572060"/>
    <nd ref="352571900"/>
    <nd ref="352572089"/>
    <tag k="highway" v="residential"/>
    <tag k="maxspeed" v="50"/>
    <tag k="maxspeed:source" v="default residential speed limit in Australia"/>
    <tag k="name" v="Kiewa Street"/>
    <tag k="surface" v="paved"/>
  </way>
  <way id="31505287" version="2" timestamp="2010-07-08T04:36:01Z" uid="74617" user="JohnSmith" changeset="5163091">
    <nd ref="352572115"/>
    <nd ref="352572144"/>
    <nd ref="352572283"/>
    <nd ref="352572169"/>
    <nd ref="352572194"/>
    <nd ref="352572217"/>
    <nd ref="352572235"/>
    <nd ref="352572257"/>
    <tag k="highway" v="residential"/>
    <tag k="maxspeed" v="50"/>
    <tag k="maxspeed:source" v="default residential speed limit in Australia"/>
    <tag k="name" v="Karthena Cr"/>
    <tag k="surface" v="paved"/>
  </way>
  <way id="31505287" version="3" timestamp="2011-01-16T08:27:22Z" uid="4467" user="Rosscoe" changeset="6984843">
    <nd ref="352572115"/>
    <nd ref="352572144"/>
    <nd ref="352572283"/>
    <nd ref="352572169"/>
    <nd ref="352572194"/>
    <nd ref="352572217"/>
    <nd ref="352572235"/>
    <nd ref="352572257"/>
    <tag k="highway" v="residential"/>
    <tag k="maxspeed" v="50"/>
    <tag k="maxspeed:source" v="default residential speed limit in Australia"/>
    <tag k="name" v="Karthena Crescent"/>
    <tag k="surface" v="paved"/>
  </way>
  <way id="31505289" version="2" timestamp="2010-06-01T06:09:55Z" uid="4467" user="Rosscoe" changeset="4871953">
    <nd ref="352572283"/>
    <nd ref="352572310"/>
    <nd ref="352572335"/>
    <nd ref="352572358"/>
    <nd ref="352572383"/>
    <nd ref="352572405"/>
    <tag k="highway" v="residential"/>
    <tag k="name" v="Carramar Avenue"/>
    <tag k="surface" v="paved"/>
  </way>
  <way id="31505289" version="3" timestamp="2010-07-08T04:37:57Z" uid="74617" user="JohnSmith" changeset="5163091">
    <nd ref="352572283"/>
    <nd ref="352572310"/>
    <nd ref="352572335"/>
    <nd ref="352572358"/>
    <nd ref="352572383"/>
    <nd ref="352572405"/>
    <tag k="highway" v="residential"/>
    <tag k="maxspeed" v="50"/>
    <tag k="maxspeed:source" v="default residential speed limit in Australia"/>
    <tag k="name" v="Carramar Avenue"/>
    <tag k="surface" v="paved"/>
  </way>
  <way id="31505289" version="4" timestamp="2011-01-16T08:27:16Z" uid="4467" user="Rosscoe" changeset="6984843">
    <nd ref="352572283"/>
    <nd ref="352572310"/>
    <nd ref="352572335"/>
    <nd ref="352572358"/>
    <nd ref="352572383"/>
    <nd ref="1105812891"/>
    <nd ref="1105812931"/>
    <nd ref="352572405"/>
    <tag k="highway" v="residential"/>
    <tag k="maxspeed" v="50"/>
    <tag k="maxspeed:source" v="default residential speed limit in Australia"/>
    <tag k="name" v="Carramar Avenue"/>
    <tag k="surface" v="paved"/>
  </way>
  <way id="31505291" version="2" timestamp="2010-06-02T06:50:42Z" uid="4467" user="Rosscoe" changeset="4881307">
    <nd ref="352572431"/>
    <nd ref="352572584"/>
    <nd ref="352572457"/>
    <tag k="highway" v="road"/>
    <tag k="name" v="Sanderling Street"/>
  </way>
  <way id="31505296" version="7" timestamp="2010-07-08T04:35:51Z" uid="74617" user="JohnSmith" changeset="5163091">
    <nd ref="352572891"/>
    <nd ref="599480041"/>
    <nd ref="683922062"/>
    <nd ref="361227635"/>
    <nd ref="361227696"/>
    <nd ref="352572868"/>
    <tag k="highway" v="residential"/>
    <tag k="maxspeed" v="50"/>
    <tag k="maxspeed:source" v="default residential speed limit in Australia"/>
    <tag k="name" v="Coupland Avenue"/>
  </way>
  <way id="31505296" version="8" timestamp="2011-04-23T22:49:59Z" uid="4467" user="Rosscoe" changeset="7948337">
    <nd ref="352572891"/>
    <nd ref="599480041"/>
    <nd ref="683922062"/>
    <nd ref="361227635"/>
    <nd ref="361227696"/>
    <nd ref="352572868"/>
    <tag k="highway" v="residential"/>
    <tag k="maxspeed" v="50"/>
    <tag k="name" v="Coupland Avenue"/>
    <tag k="source:maxspeed" v="default residential speed limit in Australia"/>
  </way>
  <way id="31505297" version="4" timestamp="2010-06-02T01:56:33Z" uid="4467" user="Rosscoe" changeset="4880068">
    <nd ref="352572626"/>
    <nd ref="352572932"/>
    <nd ref="352572911"/>
    <tag k="highway" v="residential"/>
    <tag k="name" v="Hough Street"/>
  </way>
  <way id="31505297" version="5" timestamp="2010-07-08T04:37:24Z" uid="74617" user="JohnSmith" changeset="5163091">
    <nd ref="352572626"/>
    <nd ref="352572932"/>
    <nd ref="352572911"/>
    <tag k="highway" v="residential"/>
    <tag k="maxspeed" v="50"/>
    <tag k="maxspeed:source" v="default residential speed limit in Australia"/>
    <tag k="name" v="Hough Street"/>
  </way>
  <way id="31505297" version="6" timestamp="2011-01-16T08:27:24Z" uid="4467" user="Rosscoe" changeset="6984843">
    <nd ref="352572626"/>
    <nd ref="25955793"/>
    <nd ref="352572932"/>
    <nd ref="352572911"/>
    <tag k="highway" v="residential"/>
    <tag k="maxspeed" v="50"/>
    <tag k="maxspeed:source" v="default residential speed limit in Australia"/>
    <tag k="name" v="Hough Street"/>
  </way>
  <way id="31505300" version="7" timestamp="2010-06-02T08:53:18Z" uid="4467" user="Rosscoe" changeset="4882035">
    <nd ref="599484549"/>
    <nd ref="352572932"/>
    <nd ref="361227936"/>
    <nd ref="352572957"/>
    <nd ref="352784329"/>
    <tag k="highway" v="residential"/>
    <tag k="name" v="Witt Street"/>
  </way>
  <way id="31505300" version="8" timestamp="2010-07-08T04:38:20Z" uid="74617" user="JohnSmith" changeset="5163091">
    <nd ref="599484549"/>
    <nd ref="352572932"/>
    <nd ref="361227936"/>
    <nd ref="352572957"/>
    <nd ref="352784329"/>
    <tag k="highway" v="residential"/>
    <tag k="maxspeed" v="50"/>
    <tag k="maxspeed:source" v="default residential speed limit in Australia"/>
    <tag k="name" v="Witt Street"/>
  </way>
  <way id="31505300" version="9" timestamp="2011-01-16T08:27:12Z" uid="4467" user="Rosscoe" changeset="6984843">
    <nd ref="599484549"/>
    <nd ref="352572932"/>
    <nd ref="361227936"/>
    <nd ref="1105812893"/>
    <nd ref="352572957"/>
    <nd ref="352784329"/>
    <tag k="highway" v="residential"/>
    <tag k="maxspeed" v="50"/>
    <tag k="maxspeed:source" v="default residential speed limit in Australia"/>
    <tag k="name" v="Witt Street"/>
  </way>
  <way id="31505301" version="5" timestamp="2010-06-02T03:51:45Z" uid="4467" user="Rosscoe" changeset="4880447">
    <nd ref="352784131"/>
    <nd ref="352572978"/>
    <nd ref="352573013"/>
    <tag k="created_by" v="Potlatch 0.10f"/>
    <tag k="highway" v="residential"/>
    <tag k="name" v="Maxwell Street"/>
  </way>
  <way id="31505301" version="6" timestamp="2010-07-08T04:36:14Z" uid="74617" user="JohnSmith" changeset="5163091">
    <nd ref="352784131"/>
    <nd ref="352572978"/>
    <nd ref="352573013"/>
    <tag k="highway" v="residential"/>
    <tag k="maxspeed" v="50"/>
    <tag k="maxspeed:source" v="default residential speed limit in Australia"/>
    <tag k="name" v="Maxwell Street"/>
  </way>
  <way id="31505301" version="7" timestamp="2011-01-16T08:27:20Z" uid="4467" user="Rosscoe" changeset="6984843">
    <nd ref="352784131"/>
    <nd ref="352572978"/>
    <nd ref="1105812893"/>
    <nd ref="352573013"/>
    <tag k="highway" v="residential"/>
    <tag k="maxspeed" v="50"/>
    <tag k="maxspeed:source" v="default residential speed limit in Australia"/>
    <tag k="name" v="Maxwell Street"/>
  </way>
  <way id="31505504" version="2" timestamp="2009-08-02T08:38:35Z" uid="74617" user="JohnSmith" changeset="2011174"/>
  <way id="31505508" version="2" timestamp="2009-08-02T08:49:21Z" uid="74617" user="JohnSmith" changeset="2011278"/>
  <way id="31505513" version="2" timestamp="2009-08-02T08:49:21Z" uid="74617" user="JohnSmith" changeset="2011278"/>
  <way id="31505832" version="2" timestamp="2009-03-08T14:53:44Z" uid="6975" user="ulfl" changeset="757880">
    <nd ref="352583822"/>
    <nd ref="352583845"/>
    <tag k="highway" v="steps"/>
  </way>
  <way id="31505944" version="3" timestamp="2010-06-02T00:48:17Z" uid="4467" user="Rosscoe" changeset="4879895">
    <nd ref="352586901"/>
    <nd ref="599938405"/>
    <nd ref="352586925"/>
    <nd ref="599938406"/>
    <nd ref="599938407"/>
    <nd ref="352586956"/>
    <nd ref="352586984"/>
    <nd ref="352572911"/>
    <tag k="highway" v="unclassified"/>
    <tag k="maxspeed" v="50"/>
    <tag k="name" v="Limekilns Road"/>
  </way>
  <way id="31505945" version="8" timestamp="2010-07-08T04:38:43Z" uid="74617" user="JohnSmith" changeset="5163091">
    <nd ref="352587009"/>
    <nd ref="599933679"/>
    <nd ref="352587033"/>
    <nd ref="352587063"/>
    <nd ref="361226247"/>
    <nd ref="361226277"/>
    <tag k="highway" v="residential"/>
    <tag k="maxspeed" v="50"/>
    <tag k="maxspeed:source" v="default residential speed limit in Australia"/>
    <tag k="name" v="Settlers Way"/>
    <tag k="surface" v="paved"/>
  </way>
  <way id="31505945" version="9" timestamp="2010-08-27T05:12:17Z" uid="4467" user="Rosscoe" changeset="5604436">
    <nd ref="352587009"/>
    <nd ref="599933679"/>
    <nd ref="352587033"/>
    <nd ref="352587063"/>
    <nd ref="361226247"/>
    <nd ref="361226277"/>
    <tag k="highway" v="residential"/>
    <tag k="maxspeed" v="50"/>
    <tag k="name" v="Settlers Way"/>
    <tag k="source:maxspeed" v="default residential speed limit in Australia"/>
    <tag k="surface" v="paved"/>
  </way>
</osm>
