<?xml version='1.0' encoding='UTF-8'?>
<osm version="0.6" generator="libosmium/2.20.0">
  <way id="31650372" version="3" timestamp="2010-03-22T05:46:29Z" uid="20587" user="balrog-kun" changeset="4199043">
    <nd ref="354022715"/>
    <nd ref="354022875"/>
    <tag k="created_by" v="Potlatch 0.10f"/>
    <tag k="highway" v="residential"/>
    <tag k="name" v="Southwest Ambercrombie Place"/>
  </way>
  <way id="31650377" version="2" timestamp="2009-10-19T21:26:40Z" uid="36809" user="pfoten_weg_!_" changeset="2898762">
    <nd ref="354023082"/>
    <nd ref="354023091"/>
    <tag k="highway" v="residential"/>
  </way>
  <way id="31650469" version="7" timestamp="2009-03-20T15:50:19Z" uid="58091" user="Andreas M" changeset="835213">
    <nd ref="354026034"/>
    <nd ref="354026625"/>
    <nd ref="354025283"/>
    <nd ref="354025287"/>
    <nd ref="354025408"/>
    <tag k="created_by" v="Potlatch 0.10f"/>
    <tag k="foot" v="yes"/>
    <tag k="highway" v="cycleway"/>
  </way>
  <way id="31650544" version="3" timestamp="2011-05-08T08:06:02Z" uid="9581" user="Lobelt" changeset="8079820">
    <nd ref="256287366"/>
    <nd ref="470481360"/>
    <nd ref="256287367"/>
    <nd ref="256287368"/>
    <nd ref="256287369"/>
    <nd ref="256140994"/>
    <tag k="highway" v="tertiary"/>
  </way>
  <way id="31650629" version="1" timestamp="2009-02-28T22:06:06Z" uid="34428" user="usm78-gis" changeset="701038">
    <nd ref="25532501"/>
    <nd ref="25532559"/>
    <nd ref="25532560"/>
    <nd ref="25532562"/>
    <nd ref="25532642"/>
    <nd ref="25532644"/>
    <tag k="created_by" v="Potlatch 0.10f"/>
    <tag k="highway" v="secondary"/>
  </way>
  <way id="31650629" version="2" timestamp="2009-02-28T22:06:09Z" uid="34428" user="usm78-gis" changeset="701038">
    <nd ref="25532501"/>
    <nd ref="25532559"/>
    <tag k="created_by" v="Potlatch 0.10f"/>
    <tag k="highway" v="secondary"/>
  </way>
  <way id="31650629" version="3" timestamp="2009-02-28T22:06:22Z" uid="34428" user="usm78-gis" changeset="701038">
    <nd ref="25532501"/>
    <nd ref="25532559"/>
    <tag k="bridge" v="yes"/>
    <tag k="created_by" v="Potlatch 0.10f"/>
    <tag k="highway" v="secondary"/>
  </way>
  <way id="31650631" version="1" timestamp="2009-02-28T22:06:09Z" uid="34428" user="usm78-gis" changeset="701038">
    <nd ref="25532559"/>
    <nd ref="25532560"/>
    <nd ref="25532562"/>
    <nd ref="25532642"/>
    <nd ref="25532644"/>
    <tag k="created_by" v="Potlatch 0.10f"/>
    <tag k="highway" v="secondary"/>
  </way>
  <way id="31650652" version="2" timestamp="2010-04-02T17:29:47Z" uid="20587" user="balrog-kun" changeset="4304500">
    <nd ref="354028516"/>
    <nd ref="53201590"/>
    <tag k="created_by" v="Potlatch 0.10f"/>
    <tag k="highway" v="residential"/>
    <tag k="name" v="25th Avenue Southwest"/>
    <tag k="tiger:cfcc" v="A41"/>
    <tag k="tiger:county" v="King, WA"/>
    <tag k="tiger:name_base" v="25th"/>
    <tag k="tiger:name_direction_suffix" v="SW"/>
    <tag k="tiger:name_type" v="Ave"/>
    <tag k="tiger:reviewed" v="no"/>
    <tag k="tiger:separated" v="no"/>
    <tag k="tiger:source" v="tiger_import_dch_v0.6_20070830"/>
    <tag k="tiger:tlid" v="186962677"/>
    <tag k="tiger:zip_left" v="98106"/>
    <tag k="tiger:zip_right" v="98106"/>
  </way>
  <way id="31650753" version="2" timestamp="2009-08-24T22:04:26Z" uid="36809" user="pfoten_weg_!_" changeset="2250603">
    <nd ref="354030760"/>
    <nd ref="305235896"/>
    <nd ref="354030763"/>
    <tag k="highway" v="track"/>
    <tag k="motorcar" v="no"/>
    <tag k="motorcycle" v="no"/>
    <tag k="nore:de" v="Warnung"/>
  </way>
  <way id="31650753" version="3" timestamp="2009-08-24T22:33:34Z" uid="36809" user="pfoten_weg_!_" changeset="2250754">
    <nd ref="354030760"/>
    <nd ref="305235896"/>
    <nd ref="354030763"/>
    <tag k="highway" v="track"/>
    <tag k="motorcar" v="no"/>
    <tag k="motorcycle" v="no"/>
  </way>
  <way id="31650753" version="4" timestamp="2009-08-24T22:48:04Z" uid="36809" user="pfoten_weg_!_" changeset="2250819">
    <nd ref="354030760"/>
    <nd ref="305235896"/>
    <nd ref="354030763"/>
    <tag k="discovered_by" v="RambaZamba"/>
    <tag k="highway" v="track"/>
    <tag k="motorcar" v="no"/>
    <tag k="motorcycle" v="no"/>
  </way>
  <way id="31650753" version="6" timestamp="2009-08-29T14:57:05Z" uid="36809" user="pfoten_weg_!_" changeset="2302467">
    <nd ref="354030760"/>
    <nd ref="305235896"/>
    <nd ref="354030763"/>
    <tag k="highway" v="track"/>
    <tag k="motorcar" v="no"/>
    <tag k="motorcycle" v="no"/>
  </way>
  <way id="31650754" version="2" timestamp="2009-08-24T22:06:15Z" uid="36809" user="pfoten_weg_!_" changeset="2250603">
    <nd ref="31406471"/>
    <nd ref="354030764"/>
    <nd ref="354030770"/>
    <nd ref="354030769"/>
    <nd ref="354030776"/>
    <tag k="highway" v="tertiary"/>
    <tag k="maxspeed" v="80"/>
    <tag k="name" v="Seestraße"/>
    <tag k="nore:de" v="Warnung"/>
    <tag k="ref" v="K 25"/>
  </way>
  <way id="31650754" version="3" timestamp="2009-08-24T22:34:38Z" uid="36809" user="pfoten_weg_!_" changeset="2250754">
    <nd ref="31406471"/>
    <nd ref="354030764"/>
    <nd ref="354030770"/>
    <nd ref="354030769"/>
    <nd ref="354030776"/>
    <tag k="highway" v="tertiary"/>
    <tag k="maxspeed" v="80"/>
    <tag k="name" v="Seestraße"/>
    <tag k="ref" v="K 25"/>
  </way>
  <way id="31650754" version="4" timestamp="2009-08-24T22:50:41Z" uid="36809" user="pfoten_weg_!_" changeset="2250819">
    <nd ref="31406471"/>
    <nd ref="354030764"/>
    <nd ref="354030770"/>
    <nd ref="354030769"/>
    <nd ref="354030776"/>
    <tag k="discovered_by" v="RambaZamba"/>
    <tag k="highway" v="tertiary"/>
    <tag k="maxspeed" v="80"/>
    <tag k="name" v="Seestraße"/>
    <tag k="ref" v="K 25"/>
  </way>
  <way id="31650754" version="6" timestamp="2009-08-28T22:52:32Z" uid="36809" user="pfoten_weg_!_" changeset="2295919">
    <nd ref="31406471"/>
    <nd ref="354030764"/>
    <nd ref="354030770"/>
    <nd ref="354030769"/>
    <nd ref="354030776"/>
    <tag k="discovered_by" v="RambaZamba"/>
    <tag k="highway" v="tertiary"/>
    <tag k="maxspeed" v="80"/>
    <tag k="name" v="Seestraße"/>
    <tag k="ref" v="K 25"/>
    <tag k="source" v="survey"/>
  </way>
  <way id="31650754" version="8" timestamp="2009-08-31T22:18:18Z" uid="36809" user="pfoten_weg_!_" changeset="2332133">
    <nd ref="31406471"/>
    <nd ref="354030764"/>
    <nd ref="354030770"/>
    <nd ref="354030769"/>
    <nd ref="354030776"/>
    <tag k="highway" v="tertiary"/>
    <tag k="maxspeed" v="80"/>
    <tag k="name" v="Seestraße"/>
    <tag k="ref" v="K 25"/>
    <tag k="source" v="survey"/>
  </way>
  <way id="31650754" version="9" timestamp="2009-10-03T08:41:11Z" uid="179968" user="Ich_hasse_doitsche_OSM-Korinthenkacker" changeset="2720861">
    <nd ref="31406471"/>
    <nd ref="354030764"/>
    <nd ref="354030770"/>
    <nd ref="354030769"/>
    <nd ref="354030776"/>
    <tag k="highway" v="tertiary"/>
    <tag k="maxspeed" v="80"/>
    <tag k="name" v="Seestraße"/>
    <tag k="ref" v="K 25"/>
  </way>
  <way id="31650755" version="2" timestamp="2009-08-24T22:05:30Z" uid="36809" user="pfoten_weg_!_" changeset="2250603">
    <nd ref="353096300"/>
    <nd ref="354030765"/>
    <tag k="highway" v="steps"/>
    <tag k="name" v="Übergang 17"/>
    <tag k="nore:de" v="Warnung"/>
  </way>
  <way id="31650755" version="3" timestamp="2009-08-24T22:34:13Z" uid="36809" user="pfoten_weg_!_" changeset="2250754">
    <nd ref="353096300"/>
    <nd ref="354030765"/>
    <tag k="highway" v="steps"/>
    <tag k="name" v="Übergang 17"/>
  </way>
  <way id="31650755" version="4" timestamp="2009-08-24T22:49:48Z" uid="36809" user="pfoten_weg_!_" changeset="2250819">
    <nd ref="353096300"/>
    <nd ref="354030765"/>
    <tag k="discovered_by" v="RambaZamba"/>
    <tag k="highway" v="steps"/>
    <tag k="name" v="Übergang 17"/>
  </way>
  <way id="31650755" version="6" timestamp="2009-08-29T14:53:37Z" uid="36809" user="pfoten_weg_!_" changeset="2302467">
    <nd ref="353096300"/>
    <nd ref="354030765"/>
    <tag k="highway" v="steps"/>
    <tag k="name" v="Übergang 17"/>
  </way>
  <way id="31650756" version="2" timestamp="2009-08-24T22:05:29Z" uid="36809" user="pfoten_weg_!_" changeset="2250603">
    <nd ref="353096300"/>
    <nd ref="354030764"/>
    <tag k="highway" v="steps"/>
    <tag k="name" v="Übergang 17"/>
    <tag k="nore:de" v="Warnung"/>
  </way>
  <way id="31650756" version="3" timestamp="2009-08-24T22:34:12Z" uid="36809" user="pfoten_weg_!_" changeset="2250754">
    <nd ref="353096300"/>
    <nd ref="354030764"/>
    <tag k="highway" v="steps"/>
    <tag k="name" v="Übergang 17"/>
  </way>
  <way id="31650756" version="4" timestamp="2009-08-24T22:49:47Z" uid="36809" user="pfoten_weg_!_" changeset="2250819">
    <nd ref="353096300"/>
    <nd ref="354030764"/>
    <tag k="discovered_by" v="RambaZamba"/>
    <tag k="highway" v="steps"/>
    <tag k="name" v="Übergang 17"/>
  </way>
  <way id="31650756" version="6" timestamp="2009-08-29T14:53:47Z" uid="36809" user="pfoten_weg_!_" changeset="2302467">
    <nd ref="353096300"/>
    <nd ref="354030764"/>
    <tag k="highway" v="steps"/>
    <tag k="name" v="Übergang 17"/>
  </way>
  <way id="31650757" version="2" timestamp="2009-08-24T22:01:44Z" uid="36809" user="pfoten_weg_!_" changeset="2250603">
    <nd ref="354030767"/>
    <nd ref="354030765"/>
    <tag k="highway" v="footway"/>
    <tag k="nore:de" v="Warnung"/>
  </way>
  <way id="31650757" version="3" timestamp="2009-08-24T22:31:56Z" uid="36809" user="pfoten_weg_!_" changeset="2250754">
    <nd ref="354030767"/>
    <nd ref="354030765"/>
    <tag k="highway" v="footway"/>
  </way>
  <way id="31650757" version="4" timestamp="2009-08-24T22:45:39Z" uid="36809" user="pfoten_weg_!_" changeset="2250819">
    <nd ref="354030767"/>
    <nd ref="354030765"/>
    <tag k="discovered_by" v="RambaZamba"/>
    <tag k="highway" v="footway"/>
  </way>
  <way id="31650757" version="6" timestamp="2009-08-29T14:54:34Z" uid="36809" user="pfoten_weg_!_" changeset="2302467">
    <nd ref="354030767"/>
    <nd ref="354030765"/>
    <tag k="highway" v="footway"/>
  </way>
  <way id="31650758" version="2" timestamp="2009-08-24T22:05:38Z" uid="36809" user="pfoten_weg_!_" changeset="2250603">
    <nd ref="353096292"/>
    <nd ref="354030769"/>
    <tag k="highway" v="track"/>
    <tag k="motorcar" v="no"/>
    <tag k="motorcycle" v="no"/>
    <tag k="nore:de" v="Warnung"/>
  </way>
  <way id="31650758" version="3" timestamp="2009-08-24T22:34:19Z" uid="36809" user="pfoten_weg_!_" changeset="2250754">
    <nd ref="353096292"/>
    <nd ref="354030769"/>
    <tag k="highway" v="track"/>
    <tag k="motorcar" v="no"/>
    <tag k="motorcycle" v="no"/>
  </way>
  <way id="31650758" version="4" timestamp="2009-08-24T22:50:01Z" uid="36809" user="pfoten_weg_!_" changeset="2250819">
    <nd ref="353096292"/>
    <nd ref="354030769"/>
    <tag k="discovered_by" v="RambaZamba"/>
    <tag k="highway" v="track"/>
    <tag k="motorcar" v="no"/>
    <tag k="motorcycle" v="no"/>
  </way>
  <way id="31650758" version="6" timestamp="2009-08-29T14:54:38Z" uid="36809" user="pfoten_weg_!_" changeset="2302467">
    <nd ref="353096292"/>
    <nd ref="354030769"/>
    <tag k="highway" v="track"/>
    <tag k="motorcar" v="no"/>
    <tag k="motorcycle" v="no"/>
  </way>
  <way id="31650759" version="2" timestamp="2009-08-24T21:59:33Z" uid="36809" user="pfoten_weg_!_" changeset="2250603">
    <nd ref="354030770"/>
    <nd ref="354030772"/>
    <nd ref="354030775"/>
    <nd ref="354030773"/>
    <nd ref="354030764"/>
    <tag k="highway" v="service"/>
    <tag k="nore:de" v="Warnung"/>
  </way>
  <way id="31650759" version="3" timestamp="2009-08-24T22:30:25Z" uid="36809" user="pfoten_weg_!_" changeset="2250754">
    <nd ref="354030770"/>
    <nd ref="354030772"/>
    <nd ref="354030775"/>
    <nd ref="354030773"/>
    <nd ref="354030764"/>
    <tag k="highway" v="service"/>
  </way>
  <way id="31650759" version="4" timestamp="2009-08-24T22:42:58Z" uid="36809" user="pfoten_weg_!_" changeset="2250819">
    <nd ref="354030770"/>
    <nd ref="354030772"/>
    <nd ref="354030775"/>
    <nd ref="354030773"/>
    <nd ref="354030764"/>
    <tag k="discovered_by" v="RambaZamba"/>
    <tag k="highway" v="service"/>
  </way>
  <way id="31650759" version="6" timestamp="2009-08-29T14:54:42Z" uid="36809" user="pfoten_weg_!_" changeset="2302467">
    <nd ref="354030770"/>
    <nd ref="354030772"/>
    <nd ref="354030775"/>
    <nd ref="354030773"/>
    <nd ref="354030764"/>
    <tag k="highway" v="service"/>
  </way>
  <way id="31650760" version="2" timestamp="2009-08-24T22:04:11Z" uid="36809" user="pfoten_weg_!_" changeset="2250603">
    <nd ref="354030776"/>
    <nd ref="31406506"/>
    <nd ref="31406107"/>
    <nd ref="31406189"/>
    <nd ref="353092427"/>
    <tag k="highway" v="tertiary"/>
    <tag k="maxspeed" v="60"/>
    <tag k="name" v="Seestraße"/>
    <tag k="nore:de" v="Warnung"/>
    <tag k="ref" v="K 25"/>
  </way>
  <way id="31650760" version="3" timestamp="2009-08-24T22:33:27Z" uid="36809" user="pfoten_weg_!_" changeset="2250754">
    <nd ref="354030776"/>
    <nd ref="31406506"/>
    <nd ref="31406107"/>
    <nd ref="31406189"/>
    <nd ref="353092427"/>
    <tag k="highway" v="tertiary"/>
    <tag k="maxspeed" v="60"/>
    <tag k="name" v="Seestraße"/>
    <tag k="ref" v="K 25"/>
  </way>
  <way id="31650760" version="4" timestamp="2009-08-24T22:47:51Z" uid="36809" user="pfoten_weg_!_" changeset="2250819">
    <nd ref="354030776"/>
    <nd ref="31406506"/>
    <nd ref="31406107"/>
    <nd ref="31406189"/>
    <nd ref="353092427"/>
    <tag k="discovered_by" v="RambaZamba"/>
    <tag k="highway" v="tertiary"/>
    <tag k="maxspeed" v="60"/>
    <tag k="name" v="Seestraße"/>
    <tag k="ref" v="K 25"/>
  </way>
  <way id="31650760" version="6" timestamp="2009-08-28T22:55:14Z" uid="36809" user="pfoten_weg_!_" changeset="2295919">
    <nd ref="354030776"/>
    <nd ref="31406506"/>
    <nd ref="31406107"/>
    <nd ref="31406189"/>
    <nd ref="353092427"/>
    <tag k="discovered_by" v="RambaZamba"/>
    <tag k="highway" v="tertiary"/>
    <tag k="maxspeed" v="60"/>
    <tag k="name" v="Seestraße"/>
    <tag k="ref" v="K 25"/>
    <tag k="source" v="survey"/>
  </way>
  <way id="31650760" version="8" timestamp="2009-08-31T22:23:01Z" uid="36809" user="pfoten_weg_!_" changeset="2332133">
    <nd ref="354030776"/>
    <nd ref="31406506"/>
    <nd ref="31406107"/>
    <nd ref="31406189"/>
    <nd ref="353092427"/>
    <tag k="highway" v="tertiary"/>
    <tag k="maxspeed" v="60"/>
    <tag k="name" v="Seestraße"/>
    <tag k="ref" v="K 25"/>
    <tag k="source" v="survey"/>
  </way>
  <way id="31650761" version="2" timestamp="2009-08-24T22:05:40Z" uid="36809" user="pfoten_weg_!_" changeset="2250603">
    <nd ref="354030778"/>
    <nd ref="353095597"/>
    <nd ref="354030781"/>
    <tag k="bicycle" v="no"/>
    <tag k="highway" v="secondary"/>
    <tag k="maxspeed" v="70"/>
    <tag k="name" v="Bäderstraße"/>
    <tag k="nore:de" v="Warnung"/>
    <tag k="ref" v="L 21"/>
    <tag k="source" v="survey"/>
  </way>
  <way id="31650761" version="3" timestamp="2009-08-24T22:34:20Z" uid="36809" user="pfoten_weg_!_" changeset="2250754">
    <nd ref="354030778"/>
    <nd ref="353095597"/>
    <nd ref="354030781"/>
    <tag k="bicycle" v="no"/>
    <tag k="highway" v="secondary"/>
    <tag k="maxspeed" v="70"/>
    <tag k="name" v="Bäderstraße"/>
    <tag k="ref" v="L 21"/>
    <tag k="source" v="survey"/>
  </way>
  <way id="31650761" version="4" timestamp="2009-08-24T22:50:03Z" uid="36809" user="pfoten_weg_!_" changeset="2250819">
    <nd ref="354030778"/>
    <nd ref="353095597"/>
    <nd ref="354030781"/>
    <tag k="bicycle" v="no"/>
    <tag k="discovered_by" v="RambaZamba"/>
    <tag k="highway" v="secondary"/>
    <tag k="maxspeed" v="70"/>
    <tag k="name" v="Bäderstraße"/>
    <tag k="ref" v="L 21"/>
    <tag k="source" v="survey"/>
  </way>
  <way id="31650761" version="6" timestamp="2009-08-28T22:55:45Z" uid="36809" user="pfoten_weg_!_" changeset="2295919">
    <nd ref="354030778"/>
    <nd ref="353095597"/>
    <nd ref="354030781"/>
    <tag k="bicycle" v="no"/>
    <tag k="discovered_by" v="RambaZamba"/>
    <tag k="highway" v="secondary"/>
    <tag k="maxspeed" v="70"/>
    <tag k="name" v="Bäderstraße"/>
    <tag k="ref" v="L 21"/>
    <tag k="source" v="survey"/>
  </way>
  <way id="31650761" version="8" timestamp="2009-08-31T22:21:34Z" uid="36809" user="pfoten_weg_!_" changeset="2332133">
    <nd ref="354030778"/>
    <nd ref="353095597"/>
    <nd ref="354030781"/>
    <tag k="bicycle" v="no"/>
    <tag k="highway" v="secondary"/>
    <tag k="maxspeed" v="70"/>
    <tag k="name" v="Bäderstraße"/>
    <tag k="ref" v="L 21"/>
    <tag k="source" v="survey"/>
  </way>
  <way id="31650762" version="2" timestamp="2009-08-24T22:01:11Z" uid="36809" user="pfoten_weg_!_" changeset="2250603">
    <nd ref="353096138"/>
    <nd ref="354030783"/>
    <tag k="highway" v="steps"/>
    <tag k="name" v="Übergang 17b"/>
    <tag k="nore:de" v="Warnung"/>
  </way>
  <way id="31650762" version="3" timestamp="2009-08-24T22:31:33Z" uid="36809" user="pfoten_weg_!_" changeset="2250754">
    <nd ref="353096138"/>
    <nd ref="354030783"/>
    <tag k="highway" v="steps"/>
    <tag k="name" v="Übergang 17b"/>
  </way>
  <way id="31650762" version="4" timestamp="2009-08-24T22:44:53Z" uid="36809" user="pfoten_weg_!_" changeset="2250819">
    <nd ref="353096138"/>
    <nd ref="354030783"/>
    <tag k="discovered_by" v="RambaZamba"/>
    <tag k="highway" v="steps"/>
    <tag k="name" v="Übergang 17b"/>
  </way>
  <way id="31650762" version="6" timestamp="2009-08-28T22:52:40Z" uid="36809" user="pfoten_weg_!_" changeset="2295919">
    <nd ref="353096138"/>
    <nd ref="354030783"/>
    <tag k="discovered_by" v="RambaZamba"/>
    <tag k="highway" v="steps"/>
    <tag k="name" v="Übergang 17b"/>
    <tag k="source" v="survey"/>
  </way>
  <way id="31650762" version="8" timestamp="2009-08-31T22:21:31Z" uid="36809" user="pfoten_weg_!_" changeset="2332133">
    <nd ref="353096138"/>
    <nd ref="354030783"/>
    <tag k="highway" v="steps"/>
    <tag k="name" v="Übergang 17b"/>
    <tag k="source" v="survey"/>
  </way>
  <way id="31650763" version="2" timestamp="2009-08-24T22:00:32Z" uid="36809" user="pfoten_weg_!_" changeset="2250603">
    <nd ref="353096138"/>
    <nd ref="354030781"/>
    <tag k="highway" v="steps"/>
    <tag k="name" v="Übergang 17b"/>
    <tag k="nore:de" v="Warnung"/>
  </way>
  <way id="31650763" version="3" timestamp="2009-08-24T22:31:06Z" uid="36809" user="pfoten_weg_!_" changeset="2250754">
    <nd ref="353096138"/>
    <nd ref="354030781"/>
    <tag k="highway" v="steps"/>
    <tag k="name" v="Übergang 17b"/>
  </way>
  <way id="31650763" version="4" timestamp="2009-08-24T22:44:02Z" uid="36809" user="pfoten_weg_!_" changeset="2250819">
    <nd ref="353096138"/>
    <nd ref="354030781"/>
    <tag k="discovered_by" v="RambaZamba"/>
    <tag k="highway" v="steps"/>
    <tag k="name" v="Übergang 17b"/>
  </way>
  <way id="31650763" version="6" timestamp="2009-08-28T22:54:03Z" uid="36809" user="pfoten_weg_!_" changeset="2295919">
    <nd ref="353096138"/>
    <nd ref="354030781"/>
    <tag k="discovered_by" v="RambaZamba"/>
    <tag k="highway" v="steps"/>
    <tag k="name" v="Übergang 17b"/>
    <tag k="source" v="survey"/>
  </way>
  <way id="31650763" version="8" timestamp="2009-08-31T22:19:45Z" uid="36809" user="pfoten_weg_!_" changeset="2332133">
    <nd ref="353096138"/>
    <nd ref="354030781"/>
    <tag k="highway" v="steps"/>
    <tag k="name" v="Übergang 17b"/>
    <tag k="source" v="survey"/>
  </way>
  <way id="31650764" version="2" timestamp="2009-08-24T22:04:37Z" uid="36809" user="pfoten_weg_!_" changeset="2250603">
    <nd ref="354030787"/>
    <nd ref="354030789"/>
    <nd ref="354030783"/>
    <tag k="highway" v="footway"/>
    <tag k="nore:de" v="Warnung"/>
  </way>
  <way id="31650764" version="3" timestamp="2009-08-24T22:33:40Z" uid="36809" user="pfoten_weg_!_" changeset="2250754">
    <nd ref="354030787"/>
    <nd ref="354030789"/>
    <nd ref="354030783"/>
    <tag k="highway" v="footway"/>
  </way>
  <way id="31650764" version="4" timestamp="2009-08-24T22:48:17Z" uid="36809" user="pfoten_weg_!_" changeset="2250819">
    <nd ref="354030787"/>
    <nd ref="354030789"/>
    <nd ref="354030783"/>
    <tag k="discovered_by" v="RambaZamba"/>
    <tag k="highway" v="footway"/>
  </way>
  <way id="31650764" version="6" timestamp="2009-08-28T22:55:04Z" uid="36809" user="pfoten_weg_!_" changeset="2295919">
    <nd ref="354030787"/>
    <nd ref="354030789"/>
    <nd ref="354030783"/>
    <tag k="discovered_by" v="RambaZamba"/>
    <tag k="highway" v="footway"/>
    <tag k="source" v="survey"/>
  </way>
  <way id="31650764" version="8" timestamp="2009-08-31T22:19:42Z" uid="36809" user="pfoten_weg_!_" changeset="2332133">
    <nd ref="354030787"/>
    <nd ref="354030789"/>
    <nd ref="354030783"/>
    <tag k="highway" v="footway"/>
    <tag k="source" v="survey"/>
  </way>
  <way id="31650765" version="3" timestamp="2009-08-21T20:51:08Z" uid="36809" user="pfoten_weg_!_" changeset="2228117">
    <nd ref="354030781"/>
    <nd ref="353095586"/>
    <nd ref="353092427"/>
    <tag k="discovered_by" v="RambaZamba"/>
    <tag k="highway" v="secondary"/>
    <tag k="maxspeed" v="70"/>
    <tag k="name" v="Bäderstraße"/>
    <tag k="ref" v="L 21"/>
    <tag k="source" v="survey"/>
  </way>
  <way id="31650765" version="5" timestamp="2009-08-28T22:54:45Z" uid="36809" user="pfoten_weg_!_" changeset="2295919">
    <nd ref="354030781"/>
    <nd ref="353095586"/>
    <nd ref="353092427"/>
    <tag k="discovered_by" v="RambaZamba"/>
    <tag k="highway" v="secondary"/>
    <tag k="maxspeed" v="70"/>
    <tag k="name" v="Bäderstraße"/>
    <tag k="ref" v="L 21"/>
    <tag k="source" v="survey"/>
  </way>
  <way id="31650765" version="7" timestamp="2009-08-31T22:24:17Z" uid="36809" user="pfoten_weg_!_" changeset="2332133">
    <nd ref="354030781"/>
    <nd ref="353095586"/>
    <nd ref="353092427"/>
    <tag k="highway" v="secondary"/>
    <tag k="maxspeed" v="70"/>
    <tag k="name" v="Bäderstraße"/>
    <tag k="ref" v="L 21"/>
    <tag k="source" v="survey"/>
  </way>
  <way id="31650823" version="4" timestamp="2010-04-02T17:29:47Z" uid="20587" user="balrog-kun" changeset="4304500">
    <nd ref="354033017"/>
    <nd ref="53195385"/>
    <nd ref="354028884"/>
    <nd ref="354028885"/>
    <nd ref="53201587"/>
    <tag k="created_by" v="Potlatch 0.10f"/>
    <tag k="highway" v="residential"/>
    <tag k="name" v="24th Avenue Southwest"/>
    <tag k="tiger:cfcc" v="A41"/>
    <tag k="tiger:county" v="King, WA"/>
    <tag k="tiger:name_base" v="24th"/>
    <tag k="tiger:name_direction_suffix" v="SW"/>
    <tag k="tiger:name_type" v="Ave"/>
    <tag k="tiger:reviewed" v="no"/>
    <tag k="tiger:separated" v="no"/>
    <tag k="tiger:source" v="tiger_import_dch_v0.6_20070830"/>
    <tag k="tiger:tlid" v="186590969:186590973:186962678"/>
    <tag k="tiger:zip_left" v="98106"/>
    <tag k="tiger:zip_right" v="98106"/>
  </way>
  <way id="31650857" version="5" timestamp="2010-03-22T05:46:29Z" uid="20587" user="balrog-kun" changeset="4199043">
    <nd ref="38751473"/>
    <nd ref="38831941"/>
    <nd ref="38835835"/>
    <nd ref="429406961"/>
    <tag k="highway" v="residential"/>
    <tag k="history" v="Retrieved from v1"/>
    <tag k="name" v="Southwest 90th Avenue"/>
    <tag k="tiger:cfcc" v="A41"/>
    <tag k="tiger:county" v="Washington, OR"/>
    <tag k="tiger:name_base" v="90th"/>
    <tag k="tiger:name_type" v="Ave"/>
    <tag k="tiger:reviewed" v="no"/>
    <tag k="tiger:separated" v="no"/>
    <tag k="tiger:source" v="tiger_import_dch_v0.6_20070808"/>
    <tag k="tiger:tlid" v="158187326:158187213:158187214:158187216"/>
    <tag k="tiger:zip_left" v="97225"/>
    <tag k="tiger:zip_right" v="97225"/>
  </way>
  <way id="31650895" version="5" timestamp="2009-05-01T11:17:29Z" uid="85955" user="Gerd Höweler" changeset="1035513">
    <nd ref="300853825"/>
    <nd ref="354035110"/>
    <nd ref="354035114"/>
    <nd ref="354035103"/>
    <tag k="created_by" v="Potlatch 0.10f"/>
    <tag k="highway" v="path"/>
    <tag k="surface" v="unpaved"/>
  </way>
</osm>
