<?xml version='1.0' encoding='UTF-8'?>
<osm version="0.6" generator="libosmium/2.20.0">
  <way id="3170076" version="2" timestamp="2008-05-06T12:39:01Z" uid="30201" user="rrankin" changeset="347952">
    <nd ref="60287066"/>
    <nd ref="26637638"/>
    <nd ref="17853387"/>
    <tag k="created_by" v="Potlatch alpha"/>
    <tag k="highway" v="primary"/>
    <tag k="layer" v="2"/>
    <tag k="name" v="Marsh Street"/>
    <tag k="oneway" v="yes"/>
    <tag k="ref" v="D5"/>
  </way>
  <way id="3170076" version="3" timestamp="2009-12-09T00:25:15Z" uid="30201" user="rrankin" changeset="3330295">
    <nd ref="60287066"/>
    <nd ref="26637638"/>
    <nd ref="583437688"/>
    <nd ref="17853387"/>
    <tag k="highway" v="primary"/>
    <tag k="layer" v="2"/>
    <tag k="name" v="Marsh Street"/>
    <tag k="oneway" v="yes"/>
    <tag k="ref" v="D5"/>
  </way>
  <way id="3170087" version="3" timestamp="2009-12-02T23:37:38Z" uid="30201" user="rrankin" changeset="3276630">
    <nd ref="32847398"/>
    <nd ref="32847397"/>
    <nd ref="15173600"/>
    <nd ref="15173574"/>
    <nd ref="15173578"/>
    <nd ref="15173583"/>
    <nd ref="15173587"/>
    <tag k="highway" v="unclassified"/>
    <tag k="name" v="Marsh Street"/>
    <tag k="source:name" v="road sign"/>
  </way>
  <way id="3170087" version="4" timestamp="2010-10-31T03:12:19Z" uid="7617" user="Franc" changeset="6234803">
    <nd ref="32847398"/>
    <nd ref="32847397"/>
    <nd ref="15173600"/>
    <nd ref="15173574"/>
    <nd ref="15173578"/>
    <tag k="highway" v="unclassified"/>
    <tag k="name" v="Marsh Street"/>
    <tag k="source:name" v="road sign"/>
  </way>
  <way id="3170088" version="1" timestamp="2007-07-08T08:44:06Z" uid="7617" user="Franc" changeset="134017">
    <nd ref="15173596"/>
    <nd ref="12052628"/>
    <nd ref="15173592"/>
    <nd ref="15173578"/>
    <tag k="abutters" v="park"/>
    <tag k="created_by" v="JOSM"/>
    <tag k="highway" v="service"/>
    <tag k="name" v="Levey Street"/>
  </way>
  <way id="3170088" version="2" timestamp="2009-12-02T23:37:38Z" uid="30201" user="rrankin" changeset="3276630">
    <nd ref="15173596"/>
    <nd ref="12052628"/>
    <nd ref="15173592"/>
    <nd ref="15173578"/>
    <tag k="highway" v="service"/>
    <tag k="name" v="Levey Street"/>
  </way>
  <way id="3170088" version="3" timestamp="2010-10-31T03:12:23Z" uid="7617" user="Franc" changeset="6234803">
    <nd ref="17396342"/>
    <nd ref="15173596"/>
    <nd ref="12052628"/>
    <tag k="highway" v="unclassified"/>
    <tag k="name" v="Levey Street"/>
  </way>
  <way id="3170089" version="3" timestamp="2009-12-29T23:05:55Z" uid="7617" user="Franc" changeset="3486180">
    <nd ref="12052632"/>
    <nd ref="32847397"/>
    <nd ref="12052652"/>
    <nd ref="26637622"/>
    <nd ref="17853390"/>
    <nd ref="15173605"/>
    <nd ref="15173609"/>
    <nd ref="15173613"/>
    <nd ref="601195879"/>
    <nd ref="601195877"/>
    <nd ref="49153216"/>
    <tag k="cycleway" v="track"/>
    <tag k="foot" v="yes"/>
    <tag k="highway" v="cycleway"/>
    <tag k="rcn" v="yes"/>
    <tag k="rcn_ref" v="Botany Bay"/>
  </way>
  <way id="3170421" version="2" timestamp="2008-08-06T10:09:03Z" uid="7617" user="Franc" changeset="92144">
    <nd ref="15177273"/>
    <nd ref="15177275"/>
    <nd ref="15177278"/>
    <nd ref="15177280"/>
    <nd ref="15177282"/>
    <nd ref="284489491"/>
    <nd ref="284489514"/>
    <nd ref="284489535"/>
    <nd ref="284489561"/>
    <nd ref="284489589"/>
    <nd ref="284489616"/>
    <nd ref="284489643"/>
    <tag k="created_by" v="JOSM"/>
    <tag k="highway" v="unclassified"/>
    <tag k="name" v="Eve Street"/>
  </way>
  <way id="3170421" version="3" timestamp="2009-12-29T23:06:00Z" uid="7617" user="Franc" changeset="3486180">
    <nd ref="15177273"/>
    <nd ref="601195842"/>
    <nd ref="15177275"/>
    <nd ref="601195839"/>
    <nd ref="601195823"/>
    <nd ref="15177278"/>
    <nd ref="15177280"/>
    <nd ref="15177282"/>
    <nd ref="284489491"/>
    <nd ref="284489514"/>
    <nd ref="284489535"/>
    <nd ref="284489561"/>
    <nd ref="284489589"/>
    <nd ref="284489616"/>
    <nd ref="284489643"/>
    <tag k="highway" v="unclassified"/>
    <tag k="name" v="Eve Street"/>
  </way>
  <way id="3170572" version="2" timestamp="2009-12-09T00:25:13Z" uid="30201" user="rrankin" changeset="3330295">
    <nd ref="26453179"/>
    <nd ref="15177879"/>
    <nd ref="15177877"/>
    <nd ref="15179281"/>
    <nd ref="15179280"/>
    <nd ref="15179279"/>
    <nd ref="15179277"/>
    <nd ref="32826298"/>
    <nd ref="15179274"/>
    <nd ref="34507044"/>
    <tag k="highway" v="residential"/>
    <tag k="name" v="The Grand Parade"/>
  </way>
  <way id="3170572" version="3" timestamp="2010-07-08T02:54:20Z" uid="74617" user="JohnSmith" changeset="5163091">
    <nd ref="26453179"/>
    <nd ref="15177879"/>
    <nd ref="15177877"/>
    <nd ref="15179281"/>
    <nd ref="15179280"/>
    <nd ref="15179279"/>
    <nd ref="15179277"/>
    <nd ref="32826298"/>
    <nd ref="15179274"/>
    <nd ref="34507044"/>
    <tag k="highway" v="residential"/>
    <tag k="maxspeed" v="50"/>
    <tag k="maxspeed:source" v="default residential speed limit in Australia"/>
    <tag k="name" v="The Grand Parade"/>
  </way>
  <way id="3170573" version="1" timestamp="2007-09-27T00:55:37Z" uid="7617" user="Franc" changeset="523314">
    <nd ref="15179269"/>
    <nd ref="15179256"/>
    <nd ref="32826096"/>
    <nd ref="15179254"/>
    <nd ref="32826297"/>
    <nd ref="15179253"/>
    <nd ref="15179252"/>
    <nd ref="15179251"/>
    <nd ref="15177881"/>
    <tag k="created_by" v="Potlatch alpha"/>
    <tag k="highway" v="trunk"/>
    <tag k="lanes" v="3"/>
    <tag k="name" v="General Holmes Drive"/>
    <tag k="oneway" v="yes"/>
    <tag k="ref:au" v="MR1"/>
  </way>
  <way id="3170573" version="2" timestamp="2009-07-26T08:54:27Z" uid="74617" user="JohnSmith" changeset="1942153">
    <nd ref="15179257"/>
    <nd ref="15179269"/>
    <nd ref="15179256"/>
    <nd ref="32826096"/>
    <nd ref="15179254"/>
    <nd ref="32826297"/>
    <nd ref="15179253"/>
    <nd ref="15179252"/>
    <nd ref="15179251"/>
    <nd ref="15177881"/>
    <tag k="highway" v="trunk"/>
    <tag k="lanes" v="3"/>
    <tag k="name" v="General Holmes Drive"/>
    <tag k="oneway" v="yes"/>
    <tag k="ref" v="MR1"/>
  </way>
  <way id="3170573" version="4" timestamp="2010-03-29T17:06:01Z" uid="74617" user="JohnSmith" changeset="4269312">
    <nd ref="15179257"/>
    <nd ref="15179269"/>
    <nd ref="15179256"/>
    <nd ref="32826096"/>
    <nd ref="15179254"/>
    <nd ref="32826297"/>
    <nd ref="15179253"/>
    <nd ref="15179252"/>
    <nd ref="15179251"/>
    <nd ref="599901537"/>
    <tag k="highway" v="trunk"/>
    <tag k="lanes" v="3"/>
    <tag k="maxspeed" v="60"/>
    <tag k="name" v="General Holmes Drive"/>
    <tag k="oneway" v="yes"/>
  </way>
  <way id="3170654" version="2" timestamp="2008-05-12T08:57:08Z" uid="30201" user="rrankin" changeset="423732">
    <nd ref="15180108"/>
    <nd ref="15180115"/>
    <tag k="created_by" v="JOSM"/>
    <tag k="highway" v="footway"/>
    <tag k="layer" v="1"/>
    <tag k="name" v="footbridge"/>
  </way>
  <way id="3170654" version="3" timestamp="2011-02-05T03:08:35Z" uid="30201" user="rrankin" changeset="7189177"/>
  <way id="3170655" version="2" timestamp="2010-01-20T06:20:56Z" uid="7617" user="Franc" changeset="3664317">
    <nd ref="17855404"/>
    <nd ref="616960034"/>
    <nd ref="59943079"/>
    <nd ref="17855403"/>
    <nd ref="29137420"/>
    <nd ref="59744779"/>
    <nd ref="17855402"/>
    <nd ref="59702249"/>
    <nd ref="59702411"/>
    <nd ref="17855401"/>
    <nd ref="616960045"/>
    <nd ref="616960048"/>
    <nd ref="17855400"/>
    <nd ref="58140994"/>
    <nd ref="17855399"/>
    <nd ref="59703093"/>
    <nd ref="59703145"/>
    <nd ref="17855398"/>
    <nd ref="30471678"/>
    <nd ref="17855397"/>
    <nd ref="30471675"/>
    <nd ref="30471672"/>
    <nd ref="30471669"/>
    <nd ref="17855396"/>
    <nd ref="30471638"/>
    <nd ref="17855395"/>
    <nd ref="28273923"/>
    <nd ref="30471503"/>
    <nd ref="17855394"/>
    <nd ref="30471496"/>
    <nd ref="17855393"/>
    <nd ref="30471493"/>
    <nd ref="17855392"/>
    <nd ref="30471344"/>
    <nd ref="30470868"/>
    <nd ref="17855391"/>
    <nd ref="17854062"/>
    <tag k="highway" v="primary"/>
    <tag k="name" v="The Grand Parade"/>
  </way>
  <way id="3170759" version="2" timestamp="2008-08-28T11:52:13Z" uid="7617" user="Franc" changeset="440105">
    <nd ref="291748595"/>
    <nd ref="291748594"/>
    <nd ref="291748573"/>
    <nd ref="26637625"/>
    <nd ref="17853384"/>
    <nd ref="26361305"/>
    <nd ref="26361310"/>
    <nd ref="17853385"/>
    <nd ref="17853386"/>
    <nd ref="26637612"/>
    <nd ref="60286983"/>
    <tag k="created_by" v="Potlatch alpha"/>
    <tag k="highway" v="secondary"/>
    <tag k="name" v="West Botany Street"/>
  </way>
  <way id="3170759" version="3" timestamp="2009-12-29T23:05:56Z" uid="7617" user="Franc" changeset="3486180">
    <nd ref="291748595"/>
    <nd ref="291748594"/>
    <nd ref="291748573"/>
    <nd ref="26637625"/>
    <nd ref="17853384"/>
    <nd ref="26361305"/>
    <nd ref="26361310"/>
    <nd ref="17853385"/>
    <nd ref="17853386"/>
    <nd ref="601195892"/>
    <nd ref="26637612"/>
    <nd ref="60286983"/>
    <tag k="highway" v="secondary"/>
    <tag k="name" v="West Botany Street"/>
  </way>
  <way id="3170759" version="4" timestamp="2010-04-03T07:59:32Z" uid="7617" user="Franc" changeset="4310344">
    <nd ref="26637625"/>
    <nd ref="291748573"/>
    <nd ref="291748594"/>
    <nd ref="291748595"/>
    <tag k="highway" v="secondary"/>
    <tag k="name" v="West Botany Street"/>
    <tag k="oneway" v="yes"/>
  </way>
  <way id="3170759" version="5" timestamp="2011-06-12T22:06:19Z" uid="7617" user="Franc" changeset="8420502">
    <nd ref="26637625"/>
    <nd ref="291748573"/>
    <nd ref="291748594"/>
    <tag k="highway" v="secondary"/>
    <tag k="name" v="West Botany Street"/>
    <tag k="oneway" v="yes"/>
  </way>
  <way id="3170819" version="1" timestamp="2007-07-26T08:29:56Z" uid="7617" user="Franc" changeset="168845">
    <nd ref="29058770"/>
    <nd ref="15181703"/>
    <nd ref="15181710"/>
    <nd ref="15181711"/>
    <nd ref="15181719"/>
    <nd ref="15181723"/>
    <nd ref="15181735"/>
    <nd ref="30151234"/>
    <nd ref="15181736"/>
    <nd ref="30151235"/>
    <nd ref="15181750"/>
    <nd ref="15181766"/>
    <tag k="created_by" v="Potlatch alpha"/>
    <tag k="highway" v="secondary"/>
    <tag k="name" v="The Seven Ways"/>
  </way>
  <way id="3170819" version="2" timestamp="2008-03-06T06:15:53Z" uid="7617" user="Franc" changeset="273411">
    <nd ref="29058770"/>
    <nd ref="15181703"/>
    <nd ref="15181710"/>
    <nd ref="15181711"/>
    <nd ref="15181719"/>
    <nd ref="15181723"/>
    <nd ref="15181735"/>
    <nd ref="30151234"/>
    <nd ref="15181736"/>
    <nd ref="30151235"/>
    <tag k="created_by" v="Potlatch alpha"/>
    <tag k="highway" v="secondary"/>
    <tag k="name" v="The Seven Ways"/>
  </way>
  <way id="3170819" version="3" timestamp="2010-10-23T03:23:17Z" uid="7617" user="Franc" changeset="6141909">
    <nd ref="29058770"/>
    <nd ref="15181703"/>
    <nd ref="15181710"/>
    <nd ref="15181711"/>
    <nd ref="15181719"/>
    <nd ref="15181723"/>
    <nd ref="15181735"/>
    <nd ref="961085903"/>
    <nd ref="30151234"/>
    <nd ref="15181736"/>
    <nd ref="30151235"/>
    <tag k="highway" v="secondary"/>
    <tag k="name" v="The Seven Ways"/>
  </way>
  <way id="3170877" version="1" timestamp="2007-07-26T12:32:27Z" uid="7617" user="Franc" changeset="169448">
    <nd ref="15181787"/>
    <nd ref="32888063"/>
    <nd ref="15181800"/>
    <tag k="created_by" v="Potlatch alpha"/>
    <tag k="highway" v="residential"/>
    <tag k="name" v="Frederick Street"/>
  </way>
  <way id="3170877" version="2" timestamp="2007-11-18T02:27:37Z" uid="7617" user="Franc" changeset="549278">
    <nd ref="15181787"/>
    <nd ref="120726946"/>
    <nd ref="32888063"/>
    <nd ref="15181800"/>
    <tag k="created_by" v="Potlatch alpha"/>
    <tag k="highway" v="residential"/>
    <tag k="name" v="Frederick Street"/>
  </way>
  <way id="3170877" version="3" timestamp="2008-03-06T06:15:54Z" uid="7617" user="Franc" changeset="273411">
    <nd ref="15181787"/>
    <nd ref="120726946"/>
    <nd ref="250783173"/>
    <nd ref="32888063"/>
    <nd ref="15181800"/>
    <tag k="created_by" v="Potlatch alpha"/>
    <tag k="highway" v="residential"/>
    <tag k="name" v="Frederick Street"/>
  </way>
  <way id="3170877" version="4" timestamp="2010-02-23T07:39:36Z" uid="7617" user="Franc" changeset="3949884">
    <nd ref="15181787"/>
    <nd ref="120726946"/>
    <nd ref="250783173"/>
    <nd ref="32888063"/>
    <nd ref="651272667"/>
    <nd ref="15181800"/>
    <tag k="highway" v="residential"/>
    <tag k="name" v="Frederick Street"/>
  </way>
  <way id="3170877" version="5" timestamp="2010-07-08T02:55:34Z" uid="74617" user="JohnSmith" changeset="5163091">
    <nd ref="15181787"/>
    <nd ref="120726946"/>
    <nd ref="250783173"/>
    <nd ref="32888063"/>
    <nd ref="651272667"/>
    <nd ref="15181800"/>
    <tag k="highway" v="residential"/>
    <tag k="maxspeed" v="50"/>
    <tag k="maxspeed:source" v="default residential speed limit in Australia"/>
    <tag k="name" v="Frederick Street"/>
  </way>
  <way id="3170879" version="1" timestamp="2007-07-26T12:36:24Z" uid="7617" user="Franc" changeset="169448">
    <nd ref="15182266"/>
    <nd ref="15182283"/>
    <nd ref="15182299"/>
    <nd ref="15182300"/>
    <nd ref="15182306"/>
    <nd ref="32888409"/>
    <nd ref="32888390"/>
    <nd ref="15182311"/>
    <tag k="created_by" v="Potlatch alpha"/>
    <tag k="highway" v="secondary"/>
    <tag k="name" v="Railway Street"/>
  </way>
  <way id="3170879" version="2" timestamp="2008-03-06T06:15:58Z" uid="7617" user="Franc" changeset="273411"/>
  <way id="3170908" version="1" timestamp="2007-07-15T23:59:27Z" uid="7617" user="Franc" changeset="145615">
    <nd ref="15181805"/>
    <nd ref="15181804"/>
    <nd ref="15181806"/>
    <nd ref="15182365"/>
    <nd ref="31293363"/>
    <tag k="created_by" v="Potlatch alpha"/>
    <tag k="railway" v="rail"/>
  </way>
  <way id="3170908" version="2" timestamp="2008-05-09T23:35:43Z" uid="30201" user="rrankin" changeset="377638"/>
</osm>
