<?xml version='1.0' encoding='UTF-8'?>
<osm version="0.6" generator="libosmium/2.20.0">
  <way id="3190040" version="1" timestamp="2007-09-22T13:07:23Z" uid="7617" user="Franc" changeset="496029">
    <nd ref="18455721"/>
    <nd ref="18455797"/>
    <nd ref="18455560"/>
    <nd ref="15445770"/>
    <nd ref="15445738"/>
    <tag k="created_by" v="JOSM"/>
    <tag k="highway" v="secondary"/>
    <tag k="name" v="Henderson Road"/>
  </way>
  <way id="3190040" version="3" timestamp="2008-03-12T10:52:36Z" uid="7617" user="Franc" changeset="308370">
    <nd ref="53275433"/>
    <nd ref="18455721"/>
    <nd ref="251742916"/>
    <nd ref="18455797"/>
    <nd ref="18455560"/>
    <nd ref="15445770"/>
    <nd ref="15445738"/>
    <tag k="created_by" v="Potlatch 0.7b"/>
    <tag k="highway" v="secondary"/>
    <tag k="name" v="Henderson Road"/>
  </way>
  <way id="3190040" version="4" timestamp="2008-03-12T12:16:03Z" uid="7617" user="Franc" changeset="309492">
    <nd ref="53275433"/>
    <nd ref="18455721"/>
    <nd ref="251742916"/>
    <nd ref="18455797"/>
    <nd ref="18455560"/>
    <nd ref="251749773"/>
    <nd ref="15445770"/>
    <nd ref="15445738"/>
    <tag k="created_by" v="Potlatch 0.7b"/>
    <tag k="highway" v="secondary"/>
    <tag k="name" v="Henderson Road"/>
  </way>
  <way id="3190040" version="5" timestamp="2008-03-20T12:25:52Z" uid="7617" user="Franc" changeset="358141">
    <nd ref="53275433"/>
    <nd ref="18455721"/>
    <nd ref="251742916"/>
    <nd ref="18455797"/>
    <nd ref="18455560"/>
    <nd ref="251749773"/>
    <nd ref="253031394"/>
    <nd ref="15445770"/>
    <nd ref="15445738"/>
    <tag k="created_by" v="Potlatch 0.7b"/>
    <tag k="highway" v="secondary"/>
    <tag k="name" v="Henderson Road"/>
  </way>
  <way id="3190040" version="7" timestamp="2008-11-24T07:06:33Z" uid="7617" user="Franc" changeset="786627">
    <nd ref="53275434"/>
    <nd ref="18455721"/>
    <nd ref="251742916"/>
    <nd ref="18455797"/>
    <nd ref="18455560"/>
    <tag k="created_by" v="Potlatch 0.7b"/>
    <tag k="highway" v="secondary"/>
    <tag k="name" v="Henderson Road"/>
  </way>
  <way id="3190040" version="9" timestamp="2010-01-18T11:36:44Z" uid="7617" user="Franc" changeset="3649518">
    <nd ref="616151246"/>
    <nd ref="18455721"/>
    <nd ref="251742916"/>
    <nd ref="18455797"/>
    <nd ref="18455560"/>
    <tag k="highway" v="secondary"/>
    <tag k="name" v="Henderson Road"/>
  </way>
  <way id="3190040" version="10" timestamp="2011-04-30T13:21:45Z" uid="7617" user="Franc" changeset="8011634">
    <nd ref="616151246"/>
    <nd ref="18455721"/>
    <nd ref="251742916"/>
    <nd ref="18455797"/>
    <nd ref="18455560"/>
    <tag k="highway" v="secondary"/>
    <tag k="maxspeed" v="50"/>
    <tag k="name" v="Henderson Road"/>
  </way>
  <way id="3190041" version="4" timestamp="2008-03-12T12:16:04Z" uid="7617" user="Franc" changeset="309492">
    <nd ref="15445739"/>
    <nd ref="26378907"/>
    <nd ref="15445741"/>
    <nd ref="15445749"/>
    <tag k="created_by" v="Potlatch 0.5d"/>
    <tag k="highway" v="primary"/>
    <tag k="name" v="Botany Road"/>
    <tag k="ref" v="S66"/>
  </way>
  <way id="3190041" version="5" timestamp="2008-03-21T04:10:01Z" uid="7617" user="Franc" changeset="361294">
    <nd ref="15445739"/>
    <nd ref="26378907"/>
    <nd ref="253119384"/>
    <nd ref="15445741"/>
    <nd ref="15445749"/>
    <tag k="created_by" v="Potlatch 0.5d"/>
    <tag k="highway" v="primary"/>
    <tag k="name" v="Botany Road"/>
    <tag k="ref" v="S66"/>
  </way>
  <way id="3190041" version="7" timestamp="2009-06-04T06:31:27Z" uid="7617" user="Franc" changeset="1418864">
    <nd ref="15445739"/>
    <nd ref="26378907"/>
    <nd ref="253119384"/>
    <nd ref="415550624"/>
    <nd ref="15445741"/>
    <nd ref="15445749"/>
    <tag k="created_by" v="Potlatch 0.9c"/>
    <tag k="highway" v="primary"/>
    <tag k="name" v="Botany Road"/>
  </way>
  <way id="3190043" version="1" timestamp="2007-05-11T23:50:23Z" uid="7617" user="Franc" changeset="45507">
    <nd ref="15446498"/>
    <nd ref="15446495"/>
    <nd ref="15446497"/>
    <nd ref="15446493"/>
    <nd ref="15446498"/>
    <tag k="abutters" v="industrial"/>
    <tag k="created_by" v="JOSM"/>
    <tag k="highway" v="unclassified"/>
  </way>
  <way id="3190043" version="3" timestamp="2009-12-10T02:31:18Z" uid="30201" user="rrankin" changeset="3338883">
    <nd ref="15446498"/>
    <nd ref="15446495"/>
    <nd ref="15446497"/>
    <nd ref="15446493"/>
    <nd ref="15446498"/>
    <tag k="highway" v="unclassified"/>
    <tag k="junction" v="roundabout"/>
  </way>
  <way id="3190043" version="5" timestamp="2010-07-07T21:43:15Z" uid="74617" user="JohnSmith" changeset="5161069">
    <nd ref="15446498"/>
    <nd ref="15446495"/>
    <nd ref="15446497"/>
    <nd ref="15446493"/>
    <nd ref="15446498"/>
    <tag k="highway" v="residential"/>
    <tag k="junction" v="roundabout"/>
    <tag k="lcn" v="yes"/>
    <tag k="maxspeed" v="50"/>
    <tag k="maxspeed:source" v="default residential speed limit in Australia"/>
  </way>
  <way id="3190043" version="6" timestamp="2010-09-12T01:30:39Z" uid="7617" user="Franc" changeset="5755261">
    <nd ref="15446498"/>
    <nd ref="907693563"/>
    <nd ref="15446495"/>
    <nd ref="907693564"/>
    <nd ref="15446497"/>
    <nd ref="907693565"/>
    <nd ref="15446493"/>
    <nd ref="907693566"/>
    <nd ref="15446498"/>
    <tag k="highway" v="residential"/>
    <tag k="junction" v="roundabout"/>
    <tag k="lcn" v="yes"/>
    <tag k="maxspeed" v="50"/>
    <tag k="maxspeed:source" v="default residential speed limit in Australia"/>
  </way>
  <way id="3190045" version="1" timestamp="2007-09-22T23:59:57Z" uid="7617" user="Franc" changeset="497711">
    <nd ref="15446538"/>
    <nd ref="26359537"/>
    <nd ref="15445760"/>
    <nd ref="57932211"/>
    <nd ref="15445761"/>
    <nd ref="57943920"/>
    <nd ref="15446529"/>
    <tag k="abutters" v="industrial"/>
    <tag k="created_by" v="JOSM"/>
    <tag k="highway" v="secondary"/>
    <tag k="name" v="Joynton Avenue"/>
  </way>
  <way id="3190045" version="2" timestamp="2007-12-19T11:18:42Z" uid="7617" user="Franc" changeset="360949">
    <nd ref="15446538"/>
    <nd ref="26359537"/>
    <nd ref="178455094"/>
    <nd ref="178455541"/>
    <nd ref="178455588"/>
    <nd ref="178455425"/>
    <nd ref="178455518"/>
    <nd ref="178455184"/>
    <nd ref="15445760"/>
    <nd ref="57932211"/>
    <nd ref="15445761"/>
    <nd ref="57943920"/>
    <nd ref="15446529"/>
    <tag k="abutters" v="industrial"/>
    <tag k="created_by" v="JOSM"/>
    <tag k="highway" v="secondary"/>
    <tag k="name" v="Joynton Avenue"/>
  </way>
  <way id="3190045" version="3" timestamp="2007-12-26T05:18:12Z" uid="7617" user="Franc" changeset="425617">
    <nd ref="15446538"/>
    <nd ref="26359537"/>
    <nd ref="178455094"/>
    <nd ref="178455541"/>
    <nd ref="178455588"/>
    <nd ref="178455425"/>
    <nd ref="178455518"/>
    <nd ref="178455184"/>
    <nd ref="15445760"/>
    <nd ref="57932211"/>
    <nd ref="57943920"/>
    <nd ref="15446529"/>
    <tag k="abutters" v="industrial"/>
    <tag k="created_by" v="JOSM"/>
    <tag k="highway" v="secondary"/>
    <tag k="name" v="Joynton Avenue"/>
  </way>
  <way id="3190045" version="4" timestamp="2008-12-27T10:31:04Z" uid="7617" user="Franc" changeset="629702">
    <nd ref="15446538"/>
    <nd ref="26359537"/>
    <nd ref="178455094"/>
    <nd ref="178455541"/>
    <nd ref="178455588"/>
    <nd ref="178455425"/>
    <nd ref="178455518"/>
    <nd ref="321982373"/>
    <nd ref="321982367"/>
    <nd ref="178455184"/>
    <nd ref="321982361"/>
    <nd ref="15445760"/>
    <nd ref="57932211"/>
    <nd ref="57943920"/>
    <nd ref="15446529"/>
    <tag k="abutters" v="industrial"/>
    <tag k="created_by" v="JOSM"/>
    <tag k="highway" v="secondary"/>
    <tag k="name" v="Joynton Avenue"/>
  </way>
  <way id="3190045" version="6" timestamp="2009-12-04T08:04:32Z" uid="7617" user="Franc" changeset="3286537">
    <nd ref="15446538"/>
    <nd ref="26359537"/>
    <nd ref="178455094"/>
    <nd ref="178455541"/>
    <nd ref="178455588"/>
    <nd ref="178455425"/>
    <nd ref="178455518"/>
    <nd ref="321982373"/>
    <nd ref="321982367"/>
    <nd ref="178455184"/>
    <nd ref="580661825"/>
    <nd ref="321982361"/>
    <nd ref="15445760"/>
    <nd ref="57932211"/>
    <nd ref="57943920"/>
    <nd ref="15446529"/>
    <tag k="abutters" v="industrial"/>
    <tag k="highway" v="secondary"/>
    <tag k="name" v="Joynton Avenue"/>
  </way>
  <way id="3190045" version="7" timestamp="2009-12-10T02:31:11Z" uid="30201" user="rrankin" changeset="3338883">
    <nd ref="15446538"/>
    <nd ref="26359537"/>
    <nd ref="178455094"/>
    <nd ref="178455541"/>
    <nd ref="178455588"/>
    <nd ref="178455425"/>
    <nd ref="178455518"/>
    <nd ref="321982373"/>
    <nd ref="321982367"/>
    <nd ref="178455184"/>
    <nd ref="580661825"/>
    <nd ref="321982361"/>
    <nd ref="15445760"/>
    <nd ref="57932211"/>
    <nd ref="57943920"/>
    <nd ref="15446529"/>
    <tag k="highway" v="secondary"/>
    <tag k="name" v="Joynton Avenue"/>
  </way>
  <way id="3190045" version="8" timestamp="2010-05-12T12:17:16Z" uid="7617" user="Franc" changeset="4676716">
    <nd ref="15446538"/>
    <nd ref="26359537"/>
    <nd ref="178455094"/>
    <nd ref="178455541"/>
    <nd ref="178455588"/>
    <nd ref="178455425"/>
    <nd ref="178455518"/>
    <nd ref="321982373"/>
    <nd ref="321982367"/>
    <nd ref="178455184"/>
    <nd ref="580661825"/>
    <nd ref="321982361"/>
    <nd ref="15445760"/>
    <nd ref="730783013"/>
    <nd ref="57932211"/>
    <nd ref="57943920"/>
    <nd ref="730783011"/>
    <nd ref="15446529"/>
    <tag k="highway" v="secondary"/>
    <tag k="name" v="Joynton Avenue"/>
  </way>
  <way id="3190046" version="1" timestamp="2007-09-22T01:32:26Z" uid="7617" user="Franc" changeset="490863">
    <nd ref="15446529"/>
    <nd ref="15445765"/>
    <nd ref="31489466"/>
    <nd ref="26359752"/>
    <nd ref="18464836"/>
    <tag k="created_by" v="Potlatch alpha"/>
    <tag k="highway" v="unclassified"/>
    <tag k="name" v="Rothschild Avenue"/>
  </way>
  <way id="3190046" version="2" timestamp="2007-12-26T05:18:13Z" uid="7617" user="Franc" changeset="425617">
    <nd ref="15446529"/>
    <nd ref="15445765"/>
    <nd ref="189791768"/>
    <nd ref="31489466"/>
    <nd ref="26359752"/>
    <nd ref="18464836"/>
    <tag k="created_by" v="Potlatch alpha"/>
    <tag k="highway" v="unclassified"/>
    <tag k="name" v="Rothschild Avenue"/>
  </way>
  <way id="3190046" version="5" timestamp="2009-12-28T13:31:32Z" uid="7617" user="Franc" changeset="3471447">
    <nd ref="15446529"/>
    <nd ref="15445765"/>
    <nd ref="189791768"/>
    <nd ref="31489466"/>
    <nd ref="600382376"/>
    <nd ref="26359752"/>
    <nd ref="18464836"/>
    <tag k="highway" v="unclassified"/>
    <tag k="maxspeed" v="40"/>
    <tag k="name" v="Rothschild Avenue"/>
    <tag k="note" v="Roseberry 40 zone"/>
  </way>
  <way id="3190046" version="7" timestamp="2010-05-12T12:17:17Z" uid="7617" user="Franc" changeset="4676716">
    <nd ref="15446529"/>
    <nd ref="15445765"/>
    <nd ref="189791768"/>
    <nd ref="671952486"/>
    <nd ref="671952493"/>
    <nd ref="31489466"/>
    <nd ref="730783002"/>
    <nd ref="600382376"/>
    <nd ref="26359752"/>
    <nd ref="18464836"/>
    <tag k="highway" v="unclassified"/>
    <tag k="maxspeed" v="40"/>
    <tag k="name" v="Rothschild Avenue"/>
    <tag k="note" v="Roseberry 40 zone"/>
  </way>
  <way id="3190046" version="8" timestamp="2010-09-12T20:21:38Z" uid="7617" user="Franc" changeset="5764080">
    <nd ref="15446529"/>
    <nd ref="15445765"/>
    <nd ref="909300158"/>
    <nd ref="189791768"/>
    <nd ref="671952486"/>
    <nd ref="671952493"/>
    <nd ref="31489466"/>
    <nd ref="730783002"/>
    <nd ref="600382376"/>
    <nd ref="26359752"/>
    <nd ref="18464836"/>
    <tag k="highway" v="unclassified"/>
    <tag k="maxspeed" v="40"/>
    <tag k="name" v="Rothschild Avenue"/>
    <tag k="note" v="Roseberry 40 zone"/>
  </way>
  <way id="3190084" version="1" timestamp="2007-09-23T00:00:00Z" uid="7617" user="Franc" changeset="497711">
    <nd ref="15446526"/>
    <nd ref="57382611"/>
    <nd ref="18464705"/>
    <nd ref="26359827"/>
    <nd ref="57943931"/>
    <nd ref="15446529"/>
    <nd ref="15446534"/>
    <nd ref="30762388"/>
    <nd ref="30762389"/>
    <nd ref="26359555"/>
    <nd ref="26359556"/>
    <nd ref="26359557"/>
    <tag k="created_by" v="Potlatch alpha"/>
    <tag k="highway" v="secondary"/>
    <tag k="name" v="Epsom Road"/>
  </way>
  <way id="3190084" version="5" timestamp="2010-09-12T01:30:44Z" uid="7617" user="Franc" changeset="5755261">
    <nd ref="15446526"/>
    <nd ref="907694019"/>
    <nd ref="18464705"/>
    <nd ref="26359827"/>
    <nd ref="57943931"/>
    <nd ref="15446529"/>
    <tag k="highway" v="secondary"/>
    <tag k="maxspeed" v="50"/>
    <tag k="name" v="Epsom Road"/>
  </way>
  <way id="3190085" version="1" timestamp="2007-09-22T23:33:34Z" uid="7617" user="Franc" changeset="497711">
    <nd ref="15447006"/>
    <nd ref="15446999"/>
    <nd ref="15447002"/>
    <nd ref="15447004"/>
    <nd ref="15447006"/>
    <tag k="abutters" v="residential"/>
    <tag k="created_by" v="JOSM"/>
    <tag k="highway" v="unclassified"/>
    <tag k="name" v="Elizabeth Street"/>
  </way>
  <way id="3190085" version="2" timestamp="2007-12-26T08:34:06Z" uid="7617" user="Franc" changeset="427124"/>
  <way id="3190086" version="1" timestamp="2007-09-22T23:33:38Z" uid="7617" user="Franc" changeset="497711">
    <nd ref="8407290"/>
    <nd ref="15445752"/>
    <nd ref="18802195"/>
    <nd ref="31481421"/>
    <nd ref="15445756"/>
    <nd ref="26359506"/>
    <nd ref="15445759"/>
    <nd ref="14750596"/>
    <nd ref="26359464"/>
    <nd ref="18449038"/>
    <nd ref="18454053"/>
    <nd ref="57932197"/>
    <nd ref="15445737"/>
    <tag k="created_by" v="JOSM"/>
    <tag k="highway" v="secondary"/>
    <tag k="name" v="Elizabeth Street"/>
  </way>
  <way id="3190086" version="2" timestamp="2008-03-21T09:42:51Z" uid="7617" user="Franc" changeset="361664">
    <nd ref="8407290"/>
    <nd ref="15445752"/>
    <nd ref="18802195"/>
    <nd ref="253133128"/>
    <nd ref="31481421"/>
    <nd ref="15445756"/>
    <nd ref="26359506"/>
    <nd ref="15445759"/>
    <nd ref="14750596"/>
    <nd ref="26359464"/>
    <nd ref="18449038"/>
    <nd ref="18454053"/>
    <nd ref="57932197"/>
    <nd ref="15445737"/>
    <tag k="created_by" v="JOSM"/>
    <tag k="highway" v="secondary"/>
    <tag k="name" v="Elizabeth Street"/>
  </way>
  <way id="3190086" version="3" timestamp="2009-01-29T12:40:47Z" uid="7617" user="Franc" changeset="851889">
    <nd ref="8407290"/>
    <nd ref="15445752"/>
    <nd ref="18802195"/>
    <nd ref="253133128"/>
    <nd ref="31481421"/>
    <nd ref="15445756"/>
    <nd ref="26359506"/>
    <nd ref="15445759"/>
    <nd ref="14750596"/>
    <nd ref="26359464"/>
    <nd ref="18449038"/>
    <nd ref="57932197"/>
    <nd ref="15445737"/>
    <tag k="created_by" v="JOSM"/>
    <tag k="highway" v="secondary"/>
    <tag k="name" v="Elizabeth Street"/>
  </way>
  <way id="3190086" version="6" timestamp="2009-12-25T01:01:13Z" uid="30201" user="rrankin" changeset="3445791">
    <nd ref="8407290"/>
    <nd ref="599129963"/>
    <nd ref="15445752"/>
    <nd ref="18802195"/>
    <tag k="highway" v="secondary"/>
    <tag k="maxspeed" v="50"/>
    <tag k="name" v="Elizabeth Street"/>
  </way>
  <way id="3190102" version="1" timestamp="2007-09-26T06:19:35Z" uid="7617" user="Franc" changeset="521522">
    <nd ref="15447245"/>
    <nd ref="26377606"/>
    <nd ref="26377580"/>
    <nd ref="15447254"/>
    <nd ref="26377706"/>
    <nd ref="26377775"/>
    <nd ref="15447258"/>
    <nd ref="26374889"/>
    <nd ref="26374880"/>
    <nd ref="15447263"/>
    <nd ref="15447268"/>
    <nd ref="15447273"/>
    <tag k="created_by" v="JOSM"/>
    <tag k="highway" v="secondary"/>
    <tag k="name" v="Albion Street"/>
  </way>
  <way id="3190102" version="4" timestamp="2008-07-28T08:23:05Z" uid="7617" user="Franc" changeset="611766">
    <nd ref="15447245"/>
    <nd ref="26377606"/>
    <tag k="created_by" v="Potlatch alpha"/>
    <tag k="highway" v="secondary"/>
    <tag k="name" v="Albion Street"/>
  </way>
  <way id="3190102" version="7" timestamp="2010-01-13T12:36:16Z" uid="61114" user="Trav" changeset="3609568">
    <nd ref="15447245"/>
    <nd ref="612927671"/>
    <nd ref="612927682"/>
    <nd ref="26377606"/>
    <tag k="highway" v="secondary"/>
    <tag k="maxspeed" v="50"/>
    <tag k="name" v="Albion Street"/>
  </way>
  <way id="3190102" version="8" timestamp="2011-01-15T03:40:05Z" uid="61114" user="Trav" changeset="6973537">
    <nd ref="15447245"/>
    <nd ref="612927671"/>
    <nd ref="1104213299"/>
    <tag k="highway" v="secondary"/>
    <tag k="maxspeed" v="50"/>
    <tag k="name" v="Albion Street"/>
  </way>
  <way id="3190132" version="4" timestamp="2008-07-30T04:20:29Z" uid="7617" user="Franc" changeset="625215">
    <nd ref="20635064"/>
    <nd ref="20958788"/>
    <nd ref="15448408"/>
    <nd ref="15448388"/>
    <nd ref="15448410"/>
    <nd ref="26410755"/>
    <nd ref="61093610"/>
    <nd ref="13887505"/>
    <tag k="created_by" v="Potlatch alpha"/>
    <tag k="highway" v="secondary"/>
    <tag k="name" v="Fitzroy Street"/>
    <tag k="oneway" v="yes"/>
  </way>
  <way id="3190132" version="5" timestamp="2009-05-09T06:50:00Z" uid="7617" user="Franc" changeset="1124060">
    <nd ref="20635064"/>
    <nd ref="20958788"/>
    <nd ref="15448408"/>
    <nd ref="15448388"/>
    <nd ref="15448410"/>
    <nd ref="392560184"/>
    <nd ref="392560183"/>
    <nd ref="392560192"/>
    <nd ref="26410755"/>
    <nd ref="61093610"/>
    <nd ref="13887505"/>
    <tag k="created_by" v="Potlatch alpha"/>
    <tag k="highway" v="secondary"/>
    <tag k="name" v="Fitzroy Street"/>
    <tag k="oneway" v="yes"/>
  </way>
  <way id="3190132" version="6" timestamp="2009-05-09T06:59:26Z" uid="7617" user="Franc" changeset="1124112">
    <nd ref="20635064"/>
    <nd ref="20958788"/>
    <nd ref="15448408"/>
    <nd ref="15448388"/>
    <nd ref="15448410"/>
    <nd ref="392560184"/>
    <nd ref="392560183"/>
    <nd ref="392560192"/>
    <nd ref="26410755"/>
    <nd ref="392563338"/>
    <nd ref="61093610"/>
    <nd ref="13887505"/>
    <tag k="created_by" v="Potlatch alpha"/>
    <tag k="highway" v="secondary"/>
    <tag k="name" v="Fitzroy Street"/>
    <tag k="oneway" v="yes"/>
  </way>
  <way id="3190132" version="8" timestamp="2009-11-29T06:38:53Z" uid="7617" user="Franc" changeset="3242561">
    <nd ref="20635064"/>
    <nd ref="20958788"/>
    <nd ref="15448408"/>
    <nd ref="15448410"/>
    <nd ref="392560184"/>
    <nd ref="392560183"/>
    <nd ref="392560192"/>
    <nd ref="26410755"/>
    <nd ref="392563338"/>
    <nd ref="61093610"/>
    <nd ref="13887505"/>
    <tag k="highway" v="secondary"/>
    <tag k="name" v="Fitzroy Street"/>
    <tag k="oneway" v="yes"/>
  </way>
  <way id="3190132" version="10" timestamp="2010-04-10T12:23:01Z" uid="7617" user="Franc" changeset="4381947">
    <nd ref="20635064"/>
    <nd ref="20958788"/>
    <nd ref="15448408"/>
    <nd ref="15448410"/>
    <nd ref="392560184"/>
    <nd ref="392560183"/>
    <nd ref="392560192"/>
    <nd ref="26410755"/>
    <nd ref="392563338"/>
    <nd ref="691386824"/>
    <nd ref="61093610"/>
    <nd ref="13887505"/>
    <tag k="highway" v="secondary"/>
    <tag k="maxspeed" v="50"/>
    <tag k="name" v="Fitzroy Street"/>
    <tag k="oneway" v="yes"/>
  </way>
  <way id="3190133" version="3" timestamp="2009-11-29T00:19:19Z" uid="7617" user="Franc" changeset="3241750">
    <nd ref="15448402"/>
    <nd ref="573908709"/>
    <nd ref="573908708"/>
    <nd ref="15448406"/>
    <tag k="highway" v="secondary"/>
    <tag k="name" v="Barcom Avenue"/>
  </way>
  <way id="3190133" version="4" timestamp="2009-11-29T06:38:57Z" uid="7617" user="Franc" changeset="3242561">
    <nd ref="15448402"/>
    <nd ref="573908709"/>
    <nd ref="573908708"/>
    <nd ref="574228513"/>
    <nd ref="15448406"/>
    <tag k="highway" v="secondary"/>
    <tag k="name" v="Barcom Avenue"/>
  </way>
  <way id="3190133" version="6" timestamp="2010-03-11T13:24:17Z" uid="7617" user="Franc" changeset="4097674">
    <nd ref="577292500"/>
    <nd ref="577292502"/>
    <nd ref="573908709"/>
    <nd ref="573908708"/>
    <nd ref="664020871"/>
    <nd ref="574228513"/>
    <nd ref="664020872"/>
    <nd ref="15448406"/>
    <tag k="highway" v="secondary"/>
    <tag k="name" v="Barcom Avenue"/>
    <tag k="oneway" v="yes"/>
  </way>
  <way id="3190134" version="6" timestamp="2010-04-10T12:22:57Z" uid="7617" user="Franc" changeset="4381947">
    <nd ref="577292500"/>
    <nd ref="45036368"/>
    <nd ref="26410710"/>
    <nd ref="45034734"/>
    <nd ref="361958852"/>
    <nd ref="26377564"/>
    <nd ref="15448386"/>
    <tag k="highway" v="secondary"/>
    <tag k="maxspeed" v="50"/>
    <tag k="name" v="South Dowling Street"/>
    <tag k="source" v="Yahoo Imagery"/>
  </way>
  <way id="3190134" version="7" timestamp="2010-06-10T10:24:20Z" uid="7617" user="Franc" changeset="4952787">
    <nd ref="577292500"/>
    <nd ref="45036368"/>
    <nd ref="26410710"/>
    <nd ref="45034734"/>
    <nd ref="361958852"/>
    <nd ref="768505698"/>
    <nd ref="26377564"/>
    <nd ref="15448386"/>
    <tag k="highway" v="secondary"/>
    <tag k="maxspeed" v="50"/>
    <tag k="name" v="South Dowling Street"/>
    <tag k="source" v="Yahoo Imagery"/>
  </way>
  <way id="3190134" version="8" timestamp="2010-09-07T08:12:23Z" uid="61114" user="Trav" changeset="5705438">
    <nd ref="577292500"/>
    <nd ref="45036368"/>
    <nd ref="26410710"/>
    <nd ref="45034734"/>
    <nd ref="361958852"/>
    <nd ref="768505698"/>
    <nd ref="900376272"/>
    <nd ref="26377564"/>
    <nd ref="15448386"/>
    <tag k="highway" v="secondary"/>
    <tag k="maxspeed" v="50"/>
    <tag k="name" v="South Dowling Street"/>
    <tag k="source" v="Yahoo Imagery"/>
  </way>
  <way id="3190134" version="10" timestamp="2010-10-29T11:47:16Z" uid="7617" user="Franc" changeset="6217658">
    <nd ref="577292500"/>
    <nd ref="968606600"/>
    <nd ref="45036368"/>
    <nd ref="26410710"/>
    <nd ref="45034734"/>
    <nd ref="361958852"/>
    <nd ref="768505698"/>
    <nd ref="900376272"/>
    <nd ref="26377564"/>
    <nd ref="15448386"/>
    <tag k="highway" v="primary"/>
    <tag k="maxspeed" v="50"/>
    <tag k="name" v="South Dowling Street"/>
    <tag k="source" v="Yahoo Imagery"/>
  </way>
  <way id="3190134" version="11" timestamp="2010-10-31T04:37:45Z" uid="7617" user="Franc" changeset="6234980">
    <nd ref="577292500"/>
    <nd ref="968606600"/>
    <nd ref="45036368"/>
    <nd ref="26410710"/>
    <nd ref="45034734"/>
    <nd ref="361958852"/>
    <nd ref="768505698"/>
    <nd ref="900376272"/>
    <nd ref="971565330"/>
    <nd ref="15448386"/>
    <tag k="highway" v="primary"/>
    <tag k="maxspeed" v="50"/>
    <tag k="name" v="South Dowling Street"/>
    <tag k="source" v="Yahoo Imagery"/>
  </way>
  <way id="3190135" version="6" timestamp="2008-02-05T11:21:42Z" uid="7617" user="Franc" changeset="45848">
    <nd ref="15448408"/>
    <nd ref="33530607"/>
    <nd ref="33530612"/>
    <nd ref="33530613"/>
    <nd ref="36255708"/>
    <nd ref="15448412"/>
    <nd ref="33530621"/>
    <nd ref="15448413"/>
    <nd ref="61091568"/>
    <nd ref="15448415"/>
    <nd ref="245918077"/>
    <nd ref="14751109"/>
    <nd ref="18449008"/>
    <tag k="created_by" v="Potlatch alpha"/>
    <tag k="highway" v="primary"/>
    <tag k="maxspeed" v="60"/>
    <tag k="name" v="South Dowling Street"/>
    <tag k="oneway" v="yes"/>
  </way>
  <way id="3190135" version="10" timestamp="2010-01-30T03:29:29Z" uid="30201" user="rrankin" changeset="3748150">
    <nd ref="15448408"/>
    <nd ref="33530607"/>
    <nd ref="33530612"/>
    <nd ref="391298753"/>
    <nd ref="33530613"/>
    <nd ref="391298752"/>
    <nd ref="622755684"/>
    <nd ref="622755685"/>
    <nd ref="15448412"/>
    <nd ref="33530621"/>
    <nd ref="311437575"/>
    <nd ref="15448413"/>
    <nd ref="61091568"/>
    <nd ref="15448415"/>
    <nd ref="245918077"/>
    <nd ref="14751109"/>
    <nd ref="18449008"/>
    <tag k="highway" v="primary"/>
    <tag k="maxspeed" v="60"/>
    <tag k="name" v="South Dowling Street"/>
    <tag k="oneway" v="yes"/>
  </way>
  <way id="3190135" version="11" timestamp="2010-01-30T05:02:21Z" uid="30201" user="rrankin" changeset="3748278">
    <nd ref="15448408"/>
    <nd ref="33530607"/>
    <nd ref="33530612"/>
    <nd ref="391298753"/>
    <nd ref="33530613"/>
    <nd ref="391298752"/>
    <nd ref="622755684"/>
    <nd ref="622755685"/>
    <nd ref="15448412"/>
    <nd ref="33530621"/>
    <nd ref="311437575"/>
    <nd ref="15448413"/>
    <nd ref="61091568"/>
    <nd ref="15448415"/>
    <nd ref="245918077"/>
    <nd ref="14751109"/>
    <nd ref="622787548"/>
    <nd ref="18449008"/>
    <tag k="highway" v="primary"/>
    <tag k="maxspeed" v="60"/>
    <tag k="name" v="South Dowling Street"/>
    <tag k="oneway" v="yes"/>
  </way>
  <way id="3190135" version="14" timestamp="2010-08-17T05:30:53Z" uid="4467" user="Rosscoe" changeset="5514588">
    <nd ref="15448408"/>
    <nd ref="854385324"/>
    <nd ref="854385364"/>
    <nd ref="33530607"/>
    <nd ref="33530612"/>
    <nd ref="391298753"/>
    <nd ref="33530613"/>
    <nd ref="391298752"/>
    <nd ref="622755684"/>
    <nd ref="622755685"/>
    <nd ref="15448412"/>
    <nd ref="864339114"/>
    <nd ref="33530621"/>
    <nd ref="311437575"/>
    <nd ref="854385381"/>
    <nd ref="854385382"/>
    <nd ref="854385383"/>
    <nd ref="854385384"/>
    <nd ref="854385385"/>
    <nd ref="854388509"/>
    <nd ref="15448413"/>
    <nd ref="61091568"/>
    <nd ref="15448415"/>
    <nd ref="245918077"/>
    <nd ref="14751109"/>
    <nd ref="622787548"/>
    <nd ref="18449008"/>
    <tag k="highway" v="primary"/>
    <tag k="maxspeed" v="60"/>
    <tag k="name" v="South Dowling Street"/>
    <tag k="oneway" v="yes"/>
  </way>
  <way id="3190135" version="15" timestamp="2010-12-20T07:04:24Z" uid="7617" user="Franc" changeset="6713184">
    <nd ref="15448408"/>
    <nd ref="854385324"/>
    <nd ref="854385364"/>
    <nd ref="33530607"/>
    <nd ref="33530612"/>
    <nd ref="391298753"/>
    <nd ref="33530613"/>
    <nd ref="391298752"/>
    <nd ref="622755684"/>
    <nd ref="622755685"/>
    <nd ref="15448412"/>
    <nd ref="864339114"/>
    <nd ref="33530621"/>
    <nd ref="311437575"/>
    <nd ref="854385381"/>
    <nd ref="854385382"/>
    <nd ref="854385383"/>
    <nd ref="854385384"/>
    <nd ref="854385385"/>
    <nd ref="854388509"/>
    <nd ref="15448413"/>
    <nd ref="61091568"/>
    <nd ref="15448415"/>
    <nd ref="245918077"/>
    <nd ref="14751109"/>
    <nd ref="1050927356"/>
    <nd ref="1050927360"/>
    <nd ref="622787548"/>
    <nd ref="18449008"/>
    <tag k="highway" v="primary"/>
    <tag k="maxspeed" v="60"/>
    <tag k="name" v="South Dowling Street"/>
    <tag k="oneway" v="yes"/>
  </way>
  <way id="3190198" version="2" timestamp="2008-05-12T12:26:14Z" uid="30201" user="rrankin" changeset="426982">
    <nd ref="15449288"/>
    <nd ref="8965676"/>
    <tag k="created_by" v="JOSM"/>
    <tag k="highway" v="footway"/>
    <tag k="layer" v="1"/>
    <tag k="name" v="footbridge"/>
  </way>
  <way id="3190198" version="3" timestamp="2009-08-16T05:23:16Z" uid="4467" user="Rosscoe" changeset="2160248">
    <nd ref="15449288"/>
    <nd ref="403818702"/>
    <nd ref="8965676"/>
    <tag k="highway" v="footway"/>
    <tag k="layer" v="1"/>
    <tag k="name" v="footbridge"/>
  </way>
  <way id="3190198" version="5" timestamp="2009-12-24T11:36:20Z" uid="30201" user="rrankin" changeset="3441442">
    <nd ref="15449288"/>
    <nd ref="403818702"/>
    <tag k="highway" v="footway"/>
    <tag k="layer" v="1"/>
    <tag k="name" v="footbridge"/>
  </way>
  <way id="3190199" version="2" timestamp="2008-05-04T22:18:38Z" uid="30201" user="rrankin" changeset="336241">
    <nd ref="17395607"/>
    <nd ref="26625768"/>
    <nd ref="15449298"/>
    <nd ref="262241908"/>
    <nd ref="15449297"/>
    <nd ref="15449295"/>
    <nd ref="15449293"/>
    <nd ref="8965676"/>
    <tag k="created_by" v="JOSM"/>
    <tag k="highway" v="motorway_link"/>
    <tag k="layer" v="1"/>
  </way>
  <way id="3190199" version="4" timestamp="2009-08-16T05:23:14Z" uid="4467" user="Rosscoe" changeset="2160248">
    <nd ref="17395607"/>
    <nd ref="26625768"/>
    <nd ref="15449298"/>
    <nd ref="262241908"/>
    <nd ref="15449297"/>
    <nd ref="15449295"/>
    <nd ref="15449293"/>
    <tag k="bridge" v="yes"/>
    <tag k="highway" v="motorway_link"/>
    <tag k="layer" v="1"/>
    <tag k="name" v="King Street exit"/>
  </way>
  <way id="3190200" version="5" timestamp="2009-12-24T12:35:29Z" uid="30201" user="rrankin" changeset="3441832">
    <nd ref="8965676"/>
    <nd ref="15449300"/>
    <nd ref="15449302"/>
    <tag k="highway" v="secondary"/>
    <tag k="name" v="King Street"/>
    <tag k="oneway" v="yes"/>
  </way>
  <way id="3190332" version="2" timestamp="2008-02-18T23:13:46Z" uid="7617" user="Franc" changeset="152846">
    <nd ref="15451391"/>
    <nd ref="15451388"/>
    <nd ref="15451390"/>
    <tag k="created_by" v="JOSM"/>
    <tag k="highway" v="residential"/>
    <tag k="name" v="Bunn Street"/>
  </way>
  <way id="3190332" version="3" timestamp="2008-04-16T06:15:04Z" uid="7617" user="Franc" changeset="162872">
    <nd ref="15451391"/>
    <nd ref="15451388"/>
    <nd ref="20958882"/>
    <tag k="created_by" v="JOSM"/>
    <tag k="highway" v="residential"/>
    <tag k="name" v="Bunn Street"/>
  </way>
  <way id="3190332" version="6" timestamp="2010-04-18T14:08:03Z" uid="7617" user="Franc" changeset="4458238">
    <nd ref="15451391"/>
    <nd ref="485519458"/>
    <nd ref="15451388"/>
    <nd ref="700985640"/>
    <nd ref="700985645"/>
    <tag k="highway" v="residential"/>
    <tag k="name" v="Bunn Street"/>
  </way>
  <way id="3190332" version="7" timestamp="2010-07-07T22:14:43Z" uid="74617" user="JohnSmith" changeset="5161069">
    <nd ref="15451391"/>
    <nd ref="485519458"/>
    <nd ref="15451388"/>
    <nd ref="700985640"/>
    <nd ref="700985645"/>
    <tag k="highway" v="residential"/>
    <tag k="maxspeed" v="50"/>
    <tag k="maxspeed:source" v="default residential speed limit in Australia"/>
    <tag k="name" v="Bunn Street"/>
  </way>
  <way id="3190333" version="2" timestamp="2008-04-16T06:15:05Z" uid="7617" user="Franc" changeset="162872">
    <nd ref="15451388"/>
    <nd ref="257878862"/>
    <nd ref="15451385"/>
    <tag k="created_by" v="JOSM"/>
    <tag k="highway" v="residential"/>
    <tag k="name" v="Harwood Street"/>
  </way>
  <way id="3190333" version="5" timestamp="2009-12-24T12:35:27Z" uid="30201" user="rrankin" changeset="3441832">
    <nd ref="15451388"/>
    <nd ref="257878862"/>
    <nd ref="485519521"/>
    <nd ref="15451385"/>
    <tag k="highway" v="residential"/>
    <tag k="name" v="Harwood Street"/>
  </way>
  <way id="3190333" version="6" timestamp="2010-04-18T14:08:02Z" uid="7617" user="Franc" changeset="4458238">
    <nd ref="15451388"/>
    <nd ref="257878862"/>
    <nd ref="485519521"/>
    <nd ref="700985646"/>
    <nd ref="15451385"/>
    <tag k="highway" v="residential"/>
    <tag k="name" v="Harwood Street"/>
  </way>
  <way id="3190333" version="7" timestamp="2010-07-07T22:15:02Z" uid="74617" user="JohnSmith" changeset="5161069">
    <nd ref="15451388"/>
    <nd ref="257878862"/>
    <nd ref="485519521"/>
    <nd ref="700985646"/>
    <nd ref="15451385"/>
    <tag k="highway" v="residential"/>
    <tag k="maxspeed" v="50"/>
    <tag k="maxspeed:source" v="default residential speed limit in Australia"/>
    <tag k="name" v="Harwood Street"/>
  </way>
  <way id="3190336" version="2" timestamp="2008-05-04T22:18:47Z" uid="30201" user="rrankin" changeset="336241"/>
  <way id="3190337" version="2" timestamp="2008-05-04T22:18:33Z" uid="30201" user="rrankin" changeset="336241">
    <nd ref="15451398"/>
    <nd ref="15451399"/>
    <nd ref="15451397"/>
    <nd ref="262241881"/>
    <tag k="created_by" v="JOSM"/>
    <tag k="highway" v="service"/>
  </way>
  <way id="3190338" version="2" timestamp="2008-05-04T22:18:32Z" uid="30201" user="rrankin" changeset="336241">
    <nd ref="26627276"/>
    <nd ref="15451397"/>
    <nd ref="262241898"/>
    <nd ref="15451409"/>
    <nd ref="15451410"/>
    <nd ref="26627303"/>
    <nd ref="26627327"/>
    <nd ref="15395931"/>
    <tag k="created_by" v="JOSM"/>
    <tag k="highway" v="unclassified"/>
    <tag k="name" v="Darling Drive"/>
    <tag k="oneway" v="yes"/>
  </way>
  <way id="3190338" version="5" timestamp="2010-07-07T22:09:51Z" uid="74617" user="JohnSmith" changeset="5161069">
    <nd ref="26627276"/>
    <nd ref="651339741"/>
    <nd ref="651339743"/>
    <nd ref="15451397"/>
    <nd ref="262241898"/>
    <nd ref="15451409"/>
    <nd ref="651339746"/>
    <nd ref="15451410"/>
    <nd ref="651339751"/>
    <nd ref="651339753"/>
    <nd ref="26627303"/>
    <nd ref="651339756"/>
    <nd ref="26627327"/>
    <nd ref="15395931"/>
    <tag k="cycleway" v="lane"/>
    <tag k="highway" v="residential"/>
    <tag k="lcn" v="yes"/>
    <tag k="maxspeed" v="50"/>
    <tag k="maxspeed:source" v="default residential speed limit in Australia"/>
    <tag k="name" v="Darling Drive"/>
    <tag k="oneway" v="yes"/>
    <tag k="source" v="nearmap"/>
  </way>
</osm>
