<?xml version='1.0' encoding='UTF-8'?>
<osm version="0.6" generator="libosmium/2.20.0">
  <way id="3194047" version="3" timestamp="2008-10-07T22:15:34Z" uid="4667" user="MapZ" changeset="164883">
    <nd ref="10854264"/>
    <nd ref="10854270"/>
    <nd ref="302958300"/>
    <nd ref="10854271"/>
    <nd ref="296363990"/>
    <nd ref="10854272"/>
    <nd ref="10854273"/>
    <nd ref="16463073"/>
    <nd ref="16546195"/>
    <nd ref="16463074"/>
    <nd ref="16463075"/>
    <nd ref="16547614"/>
    <nd ref="16463076"/>
    <nd ref="16932671"/>
    <nd ref="16546237"/>
    <nd ref="16463077"/>
    <tag k="abutters" v="retail"/>
    <tag k="created_by" v="JOSM"/>
    <tag k="highway" v="pedestrian"/>
    <tag k="layer" v="1"/>
    <tag k="motorcar" v="no"/>
    <tag k="name" v="Hauptstraße"/>
  </way>
  <way id="3194047" version="4" timestamp="2008-10-07T22:17:36Z" uid="4667" user="MapZ" changeset="164883">
    <nd ref="302958690"/>
    <nd ref="302958689"/>
    <tag k="abutters" v="retail"/>
    <tag k="created_by" v="JOSM"/>
    <tag k="highway" v="steps"/>
    <tag k="layer" v="1"/>
  </way>
  <way id="3194049" version="2" timestamp="2010-10-03T20:16:41Z" uid="9581" user="Lobelt" changeset="5948350">
    <nd ref="10854266"/>
    <nd ref="16931246"/>
    <nd ref="10854267"/>
    <tag k="highway" v="residential"/>
    <tag k="maxspeed" v="30"/>
    <tag k="name" v="Institutstraße"/>
  </way>
  <way id="3194810" version="3" timestamp="2008-12-14T15:01:25Z" uid="6975" user="ulfl" changeset="375714">
    <nd ref="15510164"/>
    <nd ref="17277092"/>
    <nd ref="15510161"/>
    <tag k="highway" v="tertiary"/>
    <tag k="name" v="Market Road"/>
  </way>
  <way id="3194876" version="2" timestamp="2008-12-14T15:01:26Z" uid="6975" user="ulfl" changeset="375714">
    <nd ref="15382344"/>
    <nd ref="15438897"/>
    <nd ref="15438896"/>
    <tag k="highway" v="minor"/>
    <tag k="name" v="Church Road"/>
  </way>
</osm>
