<?xml version='1.0' encoding='UTF-8'?>
<osm version="0.6" generator="libosmium/2.20.0">
  <way id="32328067" version="6" timestamp="2011-02-07T06:18:50Z" uid="4467" user="Rosscoe" changeset="7212788"/>
  <way id="32328104" version="11" timestamp="2010-03-23T11:57:18Z" uid="4467" user="Rosscoe" changeset="4211417">
    <nd ref="364000300"/>
    <nd ref="364000487"/>
    <nd ref="364000304"/>
    <nd ref="364000305"/>
    <nd ref="364000307"/>
    <tag k="highway" v="secondary"/>
    <tag k="name" v="Princes Street North"/>
    <tag k="oneway" v="yes"/>
    <tag k="ref" v="C805"/>
  </way>
  <way id="32328104" version="12" timestamp="2011-02-07T06:18:50Z" uid="4467" user="Rosscoe" changeset="7212788">
    <nd ref="35289741"/>
    <nd ref="364000487"/>
    <nd ref="364000304"/>
    <nd ref="364000305"/>
    <nd ref="364000307"/>
    <tag k="highway" v="secondary"/>
    <tag k="name" v="Princes Street North"/>
    <tag k="oneway" v="yes"/>
    <tag k="ref" v="C805"/>
  </way>
  <way id="32328349" version="5" timestamp="2010-03-23T11:46:26Z" uid="4467" user="Rosscoe" changeset="4211337">
    <nd ref="364000271"/>
    <nd ref="476970963"/>
    <nd ref="655021503"/>
    <nd ref="477077899"/>
    <nd ref="477077904"/>
    <nd ref="655022430"/>
    <tag k="highway" v="residential"/>
    <tag k="name" v="Peel Street North"/>
  </way>
  <way id="32328349" version="9" timestamp="2010-07-08T16:54:03Z" uid="74617" user="JohnSmith" changeset="5167338">
    <nd ref="364000271"/>
    <nd ref="694169504"/>
    <tag k="highway" v="residential"/>
    <tag k="maxspeed" v="50"/>
    <tag k="maxspeed:source" v="default residential speed limit in Australia"/>
    <tag k="name" v="Peel Street North"/>
  </way>
  <way id="32328349" version="11" timestamp="2011-02-07T11:13:07Z" uid="4467" user="Rosscoe" changeset="7214726">
    <nd ref="364000271"/>
    <nd ref="946422364"/>
    <nd ref="694169504"/>
    <tag k="highway" v="residential"/>
    <tag k="maxspeed" v="50"/>
    <tag k="name" v="Peel Street North"/>
    <tag k="source:maxspeed" v="default residential speed limit in Australia"/>
  </way>
  <way id="32328352" version="3" timestamp="2011-02-07T06:18:09Z" uid="4467" user="Rosscoe" changeset="7212788">
    <nd ref="364000268"/>
    <nd ref="1140362169"/>
    <nd ref="364000270"/>
    <nd ref="364000271"/>
    <tag k="highway" v="tertiary"/>
    <tag k="name" v="Peel Street North"/>
  </way>
  <way id="32328590" version="3" timestamp="2010-07-08T16:55:14Z" uid="74617" user="JohnSmith" changeset="5167338">
    <nd ref="364000315"/>
    <nd ref="364000317"/>
    <nd ref="364000318"/>
    <nd ref="364000316"/>
    <tag k="highway" v="residential"/>
    <tag k="maxspeed" v="50"/>
    <tag k="maxspeed:source" v="default residential speed limit in Australia"/>
    <tag k="name" v="Davies Street"/>
  </way>
  <way id="32328590" version="4" timestamp="2011-02-07T11:12:08Z" uid="4467" user="Rosscoe" changeset="7214726">
    <nd ref="364000315"/>
    <nd ref="364000317"/>
    <nd ref="364000318"/>
    <nd ref="364000316"/>
    <tag k="highway" v="residential"/>
    <tag k="maxspeed" v="50"/>
    <tag k="name" v="Davies Street"/>
    <tag k="source:maxspeed" v="default residential speed limit in Australia"/>
  </way>
</osm>
