<?xml version='1.0' encoding='UTF-8'?>
<osm version="0.6" generator="libosmium/2.20.0">
  <way id="32423309" version="4" timestamp="2011-02-22T08:44:37Z" uid="20587" user="balrog-kun" changeset="7361212">
    <nd ref="31901882"/>
    <nd ref="31901883"/>
    <nd ref="31901884"/>
    <nd ref="31901885"/>
    <nd ref="31901886"/>
    <nd ref="31901887"/>
    <nd ref="31901888"/>
    <nd ref="158616081"/>
    <nd ref="31901889"/>
    <nd ref="31901890"/>
    <nd ref="31901891"/>
    <nd ref="1166226286"/>
    <nd ref="31901892"/>
    <nd ref="31901893"/>
    <tag k="highway" v="secondary"/>
    <tag k="name" v="Whiteleigh Avenue"/>
  </way>
  <way id="32423669" version="1" timestamp="2009-03-22T06:36:31Z" uid="8807" user="brendanpuck" changeset="844389">
    <nd ref="363366083"/>
    <nd ref="363370507"/>
    <tag k="created_by" v="Potlatch 0.10f"/>
    <tag k="highway" v="unclassified"/>
  </way>
  <way id="32423672" version="2" timestamp="2010-03-28T01:21:02Z" uid="20587" user="balrog-kun" changeset="4250871">
    <nd ref="122842572"/>
    <nd ref="122842574"/>
    <nd ref="122799981"/>
    <tag k="highway" v="footway"/>
    <tag k="name" v="East Indigo Court"/>
    <tag k="tiger:cfcc" v="A41"/>
    <tag k="tiger:county" v="Orange, CA"/>
    <tag k="tiger:name_base" v="Indigo"/>
    <tag k="tiger:name_direction_prefix" v="E"/>
    <tag k="tiger:name_type" v="Ct"/>
    <tag k="tiger:reviewed" v="no"/>
    <tag k="tiger:separated" v="no"/>
    <tag k="tiger:source" v="tiger_import_dch_v0.6_20070809"/>
    <tag k="tiger:tlid" v="144139144:144127373"/>
    <tag k="tiger:zip_left" v="92869"/>
    <tag k="tiger:zip_right" v="92869"/>
  </way>
  <way id="32423715" version="1" timestamp="2009-03-22T06:50:36Z" uid="33382" user="de_muur" changeset="843365">
    <nd ref="364425850"/>
    <nd ref="364617077"/>
    <nd ref="364617078"/>
    <nd ref="364425855"/>
    <nd ref="364425850"/>
    <tag k="landuse" v="farm"/>
  </way>
  <way id="32423716" version="1" timestamp="2009-03-22T06:50:36Z" uid="33382" user="de_muur" changeset="843365">
    <nd ref="364617077"/>
    <nd ref="364617080"/>
    <nd ref="364617083"/>
    <nd ref="347596786"/>
    <nd ref="364617078"/>
    <nd ref="364617077"/>
    <tag k="landuse" v="farm"/>
  </way>
  <way id="32423717" version="1" timestamp="2009-03-22T06:50:36Z" uid="33382" user="de_muur" changeset="843365">
    <nd ref="364617080"/>
    <nd ref="364617086"/>
    <nd ref="364617090"/>
    <nd ref="347596790"/>
    <nd ref="364617083"/>
    <nd ref="364617080"/>
    <tag k="landuse" v="farm"/>
  </way>
  <way id="32423718" version="1" timestamp="2009-03-22T06:50:37Z" uid="33382" user="de_muur" changeset="843365">
    <nd ref="364617086"/>
    <nd ref="364617092"/>
    <nd ref="364617095"/>
    <nd ref="364617096"/>
    <nd ref="364617099"/>
    <nd ref="364617100"/>
    <nd ref="364617090"/>
    <nd ref="364617086"/>
    <tag k="landuse" v="farm"/>
  </way>
  <way id="32423719" version="1" timestamp="2009-03-22T06:50:37Z" uid="33382" user="de_muur" changeset="843365">
    <nd ref="364617092"/>
    <nd ref="364617101"/>
    <nd ref="364617104"/>
    <nd ref="364617095"/>
    <nd ref="364617092"/>
    <tag k="landuse" v="farm"/>
  </way>
  <way id="32423720" version="1" timestamp="2009-03-22T06:50:37Z" uid="33382" user="de_muur" changeset="843365">
    <nd ref="364617095"/>
    <nd ref="364617104"/>
    <nd ref="364617105"/>
    <nd ref="364617096"/>
    <nd ref="364617095"/>
    <tag k="landuse" v="farm"/>
  </way>
  <way id="32423721" version="1" timestamp="2009-03-22T06:50:37Z" uid="33382" user="de_muur" changeset="843365">
    <nd ref="364617096"/>
    <nd ref="364617105"/>
    <nd ref="364617106"/>
    <nd ref="364617099"/>
    <nd ref="364617096"/>
    <tag k="landuse" v="farm"/>
  </way>
  <way id="32423722" version="1" timestamp="2009-03-22T06:50:38Z" uid="33382" user="de_muur" changeset="843365">
    <nd ref="364617099"/>
    <nd ref="364617106"/>
    <nd ref="364617107"/>
    <nd ref="364617100"/>
    <nd ref="364617099"/>
    <tag k="landuse" v="farm"/>
  </way>
  <way id="32423723" version="1" timestamp="2009-03-22T06:50:38Z" uid="33382" user="de_muur" changeset="843365">
    <nd ref="364617107"/>
    <nd ref="364617106"/>
    <nd ref="364617105"/>
    <nd ref="364617104"/>
    <nd ref="364617101"/>
    <nd ref="282819225"/>
    <nd ref="282819224"/>
    <nd ref="347590484"/>
    <nd ref="364617107"/>
    <tag k="landuse" v="farm"/>
  </way>
  <way id="32423947" version="5" timestamp="2011-02-19T12:14:30Z" uid="16922" user="amai" changeset="7331135">
    <nd ref="364618881"/>
    <nd ref="364619186"/>
    <nd ref="364619209"/>
    <nd ref="364619211"/>
    <nd ref="364618882"/>
    <tag k="highway" v="residential"/>
    <tag k="name:en" v="On nut 46/1"/>
  </way>
  <way id="32423966" version="2" timestamp="2011-02-19T12:14:31Z" uid="16922" user="amai" changeset="7331135">
    <nd ref="364619185"/>
    <nd ref="364619186"/>
    <tag k="highway" v="residential"/>
    <tag k="name:en" v="moo 1"/>
  </way>
  <way id="32423969" version="2" timestamp="2011-02-19T12:14:31Z" uid="16922" user="amai" changeset="7331135">
    <nd ref="364619208"/>
    <nd ref="364619209"/>
    <tag k="highway" v="residential"/>
    <tag k="name:en" v="moo 2"/>
  </way>
  <way id="32423970" version="3" timestamp="2011-02-19T12:14:31Z" uid="16922" user="amai" changeset="7331135">
    <nd ref="364619212"/>
    <nd ref="364619211"/>
    <tag k="highway" v="residential"/>
    <tag k="name:en" v="moo 3"/>
  </way>
  <way id="32423971" version="2" timestamp="2011-02-19T12:14:31Z" uid="16922" user="amai" changeset="7331135">
    <nd ref="364619260"/>
    <nd ref="364619261"/>
    <tag k="highway" v="residential"/>
    <tag k="name:en" v="moo 4"/>
  </way>
  <way id="32423972" version="1" timestamp="2009-03-22T07:12:50Z" uid="33382" user="de_muur" changeset="843365">
    <nd ref="276740724"/>
    <nd ref="276740722"/>
    <nd ref="364619433"/>
    <nd ref="364619439"/>
    <nd ref="364619450"/>
    <nd ref="282550112"/>
    <nd ref="279746944"/>
    <nd ref="276740724"/>
    <tag k="amenity" v="hospital"/>
    <tag k="name" v="Aller-Weser-Klinik"/>
  </way>
  <way id="32423972" version="2" timestamp="2009-10-03T14:17:08Z" uid="33382" user="de_muur" changeset="2724419">
    <nd ref="276740724"/>
    <nd ref="276740722"/>
    <nd ref="364619433"/>
    <nd ref="364619439"/>
    <nd ref="364619450"/>
    <nd ref="282550112"/>
    <nd ref="279746944"/>
    <nd ref="276740724"/>
    <tag k="addr:city" v="Achim"/>
    <tag k="addr:country" v="DE"/>
    <tag k="addr:housenumber" v="2"/>
    <tag k="addr:postcode" v="28832"/>
    <tag k="addr:street" v="Bierdener Mühle"/>
    <tag k="amenity" v="hospital"/>
    <tag k="name" v="Aller-Weser-Klinik"/>
  </way>
  <way id="32423972" version="3" timestamp="2009-10-03T14:37:55Z" uid="33382" user="de_muur" changeset="2724684">
    <nd ref="276740724"/>
    <nd ref="276740722"/>
    <nd ref="364619433"/>
    <nd ref="364619439"/>
    <nd ref="364619450"/>
    <nd ref="282550112"/>
    <nd ref="279746944"/>
    <nd ref="276740724"/>
    <tag k="addr:city" v="Achim"/>
    <tag k="addr:country" v="DE"/>
    <tag k="addr:housenumber" v="2"/>
    <tag k="addr:phone" v="042029980"/>
    <tag k="addr:postcode" v="28832"/>
    <tag k="addr:street" v="Bierdener Mühle"/>
    <tag k="amenity" v="hospital"/>
    <tag k="name" v="Aller-Weser-Klinik"/>
  </way>
  <way id="32423972" version="4" timestamp="2009-10-06T14:41:20Z" uid="33382" user="de_muur" changeset="2761397">
    <nd ref="276740724"/>
    <nd ref="276740722"/>
    <nd ref="364619433"/>
    <nd ref="364619439"/>
    <nd ref="364619450"/>
    <nd ref="282550112"/>
    <nd ref="279746944"/>
    <nd ref="276740724"/>
    <tag k="addr:city" v="Achim"/>
    <tag k="addr:country" v="DE"/>
    <tag k="addr:housenumber" v="2"/>
    <tag k="addr:phone" v="042029980"/>
    <tag k="addr:postcode" v="28832"/>
    <tag k="addr:street" v="Bierdener Mühle"/>
    <tag k="amenity" v="hospital"/>
    <tag k="name" v="Aller-Weser-Klinik Achim"/>
  </way>
  <way id="32423973" version="1" timestamp="2009-03-22T07:12:51Z" uid="33382" user="de_muur" changeset="843365">
    <nd ref="364619452"/>
    <nd ref="364619455"/>
    <nd ref="364619457"/>
    <nd ref="364619460"/>
    <nd ref="364619462"/>
    <nd ref="364619465"/>
    <nd ref="364619467"/>
    <nd ref="364619471"/>
    <nd ref="364619452"/>
    <tag k="building" v="yes"/>
  </way>
  <way id="32423973" version="3" timestamp="2009-10-06T14:41:20Z" uid="33382" user="de_muur" changeset="2761397">
    <nd ref="364619452"/>
    <nd ref="364619455"/>
    <nd ref="364619457"/>
    <nd ref="364619460"/>
    <nd ref="364619462"/>
    <nd ref="364619465"/>
    <nd ref="364619467"/>
    <nd ref="364619471"/>
    <nd ref="364619452"/>
    <tag k="building" v="yes"/>
  </way>
  <way id="32423974" version="1" timestamp="2009-03-22T07:12:51Z" uid="33382" user="de_muur" changeset="843365">
    <nd ref="364619473"/>
    <nd ref="364619476"/>
    <nd ref="364619478"/>
    <nd ref="364619480"/>
    <nd ref="364619489"/>
    <nd ref="364619491"/>
    <nd ref="364619494"/>
    <nd ref="364619496"/>
    <nd ref="364619473"/>
    <tag k="building" v="yes"/>
  </way>
  <way id="32423975" version="1" timestamp="2009-03-22T07:12:52Z" uid="33382" user="de_muur" changeset="843365">
    <nd ref="364619450"/>
    <nd ref="364619439"/>
    <nd ref="364619433"/>
    <nd ref="276740720"/>
    <nd ref="364619505"/>
    <nd ref="364619507"/>
    <nd ref="364619510"/>
    <nd ref="364619512"/>
    <nd ref="364619517"/>
    <nd ref="364619519"/>
    <nd ref="364619522"/>
    <nd ref="364619524"/>
    <nd ref="364619529"/>
    <nd ref="364619532"/>
    <nd ref="364619534"/>
    <nd ref="364619450"/>
    <tag k="landuse" v="forest"/>
  </way>
  <way id="32423981" version="1" timestamp="2009-03-22T07:14:28Z" uid="12188" user="Babis" changeset="843134">
    <nd ref="364619903"/>
    <nd ref="364619904"/>
    <nd ref="364619905"/>
    <nd ref="364619906"/>
    <nd ref="364619908"/>
    <tag k="created_by" v="Potlatch 0.10f"/>
  </way>
  <way id="32423981" version="2" timestamp="2009-03-22T07:15:58Z" uid="12188" user="Babis" changeset="843134">
    <nd ref="364620133"/>
    <nd ref="364619904"/>
    <nd ref="364619905"/>
    <nd ref="364619906"/>
    <nd ref="364619908"/>
    <tag k="created_by" v="Potlatch 0.10f"/>
    <tag k="highway" v="residential"/>
    <tag k="name" v="Ναπολέοντος"/>
    <tag k="name:en" v="Napoleontos"/>
    <tag k="source" v="Yahoo"/>
  </way>
  <way id="32423981" version="3" timestamp="2009-03-22T07:17:09Z" uid="12188" user="Babis" changeset="843134">
    <nd ref="364620133"/>
    <nd ref="364619904"/>
    <nd ref="364619905"/>
    <nd ref="364619906"/>
    <nd ref="364619908"/>
    <tag k="created_by" v="Potlatch 0.10f"/>
    <tag k="highway" v="residential"/>
    <tag k="name" v="Ναπολέοντος"/>
    <tag k="name:en" v="Napoleontos"/>
    <tag k="source" v="Yahoo"/>
  </way>
  <way id="32423981" version="4" timestamp="2009-03-22T07:20:13Z" uid="12188" user="Babis" changeset="843134">
    <nd ref="364620133"/>
    <nd ref="364619904"/>
    <nd ref="364619905"/>
    <nd ref="364619906"/>
    <nd ref="364620297"/>
    <tag k="created_by" v="Potlatch 0.10f"/>
    <tag k="highway" v="residential"/>
    <tag k="name" v="Ναπολέοντος"/>
    <tag k="name:en" v="Napoleontos"/>
    <tag k="source" v="Yahoo"/>
  </way>
  <way id="32423981" version="5" timestamp="2009-03-22T07:21:14Z" uid="12188" user="Babis" changeset="843134">
    <nd ref="364620133"/>
    <nd ref="364619904"/>
    <nd ref="364620326"/>
    <nd ref="364619905"/>
    <nd ref="364619906"/>
    <nd ref="364620297"/>
    <tag k="created_by" v="Potlatch 0.10f"/>
    <tag k="highway" v="residential"/>
    <tag k="name" v="Ναπολέοντος"/>
    <tag k="name:en" v="Napoleontos"/>
    <tag k="source" v="Yahoo"/>
  </way>
  <way id="32423981" version="6" timestamp="2009-03-22T07:24:34Z" uid="12188" user="Babis" changeset="843134">
    <nd ref="364620133"/>
    <nd ref="364619904"/>
    <nd ref="364620326"/>
    <nd ref="364619905"/>
    <nd ref="364619906"/>
    <nd ref="364620552"/>
    <nd ref="364620297"/>
    <tag k="created_by" v="Potlatch 0.10f"/>
    <tag k="highway" v="residential"/>
    <tag k="name" v="Ναπολέοντος"/>
    <tag k="name:en" v="Napoleontos"/>
    <tag k="source" v="Yahoo"/>
  </way>
  <way id="32423993" version="1" timestamp="2009-03-22T07:16:59Z" uid="12188" user="Babis" changeset="843134">
    <nd ref="364620141"/>
    <nd ref="364620142"/>
    <nd ref="364620143"/>
    <nd ref="364620144"/>
    <nd ref="364620146"/>
    <tag k="created_by" v="Potlatch 0.10f"/>
  </way>
  <way id="32423993" version="2" timestamp="2009-03-22T07:17:54Z" uid="12188" user="Babis" changeset="843134">
    <nd ref="364620179"/>
    <nd ref="364620142"/>
    <nd ref="364620143"/>
    <nd ref="364620144"/>
    <nd ref="364620146"/>
    <tag k="created_by" v="Potlatch 0.10f"/>
    <tag k="highway" v="residential"/>
    <tag k="name" v="Τηλεμάχου"/>
    <tag k="name:en" v="Thlemahou"/>
    <tag k="source" v="Yahoo"/>
  </way>
  <way id="32423993" version="3" timestamp="2009-03-22T07:20:05Z" uid="12188" user="Babis" changeset="843134">
    <nd ref="364620179"/>
    <nd ref="364620142"/>
    <nd ref="364620143"/>
    <nd ref="364620144"/>
    <nd ref="364620292"/>
    <tag k="created_by" v="Potlatch 0.10f"/>
    <tag k="highway" v="residential"/>
    <tag k="name" v="Τηλεμάχου"/>
    <tag k="name:en" v="Thlemahou"/>
    <tag k="source" v="Yahoo"/>
  </way>
  <way id="32423999" version="1" timestamp="2009-03-22T07:18:54Z" uid="12188" user="Babis" changeset="843134">
    <nd ref="364620231"/>
    <nd ref="364620232"/>
    <nd ref="364620233"/>
    <nd ref="364620234"/>
    <nd ref="364620235"/>
    <nd ref="364620236"/>
    <tag k="created_by" v="Potlatch 0.10f"/>
  </way>
  <way id="32423999" version="2" timestamp="2009-03-22T07:19:52Z" uid="12188" user="Babis" changeset="843134">
    <nd ref="364620231"/>
    <nd ref="364620232"/>
    <nd ref="364620233"/>
    <nd ref="364620234"/>
    <nd ref="364620235"/>
    <nd ref="364620236"/>
    <tag k="created_by" v="Potlatch 0.10f"/>
    <tag k="highway" v="residential"/>
    <tag k="name" v="Ερέσου"/>
    <tag k="name:en" v="Eresou"/>
    <tag k="source" v="Yahoo"/>
  </way>
  <way id="32423999" version="3" timestamp="2009-03-22T07:20:04Z" uid="12188" user="Babis" changeset="843134">
    <nd ref="364620231"/>
    <nd ref="364620232"/>
    <nd ref="364620233"/>
    <nd ref="364620234"/>
    <nd ref="364620292"/>
    <nd ref="364620235"/>
    <nd ref="364620236"/>
    <tag k="created_by" v="Potlatch 0.10f"/>
    <tag k="highway" v="residential"/>
    <tag k="name" v="Ερέσου"/>
    <tag k="name:en" v="Eresou"/>
    <tag k="source" v="Yahoo"/>
  </way>
  <way id="32423999" version="4" timestamp="2009-03-22T07:20:13Z" uid="12188" user="Babis" changeset="843134">
    <nd ref="364620231"/>
    <nd ref="364620232"/>
    <nd ref="364620233"/>
    <nd ref="364620297"/>
    <nd ref="364620234"/>
    <nd ref="364620292"/>
    <nd ref="364620235"/>
    <nd ref="364620236"/>
    <tag k="created_by" v="Potlatch 0.10f"/>
    <tag k="highway" v="residential"/>
    <tag k="name" v="Ερέσου"/>
    <tag k="name:en" v="Eresou"/>
    <tag k="source" v="Yahoo"/>
  </way>
  <way id="32423999" version="5" timestamp="2009-03-22T07:20:16Z" uid="12188" user="Babis" changeset="843134">
    <nd ref="364620231"/>
    <nd ref="364620232"/>
    <nd ref="364620233"/>
    <nd ref="364620297"/>
    <nd ref="364620292"/>
    <nd ref="364620235"/>
    <nd ref="364620236"/>
    <tag k="created_by" v="Potlatch 0.10f"/>
    <tag k="highway" v="residential"/>
    <tag k="name" v="Ερέσου"/>
    <tag k="name:en" v="Eresou"/>
    <tag k="source" v="Yahoo"/>
  </way>
</osm>
