<?xml version='1.0' encoding='UTF-8'?>
<osm version="0.6" generator="libosmium/2.20.0">
  <way id="32447104" version="1" timestamp="2009-03-22T19:52:52Z" uid="12188" user="Babis" changeset="844483">
    <nd ref="364342129"/>
    <nd ref="364796035"/>
    <tag k="created_by" v="Potlatch 0.10f"/>
    <tag k="highway" v="residential"/>
    <tag k="name" v="Μεγάλου Σπηλαίου"/>
    <tag k="name:en" v="Megalou Spilaiou"/>
  </way>
  <way id="32447104" version="2" timestamp="2009-03-22T19:56:19Z" uid="12188" user="Babis" changeset="844483">
    <nd ref="364342129"/>
    <nd ref="364796035"/>
    <tag k="admin_level" v="8"/>
    <tag k="boundary" v="administrative"/>
    <tag k="created_by" v="Potlatch 0.10f"/>
    <tag k="highway" v="residential"/>
    <tag k="name" v="Μεγάλου Σπηλαίου"/>
    <tag k="name:en" v="Megalou Spilaiou"/>
  </way>
  <way id="32447126" version="1" timestamp="2009-03-22T19:54:12Z" uid="12188" user="Babis" changeset="844483">
    <nd ref="364796155"/>
    <nd ref="364339197"/>
    <nd ref="364796157"/>
    <tag k="created_by" v="Potlatch 0.10f"/>
    <tag k="highway" v="residential"/>
    <tag k="name" v="Κωστή Παλαμά"/>
    <tag k="name:en" v="Kosti Palama"/>
    <tag k="source" v="Yahoo"/>
  </way>
  <way id="32447126" version="2" timestamp="2009-03-22T19:57:02Z" uid="12188" user="Babis" changeset="844483">
    <nd ref="364796155"/>
    <nd ref="364339197"/>
    <nd ref="364796157"/>
    <tag k="admin_level" v="8"/>
    <tag k="boundary" v="administrative"/>
    <tag k="created_by" v="Potlatch 0.10f"/>
    <tag k="highway" v="residential"/>
    <tag k="name" v="Κωστή Παλαμά"/>
    <tag k="name:en" v="Kosti Palama"/>
    <tag k="source" v="Yahoo"/>
  </way>
  <way id="32447178" version="1" timestamp="2009-03-22T19:55:01Z" uid="12188" user="Babis" changeset="844483">
    <nd ref="364338026"/>
    <nd ref="364796438"/>
    <nd ref="364796439"/>
    <nd ref="364796440"/>
    <nd ref="364796441"/>
    <nd ref="364796442"/>
    <nd ref="364796444"/>
    <nd ref="364796445"/>
    <nd ref="364796447"/>
    <nd ref="362573800"/>
    <tag k="boundary" v="administrative"/>
    <tag k="created_by" v="Potlatch 0.10f"/>
  </way>
  <way id="32447178" version="2" timestamp="2009-03-22T19:55:22Z" uid="12188" user="Babis" changeset="844483">
    <nd ref="364338026"/>
    <nd ref="364796438"/>
    <nd ref="364796439"/>
    <nd ref="364796440"/>
    <nd ref="364796441"/>
    <nd ref="364796442"/>
    <nd ref="364796444"/>
    <nd ref="364796445"/>
    <nd ref="364796447"/>
    <nd ref="362573800"/>
    <tag k="admin_level" v="8"/>
    <tag k="boundary" v="administrative"/>
    <tag k="created_by" v="Potlatch 0.10f"/>
  </way>
  <way id="32447212" version="1" timestamp="2009-03-22T19:55:36Z" uid="12188" user="Babis" changeset="844483">
    <nd ref="364342129"/>
    <nd ref="364342576"/>
    <nd ref="362573788"/>
    <nd ref="362573790"/>
    <nd ref="362573792"/>
    <nd ref="362573794"/>
    <nd ref="362573795"/>
    <nd ref="362573798"/>
    <nd ref="362573800"/>
    <tag k="created_by" v="Potlatch 0.10f"/>
    <tag k="highway" v="residential"/>
    <tag k="name" v="Βεργίνας"/>
    <tag k="name:en" v="Verginas"/>
    <tag k="source" v="Yahoo"/>
  </way>
  <way id="32447212" version="2" timestamp="2009-03-22T19:55:53Z" uid="12188" user="Babis" changeset="844483">
    <nd ref="364342129"/>
    <nd ref="364342576"/>
    <nd ref="362573788"/>
    <nd ref="362573790"/>
    <nd ref="362573792"/>
    <nd ref="362573794"/>
    <nd ref="362573795"/>
    <nd ref="362573798"/>
    <nd ref="362573800"/>
    <tag k="admin_level" v="8"/>
    <tag k="boundary" v="administrative"/>
    <tag k="created_by" v="Potlatch 0.10f"/>
    <tag k="highway" v="residential"/>
    <tag k="name" v="Βεργίνας"/>
    <tag k="name:en" v="Verginas"/>
    <tag k="source" v="Yahoo"/>
  </way>
  <way id="32447224" version="1" timestamp="2009-03-22T19:56:22Z" uid="12188" user="Babis" changeset="844483">
    <nd ref="364796035"/>
    <nd ref="364796157"/>
    <nd ref="364300762"/>
    <tag k="created_by" v="Potlatch 0.10f"/>
    <tag k="highway" v="residential"/>
    <tag k="name" v="Καλλικράτους"/>
    <tag k="oneway" v="yes"/>
    <tag k="source" v="Yahoo"/>
  </way>
  <way id="32447224" version="2" timestamp="2009-03-22T19:56:29Z" uid="12188" user="Babis" changeset="844483">
    <nd ref="364796035"/>
    <nd ref="364796157"/>
    <tag k="created_by" v="Potlatch 0.10f"/>
    <tag k="highway" v="residential"/>
    <tag k="name" v="Καλλικράτους"/>
    <tag k="oneway" v="yes"/>
    <tag k="source" v="Yahoo"/>
  </way>
  <way id="32447224" version="3" timestamp="2009-03-22T19:56:44Z" uid="12188" user="Babis" changeset="844483">
    <nd ref="364796035"/>
    <nd ref="364796157"/>
    <tag k="admin_level" v="8"/>
    <tag k="boundary" v="administrative"/>
    <tag k="created_by" v="Potlatch 0.10f"/>
    <tag k="highway" v="residential"/>
    <tag k="name" v="Καλλικράτους"/>
    <tag k="oneway" v="yes"/>
    <tag k="source" v="Yahoo"/>
  </way>
  <way id="32447227" version="1" timestamp="2009-03-22T19:56:28Z" uid="12188" user="Babis" changeset="844483">
    <nd ref="364796157"/>
    <nd ref="364300762"/>
    <tag k="created_by" v="Potlatch 0.10f"/>
    <tag k="highway" v="residential"/>
    <tag k="name" v="Καλλικράτους"/>
    <tag k="oneway" v="yes"/>
    <tag k="source" v="Yahoo"/>
  </way>
  <way id="32447230" version="1" timestamp="2009-03-22T19:56:34Z" uid="17602" user="B10xyz" changeset="843763">
    <nd ref="27178154"/>
    <nd ref="27176762"/>
    <nd ref="27176739"/>
    <tag k="created_by" v="Potlatch 0.7"/>
    <tag k="highway" v="residential"/>
    <tag k="oneway" v="yes"/>
  </way>
  <way id="32447231" version="1" timestamp="2009-03-22T19:56:35Z" uid="17602" user="B10xyz" changeset="843763">
    <nd ref="31128140"/>
    <nd ref="48283237"/>
    <nd ref="31128141"/>
    <tag k="created_by" v="Potlatch alpha"/>
    <tag k="highway" v="residential"/>
    <tag k="name" v="via sandro gallo"/>
  </way>
  <way id="32447232" version="1" timestamp="2009-03-22T19:56:35Z" uid="17602" user="B10xyz" changeset="843763">
    <nd ref="27180169"/>
    <nd ref="27178162"/>
    <tag k="created_by" v="Potlatch alpha"/>
    <tag k="highway" v="residential"/>
    <tag k="oneway" v="yes"/>
  </way>
  <way id="32447233" version="1" timestamp="2009-03-22T19:56:35Z" uid="17602" user="B10xyz" changeset="843763">
    <nd ref="27180177"/>
    <nd ref="27178165"/>
    <nd ref="27178166"/>
    <tag k="created_by" v="Potlatch alpha"/>
    <tag k="highway" v="residential"/>
    <tag k="oneway" v="yes"/>
  </way>
  <way id="32447234" version="1" timestamp="2009-03-22T19:56:36Z" uid="17602" user="B10xyz" changeset="843763">
    <nd ref="48263926"/>
    <nd ref="27180167"/>
    <tag k="created_by" v="Potlatch alpha"/>
    <tag k="highway" v="residential"/>
    <tag k="oneway" v="yes"/>
  </way>
  <way id="32447235" version="1" timestamp="2009-03-22T19:56:36Z" uid="17602" user="B10xyz" changeset="843763">
    <nd ref="27180172"/>
    <nd ref="27180171"/>
    <tag k="highway" v="residential"/>
  </way>
  <way id="32447236" version="1" timestamp="2009-03-22T19:56:36Z" uid="17602" user="B10xyz" changeset="843763">
    <nd ref="364796690"/>
    <nd ref="364796691"/>
    <nd ref="364796692"/>
    <nd ref="27176762"/>
    <tag k="highway" v="footway"/>
    <tag k="name" v="via cerigo"/>
  </way>
  <way id="32447261" version="1" timestamp="2009-03-22T19:57:07Z" uid="12188" user="Babis" changeset="844483">
    <nd ref="364796155"/>
    <nd ref="364307598"/>
    <nd ref="364307600"/>
    <nd ref="364309707"/>
    <nd ref="364307603"/>
    <nd ref="364307606"/>
    <nd ref="364339266"/>
    <nd ref="364307609"/>
    <nd ref="364307612"/>
    <nd ref="364307614"/>
    <nd ref="364307616"/>
    <tag k="created_by" v="Potlatch 0.10f"/>
    <tag k="highway" v="residential"/>
    <tag k="name" v="Σωκράτους"/>
    <tag k="name:en" v="Sokratous"/>
    <tag k="source" v="Yahoo"/>
  </way>
  <way id="32447272" version="1" timestamp="2009-03-22T19:57:36Z" uid="12188" user="Babis" changeset="844483">
    <nd ref="251123230"/>
    <nd ref="251123231"/>
    <nd ref="251123232"/>
    <nd ref="251123233"/>
    <nd ref="251123234"/>
    <nd ref="251123235"/>
    <nd ref="251123236"/>
    <nd ref="251123237"/>
    <nd ref="251123238"/>
    <nd ref="251123239"/>
    <nd ref="251123240"/>
    <nd ref="251123241"/>
    <nd ref="251132098"/>
    <tag k="created_by" v="Potlatch 0.10f"/>
    <tag k="highway" v="residential"/>
  </way>
  <way id="32447272" version="2" timestamp="2009-03-22T19:57:59Z" uid="12188" user="Babis" changeset="844483">
    <nd ref="251123230"/>
    <nd ref="251123231"/>
    <nd ref="251123232"/>
    <nd ref="251123233"/>
    <nd ref="251123234"/>
    <nd ref="251123235"/>
    <nd ref="251123236"/>
    <nd ref="251123237"/>
    <nd ref="251123238"/>
    <nd ref="251123239"/>
    <nd ref="251123240"/>
    <tag k="created_by" v="Potlatch 0.10f"/>
    <tag k="highway" v="residential"/>
  </way>
  <way id="32447272" version="3" timestamp="2009-03-22T19:58:43Z" uid="12188" user="Babis" changeset="844483">
    <nd ref="251123230"/>
    <nd ref="251123231"/>
    <nd ref="251123232"/>
    <nd ref="251123233"/>
    <nd ref="251123234"/>
    <nd ref="251123235"/>
    <nd ref="251123236"/>
    <nd ref="251123237"/>
    <nd ref="251123238"/>
    <nd ref="251123239"/>
    <nd ref="251123240"/>
    <tag k="created_by" v="Potlatch 0.10f"/>
    <tag k="highway" v="residential"/>
    <tag k="name" v="Σαλτέλη"/>
    <tag k="name:en" v="Salteli"/>
    <tag k="source" v="Yahoo"/>
  </way>
  <way id="32447272" version="4" timestamp="2009-03-22T19:58:48Z" uid="12188" user="Babis" changeset="844483">
    <nd ref="251123230"/>
    <nd ref="251123231"/>
    <nd ref="251123232"/>
    <nd ref="251123233"/>
    <nd ref="251123234"/>
    <nd ref="251123235"/>
    <nd ref="251123236"/>
    <nd ref="251123237"/>
    <tag k="created_by" v="Potlatch 0.10f"/>
    <tag k="highway" v="residential"/>
    <tag k="name" v="Σαλτέλη"/>
    <tag k="name:en" v="Salteli"/>
    <tag k="source" v="Yahoo"/>
  </way>
  <way id="32447272" version="5" timestamp="2009-03-22T19:59:05Z" uid="12188" user="Babis" changeset="844483">
    <nd ref="364796155"/>
    <nd ref="364307595"/>
    <nd ref="364307593"/>
    <nd ref="364307592"/>
    <nd ref="364307591"/>
    <nd ref="364307589"/>
    <nd ref="364307588"/>
    <nd ref="364307587"/>
    <nd ref="251123230"/>
    <nd ref="251123231"/>
    <nd ref="251123232"/>
    <nd ref="251123233"/>
    <nd ref="251123234"/>
    <nd ref="251123235"/>
    <nd ref="251123236"/>
    <nd ref="251123237"/>
    <tag k="admin_level" v="8"/>
    <tag k="boundary" v="administrative"/>
    <tag k="created_by" v="Potlatch 0.10f"/>
    <tag k="highway" v="residential"/>
    <tag k="name" v="Σωκράτους"/>
    <tag k="name:en" v="Sokratous"/>
    <tag k="source" v="Yahoo"/>
  </way>
  <way id="32447272" version="6" timestamp="2009-03-22T19:59:33Z" uid="12188" user="Babis" changeset="844483">
    <nd ref="364796155"/>
    <nd ref="364307595"/>
    <nd ref="364307593"/>
    <nd ref="364307592"/>
    <nd ref="364307591"/>
    <nd ref="364307589"/>
    <nd ref="364307588"/>
    <nd ref="364307587"/>
    <nd ref="251123230"/>
    <nd ref="251123231"/>
    <nd ref="251123232"/>
    <nd ref="251123233"/>
    <nd ref="251123234"/>
    <nd ref="251123235"/>
    <nd ref="251123236"/>
    <nd ref="251123237"/>
    <tag k="admin_level" v="8"/>
    <tag k="boundary" v="administrative"/>
    <tag k="created_by" v="Potlatch 0.10f"/>
    <tag k="highway" v="residential"/>
    <tag k="name" v="Σωκράτους; Σαλτέλη"/>
    <tag k="name:en" v="Sokratous; Salteli"/>
    <tag k="source" v="Yahoo"/>
  </way>
  <way id="32447277" version="1" timestamp="2009-03-22T19:57:58Z" uid="12188" user="Babis" changeset="844483">
    <nd ref="251123240"/>
    <nd ref="251123241"/>
    <nd ref="251132098"/>
    <tag k="created_by" v="Potlatch 0.10f"/>
    <tag k="highway" v="residential"/>
  </way>
  <way id="32447277" version="2" timestamp="2009-09-20T15:04:19Z" uid="12188" user="Babis" changeset="2546558">
    <nd ref="251123240"/>
    <nd ref="503349062"/>
    <nd ref="251123241"/>
    <nd ref="251132098"/>
    <tag k="highway" v="residential"/>
  </way>
  <way id="32447277" version="3" timestamp="2009-09-20T15:10:28Z" uid="12188" user="Babis" changeset="2546558">
    <nd ref="251123240"/>
    <nd ref="503349062"/>
    <nd ref="251123241"/>
    <nd ref="251132098"/>
    <tag k="highway" v="residential"/>
    <tag k="name" v="Ι.Ολυμπίου"/>
    <tag k="name:en" v="I.Olimpiou"/>
  </way>
  <way id="32447283" version="1" timestamp="2009-03-22T19:58:42Z" uid="12188" user="Babis" changeset="844483">
    <nd ref="251123240"/>
    <nd ref="251123242"/>
    <nd ref="251123243"/>
    <nd ref="251123244"/>
    <nd ref="251123245"/>
    <nd ref="251123246"/>
    <nd ref="364622648"/>
    <nd ref="364622649"/>
    <nd ref="364622650"/>
    <nd ref="364622651"/>
    <nd ref="364622652"/>
    <nd ref="364622653"/>
    <tag k="created_by" v="Potlatch 0.10f"/>
    <tag k="highway" v="residential"/>
    <tag k="name" v="Σαλτέλη"/>
    <tag k="name:en" v="Salteli"/>
    <tag k="source" v="Yahoo"/>
  </way>
  <way id="32447283" version="2" timestamp="2009-03-22T20:01:11Z" uid="12188" user="Babis" changeset="844483">
    <nd ref="251123240"/>
    <nd ref="251123242"/>
    <nd ref="251123243"/>
    <nd ref="251123244"/>
    <nd ref="251123245"/>
    <nd ref="251123246"/>
    <nd ref="364622648"/>
    <tag k="created_by" v="Potlatch 0.10f"/>
    <tag k="highway" v="residential"/>
    <tag k="name" v="Σαλτέλη"/>
    <tag k="name:en" v="Salteli"/>
    <tag k="source" v="Yahoo"/>
  </way>
  <way id="32447283" version="3" timestamp="2009-03-22T20:01:25Z" uid="12188" user="Babis" changeset="844483">
    <nd ref="251123240"/>
    <nd ref="251123242"/>
    <nd ref="251123243"/>
    <nd ref="251123244"/>
    <nd ref="251123245"/>
    <nd ref="251123246"/>
    <nd ref="364622648"/>
    <tag k="admin_level" v="8"/>
    <tag k="boundary" v="administrative"/>
    <tag k="created_by" v="Potlatch 0.10f"/>
    <tag k="highway" v="residential"/>
    <tag k="name" v="Σαλτέλη"/>
    <tag k="name:en" v="Salteli"/>
    <tag k="source" v="Yahoo"/>
  </way>
  <way id="32447283" version="4" timestamp="2009-09-20T15:06:49Z" uid="12188" user="Babis" changeset="2546558">
    <nd ref="251123240"/>
    <nd ref="251123242"/>
    <nd ref="251123243"/>
    <nd ref="251123244"/>
    <nd ref="251123245"/>
    <nd ref="251123246"/>
    <nd ref="503350024"/>
    <nd ref="364622648"/>
    <tag k="admin_level" v="8"/>
    <tag k="boundary" v="administrative"/>
    <tag k="highway" v="residential"/>
    <tag k="name" v="Σαλτέλη"/>
    <tag k="name:en" v="Salteli"/>
    <tag k="source" v="Yahoo"/>
  </way>
  <way id="32447283" version="5" timestamp="2009-09-20T15:07:29Z" uid="12188" user="Babis" changeset="2546558">
    <nd ref="251123240"/>
    <nd ref="251123242"/>
    <nd ref="251123243"/>
    <nd ref="251123244"/>
    <nd ref="251123245"/>
    <nd ref="503350371"/>
    <nd ref="251123246"/>
    <nd ref="503350024"/>
    <nd ref="364622648"/>
    <tag k="admin_level" v="8"/>
    <tag k="boundary" v="administrative"/>
    <tag k="highway" v="residential"/>
    <tag k="name" v="Σαλτέλη"/>
    <tag k="name:en" v="Salteli"/>
    <tag k="source" v="Yahoo"/>
  </way>
  <way id="32447284" version="1" timestamp="2009-03-22T19:58:47Z" uid="12188" user="Babis" changeset="844483">
    <nd ref="251123237"/>
    <nd ref="251123238"/>
    <nd ref="251123239"/>
    <nd ref="251123240"/>
    <tag k="created_by" v="Potlatch 0.10f"/>
    <tag k="highway" v="residential"/>
    <tag k="name" v="Σαλτέλη"/>
    <tag k="name:en" v="Salteli"/>
    <tag k="source" v="Yahoo"/>
  </way>
  <way id="32447284" version="2" timestamp="2009-03-22T19:59:34Z" uid="12188" user="Babis" changeset="844483"/>
  <way id="32447294" version="1" timestamp="2009-03-22T19:59:32Z" uid="12188" user="Babis" changeset="844483">
    <nd ref="251123237"/>
    <nd ref="251123238"/>
    <nd ref="251123239"/>
    <nd ref="251123240"/>
    <tag k="admin_level" v="8"/>
    <tag k="boundary" v="administrative"/>
    <tag k="created_by" v="Potlatch 0.10f"/>
    <tag k="highway" v="residential"/>
    <tag k="name" v="Σωκράτους; Σαλτέλη"/>
    <tag k="name:en" v="Sokratous; Salteli"/>
    <tag k="source" v="Yahoo"/>
  </way>
  <way id="32447294" version="2" timestamp="2009-03-22T19:59:51Z" uid="12188" user="Babis" changeset="844483">
    <nd ref="251123237"/>
    <nd ref="251123238"/>
    <nd ref="251123239"/>
    <nd ref="251123240"/>
    <tag k="admin_level" v="8"/>
    <tag k="boundary" v="administrative"/>
    <tag k="created_by" v="Potlatch 0.10f"/>
    <tag k="highway" v="residential"/>
    <tag k="source" v="Yahoo"/>
  </way>
  <way id="32447376" version="1" timestamp="2009-03-22T20:01:11Z" uid="12188" user="Babis" changeset="844483">
    <nd ref="364622648"/>
    <nd ref="364622649"/>
    <nd ref="364622650"/>
    <nd ref="364622651"/>
    <nd ref="364622652"/>
    <nd ref="364622653"/>
    <tag k="created_by" v="Potlatch 0.10f"/>
    <tag k="highway" v="residential"/>
    <tag k="name" v="Σαλτέλη"/>
    <tag k="name:en" v="Salteli"/>
    <tag k="source" v="Yahoo"/>
  </way>
  <way id="32447383" version="1" timestamp="2009-03-22T20:01:28Z" uid="12188" user="Babis" changeset="844483">
    <nd ref="364622954"/>
    <nd ref="364623157"/>
    <nd ref="364622824"/>
    <tag k="created_by" v="Potlatch 0.10f"/>
    <tag k="highway" v="residential"/>
    <tag k="name" v="Αγησιλάου"/>
    <tag k="name:en" v="Agisilaou"/>
    <tag k="source" v="Yahoo"/>
  </way>
  <way id="32447386" version="1" timestamp="2009-03-22T20:01:41Z" uid="12188" user="Babis" changeset="844483">
    <nd ref="364622822"/>
    <nd ref="364622823"/>
    <nd ref="364343592"/>
    <nd ref="364622954"/>
    <tag k="created_by" v="Potlatch 0.10f"/>
    <tag k="highway" v="residential"/>
    <tag k="name" v="Αγησιλάου"/>
    <tag k="name:en" v="Agisilaou"/>
    <tag k="source" v="Yahoo"/>
  </way>
  <way id="32447386" version="2" timestamp="2009-03-22T20:02:06Z" uid="12188" user="Babis" changeset="844483">
    <nd ref="364622822"/>
    <nd ref="364622823"/>
    <nd ref="364343592"/>
    <nd ref="364622954"/>
    <tag k="admin_level" v="8"/>
    <tag k="boundary" v="administrative"/>
    <tag k="created_by" v="Potlatch 0.10f"/>
    <tag k="highway" v="residential"/>
    <tag k="name" v="Αγησιλάου"/>
    <tag k="name:en" v="Agisilaou"/>
    <tag k="source" v="Yahoo"/>
  </way>
  <way id="32447389" version="3" timestamp="2010-10-07T18:42:47Z" uid="9581" user="Lobelt" changeset="5980318">
    <nd ref="280065546"/>
    <nd ref="364797732"/>
    <nd ref="364797734"/>
    <tag k="access" v="no"/>
    <tag k="highway" v="track"/>
    <tag k="motorcar" v="agricultural"/>
    <tag k="motorcycle" v="agricultural"/>
    <tag k="surface" v="ground"/>
    <tag k="tracktype" v="grade5"/>
    <tag k="width" v="1.5"/>
  </way>
  <way id="32447390" version="2" timestamp="2010-10-07T18:41:58Z" uid="9581" user="Lobelt" changeset="5980318">
    <nd ref="364797750"/>
    <nd ref="364797756"/>
    <nd ref="364797757"/>
    <nd ref="364797759"/>
    <nd ref="364797761"/>
    <nd ref="364797762"/>
    <nd ref="364797764"/>
    <tag k="access" v="permissive"/>
    <tag k="highway" v="track"/>
    <tag k="motorcar" v="permissive"/>
    <tag k="motorcycle" v="permissive"/>
    <tag k="surface" v="gravel"/>
    <tag k="tracktype" v="grade5"/>
    <tag k="width" v="5"/>
  </way>
  <way id="32447527" version="12" timestamp="2010-04-07T13:34:51Z" uid="20587" user="balrog-kun" changeset="4353646">
    <nd ref="364799508"/>
    <nd ref="364799511"/>
    <nd ref="364799513"/>
    <tag k="created_by" v="Potlatch 0.10f"/>
    <tag k="highway" v="residential"/>
    <tag k="name" v="East Oak Hill Drive"/>
  </way>
  <way id="32447547" version="4" timestamp="2010-04-07T13:34:51Z" uid="20587" user="balrog-kun" changeset="4353646">
    <nd ref="364799701"/>
    <nd ref="364799702"/>
    <tag k="created_by" v="Potlatch 0.10f"/>
    <tag k="highway" v="residential"/>
    <tag k="name" v="Park Crest Court"/>
  </way>
  <way id="32447556" version="4" timestamp="2010-04-07T13:34:51Z" uid="20587" user="balrog-kun" changeset="4353646">
    <nd ref="364799828"/>
    <nd ref="364799831"/>
    <tag k="created_by" v="Potlatch 0.10f"/>
    <tag k="highway" v="residential"/>
    <tag k="name" v="Park Glen Court"/>
  </way>
  <way id="32447580" version="4" timestamp="2010-04-07T13:34:52Z" uid="20587" user="balrog-kun" changeset="4353646">
    <nd ref="364799989"/>
    <nd ref="364799991"/>
    <tag k="created_by" v="Potlatch 0.10f"/>
    <tag k="highway" v="residential"/>
    <tag k="name" v="Tracy Court"/>
  </way>
  <way id="32447603" version="3" timestamp="2010-04-07T13:34:52Z" uid="20587" user="balrog-kun" changeset="4353646">
    <nd ref="364800275"/>
    <nd ref="364800277"/>
    <nd ref="364800278"/>
    <tag k="created_by" v="Potlatch 0.10f"/>
    <tag k="highway" v="residential"/>
    <tag k="name" v="Dawn Court"/>
  </way>
  <way id="32447698" version="4" timestamp="2010-04-07T13:34:52Z" uid="20587" user="balrog-kun" changeset="4353646">
    <nd ref="364800978"/>
    <nd ref="151329125"/>
    <nd ref="151329127"/>
    <tag k="created_by" v="Potlatch 0.10f"/>
    <tag k="highway" v="residential"/>
    <tag k="name" v="Erie Avenue"/>
    <tag k="tiger:cfcc" v="A41"/>
    <tag k="tiger:county" v="Hidalgo, TX"/>
    <tag k="tiger:name_base" v="Erie"/>
    <tag k="tiger:name_type" v="Ave"/>
    <tag k="tiger:reviewed" v="no"/>
    <tag k="tiger:separated" v="no"/>
    <tag k="tiger:source" v="tiger_import_dch_v0.6_20070830"/>
    <tag k="tiger:tlid" v="71501192:71501275:71501284:71501214"/>
    <tag k="tiger:zip_left" v="78501"/>
    <tag k="tiger:zip_right" v="78501"/>
  </way>
  <way id="32447839" version="4" timestamp="2010-04-07T13:34:52Z" uid="20587" user="balrog-kun" changeset="4353646">
    <nd ref="364802309"/>
    <nd ref="222568049"/>
    <tag k="created_by" v="Potlatch 0.10f"/>
    <tag k="highway" v="residential"/>
    <tag k="name" v="East Oak Hill Drive"/>
  </way>
  <way id="32447861" version="4" timestamp="2010-04-07T13:34:53Z" uid="20587" user="balrog-kun" changeset="4353646">
    <nd ref="364799513"/>
    <nd ref="364799991"/>
    <nd ref="364799514"/>
    <nd ref="364800278"/>
    <nd ref="364799515"/>
    <nd ref="364799517"/>
    <tag k="created_by" v="Potlatch 0.10f"/>
    <tag k="highway" v="residential"/>
    <tag k="name" v="Knight Drive"/>
  </way>
  <way id="32447887" version="2" timestamp="2010-03-29T10:51:01Z" uid="20587" user="balrog-kun" changeset="4266090">
    <nd ref="122747725"/>
    <nd ref="364802944"/>
    <nd ref="123018649"/>
    <nd ref="123053591"/>
    <nd ref="122977990"/>
    <nd ref="123053594"/>
    <nd ref="123053598"/>
    <nd ref="123053600"/>
    <nd ref="122911927"/>
    <nd ref="358174576"/>
    <tag k="created_by" v="Potlatch 0.10f"/>
    <tag k="cycleway" v="lane"/>
    <tag k="highway" v="secondary"/>
    <tag k="lane" v="3"/>
    <tag k="name" v="Alton Parkway"/>
    <tag k="tiger:cfcc" v="A41"/>
    <tag k="tiger:county" v="Orange, CA"/>
    <tag k="tiger:name_base" v="Alton"/>
    <tag k="tiger:name_type" v="Pky"/>
    <tag k="tiger:separated" v="no"/>
    <tag k="tiger:source" v="tiger_import_dch_v0.6_20070809"/>
    <tag k="tiger:tlid" v="144391932:144391933:144106052:144419240:144106041:144421569:144394081:144419281:144394113:144394114"/>
    <tag k="tiger:zip_left" v="92604"/>
    <tag k="tiger:zip_right" v="92614"/>
  </way>
  <way id="32447968" version="3" timestamp="2010-04-07T13:34:53Z" uid="20587" user="balrog-kun" changeset="4353646">
    <nd ref="364799517"/>
    <nd ref="364799518"/>
    <nd ref="364799519"/>
    <tag k="created_by" v="Potlatch 0.10f"/>
    <tag k="highway" v="residential"/>
    <tag k="name" v="Park Oak Drive"/>
  </way>
</osm>
