<?xml version='1.0' encoding='UTF-8'?>
<osm version="0.6" generator="libosmium/2.20.0">
  <way id="32458092" version="7" timestamp="2009-06-24T10:41:56Z" uid="7617" user="Franc" changeset="1610072">
    <nd ref="364892051"/>
    <nd ref="364892244"/>
    <nd ref="364892276"/>
    <nd ref="364891131"/>
    <nd ref="364891975"/>
    <nd ref="364891979"/>
    <tag k="highway" v="residential"/>
    <tag k="name" v="Warlock Road"/>
  </way>
  <way id="32458093" version="5" timestamp="2009-06-25T12:14:58Z" uid="7617" user="Franc" changeset="1622345">
    <nd ref="364892048"/>
    <nd ref="364891945"/>
    <tag k="highway" v="residential"/>
    <tag k="name" v="Warthwyke Court"/>
  </way>
  <way id="32458095" version="6" timestamp="2009-06-24T10:41:56Z" uid="7617" user="Franc" changeset="1610072">
    <nd ref="364892244"/>
    <nd ref="364892098"/>
    <nd ref="364892101"/>
    <nd ref="364892108"/>
    <nd ref="364892113"/>
    <tag k="highway" v="residential"/>
    <tag k="name" v="Leishman Court"/>
  </way>
  <way id="32458097" version="6" timestamp="2009-06-24T10:41:57Z" uid="7617" user="Franc" changeset="1610072">
    <nd ref="364892729"/>
    <nd ref="364892774"/>
    <nd ref="364892757"/>
    <nd ref="364892735"/>
    <tag k="created_by" v="Potlatch 0.10f"/>
    <tag k="highway" v="residential"/>
    <tag k="name" v="Sea View"/>
  </way>
  <way id="32458102" version="5" timestamp="2009-06-24T10:41:57Z" uid="7617" user="Franc" changeset="1610072">
    <nd ref="364889976"/>
    <nd ref="364891331"/>
    <tag k="highway" v="residential"/>
    <tag k="name" v="Adam Street"/>
  </way>
  <way id="32458104" version="5" timestamp="2009-06-25T12:14:54Z" uid="7617" user="Franc" changeset="1622345">
    <nd ref="364893130"/>
    <nd ref="364893126"/>
    <tag k="highway" v="residential"/>
    <tag k="name" v="Freeman Close"/>
  </way>
  <way id="32458109" version="5" timestamp="2009-06-24T10:18:20Z" uid="7617" user="Franc" changeset="1609861">
    <nd ref="364891576"/>
    <nd ref="364891570"/>
    <tag k="highway" v="residential"/>
    <tag k="name" v="Westall Street"/>
  </way>
  <way id="32458110" version="5" timestamp="2009-06-25T12:14:54Z" uid="7617" user="Franc" changeset="1622345">
    <nd ref="364891383"/>
    <nd ref="364889897"/>
    <tag k="highway" v="residential"/>
    <tag k="name" v="Bell Court"/>
  </way>
  <way id="32458111" version="5" timestamp="2009-06-24T10:18:20Z" uid="7617" user="Franc" changeset="1609861">
    <nd ref="364889837"/>
    <nd ref="364891640"/>
    <tag k="highway" v="residential"/>
    <tag k="name" v="Bauer Street"/>
  </way>
  <way id="32458115" version="6" timestamp="2009-06-24T10:41:56Z" uid="7617" user="Franc" changeset="1610072">
    <nd ref="364893215"/>
    <nd ref="364893217"/>
    <nd ref="364893210"/>
    <nd ref="364893219"/>
    <tag k="highway" v="residential"/>
    <tag k="name" v="Compass Boulevard"/>
  </way>
  <way id="32458121" version="5" timestamp="2009-06-24T09:03:20Z" uid="7617" user="Franc" changeset="1609281">
    <nd ref="364890408"/>
    <nd ref="364890413"/>
    <nd ref="364890411"/>
    <nd ref="364890401"/>
    <tag k="created_by" v="Potlatch 0.10f"/>
    <tag k="highway" v="residential"/>
    <tag k="name" v="Jason Road"/>
  </way>
  <way id="32458122" version="5" timestamp="2009-06-24T10:18:20Z" uid="7617" user="Franc" changeset="1609861">
    <nd ref="364890713"/>
    <nd ref="364890705"/>
    <nd ref="364890830"/>
    <nd ref="364890867"/>
    <nd ref="364890781"/>
    <nd ref="364891475"/>
    <tag k="highway" v="residential"/>
    <tag k="name" v="Lound Street"/>
  </way>
  <way id="32458125" version="5" timestamp="2009-06-24T09:03:21Z" uid="7617" user="Franc" changeset="1609281">
    <nd ref="364889935"/>
    <nd ref="364891343"/>
    <nd ref="364889821"/>
    <tag k="highway" v="residential"/>
    <tag k="name" v="Evans Road"/>
  </way>
  <way id="32458127" version="6" timestamp="2009-06-24T10:41:56Z" uid="7617" user="Franc" changeset="1610072">
    <nd ref="364891148"/>
    <nd ref="364890252"/>
    <nd ref="364890244"/>
    <nd ref="364890128"/>
    <nd ref="364892184"/>
    <nd ref="364890240"/>
    <nd ref="364890231"/>
    <nd ref="364890227"/>
    <nd ref="364890236"/>
    <nd ref="364890232"/>
    <nd ref="364890098"/>
    <nd ref="364890401"/>
    <nd ref="364889976"/>
    <nd ref="364891633"/>
    <nd ref="364890072"/>
    <nd ref="364890090"/>
    <nd ref="364890058"/>
    <nd ref="364890060"/>
    <nd ref="364891265"/>
    <tag k="highway" v="residential"/>
    <tag k="name" v="Green Island Crescent"/>
  </way>
  <way id="32458137" version="5" timestamp="2009-06-24T10:18:20Z" uid="7617" user="Franc" changeset="1609861">
    <nd ref="364891365"/>
    <nd ref="364891733"/>
    <tag k="highway" v="residential"/>
    <tag k="name" v="Taylor Street"/>
  </way>
  <way id="32458138" version="5" timestamp="2009-06-24T10:18:20Z" uid="7617" user="Franc" changeset="1609861">
    <nd ref="364891372"/>
    <nd ref="364891369"/>
    <tag k="highway" v="residential"/>
    <tag k="name" v="Thistle Street"/>
  </way>
  <way id="32458715" version="7" timestamp="2010-07-31T09:44:53Z" uid="9581" user="Lobelt" changeset="5361149">
    <nd ref="364897271"/>
    <nd ref="364897273"/>
    <nd ref="373275729"/>
    <nd ref="373275749"/>
    <nd ref="839821931"/>
    <nd ref="839822306"/>
    <tag k="cables" v="6"/>
    <tag k="power" v="line"/>
    <tag k="wires" v="single"/>
  </way>
  <way id="32458850" version="1" timestamp="2009-03-23T08:26:47Z" uid="12188" user="Babis" changeset="847820">
    <nd ref="270598196"/>
    <nd ref="271812305"/>
    <nd ref="270598197"/>
    <nd ref="36450879"/>
    <tag k="created_by" v="Potlatch 0.10f"/>
    <tag k="highway" v="residential"/>
  </way>
  <way id="32458850" version="2" timestamp="2009-03-23T08:28:10Z" uid="12188" user="Babis" changeset="847820">
    <nd ref="271812292"/>
    <nd ref="271812300"/>
    <nd ref="271812791"/>
    <nd ref="271812800"/>
    <nd ref="271812280"/>
    <nd ref="270598196"/>
    <nd ref="271812305"/>
    <nd ref="270598197"/>
    <nd ref="36450879"/>
    <tag k="admin_level" v="8"/>
    <tag k="boundary" v="administrative"/>
    <tag k="created_by" v="Potlatch 0.10f"/>
    <tag k="highway" v="residential"/>
    <tag k="name" v="Πάτμου"/>
    <tag k="name:en" v="Patmou"/>
  </way>
  <way id="32458910" version="6" timestamp="2010-07-08T19:45:53Z" uid="74617" user="JohnSmith" changeset="5168688">
    <nd ref="266321408"/>
    <nd ref="266321409"/>
    <nd ref="266321410"/>
    <nd ref="266321411"/>
    <nd ref="266321412"/>
    <nd ref="266321413"/>
    <nd ref="266321414"/>
    <nd ref="266321415"/>
    <nd ref="266321416"/>
    <nd ref="266321417"/>
    <tag k="highway" v="residential"/>
    <tag k="maxspeed" v="50"/>
    <tag k="maxspeed:source" v="default residential speed limit in Australia"/>
    <tag k="name" v="Pioneer Way"/>
  </way>
  <way id="32458914" version="2" timestamp="2010-07-08T19:42:58Z" uid="74617" user="JohnSmith" changeset="5168688">
    <nd ref="266321411"/>
    <nd ref="364898746"/>
    <tag k="highway" v="residential"/>
    <tag k="maxspeed" v="50"/>
    <tag k="maxspeed:source" v="default residential speed limit in Australia"/>
    <tag k="name" v="Chloe Close"/>
  </way>
  <way id="32458919" version="2" timestamp="2010-07-08T19:43:31Z" uid="74617" user="JohnSmith" changeset="5168688">
    <nd ref="266321413"/>
    <nd ref="364898830"/>
    <tag k="highway" v="residential"/>
    <tag k="maxspeed" v="50"/>
    <tag k="maxspeed:source" v="default residential speed limit in Australia"/>
    <tag k="name" v="Jodie Place"/>
  </way>
  <way id="32458923" version="4" timestamp="2010-07-08T19:39:02Z" uid="74617" user="JohnSmith" changeset="5168688">
    <nd ref="266321415"/>
    <nd ref="364898837"/>
    <nd ref="471743212"/>
    <tag k="highway" v="residential"/>
    <tag k="maxspeed" v="50"/>
    <tag k="maxspeed:source" v="default residential speed limit in Australia"/>
    <tag k="name" v="Sandy Wynd"/>
  </way>
  <way id="32458940" version="3" timestamp="2010-07-08T19:42:38Z" uid="74617" user="JohnSmith" changeset="5168688">
    <nd ref="266320929"/>
    <nd ref="364898941"/>
    <nd ref="364898942"/>
    <nd ref="364898955"/>
    <nd ref="364898943"/>
    <nd ref="364898944"/>
    <nd ref="364898945"/>
    <tag k="highway" v="residential"/>
    <tag k="maxspeed" v="50"/>
    <tag k="maxspeed:source" v="default residential speed limit in Australia"/>
    <tag k="name" v="Clarkedale Rise"/>
  </way>
  <way id="32458946" version="2" timestamp="2010-07-08T19:45:09Z" uid="74617" user="JohnSmith" changeset="5168688">
    <nd ref="364898942"/>
    <nd ref="364898946"/>
    <tag k="highway" v="residential"/>
    <tag k="maxspeed" v="50"/>
    <tag k="maxspeed:source" v="default residential speed limit in Australia"/>
    <tag k="name" v="Vintage Court"/>
  </way>
  <way id="32458951" version="2" timestamp="2010-07-08T19:45:38Z" uid="74617" user="JohnSmith" changeset="5168688">
    <nd ref="364898955"/>
    <nd ref="364899000"/>
    <tag k="highway" v="residential"/>
    <tag k="maxspeed" v="50"/>
    <tag k="maxspeed:source" v="default residential speed limit in Australia"/>
    <tag k="name" v="Blanche Court"/>
  </way>
  <way id="32458992" version="3" timestamp="2010-02-14T15:50:04Z" uid="74617" user="JohnSmith" changeset="3874884">
    <nd ref="79670161"/>
    <nd ref="79670162"/>
    <nd ref="79670163"/>
    <nd ref="79670164"/>
    <nd ref="79709952"/>
    <nd ref="79709953"/>
    <nd ref="79709956"/>
    <nd ref="79709958"/>
    <nd ref="79709959"/>
    <nd ref="79709960"/>
    <nd ref="79709962"/>
    <nd ref="79709963"/>
    <tag k="highway" v="residential"/>
    <tag k="maxspeed" v="50"/>
    <tag k="name" v="Swan Street"/>
  </way>
  <way id="32458994" version="3" timestamp="2010-02-14T15:50:06Z" uid="74617" user="JohnSmith" changeset="3874884">
    <nd ref="364899400"/>
    <nd ref="364899401"/>
    <nd ref="364899415"/>
    <nd ref="364899416"/>
    <nd ref="364899419"/>
    <nd ref="364899425"/>
    <nd ref="364899427"/>
    <nd ref="364899429"/>
    <nd ref="364899400"/>
    <tag k="highway" v="residential"/>
    <tag k="junction" v="roundabout"/>
    <tag k="maxspeed" v="50"/>
    <tag k="name" v="Brookfield Road"/>
  </way>
  <way id="32458994" version="4" timestamp="2010-04-21T13:14:54Z" uid="4467" user="Rosscoe" changeset="4486342">
    <nd ref="364899400"/>
    <nd ref="364899401"/>
    <nd ref="364899415"/>
    <nd ref="364899416"/>
    <nd ref="364899419"/>
    <nd ref="364899425"/>
    <nd ref="364899427"/>
    <nd ref="364899429"/>
    <nd ref="364899400"/>
    <tag k="highway" v="residential"/>
    <tag k="junction" v="roundabout"/>
    <tag k="maxspeed" v="50"/>
  </way>
  <way id="32458995" version="2" timestamp="2010-02-14T15:49:42Z" uid="74617" user="JohnSmith" changeset="3874884">
    <nd ref="364899400"/>
    <nd ref="196653284"/>
    <tag k="highway" v="residential"/>
    <tag k="maxspeed" v="50"/>
    <tag k="name" v="Brookfield Road"/>
  </way>
  <way id="32458996" version="2" timestamp="2010-02-14T15:49:37Z" uid="74617" user="JohnSmith" changeset="3874884">
    <nd ref="364899415"/>
    <nd ref="196661912"/>
    <nd ref="196661805"/>
    <tag k="highway" v="residential"/>
    <tag k="maxspeed" v="50"/>
    <tag k="name" v="Clarence Road"/>
  </way>
  <way id="32458996" version="3" timestamp="2010-04-21T13:14:53Z" uid="4467" user="Rosscoe" changeset="4486342">
    <nd ref="364899415"/>
    <nd ref="703211848"/>
    <tag k="highway" v="residential"/>
    <tag k="maxspeed" v="50"/>
    <tag k="name" v="Clarence Road"/>
  </way>
</osm>
