<?xml version='1.0' encoding='UTF-8'?>
<osm version="0.6" generator="libosmium/2.20.0">
  <way id="32553252" version="3" timestamp="2009-04-07T19:07:09Z" uid="6975" user="ulfl" changeset="298062">
    <nd ref="366103205"/>
    <nd ref="366103206"/>
    <tag k="landuse" v="commercial"/>
    <tag k="name" v="jawahar market"/>
  </way>
  <way id="32553320" version="7" timestamp="2009-04-07T18:48:39Z" uid="6975" user="ulfl" changeset="298062">
    <nd ref="222965014"/>
    <nd ref="366103899"/>
    <nd ref="366103900"/>
    <nd ref="366103901"/>
    <nd ref="366103902"/>
    <nd ref="366103903"/>
    <nd ref="209208653"/>
    <tag k="construction" v="primary"/>
    <tag k="highway" v="construction"/>
  </way>
  <way id="32553404" version="1" timestamp="2009-03-27T09:13:32Z" uid="64977" user="CLoeser" changeset="863808">
    <nd ref="366105834"/>
    <nd ref="366105836"/>
    <nd ref="366105838"/>
    <nd ref="366105839"/>
    <nd ref="366105834"/>
    <tag k="building" v="yes"/>
    <tag k="created_by" v="Potlatch 0.10f"/>
  </way>
  <way id="32553404" version="2" timestamp="2009-03-27T09:13:54Z" uid="64977" user="CLoeser" changeset="863808">
    <nd ref="366105834"/>
    <nd ref="366105836"/>
    <nd ref="366105838"/>
    <nd ref="366105839"/>
    <nd ref="366105834"/>
    <tag k="building" v="yes"/>
    <tag k="created_by" v="Potlatch 0.10f"/>
  </way>
  <way id="32553404" version="3" timestamp="2009-03-27T09:14:16Z" uid="64977" user="CLoeser" changeset="863808">
    <nd ref="366105834"/>
    <nd ref="366105836"/>
    <nd ref="366105838"/>
    <nd ref="366105839"/>
    <nd ref="366105834"/>
    <tag k="building" v="yes"/>
    <tag k="created_by" v="Potlatch 0.10f"/>
    <tag k="name" v="Blockheizkraftwerk Kapaunenstraße"/>
  </way>
  <way id="32553404" version="4" timestamp="2009-03-27T09:16:08Z" uid="64977" user="CLoeser" changeset="863808">
    <nd ref="366105834"/>
    <nd ref="366105836"/>
    <nd ref="366105838"/>
    <nd ref="366105839"/>
    <nd ref="366105834"/>
    <tag k="building" v="yes"/>
    <tag k="created_by" v="Potlatch 0.10f"/>
    <tag k="name" v="Blockheizkraftwerk Kapaunenstraße"/>
    <tag k="operator" v="Stadtwerke Greifswald"/>
  </way>
  <way id="32553404" version="5" timestamp="2009-03-27T09:16:30Z" uid="64977" user="CLoeser" changeset="863808">
    <nd ref="366105834"/>
    <nd ref="366105836"/>
    <nd ref="366105838"/>
    <nd ref="366105839"/>
    <nd ref="366105834"/>
    <tag k="building" v="yes"/>
    <tag k="created_by" v="Potlatch 0.10f"/>
    <tag k="name" v="Blockheizkraftwerk Kapaunenstraße"/>
    <tag k="operator" v="Stadtwerke Greifswald"/>
    <tag k="power" v="generator"/>
  </way>
  <way id="32553404" version="6" timestamp="2009-03-27T09:17:24Z" uid="64977" user="CLoeser" changeset="863808">
    <nd ref="366105834"/>
    <nd ref="366105836"/>
    <nd ref="366105838"/>
    <nd ref="366105839"/>
    <nd ref="366105834"/>
    <tag k="building" v="yes"/>
    <tag k="created_by" v="Potlatch 0.10f"/>
    <tag k="name" v="Blockheizkraftwerk Kapaunenstraße"/>
    <tag k="operator" v="Stadtwerke Greifswald"/>
    <tag k="power" v="generator"/>
    <tag k="power_source" v="gas"/>
  </way>
  <way id="32553404" version="7" timestamp="2009-03-27T09:17:50Z" uid="64977" user="CLoeser" changeset="863808">
    <nd ref="366105834"/>
    <nd ref="366105836"/>
    <nd ref="366105838"/>
    <nd ref="366105839"/>
    <nd ref="366105834"/>
    <tag k="addr:street" v="Kapaunenstraße"/>
    <tag k="building" v="yes"/>
    <tag k="created_by" v="Potlatch 0.10f"/>
    <tag k="name" v="Blockheizkraftwerk Kapaunenstraße"/>
    <tag k="operator" v="Stadtwerke Greifswald"/>
    <tag k="power" v="generator"/>
    <tag k="power_source" v="gas"/>
  </way>
  <way id="32553404" version="8" timestamp="2009-04-05T05:50:35Z" uid="64977" user="CLoeser" changeset="200772">
    <nd ref="366105834"/>
    <nd ref="366105836"/>
    <nd ref="366105838"/>
    <nd ref="366105839"/>
    <nd ref="366105834"/>
    <tag k="addr:street" v="Kapaunenstraße"/>
    <tag k="building" v="yes"/>
    <tag k="created_by" v="Potlatch 0.10f"/>
    <tag k="name" v="Blockheizkraftwerk Kapaunenstraße"/>
    <tag k="operator" v="Stadtwerke Greifswald"/>
    <tag k="power" v="generator"/>
    <tag k="power_source" v="gas"/>
  </way>
  <way id="32553404" version="9" timestamp="2009-04-05T05:50:46Z" uid="64977" user="CLoeser" changeset="200772">
    <nd ref="366105834"/>
    <nd ref="366105836"/>
    <nd ref="366105838"/>
    <nd ref="366105839"/>
    <nd ref="366105834"/>
    <tag k="addr:street" v="Kapaunenstraße"/>
    <tag k="building" v="yes"/>
    <tag k="created_by" v="Potlatch 0.10f"/>
    <tag k="name" v="Blockheizkraftwerk Kapaunenstraße"/>
    <tag k="operator" v="Stadtwerke Greifswald"/>
    <tag k="power" v="generator"/>
    <tag k="power_source" v="gas"/>
  </way>
  <way id="32553404" version="10" timestamp="2009-04-05T05:50:59Z" uid="64977" user="CLoeser" changeset="200772">
    <nd ref="366105834"/>
    <nd ref="366105836"/>
    <nd ref="366105838"/>
    <nd ref="366105839"/>
    <nd ref="366105834"/>
    <tag k="addr:street" v="Kapaunenstraße"/>
    <tag k="building" v="yes"/>
    <tag k="created_by" v="Potlatch 0.10f"/>
    <tag k="name" v="Blockheizkraftwerk Kapaunenstraße"/>
    <tag k="operator" v="Stadtwerke Greifswald"/>
    <tag k="power" v="generator"/>
    <tag k="power_source" v="gas"/>
  </way>
  <way id="32553404" version="11" timestamp="2009-04-05T10:59:53Z" uid="64977" user="CLoeser" changeset="203639">
    <nd ref="366105834"/>
    <nd ref="366105836"/>
    <nd ref="366105838"/>
    <nd ref="366105839"/>
    <nd ref="366105834"/>
    <tag k="addr:street" v="Kapaunenstraße"/>
    <tag k="building" v="yes"/>
    <tag k="created_by" v="Potlatch 0.10f"/>
    <tag k="name" v="Blockheizkraftwerk Kapaunenstraße"/>
    <tag k="operator" v="Stadtwerke Greifswald"/>
    <tag k="power" v="generator"/>
    <tag k="power_source" v="gas"/>
  </way>
  <way id="32553404" version="12" timestamp="2009-04-05T10:59:57Z" uid="64977" user="CLoeser" changeset="203639">
    <nd ref="366105834"/>
    <nd ref="366105836"/>
    <nd ref="366105838"/>
    <nd ref="366105839"/>
    <nd ref="366105834"/>
    <tag k="addr:street" v="Kapaunenstraße"/>
    <tag k="building" v="yes"/>
    <tag k="created_by" v="Potlatch 0.10f"/>
    <tag k="name" v="Blockheizkraftwerk Kapaunenstraße"/>
    <tag k="operator" v="Stadtwerke Greifswald"/>
    <tag k="power" v="generator"/>
    <tag k="power_source" v="gas"/>
  </way>
  <way id="32553454" version="1" timestamp="2009-03-27T09:18:37Z" uid="64977" user="CLoeser" changeset="863808">
    <nd ref="366107578"/>
    <nd ref="366107579"/>
    <nd ref="366107580"/>
    <nd ref="366107581"/>
    <nd ref="366107582"/>
    <nd ref="366107578"/>
    <tag k="building" v="yes"/>
    <tag k="created_by" v="Potlatch 0.10f"/>
  </way>
  <way id="32553454" version="2" timestamp="2009-03-27T09:18:53Z" uid="64977" user="CLoeser" changeset="863808">
    <nd ref="366107578"/>
    <nd ref="366107579"/>
    <nd ref="366107580"/>
    <nd ref="366107581"/>
    <nd ref="366107582"/>
    <nd ref="366107578"/>
    <tag k="building" v="yes"/>
    <tag k="created_by" v="Potlatch 0.10f"/>
    <tag k="name" v="Amtsgericht Greifswald und Finanzgericht Mecklenburg-Vorpommern"/>
  </way>
  <way id="32553454" version="3" timestamp="2009-03-27T09:19:14Z" uid="64977" user="CLoeser" changeset="863808">
    <nd ref="366107578"/>
    <nd ref="366107579"/>
    <nd ref="366107580"/>
    <nd ref="366107581"/>
    <nd ref="366107582"/>
    <nd ref="366107578"/>
    <tag k="addr:housenumber" v="2a"/>
    <tag k="addr:street" v="Lange Straße"/>
    <tag k="building" v="yes"/>
    <tag k="created_by" v="Potlatch 0.10f"/>
    <tag k="name" v="Amtsgericht Greifswald und Finanzgericht Mecklenburg-Vorpommern"/>
  </way>
  <way id="32553454" version="4" timestamp="2009-03-27T09:19:39Z" uid="64977" user="CLoeser" changeset="863808">
    <nd ref="366107578"/>
    <nd ref="366107579"/>
    <nd ref="366107580"/>
    <nd ref="366107581"/>
    <nd ref="366107582"/>
    <nd ref="366107578"/>
    <tag k="addr:city" v="Greifswald"/>
    <tag k="addr:postcode" v="17489"/>
    <tag k="addr:street" v="Lange Straße"/>
    <tag k="building" v="yes"/>
    <tag k="created_by" v="Potlatch 0.10f"/>
    <tag k="name" v="Amtsgericht Greifswald und Finanzgericht Mecklenburg-Vorpommern"/>
  </way>
  <way id="32553454" version="5" timestamp="2009-03-27T09:19:50Z" uid="64977" user="CLoeser" changeset="863808">
    <nd ref="366107578"/>
    <nd ref="366107579"/>
    <nd ref="366107580"/>
    <nd ref="366107581"/>
    <nd ref="366107582"/>
    <nd ref="366107578"/>
    <tag k="addr:city" v="Greifswald"/>
    <tag k="addr:housenumber" v="2a"/>
    <tag k="addr:street" v="Lange Straße"/>
    <tag k="building" v="yes"/>
    <tag k="created_by" v="Potlatch 0.10f"/>
    <tag k="name" v="Amtsgericht Greifswald und Finanzgericht Mecklenburg-Vorpommern"/>
  </way>
  <way id="32553454" version="6" timestamp="2009-03-27T09:20:20Z" uid="64977" user="CLoeser" changeset="863808">
    <nd ref="366107578"/>
    <nd ref="366107579"/>
    <nd ref="366107580"/>
    <nd ref="366107581"/>
    <nd ref="366107582"/>
    <nd ref="366107578"/>
    <tag k="addr:housenumber" v="2a"/>
    <tag k="addr:postcode" v="17489"/>
    <tag k="addr:street" v="Lange Straße"/>
    <tag k="building" v="yes"/>
    <tag k="created_by" v="Potlatch 0.10f"/>
    <tag k="name" v="Amtsgericht Greifswald und Finanzgericht Mecklenburg-Vorpommern"/>
  </way>
  <way id="32553456" version="2" timestamp="2009-04-07T19:06:46Z" uid="6975" user="ulfl" changeset="298062">
    <nd ref="366107624"/>
    <nd ref="366107625"/>
    <nd ref="366107626"/>
    <nd ref="366107627"/>
    <nd ref="366107628"/>
    <nd ref="366107624"/>
    <tag k="landuse" v="residential"/>
    <tag k="name" v="PACL colony old"/>
  </way>
  <way id="32553459" version="3" timestamp="2009-04-07T19:06:40Z" uid="6975" user="ulfl" changeset="298062">
    <nd ref="366107637"/>
    <nd ref="366107638"/>
    <nd ref="366107639"/>
    <nd ref="366107640"/>
    <nd ref="366107637"/>
    <tag k="landuse" v="residential"/>
    <tag k="name" v="PACL colony new"/>
  </way>
  <way id="32553521" version="3" timestamp="2009-04-07T19:07:04Z" uid="6975" user="ulfl" changeset="298062">
    <nd ref="366110368"/>
    <nd ref="366110370"/>
    <tag k="landuse" v="commercial"/>
    <tag k="name" v="adda market"/>
  </way>
  <way id="32553594" version="2" timestamp="2010-07-08T04:37:40Z" uid="74617" user="JohnSmith" changeset="5163091">
    <nd ref="366113727"/>
    <nd ref="366113737"/>
    <nd ref="366113744"/>
    <nd ref="366113754"/>
    <nd ref="366113762"/>
    <nd ref="366113766"/>
    <nd ref="275595822"/>
    <tag k="highway" v="residential"/>
    <tag k="maxspeed" v="50"/>
    <tag k="maxspeed:source" v="default residential speed limit in Australia"/>
  </way>
  <way id="32553595" version="2" timestamp="2010-07-08T04:35:36Z" uid="74617" user="JohnSmith" changeset="5163091">
    <nd ref="366113768"/>
    <nd ref="366113773"/>
    <nd ref="366113777"/>
    <nd ref="366113781"/>
    <nd ref="366113785"/>
    <tag k="highway" v="residential"/>
    <tag k="maxspeed" v="50"/>
    <tag k="maxspeed:source" v="default residential speed limit in Australia"/>
  </way>
  <way id="32553598" version="8" timestamp="2010-05-12T14:18:29Z" uid="4467" user="Rosscoe" changeset="4677560">
    <nd ref="61726736"/>
    <nd ref="366113809"/>
    <nd ref="539982514"/>
    <nd ref="366113810"/>
    <nd ref="366116212"/>
    <nd ref="366116210"/>
    <nd ref="366113811"/>
    <nd ref="366116227"/>
    <nd ref="366113812"/>
    <nd ref="366116254"/>
    <nd ref="366113813"/>
    <nd ref="366116245"/>
    <nd ref="366113816"/>
    <nd ref="366113824"/>
    <nd ref="366117858"/>
    <nd ref="366116437"/>
    <nd ref="366116283"/>
    <nd ref="366117984"/>
    <nd ref="366118027"/>
    <nd ref="366113828"/>
    <nd ref="366113832"/>
    <nd ref="366113836"/>
    <nd ref="366113841"/>
    <nd ref="366113845"/>
    <nd ref="730924128"/>
    <tag k="highway" v="residential"/>
    <tag k="name" v="Benjamin Lee Drive"/>
  </way>
  <way id="32553598" version="9" timestamp="2010-07-08T04:36:29Z" uid="74617" user="JohnSmith" changeset="5163091">
    <nd ref="61726736"/>
    <nd ref="366113809"/>
    <nd ref="539982514"/>
    <nd ref="366113810"/>
    <nd ref="366116212"/>
    <nd ref="366116210"/>
    <nd ref="366113811"/>
    <nd ref="366116227"/>
    <nd ref="366113812"/>
    <nd ref="366116254"/>
    <nd ref="366113813"/>
    <nd ref="366116245"/>
    <nd ref="366113816"/>
    <nd ref="366113824"/>
    <nd ref="366117858"/>
    <nd ref="366116437"/>
    <nd ref="366116283"/>
    <nd ref="366117984"/>
    <nd ref="366118027"/>
    <nd ref="366113828"/>
    <nd ref="366113832"/>
    <nd ref="366113836"/>
    <nd ref="366113841"/>
    <nd ref="366113845"/>
    <nd ref="730924128"/>
    <tag k="highway" v="residential"/>
    <tag k="maxspeed" v="50"/>
    <tag k="maxspeed:source" v="default residential speed limit in Australia"/>
    <tag k="name" v="Benjamin Lee Drive"/>
  </way>
  <way id="32553599" version="3" timestamp="2010-07-08T04:38:03Z" uid="74617" user="JohnSmith" changeset="5163091">
    <nd ref="366113863"/>
    <nd ref="366113933"/>
    <nd ref="366113937"/>
    <nd ref="366113941"/>
    <nd ref="366113945"/>
    <nd ref="366113947"/>
    <nd ref="366113951"/>
    <nd ref="366113956"/>
    <nd ref="366113960"/>
    <nd ref="366113964"/>
    <nd ref="366113968"/>
    <nd ref="366113971"/>
    <nd ref="366113976"/>
    <nd ref="366113980"/>
    <nd ref="366113984"/>
    <nd ref="366113988"/>
    <nd ref="366113992"/>
    <nd ref="366113997"/>
    <nd ref="366114012"/>
    <nd ref="366114013"/>
    <nd ref="366114015"/>
    <nd ref="366113900"/>
    <tag k="highway" v="residential"/>
    <tag k="maxspeed" v="50"/>
    <tag k="maxspeed:source" v="default residential speed limit in Australia"/>
    <tag k="name" v="Hastings Drive"/>
  </way>
  <way id="32553601" version="2" timestamp="2010-07-08T04:38:46Z" uid="74617" user="JohnSmith" changeset="5163091">
    <nd ref="366113956"/>
    <nd ref="366114016"/>
    <nd ref="366114017"/>
    <nd ref="366113947"/>
    <tag k="highway" v="residential"/>
    <tag k="maxspeed" v="50"/>
    <tag k="maxspeed:source" v="default residential speed limit in Australia"/>
  </way>
  <way id="32553602" version="3" timestamp="2010-07-08T04:37:46Z" uid="74617" user="JohnSmith" changeset="5163091">
    <nd ref="366114020"/>
    <nd ref="366114023"/>
    <nd ref="366114026"/>
    <nd ref="366113960"/>
    <tag k="highway" v="residential"/>
    <tag k="maxspeed" v="50"/>
    <tag k="maxspeed:source" v="default residential speed limit in Australia"/>
    <tag k="name" v="Burrowell Close"/>
  </way>
  <way id="32553604" version="3" timestamp="2010-07-08T04:36:06Z" uid="74617" user="JohnSmith" changeset="5163091">
    <nd ref="366113976"/>
    <nd ref="366114034"/>
    <nd ref="366114036"/>
    <nd ref="366114037"/>
    <nd ref="366113941"/>
    <tag k="highway" v="residential"/>
    <tag k="maxspeed" v="50"/>
    <tag k="maxspeed:source" v="default residential speed limit in Australia"/>
    <tag k="name" v="Purcell Street"/>
  </way>
  <way id="32553605" version="3" timestamp="2010-07-08T04:37:40Z" uid="74617" user="JohnSmith" changeset="5163091">
    <nd ref="366113937"/>
    <nd ref="366114038"/>
    <nd ref="366114039"/>
    <nd ref="366114041"/>
    <nd ref="366114043"/>
    <nd ref="366114045"/>
    <nd ref="366114048"/>
    <tag k="highway" v="residential"/>
    <tag k="maxspeed" v="50"/>
    <tag k="maxspeed:source" v="default residential speed limit in Australia"/>
    <tag k="name" v="Kirkton Close"/>
  </way>
  <way id="32553606" version="2" timestamp="2010-07-08T04:36:37Z" uid="74617" user="JohnSmith" changeset="5163091">
    <nd ref="366114056"/>
    <nd ref="366114039"/>
    <tag k="highway" v="residential"/>
    <tag k="maxspeed" v="50"/>
    <tag k="maxspeed:source" v="default residential speed limit in Australia"/>
  </way>
  <way id="32553607" version="3" timestamp="2010-07-08T04:38:09Z" uid="74617" user="JohnSmith" changeset="5163091">
    <nd ref="366114064"/>
    <nd ref="366114068"/>
    <nd ref="366114034"/>
    <tag k="highway" v="residential"/>
    <tag k="maxspeed" v="50"/>
    <tag k="maxspeed:source" v="default residential speed limit in Australia"/>
    <tag k="name" v="Croker Place"/>
  </way>
  <way id="32553608" version="3" timestamp="2010-07-08T04:38:38Z" uid="74617" user="JohnSmith" changeset="5163091">
    <nd ref="366113980"/>
    <nd ref="366114074"/>
    <nd ref="366114080"/>
    <tag k="highway" v="residential"/>
    <tag k="maxspeed" v="50"/>
    <tag k="maxspeed:source" v="default residential speed limit in Australia"/>
    <tag k="name" v="Kendall Place"/>
  </way>
  <way id="32553610" version="3" timestamp="2010-07-08T04:35:36Z" uid="74617" user="JohnSmith" changeset="5163091">
    <nd ref="366113984"/>
    <nd ref="366114098"/>
    <nd ref="366114102"/>
    <tag k="highway" v="residential"/>
    <tag k="maxspeed" v="50"/>
    <tag k="maxspeed:source" v="default residential speed limit in Australia"/>
    <tag k="name" v="Belmore Place"/>
  </way>
  <way id="32553611" version="3" timestamp="2010-07-08T04:37:06Z" uid="74617" user="JohnSmith" changeset="5163091">
    <nd ref="366113988"/>
    <nd ref="366114110"/>
    <nd ref="366114116"/>
    <nd ref="366114120"/>
    <nd ref="366114124"/>
    <nd ref="366114128"/>
    <nd ref="366114135"/>
    <nd ref="366114110"/>
    <tag k="highway" v="residential"/>
    <tag k="maxspeed" v="50"/>
    <tag k="maxspeed:source" v="default residential speed limit in Australia"/>
    <tag k="name" v="Chisholm Court"/>
  </way>
  <way id="32553677" version="3" timestamp="2010-07-08T04:35:48Z" uid="74617" user="JohnSmith" changeset="5163091">
    <nd ref="366116196"/>
    <nd ref="366116197"/>
    <nd ref="366116199"/>
    <nd ref="366116201"/>
    <nd ref="366116203"/>
    <nd ref="366116204"/>
    <tag k="highway" v="residential"/>
    <tag k="maxspeed" v="50"/>
    <tag k="maxspeed:source" v="default residential speed limit in Australia"/>
    <tag k="name" v="Jessica Close"/>
  </way>
  <way id="32553678" version="3" timestamp="2010-07-08T04:38:26Z" uid="74617" user="JohnSmith" changeset="5163091">
    <nd ref="366116210"/>
    <nd ref="366116197"/>
    <tag k="highway" v="residential"/>
    <tag k="maxspeed" v="50"/>
    <tag k="maxspeed:source" v="default residential speed limit in Australia"/>
    <tag k="name" v="Desmond Street"/>
  </way>
  <way id="32553680" version="3" timestamp="2010-07-08T04:38:23Z" uid="74617" user="JohnSmith" changeset="5163091">
    <nd ref="366116216"/>
    <nd ref="366116212"/>
    <tag k="highway" v="residential"/>
    <tag k="maxspeed" v="50"/>
    <tag k="maxspeed:source" v="default residential speed limit in Australia"/>
    <tag k="name" v="Cintra Court"/>
  </way>
  <way id="32553681" version="5" timestamp="2010-07-08T04:36:16Z" uid="74617" user="JohnSmith" changeset="5163091">
    <nd ref="366116233"/>
    <nd ref="366116227"/>
    <tag k="highway" v="residential"/>
    <tag k="maxspeed" v="50"/>
    <tag k="maxspeed:source" v="default residential speed limit in Australia"/>
    <tag k="name" v="Gale Court"/>
  </way>
  <way id="32553684" version="3" timestamp="2010-07-08T04:37:20Z" uid="74617" user="JohnSmith" changeset="5163091">
    <nd ref="366116248"/>
    <nd ref="366116245"/>
    <tag k="highway" v="residential"/>
    <tag k="maxspeed" v="50"/>
    <tag k="maxspeed:source" v="default residential speed limit in Australia"/>
    <tag k="name" v="Harper Court"/>
  </way>
  <way id="32553696" version="3" timestamp="2010-07-08T04:35:38Z" uid="74617" user="JohnSmith" changeset="5163091">
    <nd ref="366116254"/>
    <nd ref="366116255"/>
    <nd ref="366116257"/>
    <nd ref="366116261"/>
    <nd ref="366116264"/>
    <nd ref="366116268"/>
    <tag k="highway" v="residential"/>
    <tag k="maxspeed" v="50"/>
    <tag k="maxspeed:source" v="default residential speed limit in Australia"/>
    <tag k="name" v="Oxley Close"/>
  </way>
  <way id="32553698" version="2" timestamp="2010-07-08T04:36:08Z" uid="74617" user="JohnSmith" changeset="5163091">
    <nd ref="366116276"/>
    <nd ref="366116255"/>
    <tag k="highway" v="residential"/>
    <tag k="maxspeed" v="50"/>
    <tag k="maxspeed:source" v="default residential speed limit in Australia"/>
  </way>
  <way id="32553702" version="3" timestamp="2010-07-08T04:38:39Z" uid="74617" user="JohnSmith" changeset="5163091">
    <nd ref="366116283"/>
    <nd ref="366116287"/>
    <nd ref="366116292"/>
    <nd ref="366116296"/>
    <nd ref="366116300"/>
    <nd ref="366116302"/>
    <nd ref="366116305"/>
    <nd ref="366116310"/>
    <nd ref="366116313"/>
    <nd ref="366116315"/>
    <nd ref="366116316"/>
    <nd ref="366116317"/>
    <tag k="highway" v="residential"/>
    <tag k="maxspeed" v="50"/>
    <tag k="maxspeed:source" v="default residential speed limit in Australia"/>
    <tag k="name" v="Chifley Drive"/>
  </way>
  <way id="32553702" version="4" timestamp="2011-06-15T04:30:03Z" uid="30201" user="rrankin" changeset="8443823">
    <nd ref="366116283"/>
    <nd ref="366116287"/>
    <nd ref="1325968896"/>
    <nd ref="366116292"/>
    <nd ref="366116296"/>
    <nd ref="366116300"/>
    <nd ref="366116302"/>
    <nd ref="366116305"/>
    <nd ref="366116310"/>
    <nd ref="366116313"/>
    <nd ref="366116315"/>
    <nd ref="366116316"/>
    <nd ref="366116317"/>
    <tag k="highway" v="residential"/>
    <tag k="maxspeed" v="50"/>
    <tag k="maxspeed:source" v="default residential speed limit in Australia"/>
    <tag k="name" v="Chifley Drive"/>
  </way>
  <way id="32553703" version="3" timestamp="2010-07-08T04:36:32Z" uid="74617" user="JohnSmith" changeset="5163091">
    <nd ref="366116318"/>
    <nd ref="366116317"/>
    <nd ref="366116319"/>
    <nd ref="366116320"/>
    <nd ref="366116323"/>
    <nd ref="366116327"/>
    <nd ref="366116330"/>
    <nd ref="366116334"/>
    <nd ref="366116337"/>
    <nd ref="366116344"/>
    <nd ref="366116347"/>
    <nd ref="366116349"/>
    <nd ref="366116355"/>
    <nd ref="366116359"/>
    <nd ref="366116292"/>
    <tag k="highway" v="residential"/>
    <tag k="maxspeed" v="50"/>
    <tag k="maxspeed:source" v="default residential speed limit in Australia"/>
    <tag k="name" v="Bilmark Drive"/>
  </way>
  <way id="32553704" version="3" timestamp="2010-07-08T04:37:02Z" uid="74617" user="JohnSmith" changeset="5163091">
    <nd ref="366116367"/>
    <nd ref="366116372"/>
    <nd ref="366116375"/>
    <nd ref="366116315"/>
    <tag k="highway" v="residential"/>
    <tag k="maxspeed" v="50"/>
    <tag k="maxspeed:source" v="default residential speed limit in Australia"/>
    <tag k="name" v="McKenzie Place"/>
  </way>
  <way id="32553705" version="3" timestamp="2010-07-08T04:38:32Z" uid="74617" user="JohnSmith" changeset="5163091">
    <nd ref="366116382"/>
    <nd ref="366116386"/>
    <nd ref="366116390"/>
    <nd ref="366116355"/>
    <tag k="highway" v="residential"/>
    <tag k="maxspeed" v="50"/>
    <tag k="maxspeed:source" v="default residential speed limit in Australia"/>
    <tag k="name" v="Kingsford Smith Close"/>
  </way>
  <way id="32553706" version="3" timestamp="2010-07-08T04:37:35Z" uid="74617" user="JohnSmith" changeset="5163091">
    <nd ref="366116398"/>
    <nd ref="366116347"/>
    <tag k="highway" v="residential"/>
    <tag k="maxspeed" v="50"/>
    <tag k="maxspeed:source" v="default residential speed limit in Australia"/>
    <tag k="name" v="Bettina Close"/>
  </way>
  <way id="32553707" version="3" timestamp="2010-07-08T04:35:31Z" uid="74617" user="JohnSmith" changeset="5163091">
    <nd ref="366116404"/>
    <nd ref="366116302"/>
    <tag k="highway" v="residential"/>
    <tag k="maxspeed" v="50"/>
    <tag k="maxspeed:source" v="default residential speed limit in Australia"/>
    <tag k="name" v="Curtin Close"/>
  </way>
  <way id="32553708" version="3" timestamp="2010-07-08T04:35:53Z" uid="74617" user="JohnSmith" changeset="5163091">
    <nd ref="366116412"/>
    <nd ref="366116330"/>
    <tag k="highway" v="residential"/>
    <tag k="maxspeed" v="50"/>
    <tag k="maxspeed:source" v="default residential speed limit in Australia"/>
    <tag k="name" v="Luskin Close"/>
  </way>
  <way id="32553710" version="3" timestamp="2010-07-08T04:36:25Z" uid="74617" user="JohnSmith" changeset="5163091">
    <nd ref="366116424"/>
    <nd ref="366116428"/>
    <nd ref="366116432"/>
    <nd ref="366116434"/>
    <nd ref="366116437"/>
    <tag k="highway" v="residential"/>
    <tag k="maxspeed" v="50"/>
    <tag k="maxspeed:source" v="default residential speed limit in Australia"/>
    <tag k="name" v="Mosman Place"/>
  </way>
  <way id="32553737" version="1" timestamp="2009-03-27T09:42:14Z" uid="64977" user="CLoeser" changeset="863808">
    <nd ref="278199924"/>
    <nd ref="344637067"/>
    <nd ref="344637054"/>
    <nd ref="358556356"/>
    <nd ref="344637323"/>
    <nd ref="278199926"/>
    <tag k="created_by" v="Potlatch 0.10f"/>
    <tag k="highway" v="living_street"/>
    <tag k="name" v="Zum Rykwäldchen"/>
  </way>
  <way id="32553752" version="2" timestamp="2010-07-08T04:36:29Z" uid="74617" user="JohnSmith" changeset="5163091">
    <nd ref="366117858"/>
    <nd ref="366117866"/>
    <nd ref="366117872"/>
    <nd ref="366117878"/>
    <nd ref="366117887"/>
    <nd ref="366117894"/>
    <nd ref="366117903"/>
    <nd ref="366117911"/>
    <nd ref="366117919"/>
    <nd ref="366117926"/>
    <nd ref="366117932"/>
    <tag k="highway" v="residential"/>
    <tag k="maxspeed" v="50"/>
    <tag k="maxspeed:source" v="default residential speed limit in Australia"/>
  </way>
  <way id="32553760" version="2" timestamp="2010-07-08T04:35:58Z" uid="74617" user="JohnSmith" changeset="5163091">
    <nd ref="366117954"/>
    <nd ref="366117960"/>
    <nd ref="366117965"/>
    <nd ref="366117972"/>
    <nd ref="366117977"/>
    <nd ref="366117984"/>
    <tag k="highway" v="residential"/>
    <tag k="maxspeed" v="50"/>
    <tag k="maxspeed:source" v="default residential speed limit in Australia"/>
  </way>
  <way id="32553761" version="2" timestamp="2010-07-08T04:37:29Z" uid="74617" user="JohnSmith" changeset="5163091">
    <nd ref="366118006"/>
    <nd ref="366118011"/>
    <nd ref="366118016"/>
    <nd ref="366118021"/>
    <nd ref="366118027"/>
    <tag k="highway" v="residential"/>
    <tag k="maxspeed" v="50"/>
    <tag k="maxspeed:source" v="default residential speed limit in Australia"/>
  </way>
  <way id="32553762" version="2" timestamp="2010-07-08T04:36:28Z" uid="74617" user="JohnSmith" changeset="5163091">
    <nd ref="366118038"/>
    <nd ref="366118044"/>
    <nd ref="366117932"/>
    <nd ref="366118050"/>
    <nd ref="366118057"/>
    <tag k="highway" v="residential"/>
    <tag k="maxspeed" v="50"/>
    <tag k="maxspeed:source" v="default residential speed limit in Australia"/>
  </way>
  <way id="32553764" version="2" timestamp="2010-07-08T04:38:28Z" uid="74617" user="JohnSmith" changeset="5163091">
    <nd ref="366117878"/>
    <nd ref="366118074"/>
    <nd ref="366118082"/>
    <nd ref="366118090"/>
    <nd ref="366118057"/>
    <nd ref="366118098"/>
    <nd ref="366117972"/>
    <tag k="highway" v="residential"/>
    <tag k="maxspeed" v="50"/>
    <tag k="maxspeed:source" v="default residential speed limit in Australia"/>
  </way>
  <way id="32553765" version="2" timestamp="2010-07-08T04:36:19Z" uid="74617" user="JohnSmith" changeset="5163091">
    <nd ref="366118123"/>
    <nd ref="366118128"/>
    <nd ref="366118074"/>
    <tag k="highway" v="residential"/>
    <tag k="maxspeed" v="50"/>
    <tag k="maxspeed:source" v="default residential speed limit in Australia"/>
  </way>
  <way id="32553767" version="3" timestamp="2010-07-08T04:36:56Z" uid="74617" user="JohnSmith" changeset="5163091">
    <nd ref="366118140"/>
    <nd ref="366118154"/>
    <nd ref="366118159"/>
    <nd ref="366118166"/>
    <nd ref="366118173"/>
    <nd ref="366118181"/>
    <nd ref="366118190"/>
    <nd ref="366118201"/>
    <nd ref="366118208"/>
    <nd ref="366118216"/>
    <nd ref="366118228"/>
    <nd ref="366118236"/>
    <nd ref="366118239"/>
    <nd ref="366118240"/>
    <nd ref="366118241"/>
    <nd ref="366118242"/>
    <nd ref="366118249"/>
    <nd ref="366118258"/>
    <tag k="highway" v="residential"/>
    <tag k="maxspeed" v="50"/>
    <tag k="maxspeed:source" v="default residential speed limit in Australia"/>
    <tag k="name" v="Bowman Drive"/>
  </way>
  <way id="32553768" version="3" timestamp="2010-07-08T04:37:23Z" uid="74617" user="JohnSmith" changeset="5163091">
    <nd ref="366118270"/>
    <nd ref="366118277"/>
    <nd ref="366118283"/>
    <nd ref="366118287"/>
    <nd ref="366118289"/>
    <tag k="highway" v="residential"/>
    <tag k="maxspeed" v="50"/>
    <tag k="maxspeed:source" v="default residential speed limit in Australia"/>
    <tag k="name" v="Auberge Close"/>
  </way>
  <way id="32553769" version="3" timestamp="2010-07-08T04:38:54Z" uid="74617" user="JohnSmith" changeset="5163091">
    <nd ref="366118298"/>
    <nd ref="366118311"/>
    <nd ref="366118289"/>
    <nd ref="366118258"/>
    <nd ref="366118317"/>
    <nd ref="366118325"/>
    <nd ref="366118334"/>
    <nd ref="366118342"/>
    <nd ref="366118354"/>
    <tag k="highway" v="residential"/>
    <tag k="maxspeed" v="50"/>
    <tag k="maxspeed:source" v="default residential speed limit in Australia"/>
    <tag k="name" v="Elwin Road"/>
  </way>
  <way id="32553771" version="3" timestamp="2010-07-08T04:35:49Z" uid="74617" user="JohnSmith" changeset="5163091">
    <nd ref="366118390"/>
    <nd ref="366118190"/>
    <tag k="highway" v="residential"/>
    <tag k="maxspeed" v="50"/>
    <tag k="maxspeed:source" v="default residential speed limit in Australia"/>
    <tag k="name" v="Katherine Close"/>
  </way>
  <way id="32553773" version="3" timestamp="2010-07-08T04:37:45Z" uid="74617" user="JohnSmith" changeset="5163091">
    <nd ref="366118420"/>
    <nd ref="366118431"/>
    <nd ref="366118236"/>
    <tag k="highway" v="residential"/>
    <tag k="maxspeed" v="50"/>
    <tag k="maxspeed:source" v="default residential speed limit in Australia"/>
    <tag k="name" v="Watson Place"/>
  </way>
  <way id="32553774" version="3" timestamp="2010-07-08T04:36:45Z" uid="74617" user="JohnSmith" changeset="5163091">
    <nd ref="366118441"/>
    <nd ref="366118443"/>
    <nd ref="366118166"/>
    <tag k="highway" v="residential"/>
    <tag k="maxspeed" v="50"/>
    <tag k="maxspeed:source" v="default residential speed limit in Australia"/>
    <tag k="name" v="Deas Place"/>
  </way>
  <way id="32553808" version="3" timestamp="2010-07-08T04:35:33Z" uid="74617" user="JohnSmith" changeset="5163091">
    <nd ref="275595825"/>
    <nd ref="366119787"/>
    <nd ref="366119792"/>
    <nd ref="366119798"/>
    <nd ref="366119804"/>
    <nd ref="366119811"/>
    <nd ref="366119818"/>
    <nd ref="366119822"/>
    <nd ref="366119827"/>
    <nd ref="366119832"/>
    <nd ref="366119837"/>
    <nd ref="366119841"/>
    <nd ref="366119846"/>
    <nd ref="366119851"/>
    <nd ref="366119855"/>
    <nd ref="366119861"/>
    <nd ref="366119866"/>
    <nd ref="366119871"/>
    <nd ref="366119877"/>
    <nd ref="366119884"/>
    <nd ref="366119889"/>
    <nd ref="366119892"/>
    <nd ref="366119897"/>
    <nd ref="366119902"/>
    <nd ref="366119906"/>
    <nd ref="366119792"/>
    <tag k="highway" v="residential"/>
    <tag k="maxspeed" v="50"/>
    <tag k="maxspeed:source" v="default residential speed limit in Australia"/>
    <tag k="name" v="Cederwood Crescent"/>
  </way>
  <way id="32553809" version="3" timestamp="2010-07-08T04:37:03Z" uid="74617" user="JohnSmith" changeset="5163091">
    <nd ref="366119918"/>
    <nd ref="366119923"/>
    <nd ref="366119928"/>
    <nd ref="366119933"/>
    <nd ref="366119804"/>
    <tag k="highway" v="residential"/>
    <tag k="maxspeed" v="50"/>
    <tag k="maxspeed:source" v="default residential speed limit in Australia"/>
    <tag k="name" v="Wedgewood Close"/>
  </way>
  <way id="32553810" version="3" timestamp="2010-07-08T04:36:03Z" uid="74617" user="JohnSmith" changeset="5163091">
    <nd ref="366119822"/>
    <nd ref="366119943"/>
    <tag k="highway" v="residential"/>
    <tag k="maxspeed" v="50"/>
    <tag k="maxspeed:source" v="default residential speed limit in Australia"/>
    <tag k="name" v="Barrington Place"/>
  </way>
  <way id="32553812" version="2" timestamp="2010-07-08T04:37:59Z" uid="74617" user="JohnSmith" changeset="5163091">
    <nd ref="366119952"/>
    <nd ref="366119943"/>
    <nd ref="366119957"/>
    <tag k="highway" v="residential"/>
    <tag k="maxspeed" v="50"/>
    <tag k="maxspeed:source" v="default residential speed limit in Australia"/>
  </way>
  <way id="32553813" version="3" timestamp="2010-07-08T04:35:56Z" uid="74617" user="JohnSmith" changeset="5163091">
    <nd ref="366119851"/>
    <nd ref="366119967"/>
    <nd ref="366119971"/>
    <tag k="highway" v="residential"/>
    <tag k="maxspeed" v="50"/>
    <tag k="maxspeed:source" v="default residential speed limit in Australia"/>
    <tag k="name" v="Sherwood Place"/>
  </way>
  <way id="32553817" version="3" timestamp="2010-07-08T04:38:26Z" uid="74617" user="JohnSmith" changeset="5163091">
    <nd ref="366119884"/>
    <nd ref="366119980"/>
    <nd ref="366119984"/>
    <nd ref="366119988"/>
    <tag k="highway" v="residential"/>
    <tag k="maxspeed" v="50"/>
    <tag k="maxspeed:source" v="default residential speed limit in Australia"/>
    <tag k="name" v="Glendon Place"/>
  </way>
  <way id="32553820" version="3" timestamp="2010-07-08T04:35:48Z" uid="74617" user="JohnSmith" changeset="5163091">
    <nd ref="366119866"/>
    <nd ref="366119994"/>
    <nd ref="366119997"/>
    <tag k="highway" v="residential"/>
    <tag k="maxspeed" v="50"/>
    <tag k="maxspeed:source" v="default residential speed limit in Australia"/>
    <tag k="name" v="Orchard Place"/>
  </way>
  <way id="32553824" version="3" timestamp="2010-07-08T04:36:15Z" uid="74617" user="JohnSmith" changeset="5163091">
    <nd ref="366120004"/>
    <nd ref="366120007"/>
    <nd ref="366120012"/>
    <nd ref="366120017"/>
    <nd ref="366119841"/>
    <tag k="highway" v="residential"/>
    <tag k="maxspeed" v="50"/>
    <tag k="maxspeed:source" v="default residential speed limit in Australia"/>
    <tag k="name" v="Nottingham Close"/>
  </way>
  <way id="32553826" version="2" timestamp="2010-07-08T04:36:50Z" uid="74617" user="JohnSmith" changeset="5163091">
    <nd ref="366120034"/>
    <nd ref="366119892"/>
    <tag k="highway" v="residential"/>
    <tag k="maxspeed" v="50"/>
    <tag k="maxspeed:source" v="default residential speed limit in Australia"/>
  </way>
  <way id="32553827" version="2" timestamp="2010-07-08T04:38:22Z" uid="74617" user="JohnSmith" changeset="5163091">
    <nd ref="366120048"/>
    <nd ref="366120052"/>
    <nd ref="366120055"/>
    <nd ref="366120059"/>
    <nd ref="366120062"/>
    <nd ref="366120064"/>
    <nd ref="366120065"/>
    <nd ref="366120066"/>
    <tag k="highway" v="residential"/>
    <tag k="maxspeed" v="50"/>
    <tag k="maxspeed:source" v="default residential speed limit in Australia"/>
  </way>
  <way id="32553829" version="2" timestamp="2010-07-08T04:36:40Z" uid="74617" user="JohnSmith" changeset="5163091">
    <nd ref="366120070"/>
    <nd ref="366120064"/>
    <tag k="highway" v="residential"/>
    <tag k="maxspeed" v="50"/>
    <tag k="maxspeed:source" v="default residential speed limit in Australia"/>
  </way>
  <way id="32553831" version="3" timestamp="2010-07-08T04:37:20Z" uid="74617" user="JohnSmith" changeset="5163091">
    <nd ref="366120074"/>
    <nd ref="366120077"/>
    <nd ref="366120080"/>
    <nd ref="366120083"/>
    <nd ref="366120087"/>
    <nd ref="366120092"/>
    <nd ref="366120096"/>
    <nd ref="366120100"/>
    <nd ref="366120104"/>
    <nd ref="366120108"/>
    <nd ref="366120112"/>
    <tag k="highway" v="residential"/>
    <tag k="maxspeed" v="50"/>
    <tag k="maxspeed:source" v="default residential speed limit in Australia"/>
    <tag k="name" v="Joseph Sheen Drive"/>
  </way>
  <way id="32553832" version="3" timestamp="2010-07-08T04:37:42Z" uid="74617" user="JohnSmith" changeset="5163091">
    <nd ref="366120119"/>
    <nd ref="366120108"/>
    <tag k="highway" v="residential"/>
    <tag k="maxspeed" v="50"/>
    <tag k="maxspeed:source" v="default residential speed limit in Australia"/>
    <tag k="name" v="Joseph Sheen Drive"/>
  </way>
  <way id="32553833" version="2" timestamp="2010-07-08T04:35:40Z" uid="74617" user="JohnSmith" changeset="5163091">
    <nd ref="366120122"/>
    <nd ref="366120096"/>
    <tag k="highway" v="residential"/>
    <tag k="maxspeed" v="50"/>
    <tag k="maxspeed:source" v="default residential speed limit in Australia"/>
  </way>
  <way id="32553834" version="3" timestamp="2010-07-08T04:38:13Z" uid="74617" user="JohnSmith" changeset="5163091">
    <nd ref="366120123"/>
    <nd ref="366120124"/>
    <nd ref="366120125"/>
    <nd ref="366120128"/>
    <nd ref="366120132"/>
    <tag k="highway" v="residential"/>
    <tag k="maxspeed" v="50"/>
    <tag k="maxspeed:source" v="default residential speed limit in Australia"/>
    <tag k="name" v="Gordon Reeve Close"/>
  </way>
  <way id="32553835" version="3" timestamp="2010-07-08T04:36:09Z" uid="74617" user="JohnSmith" changeset="5163091">
    <nd ref="366120125"/>
    <nd ref="366120087"/>
    <tag k="highway" v="residential"/>
    <tag k="maxspeed" v="50"/>
    <tag k="maxspeed:source" v="default residential speed limit in Australia"/>
    <tag k="name" v="Gordon Reeve Close"/>
  </way>
  <way id="32553905" version="3" timestamp="2010-07-08T04:39:03Z" uid="74617" user="JohnSmith" changeset="5163091">
    <nd ref="366123465"/>
    <nd ref="366123480"/>
    <nd ref="366123484"/>
    <nd ref="366123491"/>
    <nd ref="366123497"/>
    <nd ref="366123503"/>
    <nd ref="366123507"/>
    <nd ref="366123512"/>
    <nd ref="366123513"/>
    <nd ref="366123516"/>
    <nd ref="366123517"/>
    <nd ref="366123518"/>
    <nd ref="366123521"/>
    <nd ref="366123532"/>
    <nd ref="366123534"/>
    <nd ref="366123556"/>
    <nd ref="366123617"/>
    <nd ref="366123637"/>
    <nd ref="366123648"/>
    <nd ref="366123653"/>
    <nd ref="366123683"/>
    <tag k="highway" v="residential"/>
    <tag k="maxspeed" v="50"/>
    <tag k="maxspeed:source" v="default residential speed limit in Australia"/>
    <tag k="name" v="Leisure Way"/>
  </way>
  <way id="32553988" version="3" timestamp="2010-06-01T08:06:24Z" uid="4467" user="Rosscoe" changeset="4872520">
    <nd ref="366125662"/>
    <nd ref="366125667"/>
    <nd ref="366125671"/>
    <nd ref="366125677"/>
    <nd ref="366125687"/>
    <nd ref="366125698"/>
    <nd ref="366125710"/>
    <tag k="highway" v="residential"/>
    <tag k="name" v="Hollydeen Avenue"/>
  </way>
  <way id="32553988" version="4" timestamp="2010-07-08T04:36:40Z" uid="74617" user="JohnSmith" changeset="5163091">
    <nd ref="366125662"/>
    <nd ref="366125667"/>
    <nd ref="366125671"/>
    <nd ref="366125677"/>
    <nd ref="366125687"/>
    <nd ref="366125698"/>
    <nd ref="366125710"/>
    <tag k="highway" v="residential"/>
    <tag k="maxspeed" v="50"/>
    <tag k="maxspeed:source" v="default residential speed limit in Australia"/>
    <tag k="name" v="Hollydeen Avenue"/>
  </way>
  <way id="32553989" version="3" timestamp="2010-07-08T04:38:12Z" uid="74617" user="JohnSmith" changeset="5163091">
    <nd ref="366125722"/>
    <nd ref="366125726"/>
    <nd ref="366125727"/>
    <nd ref="366125749"/>
    <nd ref="366125771"/>
    <nd ref="366125781"/>
    <nd ref="366125788"/>
    <nd ref="366125797"/>
    <nd ref="366125803"/>
    <nd ref="366125810"/>
    <nd ref="366125698"/>
    <tag k="highway" v="residential"/>
    <tag k="maxspeed" v="50"/>
    <tag k="maxspeed:source" v="default residential speed limit in Australia"/>
    <tag k="name" v="Eskdale Drive"/>
  </way>
  <way id="32553990" version="3" timestamp="2010-07-08T04:37:19Z" uid="74617" user="JohnSmith" changeset="5163091">
    <nd ref="366125840"/>
    <nd ref="366125677"/>
    <tag k="highway" v="residential"/>
    <tag k="maxspeed" v="50"/>
    <tag k="maxspeed:source" v="default residential speed limit in Australia"/>
    <tag k="name" v="Myra Court"/>
  </way>
</osm>
