<?xml version='1.0' encoding='UTF-8'?>
<osm version="0.6" generator="libosmium/2.20.0">
  <way id="32623278" version="2" timestamp="2009-10-03T13:56:44Z" uid="179968" user="Ich_hasse_doitsche_OSM-Korinthenkacker" changeset="2724114">
    <nd ref="271916671"/>
    <nd ref="60641214"/>
    <nd ref="60641216"/>
    <tag k="highway" v="tertiary"/>
    <tag k="name" v="Sunstedter Straße"/>
  </way>
  <way id="32623279" version="4" timestamp="2009-10-03T13:56:44Z" uid="179968" user="Ich_hasse_doitsche_OSM-Korinthenkacker" changeset="2724114">
    <nd ref="60641216"/>
    <nd ref="60641217"/>
    <nd ref="60641218"/>
    <nd ref="60641220"/>
    <nd ref="60641222"/>
    <nd ref="52818105"/>
    <nd ref="359102149"/>
    <nd ref="52818052"/>
    <tag k="highway" v="tertiary"/>
    <tag k="name" v="Sunstedter Straße"/>
    <tag k="ref" v="K 9"/>
  </way>
  <way id="32623345" version="2" timestamp="2009-10-03T13:56:35Z" uid="179968" user="Ich_hasse_doitsche_OSM-Korinthenkacker" changeset="2724114">
    <nd ref="271742393"/>
    <nd ref="307614655"/>
    <nd ref="307614659"/>
    <nd ref="316209115"/>
    <nd ref="38421546"/>
    <nd ref="306171935"/>
    <nd ref="307507716"/>
    <nd ref="305989474"/>
    <tag k="highway" v="residential"/>
    <tag k="name" v="Glentorfer Weg"/>
    <tag k="postal_code" v="38154"/>
  </way>
  <way id="32623709" version="2" timestamp="2009-10-07T19:22:53Z" uid="1066" user="pavel" changeset="2775635">
    <nd ref="366888841"/>
    <nd ref="60263466"/>
    <nd ref="524640274"/>
    <nd ref="60263468"/>
    <tag k="highway" v="unclassified"/>
  </way>
  <way id="32623709" version="3" timestamp="2009-11-25T21:19:35Z" uid="1066" user="pavel" changeset="3216245">
    <nd ref="366888841"/>
    <nd ref="60263466"/>
    <nd ref="571223334"/>
    <nd ref="571223338"/>
    <tag k="highway" v="unclassified"/>
  </way>
  <way id="32623718" version="2" timestamp="2010-05-10T06:25:30Z" uid="4467" user="Rosscoe" changeset="4656177">
    <nd ref="366889179"/>
    <nd ref="728176658"/>
    <tag k="highway" v="residential"/>
    <tag k="name" v="Pearson Street"/>
    <tag k="oneway" v="yes"/>
    <tag k="source" v="nearmap"/>
  </way>
  <way id="32623718" version="3" timestamp="2010-05-18T03:20:00Z" uid="4467" user="Rosscoe" changeset="4735055">
    <nd ref="366889179"/>
    <nd ref="738189987"/>
    <nd ref="738189977"/>
    <nd ref="728176658"/>
    <tag k="highway" v="residential"/>
    <tag k="name" v="Pearson Street"/>
    <tag k="oneway" v="yes"/>
    <tag k="source" v="nearmap"/>
  </way>
  <way id="32623718" version="4" timestamp="2010-07-09T02:56:08Z" uid="74617" user="JohnSmith" changeset="5170739">
    <nd ref="366889179"/>
    <nd ref="738189987"/>
    <nd ref="738189977"/>
    <nd ref="728176658"/>
    <tag k="highway" v="residential"/>
    <tag k="maxspeed" v="50"/>
    <tag k="maxspeed:source" v="default residential speed limit in Australia"/>
    <tag k="name" v="Pearson Street"/>
    <tag k="oneway" v="yes"/>
    <tag k="source" v="nearmap"/>
  </way>
  <way id="32623722" version="5" timestamp="2010-05-10T06:25:30Z" uid="4467" user="Rosscoe" changeset="4656177"/>
  <way id="32623729" version="1" timestamp="2009-03-29T12:51:43Z" uid="6975" user="ulfl" changeset="867035">
    <nd ref="366889407"/>
    <nd ref="366889412"/>
    <nd ref="366889415"/>
    <nd ref="366889417"/>
    <nd ref="366889407"/>
    <tag k="leisure" v="sports_centre"/>
    <tag k="sport" v="tennis"/>
  </way>
  <way id="32623734" version="6" timestamp="2009-06-08T16:14:55Z" uid="9581" user="Lobelt" changeset="1460224">
    <nd ref="27592961"/>
    <nd ref="292852513"/>
    <tag k="bicycle" v="no"/>
    <tag k="created_by" v="Potlatch 0.10f"/>
    <tag k="highway" v="primary"/>
    <tag k="motorroad" v="yes"/>
    <tag k="ref" v="B 2"/>
  </way>
  <way id="32623770" version="3" timestamp="2009-06-08T16:14:51Z" uid="9581" user="Lobelt" changeset="1460224">
    <nd ref="292852513"/>
    <nd ref="366890185"/>
    <nd ref="366890188"/>
    <nd ref="366890189"/>
    <nd ref="366890191"/>
    <tag k="bicycle" v="no"/>
    <tag k="created_by" v="Potlatch 0.10f"/>
    <tag k="highway" v="primary_link"/>
    <tag k="motorroad" v="yes"/>
    <tag k="oneway" v="yes"/>
    <tag k="ref" v="B 2"/>
  </way>
  <way id="32623772" version="2" timestamp="2009-05-12T21:37:31Z" uid="9581" user="Lobelt" changeset="1170055">
    <nd ref="292852513"/>
    <nd ref="21666507"/>
    <nd ref="21666567"/>
    <nd ref="21667034"/>
    <nd ref="394988119"/>
    <nd ref="21666546"/>
    <nd ref="21666961"/>
    <nd ref="394988113"/>
    <nd ref="21666989"/>
    <tag k="created_by" v="Potlatch 0.10f"/>
    <tag k="highway" v="primary"/>
    <tag k="ref" v="B 2"/>
  </way>
  <way id="32623772" version="4" timestamp="2009-06-08T16:14:51Z" uid="9581" user="Lobelt" changeset="1460224">
    <nd ref="292852513"/>
    <nd ref="21666507"/>
    <nd ref="21666567"/>
    <nd ref="21667034"/>
    <nd ref="394988119"/>
    <nd ref="21666546"/>
    <nd ref="21666961"/>
    <nd ref="394988113"/>
    <nd ref="21666989"/>
    <tag k="bicycle" v="no"/>
    <tag k="created_by" v="Potlatch 0.10f"/>
    <tag k="highway" v="primary"/>
    <tag k="motorroad" v="yes"/>
    <tag k="ref" v="B 2"/>
  </way>
  <way id="32623777" version="4" timestamp="2009-06-08T16:14:52Z" uid="9581" user="Lobelt" changeset="1460224">
    <nd ref="366890191"/>
    <nd ref="27592946"/>
    <nd ref="27592948"/>
    <nd ref="27592954"/>
    <nd ref="27592961"/>
    <tag k="bicycle" v="no"/>
    <tag k="created_by" v="Potlatch 0.10f"/>
    <tag k="highway" v="primary_link"/>
    <tag k="motorroad" v="yes"/>
    <tag k="oneway" v="yes"/>
    <tag k="ref" v="B 2"/>
  </way>
  <way id="32623796" version="3" timestamp="2009-06-08T16:14:51Z" uid="9581" user="Lobelt" changeset="1460224">
    <nd ref="249808168"/>
    <nd ref="27592961"/>
    <tag k="bicycle" v="no"/>
    <tag k="created_by" v="Potlatch 0.10f"/>
    <tag k="highway" v="primary"/>
    <tag k="motorroad" v="yes"/>
    <tag k="ref" v="B 281"/>
  </way>
  <way id="32623900" version="2" timestamp="2009-10-03T13:55:27Z" uid="179968" user="Ich_hasse_doitsche_OSM-Korinthenkacker" changeset="2724114">
    <nd ref="359100783"/>
    <nd ref="60636983"/>
    <tag k="highway" v="residential"/>
    <tag k="name" v="Arndtstraße"/>
    <tag k="postal_code" v="38154"/>
  </way>
</osm>
