<?xml version='1.0' encoding='UTF-8'?>
<osm version="0.6" generator="libosmium/2.20.0">
  <way id="32667176" version="3" timestamp="2010-03-28T01:38:18Z" uid="20587" user="balrog-kun" changeset="4250871">
    <nd ref="122852625"/>
    <nd ref="123417573"/>
    <nd ref="123417575"/>
    <nd ref="123371703"/>
    <nd ref="122385905"/>
    <tag k="created_by" v="Potlatch 0.10f"/>
    <tag k="highway" v="primary"/>
    <tag k="name" v="White Oak Avenue"/>
    <tag k="source:highway" v="NavigateLA"/>
    <tag k="tiger:cfcc" v="A41"/>
    <tag k="tiger:county" v="Los Angeles, CA"/>
    <tag k="tiger:name_base" v="White Oak"/>
    <tag k="tiger:name_type" v="Ave"/>
    <tag k="tiger:reviewed" v="no"/>
    <tag k="tiger:separated" v="no"/>
    <tag k="tiger:source" v="tiger_import_dch_v0.6_20070809"/>
    <tag k="tiger:tlid" v="141543884:141543894:141543885"/>
    <tag k="tiger:zip_left" v="91325"/>
    <tag k="tiger:zip_right" v="91325"/>
  </way>
  <way id="32667343" version="2" timestamp="2009-10-03T13:35:19Z" uid="179968" user="Ich_hasse_doitsche_OSM-Korinthenkacker" changeset="2723894">
    <nd ref="258661107"/>
    <nd ref="258981398"/>
    <nd ref="224437720"/>
    <nd ref="258914948"/>
    <tag k="highway" v="secondary"/>
    <tag k="name" v="Schöninger Straße"/>
    <tag k="postal_code" v="38173"/>
    <tag k="ref" v="L 625"/>
  </way>
  <way id="32667351" version="3" timestamp="2010-03-28T01:38:18Z" uid="20587" user="balrog-kun" changeset="4250871">
    <nd ref="367483066"/>
    <nd ref="122720529"/>
    <nd ref="123162608"/>
    <tag k="created_by" v="Potlatch 0.10f"/>
    <tag k="highway" v="residential"/>
    <tag k="name" v="Collins Street"/>
    <tag k="tiger:cfcc" v="A41"/>
    <tag k="tiger:county" v="Los Angeles, CA"/>
    <tag k="tiger:name_base" v="Collins"/>
    <tag k="tiger:name_type" v="St"/>
    <tag k="tiger:reviewed" v="no"/>
    <tag k="tiger:separated" v="no"/>
    <tag k="tiger:source" v="tiger_import_dch_v0.6_20070809"/>
    <tag k="tiger:tlid" v="141555879:141555881:141556041:141555823"/>
    <tag k="tiger:zip_left" v="91316"/>
    <tag k="tiger:zip_right" v="91316"/>
  </way>
  <way id="32667380" version="3" timestamp="2010-03-28T01:38:18Z" uid="20587" user="balrog-kun" changeset="4250871">
    <nd ref="122640297"/>
    <nd ref="367485093"/>
    <tag k="created_by" v="Potlatch 0.10f"/>
    <tag k="highway" v="residential"/>
    <tag k="name" v="Miranda Street"/>
    <tag k="source" v="Yahoo"/>
    <tag k="source:highway" v="NavigateLA"/>
    <tag k="source:name" v="NavigateLA"/>
  </way>
  <way id="32667398" version="3" timestamp="2010-03-28T01:38:19Z" uid="20587" user="balrog-kun" changeset="4250871">
    <nd ref="367485072"/>
    <nd ref="122640291"/>
    <nd ref="122640286"/>
    <tag k="created_by" v="Potlatch 0.10f"/>
    <tag k="highway" v="residential"/>
    <tag k="name" v="Miranda Street"/>
    <tag k="source" v="Yahoo"/>
    <tag k="source:highway" v="NavigateLA"/>
    <tag k="source:name" v="NavigateLA"/>
  </way>
  <way id="32667411" version="2" timestamp="2010-03-28T01:38:19Z" uid="20587" user="balrog-kun" changeset="4250871">
    <nd ref="122851114"/>
    <nd ref="365366738"/>
    <nd ref="122851116"/>
    <nd ref="122851118"/>
    <nd ref="122851121"/>
    <nd ref="122851124"/>
    <nd ref="122720189"/>
    <nd ref="122851127"/>
    <tag k="created_by" v="Potlatch 0.10f"/>
    <tag k="highway" v="residential"/>
    <tag k="name" v="Bullock Street"/>
    <tag k="tiger:cfcc" v="A41"/>
    <tag k="tiger:county" v="Los Angeles, CA"/>
    <tag k="tiger:name_base" v="Bullock"/>
    <tag k="tiger:name_type" v="St"/>
    <tag k="tiger:reviewed" v="no"/>
    <tag k="tiger:separated" v="no"/>
    <tag k="tiger:source" v="tiger_import_dch_v0.6_20070809"/>
    <tag k="tiger:tlid" v="141555531:141555533:141555586:141555587:141555592:141555610:141555614:141555617:141555751:141555755:141555595"/>
    <tag k="tiger:zip_left" v="91316"/>
    <tag k="tiger:zip_right" v="91316"/>
  </way>
  <way id="32667444" version="3" timestamp="2010-03-28T01:38:19Z" uid="20587" user="balrog-kun" changeset="4250871">
    <nd ref="367487123"/>
    <nd ref="367487126"/>
    <nd ref="367487127"/>
    <nd ref="367487128"/>
    <tag k="created_by" v="Potlatch 0.10f"/>
    <tag k="highway" v="secondary_link"/>
    <tag k="name" v="White Oak Avenue"/>
    <tag k="source" v="Yahoo"/>
    <tag k="source:highway" v="NavigateLA"/>
    <tag k="source:name" v="NavigateLA"/>
  </way>
  <way id="32667470" version="2" timestamp="2009-04-15T06:24:52Z" uid="6975" user="ulfl" changeset="553994">
    <nd ref="367488297"/>
    <nd ref="367488302"/>
    <nd ref="367488305"/>
    <nd ref="367488310"/>
    <nd ref="367488313"/>
    <nd ref="367488316"/>
    <nd ref="367488319"/>
    <nd ref="367488323"/>
    <nd ref="367488327"/>
    <nd ref="367488331"/>
    <nd ref="367488334"/>
    <nd ref="367488340"/>
    <nd ref="367488344"/>
    <nd ref="367488348"/>
    <nd ref="367488352"/>
    <nd ref="367488356"/>
    <nd ref="367488360"/>
    <nd ref="367488365"/>
    <nd ref="367488368"/>
    <nd ref="367488372"/>
    <nd ref="367488375"/>
    <nd ref="367488379"/>
    <nd ref="367488381"/>
    <nd ref="367488384"/>
    <nd ref="367488386"/>
    <nd ref="367488389"/>
    <nd ref="367488390"/>
    <tag k="highway" v="tertiary"/>
  </way>
  <way id="32667587" version="3" timestamp="2010-03-28T01:38:19Z" uid="20587" user="balrog-kun" changeset="4250871">
    <nd ref="367491933"/>
    <nd ref="367491935"/>
    <nd ref="367485461"/>
    <nd ref="367491939"/>
    <nd ref="367485072"/>
    <nd ref="367482995"/>
    <nd ref="367491945"/>
    <tag k="created_by" v="Potlatch 0.10f"/>
    <tag k="highway" v="residential"/>
    <tag k="name" v="White Oak Avenue"/>
    <tag k="source" v="Yahoo"/>
    <tag k="source:highway" v="NavigateLA"/>
    <tag k="source:name" v="NavigateLA"/>
  </way>
  <way id="32667619" version="17" timestamp="2010-03-28T01:38:19Z" uid="20587" user="balrog-kun" changeset="4250871">
    <nd ref="367121929"/>
    <nd ref="123414390"/>
    <nd ref="123417589"/>
    <nd ref="123417592"/>
    <nd ref="123417599"/>
    <nd ref="123126102"/>
    <nd ref="123072607"/>
    <nd ref="123292638"/>
    <nd ref="367496090"/>
    <nd ref="123417605"/>
    <nd ref="123417609"/>
    <nd ref="123021782"/>
    <nd ref="368007686"/>
    <nd ref="122872957"/>
    <nd ref="368008801"/>
    <nd ref="123417616"/>
    <nd ref="123417631"/>
    <nd ref="123018756"/>
    <nd ref="368008591"/>
    <nd ref="123045498"/>
    <tag k="created_by" v="Potlatch 0.10f"/>
    <tag k="highway" v="primary"/>
    <tag k="name" v="White Oak Avenue"/>
    <tag k="source" v="Yahoo"/>
    <tag k="tiger:cfcc" v="A41"/>
    <tag k="tiger:county" v="Los Angeles, CA"/>
    <tag k="tiger:name_base" v="White Oak"/>
    <tag k="tiger:name_type" v="Ave"/>
    <tag k="tiger:reviewed" v="no"/>
    <tag k="tiger:separated" v="no"/>
    <tag k="tiger:source" v="tiger_import_dch_v0.6_20070809"/>
    <tag k="tiger:tlid" v="141543884:141543894:141543885"/>
    <tag k="tiger:zip_left" v="91325"/>
    <tag k="tiger:zip_right" v="91325"/>
  </way>
  <way id="32667620" version="3" timestamp="2010-03-28T01:38:19Z" uid="20587" user="balrog-kun" changeset="4250871">
    <nd ref="123417586"/>
    <nd ref="367121929"/>
    <tag k="bridge" v="yes"/>
    <tag k="created_by" v="Potlatch 0.10f"/>
    <tag k="highway" v="primary"/>
    <tag k="name" v="White Oak Avenue"/>
    <tag k="source" v="Yahoo"/>
    <tag k="tiger:cfcc" v="A41"/>
    <tag k="tiger:county" v="Los Angeles, CA"/>
    <tag k="tiger:name_base" v="White Oak"/>
    <tag k="tiger:name_type" v="Ave"/>
    <tag k="tiger:reviewed" v="no"/>
    <tag k="tiger:separated" v="no"/>
    <tag k="tiger:source" v="tiger_import_dch_v0.6_20070809"/>
    <tag k="tiger:tlid" v="141543884:141543894:141543885"/>
    <tag k="tiger:zip_left" v="91325"/>
    <tag k="tiger:zip_right" v="91325"/>
  </way>
  <way id="32667940" version="1" timestamp="2009-03-30T15:52:56Z" uid="66036" user="h4v" changeset="870643">
    <nd ref="304701546"/>
    <nd ref="81312750"/>
    <tag k="created_by" v="Potlatch 0.10f"/>
  </way>
  <way id="32667940" version="2" timestamp="2009-03-30T15:52:59Z" uid="66036" user="h4v" changeset="870643">
    <nd ref="304701546"/>
    <nd ref="81312750"/>
    <tag k="created_by" v="Potlatch 0.10f"/>
    <tag k="highway" v="secondary"/>
    <tag k="name" v="Legionów"/>
    <tag k="oneway" v="yes"/>
    <tag k="ref" v="710"/>
  </way>
  <way id="32667940" version="3" timestamp="2011-05-03T23:19:35Z" uid="66036" user="h4v" changeset="8044754">
    <nd ref="304701546"/>
    <nd ref="81312750"/>
    <tag k="highway" v="primary_link"/>
    <tag k="name" v="Legionów"/>
    <tag k="oneway" v="yes"/>
    <tag k="ref" v="710"/>
  </way>
  <way id="32667945" version="1" timestamp="2009-03-30T15:53:13Z" uid="66036" user="h4v" changeset="870643">
    <nd ref="81248781"/>
    <nd ref="32868969"/>
    <tag k="created_by" v="Potlatch 0.10f"/>
    <tag k="highway" v="secondary"/>
    <tag k="name" v="Legionów"/>
    <tag k="oneway" v="yes"/>
    <tag k="ref" v="710"/>
  </way>
  <way id="32667945" version="2" timestamp="2009-03-30T15:53:23Z" uid="66036" user="h4v" changeset="870643">
    <nd ref="32868969"/>
    <nd ref="81248781"/>
    <tag k="created_by" v="Potlatch 0.10f"/>
    <tag k="highway" v="secondary"/>
    <tag k="name" v="Legionów"/>
    <tag k="oneway" v="yes"/>
    <tag k="ref" v="710"/>
  </way>
  <way id="32667945" version="3" timestamp="2011-05-03T23:19:31Z" uid="66036" user="h4v" changeset="8044754">
    <nd ref="32868969"/>
    <nd ref="81248781"/>
    <tag k="highway" v="primary_link"/>
    <tag k="name" v="Legionów"/>
    <tag k="oneway" v="yes"/>
    <tag k="ref" v="710"/>
  </way>
  <way id="32667952" version="1" timestamp="2009-03-30T15:53:52Z" uid="66036" user="h4v" changeset="870643">
    <nd ref="81233765"/>
    <nd ref="367500621"/>
    <tag k="created_by" v="Potlatch 0.10f"/>
  </way>
  <way id="32667952" version="2" timestamp="2009-03-30T15:53:56Z" uid="66036" user="h4v" changeset="870643">
    <nd ref="81233765"/>
    <nd ref="367500621"/>
    <tag k="created_by" v="Potlatch 0.10f"/>
    <tag k="highway" v="tertiary"/>
    <tag k="name" v="Ogrodowa"/>
  </way>
  <way id="32667952" version="3" timestamp="2009-03-30T15:54:06Z" uid="66036" user="h4v" changeset="870643">
    <nd ref="81233765"/>
    <nd ref="367500621"/>
    <tag k="created_by" v="Potlatch 0.10f"/>
    <tag k="highway" v="tertiary"/>
    <tag k="name" v="Ogrodowa"/>
    <tag k="oneway" v="yes"/>
  </way>
  <way id="32667969" version="1" timestamp="2009-03-30T15:54:30Z" uid="58091" user="Andreas M" changeset="869666">
    <nd ref="367500597"/>
    <nd ref="367500600"/>
    <nd ref="367500603"/>
    <nd ref="367500605"/>
    <nd ref="367500608"/>
    <nd ref="367500613"/>
    <nd ref="367500617"/>
    <nd ref="367500619"/>
    <nd ref="367500623"/>
    <nd ref="367500626"/>
    <nd ref="367500629"/>
    <nd ref="367500651"/>
    <nd ref="367500633"/>
    <nd ref="367500639"/>
    <nd ref="367500597"/>
    <tag k="building" v="yes"/>
  </way>
  <way id="32667971" version="1" timestamp="2009-03-30T15:54:31Z" uid="58091" user="Andreas M" changeset="869666">
    <nd ref="367500644"/>
    <nd ref="367500633"/>
    <nd ref="367500651"/>
    <nd ref="367500656"/>
    <nd ref="367500662"/>
    <nd ref="367500667"/>
    <nd ref="367500673"/>
    <nd ref="367500680"/>
    <nd ref="367500687"/>
    <nd ref="367500694"/>
    <nd ref="367500702"/>
    <nd ref="367500709"/>
    <nd ref="367500644"/>
    <tag k="addr:city" v="Wien"/>
    <tag k="addr:country" v="AT"/>
    <tag k="addr:housenumber" v="3"/>
    <tag k="addr:postcode" v="1020"/>
    <tag k="addr:street" v="Ybbsstraße"/>
    <tag k="building" v="yes"/>
  </way>
  <way id="32667972" version="1" timestamp="2009-03-30T15:54:31Z" uid="58091" user="Andreas M" changeset="869666">
    <nd ref="367500714"/>
    <nd ref="367500644"/>
    <nd ref="367500709"/>
    <nd ref="367500717"/>
    <nd ref="367500720"/>
    <nd ref="367500687"/>
    <nd ref="367500680"/>
    <nd ref="367500724"/>
    <nd ref="367500727"/>
    <nd ref="367500730"/>
    <nd ref="367500733"/>
    <nd ref="367500735"/>
    <nd ref="367500714"/>
    <tag k="addr:city" v="Wien"/>
    <tag k="addr:country" v="AT"/>
    <tag k="addr:housenumber" v="5"/>
    <tag k="addr:postcode" v="1020"/>
    <tag k="addr:street" v="Ybbsstraße"/>
    <tag k="building" v="yes"/>
  </way>
  <way id="32667974" version="1" timestamp="2009-03-30T15:54:32Z" uid="58091" user="Andreas M" changeset="869666">
    <nd ref="367500739"/>
    <nd ref="367500714"/>
    <nd ref="367500735"/>
    <nd ref="367500743"/>
    <nd ref="367500748"/>
    <nd ref="367500727"/>
    <nd ref="367500724"/>
    <nd ref="367500753"/>
    <nd ref="367500757"/>
    <nd ref="367500760"/>
    <nd ref="367500764"/>
    <nd ref="367500767"/>
    <nd ref="367500739"/>
    <tag k="addr:city" v="Wien"/>
    <tag k="addr:country" v="AT"/>
    <tag k="addr:housenumber" v="7"/>
    <tag k="addr:postcode" v="1020"/>
    <tag k="addr:street" v="Ybbsstraße"/>
    <tag k="building" v="yes"/>
  </way>
  <way id="32667975" version="1" timestamp="2009-03-30T15:54:33Z" uid="58091" user="Andreas M" changeset="869666">
    <nd ref="367500770"/>
    <nd ref="367500739"/>
    <nd ref="367500767"/>
    <nd ref="367500773"/>
    <nd ref="367500777"/>
    <nd ref="367500757"/>
    <nd ref="367500753"/>
    <nd ref="367500779"/>
    <nd ref="367500873"/>
    <nd ref="367500782"/>
    <nd ref="367500785"/>
    <nd ref="367500788"/>
    <nd ref="367500792"/>
    <nd ref="367500770"/>
    <tag k="addr:city" v="Wien"/>
    <tag k="addr:country" v="AT"/>
    <tag k="addr:housenumber" v="9"/>
    <tag k="addr:postcode" v="1020"/>
    <tag k="addr:street" v="Ybbsstraße"/>
    <tag k="building" v="yes"/>
  </way>
  <way id="32667978" version="1" timestamp="2009-03-30T15:54:33Z" uid="58091" user="Andreas M" changeset="869666">
    <nd ref="367500795"/>
    <nd ref="367500770"/>
    <nd ref="367500792"/>
    <nd ref="367500799"/>
    <nd ref="367500803"/>
    <nd ref="367500806"/>
    <nd ref="367500809"/>
    <nd ref="367500813"/>
    <nd ref="367500817"/>
    <nd ref="367500823"/>
    <nd ref="367500826"/>
    <nd ref="367500831"/>
    <nd ref="367500836"/>
    <nd ref="367500795"/>
    <tag k="building" v="yes"/>
  </way>
  <way id="32667979" version="1" timestamp="2009-03-30T15:54:34Z" uid="58091" user="Andreas M" changeset="869666">
    <nd ref="367500841"/>
    <nd ref="367500836"/>
    <nd ref="367500831"/>
    <nd ref="367500846"/>
    <nd ref="367500851"/>
    <nd ref="367500857"/>
    <nd ref="367500864"/>
    <nd ref="367500869"/>
    <nd ref="367500873"/>
    <nd ref="367500779"/>
    <nd ref="367500878"/>
    <nd ref="367500882"/>
    <nd ref="367500887"/>
    <nd ref="367500891"/>
    <nd ref="367500976"/>
    <nd ref="367500896"/>
    <nd ref="367500899"/>
    <nd ref="367500902"/>
    <nd ref="367500906"/>
    <nd ref="367500912"/>
    <nd ref="367500916"/>
    <nd ref="367500919"/>
    <nd ref="367500841"/>
    <tag k="addr:city" v="Wien"/>
    <tag k="addr:country" v="AT"/>
    <tag k="addr:housenumber" v="4"/>
    <tag k="addr:postcode" v="1020"/>
    <tag k="addr:street" v="Wolfgang-Schmälzl-Gasse"/>
    <tag k="building" v="yes"/>
  </way>
  <way id="32667980" version="1" timestamp="2009-03-30T15:54:35Z" uid="58091" user="Andreas M" changeset="869666">
    <nd ref="367500923"/>
    <nd ref="367500841"/>
    <nd ref="367500919"/>
    <nd ref="367500927"/>
    <nd ref="367500931"/>
    <nd ref="367500936"/>
    <nd ref="367500940"/>
    <nd ref="367500942"/>
    <nd ref="367500945"/>
    <nd ref="367500948"/>
    <nd ref="367500952"/>
    <nd ref="367500955"/>
    <nd ref="367500959"/>
    <nd ref="367500923"/>
    <tag k="building" v="yes"/>
  </way>
  <way id="32667981" version="1" timestamp="2009-03-30T15:54:35Z" uid="58091" user="Andreas M" changeset="869666">
    <nd ref="367500964"/>
    <nd ref="367500959"/>
    <nd ref="367500955"/>
    <nd ref="367500967"/>
    <nd ref="367500969"/>
    <nd ref="367500972"/>
    <nd ref="367500896"/>
    <nd ref="367500976"/>
    <nd ref="367500980"/>
    <nd ref="367500983"/>
    <nd ref="367500988"/>
    <nd ref="367500991"/>
    <nd ref="367500994"/>
    <nd ref="367501002"/>
    <nd ref="367500964"/>
    <tag k="addr:city" v="Wien"/>
    <tag k="addr:country" v="AT"/>
    <tag k="addr:housenumber" v="10"/>
    <tag k="addr:postcode" v="1020"/>
    <tag k="addr:street" v="Lassallestraße"/>
    <tag k="building" v="yes"/>
  </way>
  <way id="32667982" version="1" timestamp="2009-03-30T15:54:36Z" uid="58091" user="Andreas M" changeset="869666">
    <nd ref="367500998"/>
    <nd ref="367500964"/>
    <nd ref="367501002"/>
    <nd ref="367501008"/>
    <nd ref="367501012"/>
    <nd ref="367500983"/>
    <nd ref="367500980"/>
    <nd ref="367501014"/>
    <nd ref="367501017"/>
    <nd ref="367501020"/>
    <nd ref="367501022"/>
    <nd ref="367501024"/>
    <nd ref="367500998"/>
    <tag k="addr:city" v="Wien"/>
    <tag k="addr:country" v="AT"/>
    <tag k="addr:housenumber" v="8"/>
    <tag k="addr:postcode" v="1020"/>
    <tag k="addr:street" v="Lassallestraße"/>
    <tag k="building" v="yes"/>
  </way>
  <way id="32667983" version="1" timestamp="2009-03-30T15:54:37Z" uid="58091" user="Andreas M" changeset="869666">
    <nd ref="367501026"/>
    <nd ref="367500998"/>
    <nd ref="367501024"/>
    <nd ref="367501027"/>
    <nd ref="367501029"/>
    <nd ref="367501017"/>
    <nd ref="367501014"/>
    <nd ref="367501031"/>
    <nd ref="367501033"/>
    <nd ref="367501035"/>
    <nd ref="367501036"/>
    <nd ref="367501037"/>
    <nd ref="367501026"/>
    <tag k="addr:city" v="Wien"/>
    <tag k="addr:country" v="AT"/>
    <tag k="addr:housenumber" v="6"/>
    <tag k="addr:postcode" v="1020"/>
    <tag k="addr:street" v="Lassallestraße"/>
    <tag k="building" v="yes"/>
  </way>
  <way id="32667985" version="1" timestamp="2009-03-30T15:54:37Z" uid="58091" user="Andreas M" changeset="869666">
    <nd ref="367501038"/>
    <nd ref="367501026"/>
    <nd ref="367501037"/>
    <nd ref="367501041"/>
    <nd ref="367501043"/>
    <nd ref="367501033"/>
    <nd ref="367501031"/>
    <nd ref="367501045"/>
    <nd ref="367501047"/>
    <nd ref="367501049"/>
    <nd ref="367501052"/>
    <nd ref="367501054"/>
    <nd ref="367501038"/>
    <tag k="addr:city" v="Wien"/>
    <tag k="addr:country" v="AT"/>
    <tag k="addr:housenumber" v="4"/>
    <tag k="addr:postcode" v="1020"/>
    <tag k="addr:street" v="Lassallestraße"/>
    <tag k="building" v="yes"/>
  </way>
  <way id="32667987" version="1" timestamp="2009-03-30T15:54:38Z" uid="58091" user="Andreas M" changeset="869666">
    <nd ref="367501058"/>
    <nd ref="367501038"/>
    <nd ref="367501054"/>
    <nd ref="367501047"/>
    <nd ref="367501045"/>
    <nd ref="367501061"/>
    <nd ref="367500600"/>
    <nd ref="367500597"/>
    <nd ref="367501064"/>
    <nd ref="367501068"/>
    <nd ref="367501072"/>
    <nd ref="367501077"/>
    <nd ref="367501058"/>
    <tag k="building" v="yes"/>
  </way>
  <way id="32667999" version="4" timestamp="2010-08-04T17:39:08Z" uid="9581" user="Lobelt" changeset="5401263">
    <nd ref="367501329"/>
    <nd ref="367501333"/>
    <nd ref="367501335"/>
    <nd ref="367501336"/>
    <nd ref="367501337"/>
    <nd ref="367501339"/>
    <nd ref="367501340"/>
    <nd ref="367501341"/>
    <nd ref="367501342"/>
    <nd ref="367501344"/>
    <nd ref="367501345"/>
    <nd ref="367501346"/>
    <tag k="cables" v="6"/>
    <tag k="frequency" v="50"/>
    <tag k="operator" v="enviaM"/>
    <tag k="power" v="line"/>
    <tag k="voltage" v="110000"/>
    <tag k="wires" v="single"/>
  </way>
</osm>
