<?xml version='1.0' encoding='UTF-8'?>
<osm version="0.6" generator="libosmium/2.20.0">
  <way id="32691259" version="4" timestamp="2010-06-01T14:07:59Z" uid="4467" user="Rosscoe" changeset="4874856">
    <nd ref="83329113"/>
    <nd ref="83329114"/>
    <nd ref="83329115"/>
    <nd ref="692940854"/>
    <nd ref="692940855"/>
    <nd ref="692940856"/>
    <nd ref="692940857"/>
    <nd ref="692940863"/>
    <nd ref="692940864"/>
    <nd ref="692940865"/>
    <nd ref="692940866"/>
    <nd ref="692940867"/>
    <nd ref="692940868"/>
    <nd ref="83329117"/>
    <tag k="highway" v="secondary"/>
    <tag k="name" v="Harris River Road"/>
  </way>
  <way id="32691981" version="2" timestamp="2010-07-09T06:37:46Z" uid="74617" user="JohnSmith" changeset="5171134">
    <nd ref="361372055"/>
    <nd ref="367887551"/>
    <tag k="highway" v="residential"/>
    <tag k="maxspeed" v="50"/>
    <tag k="maxspeed:source" v="default residential speed limit in Australia"/>
    <tag k="name" v="Tweren Avenue"/>
  </way>
  <way id="32691983" version="3" timestamp="2010-07-09T06:41:04Z" uid="74617" user="JohnSmith" changeset="5171134">
    <nd ref="367887560"/>
    <nd ref="367887692"/>
    <nd ref="367887581"/>
    <tag k="highway" v="residential"/>
    <tag k="maxspeed" v="50"/>
    <tag k="maxspeed:source" v="default residential speed limit in Australia"/>
    <tag k="name" v="Cash Street"/>
  </way>
  <way id="32691994" version="2" timestamp="2010-07-09T06:36:39Z" uid="74617" user="JohnSmith" changeset="5171134">
    <nd ref="253000540"/>
    <nd ref="367887692"/>
    <nd ref="367887693"/>
    <tag k="highway" v="residential"/>
    <tag k="maxspeed" v="50"/>
    <tag k="maxspeed:source" v="default residential speed limit in Australia"/>
    <tag k="name" v="Fraser Street"/>
  </way>
  <way id="32691999" version="2" timestamp="2010-07-09T06:39:02Z" uid="74617" user="JohnSmith" changeset="5171134">
    <nd ref="367887698"/>
    <nd ref="367887713"/>
    <tag k="highway" v="residential"/>
    <tag k="maxspeed" v="50"/>
    <tag k="maxspeed:source" v="default residential speed limit in Australia"/>
    <tag k="name" v="Laurence Street"/>
  </way>
</osm>
