<?xml version='1.0' encoding='UTF-8'?>
<osm version="0.6" generator="libosmium/2.20.0">
  <way id="32763124" version="4" timestamp="2009-11-05T04:05:06Z" uid="36809" user="pfoten_weg_!_" changeset="3037787">
    <nd ref="369000371"/>
    <nd ref="369000374"/>
    <nd ref="369000375"/>
    <nd ref="369000378"/>
    <nd ref="369000380"/>
    <nd ref="369000382"/>
    <tag k="highway" v="residential"/>
    <tag k="name" v="Goethestraße"/>
    <tag k="oneway" v="yes"/>
    <tag k="surface" v="paved"/>
  </way>
  <way id="32763125" version="3" timestamp="2009-11-05T04:05:09Z" uid="36809" user="pfoten_weg_!_" changeset="3037787">
    <nd ref="369000382"/>
    <nd ref="369000367"/>
    <tag k="highway" v="residential"/>
    <tag k="name" v="Goethestraße"/>
    <tag k="surface" v="paved"/>
  </way>
  <way id="32763181" version="2" timestamp="2010-03-28T01:40:21Z" uid="20587" user="balrog-kun" changeset="4250871">
    <nd ref="122910128"/>
    <nd ref="369001523"/>
    <nd ref="122913324"/>
    <tag k="created_by" v="Potlatch 0.10f"/>
    <tag k="highway" v="residential"/>
    <tag k="name" v="Sari Avenue"/>
    <tag k="tiger:cfcc" v="A41"/>
    <tag k="tiger:county" v="Los Angeles, CA"/>
    <tag k="tiger:name_base" v="Sari"/>
    <tag k="tiger:name_type" v="Ave"/>
    <tag k="tiger:reviewed" v="no"/>
    <tag k="tiger:separated" v="no"/>
    <tag k="tiger:source" v="tiger_import_dch_v0.6_20070809"/>
    <tag k="tiger:tlid" v="141544537:141544543"/>
    <tag k="tiger:zip_left" v="91343"/>
    <tag k="tiger:zip_right" v="91343"/>
  </way>
  <way id="32763189" version="1" timestamp="2009-04-02T18:24:05Z" uid="64269" user="Triffnix" changeset="82378">
    <nd ref="300316466"/>
    <nd ref="369001675"/>
    <nd ref="305152924"/>
    <tag k="highway" v="track"/>
    <tag k="surface" v="ground"/>
    <tag k="tracktype" v="grade5"/>
  </way>
  <way id="32763210" version="2" timestamp="2010-04-03T04:13:23Z" uid="20587" user="balrog-kun" changeset="4309442">
    <nd ref="369001979"/>
    <nd ref="369001981"/>
    <nd ref="369001977"/>
    <nd ref="369001983"/>
    <nd ref="369001985"/>
    <tag k="created_by" v="Merkaartor 0.12"/>
    <tag k="highway" v="secondary"/>
    <tag k="name" v="West McDowell Road"/>
    <tag k="oneway" v="yes"/>
  </way>
  <way id="32763215" version="2" timestamp="2010-04-03T04:13:24Z" uid="20587" user="balrog-kun" changeset="4309442">
    <nd ref="369002022"/>
    <nd ref="369001979"/>
    <tag k="bridge" v="yes"/>
    <tag k="created_by" v="Merkaartor 0.12"/>
    <tag k="highway" v="secondary"/>
    <tag k="layer" v="1"/>
    <tag k="name" v="West McDowell Road"/>
    <tag k="oneway" v="yes"/>
  </way>
  <way id="32763216" version="2" timestamp="2010-04-03T04:13:24Z" uid="20587" user="balrog-kun" changeset="4309442">
    <nd ref="369001985"/>
    <nd ref="369001995"/>
    <nd ref="369001974"/>
    <nd ref="369002018"/>
    <tag k="created_by" v="Merkaartor 0.12"/>
    <tag k="highway" v="secondary"/>
    <tag k="name" v="West McDowell Road"/>
    <tag k="oneway" v="yes"/>
  </way>
  <way id="32763217" version="2" timestamp="2010-04-03T04:13:24Z" uid="20587" user="balrog-kun" changeset="4309442">
    <nd ref="369002018"/>
    <nd ref="369002020"/>
    <tag k="bridge" v="yes"/>
    <tag k="created_by" v="Merkaartor 0.12"/>
    <tag k="highway" v="secondary"/>
    <tag k="layer" v="1"/>
    <tag k="name" v="West McDowell Road"/>
    <tag k="oneway" v="yes"/>
  </way>
  <way id="32763218" version="2" timestamp="2010-04-03T04:13:24Z" uid="20587" user="balrog-kun" changeset="4309442">
    <nd ref="42004593"/>
    <nd ref="369002031"/>
    <nd ref="369001992"/>
    <nd ref="369001988"/>
    <nd ref="369002022"/>
    <tag k="created_by" v="Merkaartor 0.12"/>
    <tag k="highway" v="secondary"/>
    <tag k="name" v="West McDowell Road"/>
    <tag k="oneway" v="yes"/>
  </way>
  <way id="32763219" version="2" timestamp="2010-04-03T04:13:24Z" uid="20587" user="balrog-kun" changeset="4309442">
    <nd ref="369002020"/>
    <nd ref="369001975"/>
    <nd ref="369001994"/>
    <nd ref="369002034"/>
    <nd ref="42004593"/>
    <tag k="created_by" v="Merkaartor 0.12"/>
    <tag k="highway" v="secondary"/>
    <tag k="name" v="West McDowell Road"/>
    <tag k="oneway" v="yes"/>
  </way>
  <way id="32763221" version="2" timestamp="2010-04-03T04:13:24Z" uid="20587" user="balrog-kun" changeset="4309442">
    <nd ref="368354818"/>
    <nd ref="369002039"/>
    <nd ref="369002040"/>
    <nd ref="369002042"/>
    <nd ref="369002044"/>
    <nd ref="369002050"/>
    <tag k="created_by" v="Merkaartor 0.12"/>
    <tag k="highway" v="unclassified"/>
    <tag k="name" v="North 24th Avenue"/>
  </way>
  <way id="32763223" version="2" timestamp="2010-04-03T04:13:24Z" uid="20587" user="balrog-kun" changeset="4309442">
    <nd ref="369002056"/>
    <nd ref="369002057"/>
    <nd ref="369002062"/>
    <nd ref="369002074"/>
    <nd ref="369002079"/>
    <nd ref="369002085"/>
    <nd ref="369002095"/>
    <nd ref="369002050"/>
    <tag k="created_by" v="Merkaartor 0.12"/>
    <tag k="highway" v="unclassified"/>
    <tag k="name" v="West Belleview Street"/>
  </way>
  <way id="32763224" version="2" timestamp="2010-04-03T04:13:24Z" uid="20587" user="balrog-kun" changeset="4309442">
    <nd ref="369002118"/>
    <nd ref="369002056"/>
    <nd ref="369002129"/>
    <nd ref="369002138"/>
    <nd ref="369002146"/>
    <nd ref="369002154"/>
    <tag k="created_by" v="Merkaartor 0.12"/>
    <tag k="highway" v="unclassified"/>
    <tag k="name" v="North 25th Avenue"/>
  </way>
  <way id="32763225" version="2" timestamp="2010-04-03T04:13:24Z" uid="20587" user="balrog-kun" changeset="4309442">
    <nd ref="369001985"/>
    <nd ref="369002118"/>
    <nd ref="369002182"/>
    <nd ref="369001897"/>
    <tag k="created_by" v="Merkaartor 0.12"/>
    <tag k="highway" v="secondary"/>
    <tag k="name" v="West McDowell Road"/>
  </way>
  <way id="32763244" version="3" timestamp="2010-03-28T01:40:21Z" uid="20587" user="balrog-kun" changeset="4250871">
    <nd ref="122910150"/>
    <nd ref="369002649"/>
    <nd ref="123756556"/>
    <tag k="created_by" v="Potlatch 0.10f"/>
    <tag k="highway" v="residential"/>
    <tag k="name" v="McLennan Avenue"/>
    <tag k="tiger:cfcc" v="A41"/>
    <tag k="tiger:county" v="Los Angeles, CA"/>
    <tag k="tiger:name_base" v="McLennan"/>
    <tag k="tiger:name_type" v="Ave"/>
    <tag k="tiger:reviewed" v="no"/>
    <tag k="tiger:separated" v="no"/>
    <tag k="tiger:source" v="tiger_import_dch_v0.6_20070809"/>
    <tag k="tiger:tlid" v="141779146:142668394"/>
    <tag k="tiger:zip_left" v="91343"/>
    <tag k="tiger:zip_right" v="91343"/>
  </way>
  <way id="32763298" version="6" timestamp="2010-03-28T01:40:21Z" uid="20587" user="balrog-kun" changeset="4250871">
    <nd ref="122674415"/>
    <nd ref="652303728"/>
    <nd ref="369003463"/>
    <nd ref="122674411"/>
    <nd ref="369003776"/>
    <nd ref="369003777"/>
    <nd ref="369003778"/>
    <nd ref="122674408"/>
    <tag k="highway" v="residential"/>
    <tag k="name" v="Rubio Avenue"/>
    <tag k="tiger:cfcc" v="A41"/>
    <tag k="tiger:county" v="Los Angeles, CA"/>
    <tag k="tiger:name_base" v="Rubio"/>
    <tag k="tiger:name_type" v="Ave"/>
    <tag k="tiger:reviewed" v="no"/>
    <tag k="tiger:separated" v="no"/>
    <tag k="tiger:source" v="tiger_import_dch_v0.6_20070809"/>
    <tag k="tiger:tlid" v="141544621:141544882"/>
    <tag k="tiger:zip_left" v="91343"/>
    <tag k="tiger:zip_right" v="91343"/>
  </way>
  <way id="32763371" version="4" timestamp="2010-03-28T01:40:21Z" uid="20587" user="balrog-kun" changeset="4250871">
    <nd ref="123405229"/>
    <nd ref="369005096"/>
    <nd ref="369004698"/>
    <nd ref="369004699"/>
    <nd ref="369004642"/>
    <tag k="created_by" v="Potlatch 0.10f"/>
    <tag k="highway" v="residential"/>
    <tag k="name" v="Hayvenhurst Place"/>
  </way>
  <way id="32763981" version="3" timestamp="2010-11-26T02:43:50Z" uid="20587" user="balrog-kun" changeset="6459132">
    <nd ref="347283686"/>
    <nd ref="347283687"/>
    <tag k="highway" v="primary"/>
    <tag k="name" v="Avenida de Kennedy"/>
  </way>
  <way id="32763986" version="2" timestamp="2010-11-26T02:43:58Z" uid="20587" user="balrog-kun" changeset="6459132">
    <nd ref="347281939"/>
    <nd ref="347283292"/>
    <nd ref="347283700"/>
    <nd ref="347281940"/>
    <tag k="highway" v="secondary"/>
  </way>
</osm>
