<?xml version='1.0' encoding='UTF-8'?>
<osm version="0.6" generator="libosmium/2.20.0">
  <way id="32858302" version="2" timestamp="2010-11-01T20:05:57Z" uid="9581" user="Lobelt" changeset="6260985">
    <nd ref="33121919"/>
    <nd ref="33121920"/>
    <nd ref="33121921"/>
    <nd ref="33121922"/>
    <nd ref="33121321"/>
    <tag k="highway" v="residential"/>
    <tag k="name" v="Weitersdorfer StraÃŸe"/>
  </way>
  <way id="32858733" version="1" timestamp="2009-04-05T19:34:36Z" uid="36809" user="pfoten_weg_!_" changeset="246170">
    <nd ref="370137663"/>
    <nd ref="370137655"/>
    <nd ref="370137656"/>
    <nd ref="370137657"/>
    <nd ref="370137658"/>
    <nd ref="370137659"/>
    <nd ref="370137662"/>
    <nd ref="370137663"/>
    <tag k="created_by" v="RambaZamba"/>
    <tag k="name" v="Meilinger Weicher"/>
    <tag k="natural" v="water"/>
    <tag k="source" v="survey"/>
  </way>
  <way id="32858733" version="2" timestamp="2009-04-05T20:40:37Z" uid="36809" user="pfoten_weg_!_" changeset="246170"/>
  <way id="32858734" version="1" timestamp="2009-04-05T19:34:36Z" uid="36809" user="pfoten_weg_!_" changeset="246170">
    <nd ref="370137663"/>
    <nd ref="370137664"/>
    <nd ref="370137665"/>
    <nd ref="370137666"/>
    <nd ref="370137667"/>
    <nd ref="370137668"/>
    <nd ref="370137669"/>
    <nd ref="370137670"/>
    <nd ref="370137671"/>
    <nd ref="370137673"/>
    <nd ref="370137674"/>
    <nd ref="370137679"/>
    <nd ref="370137680"/>
    <nd ref="370137681"/>
    <nd ref="370137684"/>
    <nd ref="370137689"/>
    <nd ref="370137696"/>
    <nd ref="370137701"/>
    <nd ref="370137705"/>
    <nd ref="370137706"/>
    <nd ref="370137707"/>
    <nd ref="370137708"/>
    <nd ref="370137709"/>
    <nd ref="370137710"/>
    <nd ref="370137711"/>
    <tag k="created_by" v="RambaZamba"/>
    <tag k="name" v="Meilinger Bach"/>
    <tag k="source" v="survey"/>
    <tag k="waterway" v="stream"/>
  </way>
  <way id="32858734" version="2" timestamp="2009-04-05T19:36:20Z" uid="36809" user="pfoten_weg_!_" changeset="246170">
    <nd ref="370137663"/>
    <nd ref="370137664"/>
    <nd ref="370137665"/>
    <nd ref="370137666"/>
    <nd ref="370137667"/>
    <nd ref="370137668"/>
    <nd ref="370137669"/>
    <nd ref="370137670"/>
    <nd ref="370137671"/>
    <nd ref="370137673"/>
    <nd ref="370137674"/>
    <nd ref="370137679"/>
    <nd ref="370137680"/>
    <nd ref="370137681"/>
    <nd ref="370137684"/>
    <nd ref="370137689"/>
    <nd ref="370137696"/>
    <nd ref="370137701"/>
    <nd ref="370137705"/>
    <tag k="created_by" v="RambaZamba"/>
    <tag k="name" v="Meilinger Bach"/>
    <tag k="source" v="survey"/>
    <tag k="waterway" v="stream"/>
  </way>
  <way id="32858734" version="3" timestamp="2009-07-27T21:21:56Z" uid="36809" user="pfoten_weg_!_" changeset="1960036">
    <nd ref="370137663"/>
    <nd ref="370137664"/>
    <nd ref="370137665"/>
    <nd ref="370137666"/>
    <nd ref="370137667"/>
    <nd ref="370137668"/>
    <nd ref="370137669"/>
    <nd ref="370137670"/>
    <nd ref="370137671"/>
    <nd ref="370137673"/>
    <nd ref="370137674"/>
    <nd ref="370137679"/>
    <nd ref="370137680"/>
    <nd ref="370137681"/>
    <nd ref="370137684"/>
    <nd ref="370137689"/>
    <nd ref="370137696"/>
    <nd ref="370137701"/>
    <nd ref="370137705"/>
    <tag k="discovered_by" v="RambaZamba"/>
    <tag k="name" v="Meilinger Bach"/>
    <tag k="source" v="survey"/>
    <tag k="waterway" v="stream"/>
  </way>
  <way id="32858734" version="5" timestamp="2009-08-31T17:47:12Z" uid="36809" user="pfoten_weg_!_" changeset="2328905">
    <nd ref="370137663"/>
    <nd ref="370137664"/>
    <nd ref="370137665"/>
    <nd ref="370137666"/>
    <nd ref="370137667"/>
    <nd ref="370137668"/>
    <nd ref="370137669"/>
    <nd ref="370137670"/>
    <nd ref="370137671"/>
    <nd ref="370137673"/>
    <nd ref="370137674"/>
    <nd ref="370137679"/>
    <nd ref="370137680"/>
    <nd ref="370137681"/>
    <nd ref="370137684"/>
    <nd ref="370137689"/>
    <nd ref="370137696"/>
    <nd ref="370137701"/>
    <nd ref="370137705"/>
    <tag k="name" v="Meilinger Bach"/>
    <tag k="source" v="survey"/>
    <tag k="waterway" v="stream"/>
  </way>
  <way id="32858734" version="6" timestamp="2009-10-02T19:25:42Z" uid="86259" user="hasse_osm_korinthenkacker" changeset="2716617">
    <nd ref="370137663"/>
    <nd ref="370137664"/>
    <nd ref="370137665"/>
    <nd ref="370137666"/>
    <nd ref="370137667"/>
    <nd ref="370137668"/>
    <nd ref="370137669"/>
    <nd ref="370137670"/>
    <nd ref="370137671"/>
    <nd ref="370137673"/>
    <nd ref="370137674"/>
    <nd ref="370137679"/>
    <nd ref="370137680"/>
    <nd ref="370137681"/>
    <nd ref="370137684"/>
    <nd ref="370137689"/>
    <nd ref="370137696"/>
    <nd ref="370137701"/>
    <nd ref="370137705"/>
    <tag k="name" v="Meilinger Bach"/>
    <tag k="waterway" v="stream"/>
  </way>
  <way id="32858805" version="1" timestamp="2009-04-05T19:36:18Z" uid="36809" user="pfoten_weg_!_" changeset="246170">
    <nd ref="370137705"/>
    <nd ref="370137706"/>
    <tag k="created_by" v="RambaZamba"/>
    <tag k="layer" v="-1"/>
    <tag k="name" v="Meilinger Bach"/>
    <tag k="source" v="survey"/>
    <tag k="waterway" v="stream"/>
  </way>
  <way id="32858805" version="2" timestamp="2009-08-24T23:15:57Z" uid="36809" user="pfoten_weg_!_" changeset="2251012">
    <nd ref="370137705"/>
    <nd ref="370137706"/>
    <tag k="layer" v="-1"/>
    <tag k="name" v="Meilinger Bach"/>
    <tag k="source" v="survey"/>
    <tag k="waterway" v="stream"/>
  </way>
  <way id="32858805" version="3" timestamp="2009-10-02T19:25:45Z" uid="86259" user="hasse_osm_korinthenkacker" changeset="2716617">
    <nd ref="370137705"/>
    <nd ref="370137706"/>
    <tag k="layer" v="-1"/>
    <tag k="name" v="Meilinger Bach"/>
    <tag k="waterway" v="stream"/>
  </way>
  <way id="32858807" version="1" timestamp="2009-04-05T19:36:18Z" uid="36809" user="pfoten_weg_!_" changeset="246170">
    <nd ref="370137706"/>
    <nd ref="370137707"/>
    <tag k="created_by" v="RambaZamba"/>
    <tag k="name" v="Meilinger Bach"/>
    <tag k="source" v="survey"/>
    <tag k="waterway" v="stream"/>
  </way>
  <way id="32858807" version="2" timestamp="2009-08-24T23:15:30Z" uid="36809" user="pfoten_weg_!_" changeset="2251012">
    <nd ref="370137706"/>
    <nd ref="370137707"/>
    <tag k="name" v="Meilinger Bach"/>
    <tag k="source" v="survey"/>
    <tag k="waterway" v="stream"/>
  </way>
  <way id="32858807" version="3" timestamp="2009-10-02T19:25:46Z" uid="86259" user="hasse_osm_korinthenkacker" changeset="2716617">
    <nd ref="370137706"/>
    <nd ref="370137707"/>
    <tag k="name" v="Meilinger Bach"/>
    <tag k="waterway" v="stream"/>
  </way>
  <way id="32858808" version="1" timestamp="2009-04-05T19:36:18Z" uid="36809" user="pfoten_weg_!_" changeset="246170">
    <nd ref="370137707"/>
    <nd ref="370137708"/>
    <tag k="created_by" v="RambaZamba"/>
    <tag k="layer" v="-1"/>
    <tag k="name" v="Meilinger Bach"/>
    <tag k="source" v="survey"/>
    <tag k="waterway" v="stream"/>
  </way>
  <way id="32858808" version="2" timestamp="2009-08-24T23:15:28Z" uid="36809" user="pfoten_weg_!_" changeset="2251012">
    <nd ref="370137707"/>
    <nd ref="370137708"/>
    <tag k="layer" v="-1"/>
    <tag k="name" v="Meilinger Bach"/>
    <tag k="source" v="survey"/>
    <tag k="waterway" v="stream"/>
  </way>
  <way id="32858808" version="3" timestamp="2009-10-02T19:25:45Z" uid="86259" user="hasse_osm_korinthenkacker" changeset="2716617">
    <nd ref="370137707"/>
    <nd ref="370137708"/>
    <tag k="layer" v="-1"/>
    <tag k="name" v="Meilinger Bach"/>
    <tag k="waterway" v="stream"/>
  </way>
  <way id="32858811" version="1" timestamp="2009-04-05T19:36:19Z" uid="36809" user="pfoten_weg_!_" changeset="246170">
    <nd ref="370137708"/>
    <nd ref="370137709"/>
    <nd ref="370137710"/>
    <nd ref="370137711"/>
    <tag k="created_by" v="RambaZamba"/>
    <tag k="name" v="Meilinger Bach"/>
    <tag k="source" v="survey"/>
    <tag k="waterway" v="stream"/>
  </way>
  <way id="32858811" version="2" timestamp="2009-04-24T20:56:15Z" uid="36809" user="pfoten_weg_!_" changeset="934014">
    <nd ref="370137708"/>
    <nd ref="370137709"/>
    <nd ref="370137710"/>
    <nd ref="383928401"/>
    <tag k="created_by" v="RambaZamba"/>
    <tag k="name" v="Meilinger Bach"/>
    <tag k="source" v="survey"/>
    <tag k="waterway" v="stream"/>
  </way>
  <way id="32858811" version="3" timestamp="2009-07-27T21:21:58Z" uid="36809" user="pfoten_weg_!_" changeset="1960036">
    <nd ref="370137708"/>
    <nd ref="370137709"/>
    <nd ref="370137710"/>
    <nd ref="383928401"/>
    <tag k="discovered_by" v="RambaZamba"/>
    <tag k="name" v="Meilinger Bach"/>
    <tag k="source" v="survey"/>
    <tag k="waterway" v="stream"/>
  </way>
  <way id="32858811" version="5" timestamp="2009-08-28T21:11:06Z" uid="36809" user="pfoten_weg_!_" changeset="2295155">
    <nd ref="370137708"/>
    <nd ref="370137709"/>
    <nd ref="370137710"/>
    <nd ref="383928401"/>
    <tag k="discovered_by" v="RambaZamba"/>
    <tag k="name" v="Meilinger Bach"/>
    <tag k="source" v="survey"/>
    <tag k="waterway" v="stream"/>
  </way>
  <way id="32858811" version="7" timestamp="2009-08-31T17:46:50Z" uid="36809" user="pfoten_weg_!_" changeset="2328905">
    <nd ref="370137708"/>
    <nd ref="370137709"/>
    <nd ref="370137710"/>
    <nd ref="383928401"/>
    <tag k="name" v="Meilinger Bach"/>
    <tag k="source" v="survey"/>
    <tag k="waterway" v="stream"/>
  </way>
  <way id="32858811" version="8" timestamp="2009-10-02T19:25:45Z" uid="86259" user="hasse_osm_korinthenkacker" changeset="2716617">
    <nd ref="370137708"/>
    <nd ref="370137709"/>
    <nd ref="370137710"/>
    <nd ref="383928401"/>
    <tag k="name" v="Meilinger Bach"/>
    <tag k="waterway" v="stream"/>
  </way>
  <way id="32858947" version="7" timestamp="2010-09-25T20:07:40Z" uid="33382" user="de_muur" changeset="5874156">
    <nd ref="286445486"/>
    <nd ref="286445490"/>
    <nd ref="853511543"/>
    <nd ref="370117896"/>
    <nd ref="286445491"/>
    <nd ref="286445488"/>
    <nd ref="286445489"/>
    <nd ref="286445494"/>
    <tag k="highway" v="residential"/>
    <tag k="maxspeed" v="30"/>
    <tag k="name" v="Am Berg"/>
    <tag k="surface" v="paved"/>
  </way>
</osm>
