<?xml version='1.0' encoding='UTF-8'?>
<osm version="0.6" generator="libosmium/2.20.0">
  <way id="32993134" version="3" timestamp="2010-04-06T19:11:01Z" uid="9581" user="Lobelt" changeset="4347668">
    <nd ref="371679650"/>
    <nd ref="371679654"/>
    <tag k="highway" v="residential"/>
    <tag k="name" v="Neue Straße"/>
  </way>
  <way id="32993236" version="2" timestamp="2009-04-15T06:13:37Z" uid="6975" user="ulfl" changeset="553994">
    <nd ref="272816474"/>
    <nd ref="371681411"/>
    <nd ref="371681419"/>
    <nd ref="371681425"/>
    <nd ref="371681430"/>
    <tag k="cycleway" v="opposite_lane"/>
    <tag k="highway" v="residential"/>
    <tag k="name" v="rue de l&apos;Écoute s&apos;il pleut"/>
    <tag k="oneway" v="true"/>
    <tag k="source" v="cadastre-dgi-fr source : Direction Générale des Impôts - Cadastre ; mise à jour : 2009"/>
  </way>
  <way id="32993246" version="4" timestamp="2010-04-03T04:13:45Z" uid="20587" user="balrog-kun" changeset="4309442">
    <nd ref="41935889"/>
    <nd ref="42201692"/>
    <nd ref="42201694"/>
    <nd ref="42201697"/>
    <nd ref="42201708"/>
    <nd ref="371681742"/>
    <nd ref="340244267"/>
    <nd ref="371681747"/>
    <nd ref="340244268"/>
    <nd ref="340244271"/>
    <nd ref="371681755"/>
    <nd ref="41804743"/>
    <tag k="created_by" v="Potlatch 0.10f"/>
    <tag k="highway" v="residential"/>
    <tag k="name" v="North Concord Avenue"/>
    <tag k="tiger:cfcc" v="A41"/>
    <tag k="tiger:county" v="Maricopa, AZ"/>
    <tag k="tiger:name_base" v="Concord"/>
    <tag k="tiger:name_direction_prefix" v="N"/>
    <tag k="tiger:name_type" v="Ave"/>
    <tag k="tiger:reviewed" v="no"/>
    <tag k="tiger:separated" v="no"/>
    <tag k="tiger:source" v="tiger_import_dch_v0.6_20070809"/>
    <tag k="tiger:tlid" v="128270763:128787335:128787336:128787154:128805003:128787193:128787194; 128786570:128786571"/>
    <tag k="tiger:zip_left" v="85225"/>
    <tag k="tiger:zip_right" v="85225"/>
  </way>
  <way id="32993267" version="9" timestamp="2009-06-11T16:10:36Z" uid="43863" user="Rundling" changeset="1488782"/>
  <way id="32993417" version="3" timestamp="2010-04-03T04:13:46Z" uid="20587" user="balrog-kun" changeset="4309442">
    <nd ref="42233694"/>
    <nd ref="42233697"/>
    <nd ref="41578195"/>
    <nd ref="371683334"/>
    <nd ref="42328759"/>
    <nd ref="42328765"/>
    <nd ref="41542411"/>
    <nd ref="41627127"/>
    <tag k="created_by" v="Potlatch 0.10f"/>
    <tag k="highway" v="residential"/>
    <tag k="name" v="North Marion Way"/>
    <tag k="tiger:cfcc" v="A41"/>
    <tag k="tiger:county" v="Maricopa, AZ"/>
    <tag k="tiger:name_base" v="Marion"/>
    <tag k="tiger:name_direction_prefix" v="N"/>
    <tag k="tiger:name_type" v="Way"/>
    <tag k="tiger:reviewed" v="no"/>
    <tag k="tiger:separated" v="no"/>
    <tag k="tiger:source" v="tiger_import_dch_v0.6_20070809"/>
    <tag k="tiger:tlid" v="128794010:128794012:128793973"/>
    <tag k="tiger:zip_left" v="85225"/>
    <tag k="tiger:zip_right" v="85225"/>
  </way>
  <way id="32993427" version="9" timestamp="2009-07-28T13:47:49Z" uid="33382" user="de_muur" changeset="1965563">
    <nd ref="371684001"/>
    <nd ref="371684005"/>
    <nd ref="371684010"/>
    <nd ref="371684014"/>
    <nd ref="371684017"/>
    <nd ref="371684020"/>
    <tag k="highway" v="unclassified"/>
    <tag k="name" v="Am Herzberg"/>
    <tag k="surface" v="unpaved"/>
  </way>
  <way id="32993769" version="4" timestamp="2010-08-04T17:39:49Z" uid="9581" user="Lobelt" changeset="5401263">
    <nd ref="309071312"/>
    <nd ref="309071317"/>
    <nd ref="423790016"/>
    <nd ref="309071389"/>
    <tag k="cables" v="6"/>
    <tag k="name" v="Obr-Oba;Ka-Oba"/>
    <tag k="operator" v="EON_Netz"/>
    <tag k="power" v="line"/>
    <tag k="ref" v="121;122"/>
    <tag k="voltage" v="110000"/>
    <tag k="wires" v="double"/>
  </way>
</osm>
