<?xml version='1.0' encoding='UTF-8'?>
<osm version="0.6" generator="libosmium/2.20.0">
  <way id="33003286" version="3" timestamp="2010-04-05T15:53:39Z" uid="20587" user="balrog-kun" changeset="4334369">
    <nd ref="51112349"/>
    <nd ref="51269888"/>
    <nd ref="51229432"/>
    <nd ref="51269889"/>
    <nd ref="51269890"/>
    <nd ref="51269891"/>
    <nd ref="51122325"/>
    <nd ref="51191769"/>
    <nd ref="51011970"/>
    <nd ref="51269892"/>
    <nd ref="51269893"/>
    <nd ref="51269894"/>
    <nd ref="51269895"/>
    <nd ref="51269896"/>
    <nd ref="51269897"/>
    <nd ref="51088178"/>
    <nd ref="51186296"/>
    <nd ref="51124026"/>
    <nd ref="51169846"/>
    <nd ref="51269902"/>
    <nd ref="51269903"/>
    <nd ref="51239534"/>
    <nd ref="51269904"/>
    <nd ref="51083957"/>
    <nd ref="51066334"/>
    <nd ref="51269905"/>
    <nd ref="51269906"/>
    <nd ref="51269907"/>
    <nd ref="51011968"/>
    <nd ref="51269908"/>
    <nd ref="51098006"/>
    <nd ref="51269909"/>
    <nd ref="51269910"/>
    <nd ref="51269911"/>
    <nd ref="51269912"/>
    <nd ref="51155152"/>
    <nd ref="51087767"/>
    <tag k="CDOT_route" v="287C"/>
    <tag k="highway" v="primary"/>
    <tag k="name" v="South College Avenue"/>
    <tag k="ref" v="US 287"/>
    <tag k="tiger:cfcc" v="A21"/>
    <tag k="tiger:county" v="Larimer, CO"/>
    <tag k="tiger:name_base" v="College"/>
    <tag k="tiger:name_base_1" v="United States Highway 287"/>
    <tag k="tiger:name_direction_prefix" v="S"/>
    <tag k="tiger:name_type" v="Ave"/>
    <tag k="tiger:reviewed" v="no"/>
    <tag k="tiger:separated" v="no"/>
    <tag k="tiger:source" v="tiger_import_dch_v0.6_20070809"/>
    <tag k="tiger:tlid" v="188580187:188580188:188494200:188494203:188494204:188494223:188621095:188571828:188574681:188574682:188574687:188574688:188616359:188616360:188616361:188539558:188539559:188526460:188494159:188494160:188494162:188493846:188508358:188493953:188493954:18849"/>
    <tag k="tiger:zip_left" v="80525"/>
    <tag k="tiger:zip_right" v="80525"/>
  </way>
  <way id="33003300" version="5" timestamp="2010-04-05T15:53:40Z" uid="20587" user="balrog-kun" changeset="4334369">
    <nd ref="51107651"/>
    <nd ref="51269861"/>
    <nd ref="51211742"/>
    <nd ref="51269862"/>
    <nd ref="51171381"/>
    <nd ref="51269863"/>
    <nd ref="51116531"/>
    <nd ref="51113609"/>
    <nd ref="51184286"/>
    <nd ref="51269864"/>
    <nd ref="51269865"/>
    <nd ref="51269866"/>
    <nd ref="51269867"/>
    <nd ref="51269868"/>
    <nd ref="51269869"/>
    <nd ref="51269870"/>
    <nd ref="51269871"/>
    <nd ref="51269872"/>
    <nd ref="51269873"/>
    <nd ref="51269874"/>
    <nd ref="51127789"/>
    <nd ref="51192847"/>
    <nd ref="51210916"/>
    <nd ref="51210662"/>
    <nd ref="51269875"/>
    <tag k="CDOT_route" v="287C"/>
    <tag k="bicycle" v="no"/>
    <tag k="highway" v="primary"/>
    <tag k="name" v="South College Avenue"/>
    <tag k="ref" v="US 287"/>
    <tag k="tiger:cfcc" v="A21"/>
    <tag k="tiger:county" v="Larimer, CO"/>
    <tag k="tiger:name_base" v="College"/>
    <tag k="tiger:name_base_1" v="United States Highway 287"/>
    <tag k="tiger:name_direction_prefix" v="S"/>
    <tag k="tiger:name_type" v="Ave"/>
    <tag k="tiger:reviewed" v="no"/>
    <tag k="tiger:separated" v="no"/>
    <tag k="tiger:source" v="tiger_import_dch_v0.6_20070809"/>
    <tag k="tiger:tlid" v="188580187:188580188:188494200:188494203:188494204:188494223:188621095:188571828:188574681:188574682:188574687:188574688:188616359:188616360:188616361:188539558:188539559:188526460:188494159:188494160:188494162:188493846:188508358:188493953:188493954:18849"/>
    <tag k="tiger:zip_left" v="80525"/>
    <tag k="tiger:zip_right" v="80525"/>
  </way>
  <way id="33003380" version="3" timestamp="2009-04-16T22:45:24Z" uid="6975" user="ulfl" changeset="598814">
    <nd ref="371876240"/>
    <nd ref="371876246"/>
    <nd ref="371876250"/>
    <nd ref="371876256"/>
    <nd ref="371876240"/>
    <tag k="addr:housenumber" v="9-13"/>
    <tag k="addr:postcode" v="22045"/>
    <tag k="addr:street" v="Stein-Hardenberg-StraÃŸe"/>
    <tag k="building" v="yes"/>
    <tag k="name" v="Aquarium Tonndorf"/>
    <tag k="opening_hours" v="Mo-Fr 12:00-20:00; Sa 10:00-16:00"/>
    <tag k="phone" v="+49-40-662646"/>
    <tag k="shop" v="pet"/>
  </way>
  <way id="33003677" version="1" timestamp="2009-04-10T23:27:27Z" uid="110593" user="esetzer" changeset="396303">
    <nd ref="371881817"/>
    <nd ref="371881895"/>
    <tag k="created_by" v="Merkaartor 0.11"/>
    <tag k="name" v="Union Pacific Railroad"/>
    <tag k="railway" v="siding"/>
    <tag k="tracks" v="2"/>
  </way>
  <way id="33003677" version="2" timestamp="2009-04-15T22:58:20Z" uid="110593" user="esetzer" changeset="572593">
    <nd ref="371881817"/>
    <nd ref="371881895"/>
    <tag k="created_by" v="Merkaartor 0.11"/>
    <tag k="name" v="Union Pacific Railroad"/>
    <tag k="operator" v="Union Pacific Railroad"/>
    <tag k="railway" v="rail"/>
    <tag k="service" v="siding"/>
    <tag k="tracks" v="2"/>
  </way>
  <way id="33003693" version="1" timestamp="2009-04-10T23:27:56Z" uid="110593" user="esetzer" changeset="396303">
    <nd ref="371882006"/>
    <nd ref="371882044"/>
    <nd ref="371882066"/>
    <tag k="created_by" v="Merkaartor 0.11"/>
    <tag k="name" v="Union Pacific Railroad"/>
    <tag k="railway" v="siding"/>
    <tag k="tracks" v="2"/>
  </way>
  <way id="33003693" version="2" timestamp="2009-04-15T22:58:20Z" uid="110593" user="esetzer" changeset="572593">
    <nd ref="371882006"/>
    <nd ref="371882044"/>
    <nd ref="371882066"/>
    <tag k="created_by" v="Merkaartor 0.11"/>
    <tag k="name" v="Union Pacific Railroad"/>
    <tag k="operator" v="Union Pacific Railroad"/>
    <tag k="railway" v="rail"/>
    <tag k="service" v="siding"/>
    <tag k="tracks" v="2"/>
  </way>
  <way id="33003693" version="5" timestamp="2009-09-18T18:45:56Z" uid="110593" user="esetzer" changeset="2527281">
    <nd ref="371882006"/>
    <nd ref="477463684"/>
    <nd ref="371882066"/>
    <tag k="created_by" v="Merkaartor 0.11"/>
    <tag k="name" v="Salt Lake City Southern Railroad"/>
    <tag k="note" v="Genesee and Wyoming owns Utah Railway, which owns Salt Lake City Southern"/>
    <tag k="old_name" v="Union Pacific Railroad"/>
    <tag k="operator" v="Genesee and Wyoming Railroad"/>
    <tag k="railway" v="rail"/>
    <tag k="service" v="siding"/>
    <tag k="tracks" v="2"/>
  </way>
  <way id="33003693" version="6" timestamp="2009-09-18T18:47:49Z" uid="110593" user="esetzer" changeset="2527301">
    <nd ref="371882006"/>
    <nd ref="477463684"/>
    <nd ref="371882066"/>
    <tag k="created_by" v="Merkaartor 0.11"/>
    <tag k="name" v="Salt Lake City Southern Railroad"/>
    <tag k="note" v="Genesee and Wyoming owns Utah Railway, which owns Salt Lake City Southern"/>
    <tag k="old_name" v="Union Pacific Railroad"/>
    <tag k="operator" v="Genesee and Wyoming Railroad"/>
    <tag k="railway" v="rail"/>
    <tag k="service" v="siding"/>
    <tag k="tracks" v="2"/>
  </way>
  <way id="33003695" version="1" timestamp="2009-04-10T23:28:04Z" uid="110593" user="esetzer" changeset="396303">
    <nd ref="371882066"/>
    <nd ref="371882082"/>
    <nd ref="371882099"/>
    <nd ref="371882107"/>
    <nd ref="371882006"/>
    <nd ref="371882044"/>
    <nd ref="371882066"/>
    <tag k="created_by" v="Merkaartor 0.11"/>
    <tag k="landuse" v="industrial"/>
  </way>
</osm>
