<?xml version='1.0' encoding='UTF-8'?>
<osm version="0.6" generator="libosmium/2.20.0">
  <way id="33130003" version="1" timestamp="2009-04-13T16:19:19Z" uid="34428" user="usm78-gis" changeset="487804">
    <nd ref="374167201"/>
    <nd ref="374166895"/>
    <tag k="created_by" v="Potlatch 0.10f"/>
    <tag k="railway" v="rail"/>
  </way>
  <way id="33130003" version="2" timestamp="2010-08-25T16:48:09Z" uid="34428" user="usm78-gis" changeset="5591279"/>
  <way id="33130010" version="2" timestamp="2009-04-15T04:44:57Z" uid="6975" user="ulfl" changeset="553994">
    <nd ref="248461507"/>
    <nd ref="374168432"/>
    <nd ref="374168440"/>
    <nd ref="374168449"/>
    <nd ref="374168461"/>
    <nd ref="374168472"/>
    <nd ref="374168479"/>
    <nd ref="374168486"/>
    <nd ref="374168493"/>
    <nd ref="232404726"/>
    <tag k="bicycle" v="yes"/>
    <tag k="foot" v="yes"/>
    <tag k="highway" v="path"/>
    <tag k="horse" v="yes"/>
    <tag k="name" v="Wiouwash Trail"/>
  </way>
  <way id="33130179" version="3" timestamp="2010-03-28T01:47:03Z" uid="20587" user="balrog-kun" changeset="4250871">
    <nd ref="374170050"/>
    <nd ref="374171539"/>
    <nd ref="374171543"/>
    <nd ref="374171547"/>
    <nd ref="374171552"/>
    <tag k="created_by" v="Potlatch 0.10f"/>
    <tag k="highway" v="residential"/>
    <tag k="name" v="Costello Avenue"/>
    <tag k="tiger:cfcc" v="A41"/>
    <tag k="tiger:county" v="Los Angeles, CA"/>
    <tag k="tiger:name_base" v="Costello"/>
    <tag k="tiger:name_type" v="Ave"/>
    <tag k="tiger:reviewed" v="no"/>
    <tag k="tiger:separated" v="no"/>
    <tag k="tiger:source" v="tiger_import_dch_v0.6_20070809"/>
    <tag k="tiger:tlid" v="141561349:141561352:141561354:141561728:141561732"/>
    <tag k="tiger:zip_left" v="91401"/>
    <tag k="tiger:zip_right" v="91401"/>
  </way>
  <way id="33130185" version="2" timestamp="2009-12-06T16:41:00Z" uid="59758" user="rendle" changeset="3306828">
    <nd ref="292705284"/>
    <nd ref="292705285"/>
    <nd ref="292705185"/>
    <nd ref="292705286"/>
    <nd ref="292705187"/>
    <nd ref="582603579"/>
    <nd ref="292705287"/>
    <nd ref="292705289"/>
    <tag k="highway" v="residential"/>
  </way>
  <way id="33130210" version="6" timestamp="2009-04-16T21:29:42Z" uid="6975" user="ulfl" changeset="598814">
    <nd ref="374171392"/>
    <nd ref="374171931"/>
    <nd ref="374171937"/>
    <nd ref="374171942"/>
    <nd ref="374171947"/>
    <nd ref="374171952"/>
    <nd ref="374171957"/>
    <nd ref="374171961"/>
    <nd ref="374171965"/>
    <nd ref="374171969"/>
    <nd ref="374172110"/>
    <nd ref="374172115"/>
    <nd ref="374172044"/>
    <nd ref="378327387"/>
    <nd ref="378327393"/>
    <nd ref="378327401"/>
    <nd ref="378327410"/>
    <nd ref="378327414"/>
    <nd ref="378327420"/>
    <nd ref="378327425"/>
    <nd ref="378327433"/>
    <nd ref="378327438"/>
    <nd ref="378327442"/>
    <nd ref="378327451"/>
    <nd ref="378327456"/>
    <nd ref="378327462"/>
    <nd ref="378327468"/>
    <nd ref="378327476"/>
    <nd ref="378327484"/>
    <tag k="highway" v="residential"/>
    <tag k="name" v="Mindener Weg"/>
  </way>
  <way id="33130233" version="3" timestamp="2010-09-14T14:19:48Z" uid="33382" user="de_muur" changeset="5778921">
    <nd ref="301894382"/>
    <nd ref="250763521"/>
    <nd ref="912005239"/>
    <nd ref="912005258"/>
    <nd ref="912005267"/>
    <nd ref="250763446"/>
    <nd ref="29918256"/>
    <tag k="bicycle" v="yes"/>
    <tag k="bridge" v="yes"/>
    <tag k="cycleway" v="track"/>
    <tag k="highway" v="secondary"/>
    <tag k="layer" v="1"/>
    <tag k="name" v="Tostedter Straße"/>
    <tag k="ref" v="L 141"/>
  </way>
  <way id="33130277" version="2" timestamp="2009-09-05T15:53:26Z" uid="33382" user="de_muur" changeset="2382215">
    <nd ref="36801126"/>
    <nd ref="295506936"/>
    <tag k="highway" v="residential"/>
    <tag k="name" v="Unterstraße"/>
    <tag k="surface" v="paved"/>
  </way>
  <way id="33130281" version="3" timestamp="2009-04-15T05:00:46Z" uid="6975" user="ulfl" changeset="553994">
    <nd ref="102716835"/>
    <nd ref="34184279"/>
    <nd ref="34184280"/>
    <tag k="highway" v="residential"/>
    <tag k="name" v="Elfenweg"/>
  </way>
  <way id="33130284" version="2" timestamp="2009-11-05T20:12:41Z" uid="33382" user="de_muur" changeset="3043435">
    <nd ref="257745202"/>
    <nd ref="257745177"/>
    <nd ref="272060776"/>
    <nd ref="257745183"/>
    <tag k="highway" v="residential"/>
    <tag k="name" v="Langenstraße"/>
    <tag k="oneway" v="yes"/>
    <tag k="surface" v="paved"/>
  </way>
  <way id="33130379" version="4" timestamp="2010-01-17T13:45:18Z" uid="33382" user="de_muur" changeset="3641045">
    <nd ref="257745193"/>
    <nd ref="295507197"/>
    <nd ref="288007838"/>
    <nd ref="295507199"/>
    <tag k="highway" v="secondary"/>
    <tag k="maxspeed" v="50"/>
    <tag k="name" v="Obernstraße"/>
    <tag k="ref" v="L 158"/>
    <tag k="surface" v="paved"/>
  </way>
  <way id="33130379" version="5" timestamp="2010-12-11T11:29:52Z" uid="33382" user="de_muur" changeset="6621757">
    <nd ref="257745193"/>
    <nd ref="295507197"/>
    <nd ref="288007838"/>
    <nd ref="1033052642"/>
    <nd ref="1033052635"/>
    <tag k="highway" v="secondary"/>
    <tag k="maxspeed" v="50"/>
    <tag k="name" v="Obernstraße"/>
    <tag k="ref" v="L 158"/>
    <tag k="surface" v="paved"/>
  </way>
  <way id="33130399" version="5" timestamp="2011-01-02T19:16:29Z" uid="49111" user="Markus B" changeset="6842249">
    <nd ref="282244207"/>
    <nd ref="1079262018"/>
    <nd ref="1079261019"/>
    <nd ref="853863583"/>
    <nd ref="282244208"/>
    <nd ref="297644084"/>
    <nd ref="282244212"/>
    <nd ref="297644078"/>
    <tag k="bicycle" v="no"/>
    <tag k="foot" v="yes"/>
    <tag k="highway" v="footway"/>
    <tag k="name" v="Scheibenrain"/>
  </way>
  <way id="33130485" version="2" timestamp="2009-09-05T15:31:45Z" uid="33382" user="de_muur" changeset="2382006">
    <nd ref="247998052"/>
    <nd ref="316963655"/>
    <nd ref="247998079"/>
    <nd ref="247998057"/>
    <nd ref="252643758"/>
    <nd ref="253651555"/>
    <tag k="highway" v="tertiary"/>
    <tag k="name" v="Etelser Bahnhofstraße; Dorfstraße"/>
    <tag k="ref" v="K 7"/>
    <tag k="surface" v="paved"/>
  </way>
  <way id="33130485" version="3" timestamp="2009-11-15T14:51:32Z" uid="33382" user="de_muur" changeset="3122269">
    <nd ref="247998052"/>
    <nd ref="316963655"/>
    <nd ref="247998079"/>
    <nd ref="247998057"/>
    <nd ref="252643758"/>
    <nd ref="253651555"/>
    <tag k="highway" v="tertiary"/>
    <tag k="maxspeed" v="50"/>
    <tag k="name" v="Etelser Bahnhofstraße; Dorfstraße"/>
    <tag k="ref" v="K 7"/>
    <tag k="surface" v="paved"/>
  </way>
  <way id="33130494" version="3" timestamp="2010-05-09T15:49:16Z" uid="33382" user="de_muur" changeset="4650211">
    <nd ref="247998073"/>
    <nd ref="36801040"/>
    <nd ref="36801039"/>
    <nd ref="36801043"/>
    <nd ref="366931764"/>
    <nd ref="366931759"/>
    <nd ref="36801042"/>
    <tag k="highway" v="track"/>
    <tag k="motor_vehicle" v="no"/>
    <tag k="name" v="Schleusenstraße"/>
    <tag k="surface" v="paved"/>
    <tag k="tracktype" v="grade1"/>
  </way>
  <way id="33130531" version="2" timestamp="2010-04-03T10:35:13Z" uid="33382" user="de_muur" changeset="4311533">
    <nd ref="224529624"/>
    <nd ref="36801028"/>
    <nd ref="36801027"/>
    <tag k="highway" v="track"/>
    <tag k="motorcar" v="no"/>
    <tag k="surface" v="paved"/>
    <tag k="tracktype" v="grade1"/>
  </way>
  <way id="33130531" version="3" timestamp="2010-05-09T15:49:17Z" uid="33382" user="de_muur" changeset="4650211">
    <nd ref="224529624"/>
    <nd ref="36801028"/>
    <nd ref="36801027"/>
    <tag k="highway" v="track"/>
    <tag k="motor_vehicle" v="no"/>
    <tag k="surface" v="paved"/>
    <tag k="tracktype" v="grade1"/>
  </way>
  <way id="33130793" version="2" timestamp="2011-05-08T19:12:57Z" uid="9581" user="Lobelt" changeset="8086383">
    <nd ref="122547134"/>
    <nd ref="293480297"/>
    <nd ref="374179614"/>
    <nd ref="293480818"/>
    <nd ref="374179627"/>
    <nd ref="374179621"/>
    <nd ref="374179608"/>
    <nd ref="122551390"/>
    <tag k="highway" v="residential"/>
    <tag k="name" v="Moselstraße"/>
  </way>
  <way id="33130810" version="4" timestamp="2010-04-13T18:20:29Z" uid="33382" user="de_muur" changeset="4416307"/>
</osm>
