<?xml version='1.0' encoding='UTF-8'?>
<osm version="0.6" generator="libosmium/2.20.0">
  <way id="33200026" version="3" timestamp="2010-07-09T04:05:42Z" uid="74617" user="JohnSmith" changeset="5170825">
    <nd ref="319637228"/>
    <nd ref="319637229"/>
    <nd ref="136438259"/>
    <tag k="highway" v="residential"/>
    <tag k="maxspeed" v="50"/>
    <tag k="maxspeed:source" v="default residential speed limit in Australia"/>
    <tag k="name" v="York Street"/>
  </way>
  <way id="33200058" version="4" timestamp="2010-07-09T05:35:13Z" uid="74617" user="JohnSmith" changeset="5170986">
    <nd ref="376416048"/>
    <nd ref="376416189"/>
    <nd ref="376416199"/>
    <nd ref="376416209"/>
    <nd ref="376416218"/>
    <nd ref="376416229"/>
    <nd ref="376416241"/>
    <nd ref="376416253"/>
    <tag k="highway" v="residential"/>
    <tag k="maxspeed" v="50"/>
    <tag k="maxspeed:source" v="default residential speed limit in Australia"/>
    <tag k="name" v="Panorama Court"/>
  </way>
  <way id="33200071" version="3" timestamp="2010-07-09T05:35:25Z" uid="74617" user="JohnSmith" changeset="5170986">
    <nd ref="376417029"/>
    <nd ref="376417177"/>
    <nd ref="376417188"/>
    <tag k="highway" v="residential"/>
    <tag k="maxspeed" v="50"/>
    <tag k="maxspeed:source" v="default residential speed limit in Australia"/>
    <tag k="name" v="Kent Court"/>
  </way>
  <way id="33200119" version="4" timestamp="2010-07-09T05:35:03Z" uid="74617" user="JohnSmith" changeset="5170986">
    <nd ref="339621414"/>
    <nd ref="339621415"/>
    <nd ref="339621416"/>
    <nd ref="339621417"/>
    <nd ref="339621418"/>
    <nd ref="339621419"/>
    <nd ref="339621420"/>
    <nd ref="339621421"/>
    <nd ref="339622513"/>
    <nd ref="339621422"/>
    <nd ref="339621423"/>
    <nd ref="339621424"/>
    <nd ref="339621425"/>
    <nd ref="339621426"/>
    <nd ref="679031283"/>
    <nd ref="339621427"/>
    <nd ref="339621428"/>
    <nd ref="339621429"/>
    <nd ref="339621430"/>
    <nd ref="339621431"/>
    <nd ref="339621432"/>
    <nd ref="339621763"/>
    <nd ref="339621433"/>
    <nd ref="339621434"/>
    <nd ref="376417029"/>
    <nd ref="339621435"/>
    <nd ref="339621436"/>
    <nd ref="339621437"/>
    <nd ref="339621438"/>
    <nd ref="339621439"/>
    <tag k="highway" v="residential"/>
    <tag k="maxspeed" v="50"/>
    <tag k="maxspeed:source" v="default residential speed limit in Australia"/>
    <tag k="name" v="Summit Drive"/>
  </way>
  <way id="33200155" version="3" timestamp="2010-07-09T05:34:56Z" uid="74617" user="JohnSmith" changeset="5170986">
    <nd ref="339622052"/>
    <nd ref="376420637"/>
    <tag k="highway" v="residential"/>
    <tag k="maxspeed" v="50"/>
    <tag k="maxspeed:source" v="default residential speed limit in Australia"/>
    <tag k="name" v="Killara Mews"/>
  </way>
  <way id="33200192" version="3" timestamp="2010-07-09T05:35:02Z" uid="74617" user="JohnSmith" changeset="5170986">
    <nd ref="376421773"/>
    <nd ref="376421882"/>
    <nd ref="376421894"/>
    <nd ref="376421903"/>
    <nd ref="376421913"/>
    <tag k="highway" v="residential"/>
    <tag k="maxspeed" v="50"/>
    <tag k="maxspeed:source" v="default residential speed limit in Australia"/>
    <tag k="name" v="Springbank Court"/>
  </way>
  <way id="33200208" version="3" timestamp="2010-07-09T05:35:24Z" uid="74617" user="JohnSmith" changeset="5170986">
    <nd ref="376422296"/>
    <nd ref="376422570"/>
    <tag k="highway" v="residential"/>
    <tag k="maxspeed" v="50"/>
    <tag k="maxspeed:source" v="default residential speed limit in Australia"/>
    <tag k="name" v="Illona Court"/>
  </way>
  <way id="33200506" version="2" timestamp="2009-04-16T22:14:40Z" uid="6975" user="ulfl" changeset="598814">
    <nd ref="372918399"/>
    <nd ref="372918404"/>
    <tag k="bridge" v="yes"/>
    <tag k="highway" v="secondary"/>
    <tag k="name" v="Ponte Romana de Vila Formosa"/>
  </way>
  <way id="33200577" version="3" timestamp="2010-07-08T18:47:45Z" uid="74617" user="JohnSmith" changeset="5167338">
    <nd ref="317694691"/>
    <nd ref="317694692"/>
    <nd ref="317694693"/>
    <tag k="highway" v="residential"/>
    <tag k="maxspeed" v="50"/>
    <tag k="maxspeed:source" v="default residential speed limit in Australia"/>
    <tag k="name" v="Rhode Island"/>
  </way>
  <way id="33200598" version="9" timestamp="2010-04-06T06:46:20Z" uid="74617" user="JohnSmith" changeset="4340624">
    <nd ref="317694666"/>
    <nd ref="623044141"/>
    <nd ref="611925648"/>
    <nd ref="623044075"/>
    <nd ref="623044535"/>
    <nd ref="623044555"/>
    <nd ref="612025755"/>
    <nd ref="31319015"/>
    <tag k="highway" v="primary"/>
    <tag k="name" v="Thompson Road"/>
  </way>
  <way id="33200598" version="10" timestamp="2010-05-21T02:01:34Z" uid="4467" user="Rosscoe" changeset="4762597">
    <nd ref="317694666"/>
    <nd ref="623044141"/>
    <nd ref="611925648"/>
    <nd ref="623044075"/>
    <nd ref="741759086"/>
    <nd ref="741758039"/>
    <tag k="highway" v="primary"/>
    <tag k="name" v="Thompson Road"/>
    <tag k="oneway" v="yes"/>
    <tag k="source" v="nearmap"/>
  </way>
  <way id="33200603" version="4" timestamp="2010-07-08T18:24:18Z" uid="74617" user="JohnSmith" changeset="5167338">
    <nd ref="317694670"/>
    <nd ref="317694671"/>
    <nd ref="317694672"/>
    <nd ref="317694673"/>
    <nd ref="317694674"/>
    <nd ref="317694675"/>
    <nd ref="317694676"/>
    <nd ref="317694677"/>
    <nd ref="317694678"/>
    <nd ref="317694679"/>
    <nd ref="317694680"/>
    <nd ref="317694681"/>
    <nd ref="317694682"/>
    <nd ref="317694683"/>
    <nd ref="31362580"/>
    <nd ref="317694684"/>
    <nd ref="317694685"/>
    <nd ref="317694686"/>
    <tag k="highway" v="residential"/>
    <tag k="maxspeed" v="50"/>
    <tag k="maxspeed:source" v="default residential speed limit in Australia"/>
    <tag k="name" v="Schooner Bay Drive"/>
  </way>
  <way id="33200632" version="4" timestamp="2009-08-10T00:25:10Z" uid="4467" user="Rosscoe" changeset="2092115"/>
  <way id="33200690" version="3" timestamp="2010-04-06T06:46:20Z" uid="74617" user="JohnSmith" changeset="4340624">
    <nd ref="31318989"/>
    <nd ref="376438831"/>
    <nd ref="31319202"/>
    <nd ref="31319203"/>
    <nd ref="612026301"/>
    <nd ref="31319607"/>
    <nd ref="31319204"/>
    <nd ref="31319111"/>
    <tag k="highway" v="primary"/>
    <tag k="name" v="Thompson Road"/>
    <tag k="oneway" v="yes"/>
  </way>
  <way id="33200905" version="4" timestamp="2010-04-04T19:49:18Z" uid="74617" user="JohnSmith" changeset="4325742">
    <nd ref="31319432"/>
    <nd ref="31319433"/>
    <tag k="bridge" v="yes"/>
    <tag k="highway" v="motorway"/>
    <tag k="lanes" v="2"/>
    <tag k="layer" v="1"/>
    <tag k="maxspeed" v="100"/>
    <tag k="name" v="Mornington Peninsula Freeway"/>
    <tag k="oneway" v="yes"/>
  </way>
  <way id="33200908" version="2" timestamp="2009-08-10T00:25:08Z" uid="4467" user="Rosscoe" changeset="2092115">
    <nd ref="31319433"/>
    <nd ref="31319434"/>
    <nd ref="31319435"/>
    <nd ref="31319436"/>
    <nd ref="460198866"/>
    <tag k="highway" v="motorway"/>
    <tag k="lanes" v="2"/>
    <tag k="maxspeed" v="100"/>
    <tag k="name" v="Mornington Peninsula Freeway"/>
    <tag k="oneway" v="yes"/>
    <tag k="ref" v="S11"/>
  </way>
  <way id="33200908" version="5" timestamp="2010-04-04T19:49:15Z" uid="74617" user="JohnSmith" changeset="4325742">
    <nd ref="31319433"/>
    <nd ref="612026427"/>
    <nd ref="31319434"/>
    <nd ref="31319435"/>
    <nd ref="31319436"/>
    <nd ref="460198866"/>
    <tag k="highway" v="motorway"/>
    <tag k="lanes" v="2"/>
    <tag k="maxspeed" v="100"/>
    <tag k="name" v="Mornington Peninsula Freeway"/>
    <tag k="oneway" v="yes"/>
  </way>
  <way id="33200917" version="3" timestamp="2010-04-04T19:49:17Z" uid="74617" user="JohnSmith" changeset="4325742">
    <nd ref="31319475"/>
    <nd ref="29902423"/>
    <nd ref="29902424"/>
    <nd ref="29902425"/>
    <nd ref="29902426"/>
    <nd ref="29902427"/>
    <nd ref="29902428"/>
    <nd ref="31319524"/>
    <nd ref="29902429"/>
    <nd ref="29902430"/>
    <nd ref="29902431"/>
    <nd ref="31319525"/>
    <nd ref="31319526"/>
    <nd ref="29902432"/>
    <nd ref="31319527"/>
    <nd ref="29902433"/>
    <nd ref="31319528"/>
    <nd ref="29902434"/>
    <nd ref="31319529"/>
    <nd ref="268553920"/>
    <nd ref="268553921"/>
    <nd ref="268553922"/>
    <nd ref="268553923"/>
    <nd ref="268553924"/>
    <nd ref="268553925"/>
    <nd ref="268553926"/>
    <nd ref="268553927"/>
    <nd ref="268553928"/>
    <nd ref="268553929"/>
    <nd ref="268553930"/>
    <nd ref="268553931"/>
    <nd ref="268553932"/>
    <nd ref="268553933"/>
    <nd ref="268553934"/>
    <nd ref="109565376"/>
    <tag k="highway" v="motorway"/>
    <tag k="lanes" v="2"/>
    <tag k="maxspeed" v="100"/>
    <tag k="name" v="Mornington Peninsula Freeway"/>
    <tag k="oneway" v="yes"/>
  </way>
  <way id="33200931" version="3" timestamp="2010-04-04T19:49:16Z" uid="74617" user="JohnSmith" changeset="4325742">
    <nd ref="376447249"/>
    <nd ref="31319475"/>
    <tag k="bridge" v="yes"/>
    <tag k="highway" v="motorway"/>
    <tag k="lanes" v="2"/>
    <tag k="layer" v="1"/>
    <tag k="maxspeed" v="100"/>
    <tag k="name" v="Mornington Peninsula Freeway"/>
    <tag k="oneway" v="yes"/>
  </way>
</osm>
