<?xml version='1.0' encoding='UTF-8'?>
<osm version="0.6" generator="libosmium/2.20.0">
  <way id="33267150" version="2" timestamp="2009-08-03T23:18:02Z" uid="4467" user="Rosscoe" changeset="2031060">
    <nd ref="377755293"/>
    <nd ref="377755368"/>
    <nd ref="377755298"/>
    <nd ref="33318752"/>
    <tag k="highway" v="residential"/>
    <tag k="name" v="Keppel Street"/>
    <tag k="oneway" v="yes"/>
  </way>
  <way id="33267150" version="3" timestamp="2010-07-09T02:58:57Z" uid="74617" user="JohnSmith" changeset="5170739">
    <nd ref="377755293"/>
    <nd ref="377755368"/>
    <nd ref="377755298"/>
    <nd ref="33318752"/>
    <tag k="highway" v="residential"/>
    <tag k="maxspeed" v="50"/>
    <tag k="maxspeed:source" v="default residential speed limit in Australia"/>
    <tag k="name" v="Keppel Street"/>
    <tag k="oneway" v="yes"/>
  </way>
  <way id="33267152" version="2" timestamp="2009-08-03T23:18:02Z" uid="4467" user="Rosscoe" changeset="2031060">
    <nd ref="33318752"/>
    <nd ref="377755311"/>
    <nd ref="377755302"/>
    <nd ref="55123052"/>
    <tag k="highway" v="residential"/>
    <tag k="name" v="Keppel Street"/>
    <tag k="oneway" v="yes"/>
  </way>
  <way id="33267152" version="3" timestamp="2010-07-09T02:55:18Z" uid="74617" user="JohnSmith" changeset="5170739">
    <nd ref="33318752"/>
    <nd ref="377755311"/>
    <nd ref="377755302"/>
    <nd ref="55123052"/>
    <tag k="highway" v="residential"/>
    <tag k="maxspeed" v="50"/>
    <tag k="maxspeed:source" v="default residential speed limit in Australia"/>
    <tag k="name" v="Keppel Street"/>
    <tag k="oneway" v="yes"/>
  </way>
  <way id="33267154" version="2" timestamp="2009-07-31T12:20:29Z" uid="4467" user="Rosscoe" changeset="1994178">
    <nd ref="377755341"/>
    <nd ref="377755329"/>
    <nd ref="377755360"/>
    <nd ref="377755319"/>
    <tag k="highway" v="residential"/>
    <tag k="name" v="Keppel Street"/>
    <tag k="oneway" v="yes"/>
  </way>
  <way id="33267154" version="3" timestamp="2010-07-09T02:59:37Z" uid="74617" user="JohnSmith" changeset="5170739">
    <nd ref="377755341"/>
    <nd ref="377755329"/>
    <nd ref="377755360"/>
    <nd ref="377755319"/>
    <tag k="highway" v="residential"/>
    <tag k="maxspeed" v="50"/>
    <tag k="maxspeed:source" v="default residential speed limit in Australia"/>
    <tag k="name" v="Keppel Street"/>
    <tag k="oneway" v="yes"/>
  </way>
  <way id="33267155" version="2" timestamp="2009-07-31T12:20:27Z" uid="4467" user="Rosscoe" changeset="1994178">
    <nd ref="377755417"/>
    <nd ref="377755453"/>
    <nd ref="377755484"/>
    <nd ref="377755421"/>
    <tag k="highway" v="residential"/>
    <tag k="name" v="Palmerston Street"/>
    <tag k="oneway" v="yes"/>
  </way>
  <way id="33267155" version="3" timestamp="2010-07-09T03:01:48Z" uid="74617" user="JohnSmith" changeset="5170739">
    <nd ref="377755417"/>
    <nd ref="377755453"/>
    <nd ref="377755484"/>
    <nd ref="377755421"/>
    <tag k="highway" v="residential"/>
    <tag k="maxspeed" v="50"/>
    <tag k="maxspeed:source" v="default residential speed limit in Australia"/>
    <tag k="name" v="Palmerston Street"/>
    <tag k="oneway" v="yes"/>
  </way>
  <way id="33267163" version="2" timestamp="2010-07-09T02:58:42Z" uid="74617" user="JohnSmith" changeset="5170739">
    <nd ref="377755319"/>
    <nd ref="33318752"/>
    <tag k="highway" v="residential"/>
    <tag k="maxspeed" v="50"/>
    <tag k="maxspeed:source" v="default residential speed limit in Australia"/>
    <tag k="name" v="Keppel Street"/>
  </way>
  <way id="33267165" version="2" timestamp="2009-07-31T12:20:27Z" uid="4467" user="Rosscoe" changeset="1994178">
    <nd ref="34171510"/>
    <nd ref="377755602"/>
    <nd ref="369304143"/>
    <nd ref="33318776"/>
    <tag k="highway" v="residential"/>
    <tag k="name" v="Cardigan Street"/>
    <tag k="oneway" v="yes"/>
  </way>
  <way id="33267165" version="3" timestamp="2010-07-09T03:02:42Z" uid="74617" user="JohnSmith" changeset="5170739">
    <nd ref="34171510"/>
    <nd ref="377755602"/>
    <nd ref="369304143"/>
    <nd ref="33318776"/>
    <tag k="highway" v="residential"/>
    <tag k="maxspeed" v="50"/>
    <tag k="maxspeed:source" v="default residential speed limit in Australia"/>
    <tag k="name" v="Cardigan Street"/>
    <tag k="oneway" v="yes"/>
  </way>
  <way id="33267166" version="2" timestamp="2009-07-31T12:20:24Z" uid="4467" user="Rosscoe" changeset="1994178">
    <nd ref="33318775"/>
    <nd ref="377755626"/>
    <nd ref="377755615"/>
    <nd ref="377755581"/>
    <tag k="highway" v="residential"/>
    <tag k="name" v="Cardigan Street"/>
    <tag k="oneway" v="yes"/>
  </way>
  <way id="33267166" version="3" timestamp="2010-07-09T02:54:57Z" uid="74617" user="JohnSmith" changeset="5170739">
    <nd ref="33318775"/>
    <nd ref="377755626"/>
    <nd ref="377755615"/>
    <nd ref="377755581"/>
    <tag k="highway" v="residential"/>
    <tag k="maxspeed" v="50"/>
    <tag k="maxspeed:source" v="default residential speed limit in Australia"/>
    <tag k="name" v="Cardigan Street"/>
    <tag k="oneway" v="yes"/>
  </way>
  <way id="33267183" version="2" timestamp="2010-07-09T03:02:58Z" uid="74617" user="JohnSmith" changeset="5170739">
    <nd ref="369301717"/>
    <nd ref="377755870"/>
    <tag k="highway" v="residential"/>
    <tag k="maxspeed" v="50"/>
    <tag k="maxspeed:source" v="default residential speed limit in Australia"/>
    <tag k="name" v="Waterloo Street"/>
  </way>
  <way id="33267292" version="4" timestamp="2009-05-20T15:17:37Z" uid="43863" user="Rundling" changeset="1265696">
    <nd ref="312511575"/>
    <nd ref="377759152"/>
    <nd ref="312513666"/>
    <tag k="bicycle" v="yes"/>
    <tag k="created_by" v="Potlatch 0.10f"/>
    <tag k="highway" v="footway"/>
  </way>
  <way id="33267293" version="1" timestamp="2009-04-16T09:49:42Z" uid="6269" user="Mueck" changeset="584280">
    <nd ref="377759062"/>
    <nd ref="377759241"/>
    <tag k="created_by" v="Potlatch 0.10f"/>
  </way>
  <way id="33267293" version="2" timestamp="2009-04-16T09:49:49Z" uid="6269" user="Mueck" changeset="584280">
    <nd ref="377759062"/>
    <nd ref="377759241"/>
    <tag k="created_by" v="Potlatch 0.10f"/>
    <tag k="location" v="underground"/>
    <tag k="man_made" v="pipeline"/>
    <tag k="type" v="gas"/>
  </way>
  <way id="33267293" version="3" timestamp="2009-04-16T09:54:07Z" uid="6269" user="Mueck" changeset="584280">
    <nd ref="377759062"/>
    <nd ref="377759241"/>
    <nd ref="377762661"/>
    <nd ref="377762668"/>
    <nd ref="377762674"/>
    <nd ref="377762679"/>
    <nd ref="377762686"/>
    <nd ref="377762691"/>
    <nd ref="377762699"/>
    <nd ref="377762706"/>
    <nd ref="377762710"/>
    <nd ref="377762717"/>
    <nd ref="377762721"/>
    <nd ref="377762726"/>
    <tag k="created_by" v="Potlatch 0.10f"/>
    <tag k="location" v="underground"/>
    <tag k="man_made" v="pipeline"/>
    <tag k="note" v="genaue Lage zum Weg unbekannt"/>
    <tag k="type" v="gas"/>
  </way>
  <way id="33267293" version="4" timestamp="2009-04-16T10:03:04Z" uid="6269" user="Mueck" changeset="584280">
    <nd ref="377759062"/>
    <nd ref="377759241"/>
    <nd ref="377762661"/>
    <nd ref="377762668"/>
    <nd ref="377762674"/>
    <nd ref="377762679"/>
    <nd ref="377762686"/>
    <nd ref="377762691"/>
    <tag k="created_by" v="Potlatch 0.10f"/>
    <tag k="location" v="underground"/>
    <tag k="man_made" v="pipeline"/>
    <tag k="note" v="genaue Lage zum Weg unbekannt"/>
    <tag k="type" v="gas"/>
  </way>
  <way id="33267427" version="2" timestamp="2010-07-08T17:21:07Z" uid="74617" user="JohnSmith" changeset="5167338">
    <nd ref="377760749"/>
    <nd ref="377760874"/>
    <nd ref="377760765"/>
    <tag k="highway" v="residential"/>
    <tag k="maxspeed" v="50"/>
    <tag k="maxspeed:source" v="default residential speed limit in Australia"/>
    <tag k="name" v="Lawton Avenue"/>
    <tag k="surface" v="paved"/>
  </way>
  <way id="33267429" version="3" timestamp="2010-07-08T17:24:12Z" uid="74617" user="JohnSmith" changeset="5167338">
    <nd ref="377760920"/>
    <nd ref="625014185"/>
    <nd ref="264833584"/>
    <tag k="highway" v="residential"/>
    <tag k="maxspeed" v="50"/>
    <tag k="maxspeed:source" v="default residential speed limit in Australia"/>
    <tag k="name" v="Preston Street"/>
    <tag k="surface" v="paved"/>
  </way>
  <way id="33267431" version="3" timestamp="2010-07-08T17:19:32Z" uid="74617" user="JohnSmith" changeset="5167338">
    <nd ref="377760939"/>
    <nd ref="623058452"/>
    <nd ref="377761150"/>
    <nd ref="377761088"/>
    <nd ref="377761014"/>
    <nd ref="377760957"/>
    <tag k="highway" v="residential"/>
    <tag k="maxspeed" v="50"/>
    <tag k="maxspeed:source" v="default residential speed limit in Australia"/>
    <tag k="name" v="Spring Street"/>
    <tag k="surface" v="paved"/>
  </way>
  <way id="33267433" version="3" timestamp="2010-04-26T01:23:22Z" uid="4467" user="Rosscoe" changeset="4527918">
    <nd ref="377760976"/>
    <nd ref="623058453"/>
    <nd ref="377761393"/>
    <nd ref="706903287"/>
    <tag k="highway" v="residential"/>
    <tag k="name" v="Villamanta Street"/>
    <tag k="surface" v="paved"/>
  </way>
  <way id="33267433" version="4" timestamp="2010-07-08T17:18:18Z" uid="74617" user="JohnSmith" changeset="5167338">
    <nd ref="377760976"/>
    <nd ref="623058453"/>
    <nd ref="377761393"/>
    <nd ref="706903287"/>
    <tag k="highway" v="residential"/>
    <tag k="maxspeed" v="50"/>
    <tag k="maxspeed:source" v="default residential speed limit in Australia"/>
    <tag k="name" v="Villamanta Street"/>
    <tag k="surface" v="paved"/>
  </way>
  <way id="33267435" version="3" timestamp="2010-07-08T17:24:36Z" uid="74617" user="JohnSmith" changeset="5167338">
    <nd ref="377761014"/>
    <nd ref="377761048"/>
    <nd ref="623058451"/>
    <nd ref="377761029"/>
    <tag k="highway" v="residential"/>
    <tag k="maxspeed" v="50"/>
    <tag k="maxspeed:source" v="default residential speed limit in Australia"/>
    <tag k="name" v="McNicol Street"/>
    <tag k="surface" v="paved"/>
  </way>
  <way id="33267437" version="3" timestamp="2010-04-26T01:23:22Z" uid="4467" user="Rosscoe" changeset="4527918">
    <nd ref="377761088"/>
    <nd ref="706903294"/>
    <tag k="highway" v="residential"/>
    <tag k="name" v="Coronation Street"/>
    <tag k="surface" v="paved"/>
  </way>
  <way id="33267437" version="4" timestamp="2010-07-08T17:16:57Z" uid="74617" user="JohnSmith" changeset="5167338">
    <nd ref="377761088"/>
    <nd ref="706903294"/>
    <tag k="highway" v="residential"/>
    <tag k="maxspeed" v="50"/>
    <tag k="maxspeed:source" v="default residential speed limit in Australia"/>
    <tag k="name" v="Coronation Street"/>
    <tag k="surface" v="paved"/>
  </way>
  <way id="33267438" version="2" timestamp="2010-07-08T17:25:25Z" uid="74617" user="JohnSmith" changeset="5167338">
    <nd ref="377761150"/>
    <nd ref="377761393"/>
    <tag k="highway" v="residential"/>
    <tag k="maxspeed" v="50"/>
    <tag k="maxspeed:source" v="default residential speed limit in Australia"/>
    <tag k="name" v="Villamanta Place"/>
    <tag k="surface" v="paved"/>
  </way>
  <way id="33267439" version="2" timestamp="2010-07-08T17:22:59Z" uid="74617" user="JohnSmith" changeset="5167338">
    <nd ref="377761418"/>
    <nd ref="377761441"/>
    <tag k="highway" v="residential"/>
    <tag k="maxspeed" v="50"/>
    <tag k="maxspeed:source" v="default residential speed limit in Australia"/>
    <tag k="name" v="Pizer Street"/>
    <tag k="surface" v="paved"/>
  </way>
  <way id="33267440" version="2" timestamp="2010-07-08T17:21:21Z" uid="74617" user="JohnSmith" changeset="5167338">
    <nd ref="377761501"/>
    <nd ref="377761461"/>
    <nd ref="377761484"/>
    <tag k="highway" v="residential"/>
    <tag k="maxspeed" v="50"/>
    <tag k="maxspeed:source" v="default residential speed limit in Australia"/>
    <tag k="name" v="Lupton Street"/>
  </way>
  <way id="33267442" version="2" timestamp="2010-07-08T17:17:09Z" uid="74617" user="JohnSmith" changeset="5167338">
    <nd ref="377761520"/>
    <nd ref="377761539"/>
    <tag k="highway" v="residential"/>
    <tag k="maxspeed" v="50"/>
    <tag k="maxspeed:source" v="default residential speed limit in Australia"/>
    <tag k="name" v="Lupton Street"/>
    <tag k="surface" v="paved"/>
  </way>
  <way id="33267448" version="2" timestamp="2010-07-08T17:25:02Z" uid="74617" user="JohnSmith" changeset="5167338">
    <nd ref="377761461"/>
    <nd ref="377761441"/>
    <nd ref="377761551"/>
    <tag k="highway" v="residential"/>
    <tag k="maxspeed" v="50"/>
    <tag k="maxspeed:source" v="default residential speed limit in Australia"/>
    <tag k="name" v="Bigmore Street"/>
    <tag k="surface" v="paved"/>
  </way>
  <way id="33267449" version="2" timestamp="2010-07-08T17:22:30Z" uid="74617" user="JohnSmith" changeset="5167338">
    <nd ref="377761571"/>
    <nd ref="377761595"/>
    <tag k="highway" v="residential"/>
    <tag k="maxspeed" v="50"/>
    <tag k="maxspeed:source" v="default residential speed limit in Australia"/>
    <tag k="name" v="Mowat Street"/>
    <tag k="surface" v="paved"/>
  </way>
  <way id="33267452" version="2" timestamp="2010-07-08T17:23:16Z" uid="74617" user="JohnSmith" changeset="5167338">
    <nd ref="377761627"/>
    <nd ref="377761654"/>
    <tag k="highway" v="residential"/>
    <tag k="maxspeed" v="50"/>
    <tag k="maxspeed:source" v="default residential speed limit in Australia"/>
    <tag k="name" v="Trigg Street"/>
    <tag k="surface" v="paved"/>
  </way>
  <way id="33267454" version="2" timestamp="2010-07-08T17:18:33Z" uid="74617" user="JohnSmith" changeset="5167338">
    <nd ref="377761676"/>
    <nd ref="377761696"/>
    <nd ref="377761716"/>
    <nd ref="377761743"/>
    <nd ref="377761765"/>
    <nd ref="377761870"/>
    <nd ref="377761889"/>
    <nd ref="377761908"/>
    <nd ref="377761932"/>
    <nd ref="377763906"/>
    <nd ref="377764000"/>
    <nd ref="377764015"/>
    <nd ref="377764067"/>
    <nd ref="377764113"/>
    <nd ref="377764168"/>
    <nd ref="377764032"/>
    <tag k="highway" v="residential"/>
    <tag k="maxspeed" v="50"/>
    <tag k="maxspeed:source" v="default residential speed limit in Australia"/>
    <tag k="name" v="Croxton Parade"/>
  </way>
  <way id="33267455" version="3" timestamp="2010-07-08T17:16:38Z" uid="74617" user="JohnSmith" changeset="5167338">
    <nd ref="377764049"/>
    <nd ref="625009958"/>
    <nd ref="377764067"/>
    <tag k="highway" v="residential"/>
    <tag k="maxspeed" v="50"/>
    <tag k="maxspeed:source" v="default residential speed limit in Australia"/>
    <tag k="name" v="Cradock Street"/>
    <tag k="surface" v="paved"/>
  </way>
  <way id="33267458" version="2" timestamp="2010-07-08T17:19:16Z" uid="74617" user="JohnSmith" changeset="5167338">
    <nd ref="377764094"/>
    <nd ref="377764213"/>
    <nd ref="377764113"/>
    <tag k="highway" v="residential"/>
    <tag k="maxspeed" v="50"/>
    <tag k="maxspeed:source" v="default residential speed limit in Australia"/>
    <tag k="name" v="Saywell Street"/>
    <tag k="surface" v="paved"/>
  </way>
  <way id="33267459" version="3" timestamp="2010-07-08T17:17:18Z" uid="74617" user="JohnSmith" changeset="5167338">
    <nd ref="377764133"/>
    <nd ref="377764239"/>
    <nd ref="472582054"/>
    <nd ref="377764168"/>
    <tag k="highway" v="residential"/>
    <tag k="maxspeed" v="50"/>
    <tag k="maxspeed:source" v="default residential speed limit in Australia"/>
    <tag k="name" v="Guthrie Avenue"/>
    <tag k="surface" v="paved"/>
  </way>
  <way id="33267461" version="2" timestamp="2010-07-08T17:20:07Z" uid="74617" user="JohnSmith" changeset="5167338">
    <nd ref="377764213"/>
    <nd ref="377764239"/>
    <tag k="highway" v="residential"/>
    <tag k="maxspeed" v="50"/>
    <tag k="maxspeed:source" v="default residential speed limit in Australia"/>
    <tag k="name" v="Birch Street"/>
    <tag k="surface" v="paved"/>
  </way>
  <way id="33267558" version="1" timestamp="2009-04-16T10:01:09Z" uid="6269" user="Mueck" changeset="584280">
    <nd ref="377762691"/>
    <nd ref="377769805"/>
    <nd ref="377769810"/>
    <tag k="created_by" v="Potlatch 0.10f"/>
    <tag k="location" v="underground"/>
    <tag k="man_made" v="pipeline"/>
    <tag k="note" v="genaue Lage zum Weg unbekannt"/>
    <tag k="type" v="gas"/>
  </way>
  <way id="33267558" version="2" timestamp="2009-04-21T20:58:52Z" uid="6269" user="Mueck" changeset="888688">
    <nd ref="379775766"/>
    <nd ref="379775768"/>
    <nd ref="379775769"/>
    <nd ref="377762691"/>
    <nd ref="377769805"/>
    <nd ref="377771388"/>
    <nd ref="377771394"/>
    <nd ref="377771400"/>
    <nd ref="377771408"/>
    <nd ref="377771414"/>
    <tag k="created_by" v="Potlatch 0.10f"/>
    <tag k="location" v="underground"/>
    <tag k="man_made" v="pipeline"/>
    <tag k="note" v="genaue Lage zum Weg unbekannt"/>
    <tag k="type" v="gas"/>
  </way>
  <way id="33267558" version="3" timestamp="2009-04-21T20:59:56Z" uid="6269" user="Mueck" changeset="888688">
    <nd ref="379775766"/>
    <nd ref="379775768"/>
    <nd ref="379775769"/>
    <nd ref="377762691"/>
    <nd ref="377769805"/>
    <nd ref="377771388"/>
    <nd ref="377771394"/>
    <nd ref="377771400"/>
    <nd ref="377771408"/>
    <nd ref="377771414"/>
    <tag k="created_by" v="Potlatch 0.10f"/>
    <tag k="location" v="underground"/>
    <tag k="man_made" v="pipeline"/>
    <tag k="note" v="genaue Lage zum Weg unbekannt"/>
    <tag k="operator" v="Stadtwerke Karlsruhe"/>
    <tag k="type" v="gas"/>
  </way>
  <way id="33267558" version="4" timestamp="2009-04-21T21:01:44Z" uid="6269" user="Mueck" changeset="888688">
    <nd ref="379775766"/>
    <nd ref="379775768"/>
    <nd ref="379775769"/>
    <nd ref="377762691"/>
    <nd ref="377769805"/>
    <nd ref="377771388"/>
    <nd ref="379777530"/>
    <nd ref="377771394"/>
    <nd ref="377771400"/>
    <nd ref="377771408"/>
    <nd ref="377771414"/>
    <tag k="created_by" v="Potlatch 0.10f"/>
    <tag k="location" v="underground"/>
    <tag k="man_made" v="pipeline"/>
    <tag k="note" v="genaue Lage zum Weg unbekannt"/>
    <tag k="operator" v="Stadtwerke Karlsruhe"/>
    <tag k="type" v="gas"/>
  </way>
  <way id="33267558" version="5" timestamp="2009-04-21T22:22:44Z" uid="6269" user="Mueck" changeset="889898">
    <nd ref="379775766"/>
    <nd ref="379775768"/>
    <nd ref="379775769"/>
    <nd ref="377762691"/>
    <nd ref="377769805"/>
    <nd ref="377771388"/>
    <nd ref="379777530"/>
    <nd ref="377771394"/>
    <nd ref="377771400"/>
    <nd ref="377771408"/>
    <nd ref="377771414"/>
    <nd ref="379900117"/>
    <nd ref="379900119"/>
    <nd ref="379900120"/>
    <nd ref="379900121"/>
    <nd ref="379900122"/>
    <nd ref="379900123"/>
    <tag k="created_by" v="Potlatch 0.10f"/>
    <tag k="location" v="underground"/>
    <tag k="man_made" v="pipeline"/>
    <tag k="note" v="genaue Lage zum Weg unbekannt"/>
    <tag k="operator" v="Stadtwerke Karlsruhe"/>
    <tag k="type" v="gas"/>
  </way>
  <way id="33267558" version="6" timestamp="2009-04-21T22:54:56Z" uid="6269" user="Mueck" changeset="889898">
    <nd ref="379775766"/>
    <nd ref="379775768"/>
    <nd ref="379775769"/>
    <nd ref="377762691"/>
    <nd ref="377769805"/>
    <nd ref="377771388"/>
    <nd ref="379777530"/>
    <nd ref="377771394"/>
    <nd ref="377771400"/>
    <nd ref="377771408"/>
    <nd ref="377771414"/>
    <nd ref="379900117"/>
    <nd ref="379900119"/>
    <nd ref="379900120"/>
    <nd ref="379900121"/>
    <nd ref="379900122"/>
    <nd ref="379900123"/>
    <nd ref="379971232"/>
    <nd ref="379971235"/>
    <nd ref="379971237"/>
    <nd ref="379971239"/>
    <tag k="created_by" v="Potlatch 0.10f"/>
    <tag k="location" v="underground"/>
    <tag k="man_made" v="pipeline"/>
    <tag k="note" v="genaue Lage zum Weg unbekannt"/>
    <tag k="operator" v="Stadtwerke Karlsruhe"/>
    <tag k="type" v="gas"/>
  </way>
  <way id="33267627" version="1" timestamp="2009-04-16T10:02:43Z" uid="6269" user="Mueck" changeset="584280">
    <nd ref="377769805"/>
    <nd ref="377771388"/>
    <nd ref="377771394"/>
    <nd ref="377771400"/>
    <nd ref="377771408"/>
    <nd ref="377771414"/>
    <tag k="created_by" v="Potlatch 0.10f"/>
    <tag k="location" v="underground"/>
    <tag k="man_made" v="pipeline"/>
    <tag k="note" v="genaue Lage zum Weg unbekannt"/>
    <tag k="type" v="gas"/>
  </way>
  <way id="33267627" version="2" timestamp="2009-04-21T20:58:53Z" uid="6269" user="Mueck" changeset="888688"/>
  <way id="33267637" version="1" timestamp="2009-04-16T10:02:56Z" uid="6269" user="Mueck" changeset="584280">
    <nd ref="377762691"/>
    <nd ref="377762699"/>
    <nd ref="377762706"/>
    <nd ref="377762710"/>
    <nd ref="377762717"/>
    <nd ref="377762721"/>
    <nd ref="377762726"/>
    <tag k="created_by" v="Potlatch 0.10f"/>
    <tag k="location" v="underground"/>
    <tag k="man_made" v="pipeline"/>
    <tag k="note" v="genaue Lage zum Weg unbekannt"/>
    <tag k="type" v="gas"/>
  </way>
  <way id="33267637" version="2" timestamp="2009-04-16T10:03:13Z" uid="6269" user="Mueck" changeset="584280">
    <nd ref="377762691"/>
    <nd ref="377762699"/>
    <nd ref="377762706"/>
    <nd ref="377762710"/>
    <nd ref="377762717"/>
    <nd ref="377762721"/>
    <nd ref="377762726"/>
    <tag k="created_by" v="Potlatch 0.10f"/>
    <tag k="location" v="underground"/>
    <tag k="man_made" v="pipeline"/>
    <tag k="note" v="nochmal prüfen..."/>
    <tag k="type" v="gas"/>
  </way>
  <way id="33267637" version="3" timestamp="2009-04-21T21:00:12Z" uid="6269" user="Mueck" changeset="888688">
    <nd ref="377762691"/>
    <nd ref="377762699"/>
    <nd ref="377762706"/>
    <nd ref="377762710"/>
    <nd ref="377762717"/>
    <nd ref="377762721"/>
    <nd ref="377762726"/>
    <tag k="created_by" v="Potlatch 0.10f"/>
    <tag k="location" v="underground"/>
    <tag k="man_made" v="pipeline"/>
    <tag k="note" v="genaue Lage zum Weg unbekannt"/>
    <tag k="operator" v="Stadtwerke Karlsruhe"/>
    <tag k="type" v="gas"/>
  </way>
  <way id="33267637" version="4" timestamp="2009-04-26T11:07:37Z" uid="6269" user="Mueck" changeset="972178">
    <nd ref="377762691"/>
    <nd ref="377762699"/>
    <nd ref="377762706"/>
    <nd ref="377762710"/>
    <nd ref="377762717"/>
    <nd ref="377762726"/>
    <tag k="created_by" v="Potlatch 0.10f"/>
    <tag k="location" v="underground"/>
    <tag k="man_made" v="pipeline"/>
    <tag k="note" v="genaue Lage zum Weg unbekannt"/>
    <tag k="operator" v="Stadtwerke Karlsruhe"/>
    <tag k="type" v="gas"/>
  </way>
  <way id="33267746" version="1" timestamp="2009-04-16T10:06:21Z" uid="64269" user="Triffnix" changeset="590204">
    <nd ref="299219261"/>
    <nd ref="299219262"/>
    <nd ref="299219263"/>
    <nd ref="299219264"/>
    <nd ref="299219266"/>
    <nd ref="299219267"/>
    <nd ref="299219268"/>
    <tag k="access" v="yes"/>
    <tag k="highway" v="residential"/>
    <tag k="maxspeed" v="30"/>
    <tag k="name" v="Eckstraße"/>
    <tag k="surface" v="paved"/>
  </way>
  <way id="33267746" version="2" timestamp="2009-06-13T12:42:10Z" uid="64269" user="Triffnix" changeset="1504373">
    <nd ref="299219261"/>
    <nd ref="299219262"/>
    <nd ref="299219263"/>
    <nd ref="299219264"/>
    <nd ref="299219266"/>
    <nd ref="299219267"/>
    <nd ref="299219268"/>
    <tag k="access" v="yes"/>
    <tag k="highway" v="residential"/>
    <tag k="maxspeed" v="30"/>
    <tag k="name" v="Eckstraße"/>
    <tag k="source" v="survey"/>
    <tag k="surface" v="paved"/>
  </way>
  <way id="33267749" version="1" timestamp="2009-04-16T10:06:23Z" uid="64269" user="Triffnix" changeset="590204">
    <nd ref="299219264"/>
    <nd ref="377773878"/>
    <nd ref="377773887"/>
    <nd ref="377773894"/>
    <nd ref="377773899"/>
    <nd ref="377773904"/>
    <nd ref="377773909"/>
    <tag k="highway" v="residential"/>
    <tag k="name" v="Eckstraße"/>
    <tag k="surface" v="paved"/>
  </way>
  <way id="33267749" version="2" timestamp="2009-06-13T12:42:11Z" uid="64269" user="Triffnix" changeset="1504373">
    <nd ref="299219264"/>
    <nd ref="377773878"/>
    <nd ref="377773887"/>
    <nd ref="377773894"/>
    <nd ref="377773899"/>
    <nd ref="377773904"/>
    <nd ref="377773909"/>
    <tag k="highway" v="residential"/>
    <tag k="name" v="Eckstraße"/>
    <tag k="source" v="survey"/>
    <tag k="surface" v="paved"/>
  </way>
  <way id="33267751" version="1" timestamp="2009-04-16T10:06:24Z" uid="64269" user="Triffnix" changeset="590204">
    <nd ref="377773913"/>
    <nd ref="377773919"/>
    <nd ref="377773924"/>
    <tag k="highway" v="residential"/>
    <tag k="name" v="An der Halde"/>
    <tag k="surface" v="paved"/>
  </way>
  <way id="33267751" version="2" timestamp="2009-06-13T12:42:10Z" uid="64269" user="Triffnix" changeset="1504373">
    <nd ref="377773913"/>
    <nd ref="377773919"/>
    <nd ref="377773924"/>
    <tag k="highway" v="residential"/>
    <tag k="name" v="An der Halde"/>
    <tag k="source" v="survey"/>
    <tag k="surface" v="paved"/>
  </way>
  <way id="33267752" version="1" timestamp="2009-04-16T10:06:25Z" uid="64269" user="Triffnix" changeset="590204">
    <nd ref="299219266"/>
    <nd ref="377773957"/>
    <nd ref="377773953"/>
    <tag k="highway" v="residential"/>
    <tag k="name" v="Wendelinusweg"/>
    <tag k="surface" v="paved"/>
  </way>
  <way id="33267752" version="2" timestamp="2009-04-22T14:54:41Z" uid="64269" user="Triffnix" changeset="900088">
    <nd ref="299219266"/>
    <nd ref="377773957"/>
    <nd ref="377773953"/>
    <nd ref="380623211"/>
    <nd ref="380623215"/>
    <tag k="highway" v="residential"/>
    <tag k="name" v="Wendelinusweg"/>
    <tag k="surface" v="paved"/>
  </way>
  <way id="33267752" version="3" timestamp="2009-06-13T12:42:11Z" uid="64269" user="Triffnix" changeset="1504373">
    <nd ref="299219266"/>
    <nd ref="377773957"/>
    <nd ref="377773953"/>
    <nd ref="380623211"/>
    <nd ref="380623215"/>
    <tag k="highway" v="residential"/>
    <tag k="name" v="Wendelinusweg"/>
    <tag k="source" v="survey"/>
    <tag k="surface" v="paved"/>
  </way>
  <way id="33267755" version="1" timestamp="2009-04-16T10:06:26Z" uid="64269" user="Triffnix" changeset="590204">
    <nd ref="377773957"/>
    <nd ref="377773963"/>
    <tag k="highway" v="residential"/>
    <tag k="name" v="Wendelinusweg"/>
    <tag k="surface" v="paved"/>
  </way>
  <way id="33267755" version="2" timestamp="2009-06-13T12:42:11Z" uid="64269" user="Triffnix" changeset="1504373">
    <nd ref="377773957"/>
    <nd ref="377773963"/>
    <tag k="highway" v="residential"/>
    <tag k="name" v="Wendelinusweg"/>
    <tag k="source" v="survey"/>
    <tag k="surface" v="paved"/>
  </way>
  <way id="33267758" version="1" timestamp="2009-04-16T10:06:28Z" uid="64269" user="Triffnix" changeset="590204">
    <nd ref="377773979"/>
    <nd ref="193617749"/>
    <nd ref="377773973"/>
    <nd ref="193617744"/>
    <nd ref="193617716"/>
    <nd ref="193617704"/>
    <nd ref="306662023"/>
    <nd ref="193617693"/>
    <nd ref="193617688"/>
    <nd ref="193617675"/>
    <tag k="created_by" v="Potlatch 0.10b"/>
    <tag k="highway" v="primary"/>
    <tag k="maxspeed" v="50"/>
    <tag k="ref" v="B 294"/>
  </way>
  <way id="33267760" version="1" timestamp="2009-04-16T10:06:29Z" uid="64269" user="Triffnix" changeset="590204">
    <nd ref="377773985"/>
    <nd ref="377773979"/>
    <tag k="bridge" v="yes"/>
    <tag k="created_by" v="Potlatch 0.10b"/>
    <tag k="highway" v="primary"/>
    <tag k="layer" v="1"/>
    <tag k="maxspeed" v="50"/>
    <tag k="ref" v="B 294"/>
  </way>
  <way id="33267763" version="1" timestamp="2009-04-16T10:06:30Z" uid="64269" user="Triffnix" changeset="590204">
    <nd ref="193617744"/>
    <nd ref="377773997"/>
    <nd ref="377774005"/>
    <nd ref="377774014"/>
    <nd ref="377773913"/>
    <nd ref="377774023"/>
    <nd ref="377774031"/>
    <nd ref="377774040"/>
    <nd ref="377774048"/>
    <nd ref="377774056"/>
    <tag k="highway" v="residential"/>
    <tag k="name" v="Hauptstraße"/>
    <tag k="surface" v="paved"/>
  </way>
  <way id="33267763" version="2" timestamp="2009-06-13T12:42:11Z" uid="64269" user="Triffnix" changeset="1504373">
    <nd ref="193617744"/>
    <nd ref="377773997"/>
    <nd ref="377774005"/>
    <nd ref="377774014"/>
    <nd ref="377773913"/>
    <nd ref="377774023"/>
    <nd ref="377774031"/>
    <nd ref="377774040"/>
    <nd ref="377774048"/>
    <nd ref="377774056"/>
    <tag k="highway" v="residential"/>
    <tag k="name" v="Hauptstraße"/>
    <tag k="source" v="survey"/>
    <tag k="surface" v="paved"/>
  </way>
  <way id="33267764" version="1" timestamp="2009-04-16T10:06:31Z" uid="64269" user="Triffnix" changeset="590204">
    <nd ref="377773924"/>
    <nd ref="377773932"/>
    <tag k="bridge" v="yes"/>
    <tag k="highway" v="residential"/>
    <tag k="layer" v="1"/>
    <tag k="name" v="An der Halde"/>
    <tag k="surface" v="paved"/>
  </way>
  <way id="33267764" version="2" timestamp="2009-06-13T12:42:13Z" uid="64269" user="Triffnix" changeset="1504373">
    <nd ref="377773924"/>
    <nd ref="377773932"/>
    <tag k="bridge" v="yes"/>
    <tag k="highway" v="residential"/>
    <tag k="layer" v="1"/>
    <tag k="name" v="An der Halde"/>
    <tag k="source" v="survey"/>
    <tag k="surface" v="paved"/>
  </way>
  <way id="33267766" version="1" timestamp="2009-04-16T10:06:32Z" uid="64269" user="Triffnix" changeset="590204">
    <nd ref="377773932"/>
    <nd ref="377773935"/>
    <nd ref="377773939"/>
    <nd ref="377773943"/>
    <nd ref="377773947"/>
    <nd ref="377773909"/>
    <tag k="highway" v="residential"/>
    <tag k="name" v="An der Halde"/>
    <tag k="surface" v="paved"/>
  </way>
  <way id="33267766" version="2" timestamp="2009-06-13T12:42:12Z" uid="64269" user="Triffnix" changeset="1504373">
    <nd ref="377773932"/>
    <nd ref="377773935"/>
    <nd ref="377773939"/>
    <nd ref="377773943"/>
    <nd ref="377773947"/>
    <nd ref="377773909"/>
    <tag k="highway" v="residential"/>
    <tag k="name" v="An der Halde"/>
    <tag k="source" v="survey"/>
    <tag k="surface" v="paved"/>
  </way>
  <way id="33267941" version="1" timestamp="2009-04-16T10:10:16Z" uid="19626" user="Swamp" changeset="585896">
    <nd ref="377776651"/>
    <nd ref="377776728"/>
    <nd ref="377776767"/>
    <nd ref="377776677"/>
    <tag k="highway" v="residential"/>
    <tag k="name" v="Derry Street"/>
  </way>
  <way id="33267941" version="2" timestamp="2009-04-16T10:29:51Z" uid="19626" user="Swamp" changeset="585896">
    <nd ref="377776651"/>
    <nd ref="377800087"/>
    <nd ref="377776728"/>
    <nd ref="377776767"/>
    <nd ref="377776677"/>
    <tag k="highway" v="residential"/>
    <tag k="name" v="Derry Street"/>
    <tag k="source" v="survey"/>
  </way>
  <way id="33267942" version="1" timestamp="2009-04-16T10:10:19Z" uid="19626" user="Swamp" changeset="585896">
    <nd ref="377776686"/>
    <nd ref="377776759"/>
    <nd ref="377776677"/>
  </way>
  <way id="33267942" version="2" timestamp="2009-04-16T10:15:37Z" uid="19626" user="Swamp" changeset="585896">
    <nd ref="377776686"/>
    <nd ref="377776759"/>
    <nd ref="377780911"/>
    <nd ref="377776677"/>
    <tag k="highway" v="residential"/>
    <tag k="name" v="Bishop Street"/>
  </way>
  <way id="33267942" version="3" timestamp="2009-04-16T10:29:53Z" uid="19626" user="Swamp" changeset="585896">
    <nd ref="377776686"/>
    <nd ref="377799879"/>
    <tag k="highway" v="residential"/>
    <tag k="name" v="Bishop Street"/>
    <tag k="surface" v="unpaved"/>
  </way>
  <way id="33267942" version="4" timestamp="2010-12-20T13:02:19Z" uid="19626" user="Swamp" changeset="6715772"/>
  <way id="33267943" version="1" timestamp="2009-04-16T10:10:22Z" uid="19626" user="Swamp" changeset="585896">
    <nd ref="377776705"/>
    <nd ref="377776686"/>
  </way>
  <way id="33267943" version="2" timestamp="2009-04-16T10:15:39Z" uid="19626" user="Swamp" changeset="585896">
    <nd ref="377776705"/>
    <nd ref="377776686"/>
    <tag k="highway" v="residential"/>
    <tag k="name" v="Hill Street"/>
  </way>
  <way id="33267943" version="3" timestamp="2009-04-16T10:29:54Z" uid="19626" user="Swamp" changeset="585896">
    <nd ref="377776686"/>
    <nd ref="377776705"/>
    <nd ref="377799914"/>
    <nd ref="206220925"/>
    <tag k="highway" v="residential"/>
    <tag k="name" v="Hill Street"/>
    <tag k="source" v="survey"/>
    <tag k="surface" v="unpaved"/>
  </way>
  <way id="33267945" version="1" timestamp="2009-04-16T10:10:25Z" uid="19626" user="Swamp" changeset="585896">
    <nd ref="377776677"/>
    <nd ref="377776718"/>
  </way>
  <way id="33267945" version="2" timestamp="2009-04-16T10:36:06Z" uid="19626" user="Swamp" changeset="585896">
    <nd ref="377776677"/>
    <nd ref="377776718"/>
    <tag k="source" v="gps fix/landsat"/>
    <tag k="surface" v="unpaved"/>
  </way>
  <way id="33267946" version="1" timestamp="2009-04-16T10:10:27Z" uid="19626" user="Swamp" changeset="585896">
    <nd ref="377776728"/>
    <nd ref="377776740"/>
    <nd ref="377776705"/>
    <tag k="highway" v="residential"/>
    <tag k="name" v="Hannah Street"/>
  </way>
  <way id="33267946" version="2" timestamp="2009-04-16T10:15:41Z" uid="19626" user="Swamp" changeset="585896">
    <nd ref="377776728"/>
    <nd ref="377781019"/>
    <nd ref="377780961"/>
    <nd ref="377776740"/>
    <nd ref="377776705"/>
    <tag k="highway" v="residential"/>
    <tag k="name" v="Hannah Street"/>
  </way>
  <way id="33267946" version="3" timestamp="2009-04-16T10:29:55Z" uid="19626" user="Swamp" changeset="585896">
    <nd ref="377776728"/>
    <nd ref="377781019"/>
    <nd ref="377780961"/>
    <nd ref="377776740"/>
    <nd ref="377799818"/>
    <nd ref="377776705"/>
    <tag k="highway" v="residential"/>
    <tag k="name" v="Hannah Street"/>
    <tag k="source" v="survey"/>
  </way>
  <way id="33267946" version="4" timestamp="2009-04-16T10:36:07Z" uid="19626" user="Swamp" changeset="585896">
    <nd ref="377776728"/>
    <nd ref="377781019"/>
    <nd ref="377780961"/>
    <nd ref="377776740"/>
    <nd ref="377799818"/>
    <nd ref="377776705"/>
    <tag k="highway" v="residential"/>
    <tag k="name" v="Hannah Street"/>
    <tag k="source" v="survey"/>
  </way>
  <way id="33267949" version="1" timestamp="2009-04-16T10:10:30Z" uid="19626" user="Swamp" changeset="585896">
    <nd ref="377776740"/>
    <nd ref="377776748"/>
    <nd ref="377776759"/>
    <tag k="highway" v="residential"/>
    <tag k="name" v="Spring Street"/>
  </way>
  <way id="33267949" version="2" timestamp="2009-04-16T10:29:57Z" uid="19626" user="Swamp" changeset="585896">
    <nd ref="377776740"/>
    <nd ref="377776748"/>
    <nd ref="377776759"/>
    <tag k="highway" v="residential"/>
    <tag k="name" v="Spring Street"/>
    <tag k="source" v="survey"/>
  </way>
  <way id="33267950" version="1" timestamp="2009-04-16T10:10:32Z" uid="19626" user="Swamp" changeset="585896">
    <nd ref="377776748"/>
    <nd ref="377776767"/>
    <tag k="highway" v="residential"/>
    <tag k="name" v="Deacon Street"/>
  </way>
  <way id="33267950" version="2" timestamp="2009-04-16T10:15:44Z" uid="19626" user="Swamp" changeset="585896">
    <nd ref="377776748"/>
    <nd ref="377780936"/>
    <nd ref="377780986"/>
    <nd ref="377776767"/>
    <tag k="highway" v="residential"/>
    <tag k="name" v="Deacon Street"/>
  </way>
  <way id="33267950" version="3" timestamp="2009-04-16T10:29:58Z" uid="19626" user="Swamp" changeset="585896">
    <nd ref="377776748"/>
    <nd ref="377780936"/>
    <nd ref="377780986"/>
    <nd ref="377776767"/>
    <tag k="highway" v="residential"/>
    <tag k="name" v="Deacon Street"/>
    <tag k="source" v="survey"/>
  </way>
</osm>
