<?xml version='1.0' encoding='UTF-8'?>
<osm version="0.6" generator="libosmium/2.20.0">
  <way id="33268025" version="1" timestamp="2009-04-16T10:13:48Z" uid="64269" user="Triffnix" changeset="590204">
    <nd ref="377779072"/>
    <nd ref="377779083"/>
    <nd ref="377779092"/>
    <nd ref="377779100"/>
    <nd ref="377779109"/>
    <nd ref="377779123"/>
    <nd ref="320974562"/>
    <tag k="name" v="Elz"/>
    <tag k="waterway" v="river"/>
  </way>
  <way id="33268025" version="2" timestamp="2009-04-16T10:14:09Z" uid="64269" user="Triffnix" changeset="590204">
    <nd ref="377779072"/>
    <nd ref="377779083"/>
    <nd ref="377779092"/>
    <nd ref="377779100"/>
    <nd ref="377779109"/>
    <nd ref="377779123"/>
    <nd ref="320974562"/>
    <tag k="source" v="knowledge"/>
    <tag k="waterway" v="river"/>
  </way>
  <way id="33268052" version="2" timestamp="2010-06-08T16:53:05Z" uid="9581" user="Lobelt" changeset="4938634">
    <nd ref="377779542"/>
    <nd ref="377779548"/>
    <nd ref="377779554"/>
    <nd ref="377779560"/>
    <nd ref="377779542"/>
    <tag k="historic" v="ruins"/>
    <tag k="name" v="ehem. Startbahn"/>
  </way>
  <way id="33268104" version="1" timestamp="2009-04-16T10:15:30Z" uid="19626" user="Swamp" changeset="585896">
    <nd ref="377780911"/>
    <nd ref="377780936"/>
    <nd ref="377780961"/>
    <tag k="highway" v="residential"/>
    <tag k="name" v="Cave Street"/>
  </way>
  <way id="33268104" version="2" timestamp="2009-04-16T10:29:59Z" uid="19626" user="Swamp" changeset="585896">
    <nd ref="377780911"/>
    <nd ref="377780936"/>
    <tag k="highway" v="residential"/>
    <tag k="name" v="Cave Street"/>
  </way>
  <way id="33268104" version="3" timestamp="2010-12-20T13:02:17Z" uid="19626" user="Swamp" changeset="6715772">
    <nd ref="377780911"/>
    <nd ref="377780936"/>
    <nd ref="377780961"/>
    <tag k="highway" v="residential"/>
    <tag k="name" v="Cave Street"/>
    <tag k="source" v="survey"/>
    <tag k="surface" v="unpaved"/>
  </way>
  <way id="33268107" version="1" timestamp="2009-04-16T10:15:32Z" uid="19626" user="Swamp" changeset="585896">
    <nd ref="377780986"/>
    <nd ref="377781019"/>
    <nd ref="377781054"/>
    <tag k="highway" v="residential"/>
    <tag k="name" v="Moore Street"/>
  </way>
  <way id="33268107" version="2" timestamp="2009-04-16T10:30:00Z" uid="19626" user="Swamp" changeset="585896">
    <nd ref="377799790"/>
    <nd ref="377780986"/>
    <nd ref="377781019"/>
    <nd ref="377800048"/>
    <nd ref="377781054"/>
    <tag k="highway" v="residential"/>
    <tag k="name" v="Moore Street"/>
    <tag k="source" v="survey"/>
  </way>
  <way id="33268688" version="3" timestamp="2010-06-22T17:49:46Z" uid="33382" user="de_muur" changeset="5053081">
    <nd ref="271668567"/>
    <nd ref="271668568"/>
    <nd ref="271668569"/>
    <nd ref="271668570"/>
    <nd ref="271668571"/>
    <tag k="highway" v="unclassified"/>
    <tag k="name" v="Deichstraße"/>
    <tag k="surface" v="concrete"/>
  </way>
  <way id="33268696" version="2" timestamp="2009-07-24T12:38:16Z" uid="7617" user="Franc" changeset="1924982">
    <nd ref="377799290"/>
    <nd ref="377799305"/>
    <tag k="bicycle" v="permissive"/>
    <tag k="highway" v="footway"/>
    <tag k="source" v="survey"/>
  </way>
  <way id="33268698" version="2" timestamp="2009-07-24T12:38:16Z" uid="7617" user="Franc" changeset="1924982">
    <nd ref="377799305"/>
    <nd ref="377799322"/>
    <nd ref="377799344"/>
    <nd ref="377799367"/>
    <tag k="bicycle" v="permissive"/>
    <tag k="highway" v="footway"/>
    <tag k="source" v="survey"/>
    <tag k="tunnel" v="yes"/>
  </way>
  <way id="33268698" version="3" timestamp="2009-12-07T06:18:30Z" uid="30201" user="rrankin" changeset="3312688">
    <nd ref="377799305"/>
    <nd ref="377799322"/>
    <nd ref="377799344"/>
    <nd ref="377799367"/>
    <tag k="bicycle" v="permissive"/>
    <tag k="highway" v="footway"/>
    <tag k="layer" v="-1"/>
    <tag k="source" v="survey"/>
    <tag k="tunnel" v="yes"/>
  </way>
  <way id="33268699" version="2" timestamp="2009-07-24T12:38:16Z" uid="7617" user="Franc" changeset="1924982">
    <nd ref="377799367"/>
    <nd ref="377799389"/>
    <nd ref="377799419"/>
    <tag k="bicycle" v="permissive"/>
    <tag k="highway" v="footway"/>
    <tag k="source" v="survey"/>
  </way>
  <way id="33268704" version="4" timestamp="2011-02-22T08:45:24Z" uid="20587" user="balrog-kun" changeset="7361212">
    <nd ref="377746115"/>
    <nd ref="377820587"/>
    <nd ref="377820565"/>
    <nd ref="377820544"/>
    <nd ref="377820514"/>
    <nd ref="377820487"/>
    <nd ref="377820456"/>
    <nd ref="377820427"/>
    <nd ref="377820404"/>
    <nd ref="377820387"/>
    <nd ref="377820366"/>
    <nd ref="377820335"/>
    <nd ref="377799012"/>
    <nd ref="377820305"/>
    <nd ref="377799153"/>
    <nd ref="377799121"/>
    <nd ref="1166225397"/>
    <nd ref="377799139"/>
    <nd ref="1166225602"/>
    <nd ref="1166225045"/>
    <nd ref="1166226001"/>
    <tag k="barrier" v="fence;wire"/>
  </way>
  <way id="33268711" version="1" timestamp="2009-04-16T10:29:46Z" uid="19626" user="Swamp" changeset="585896">
    <nd ref="377799818"/>
    <nd ref="377799849"/>
    <nd ref="377776748"/>
    <tag k="highway" v="service"/>
    <tag k="surface" v="unpaved"/>
  </way>
  <way id="33268715" version="1" timestamp="2009-04-16T10:29:47Z" uid="19626" user="Swamp" changeset="585896">
    <nd ref="377799879"/>
    <nd ref="377776759"/>
    <nd ref="377780911"/>
    <nd ref="377776677"/>
    <tag k="highway" v="residential"/>
    <tag k="name" v="Bishop Street"/>
    <tag k="source" v="survey"/>
  </way>
  <way id="33268715" version="2" timestamp="2010-12-20T13:02:17Z" uid="19626" user="Swamp" changeset="6715772">
    <nd ref="377776686"/>
    <nd ref="377799879"/>
    <nd ref="377776759"/>
    <nd ref="377780911"/>
    <nd ref="377776677"/>
    <tag k="highway" v="residential"/>
    <tag k="name" v="Bishop Street"/>
    <tag k="source" v="survey"/>
    <tag k="surface" v="unpaved"/>
  </way>
  <way id="33268719" version="1" timestamp="2009-04-16T10:29:48Z" uid="19626" user="Swamp" changeset="585896">
    <nd ref="377780936"/>
    <nd ref="377780961"/>
    <tag k="highway" v="residential"/>
    <tag k="name" v="Cave Street"/>
    <tag k="source" v="survey"/>
    <tag k="surface" v="unpaved"/>
  </way>
  <way id="33268719" version="2" timestamp="2010-12-20T13:02:19Z" uid="19626" user="Swamp" changeset="6715772"/>
  <way id="33268721" version="1" timestamp="2009-04-16T10:29:49Z" uid="19626" user="Swamp" changeset="585896">
    <nd ref="377799914"/>
    <nd ref="377799979"/>
    <nd ref="377799943"/>
    <nd ref="377776740"/>
    <tag k="highway" v="residential"/>
    <tag k="name" v="Cowabbie Street"/>
    <tag k="source" v="survey"/>
  </way>
  <way id="33268724" version="1" timestamp="2009-04-16T10:29:50Z" uid="19626" user="Swamp" changeset="585896">
    <nd ref="377799979"/>
    <nd ref="377800013"/>
    <nd ref="377800048"/>
    <nd ref="377800087"/>
  </way>
  <way id="33268724" version="2" timestamp="2011-02-20T10:29:56Z" uid="4467" user="Rosscoe" changeset="7340456">
    <nd ref="377799979"/>
    <nd ref="377800013"/>
    <nd ref="377800048"/>
    <nd ref="377800087"/>
    <tag k="highway" v="unclassified"/>
  </way>
  <way id="33268759" version="1" timestamp="2009-04-16T10:30:43Z" uid="12188" user="Babis" changeset="578233">
    <nd ref="377802122"/>
    <nd ref="377802125"/>
    <nd ref="377802137"/>
    <nd ref="270467694"/>
    <nd ref="377802147"/>
    <nd ref="377802151"/>
    <nd ref="270467131"/>
    <nd ref="377802154"/>
    <tag k="created_by" v="Potlatch 0.10f"/>
    <tag k="highway" v="residential"/>
    <tag k="name" v="Μεγ. Αλεξάνδρου"/>
    <tag k="name:en" v="Meg. Alexandrou"/>
    <tag k="source" v="Yahoo"/>
  </way>
  <way id="33268807" version="1" timestamp="2009-04-16T10:32:23Z" uid="12188" user="Babis" changeset="578233">
    <nd ref="377805116"/>
    <nd ref="270467132"/>
    <tag k="created_by" v="Potlatch 0.10f"/>
    <tag k="highway" v="residential"/>
    <tag k="source" v="Yahoo"/>
  </way>
  <way id="33268842" version="1" timestamp="2009-04-16T10:33:20Z" uid="12188" user="Babis" changeset="578233">
    <nd ref="377805216"/>
    <nd ref="270467130"/>
    <tag k="created_by" v="Potlatch 0.10f"/>
    <tag k="highway" v="residential"/>
    <tag k="name" v="Μιλτιάδου"/>
    <tag k="name:en" v="Miltiadou"/>
    <tag k="source" v="Yahoo"/>
  </way>
  <way id="33268849" version="3" timestamp="2010-06-22T15:00:45Z" uid="33382" user="de_muur" changeset="5051832">
    <nd ref="296433529"/>
    <nd ref="296433531"/>
    <nd ref="296433533"/>
    <nd ref="296433535"/>
    <tag k="highway" v="residential"/>
    <tag k="maxspeed" v="50"/>
    <tag k="name" v="Schulstraße"/>
    <tag k="surface" v="paved"/>
  </way>
  <way id="33268850" version="3" timestamp="2010-06-22T15:00:51Z" uid="33382" user="de_muur" changeset="5051832">
    <nd ref="296433535"/>
    <nd ref="296433537"/>
    <nd ref="359110960"/>
    <nd ref="378379023"/>
    <nd ref="296433538"/>
    <nd ref="31196642"/>
    <tag k="highway" v="residential"/>
    <tag k="name" v="Schulstraße"/>
  </way>
  <way id="33268883" version="1" timestamp="2009-04-16T10:34:27Z" uid="12188" user="Babis" changeset="578233">
    <nd ref="377808367"/>
    <nd ref="270467129"/>
    <nd ref="377808369"/>
    <tag k="created_by" v="Potlatch 0.10f"/>
    <tag k="highway" v="residential"/>
    <tag k="name" v="Αριστοφάνους"/>
    <tag k="name:en" v="Aristofanous"/>
    <tag k="source" v="Yahoo"/>
  </way>
  <way id="33268939" version="1" timestamp="2009-04-16T10:35:58Z" uid="19626" user="Swamp" changeset="585896">
    <nd ref="377810405"/>
    <nd ref="377810426"/>
    <tag k="highway" v="residential"/>
    <tag k="name" v="Showground Road"/>
  </way>
  <way id="33268941" version="1" timestamp="2009-04-16T10:35:59Z" uid="19626" user="Swamp" changeset="585896">
    <nd ref="377776705"/>
    <nd ref="377810458"/>
    <tag k="highway" v="unclassified"/>
    <tag k="maxspeed" v="100"/>
    <tag k="name" v="Ashbridge Road"/>
    <tag k="source" v="gps fix/landsat"/>
  </way>
</osm>
