<?xml version='1.0' encoding='UTF-8'?>
<osm version="0.6" generator="libosmium/2.20.0">
  <way id="33271070" version="1" timestamp="2009-04-16T11:34:51Z" uid="19626" user="Swamp" changeset="585896">
    <nd ref="377875239"/>
    <nd ref="377875252"/>
    <nd ref="377875268"/>
    <nd ref="377875284"/>
    <nd ref="377875289"/>
    <nd ref="377875305"/>
    <nd ref="377875239"/>
    <tag k="leisure" v="golf_course"/>
  </way>
  <way id="33271074" version="3" timestamp="2009-08-11T00:40:21Z" uid="74617" user="JohnSmith" changeset="2103811">
    <nd ref="377872890"/>
    <nd ref="377876243"/>
    <tag k="highway" v="residential"/>
    <tag k="source" v="Yahoo"/>
  </way>
  <way id="33271074" version="4" timestamp="2010-04-13T19:15:41Z" uid="74617" user="JohnSmith" changeset="4416222">
    <nd ref="377872890"/>
    <nd ref="695726255"/>
    <nd ref="695726259"/>
    <nd ref="377876243"/>
    <tag k="highway" v="residential"/>
    <tag k="source" v="Yahoo"/>
  </way>
  <way id="33271153" version="2" timestamp="2010-07-08T19:55:55Z" uid="74617" user="JohnSmith" changeset="5168730">
    <nd ref="377877240"/>
    <nd ref="377877334"/>
    <tag k="highway" v="residential"/>
    <tag k="maxspeed" v="50"/>
    <tag k="maxspeed:source" v="default residential speed limit in Australia"/>
    <tag k="name" v="Savige Street"/>
    <tag k="source" v="Yahoo"/>
    <tag k="source:name" v="survey"/>
  </way>
  <way id="33271726" version="1" timestamp="2009-04-16T11:44:30Z" uid="117265" user="Patrick Trettenbrein" changeset="576454">
    <nd ref="377885929"/>
    <nd ref="377886133"/>
    <tag k="created_by" v="Potlatch 0.10f"/>
  </way>
  <way id="33271726" version="2" timestamp="2009-04-16T11:44:42Z" uid="117265" user="Patrick Trettenbrein" changeset="576454">
    <nd ref="377885929"/>
    <nd ref="377886133"/>
    <tag k="addr:postcode" v="8720"/>
    <tag k="at:maxspeed" v="Ortsgebiet"/>
    <tag k="created_by" v="Potlatch 0.10f"/>
    <tag k="fixme" v="check import"/>
    <tag k="highway" v="residential"/>
    <tag k="highway:plan.at:kf" v="residential"/>
    <tag k="is_in" v="Spielberg,Bezirk Knittelfeld,Steiermark,Österreich,Europa"/>
    <tag k="name" v="Poststraße"/>
    <tag k="note" v="imported from plan.at; (C)=CC-by-sa or oDBL; feel free to change if necessary"/>
    <tag k="plan_at:acad_id" v="kf8F52"/>
    <tag k="source" v="plan.at 2009"/>
    <tag k="uploaded_by" v="Wolfgang W. Wasserburger"/>
  </way>
  <way id="33271726" version="3" timestamp="2009-04-16T11:45:24Z" uid="117265" user="Patrick Trettenbrein" changeset="576454">
    <nd ref="377885929"/>
    <nd ref="377886133"/>
    <tag k="addr:postcode" v="8724"/>
    <tag k="at:maxspeed" v="Ortsgebiet"/>
    <tag k="created_by" v="Potlatch 0.10f"/>
    <tag k="highway" v="residential"/>
    <tag k="is_in" v="Spielberg,Bezirk Knittelfeld,Steiermark,Österreich,Europa"/>
    <tag k="name" v="Ackergasse"/>
  </way>
  <way id="33271726" version="4" timestamp="2009-04-16T18:08:15Z" uid="117265" user="Patrick Trettenbrein" changeset="582064">
    <nd ref="377885929"/>
    <nd ref="377886133"/>
    <tag k="addr:postcode" v="8724"/>
    <tag k="at:maxspeed" v="Ortsgebiet"/>
    <tag k="created_by" v="Potlatch 0.10f"/>
    <tag k="highway" v="residential"/>
    <tag k="is_in" v="Spielberg,Bezirk Knittelfeld,Steiermark,Österreich,Europa"/>
    <tag k="name" v="Ackergasse"/>
  </way>
  <way id="33271726" version="5" timestamp="2009-04-16T18:08:40Z" uid="117265" user="Patrick Trettenbrein" changeset="582064">
    <nd ref="377885929"/>
    <nd ref="378247740"/>
    <nd ref="377886133"/>
    <tag k="addr:postcode" v="8724"/>
    <tag k="at:maxspeed" v="Ortsgebiet"/>
    <tag k="created_by" v="Potlatch 0.10f"/>
    <tag k="highway" v="residential"/>
    <tag k="is_in" v="Spielberg,Bezirk Knittelfeld,Steiermark,Österreich,Europa"/>
    <tag k="name" v="Ackergasse"/>
  </way>
  <way id="33271726" version="6" timestamp="2009-04-16T18:08:52Z" uid="117265" user="Patrick Trettenbrein" changeset="582064">
    <nd ref="377885929"/>
    <nd ref="378247793"/>
    <nd ref="377886133"/>
    <tag k="addr:postcode" v="8724"/>
    <tag k="at:maxspeed" v="Ortsgebiet"/>
    <tag k="created_by" v="Potlatch 0.10f"/>
    <tag k="highway" v="residential"/>
    <tag k="is_in" v="Spielberg,Bezirk Knittelfeld,Steiermark,Österreich,Europa"/>
    <tag k="name" v="Ackergasse"/>
  </way>
  <way id="33271726" version="7" timestamp="2009-04-16T18:09:04Z" uid="117265" user="Patrick Trettenbrein" changeset="582064">
    <nd ref="377885929"/>
    <nd ref="377886133"/>
    <tag k="addr:postcode" v="8724"/>
    <tag k="at:maxspeed" v="Ortsgebiet"/>
    <tag k="created_by" v="Potlatch 0.10f"/>
    <tag k="highway" v="residential"/>
    <tag k="is_in" v="Spielberg,Bezirk Knittelfeld,Steiermark,Österreich,Europa"/>
    <tag k="name" v="Ackergasse"/>
  </way>
  <way id="33271726" version="8" timestamp="2009-04-16T18:09:07Z" uid="117265" user="Patrick Trettenbrein" changeset="582064">
    <nd ref="377885929"/>
    <nd ref="378247879"/>
    <nd ref="377886133"/>
    <tag k="addr:postcode" v="8724"/>
    <tag k="at:maxspeed" v="Ortsgebiet"/>
    <tag k="created_by" v="Potlatch 0.10f"/>
    <tag k="highway" v="residential"/>
    <tag k="is_in" v="Spielberg,Bezirk Knittelfeld,Steiermark,Österreich,Europa"/>
    <tag k="name" v="Ackergasse"/>
  </way>
  <way id="33271726" version="9" timestamp="2009-04-16T18:09:20Z" uid="117265" user="Patrick Trettenbrein" changeset="582064">
    <nd ref="377885929"/>
    <nd ref="378247879"/>
    <tag k="addr:postcode" v="8724"/>
    <tag k="at:maxspeed" v="Ortsgebiet"/>
    <tag k="created_by" v="Potlatch 0.10f"/>
    <tag k="highway" v="residential"/>
    <tag k="is_in" v="Spielberg,Bezirk Knittelfeld,Steiermark,Österreich,Europa"/>
    <tag k="name" v="Ackergasse"/>
  </way>
</osm>
