<?xml version='1.0' encoding='UTF-8'?>
<osm version="0.6" generator="libosmium/2.20.0">
  <way id="33364299" version="1" timestamp="2009-04-21T19:18:18Z" uid="61114" user="Trav" changeset="886409">
    <nd ref="379615953"/>
    <nd ref="161524249"/>
    <nd ref="161509703"/>
    <nd ref="161506491"/>
    <tag k="highway" v="residential"/>
    <tag k="name" v="Queens Parade East"/>
    <tag k="source:name" v="survey"/>
  </way>
  <way id="33364299" version="2" timestamp="2010-07-07T23:25:51Z" uid="74617" user="JohnSmith" changeset="5162525">
    <nd ref="379615953"/>
    <nd ref="161524249"/>
    <nd ref="161509703"/>
    <nd ref="161506491"/>
    <tag k="highway" v="residential"/>
    <tag k="maxspeed" v="50"/>
    <tag k="maxspeed:source" v="default residential speed limit in Australia"/>
    <tag k="name" v="Queens Parade East"/>
    <tag k="source:name" v="survey"/>
  </way>
  <way id="33364312" version="1" timestamp="2009-04-21T19:18:19Z" uid="61114" user="Trav" changeset="886409">
    <nd ref="161533419"/>
    <nd ref="161511698"/>
    <nd ref="161540315"/>
    <tag k="highway" v="residential"/>
    <tag k="name" v="The Boulevarde"/>
    <tag k="source:name" v="survey"/>
  </way>
  <way id="33364312" version="2" timestamp="2010-03-05T07:12:01Z" uid="7617" user="Franc" changeset="4038445">
    <nd ref="161533419"/>
    <nd ref="660570329"/>
    <nd ref="161511698"/>
    <nd ref="161540315"/>
    <tag k="highway" v="residential"/>
    <tag k="name" v="The Boulevarde"/>
    <tag k="source:name" v="survey"/>
  </way>
  <way id="33364312" version="3" timestamp="2010-07-07T23:24:37Z" uid="74617" user="JohnSmith" changeset="5162525">
    <nd ref="161533419"/>
    <nd ref="660570329"/>
    <nd ref="161511698"/>
    <nd ref="161540315"/>
    <tag k="highway" v="residential"/>
    <tag k="maxspeed" v="50"/>
    <tag k="maxspeed:source" v="default residential speed limit in Australia"/>
    <tag k="name" v="The Boulevarde"/>
    <tag k="source:name" v="survey"/>
  </way>
  <way id="33364362" version="1" timestamp="2009-04-21T19:18:26Z" uid="61114" user="Trav" changeset="886409">
    <nd ref="161515861"/>
    <nd ref="379616371"/>
    <tag k="highway" v="service"/>
    <tag k="name" v="Hollywood Road"/>
    <tag k="source" v="approximation"/>
    <tag k="source:name" v="survey"/>
  </way>
</osm>
