<?xml version='1.0' encoding='UTF-8'?>
<osm version="0.6" generator="libosmium/2.20.0">
  <way id="33447930" version="4" timestamp="2010-03-11T21:56:34Z" uid="30632" user="antblant" changeset="4101972">
    <nd ref="562819948"/>
    <nd ref="562819961"/>
    <nd ref="562819449"/>
    <nd ref="380600302"/>
    <nd ref="380600308"/>
    <nd ref="562819427"/>
    <nd ref="380600311"/>
    <nd ref="562819426"/>
    <nd ref="562819425"/>
    <nd ref="380600314"/>
    <nd ref="562819384"/>
    <nd ref="562819379"/>
    <nd ref="380600323"/>
    <nd ref="562819377"/>
    <nd ref="562819368"/>
    <nd ref="562819370"/>
    <tag k="highway" v="secondary"/>
    <tag k="name" v="Grunwaldzka"/>
    <tag k="ref" v="835"/>
    <tag k="source" v="UMP-PL, ./UMP-Przemysl/src/DYNOW.ulice.txt"/>
  </way>
  <way id="33447936" version="3" timestamp="2010-03-11T21:56:36Z" uid="30632" user="antblant" changeset="4101972">
    <nd ref="380600717"/>
    <nd ref="380600780"/>
    <nd ref="380600347"/>
    <tag k="highway" v="residential"/>
    <tag k="name" v="Handlowa"/>
    <tag k="source" v="UMP-PL, ./UMP-Przemysl/src/DYNOW.ulice.txt"/>
  </way>
  <way id="33447944" version="3" timestamp="2010-03-11T21:56:36Z" uid="30632" user="antblant" changeset="4101972">
    <nd ref="380600341"/>
    <nd ref="380600347"/>
    <nd ref="380600351"/>
    <tag k="highway" v="residential"/>
    <tag k="name" v="Kościuszki"/>
    <tag k="source" v="UMP-PL, ./UMP-Przemysl/src/DYNOW.ulice.txt"/>
  </way>
  <way id="33447947" version="3" timestamp="2010-03-11T21:56:34Z" uid="30632" user="antblant" changeset="4101972">
    <nd ref="380600314"/>
    <nd ref="562819890"/>
    <nd ref="562819893"/>
    <nd ref="562819907"/>
    <tag k="highway" v="residential"/>
    <tag k="name" v="Błonie"/>
    <tag k="source" v="UMP-PL, ./UMP-Przemysl/src/DYNOW.ulice.txt"/>
  </way>
  <way id="33447959" version="3" timestamp="2010-03-11T21:56:36Z" uid="30632" user="antblant" changeset="4101972">
    <nd ref="380600351"/>
    <nd ref="380600716"/>
    <tag k="highway" v="residential"/>
    <tag k="name" v="Kazimierza Wielkiego"/>
    <tag k="source" v="UMP-PL, ./UMP-Przemysl/src/DYNOW.ulice.txt"/>
  </way>
</osm>
