<?xml version='1.0' encoding='UTF-8'?>
<osm version="0.6" generator="libosmium/2.20.0">
  <way id="33468077" version="5" timestamp="2010-05-10T18:54:43Z" uid="9581" user="Lobelt" changeset="4662267">
    <nd ref="380880537"/>
    <nd ref="380880539"/>
    <nd ref="370816141"/>
    <nd ref="728773637"/>
    <nd ref="728773632"/>
    <nd ref="370816140"/>
    <nd ref="370816139"/>
    <tag k="highway" v="residential"/>
    <tag k="maxspeed" v="30"/>
    <tag k="name" v="Hardenburgstraße"/>
  </way>
  <way id="33468089" version="2" timestamp="2009-09-30T13:52:04Z" uid="36809" user="pfoten_weg_!_" changeset="2688655">
    <nd ref="380880906"/>
    <nd ref="380880908"/>
    <nd ref="380880913"/>
    <nd ref="380880916"/>
    <nd ref="380880625"/>
    <tag k="highway" v="track"/>
    <tag k="tracktype" v="grade3"/>
  </way>
  <way id="33468240" version="2" timestamp="2009-09-30T13:51:15Z" uid="36809" user="pfoten_weg_!_" changeset="2688655">
    <nd ref="380884249"/>
    <nd ref="380884251"/>
    <nd ref="380884252"/>
    <nd ref="380884254"/>
    <nd ref="380884256"/>
    <nd ref="380884258"/>
    <nd ref="380884260"/>
    <nd ref="380884262"/>
    <tag k="highway" v="track"/>
    <tag k="tracktype" v="grade3"/>
  </way>
  <way id="33468262" version="1" timestamp="2009-04-22T18:00:51Z" uid="36809" user="pfoten_weg_!_" changeset="903407">
    <nd ref="286335200"/>
    <nd ref="286335203"/>
    <nd ref="286335792"/>
    <tag k="created_by" v="RambaZamba"/>
    <tag k="highway" v="secondary"/>
    <tag k="name" v="Neurieder Straße"/>
    <tag k="oneway" v="yes"/>
    <tag k="ref" v="St 2344"/>
    <tag k="source" v="survey"/>
  </way>
  <way id="33468262" version="2" timestamp="2009-07-14T17:23:36Z" uid="36809" user="pfoten_weg_!_" changeset="1828881">
    <nd ref="286335200"/>
    <nd ref="286335203"/>
    <nd ref="286335792"/>
    <tag k="discovered_by" v="RambaZamba"/>
    <tag k="highway" v="secondary"/>
    <tag k="name" v="Neurieder Straße"/>
    <tag k="oneway" v="yes"/>
    <tag k="ref" v="St 2344"/>
    <tag k="source" v="survey"/>
  </way>
  <way id="33468262" version="4" timestamp="2009-08-28T21:03:43Z" uid="36809" user="pfoten_weg_!_" changeset="2295155">
    <nd ref="286335200"/>
    <nd ref="286335203"/>
    <nd ref="286335792"/>
    <tag k="discovered_by" v="RambaZamba"/>
    <tag k="highway" v="secondary"/>
    <tag k="name" v="Neurieder Straße"/>
    <tag k="oneway" v="yes"/>
    <tag k="ref" v="St 2344"/>
    <tag k="source" v="survey"/>
  </way>
  <way id="33468262" version="6" timestamp="2009-09-01T10:55:07Z" uid="36809" user="pfoten_weg_!_" changeset="2335754">
    <nd ref="286335200"/>
    <nd ref="286335203"/>
    <nd ref="286335792"/>
    <tag k="highway" v="secondary"/>
    <tag k="name" v="Neurieder Straße"/>
    <tag k="oneway" v="yes"/>
    <tag k="ref" v="St 2344"/>
    <tag k="source" v="survey"/>
  </way>
  <way id="33468262" version="7" timestamp="2009-10-02T18:02:31Z" uid="86259" user="hasse_osm_korinthenkacker" changeset="2715119">
    <nd ref="286335200"/>
    <nd ref="286335203"/>
    <nd ref="286335792"/>
    <tag k="highway" v="secondary"/>
    <tag k="name" v="Neurieder Straße"/>
    <tag k="oneway" v="yes"/>
    <tag k="ref" v="St 2344"/>
  </way>
  <way id="33468263" version="1" timestamp="2009-04-22T18:00:51Z" uid="36809" user="pfoten_weg_!_" changeset="903407">
    <nd ref="286335792"/>
    <nd ref="286335791"/>
    <tag k="bridge" v="yes"/>
    <tag k="created_by" v="RambaZamba"/>
    <tag k="highway" v="secondary"/>
    <tag k="layer" v="0"/>
    <tag k="name" v="Neurieder Straße"/>
    <tag k="oneway" v="yes"/>
    <tag k="source" v="survey"/>
  </way>
  <way id="33468263" version="2" timestamp="2009-05-30T23:18:17Z" uid="36809" user="pfoten_weg_!_" changeset="1364369">
    <nd ref="286335792"/>
    <nd ref="286335791"/>
    <tag k="bridge" v="yes"/>
    <tag k="created_by" v="RambaZamba"/>
    <tag k="highway" v="secondary"/>
    <tag k="layer" v="0"/>
    <tag k="name" v="Neurieder Straße"/>
    <tag k="oneway" v="yes"/>
    <tag k="ref" v="St 2344"/>
    <tag k="source" v="survey"/>
  </way>
  <way id="33468263" version="3" timestamp="2009-07-14T17:23:42Z" uid="36809" user="pfoten_weg_!_" changeset="1828881">
    <nd ref="286335792"/>
    <nd ref="286335791"/>
    <tag k="bridge" v="yes"/>
    <tag k="discovered_by" v="RambaZamba"/>
    <tag k="highway" v="secondary"/>
    <tag k="layer" v="0"/>
    <tag k="name" v="Neurieder Straße"/>
    <tag k="oneway" v="yes"/>
    <tag k="ref" v="St 2344"/>
    <tag k="source" v="survey"/>
  </way>
  <way id="33468263" version="5" timestamp="2009-08-28T20:58:01Z" uid="36809" user="pfoten_weg_!_" changeset="2295155">
    <nd ref="286335792"/>
    <nd ref="286335791"/>
    <tag k="bridge" v="yes"/>
    <tag k="discovered_by" v="RambaZamba"/>
    <tag k="highway" v="secondary"/>
    <tag k="layer" v="0"/>
    <tag k="name" v="Neurieder Straße"/>
    <tag k="oneway" v="yes"/>
    <tag k="ref" v="St 2344"/>
    <tag k="source" v="survey"/>
  </way>
  <way id="33468263" version="7" timestamp="2009-09-01T11:09:16Z" uid="36809" user="pfoten_weg_!_" changeset="2335754">
    <nd ref="286335792"/>
    <nd ref="286335791"/>
    <tag k="bridge" v="yes"/>
    <tag k="highway" v="secondary"/>
    <tag k="layer" v="0"/>
    <tag k="name" v="Neurieder Straße"/>
    <tag k="oneway" v="yes"/>
    <tag k="ref" v="St 2344"/>
    <tag k="source" v="survey"/>
  </way>
  <way id="33468263" version="8" timestamp="2009-10-02T18:02:30Z" uid="86259" user="hasse_osm_korinthenkacker" changeset="2715119">
    <nd ref="286335792"/>
    <nd ref="286335791"/>
    <tag k="bridge" v="yes"/>
    <tag k="highway" v="secondary"/>
    <tag k="layer" v="0"/>
    <tag k="name" v="Neurieder Straße"/>
    <tag k="oneway" v="yes"/>
    <tag k="ref" v="St 2344"/>
  </way>
  <way id="33468264" version="1" timestamp="2009-04-22T18:00:52Z" uid="36809" user="pfoten_weg_!_" changeset="903407">
    <nd ref="265346952"/>
    <nd ref="286335204"/>
    <tag k="bridge" v="yes"/>
    <tag k="created_by" v="RambaZamba"/>
    <tag k="highway" v="secondary"/>
    <tag k="layer" v="0"/>
    <tag k="name" v="Neurieder Straße"/>
    <tag k="oneway" v="yes"/>
    <tag k="source" v="survey"/>
  </way>
  <way id="33468264" version="2" timestamp="2009-05-30T23:18:17Z" uid="36809" user="pfoten_weg_!_" changeset="1364369">
    <nd ref="265346952"/>
    <nd ref="286335204"/>
    <tag k="bridge" v="yes"/>
    <tag k="created_by" v="RambaZamba"/>
    <tag k="highway" v="secondary"/>
    <tag k="layer" v="0"/>
    <tag k="name" v="Neurieder Straße"/>
    <tag k="oneway" v="yes"/>
    <tag k="ref" v="St 2344"/>
    <tag k="source" v="survey"/>
  </way>
  <way id="33468264" version="3" timestamp="2009-07-14T17:23:38Z" uid="36809" user="pfoten_weg_!_" changeset="1828881">
    <nd ref="265346952"/>
    <nd ref="286335204"/>
    <tag k="bridge" v="yes"/>
    <tag k="discovered_by" v="RambaZamba"/>
    <tag k="highway" v="secondary"/>
    <tag k="layer" v="0"/>
    <tag k="name" v="Neurieder Straße"/>
    <tag k="oneway" v="yes"/>
    <tag k="ref" v="St 2344"/>
    <tag k="source" v="survey"/>
  </way>
  <way id="33468264" version="5" timestamp="2009-08-28T21:11:25Z" uid="36809" user="pfoten_weg_!_" changeset="2295155">
    <nd ref="265346952"/>
    <nd ref="286335204"/>
    <tag k="bridge" v="yes"/>
    <tag k="discovered_by" v="RambaZamba"/>
    <tag k="highway" v="secondary"/>
    <tag k="layer" v="0"/>
    <tag k="name" v="Neurieder Straße"/>
    <tag k="oneway" v="yes"/>
    <tag k="ref" v="St 2344"/>
    <tag k="source" v="survey"/>
  </way>
  <way id="33468264" version="7" timestamp="2009-09-01T10:51:58Z" uid="36809" user="pfoten_weg_!_" changeset="2335754">
    <nd ref="265346952"/>
    <nd ref="286335204"/>
    <tag k="bridge" v="yes"/>
    <tag k="highway" v="secondary"/>
    <tag k="layer" v="0"/>
    <tag k="name" v="Neurieder Straße"/>
    <tag k="oneway" v="yes"/>
    <tag k="ref" v="St 2344"/>
    <tag k="source" v="survey"/>
  </way>
  <way id="33468264" version="8" timestamp="2009-10-02T18:02:25Z" uid="86259" user="hasse_osm_korinthenkacker" changeset="2715119">
    <nd ref="265346952"/>
    <nd ref="286335204"/>
    <tag k="bridge" v="yes"/>
    <tag k="highway" v="secondary"/>
    <tag k="layer" v="0"/>
    <tag k="name" v="Neurieder Straße"/>
    <tag k="oneway" v="yes"/>
    <tag k="ref" v="St 2344"/>
  </way>
  <way id="33468265" version="1" timestamp="2009-04-22T18:00:52Z" uid="36809" user="pfoten_weg_!_" changeset="903407">
    <nd ref="380884993"/>
    <nd ref="380884972"/>
    <tag k="created_by" v="RambaZamba"/>
    <tag k="cycleway" v="track"/>
    <tag k="highway" v="cycleway"/>
    <tag k="layer" v="-1"/>
    <tag k="source" v="survey"/>
  </way>
  <way id="33468265" version="3" timestamp="2009-07-14T17:23:40Z" uid="36809" user="pfoten_weg_!_" changeset="1828881">
    <nd ref="265346213"/>
    <nd ref="380884972"/>
    <tag k="cycleway" v="track"/>
    <tag k="discovered_by" v="RambaZamba"/>
    <tag k="highway" v="cycleway"/>
    <tag k="layer" v="-1"/>
    <tag k="source" v="survey"/>
  </way>
  <way id="33468265" version="5" timestamp="2009-08-28T21:09:31Z" uid="36809" user="pfoten_weg_!_" changeset="2295155">
    <nd ref="265346213"/>
    <nd ref="380884972"/>
    <tag k="cycleway" v="track"/>
    <tag k="discovered_by" v="RambaZamba"/>
    <tag k="highway" v="cycleway"/>
    <tag k="layer" v="-1"/>
    <tag k="source" v="survey"/>
  </way>
  <way id="33468265" version="7" timestamp="2009-09-01T10:46:07Z" uid="36809" user="pfoten_weg_!_" changeset="2335754">
    <nd ref="265346213"/>
    <nd ref="380884972"/>
    <tag k="cycleway" v="track"/>
    <tag k="highway" v="cycleway"/>
    <tag k="layer" v="-1"/>
    <tag k="source" v="survey"/>
  </way>
  <way id="33468265" version="8" timestamp="2009-10-02T18:02:23Z" uid="86259" user="hasse_osm_korinthenkacker" changeset="2715119">
    <nd ref="265346213"/>
    <nd ref="380884972"/>
    <tag k="cycleway" v="track"/>
    <tag k="highway" v="cycleway"/>
    <tag k="layer" v="-1"/>
  </way>
  <way id="33468266" version="1" timestamp="2009-04-22T18:00:52Z" uid="36809" user="pfoten_weg_!_" changeset="903407">
    <nd ref="380884972"/>
    <nd ref="380884996"/>
    <nd ref="380884965"/>
    <tag k="created_by" v="RambaZamba"/>
    <tag k="cycleway" v="track"/>
    <tag k="highway" v="cycleway"/>
    <tag k="layer" v="-1"/>
    <tag k="source" v="survey"/>
  </way>
  <way id="33468266" version="2" timestamp="2009-07-14T17:23:41Z" uid="36809" user="pfoten_weg_!_" changeset="1828881">
    <nd ref="380884972"/>
    <nd ref="380884996"/>
    <nd ref="380884965"/>
    <tag k="cycleway" v="track"/>
    <tag k="discovered_by" v="RambaZamba"/>
    <tag k="highway" v="cycleway"/>
    <tag k="layer" v="-1"/>
    <tag k="source" v="survey"/>
  </way>
  <way id="33468266" version="4" timestamp="2009-08-28T21:18:56Z" uid="36809" user="pfoten_weg_!_" changeset="2295155">
    <nd ref="380884972"/>
    <nd ref="380884996"/>
    <nd ref="380884965"/>
    <tag k="cycleway" v="track"/>
    <tag k="discovered_by" v="RambaZamba"/>
    <tag k="highway" v="cycleway"/>
    <tag k="layer" v="-1"/>
    <tag k="source" v="survey"/>
  </way>
  <way id="33468266" version="6" timestamp="2009-09-01T10:39:40Z" uid="36809" user="pfoten_weg_!_" changeset="2335754">
    <nd ref="380884972"/>
    <nd ref="380884996"/>
    <nd ref="380884965"/>
    <tag k="cycleway" v="track"/>
    <tag k="highway" v="cycleway"/>
    <tag k="layer" v="-1"/>
    <tag k="source" v="survey"/>
  </way>
  <way id="33468266" version="7" timestamp="2009-10-02T18:02:30Z" uid="86259" user="hasse_osm_korinthenkacker" changeset="2715119">
    <nd ref="380884972"/>
    <nd ref="380884996"/>
    <nd ref="380884965"/>
    <tag k="cycleway" v="track"/>
    <tag k="highway" v="cycleway"/>
    <tag k="layer" v="-1"/>
  </way>
  <way id="33468267" version="1" timestamp="2009-04-22T18:00:52Z" uid="36809" user="pfoten_weg_!_" changeset="903407">
    <nd ref="380884965"/>
    <nd ref="380884984"/>
    <tag k="created_by" v="RambaZamba"/>
    <tag k="cycleway" v="track"/>
    <tag k="highway" v="cycleway"/>
    <tag k="layer" v="-1"/>
  </way>
  <way id="33468267" version="2" timestamp="2009-04-22T18:04:43Z" uid="36809" user="pfoten_weg_!_" changeset="903495">
    <nd ref="380884965"/>
    <nd ref="380884984"/>
    <tag k="created_by" v="RambaZamba"/>
    <tag k="cycleway" v="track"/>
    <tag k="highway" v="cycleway"/>
    <tag k="layer" v="-1"/>
    <tag k="source" v="survey"/>
  </way>
  <way id="33468267" version="4" timestamp="2009-07-14T17:23:40Z" uid="36809" user="pfoten_weg_!_" changeset="1828881">
    <nd ref="380884965"/>
    <nd ref="264383788"/>
    <tag k="cycleway" v="track"/>
    <tag k="discovered_by" v="RambaZamba"/>
    <tag k="highway" v="cycleway"/>
    <tag k="layer" v="-1"/>
    <tag k="source" v="survey"/>
  </way>
  <way id="33468267" version="6" timestamp="2009-08-28T21:13:05Z" uid="36809" user="pfoten_weg_!_" changeset="2295155">
    <nd ref="380884965"/>
    <nd ref="264383788"/>
    <tag k="cycleway" v="track"/>
    <tag k="discovered_by" v="RambaZamba"/>
    <tag k="highway" v="cycleway"/>
    <tag k="layer" v="-1"/>
    <tag k="source" v="survey"/>
  </way>
  <way id="33468267" version="8" timestamp="2009-09-01T11:04:04Z" uid="36809" user="pfoten_weg_!_" changeset="2335754">
    <nd ref="380884965"/>
    <nd ref="264383788"/>
    <tag k="cycleway" v="track"/>
    <tag k="highway" v="cycleway"/>
    <tag k="layer" v="-1"/>
    <tag k="source" v="survey"/>
  </way>
  <way id="33468267" version="9" timestamp="2009-10-02T18:02:29Z" uid="86259" user="hasse_osm_korinthenkacker" changeset="2715119">
    <nd ref="380884965"/>
    <nd ref="264383788"/>
    <tag k="cycleway" v="track"/>
    <tag k="highway" v="cycleway"/>
    <tag k="layer" v="-1"/>
  </way>
  <way id="33468398" version="2" timestamp="2009-10-02T19:52:39Z" uid="86259" user="hasse_osm_korinthenkacker" changeset="2716821">
    <nd ref="274989603"/>
    <nd ref="274989606"/>
    <tag k="highway" v="unclassified"/>
    <tag k="layer" v="-1"/>
    <tag k="name" v="Brunauerstraße"/>
    <tag k="postal_code" v="83607"/>
    <tag k="tunnel" v="yes"/>
  </way>
  <way id="33468399" version="4" timestamp="2009-10-02T19:52:40Z" uid="86259" user="hasse_osm_korinthenkacker" changeset="2716821">
    <nd ref="274989606"/>
    <nd ref="274989607"/>
    <nd ref="274989608"/>
    <nd ref="274989610"/>
    <nd ref="274989611"/>
    <nd ref="274989612"/>
    <nd ref="274989613"/>
    <nd ref="274989614"/>
    <nd ref="274989615"/>
    <nd ref="274989616"/>
    <nd ref="274989617"/>
    <nd ref="274989618"/>
    <nd ref="274989619"/>
    <nd ref="274989620"/>
    <nd ref="274989622"/>
    <nd ref="463996300"/>
    <nd ref="274989623"/>
    <nd ref="274989624"/>
    <nd ref="274989625"/>
    <nd ref="464002716"/>
    <nd ref="274989626"/>
    <nd ref="274989627"/>
    <nd ref="274989628"/>
    <nd ref="274989629"/>
    <nd ref="274989630"/>
    <nd ref="274989632"/>
    <nd ref="274989633"/>
    <nd ref="274989634"/>
    <nd ref="274989635"/>
    <tag k="highway" v="unclassified"/>
    <tag k="name" v="Brunauerstraße"/>
    <tag k="postal_code" v="83607"/>
  </way>
  <way id="33468401" version="2" timestamp="2009-10-02T19:52:37Z" uid="86259" user="hasse_osm_korinthenkacker" changeset="2716821">
    <nd ref="274989639"/>
    <nd ref="274989640"/>
    <tag k="bridge" v="yes"/>
    <tag k="highway" v="unclassified"/>
    <tag k="layer" v="1"/>
    <tag k="name" v="Schmiedstraße"/>
    <tag k="postal_code" v="83607"/>
  </way>
  <way id="33468402" version="3" timestamp="2009-10-02T19:52:38Z" uid="86259" user="hasse_osm_korinthenkacker" changeset="2716821">
    <nd ref="274989640"/>
    <nd ref="274989641"/>
    <nd ref="287043488"/>
    <nd ref="287043490"/>
    <nd ref="274989642"/>
    <nd ref="287043517"/>
    <nd ref="274989644"/>
    <nd ref="274989646"/>
    <nd ref="274989647"/>
    <nd ref="274989648"/>
    <nd ref="274989649"/>
    <nd ref="274989650"/>
    <nd ref="274989651"/>
    <nd ref="274989652"/>
    <nd ref="274989653"/>
    <nd ref="274989654"/>
    <nd ref="274989655"/>
    <tag k="highway" v="unclassified"/>
    <tag k="name" v="Schmiedstraße"/>
    <tag k="postal_code" v="83607"/>
  </way>
  <way id="33468403" version="5" timestamp="2010-08-27T08:11:13Z" uid="33382" user="de_muur" changeset="5605338">
    <nd ref="380887236"/>
    <nd ref="380887238"/>
    <nd ref="380887240"/>
    <nd ref="380887242"/>
    <tag k="highway" v="track"/>
    <tag k="surface" v="asphalt"/>
    <tag k="tracktype" v="grade1"/>
  </way>
  <way id="33468429" version="2" timestamp="2009-06-16T18:17:17Z" uid="43863" user="Rundling" changeset="1537776">
    <nd ref="380888197"/>
    <nd ref="380888194"/>
    <nd ref="380888191"/>
    <nd ref="380888187"/>
    <nd ref="380888183"/>
    <nd ref="380888175"/>
    <nd ref="380888154"/>
    <nd ref="380888178"/>
    <nd ref="380896553"/>
    <tag k="highway" v="track"/>
    <tag k="motorcar" v="no"/>
    <tag k="motorcycle" v="no"/>
    <tag k="name" v="Schafstrift"/>
    <tag k="surface" v="grass"/>
    <tag k="tracktype" v="grade4"/>
  </way>
  <way id="33468650" version="5" timestamp="2010-08-27T07:39:10Z" uid="33382" user="de_muur" changeset="5605132">
    <nd ref="380888544"/>
    <nd ref="380889051"/>
    <nd ref="380889053"/>
    <nd ref="380889055"/>
    <nd ref="380889057"/>
    <nd ref="380889059"/>
    <nd ref="380889060"/>
    <nd ref="380889061"/>
    <nd ref="380889063"/>
    <nd ref="403780671"/>
    <tag k="highway" v="unclassified"/>
    <tag k="surface" v="unpaved"/>
  </way>
  <way id="33468669" version="2" timestamp="2009-09-30T13:54:11Z" uid="36809" user="pfoten_weg_!_" changeset="2688655">
    <nd ref="380880625"/>
    <nd ref="380889103"/>
    <nd ref="380889104"/>
    <nd ref="380889105"/>
    <nd ref="380889106"/>
    <nd ref="380889107"/>
    <nd ref="380889108"/>
    <nd ref="380889109"/>
    <nd ref="380889110"/>
    <nd ref="380889111"/>
    <nd ref="380889112"/>
    <nd ref="380889113"/>
    <nd ref="380889114"/>
    <nd ref="380889115"/>
    <tag k="highway" v="track"/>
    <tag k="tracktype" v="grade3"/>
  </way>
  <way id="33468687" version="1" timestamp="2009-04-22T18:04:40Z" uid="36809" user="pfoten_weg_!_" changeset="903495">
    <nd ref="279050643"/>
    <nd ref="380889309"/>
    <nd ref="380889306"/>
    <nd ref="286460264"/>
    <nd ref="380889307"/>
    <nd ref="279050402"/>
    <tag k="created_by" v="RambaZamba"/>
    <tag k="highway" v="secondary"/>
    <tag k="layer" v="0"/>
    <tag k="name" v="3 AS"/>
    <tag k="oneway" v="yes"/>
    <tag k="osmarender:renderName" v="no"/>
    <tag k="ref" v="St 2344"/>
    <tag k="source" v="survey"/>
  </way>
  <way id="33468687" version="2" timestamp="2009-06-09T09:53:47Z" uid="36809" user="pfoten_weg_!_" changeset="1466742">
    <nd ref="413289262"/>
    <nd ref="380889309"/>
    <nd ref="380889306"/>
    <nd ref="286460264"/>
    <nd ref="380889307"/>
    <nd ref="279050402"/>
    <tag k="created_by" v="RambaZamba"/>
    <tag k="highway" v="secondary"/>
    <tag k="layer" v="0"/>
    <tag k="name" v="3 AS"/>
    <tag k="oneway" v="yes"/>
    <tag k="osmarender:renderName" v="no"/>
    <tag k="ref" v="St 2344"/>
    <tag k="source" v="survey"/>
  </way>
  <way id="33468687" version="3" timestamp="2009-07-14T17:23:34Z" uid="36809" user="pfoten_weg_!_" changeset="1828881">
    <nd ref="413289262"/>
    <nd ref="380889309"/>
    <nd ref="380889306"/>
    <nd ref="286460264"/>
    <nd ref="380889307"/>
    <nd ref="279050402"/>
    <tag k="discovered_by" v="RambaZamba"/>
    <tag k="highway" v="secondary"/>
    <tag k="layer" v="0"/>
    <tag k="name" v="3 AS"/>
    <tag k="oneway" v="yes"/>
    <tag k="osmarender:renderName" v="no"/>
    <tag k="ref" v="St 2344"/>
    <tag k="source" v="survey"/>
  </way>
  <way id="33468687" version="5" timestamp="2009-07-26T02:53:39Z" uid="36809" user="pfoten_weg_!_" changeset="1940167"/>
  <way id="33468740" version="1" timestamp="2009-04-22T18:04:56Z" uid="43967" user="railsnail" changeset="903470">
    <nd ref="380889082"/>
    <nd ref="380889421"/>
    <nd ref="380889422"/>
    <nd ref="380889423"/>
    <nd ref="380889424"/>
    <nd ref="380889425"/>
    <tag k="highway" v="steps"/>
    <tag k="name" v="Via Caneva"/>
  </way>
  <way id="33468769" version="3" timestamp="2009-09-30T13:55:13Z" uid="36809" user="pfoten_weg_!_" changeset="2688655">
    <nd ref="380889854"/>
    <nd ref="380889856"/>
    <nd ref="380889857"/>
    <nd ref="380889861"/>
    <nd ref="380889863"/>
    <nd ref="380889864"/>
    <nd ref="380889866"/>
    <nd ref="380889868"/>
    <nd ref="380889869"/>
    <nd ref="408772934"/>
    <nd ref="380889871"/>
    <nd ref="380889873"/>
    <nd ref="380889874"/>
    <nd ref="380889876"/>
    <nd ref="380889877"/>
    <nd ref="380889879"/>
    <nd ref="380889881"/>
    <nd ref="380889882"/>
    <nd ref="380889884"/>
    <nd ref="380889885"/>
    <nd ref="380889108"/>
    <tag k="highway" v="track"/>
    <tag k="tracktype" v="grade5"/>
  </way>
  <way id="33468840" version="3" timestamp="2009-09-30T13:56:20Z" uid="36809" user="pfoten_weg_!_" changeset="2688655">
    <nd ref="380890164"/>
    <nd ref="408772934"/>
    <tag k="highway" v="track"/>
    <tag k="tracktype" v="grade5"/>
  </way>
</osm>
