<?xml version='1.0' encoding='UTF-8'?>
<osm version="0.6" generator="libosmium/2.20.0">
  <way id="33576423" version="1" timestamp="2009-04-24T16:01:17Z" uid="30632" user="antblant" changeset="929934">
    <nd ref="269520956"/>
    <nd ref="270117506"/>
    <nd ref="269520958"/>
    <nd ref="280018495"/>
    <nd ref="270118080"/>
    <nd ref="254059549"/>
    <tag k="created_by" v="Potlatch 0.10f"/>
    <tag k="highway" v="residential"/>
    <tag k="name" v="Boguchwały; Elizy Orzeszkowej"/>
    <tag k="oneway" v="yes"/>
    <tag k="railway" v="tram"/>
  </way>
  <way id="33576423" version="2" timestamp="2009-04-24T16:01:26Z" uid="30632" user="antblant" changeset="929934">
    <nd ref="269520956"/>
    <nd ref="270117506"/>
    <nd ref="269520958"/>
    <nd ref="280018495"/>
    <nd ref="270118080"/>
    <nd ref="254059549"/>
    <tag k="created_by" v="Potlatch 0.10f"/>
    <tag k="highway" v="residential"/>
    <tag k="name" v="Boguchwały"/>
    <tag k="oneway" v="yes"/>
    <tag k="railway" v="tram"/>
  </way>
  <way id="33576423" version="3" timestamp="2009-11-03T02:04:40Z" uid="36809" user="pfoten_weg_!_" changeset="3021530">
    <nd ref="269520956"/>
    <nd ref="270117506"/>
    <nd ref="269520958"/>
    <nd ref="280018495"/>
    <nd ref="270118080"/>
    <nd ref="254059549"/>
    <tag k="highway" v="residential"/>
    <tag k="name" v="Boguchwały"/>
    <tag k="oneway" v="yes"/>
    <tag k="railway" v="tram"/>
  </way>
  <way id="33576423" version="4" timestamp="2010-03-29T17:34:25Z" uid="20587" user="balrog-kun" changeset="4269435">
    <nd ref="269520956"/>
    <nd ref="270117506"/>
    <nd ref="677575438"/>
    <nd ref="269520958"/>
    <nd ref="280018495"/>
    <nd ref="270118080"/>
    <nd ref="254059549"/>
    <tag k="highway" v="residential"/>
    <tag k="name" v="Boguchwały"/>
    <tag k="oneway" v="yes"/>
    <tag k="railway" v="tram"/>
  </way>
</osm>
