<?xml version='1.0' encoding='UTF-8'?>
<osm version="0.6" generator="libosmium/2.20.0">
  <way id="33785185" version="1" timestamp="2009-04-28T17:06:35Z" uid="110593" user="esetzer" changeset="1006434">
    <nd ref="386858414"/>
    <nd ref="386857437"/>
    <nd ref="386857447"/>
    <nd ref="386858415"/>
    <nd ref="386858416"/>
    <nd ref="386858417"/>
    <nd ref="386858414"/>
    <tag k="building" v="yes"/>
    <tag k="created_by" v="Merkaartor 0.11"/>
    <tag k="name" v="Sears"/>
    <tag k="shop" v="department_store"/>
  </way>
  <way id="33785219" version="1" timestamp="2009-04-28T17:08:57Z" uid="110593" user="esetzer" changeset="1006462">
    <nd ref="386858788"/>
    <nd ref="386858770"/>
    <nd ref="386858795"/>
    <nd ref="386858802"/>
    <nd ref="386858788"/>
    <tag k="amenity" v="parking"/>
    <tag k="created_by" v="Merkaartor 0.11"/>
  </way>
  <way id="33785939" version="1" timestamp="2009-04-28T17:18:16Z" uid="110593" user="esetzer" changeset="1006589">
    <nd ref="386863474"/>
    <nd ref="386863475"/>
    <nd ref="386863477"/>
    <nd ref="386863478"/>
    <nd ref="386863479"/>
    <nd ref="386863480"/>
    <nd ref="386863481"/>
    <nd ref="386863482"/>
    <nd ref="386863483"/>
    <nd ref="386863484"/>
    <nd ref="386863485"/>
    <nd ref="386863486"/>
    <tag k="created_by" v="Merkaartor 0.11"/>
    <tag k="power" v="line"/>
  </way>
  <way id="33785939" version="3" timestamp="2009-05-04T00:59:14Z" uid="110593" user="esetzer" changeset="1069504">
    <nd ref="386863474"/>
    <nd ref="386863475"/>
    <nd ref="386863477"/>
    <nd ref="386863478"/>
    <nd ref="388480626"/>
    <nd ref="386863479"/>
    <nd ref="386863480"/>
    <nd ref="386863481"/>
    <nd ref="386863482"/>
    <nd ref="390091663"/>
    <nd ref="386863483"/>
    <nd ref="386863484"/>
    <nd ref="386863485"/>
    <nd ref="386863486"/>
    <tag k="created_by" v="Merkaartor 0.11"/>
    <tag k="power" v="line"/>
  </way>
  <way id="33785965" version="1" timestamp="2009-04-28T17:18:56Z" uid="30632" user="antblant" changeset="1006529">
    <nd ref="268477466"/>
    <nd ref="268477467"/>
    <nd ref="266870080"/>
    <tag k="highway" v="primary"/>
    <tag k="name" v="Przy Kaszowniku"/>
    <tag k="oneway" v="true"/>
    <tag k="ref" v="15,80"/>
  </way>
  <way id="33785965" version="2" timestamp="2009-04-28T17:22:15Z" uid="30632" user="antblant" changeset="1006637">
    <nd ref="268477466"/>
    <nd ref="268477467"/>
    <nd ref="266870080"/>
    <tag k="highway" v="primary"/>
    <tag k="name" v="Przy Kaszowniku"/>
    <tag k="oneway" v="true"/>
    <tag k="ref" v="15"/>
  </way>
  <way id="33785965" version="3" timestamp="2009-04-28T17:22:20Z" uid="30632" user="antblant" changeset="1006637">
    <nd ref="268477466"/>
    <nd ref="268477467"/>
    <nd ref="266870080"/>
    <tag k="highway" v="primary_link"/>
    <tag k="name" v="Przy Kaszowniku"/>
    <tag k="oneway" v="true"/>
  </way>
</osm>
