<?xml version='1.0' encoding='UTF-8'?>
<osm version="0.6" generator="libosmium/2.20.0">
  <way id="33786017" version="1" timestamp="2009-04-28T17:19:54Z" uid="30632" user="antblant" changeset="1006529">
    <nd ref="266870048"/>
    <nd ref="266870057"/>
    <nd ref="266870065"/>
    <nd ref="266870074"/>
    <tag k="highway" v="primary"/>
    <tag k="int_ref" v="E 75"/>
    <tag k="name" v="Przy Kaszowniku"/>
    <tag k="oneway" v="true"/>
    <tag k="ref" v="1,15,80"/>
  </way>
  <way id="33786017" version="2" timestamp="2009-04-28T17:20:41Z" uid="30632" user="antblant" changeset="1006619">
    <nd ref="266870048"/>
    <nd ref="266870057"/>
    <nd ref="266870065"/>
    <nd ref="266870074"/>
    <tag k="highway" v="primary"/>
    <tag k="int_ref" v="E 75"/>
    <tag k="name" v="Przy Kaszowniku"/>
    <tag k="oneway" v="true"/>
    <tag k="ref" v="1,15"/>
  </way>
  <way id="33786017" version="3" timestamp="2009-04-28T17:24:27Z" uid="30632" user="antblant" changeset="1006660">
    <nd ref="266870048"/>
    <nd ref="266870057"/>
    <nd ref="266870065"/>
    <nd ref="266870074"/>
    <tag k="highway" v="primary"/>
    <tag k="int_ref" v="E 75"/>
    <tag k="name" v="Przy Kaszowniku"/>
    <tag k="oneway" v="true"/>
    <tag k="ref" v="1"/>
  </way>
  <way id="33786365" version="1" timestamp="2009-04-28T17:22:26Z" uid="30632" user="antblant" changeset="1006637">
    <nd ref="266870567"/>
    <nd ref="266870572"/>
    <nd ref="266870596"/>
    <nd ref="266870608"/>
    <nd ref="266870610"/>
    <nd ref="266870621"/>
    <nd ref="268646511"/>
    <tag k="highway" v="primary"/>
    <tag k="int_ref" v="E 75"/>
    <tag k="name" v="Przy Kaszowniku"/>
    <tag k="oneway" v="true"/>
    <tag k="ref" v="1,15,80"/>
  </way>
  <way id="33786428" version="1" timestamp="2009-04-28T17:24:46Z" uid="110593" user="esetzer" changeset="1006671">
    <nd ref="386867210"/>
    <nd ref="386867211"/>
    <nd ref="386867212"/>
    <nd ref="386867213"/>
    <nd ref="386867210"/>
    <tag k="created_by" v="Merkaartor 0.11"/>
    <tag k="ele" v="1303"/>
    <tag k="leisure" v="golf_course"/>
    <tag k="name" v="Nibley Park"/>
  </way>
  <way id="33786449" version="1" timestamp="2009-04-28T17:26:29Z" uid="110593" user="esetzer" changeset="1006687">
    <nd ref="386867371"/>
    <nd ref="83548446"/>
    <nd ref="83548444"/>
    <nd ref="83548442"/>
    <nd ref="83515128"/>
    <nd ref="83548435"/>
    <nd ref="83548433"/>
    <nd ref="386867372"/>
    <nd ref="386867373"/>
    <nd ref="386867374"/>
    <nd ref="386867375"/>
    <nd ref="386867376"/>
    <nd ref="83515134"/>
    <nd ref="83515135"/>
    <nd ref="83515136"/>
    <nd ref="386867377"/>
    <nd ref="386867378"/>
    <nd ref="386867379"/>
    <nd ref="386867371"/>
    <tag k="created_by" v="Merkaartor 0.11"/>
    <tag k="landuse" v="residential"/>
  </way>
  <way id="33786574" version="1" timestamp="2009-04-28T17:31:37Z" uid="30632" user="antblant" changeset="1006711">
    <nd ref="271376948"/>
    <nd ref="266877229"/>
    <nd ref="266877230"/>
    <nd ref="267869038"/>
    <nd ref="271382318"/>
    <nd ref="266877231"/>
    <nd ref="266877234"/>
    <nd ref="266877238"/>
    <nd ref="266877240"/>
    <nd ref="266877241"/>
    <nd ref="84623738"/>
    <tag k="highway" v="primary"/>
    <tag k="name" v="Szosa Lubicka"/>
    <tag k="oneway" v="true"/>
    <tag k="ref" v="80"/>
  </way>
  <way id="33786581" version="1" timestamp="2009-04-28T17:32:01Z" uid="30632" user="antblant" changeset="1006711">
    <nd ref="271376869"/>
    <nd ref="254667092"/>
    <nd ref="268854353"/>
    <nd ref="84623764"/>
    <nd ref="271382567"/>
    <nd ref="271382579"/>
    <nd ref="271382573"/>
    <nd ref="287184188"/>
    <nd ref="287184201"/>
    <nd ref="84623767"/>
    <nd ref="84623770"/>
    <nd ref="267427946"/>
    <nd ref="84623774"/>
    <nd ref="84623779"/>
    <nd ref="267872072"/>
    <nd ref="84623781"/>
    <nd ref="268825981"/>
    <nd ref="84623784"/>
    <nd ref="268825834"/>
    <nd ref="84623785"/>
    <nd ref="268856273"/>
    <nd ref="268827381"/>
    <nd ref="268825818"/>
    <nd ref="84623788"/>
    <nd ref="268825803"/>
    <nd ref="268825557"/>
    <nd ref="268825421"/>
    <nd ref="84623789"/>
    <nd ref="268825403"/>
    <nd ref="268825385"/>
    <nd ref="84623792"/>
    <tag k="created_by" v="JOSM"/>
    <tag k="highway" v="primary"/>
    <tag k="name" v="Szosa Lubicka"/>
    <tag k="oneway" v="true"/>
    <tag k="ref" v="15,80"/>
  </way>
  <way id="33786583" version="1" timestamp="2009-04-28T17:32:14Z" uid="30632" user="antblant" changeset="1006711">
    <nd ref="271376869"/>
    <nd ref="271376870"/>
    <tag k="created_by" v="JOSM"/>
    <tag k="highway" v="primary"/>
    <tag k="name" v="Olsztyńska"/>
    <tag k="oneway" v="true"/>
    <tag k="ref" v="15"/>
  </way>
  <way id="33786583" version="2" timestamp="2009-04-28T17:32:18Z" uid="30632" user="antblant" changeset="1006711">
    <nd ref="271376869"/>
    <nd ref="271376870"/>
    <tag k="created_by" v="JOSM"/>
    <tag k="highway" v="primary_link"/>
    <tag k="name" v="Olsztyńska"/>
    <tag k="oneway" v="true"/>
  </way>
  <way id="33786680" version="1" timestamp="2009-04-28T17:37:50Z" uid="110593" user="esetzer" changeset="1006823">
    <nd ref="386869413"/>
    <nd ref="386869415"/>
    <nd ref="386869420"/>
    <nd ref="386869432"/>
    <nd ref="386869413"/>
    <tag k="created_by" v="Merkaartor 0.11"/>
    <tag k="landuse" v="construction"/>
  </way>
  <way id="33786680" version="2" timestamp="2009-08-29T22:29:28Z" uid="110593" user="esetzer" changeset="2307485">
    <nd ref="386869413"/>
    <nd ref="386869415"/>
    <nd ref="386869420"/>
    <nd ref="386869432"/>
    <nd ref="386869413"/>
    <tag k="created_by" v="Merkaartor 0.11"/>
    <tag k="landuse" v="construction"/>
    <tag k="note" v="I am sure that this construction zone is here within the coordinate system defined by the existing building&apos;s coordinate system (In particular, the corners point toward each other like this)."/>
    <tag k="note_1" v="I am not sure where the existing building is exactly, but I suspect that it is larger than it is currently shown as."/>
  </way>
  <way id="33786680" version="3" timestamp="2009-09-04T07:10:25Z" uid="110593" user="esetzer" changeset="2366748">
    <nd ref="386869413"/>
    <nd ref="386869415"/>
    <nd ref="386869420"/>
    <nd ref="386869432"/>
    <nd ref="386869413"/>
    <tag k="created_by" v="Merkaartor 0.11"/>
    <tag k="landuse" v="construction"/>
    <tag k="note" v="Construction is too new to be in aerial photographs; don&apos;t trust them."/>
  </way>
  <way id="33786685" version="1" timestamp="2009-04-28T17:38:15Z" uid="30632" user="antblant" changeset="1006815">
    <nd ref="34342134"/>
    <nd ref="34342133"/>
    <nd ref="34342132"/>
    <nd ref="34342131"/>
    <nd ref="34574344"/>
    <tag k="created_by" v="Potlatch 0.9c"/>
    <tag k="highway" v="primary"/>
    <tag k="name" v="Kruszwicka"/>
    <tag k="source_ref" v="gps survey"/>
  </way>
  <way id="33786685" version="2" timestamp="2009-04-28T17:54:11Z" uid="30632" user="antblant" changeset="1007014">
    <nd ref="270759703"/>
    <nd ref="34342134"/>
    <nd ref="34342133"/>
    <nd ref="34342132"/>
    <nd ref="34342131"/>
    <nd ref="34574344"/>
    <tag k="created_by" v="Potlatch 0.9c"/>
    <tag k="highway" v="primary"/>
    <tag k="name" v="Kruszwicka"/>
    <tag k="source_ref" v="gps survey"/>
  </way>
  <way id="33786818" version="1" timestamp="2009-04-28T17:43:29Z" uid="30632" user="antblant" changeset="1006863">
    <nd ref="386871083"/>
    <nd ref="270744166"/>
    <nd ref="34519883"/>
    <tag k="created_by" v="Potlatch 0.10f"/>
    <tag k="highway" v="primary"/>
    <tag k="name" v="Fordońska"/>
    <tag k="ref" v="80"/>
  </way>
  <way id="33786818" version="2" timestamp="2009-04-28T17:43:43Z" uid="30632" user="antblant" changeset="1006863">
    <nd ref="386871084"/>
    <nd ref="270744166"/>
    <nd ref="34519883"/>
    <tag k="created_by" v="Potlatch 0.10f"/>
    <tag k="highway" v="primary"/>
    <tag k="name" v="Fordońska"/>
    <tag k="ref" v="80"/>
  </way>
  <way id="33786852" version="1" timestamp="2009-04-28T17:44:22Z" uid="30632" user="antblant" changeset="1006886">
    <nd ref="386871084"/>
    <nd ref="34000071"/>
    <nd ref="34000072"/>
    <nd ref="34000073"/>
    <nd ref="84623655"/>
    <nd ref="34000075"/>
    <nd ref="34000076"/>
    <nd ref="34000077"/>
    <nd ref="34000078"/>
    <nd ref="34000080"/>
    <nd ref="34000081"/>
    <tag k="created_by" v="JOSM"/>
    <tag k="highway" v="primary"/>
  </way>
  <way id="33786854" version="1" timestamp="2009-04-28T17:44:31Z" uid="30632" user="antblant" changeset="1006886">
    <nd ref="34519883"/>
    <nd ref="270744167"/>
    <nd ref="34519882"/>
    <nd ref="34648169"/>
    <nd ref="34648170"/>
    <nd ref="34648190"/>
    <nd ref="114078896"/>
    <nd ref="34000060"/>
    <tag k="created_by" v="Potlatch 0.9c"/>
    <tag k="highway" v="primary"/>
    <tag k="oneway" v="yes"/>
    <tag k="source_ref" v="gps survey"/>
  </way>
  <way id="33786854" version="2" timestamp="2009-04-28T17:44:37Z" uid="30632" user="antblant" changeset="1006886">
    <nd ref="34519883"/>
    <nd ref="270744167"/>
    <nd ref="34519882"/>
    <nd ref="34648169"/>
    <nd ref="34648170"/>
    <nd ref="34648190"/>
    <nd ref="114078896"/>
    <nd ref="34000060"/>
    <tag k="created_by" v="Potlatch 0.9c"/>
    <tag k="highway" v="primary"/>
    <tag k="oneway" v="yes"/>
    <tag k="ref" v="80"/>
    <tag k="source_ref" v="gps survey"/>
  </way>
  <way id="33786997" version="1" timestamp="2009-04-28T17:45:46Z" uid="30632" user="antblant" changeset="1006886">
    <nd ref="114078811"/>
    <nd ref="114078817"/>
    <nd ref="114078824"/>
    <nd ref="114078828"/>
    <nd ref="114078834"/>
    <nd ref="114078839"/>
    <nd ref="114078846"/>
    <nd ref="114078852"/>
    <nd ref="114078858"/>
    <nd ref="114078865"/>
    <nd ref="114078871"/>
    <nd ref="114078875"/>
    <nd ref="114078881"/>
    <nd ref="114078888"/>
    <nd ref="114078896"/>
    <nd ref="34000057"/>
    <tag k="created_by" v="Potlatch 0.6c"/>
    <tag k="highway" v="primary"/>
    <tag k="oneway" v="yes"/>
    <tag k="ref" v="25"/>
  </way>
  <way id="33786997" version="2" timestamp="2009-04-28T17:45:51Z" uid="30632" user="antblant" changeset="1006886">
    <nd ref="114078811"/>
    <nd ref="114078817"/>
    <nd ref="114078824"/>
    <nd ref="114078828"/>
    <nd ref="114078834"/>
    <nd ref="114078839"/>
    <nd ref="114078846"/>
    <nd ref="114078852"/>
    <nd ref="114078858"/>
    <nd ref="114078865"/>
    <nd ref="114078871"/>
    <nd ref="114078875"/>
    <nd ref="114078881"/>
    <nd ref="114078888"/>
    <nd ref="114078896"/>
    <nd ref="34000057"/>
    <tag k="created_by" v="Potlatch 0.6c"/>
    <tag k="highway" v="tertiary"/>
    <tag k="oneway" v="yes"/>
  </way>
</osm>
