<?xml version='1.0' encoding='UTF-8'?>
<osm version="0.6" generator="libosmium/2.20.0">
  <way id="34006535" version="3" timestamp="2009-08-20T09:40:20Z" uid="43863" user="Rundling" changeset="2210090">
    <nd ref="389582227"/>
    <nd ref="389582230"/>
    <nd ref="389582233"/>
    <nd ref="389582235"/>
    <nd ref="389582238"/>
    <nd ref="389582242"/>
    <nd ref="389582245"/>
    <nd ref="389582248"/>
    <nd ref="389582255"/>
    <nd ref="389582258"/>
    <nd ref="322719490"/>
    <nd ref="322719491"/>
    <tag k="highway" v="residential"/>
  </way>
  <way id="34006633" version="4" timestamp="2009-06-10T20:03:03Z" uid="34428" user="usm78-gis" changeset="1481373">
    <nd ref="389583698"/>
    <nd ref="389583702"/>
    <nd ref="418436749"/>
    <nd ref="389583936"/>
    <tag k="addr:postcode" v="194021"/>
    <tag k="cladr:code" v="78000000000031200"/>
    <tag k="cladr:name" v="Гомельская"/>
    <tag k="cladr:suffix" v="Улица"/>
    <tag k="highway" v="residential"/>
    <tag k="name" v="Гомельская ул."/>
  </way>
  <way id="34006633" version="5" timestamp="2009-06-10T20:03:24Z" uid="34428" user="usm78-gis" changeset="1481373">
    <nd ref="389583698"/>
    <nd ref="389583702"/>
    <nd ref="418436749"/>
    <tag k="addr:postcode" v="194021"/>
    <tag k="cladr:code" v="78000000000031200"/>
    <tag k="cladr:name" v="Гомельская"/>
    <tag k="cladr:suffix" v="Улица"/>
    <tag k="highway" v="residential"/>
    <tag k="name" v="Гомельская ул."/>
  </way>
  <way id="34006791" version="4" timestamp="2010-03-28T01:51:01Z" uid="20587" user="balrog-kun" changeset="4250871">
    <nd ref="122970314"/>
    <nd ref="668263"/>
    <nd ref="389592884"/>
    <nd ref="668264"/>
    <nd ref="444666943"/>
    <nd ref="122487041"/>
    <nd ref="21300151"/>
    <nd ref="296012203"/>
    <tag k="created_by" v="JOSM"/>
    <tag k="highway" v="primary"/>
    <tag k="name" v="Century Boulevard"/>
    <tag k="oneway" v="yes"/>
  </way>
</osm>
