<?xml version='1.0' encoding='UTF-8'?>
<osm version="0.6" generator="libosmium/2.20.0">
  <way id="34001178" version="1" timestamp="2009-05-03T10:35:36Z" uid="34428" user="usm78-gis" changeset="1059055">
    <nd ref="253114429"/>
    <nd ref="101429591"/>
    <nd ref="101429592"/>
    <nd ref="101429593"/>
    <nd ref="101429594"/>
    <nd ref="101429595"/>
    <nd ref="253114401"/>
    <tag k="boat" v="yes"/>
    <tag k="created_by" v="Potlatch 0.10f"/>
    <tag k="name" v="канал Грибоедова"/>
    <tag k="waterway" v="canal"/>
  </way>
  <way id="34001178" version="2" timestamp="2009-05-03T10:37:41Z" uid="34428" user="usm78-gis" changeset="1059080">
    <nd ref="389496902"/>
    <nd ref="101429591"/>
    <nd ref="101429592"/>
    <nd ref="101429593"/>
    <nd ref="101429594"/>
    <nd ref="101429595"/>
    <nd ref="253114401"/>
    <tag k="boat" v="yes"/>
    <tag k="created_by" v="Potlatch 0.10f"/>
    <tag k="name" v="канал Грибоедова"/>
    <tag k="waterway" v="canal"/>
  </way>
  <way id="34001179" version="1" timestamp="2009-05-03T10:35:38Z" uid="34428" user="usm78-gis" changeset="1059055">
    <nd ref="389496822"/>
    <nd ref="253114430"/>
    <nd ref="101432706"/>
    <nd ref="253114437"/>
    <tag k="boat" v="yes"/>
    <tag k="created_by" v="Potlatch 0.10f"/>
    <tag k="name" v="Крюков канал"/>
    <tag k="waterway" v="river"/>
  </way>
  <way id="34001179" version="2" timestamp="2009-05-03T10:35:53Z" uid="34428" user="usm78-gis" changeset="1059055">
    <nd ref="389496902"/>
    <nd ref="253114430"/>
    <nd ref="101432706"/>
    <nd ref="253114437"/>
    <tag k="boat" v="yes"/>
    <tag k="created_by" v="Potlatch 0.10f"/>
    <tag k="name" v="Крюков канал"/>
    <tag k="waterway" v="river"/>
  </way>
  <way id="34001228" version="5" timestamp="2010-04-21T02:47:42Z" uid="4467" user="Rosscoe" changeset="4483092">
    <nd ref="700651110"/>
    <nd ref="389497276"/>
    <nd ref="587821086"/>
    <nd ref="587821067"/>
    <nd ref="282153426"/>
    <nd ref="244960225"/>
    <nd ref="603477167"/>
    <nd ref="703029945"/>
    <tag k="highway" v="secondary"/>
    <tag k="name" v="Fraiser Road"/>
  </way>
  <way id="34001228" version="6" timestamp="2010-04-27T04:16:54Z" uid="4467" user="Rosscoe" changeset="4537790">
    <nd ref="700651110"/>
    <nd ref="587821086"/>
    <nd ref="587821067"/>
    <nd ref="282153426"/>
    <nd ref="244960225"/>
    <nd ref="603477167"/>
    <nd ref="703029945"/>
    <tag k="highway" v="secondary"/>
    <tag k="name" v="Fraiser Road"/>
  </way>
  <way id="34001230" version="4" timestamp="2010-04-27T04:16:59Z" uid="4467" user="Rosscoe" changeset="4537790">
    <nd ref="708320913"/>
    <nd ref="700651065"/>
    <nd ref="266738624"/>
    <nd ref="708320466"/>
    <tag k="highway" v="secondary"/>
    <tag k="name" v="Fraiser Road"/>
  </way>
  <way id="34001230" version="5" timestamp="2010-05-09T01:19:00Z" uid="4467" user="Rosscoe" changeset="4644389">
    <nd ref="708320913"/>
    <nd ref="266738660"/>
    <nd ref="266738624"/>
    <nd ref="708320466"/>
    <tag k="highway" v="secondary"/>
    <tag k="name" v="Fraiser Road"/>
  </way>
  <way id="34001230" version="7" timestamp="2010-06-27T11:15:55Z" uid="242497" user="cvl" changeset="5088572">
    <nd ref="708320913"/>
    <nd ref="792589752"/>
    <nd ref="266738660"/>
    <nd ref="792589761"/>
    <nd ref="266738624"/>
    <nd ref="708320466"/>
    <tag k="highway" v="secondary"/>
    <tag k="name" v="Fraser Road"/>
  </way>
  <way id="34001230" version="9" timestamp="2011-04-25T11:06:36Z" uid="4467" user="Rosscoe" changeset="7962010">
    <nd ref="708320913"/>
    <nd ref="266738659"/>
    <nd ref="792589752"/>
    <nd ref="266738660"/>
    <nd ref="792589761"/>
    <nd ref="266738624"/>
    <nd ref="708320466"/>
    <tag k="highway" v="secondary"/>
    <tag k="name" v="Fraser Road North"/>
  </way>
  <way id="34001231" version="4" timestamp="2010-04-27T04:16:44Z" uid="4467" user="Rosscoe" changeset="4537790">
    <nd ref="708320782"/>
    <nd ref="389497286"/>
    <nd ref="179987417"/>
    <nd ref="179987418"/>
    <nd ref="179987419"/>
    <nd ref="253277665"/>
    <nd ref="179987421"/>
    <nd ref="253278627"/>
    <nd ref="389493353"/>
    <nd ref="605411278"/>
    <nd ref="32950779"/>
    <nd ref="605411277"/>
    <tag k="highway" v="tertiary"/>
  </way>
  <way id="34001233" version="3" timestamp="2010-05-07T15:10:39Z" uid="4467" user="Rosscoe" changeset="4631002">
    <nd ref="389497282"/>
    <nd ref="282154345"/>
    <nd ref="389451188"/>
    <nd ref="389451185"/>
    <nd ref="282154526"/>
    <nd ref="282154527"/>
    <nd ref="282154474"/>
    <tag k="created_by" v="Potlatch 0.10a"/>
    <tag k="highway" v="tertiary"/>
    <tag k="name" v="CampbellRoad"/>
  </way>
  <way id="34001234" version="3" timestamp="2010-04-27T04:16:56Z" uid="4467" user="Rosscoe" changeset="4537790">
    <nd ref="389497281"/>
    <nd ref="282153974"/>
    <nd ref="282153961"/>
    <nd ref="282153932"/>
    <nd ref="708321000"/>
    <tag k="highway" v="tertiary"/>
  </way>
  <way id="34001235" version="2" timestamp="2010-07-09T07:55:48Z" uid="74617" user="JohnSmith" changeset="5171412">
    <nd ref="389497286"/>
    <nd ref="389497287"/>
    <nd ref="389497288"/>
    <nd ref="389497289"/>
    <nd ref="389497290"/>
    <tag k="highway" v="residential"/>
    <tag k="maxspeed" v="50"/>
    <tag k="maxspeed:source" v="default residential speed limit in Australia"/>
    <tag k="name" v="Belfast Close"/>
  </way>
  <way id="34001236" version="2" timestamp="2010-07-09T07:56:48Z" uid="74617" user="JohnSmith" changeset="5171412">
    <nd ref="389497291"/>
    <nd ref="389497297"/>
    <nd ref="389497292"/>
    <nd ref="389497293"/>
    <nd ref="389497294"/>
    <nd ref="389497295"/>
    <nd ref="389497296"/>
    <tag k="highway" v="residential"/>
    <tag k="maxspeed" v="50"/>
    <tag k="maxspeed:source" v="default residential speed limit in Australia"/>
    <tag k="name" v="Hourn Way"/>
  </way>
  <way id="34001237" version="2" timestamp="2010-07-09T07:59:54Z" uid="74617" user="JohnSmith" changeset="5171412">
    <nd ref="389497297"/>
    <nd ref="389497298"/>
    <tag k="highway" v="residential"/>
    <tag k="maxspeed" v="50"/>
    <tag k="maxspeed:source" v="default residential speed limit in Australia"/>
    <tag k="name" v="Pentland Street"/>
  </way>
  <way id="34001308" version="1" timestamp="2009-05-03T10:43:46Z" uid="34428" user="usm78-gis" changeset="1059137">
    <nd ref="389497861"/>
    <nd ref="255156948"/>
    <nd ref="255156949"/>
    <nd ref="255156950"/>
    <tag k="cladr:code" v="78000000000117900"/>
    <tag k="cladr:name" v="Расстанный"/>
    <tag k="cladr:suffix" v="Переулок"/>
    <tag k="highway" v="residential"/>
    <tag k="name" v="Расстанный пер."/>
    <tag k="oneway" v="yes"/>
  </way>
  <way id="34001316" version="1" timestamp="2009-05-03T10:43:58Z" uid="34428" user="usm78-gis" changeset="1059137">
    <nd ref="389497936"/>
    <nd ref="255156947"/>
    <tag k="cladr:code" v="78000000000117900"/>
    <tag k="cladr:name" v="Расстанный"/>
    <tag k="cladr:suffix" v="Переулок"/>
    <tag k="highway" v="residential"/>
    <tag k="name" v="Расстанный пер."/>
    <tag k="oneway" v="yes"/>
  </way>
  <way id="34001316" version="2" timestamp="2009-05-03T10:44:07Z" uid="34428" user="usm78-gis" changeset="1059137">
    <nd ref="389497936"/>
    <nd ref="255156947"/>
    <tag k="bridge" v="yes"/>
    <tag k="cladr:code" v="78000000000117900"/>
    <tag k="cladr:name" v="Расстанный"/>
    <tag k="cladr:suffix" v="Переулок"/>
    <tag k="highway" v="residential"/>
    <tag k="name" v="Расстанный пер."/>
    <tag k="oneway" v="yes"/>
  </way>
  <way id="34001329" version="1" timestamp="2009-05-03T10:45:10Z" uid="34428" user="usm78-gis" changeset="1059148">
    <nd ref="389498050"/>
    <nd ref="379439076"/>
    <tag k="highway" v="residential"/>
    <tag k="name" v="Фарфоровский пост"/>
  </way>
  <way id="34001329" version="2" timestamp="2009-05-03T10:45:26Z" uid="34428" user="usm78-gis" changeset="1059148">
    <nd ref="389498050"/>
    <nd ref="389498146"/>
    <nd ref="379439076"/>
    <tag k="highway" v="residential"/>
    <tag k="name" v="Фарфоровский пост"/>
  </way>
  <way id="34001329" version="3" timestamp="2009-05-03T10:45:28Z" uid="34428" user="usm78-gis" changeset="1059148">
    <nd ref="389498050"/>
    <nd ref="389498146"/>
    <tag k="highway" v="residential"/>
    <tag k="name" v="Фарфоровский пост"/>
  </way>
  <way id="34001330" version="1" timestamp="2009-05-03T10:45:12Z" uid="34428" user="usm78-gis" changeset="1059148">
    <nd ref="379624413"/>
    <nd ref="389498050"/>
    <tag k="highway" v="residential"/>
    <tag k="name" v="Фарфоровский пост"/>
  </way>
  <way id="34001342" version="1" timestamp="2009-05-03T10:45:28Z" uid="34428" user="usm78-gis" changeset="1059148">
    <nd ref="389498146"/>
    <nd ref="379439076"/>
    <tag k="highway" v="residential"/>
    <tag k="name" v="Фарфоровский пост"/>
  </way>
  <way id="34001379" version="1" timestamp="2009-05-03T10:46:59Z" uid="34428" user="usm78-gis" changeset="1059167">
    <nd ref="389498577"/>
    <nd ref="383446474"/>
    <tag k="area" v="yes"/>
    <tag k="highway" v="service"/>
  </way>
  <way id="34001384" version="1" timestamp="2009-05-03T10:47:11Z" uid="34428" user="usm78-gis" changeset="1059167">
    <nd ref="383445326"/>
    <nd ref="383446496"/>
    <nd ref="389498577"/>
    <tag k="area" v="yes"/>
    <tag k="highway" v="service"/>
  </way>
  <way id="34001421" version="1" timestamp="2009-05-03T10:48:35Z" uid="34428" user="usm78-gis" changeset="1059179">
    <nd ref="334366370"/>
    <nd ref="334366381"/>
    <tag k="addr:housenumber" v="38-1"/>
    <tag k="building" v="yes"/>
    <tag k="created_by" v="Potlatch 0.10f"/>
  </way>
  <way id="34001421" version="2" timestamp="2009-05-03T10:49:03Z" uid="34428" user="usm78-gis" changeset="1059179">
    <nd ref="334366381"/>
    <nd ref="389498761"/>
    <tag k="addr:housenumber" v="38-1"/>
    <tag k="building" v="yes"/>
    <tag k="created_by" v="Potlatch 0.10f"/>
  </way>
  <way id="34001422" version="1" timestamp="2009-05-03T10:48:37Z" uid="34428" user="usm78-gis" changeset="1059179">
    <nd ref="334366381"/>
    <nd ref="334366379"/>
    <nd ref="334366377"/>
    <nd ref="334366375"/>
    <nd ref="334366373"/>
    <nd ref="334366370"/>
    <tag k="addr:housenumber" v="38-1"/>
    <tag k="building" v="yes"/>
    <tag k="created_by" v="Potlatch 0.10f"/>
  </way>
  <way id="34001422" version="2" timestamp="2009-05-03T10:49:03Z" uid="34428" user="usm78-gis" changeset="1059179">
    <nd ref="334366381"/>
    <nd ref="334366379"/>
    <nd ref="334366377"/>
    <nd ref="334366375"/>
    <nd ref="334366373"/>
    <nd ref="389498761"/>
    <nd ref="334366370"/>
    <tag k="addr:housenumber" v="38-1"/>
    <tag k="building" v="yes"/>
    <tag k="created_by" v="Potlatch 0.10f"/>
  </way>
  <way id="34001422" version="3" timestamp="2009-05-03T10:49:06Z" uid="34428" user="usm78-gis" changeset="1059179">
    <nd ref="334366381"/>
    <nd ref="334366379"/>
    <nd ref="334366377"/>
    <nd ref="334366375"/>
    <nd ref="334366373"/>
    <nd ref="389498761"/>
    <tag k="addr:housenumber" v="38-1"/>
    <tag k="building" v="yes"/>
    <tag k="created_by" v="Potlatch 0.10f"/>
  </way>
  <way id="34001427" version="1" timestamp="2009-05-03T10:49:06Z" uid="34428" user="usm78-gis" changeset="1059179">
    <nd ref="389498761"/>
    <nd ref="334366370"/>
    <tag k="addr:housenumber" v="38-1"/>
    <tag k="building" v="yes"/>
    <tag k="created_by" v="Potlatch 0.10f"/>
  </way>
  <way id="34001427" version="2" timestamp="2009-05-03T10:49:09Z" uid="34428" user="usm78-gis" changeset="1059179"/>
  <way id="34001463" version="1" timestamp="2009-05-03T10:50:10Z" uid="34428" user="usm78-gis" changeset="1059206">
    <nd ref="389499059"/>
    <nd ref="88016753"/>
    <nd ref="88016754"/>
    <nd ref="88016755"/>
    <nd ref="88016757"/>
    <nd ref="88016758"/>
    <nd ref="88016760"/>
    <nd ref="88016761"/>
    <nd ref="88016763"/>
    <nd ref="88016764"/>
    <nd ref="88016765"/>
    <tag k="cladr:code" v="78000000000153300"/>
    <tag k="cladr:name" v="Шлиссельбургский"/>
    <tag k="cladr:suffix" v="Проспект"/>
    <tag k="highway" v="primary"/>
    <tag k="name" v="Шлиссельбургский пр."/>
  </way>
  <way id="34001463" version="2" timestamp="2009-05-03T10:50:13Z" uid="34428" user="usm78-gis" changeset="1059206">
    <nd ref="389499059"/>
    <nd ref="88016753"/>
    <tag k="cladr:code" v="78000000000153300"/>
    <tag k="cladr:name" v="Шлиссельбургский"/>
    <tag k="cladr:suffix" v="Проспект"/>
    <tag k="highway" v="primary"/>
    <tag k="name" v="Шлиссельбургский пр."/>
  </way>
  <way id="34001463" version="3" timestamp="2009-05-03T10:50:18Z" uid="34428" user="usm78-gis" changeset="1059206">
    <nd ref="389499059"/>
    <nd ref="88016753"/>
    <tag k="bridge" v="yes"/>
    <tag k="cladr:code" v="78000000000153300"/>
    <tag k="cladr:name" v="Шлиссельбургский"/>
    <tag k="cladr:suffix" v="Проспект"/>
    <tag k="highway" v="primary"/>
    <tag k="name" v="Шлиссельбургский пр."/>
  </way>
  <way id="34001464" version="1" timestamp="2009-05-03T10:50:12Z" uid="34428" user="usm78-gis" changeset="1059206">
    <nd ref="88016753"/>
    <nd ref="88016754"/>
    <nd ref="88016755"/>
    <nd ref="88016757"/>
    <nd ref="88016758"/>
    <nd ref="88016760"/>
    <nd ref="88016761"/>
    <nd ref="88016763"/>
    <nd ref="88016764"/>
    <nd ref="88016765"/>
    <tag k="cladr:code" v="78000000000153300"/>
    <tag k="cladr:name" v="Шлиссельбургский"/>
    <tag k="cladr:suffix" v="Проспект"/>
    <tag k="highway" v="primary"/>
    <tag k="name" v="Шлиссельбургский пр."/>
  </way>
  <way id="34001493" version="2" timestamp="2009-08-23T17:26:03Z" uid="33382" user="de_muur" changeset="2233018">
    <nd ref="472346388"/>
    <nd ref="282253720"/>
    <nd ref="282253723"/>
    <nd ref="21722055"/>
    <nd ref="292746132"/>
    <nd ref="389042149"/>
    <nd ref="292746131"/>
    <tag k="highway" v="secondary"/>
    <tag k="maxspeed" v="50"/>
    <tag k="name" v="Koberger Straße"/>
    <tag k="ref" v="L 200"/>
  </way>
  <way id="34001493" version="3" timestamp="2010-08-04T15:04:57Z" uid="33382" user="de_muur" changeset="5399948">
    <nd ref="472346388"/>
    <nd ref="282253720"/>
    <tag k="highway" v="secondary"/>
    <tag k="maxspeed" v="50"/>
    <tag k="name" v="Koberger Straße"/>
    <tag k="ref" v="L 200"/>
    <tag k="surface" v="paved"/>
  </way>
  <way id="34001493" version="4" timestamp="2011-05-16T05:32:18Z" uid="33382" user="de_muur" changeset="8159044">
    <nd ref="472346390"/>
    <nd ref="310758764"/>
    <tag k="highway" v="secondary"/>
    <tag k="maxspeed" v="50"/>
    <tag k="name" v="Koberger Straße"/>
    <tag k="ref" v="L 200"/>
    <tag k="surface" v="paved"/>
  </way>
  <way id="34001497" version="1" timestamp="2009-05-03T10:52:09Z" uid="34428" user="usm78-gis" changeset="1059222">
    <nd ref="389499167"/>
    <nd ref="22353856"/>
    <tag k="highway" v="residential"/>
  </way>
  <way id="34001524" version="1" timestamp="2009-05-03T10:54:17Z" uid="30632" user="antblant" changeset="1059252">
    <nd ref="389499652"/>
    <nd ref="275538346"/>
    <nd ref="275538114"/>
    <tag k="created_by" v="Potlatch 0.10f"/>
    <tag k="highway" v="primary"/>
  </way>
  <way id="34001850" version="1" timestamp="2009-05-03T10:55:45Z" uid="34428" user="usm78-gis" changeset="1059272">
    <nd ref="389502326"/>
    <nd ref="373824588"/>
    <tag k="highway" v="residential"/>
  </way>
  <way id="34001851" version="1" timestamp="2009-05-03T10:55:47Z" uid="34428" user="usm78-gis" changeset="1059272">
    <nd ref="373824584"/>
    <nd ref="373824587"/>
    <nd ref="389502326"/>
    <tag k="highway" v="residential"/>
  </way>
  <way id="34001891" version="1" timestamp="2009-05-03T10:56:33Z" uid="34428" user="usm78-gis" changeset="1059284">
    <nd ref="389502753"/>
    <nd ref="373824596"/>
    <nd ref="373824598"/>
    <nd ref="373824600"/>
    <nd ref="373824602"/>
    <nd ref="373824604"/>
    <nd ref="373824606"/>
    <nd ref="373824608"/>
    <nd ref="373824610"/>
    <nd ref="373824612"/>
    <nd ref="373824614"/>
    <tag k="highway" v="residential"/>
    <tag k="name" v="ул. Кутышева"/>
  </way>
  <way id="34001891" version="2" timestamp="2009-05-23T16:29:59Z" uid="34428" user="usm78-gis" changeset="1296556">
    <nd ref="389502753"/>
    <nd ref="373824596"/>
    <nd ref="373824598"/>
    <nd ref="373824600"/>
    <nd ref="373824602"/>
    <tag k="highway" v="residential"/>
    <tag k="name" v="ул. Кутышева"/>
  </way>
  <way id="34001895" version="1" timestamp="2009-05-03T10:56:51Z" uid="34428" user="usm78-gis" changeset="1059284">
    <nd ref="389502755"/>
    <nd ref="373824590"/>
    <nd ref="373824592"/>
    <nd ref="373824593"/>
    <nd ref="389502753"/>
    <tag k="highway" v="residential"/>
    <tag k="name" v="ул. Кутышева"/>
  </way>
  <way id="34001895" version="2" timestamp="2009-06-01T22:39:23Z" uid="34428" user="usm78-gis" changeset="1399530">
    <nd ref="389502755"/>
    <nd ref="414267607"/>
    <nd ref="373824590"/>
    <nd ref="373824592"/>
    <nd ref="373824593"/>
    <nd ref="389502753"/>
    <tag k="highway" v="residential"/>
    <tag k="name" v="ул. Кутышева"/>
  </way>
  <way id="34001895" version="3" timestamp="2009-06-01T22:39:24Z" uid="34428" user="usm78-gis" changeset="1399530">
    <nd ref="389502755"/>
    <nd ref="414267607"/>
    <tag k="highway" v="residential"/>
    <tag k="name" v="ул. Кутышева"/>
  </way>
  <way id="34001898" version="1" timestamp="2009-05-03T10:56:56Z" uid="34428" user="usm78-gis" changeset="1059284">
    <nd ref="389502754"/>
    <nd ref="376609153"/>
    <tag k="created_by" v="Potlatch 0.10f"/>
    <tag k="highway" v="residential"/>
  </way>
  <way id="34001921" version="2" timestamp="2010-04-22T07:03:24Z" uid="4467" user="Rosscoe" changeset="4492965">
    <nd ref="148889241"/>
    <nd ref="148889242"/>
    <nd ref="148889243"/>
    <nd ref="148889245"/>
    <nd ref="148889246"/>
    <nd ref="148889247"/>
    <nd ref="148889248"/>
    <nd ref="148889249"/>
    <nd ref="148889250"/>
    <nd ref="148889251"/>
    <nd ref="148889252"/>
    <nd ref="148889253"/>
    <nd ref="148889254"/>
    <nd ref="148889255"/>
    <nd ref="148889256"/>
    <nd ref="148889257"/>
    <nd ref="148889258"/>
    <nd ref="148889259"/>
    <nd ref="148889260"/>
    <nd ref="148889261"/>
    <nd ref="148889262"/>
    <nd ref="148889263"/>
    <nd ref="148889264"/>
    <nd ref="148889265"/>
    <nd ref="148889266"/>
    <nd ref="148889267"/>
    <nd ref="148889268"/>
    <nd ref="148889269"/>
    <nd ref="148889270"/>
    <nd ref="148889271"/>
    <nd ref="148889272"/>
    <nd ref="148889273"/>
    <nd ref="148889279"/>
    <nd ref="148889283"/>
    <nd ref="148889287"/>
    <nd ref="148889289"/>
    <nd ref="148889290"/>
    <tag k="highway" v="primary"/>
    <tag k="maxspeed" v="50"/>
    <tag k="name" v="Mount Barker Road"/>
    <tag k="ref" v="B34"/>
    <tag k="source" v="survey"/>
  </way>
  <way id="34001945" version="1" timestamp="2009-05-03T10:59:20Z" uid="34428" user="usm78-gis" changeset="1059316">
    <nd ref="389503126"/>
    <nd ref="217312016"/>
    <nd ref="217312017"/>
    <nd ref="217312019"/>
    <nd ref="217312020"/>
    <nd ref="217312021"/>
    <nd ref="217312022"/>
    <nd ref="217312023"/>
    <nd ref="217312024"/>
    <nd ref="217312026"/>
    <nd ref="217312028"/>
    <tag k="highway" v="secondary"/>
  </way>
  <way id="34001946" version="1" timestamp="2009-05-03T10:59:22Z" uid="34428" user="usm78-gis" changeset="1059316">
    <nd ref="217312015"/>
    <nd ref="389503126"/>
    <tag k="highway" v="secondary"/>
  </way>
  <way id="34001946" version="2" timestamp="2009-05-03T10:59:35Z" uid="34428" user="usm78-gis" changeset="1059316">
    <nd ref="217312015"/>
    <nd ref="389503126"/>
    <tag k="bridge" v="yes"/>
    <tag k="highway" v="secondary"/>
  </way>
  <way id="34001977" version="1" timestamp="2009-05-03T11:00:49Z" uid="34428" user="usm78-gis" changeset="1059334">
    <nd ref="11155468"/>
    <nd ref="11155472"/>
    <nd ref="11155477"/>
    <nd ref="302664946"/>
    <nd ref="11155485"/>
    <nd ref="10611413"/>
    <nd ref="10611412"/>
    <nd ref="8136069"/>
    <tag k="created_by" v="Potlatch 0.10d"/>
    <tag k="highway" v="secondary"/>
  </way>
  <way id="34001981" version="1" timestamp="2009-05-03T11:01:01Z" uid="34428" user="usm78-gis" changeset="1059334">
    <nd ref="11155464"/>
    <nd ref="11155468"/>
    <tag k="created_by" v="Potlatch 0.10d"/>
    <tag k="highway" v="secondary"/>
  </way>
</osm>
