<?xml version='1.0' encoding='UTF-8'?>
<osm version="0.6" generator="libosmium/2.20.0">
  <way id="34073003" version="2" timestamp="2009-07-25T22:55:37Z" uid="20587" user="balrog-kun" changeset="1939424"/>
  <way id="34073013" version="1" timestamp="2009-05-04T17:45:05Z" uid="10712" user="Kraeml" changeset="1077758">
    <nd ref="269969210"/>
    <nd ref="269969213"/>
    <nd ref="269969217"/>
    <nd ref="269969220"/>
    <nd ref="269969222"/>
    <nd ref="269969223"/>
    <nd ref="269969224"/>
    <nd ref="146175325"/>
    <tag k="bicycle" v="yes"/>
    <tag k="foot" v="yes"/>
    <tag k="highway" v="path"/>
    <tag k="motorcar" v="no"/>
    <tag k="mtb:scale" v="1"/>
    <tag k="surface" v="ground"/>
    <tag k="tracktype" v="grade5"/>
  </way>
  <way id="34073336" version="4" timestamp="2011-02-06T12:44:51Z" uid="49111" user="Markus B" changeset="7203080">
    <nd ref="390336664"/>
    <nd ref="681328164"/>
    <nd ref="390407304"/>
    <nd ref="390407370"/>
    <nd ref="388952603"/>
    <nd ref="390399624"/>
    <nd ref="390399646"/>
    <nd ref="1138999397"/>
    <nd ref="1138999391"/>
    <nd ref="388952597"/>
    <tag k="highway" v="tertiary"/>
    <tag k="name" v="שדרות ירושלים"/>
    <tag k="name:en" v="Sderot Yarushalayim"/>
    <tag k="oneway" v="yes"/>
  </way>
  <way id="34073358" version="2" timestamp="2011-02-06T12:44:28Z" uid="49111" user="Markus B" changeset="7203080">
    <nd ref="390440203"/>
    <nd ref="390440612"/>
    <nd ref="1138999300"/>
    <nd ref="1138999356"/>
    <nd ref="390440613"/>
    <nd ref="1138999338"/>
    <nd ref="1138999419"/>
    <nd ref="388952597"/>
    <nd ref="390440614"/>
    <nd ref="1138999415"/>
    <nd ref="1138999332"/>
    <nd ref="390440356"/>
    <nd ref="1138999370"/>
    <nd ref="390440203"/>
    <tag k="highway" v="tertiary"/>
  </way>
  <way id="34073403" version="3" timestamp="2011-02-06T12:44:43Z" uid="49111" user="Markus B" changeset="7203080">
    <nd ref="390440613"/>
    <nd ref="1138999324"/>
    <nd ref="1138999387"/>
    <nd ref="390440915"/>
    <nd ref="390440916"/>
    <nd ref="390440917"/>
    <nd ref="390440918"/>
    <nd ref="390440919"/>
    <nd ref="390440920"/>
    <nd ref="681328192"/>
    <nd ref="390440922"/>
    <nd ref="390336721"/>
    <tag k="highway" v="tertiary"/>
    <tag k="name" v="שדרות ירושלים"/>
    <tag k="name:en" v="Sderot Yarushalayim"/>
    <tag k="oneway" v="yes"/>
  </way>
  <way id="34073446" version="8" timestamp="2011-02-06T12:25:59Z" uid="49111" user="Markus B" changeset="7202867">
    <nd ref="388985549"/>
    <nd ref="390441595"/>
    <nd ref="429661671"/>
    <nd ref="390441596"/>
    <nd ref="390441597"/>
    <nd ref="1138977327"/>
    <nd ref="390442393"/>
    <nd ref="390442394"/>
    <nd ref="390442395"/>
    <nd ref="1138978334"/>
    <nd ref="390442396"/>
    <nd ref="443456542"/>
    <nd ref="390442397"/>
    <nd ref="390442398"/>
    <nd ref="390442399"/>
    <nd ref="390442400"/>
    <nd ref="390442421"/>
    <tag k="highway" v="tertiary"/>
    <tag k="name" v="בר כוכבא"/>
    <tag k="name:en" v="Bar Kochva"/>
    <tag k="oneway" v="yes"/>
  </way>
  <way id="34073446" version="9" timestamp="2011-02-06T12:44:40Z" uid="49111" user="Markus B" changeset="7203080">
    <nd ref="388985549"/>
    <nd ref="390441595"/>
    <nd ref="429661671"/>
    <nd ref="390441596"/>
    <nd ref="390441597"/>
    <nd ref="1138977327"/>
    <nd ref="390442393"/>
    <nd ref="390442394"/>
    <nd ref="390442395"/>
    <nd ref="1138978334"/>
    <nd ref="390442396"/>
    <nd ref="443456542"/>
    <nd ref="390442397"/>
    <nd ref="390442398"/>
    <nd ref="390442399"/>
    <nd ref="1138999358"/>
    <nd ref="1138999425"/>
    <nd ref="390442400"/>
    <nd ref="390442421"/>
    <tag k="highway" v="tertiary"/>
    <tag k="name" v="בר כוכבא"/>
    <tag k="name:en" v="Bar Kochva"/>
    <tag k="oneway" v="yes"/>
  </way>
  <way id="34073561" version="3" timestamp="2011-02-06T12:44:42Z" uid="49111" user="Markus B" changeset="7203080">
    <nd ref="390442400"/>
    <nd ref="1138999351"/>
    <nd ref="390442859"/>
    <tag k="highway" v="tertiary"/>
    <tag k="name" v="בר כוכבא"/>
    <tag k="name:en" v="Bar Kochva"/>
    <tag k="oneway" v="yes"/>
  </way>
  <way id="34073585" version="1" timestamp="2009-05-04T17:59:59Z" uid="10712" user="Kraeml" changeset="1077952">
    <nd ref="60220922"/>
    <nd ref="60220923"/>
    <nd ref="60220924"/>
    <nd ref="60220926"/>
    <nd ref="60220928"/>
    <nd ref="146175325"/>
    <nd ref="60220930"/>
    <nd ref="60220932"/>
    <nd ref="269969230"/>
    <nd ref="60220934"/>
    <nd ref="60220935"/>
    <nd ref="60220937"/>
    <nd ref="60220939"/>
    <nd ref="60220941"/>
    <nd ref="60220943"/>
    <nd ref="60220944"/>
    <nd ref="60220946"/>
    <nd ref="60220948"/>
    <nd ref="60220950"/>
    <nd ref="269970328"/>
    <nd ref="60220951"/>
    <nd ref="60220953"/>
    <nd ref="60220955"/>
    <nd ref="60220957"/>
    <nd ref="146175329"/>
    <nd ref="146175331"/>
    <nd ref="253575329"/>
    <nd ref="60220958"/>
    <tag k="created_by" v="Potlatch 0.7b"/>
    <tag k="highway" v="track"/>
    <tag k="surface" v="unpaved"/>
    <tag k="tracktype" v="grade2"/>
  </way>
  <way id="34073585" version="2" timestamp="2009-05-04T18:01:49Z" uid="10712" user="Kraeml" changeset="1077974">
    <nd ref="60220922"/>
    <nd ref="60220923"/>
    <nd ref="60220924"/>
    <nd ref="60220926"/>
    <nd ref="60220928"/>
    <nd ref="146175325"/>
    <nd ref="60220930"/>
    <nd ref="60220932"/>
    <nd ref="269969230"/>
    <nd ref="60220934"/>
    <nd ref="60220935"/>
    <nd ref="60220937"/>
    <nd ref="60220939"/>
    <nd ref="60220941"/>
    <nd ref="60220943"/>
    <nd ref="60220944"/>
    <nd ref="60220946"/>
    <nd ref="60220948"/>
    <nd ref="60220950"/>
    <nd ref="269970328"/>
    <tag k="created_by" v="Potlatch 0.7b"/>
    <tag k="highway" v="track"/>
    <tag k="surface" v="unpaved"/>
    <tag k="tracktype" v="grade2"/>
  </way>
  <way id="34073586" version="1" timestamp="2009-05-04T18:00:00Z" uid="10712" user="Kraeml" changeset="1077952">
    <nd ref="390443169"/>
    <nd ref="390443170"/>
    <nd ref="390443171"/>
    <tag k="bicycle" v="yes"/>
    <tag k="foot" v="yes"/>
    <tag k="highway" v="path"/>
    <tag k="motorcar" v="no"/>
    <tag k="surface" v="unpaved"/>
  </way>
  <way id="34073586" version="2" timestamp="2009-05-04T18:01:50Z" uid="10712" user="Kraeml" changeset="1077974"/>
  <way id="34073589" version="2" timestamp="2011-02-06T12:25:55Z" uid="49111" user="Markus B" changeset="7202867">
    <nd ref="388942578"/>
    <nd ref="390443173"/>
    <nd ref="390443174"/>
    <nd ref="390443175"/>
    <nd ref="390443176"/>
    <nd ref="390443177"/>
    <nd ref="390443178"/>
    <nd ref="390443179"/>
    <nd ref="390443180"/>
    <nd ref="390443181"/>
    <nd ref="390443182"/>
    <nd ref="390443183"/>
    <nd ref="390443184"/>
    <nd ref="390443185"/>
    <nd ref="390443187"/>
    <nd ref="390443188"/>
    <nd ref="388939725"/>
    <tag k="highway" v="tertiary"/>
    <tag k="name" v="בר כוכבא"/>
    <tag k="name:en" v="Bar Kochva"/>
    <tag k="oneway" v="yes"/>
  </way>
  <way id="34073589" version="3" timestamp="2011-02-06T12:44:36Z" uid="49111" user="Markus B" changeset="7203080">
    <nd ref="388942578"/>
    <nd ref="390443173"/>
    <nd ref="390443174"/>
    <nd ref="390443175"/>
    <nd ref="390443176"/>
    <nd ref="390443177"/>
    <nd ref="1138999302"/>
    <nd ref="390443178"/>
    <nd ref="390443179"/>
    <nd ref="390443180"/>
    <nd ref="390443181"/>
    <nd ref="390443182"/>
    <nd ref="390443183"/>
    <nd ref="390443184"/>
    <nd ref="390443185"/>
    <nd ref="390443187"/>
    <nd ref="390443188"/>
    <nd ref="388939725"/>
    <tag k="highway" v="tertiary"/>
    <tag k="name" v="בר כוכבא"/>
    <tag k="name:en" v="Bar Kochva"/>
    <tag k="oneway" v="yes"/>
  </way>
  <way id="34073646" version="1" timestamp="2009-05-04T18:01:49Z" uid="10712" user="Kraeml" changeset="1077974">
    <nd ref="269970328"/>
    <nd ref="60220951"/>
    <nd ref="60220953"/>
    <nd ref="60220955"/>
    <nd ref="60220957"/>
    <nd ref="146175329"/>
    <nd ref="146175331"/>
    <nd ref="253575329"/>
    <nd ref="60220958"/>
    <tag k="created_by" v="Potlatch 0.7b"/>
    <tag k="highway" v="track"/>
    <tag k="surface" v="unpaved"/>
    <tag k="tracktype" v="grade2"/>
  </way>
  <way id="34073652" version="3" timestamp="2010-09-29T22:36:36Z" uid="96874" user="Quedel" changeset="5916151">
    <nd ref="390444563"/>
    <nd ref="390444564"/>
    <nd ref="390444565"/>
    <nd ref="390444566"/>
    <nd ref="390444567"/>
    <nd ref="390444568"/>
    <nd ref="931129334"/>
    <nd ref="390444569"/>
    <tag k="highway" v="residential"/>
    <tag k="is_in" v="Wuppertal,Germany"/>
    <tag k="maxspeed" v="30"/>
    <tag k="name" v="Münzstraße"/>
    <tag k="source" v="survey"/>
  </way>
  <way id="34073652" version="4" timestamp="2011-03-24T22:15:18Z" uid="96874" user="Quedel" changeset="7660671">
    <nd ref="390444563"/>
    <nd ref="390444564"/>
    <nd ref="390444565"/>
    <nd ref="390444566"/>
    <nd ref="390444567"/>
    <nd ref="390444568"/>
    <nd ref="931129334"/>
    <nd ref="390444569"/>
    <tag k="highway" v="residential"/>
    <tag k="is_in" v="Wuppertal,Germany"/>
    <tag k="maxspeed" v="30"/>
    <tag k="name" v="Münzstraße"/>
    <tag k="parking:lane:both" v="no_parking"/>
    <tag k="source" v="survey"/>
  </way>
  <way id="34073655" version="4" timestamp="2011-03-24T22:15:17Z" uid="96874" user="Quedel" changeset="7660671">
    <nd ref="304095561"/>
    <nd ref="304095564"/>
    <tag k="highway" v="residential"/>
    <tag k="name" v="Stahlstraße"/>
    <tag k="parking:condition:both" v="free"/>
    <tag k="parking:lane:both" v="inline"/>
  </way>
  <way id="34073737" version="1" timestamp="2009-05-04T18:04:41Z" uid="64269" user="Triffnix" changeset="1078020">
    <nd ref="390445395"/>
    <nd ref="390445397"/>
    <nd ref="390445396"/>
    <tag k="highway" v="service"/>
    <tag k="service" v="parking_aisle"/>
    <tag k="surface" v="paved"/>
  </way>
  <way id="34073738" version="1" timestamp="2009-05-04T18:04:41Z" uid="64269" user="Triffnix" changeset="1078020">
    <nd ref="390445397"/>
    <nd ref="390445398"/>
    <tag k="highway" v="service"/>
    <tag k="service" v="parking_aisle"/>
    <tag k="surface" v="paved"/>
  </way>
  <way id="34073796" version="4" timestamp="2011-02-06T12:26:00Z" uid="49111" user="Markus B" changeset="7202867">
    <nd ref="302890147"/>
    <nd ref="302890149"/>
    <nd ref="390414546"/>
    <nd ref="302890151"/>
    <nd ref="429657776"/>
    <nd ref="1138978281"/>
    <nd ref="388934312"/>
    <nd ref="1138978021"/>
    <nd ref="1138976911"/>
    <nd ref="1138977004"/>
    <tag k="highway" v="tertiary"/>
    <tag k="name" v="הטייסים"/>
    <tag k="name:en" v="Ha&apos;Tayasim"/>
    <tag k="name:he" v="הטייסים"/>
    <tag k="oneway" v="yes"/>
  </way>
  <way id="34073820" version="1" timestamp="2009-05-04T18:07:38Z" uid="10712" user="Kraeml" changeset="1078071">
    <nd ref="46817214"/>
    <nd ref="390447663"/>
    <nd ref="390447664"/>
    <nd ref="390447665"/>
    <tag k="bicycle" v="yes"/>
    <tag k="foot" v="yes"/>
    <tag k="highway" v="path"/>
    <tag k="surface" v="ground"/>
  </way>
  <way id="34073821" version="1" timestamp="2009-05-04T18:07:38Z" uid="10712" user="Kraeml" changeset="1078071">
    <nd ref="253247969"/>
    <nd ref="253247937"/>
    <nd ref="253247938"/>
    <nd ref="253247939"/>
    <nd ref="253247940"/>
    <nd ref="253247941"/>
    <nd ref="253247942"/>
    <nd ref="253247943"/>
    <nd ref="253247944"/>
    <nd ref="253247945"/>
    <nd ref="253247946"/>
    <nd ref="253247947"/>
    <nd ref="253247948"/>
    <nd ref="253247949"/>
    <nd ref="253247953"/>
    <nd ref="253247955"/>
    <nd ref="253247956"/>
    <nd ref="253245882"/>
    <nd ref="253245884"/>
    <nd ref="253245886"/>
    <nd ref="253245889"/>
    <nd ref="253245891"/>
    <nd ref="253245879"/>
    <tag k="created_by" v="Potlatch 0.7b"/>
    <tag k="highway" v="path"/>
    <tag k="mtb:scale" v="1"/>
    <tag k="surface" v="ground"/>
    <tag k="tracktype" v="grade4"/>
    <tag k="trail_visibility" v="excellent"/>
  </way>
  <way id="34073832" version="4" timestamp="2011-02-06T12:25:34Z" uid="49111" user="Markus B" changeset="7202867">
    <nd ref="390418441"/>
    <nd ref="390447766"/>
    <nd ref="390447767"/>
    <nd ref="390447768"/>
    <nd ref="390447770"/>
    <nd ref="390447777"/>
    <nd ref="390447771"/>
    <nd ref="302890147"/>
    <tag k="highway" v="tertiary"/>
    <tag k="name" v="הטייסים"/>
    <tag k="name:en" v="Ha&apos;Tayasim"/>
    <tag k="name:he" v="הטייסים"/>
    <tag k="oneway" v="yes"/>
  </way>
  <way id="34073870" version="3" timestamp="2011-02-06T12:26:25Z" uid="49111" user="Markus B" changeset="7202867">
    <nd ref="302890172"/>
    <nd ref="1138977121"/>
    <nd ref="1138976700"/>
    <nd ref="390448188"/>
    <nd ref="1138977652"/>
    <nd ref="390448189"/>
    <nd ref="1138978637"/>
    <nd ref="390448190"/>
    <nd ref="390448191"/>
    <nd ref="390448105"/>
    <tag k="highway" v="tertiary"/>
    <tag k="name" v="הטייסים"/>
    <tag k="name:en" v="Ha&apos;Tayasim"/>
    <tag k="name:he" v="הטייסים"/>
    <tag k="oneway" v="yes"/>
  </way>
  <way id="34073918" version="3" timestamp="2011-02-06T12:25:26Z" uid="49111" user="Markus B" changeset="7202867">
    <nd ref="388984961"/>
    <nd ref="1138976951"/>
    <nd ref="390448741"/>
    <nd ref="390448742"/>
    <nd ref="390448743"/>
    <nd ref="390448744"/>
    <nd ref="388985279"/>
    <tag k="highway" v="tertiary"/>
    <tag k="name" v="יקוטיאל אדם"/>
    <tag k="name:en" v="Yekutiel Adam"/>
    <tag k="oneway" v="yes"/>
  </way>
  <way id="34073959" version="4" timestamp="2011-02-06T12:26:01Z" uid="49111" user="Markus B" changeset="7202867">
    <nd ref="390338756"/>
    <nd ref="390449031"/>
    <nd ref="390449033"/>
    <nd ref="390449035"/>
    <nd ref="390449037"/>
    <nd ref="390449039"/>
    <nd ref="390449041"/>
    <nd ref="390449043"/>
    <nd ref="390449046"/>
    <nd ref="390449048"/>
    <nd ref="390449500"/>
    <tag k="highway" v="tertiary"/>
    <tag k="name" v="רפאל איתן"/>
    <tag k="name:en" v="Refael Eitan"/>
    <tag k="oneway" v="yes"/>
  </way>
</osm>
