<?xml version='1.0' encoding='UTF-8'?>
<osm version="0.6" generator="libosmium/2.20.0">
  <way id="34102547" version="4" timestamp="2009-12-04T08:04:33Z" uid="7617" user="Franc" changeset="3286537">
    <nd ref="26359557"/>
    <nd ref="580661803"/>
    <nd ref="31437750"/>
    <tag k="abutters" v="residential"/>
    <tag k="highway" v="secondary"/>
    <tag k="maxspeed" v="50"/>
    <tag k="name" v="Lenthall Street"/>
  </way>
  <way id="34102547" version="5" timestamp="2009-12-10T02:31:20Z" uid="30201" user="rrankin" changeset="3338883">
    <nd ref="26359557"/>
    <nd ref="580661803"/>
    <nd ref="31437750"/>
    <tag k="highway" v="secondary"/>
    <tag k="maxspeed" v="50"/>
    <tag k="name" v="Lenthall Street"/>
  </way>
  <way id="34102633" version="3" timestamp="2009-10-24T14:38:22Z" uid="85955" user="Gerd Höweler" changeset="2938378">
    <nd ref="33997032"/>
    <nd ref="317328823"/>
    <nd ref="31397644"/>
    <nd ref="356633540"/>
    <nd ref="292154899"/>
    <nd ref="31397638"/>
    <nd ref="336361465"/>
    <nd ref="33997029"/>
    <nd ref="33997027"/>
    <nd ref="31397626"/>
    <nd ref="317328824"/>
    <nd ref="31397625"/>
    <nd ref="33997025"/>
    <nd ref="33997022"/>
    <nd ref="31397624"/>
    <tag k="highway" v="secondary"/>
    <tag k="name" v="Milser Straße"/>
    <tag k="ref" v="L 779"/>
  </way>
  <way id="34102639" version="2" timestamp="2009-07-07T17:50:57Z" uid="85955" user="Gerd Höweler" changeset="1764748">
    <nd ref="281604306"/>
    <nd ref="122439929"/>
    <nd ref="122445010"/>
    <nd ref="31397621"/>
    <tag k="highway" v="primary"/>
    <tag k="maxspeed" v="70"/>
    <tag k="name" v="Herforder Straße"/>
    <tag k="ref" v="B 61"/>
  </way>
  <way id="34102641" version="2" timestamp="2009-11-08T18:44:25Z" uid="85955" user="Gerd Höweler" changeset="3066510">
    <nd ref="259063229"/>
    <nd ref="285494245"/>
    <nd ref="285494208"/>
    <nd ref="299021218"/>
    <nd ref="359904278"/>
    <nd ref="283033428"/>
    <nd ref="559658013"/>
    <nd ref="280111414"/>
    <tag k="highway" v="secondary"/>
    <tag k="name" v="Braker Straße"/>
    <tag k="ref" v="L 804"/>
    <tag k="source" v="survey"/>
  </way>
  <way id="34102641" version="3" timestamp="2010-04-03T16:05:34Z" uid="85955" user="Gerd Höweler" changeset="4314575">
    <nd ref="259063229"/>
    <nd ref="285494245"/>
    <nd ref="285494208"/>
    <nd ref="299021218"/>
    <nd ref="359904278"/>
    <nd ref="283033428"/>
    <nd ref="559658013"/>
    <nd ref="280111414"/>
    <tag k="highway" v="secondary"/>
    <tag k="maxspeed" v="50"/>
    <tag k="name" v="Braker Straße"/>
    <tag k="ref" v="L 804"/>
    <tag k="source" v="survey"/>
  </way>
  <way id="34102642" version="2" timestamp="2010-07-10T19:55:46Z" uid="8619" user="cetest" changeset="5185052">
    <nd ref="44082090"/>
    <nd ref="44081071"/>
    <nd ref="44079012"/>
    <nd ref="44077980"/>
    <nd ref="390913479"/>
    <nd ref="390913481"/>
    <nd ref="634504517"/>
    <tag k="AND:importance_level" v="5"/>
    <tag k="AND_nosr_r" v="15095472"/>
    <tag k="highway" v="unclassified"/>
    <tag k="name" v="Havendam"/>
  </way>
  <way id="34102763" version="2" timestamp="2010-04-03T16:05:34Z" uid="85955" user="Gerd Höweler" changeset="4314575">
    <nd ref="259063252"/>
    <nd ref="259063253"/>
    <nd ref="259063229"/>
    <tag k="highway" v="secondary"/>
    <tag k="maxspeed" v="50"/>
    <tag k="name" v="Braker Straße"/>
    <tag k="ref" v="L 804"/>
    <tag k="source" v="survey"/>
  </way>
  <way id="34102819" version="2" timestamp="2010-03-28T01:51:27Z" uid="20587" user="balrog-kun" changeset="4250871">
    <nd ref="123791062"/>
    <nd ref="390917050"/>
    <tag k="bridge" v="yes"/>
    <tag k="highway" v="residential"/>
    <tag k="layer" v="1"/>
    <tag k="name" v="Pioneer Boulevard"/>
    <tag k="tiger:cfcc" v="A41"/>
    <tag k="tiger:county" v="Los Angeles, CA"/>
    <tag k="tiger:name_base" v="Pioneer"/>
    <tag k="tiger:name_type" v="Blvd"/>
    <tag k="tiger:separated" v="no"/>
    <tag k="tiger:source" v="tiger_import_dch_v0.6_20070809"/>
    <tag k="tiger:tlid" v="141738899:141736882:141746688"/>
    <tag k="tiger:zip_left" v="90606"/>
    <tag k="tiger:zip_right" v="90606"/>
  </way>
  <way id="34102820" version="2" timestamp="2010-03-28T01:51:27Z" uid="20587" user="balrog-kun" changeset="4250871">
    <nd ref="390917050"/>
    <nd ref="123295085"/>
    <nd ref="123791065"/>
    <nd ref="122867186"/>
    <nd ref="254027038"/>
    <nd ref="123784218"/>
    <nd ref="123318545"/>
    <tag k="highway" v="residential"/>
    <tag k="name" v="Pioneer Boulevard"/>
    <tag k="tiger:cfcc" v="A41"/>
    <tag k="tiger:county" v="Los Angeles, CA"/>
    <tag k="tiger:name_base" v="Pioneer"/>
    <tag k="tiger:name_type" v="Blvd"/>
    <tag k="tiger:separated" v="no"/>
    <tag k="tiger:source" v="tiger_import_dch_v0.6_20070809"/>
    <tag k="tiger:tlid" v="141738899:141736882:141746688"/>
    <tag k="tiger:zip_left" v="90606"/>
    <tag k="tiger:zip_right" v="90606"/>
  </way>
  <way id="34102879" version="2" timestamp="2009-07-07T17:50:58Z" uid="85955" user="Gerd Höweler" changeset="1764748">
    <nd ref="242550706"/>
    <nd ref="122439918"/>
    <nd ref="281604306"/>
    <tag k="highway" v="primary"/>
    <tag k="maxspeed" v="70"/>
    <tag k="name" v="Herforder Straße"/>
    <tag k="ref" v="B 61"/>
  </way>
  <way id="34102890" version="2" timestamp="2010-07-09T03:11:50Z" uid="74617" user="JohnSmith" changeset="5170739">
    <nd ref="390918823"/>
    <nd ref="390919184"/>
    <nd ref="390919185"/>
    <tag k="highway" v="residential"/>
    <tag k="maxspeed" v="50"/>
    <tag k="maxspeed:source" v="default residential speed limit in Australia"/>
  </way>
  <way id="34102892" version="3" timestamp="2009-12-10T14:02:27Z" uid="4467" user="Rosscoe" changeset="3341940">
    <nd ref="390919186"/>
    <nd ref="390919189"/>
    <tag k="highway" v="residential"/>
    <tag k="name" v="Rodney Court"/>
    <tag k="source" v="nearmap"/>
  </way>
  <way id="34102892" version="4" timestamp="2009-12-10T14:17:43Z" uid="4467" user="Rosscoe" changeset="3341950">
    <nd ref="390919186"/>
    <nd ref="390919189"/>
    <tag k="highway" v="residential"/>
    <tag k="name" v="Rodney Court"/>
    <tag k="source" v="nearmap"/>
  </way>
  <way id="34102892" version="5" timestamp="2010-07-09T03:10:23Z" uid="74617" user="JohnSmith" changeset="5170739">
    <nd ref="390919186"/>
    <nd ref="390919189"/>
    <tag k="highway" v="residential"/>
    <tag k="maxspeed" v="50"/>
    <tag k="maxspeed:source" v="default residential speed limit in Australia"/>
    <tag k="name" v="Rodney Court"/>
    <tag k="source" v="nearmap"/>
  </way>
</osm>
