<?xml version='1.0' encoding='UTF-8'?>
<osm version="0.6" generator="libosmium/2.20.0">
  <way id="34212015" version="5" timestamp="2009-10-14T00:00:40Z" uid="36809" user="pfoten_weg_!_" changeset="2841284">
    <nd ref="344531967"/>
    <nd ref="344531968"/>
    <nd ref="344531969"/>
    <nd ref="392365127"/>
    <nd ref="392365128"/>
    <nd ref="344532236"/>
    <nd ref="344532237"/>
    <nd ref="344532238"/>
    <nd ref="344532239"/>
    <nd ref="344532241"/>
    <nd ref="344532242"/>
    <nd ref="344532243"/>
    <nd ref="344532244"/>
    <tag k="highway" v="secondary"/>
    <tag k="merano:way_id" v="995"/>
    <tag k="name" v="Panoramastraße / Strada Panoramica"/>
    <tag k="name:de" v="Panoramastraße"/>
    <tag k="name:it" v="Strada Panoramica"/>
  </way>
  <way id="34212025" version="3" timestamp="2009-10-14T00:00:39Z" uid="36809" user="pfoten_weg_!_" changeset="2841284">
    <nd ref="344531924"/>
    <nd ref="344531961"/>
    <nd ref="344531962"/>
    <nd ref="344531963"/>
    <nd ref="344531964"/>
    <nd ref="344531965"/>
    <nd ref="344531966"/>
    <nd ref="344531967"/>
    <tag k="highway" v="secondary"/>
    <tag k="layer" v="-1"/>
    <tag k="merano:way_id" v="995"/>
    <tag k="name" v="Panoramastraße / Strada Panoramica"/>
    <tag k="name:de" v="Panoramastraße"/>
    <tag k="name:it" v="Strada Panoramica"/>
    <tag k="tunnel" v="yes"/>
  </way>
  <way id="34212031" version="3" timestamp="2009-10-13T23:56:56Z" uid="36809" user="pfoten_weg_!_" changeset="2841284">
    <nd ref="267310896"/>
    <nd ref="344531938"/>
    <nd ref="344531937"/>
    <nd ref="344531936"/>
    <tag k="highway" v="secondary"/>
    <tag k="layer" v="-1"/>
    <tag k="merano:way_id" v="995"/>
    <tag k="name" v="Panoramastraße / Strada Panoramica"/>
    <tag k="name:de" v="Panoramastraße"/>
    <tag k="name:it" v="Strada Panoramica"/>
    <tag k="tunnel" v="yes"/>
  </way>
  <way id="34212033" version="3" timestamp="2009-10-13T23:56:55Z" uid="36809" user="pfoten_weg_!_" changeset="2841284">
    <nd ref="344531936"/>
    <nd ref="344531935"/>
    <nd ref="344531934"/>
    <nd ref="392570541"/>
    <nd ref="344531933"/>
    <nd ref="344531932"/>
    <nd ref="344531931"/>
    <nd ref="344531930"/>
    <nd ref="344531929"/>
    <nd ref="344531928"/>
    <tag k="highway" v="secondary"/>
    <tag k="merano:way_id" v="995"/>
    <tag k="name" v="Panoramastraße / Strada Panoramica"/>
    <tag k="name:de" v="Panoramastraße"/>
    <tag k="name:it" v="Strada Panoramica"/>
  </way>
  <way id="34212036" version="3" timestamp="2009-10-14T00:00:46Z" uid="36809" user="pfoten_weg_!_" changeset="2841284">
    <nd ref="344531928"/>
    <nd ref="344531927"/>
    <tag k="highway" v="secondary"/>
    <tag k="layer" v="-1"/>
    <tag k="merano:way_id" v="995"/>
    <tag k="name" v="Panoramastraße / Strada Panoramica"/>
    <tag k="name:de" v="Panoramastraße"/>
    <tag k="name:it" v="Strada Panoramica"/>
    <tag k="tunnel" v="yes"/>
  </way>
  <way id="34212038" version="2" timestamp="2009-10-13T23:56:55Z" uid="36809" user="pfoten_weg_!_" changeset="2841284">
    <nd ref="344531927"/>
    <nd ref="344531926"/>
    <nd ref="344531925"/>
    <nd ref="344531924"/>
    <tag k="highway" v="secondary"/>
    <tag k="merano:way_id" v="995"/>
    <tag k="name" v="Panoramastraße / Strada Panoramica"/>
    <tag k="name:de" v="Panoramastraße"/>
    <tag k="name:it" v="Strada Panoramica"/>
  </way>
  <way id="34212040" version="2" timestamp="2009-10-14T00:04:57Z" uid="36809" user="pfoten_weg_!_" changeset="2841284">
    <nd ref="244096317"/>
    <nd ref="244096308"/>
    <nd ref="244096313"/>
    <tag k="highway" v="secondary"/>
    <tag k="merano:way_id" v="995"/>
    <tag k="name" v="Panoramastraße / Strada Panoramica"/>
    <tag k="name:de" v="Panoramastraße"/>
    <tag k="name:it" v="Strada Panoramica"/>
    <tag k="tunnel" v="yes"/>
  </way>
  <way id="34212043" version="2" timestamp="2009-10-13T23:54:36Z" uid="36809" user="pfoten_weg_!_" changeset="2841284">
    <nd ref="244096313"/>
    <nd ref="244096323"/>
    <nd ref="244096322"/>
    <nd ref="244096366"/>
    <nd ref="244096360"/>
    <nd ref="244096371"/>
    <nd ref="244096310"/>
    <nd ref="244096369"/>
    <nd ref="244096347"/>
    <nd ref="244096342"/>
    <nd ref="244096351"/>
    <nd ref="244096349"/>
    <nd ref="244096355"/>
    <nd ref="244096353"/>
    <nd ref="244096354"/>
    <nd ref="244096701"/>
    <nd ref="244095984"/>
    <nd ref="244095974"/>
    <nd ref="244095972"/>
    <nd ref="244095977"/>
    <nd ref="244095967"/>
    <nd ref="244095965"/>
    <nd ref="244095971"/>
    <nd ref="244096233"/>
    <nd ref="244095939"/>
    <nd ref="244096240"/>
    <nd ref="244096243"/>
    <nd ref="244096423"/>
    <nd ref="244095994"/>
    <nd ref="244095988"/>
    <nd ref="244095993"/>
    <nd ref="244095981"/>
    <nd ref="244096013"/>
    <nd ref="244096011"/>
    <nd ref="244096001"/>
    <nd ref="244096007"/>
    <nd ref="244096400"/>
    <tag k="highway" v="secondary"/>
    <tag k="merano:way_id" v="995"/>
    <tag k="name" v="Panoramastraße / Strada Panoramica"/>
    <tag k="name:de" v="Panoramastraße"/>
    <tag k="name:it" v="Strada Panoramica"/>
  </way>
  <way id="34212056" version="2" timestamp="2009-11-28T16:36:35Z" uid="9581" user="Lobelt" changeset="3237686">
    <nd ref="304818158"/>
    <nd ref="304818159"/>
    <nd ref="304818160"/>
    <nd ref="304818161"/>
    <nd ref="304818307"/>
    <nd ref="304818309"/>
    <nd ref="304818310"/>
    <nd ref="304818312"/>
    <nd ref="304818313"/>
    <nd ref="304818315"/>
    <nd ref="304818316"/>
    <nd ref="573423754"/>
    <nd ref="573423753"/>
    <nd ref="573423752"/>
    <tag k="highway" v="residential"/>
    <tag k="name" v="Gneuser Straße"/>
  </way>
  <way id="34212089" version="2" timestamp="2009-10-18T10:32:29Z" uid="36809" user="pfoten_weg_!_" changeset="2881738">
    <nd ref="271409940"/>
    <nd ref="392366046"/>
    <tag k="highway" v="unclassified"/>
    <tag k="width" v="4"/>
  </way>
  <way id="34212894" version="3" timestamp="2009-08-02T07:09:37Z" uid="9581" user="Lobelt" changeset="2010429">
    <nd ref="414084750"/>
    <nd ref="392374515"/>
    <nd ref="392374516"/>
    <nd ref="392374517"/>
    <nd ref="454094388"/>
    <tag k="bicycle" v="yes"/>
    <tag k="foot" v="yes"/>
    <tag k="highway" v="cycleway"/>
  </way>
</osm>
