<?xml version='1.0' encoding='UTF-8'?>
<osm version="0.6" generator="libosmium/2.20.0">
  <way id="34227442" version="5" timestamp="2010-03-28T02:03:03Z" uid="20587" user="balrog-kun" changeset="4250871">
    <nd ref="123524679"/>
    <nd ref="122516000"/>
    <nd ref="123524649"/>
    <tag k="highway" v="motorway"/>
    <tag k="name" v="State Highway 60"/>
    <tag k="name_1" v="Pomona Freeway"/>
    <tag k="oneway" v="yes"/>
    <tag k="tiger:cfcc" v="A15"/>
    <tag k="tiger:county" v="Los Angeles, CA"/>
    <tag k="tiger:name_base" v="State Highway 60"/>
    <tag k="tiger:name_base_1" v="Pomona"/>
    <tag k="tiger:name_type_1" v="Fwy"/>
    <tag k="tiger:separated" v="yes"/>
    <tag k="tiger:source" v="tiger_import_dch_v0.6_20070809"/>
    <tag k="tiger:tlid" v="141728783:141728795:141790737:141790738:141728988:141728992:141772307:142667762:141735945:141735747:141735886:141735766:142244836:141757607:142252309:142252310:141735782:141772309:142667739:141803481:141803482:141757541:141757545:141757547:142252298:14225"/>
  </way>
  <way id="34227445" version="2" timestamp="2010-03-28T02:03:04Z" uid="20587" user="balrog-kun" changeset="4250871">
    <nd ref="122662242"/>
    <nd ref="392505719"/>
    <tag k="bridge" v="yes"/>
    <tag k="created_by" v="Potlatch 0.10b"/>
    <tag k="highway" v="primary"/>
    <tag k="layer" v="2"/>
    <tag k="name" v="South Azusa Avenue"/>
    <tag k="tiger:cfcc" v="A41"/>
    <tag k="tiger:county" v="Los Angeles, CA"/>
    <tag k="tiger:name_base" v="Azusa"/>
    <tag k="tiger:name_direction_prefix" v="S"/>
    <tag k="tiger:name_type" v="Ave"/>
    <tag k="tiger:separated" v="no"/>
    <tag k="tiger:source" v="tiger_import_dch_v0.6_20070809"/>
    <tag k="tiger:tlid" v="142253063:142253064:141756726:141812349:141756720:141756722:142253066:142253067:141756714:142674401:142252186:142252187:141756022:142256194:141819542:141714671:141714678:141756719"/>
    <tag k="tiger:zip_left" v="91745"/>
    <tag k="tiger:zip_right" v="91745"/>
  </way>
  <way id="34227446" version="3" timestamp="2010-03-28T02:03:04Z" uid="20587" user="balrog-kun" changeset="4250871">
    <nd ref="392505719"/>
    <nd ref="392505698"/>
    <nd ref="122499064"/>
    <nd ref="122600570"/>
    <nd ref="122662247"/>
    <tag k="created_by" v="Potlatch 0.10b"/>
    <tag k="highway" v="primary"/>
    <tag k="name" v="South Azusa Avenue"/>
    <tag k="tiger:cfcc" v="A41"/>
    <tag k="tiger:county" v="Los Angeles, CA"/>
    <tag k="tiger:name_base" v="Azusa"/>
    <tag k="tiger:name_direction_prefix" v="S"/>
    <tag k="tiger:name_type" v="Ave"/>
    <tag k="tiger:separated" v="no"/>
    <tag k="tiger:source" v="tiger_import_dch_v0.6_20070809"/>
    <tag k="tiger:tlid" v="142253063:142253064:141756726:141812349:141756720:141756722:142253066:142253067:141756714:142674401:142252186:142252187:141756022:142256194:141819542:141714671:141714678:141756719"/>
    <tag k="tiger:zip_left" v="91745"/>
    <tag k="tiger:zip_right" v="91745"/>
  </way>
  <way id="34227448" version="5" timestamp="2010-03-28T02:03:04Z" uid="20587" user="balrog-kun" changeset="4250871">
    <nd ref="122411365"/>
    <nd ref="123524645"/>
    <nd ref="122434191"/>
    <nd ref="358206214"/>
    <nd ref="392505752"/>
    <tag k="highway" v="motorway"/>
    <tag k="name" v="State Highway 60"/>
    <tag k="name_1" v="Pomona Freeway"/>
    <tag k="oneway" v="yes"/>
    <tag k="ref" v="CA 60"/>
    <tag k="tiger:cfcc" v="A15"/>
    <tag k="tiger:county" v="Los Angeles, CA"/>
    <tag k="tiger:name_base" v="State Highway 60"/>
    <tag k="tiger:name_base_1" v="Pomona"/>
    <tag k="tiger:name_type_1" v="Fwy"/>
    <tag k="tiger:separated" v="yes"/>
    <tag k="tiger:source" v="tiger_import_dch_v0.6_20070809"/>
    <tag k="tiger:tlid" v="141728783:141728795:141790737:141790738:141728988:141728992:141772307:142667762:141735945:141735747:141735886:141735766:142244836:141757607:142252309:142252310:141735782:141772309:142667739:141803481:141803482:141757541:141757545:141757547:142252298:14225"/>
  </way>
  <way id="34227449" version="5" timestamp="2010-03-28T02:03:04Z" uid="20587" user="balrog-kun" changeset="4250871">
    <nd ref="123524649"/>
    <nd ref="122411365"/>
    <tag k="bridge" v="yes"/>
    <tag k="highway" v="motorway"/>
    <tag k="layer" v="1"/>
    <tag k="name" v="State Highway 60"/>
    <tag k="name_1" v="Pomona Freeway"/>
    <tag k="oneway" v="yes"/>
    <tag k="tiger:cfcc" v="A15"/>
    <tag k="tiger:county" v="Los Angeles, CA"/>
    <tag k="tiger:name_base" v="State Highway 60"/>
    <tag k="tiger:name_base_1" v="Pomona"/>
    <tag k="tiger:name_type_1" v="Fwy"/>
    <tag k="tiger:separated" v="yes"/>
    <tag k="tiger:source" v="tiger_import_dch_v0.6_20070809"/>
    <tag k="tiger:tlid" v="141728783:141728795:141790737:141790738:141728988:141728992:141772307:142667762:141735945:141735747:141735886:141735766:142244836:141757607:142252309:142252310:141735782:141772309:142667739:141803481:141803482:141757541:141757545:141757547:142252298:14225"/>
  </way>
  <way id="34227572" version="3" timestamp="2009-08-13T12:20:26Z" uid="4467" user="Rosscoe" changeset="2130749">
    <nd ref="102346739"/>
    <nd ref="102351267"/>
    <tag k="highway" v="primary"/>
    <tag k="is_in" v="Vermont,Victoria,Australia"/>
    <tag k="name" v="Boronia Road"/>
    <tag k="osmarender:renderName" v="no"/>
    <tag k="postal_code" v="3133"/>
  </way>
  <way id="34227572" version="4" timestamp="2009-08-13T13:16:31Z" uid="4467" user="Rosscoe" changeset="2131403">
    <nd ref="102346739"/>
    <nd ref="102351267"/>
    <tag k="highway" v="tertiary"/>
    <tag k="is_in" v="Vermont,Victoria,Australia"/>
    <tag k="name" v="Morack Road"/>
    <tag k="osmarender:renderName" v="no"/>
    <tag k="postal_code" v="3133"/>
  </way>
  <way id="34227735" version="6" timestamp="2010-07-25T13:57:42Z" uid="4467" user="Rosscoe" changeset="5312110">
    <nd ref="77642684"/>
    <nd ref="77642685"/>
    <tag k="bridge" v="yes"/>
    <tag k="highway" v="footway"/>
    <tag k="layer" v="1"/>
    <tag k="surface" v="wood"/>
  </way>
  <way id="34227816" version="1" timestamp="2009-05-08T23:16:49Z" uid="99207" user="Lar Kiesel" changeset="1122809">
    <nd ref="392510821"/>
    <nd ref="392510822"/>
    <nd ref="392510823"/>
    <nd ref="392510824"/>
    <nd ref="392510825"/>
    <nd ref="392510826"/>
    <nd ref="392510827"/>
    <nd ref="392510828"/>
    <nd ref="392510829"/>
    <tag k="highway" v="residential"/>
    <tag k="name" v="Cascade Dr"/>
  </way>
  <way id="34227817" version="1" timestamp="2009-05-08T23:16:49Z" uid="99207" user="Lar Kiesel" changeset="1122809">
    <nd ref="113703525"/>
    <nd ref="392510831"/>
    <tag k="highway" v="residential"/>
    <tag k="name" v="Countryside Dr"/>
  </way>
  <way id="34227818" version="1" timestamp="2009-05-08T23:16:49Z" uid="99207" user="Lar Kiesel" changeset="1122809">
    <nd ref="392510831"/>
    <nd ref="392510830"/>
    <nd ref="392510828"/>
    <tag k="highway" v="residential"/>
    <tag k="name" v="Rindle Dr"/>
  </way>
  <way id="34227819" version="1" timestamp="2009-05-08T23:16:49Z" uid="99207" user="Lar Kiesel" changeset="1122809">
    <nd ref="392510832"/>
    <nd ref="392510833"/>
    <nd ref="392510831"/>
    <tag k="highway" v="residential"/>
    <tag k="name" v="Bracken Dr"/>
  </way>
  <way id="34227820" version="1" timestamp="2009-05-08T23:16:49Z" uid="99207" user="Lar Kiesel" changeset="1122809">
    <nd ref="392510834"/>
    <nd ref="392510833"/>
    <tag k="highway" v="residential"/>
    <tag k="name" v="Flutter Dr"/>
  </way>
  <way id="34227821" version="1" timestamp="2009-05-08T23:16:49Z" uid="99207" user="Lar Kiesel" changeset="1122809">
    <nd ref="392510835"/>
    <nd ref="392510830"/>
    <tag k="highway" v="residential"/>
    <tag k="name" v="Ripple Dr"/>
  </way>
  <way id="34227821" version="2" timestamp="2009-05-25T14:16:42Z" uid="99207" user="Lar Kiesel" changeset="1316815">
    <nd ref="392510835"/>
    <nd ref="392510830"/>
    <tag k="highway" v="residential"/>
    <tag k="name" v="Ripple Ct"/>
  </way>
  <way id="34227822" version="1" timestamp="2009-05-08T23:16:49Z" uid="99207" user="Lar Kiesel" changeset="1122809">
    <nd ref="392510836"/>
    <nd ref="392510824"/>
    <tag k="highway" v="residential"/>
    <tag k="name" v="Cascade Ct"/>
  </way>
  <way id="34227823" version="1" timestamp="2009-05-08T23:16:49Z" uid="99207" user="Lar Kiesel" changeset="1122809">
    <nd ref="392510837"/>
    <nd ref="392510825"/>
    <tag k="highway" v="residential"/>
    <tag k="name" v="Flutter Dr"/>
  </way>
  <way id="34227824" version="1" timestamp="2009-05-08T23:16:49Z" uid="99207" user="Lar Kiesel" changeset="1122809">
    <nd ref="392510838"/>
    <nd ref="392510842"/>
    <nd ref="392510828"/>
    <tag k="highway" v="residential"/>
    <tag k="name" v="Wander Way"/>
  </way>
  <way id="34227825" version="1" timestamp="2009-05-08T23:16:49Z" uid="99207" user="Lar Kiesel" changeset="1122809">
    <nd ref="392510839"/>
    <nd ref="392510840"/>
    <nd ref="392510841"/>
    <nd ref="392510842"/>
    <tag k="highway" v="residential"/>
    <tag k="name" v="Wander Dr"/>
  </way>
  <way id="34227825" version="2" timestamp="2009-05-08T23:38:14Z" uid="99207" user="Lar Kiesel" changeset="1122864">
    <nd ref="392510839"/>
    <nd ref="392510840"/>
    <nd ref="392510841"/>
    <nd ref="392510842"/>
    <tag k="highway" v="residential"/>
    <tag k="name" v="Wander Ct"/>
  </way>
  <way id="34227846" version="5" timestamp="2010-03-28T02:03:04Z" uid="20587" user="balrog-kun" changeset="4250871">
    <nd ref="293510944"/>
    <nd ref="293510481"/>
    <tag k="highway" v="residential"/>
    <tag k="name" v="Cielo Vista Lane"/>
  </way>
  <way id="34227849" version="3" timestamp="2010-03-28T02:03:04Z" uid="20587" user="balrog-kun" changeset="4250871">
    <nd ref="293510481"/>
    <nd ref="293510482"/>
    <nd ref="293510484"/>
    <nd ref="293510485"/>
    <nd ref="293510580"/>
    <nd ref="293510611"/>
    <nd ref="293512910"/>
    <nd ref="293510582"/>
    <nd ref="293511218"/>
    <nd ref="293510585"/>
    <nd ref="293510492"/>
    <tag k="created_by" v="Potlatch 0.10f"/>
    <tag k="highway" v="residential"/>
    <tag k="name" v="Coyote Moon Lane"/>
  </way>
  <way id="34227855" version="2" timestamp="2010-03-28T02:03:04Z" uid="20587" user="balrog-kun" changeset="4250871">
    <nd ref="293513759"/>
    <nd ref="293512883"/>
    <nd ref="293513123"/>
    <nd ref="293512897"/>
    <nd ref="293512902"/>
    <nd ref="293510487"/>
    <tag k="created_by" v="Potlatch 0.10f"/>
    <tag k="highway" v="residential"/>
    <tag k="name" v="Okeefe Lane"/>
  </way>
  <way id="34227899" version="1" timestamp="2009-05-08T23:32:28Z" uid="6269" user="Mueck" changeset="1122795">
    <nd ref="524431"/>
    <nd ref="526125"/>
    <nd ref="524432"/>
    <nd ref="526126"/>
    <nd ref="321775856"/>
    <nd ref="524434"/>
    <nd ref="526127"/>
    <nd ref="31092797"/>
    <nd ref="526128"/>
    <nd ref="25250245"/>
    <nd ref="25250247"/>
    <tag k="created_by" v="Potlatch 0.10f"/>
    <tag k="highway" v="trunk"/>
    <tag k="maxspeed" v="80"/>
    <tag k="motorroad" v="yes"/>
    <tag k="name" v="SÃ¼dtangente"/>
    <tag k="oneway" v="yes"/>
    <tag k="ref" v="K9652"/>
  </way>
  <way id="34227910" version="4" timestamp="2010-03-28T02:03:05Z" uid="20587" user="balrog-kun" changeset="4250871">
    <nd ref="293509835"/>
    <nd ref="420961077"/>
    <nd ref="420961078"/>
    <nd ref="293509838"/>
    <tag k="created_by" v="Potlatch 0.10f"/>
    <tag k="highway" v="residential"/>
    <tag k="name" v="Zuni Lane"/>
  </way>
  <way id="34227993" version="1" timestamp="2009-05-08T23:38:13Z" uid="99207" user="Lar Kiesel" changeset="1122864">
    <nd ref="392512323"/>
    <nd ref="392512324"/>
    <nd ref="392512325"/>
    <nd ref="392512326"/>
    <nd ref="392512327"/>
    <nd ref="113703525"/>
    <tag k="highway" v="residential"/>
    <tag k="name" v="Mill Wheel Dr"/>
  </way>
  <way id="34227994" version="1" timestamp="2009-05-08T23:38:13Z" uid="99207" user="Lar Kiesel" changeset="1122864">
    <nd ref="392512328"/>
    <nd ref="392512329"/>
    <nd ref="392512330"/>
    <nd ref="392512323"/>
    <nd ref="392512331"/>
    <nd ref="392512332"/>
    <nd ref="392512333"/>
    <nd ref="392512334"/>
    <nd ref="392512335"/>
    <tag k="highway" v="residential"/>
    <tag k="name" v="Underwood Dr"/>
  </way>
  <way id="34227995" version="1" timestamp="2009-05-08T23:38:13Z" uid="99207" user="Lar Kiesel" changeset="1122864">
    <nd ref="392512336"/>
    <nd ref="392512337"/>
    <nd ref="392512338"/>
    <nd ref="392512339"/>
    <nd ref="392512335"/>
    <tag k="highway" v="residential"/>
    <tag k="name" v="Underwood Ct"/>
  </way>
  <way id="34227996" version="1" timestamp="2009-05-08T23:38:14Z" uid="99207" user="Lar Kiesel" changeset="1122864">
    <nd ref="392512340"/>
    <nd ref="392512341"/>
    <nd ref="392512342"/>
    <nd ref="392512343"/>
    <nd ref="392512344"/>
    <nd ref="392512345"/>
    <nd ref="392512346"/>
    <nd ref="392512347"/>
    <nd ref="392512348"/>
    <nd ref="392512335"/>
    <tag k="highway" v="residential"/>
    <tag k="name" v="Meander Ln"/>
  </way>
  <way id="34227997" version="1" timestamp="2009-05-08T23:38:14Z" uid="99207" user="Lar Kiesel" changeset="1122864">
    <nd ref="392512349"/>
    <nd ref="392512350"/>
    <nd ref="392512351"/>
    <nd ref="392512346"/>
    <tag k="highway" v="residential"/>
    <tag k="name" v="Gander Ct"/>
  </way>
  <way id="34227998" version="1" timestamp="2009-05-08T23:38:14Z" uid="99207" user="Lar Kiesel" changeset="1122864">
    <nd ref="392512352"/>
    <nd ref="392512353"/>
    <nd ref="392512345"/>
    <tag k="highway" v="residential"/>
    <tag k="name" v="Linger Ct"/>
  </way>
  <way id="34227999" version="1" timestamp="2009-05-08T23:38:14Z" uid="99207" user="Lar Kiesel" changeset="1122864">
    <nd ref="392512354"/>
    <nd ref="392512344"/>
    <tag k="highway" v="residential"/>
    <tag k="name" v="Drifter Ct"/>
  </way>
</osm>
