<?xml version='1.0' encoding='UTF-8'?>
<osm version="0.6" generator="libosmium/2.20.0">
  <way id="34238044" version="3" timestamp="2009-09-30T14:06:17Z" uid="36809" user="pfoten_weg_!_" changeset="2688655">
    <nd ref="392658823"/>
    <nd ref="392657650"/>
    <tag k="highway" v="track"/>
    <tag k="tracktype" v="grade4"/>
  </way>
  <way id="34238073" version="3" timestamp="2009-09-30T14:05:01Z" uid="36809" user="pfoten_weg_!_" changeset="2688655">
    <nd ref="392658994"/>
    <nd ref="392658995"/>
    <nd ref="392658996"/>
    <nd ref="392658997"/>
    <nd ref="392658998"/>
    <nd ref="392658999"/>
    <nd ref="392657653"/>
    <tag k="highway" v="track"/>
    <tag k="tracktype" v="grade4"/>
  </way>
  <way id="34238148" version="3" timestamp="2009-09-30T14:04:37Z" uid="36809" user="pfoten_weg_!_" changeset="2688655">
    <nd ref="392659650"/>
    <nd ref="392659651"/>
    <nd ref="392659652"/>
    <tag k="highway" v="track"/>
    <tag k="tracktype" v="grade4"/>
  </way>
  <way id="34238159" version="2" timestamp="2009-09-30T14:04:36Z" uid="36809" user="pfoten_weg_!_" changeset="2688655">
    <nd ref="392659778"/>
    <nd ref="392659652"/>
    <tag k="highway" v="track"/>
    <tag k="tracktype" v="grade4"/>
  </way>
  <way id="34238175" version="3" timestamp="2009-11-01T19:00:20Z" uid="20587" user="balrog-kun" changeset="3009848">
    <nd ref="392659836"/>
    <nd ref="392659835"/>
    <tag k="alt_name" v="Kolej Wiedeńska"/>
    <tag k="bridge" v="yes"/>
    <tag k="electrified" v="contact_line"/>
    <tag k="frequency" v="0"/>
    <tag k="maxspeed" v="140"/>
    <tag k="name" v="Linia Warszawa Centralna - Katowice"/>
    <tag k="operator" v="PLK S.A."/>
    <tag k="railway" v="rail"/>
    <tag k="ref" v="1"/>
    <tag k="voltage" v="3000"/>
    <tag k="wikipedia" v="pl:Linia kolejowa nr 1"/>
  </way>
  <way id="34238175" version="4" timestamp="2009-11-11T11:16:02Z" uid="20587" user="balrog-kun" changeset="3089068">
    <nd ref="392659836"/>
    <nd ref="392659835"/>
    <tag k="bridge" v="yes"/>
    <tag k="electrified" v="contact_line"/>
    <tag k="frequency" v="0"/>
    <tag k="maxspeed" v="140"/>
    <tag k="railway" v="rail"/>
    <tag k="voltage" v="3000"/>
  </way>
  <way id="34238594" version="4" timestamp="2010-07-07T23:59:37Z" uid="74617" user="JohnSmith" changeset="5162525">
    <nd ref="26391851"/>
    <nd ref="26391790"/>
    <nd ref="26391854"/>
    <nd ref="26391848"/>
    <tag k="highway" v="residential"/>
    <tag k="maxspeed" v="50"/>
    <tag k="maxspeed:source" v="default residential speed limit in Australia"/>
    <tag k="name" v="Ethel Street"/>
    <tag k="source" v="survey"/>
  </way>
  <way id="34238594" version="5" timestamp="2010-07-08T00:09:30Z" uid="74617" user="JohnSmith" changeset="5162525">
    <nd ref="26391851"/>
    <nd ref="26391790"/>
    <nd ref="26391854"/>
    <nd ref="26391848"/>
    <tag k="highway" v="residential"/>
    <tag k="maxspeed" v="50"/>
    <tag k="maxspeed:source" v="default residential speed limit in Australia"/>
    <tag k="name" v="Ethel Street"/>
    <tag k="source" v="survey"/>
  </way>
  <way id="34238694" version="5" timestamp="2010-04-03T04:14:16Z" uid="20587" user="balrog-kun" changeset="4309442">
    <nd ref="392664293"/>
    <nd ref="392664294"/>
    <nd ref="392664295"/>
    <nd ref="392664296"/>
    <nd ref="392664297"/>
    <nd ref="392664298"/>
    <nd ref="392664299"/>
    <nd ref="392664300"/>
    <nd ref="392664301"/>
    <nd ref="392664302"/>
    <nd ref="392664303"/>
    <nd ref="392664304"/>
    <nd ref="392664293"/>
    <tag k="amenity" v="parking"/>
    <tag k="building" v="yes"/>
    <tag k="name" v="Park Avenue Garage"/>
  </way>
  <way id="34238725" version="4" timestamp="2011-05-07T13:21:41Z" uid="9581" user="Lobelt" changeset="8073417">
    <nd ref="252595910"/>
    <nd ref="252595909"/>
    <nd ref="252595908"/>
    <nd ref="252595900"/>
    <nd ref="252595907"/>
    <nd ref="252595905"/>
    <nd ref="252595904"/>
    <nd ref="252595903"/>
    <nd ref="252595902"/>
    <nd ref="252595901"/>
    <nd ref="252595898"/>
    <nd ref="252595899"/>
    <nd ref="252595897"/>
    <nd ref="252595896"/>
    <nd ref="252595895"/>
    <nd ref="252595894"/>
    <nd ref="252595891"/>
    <tag k="highway" v="service"/>
    <tag k="name" v="Am Schötener Bache"/>
    <tag k="noexit" v="yes"/>
    <tag k="surface" v="unpaved"/>
    <tag k="width" v="2"/>
  </way>
  <way id="34238726" version="5" timestamp="2011-05-07T13:21:54Z" uid="9581" user="Lobelt" changeset="8073417">
    <nd ref="252595925"/>
    <nd ref="392664637"/>
    <nd ref="401800120"/>
    <nd ref="252595926"/>
    <nd ref="252595923"/>
    <nd ref="252595924"/>
    <nd ref="252595922"/>
    <nd ref="252595921"/>
    <nd ref="252595920"/>
    <nd ref="252595919"/>
    <nd ref="252595918"/>
    <nd ref="392664495"/>
    <nd ref="252595917"/>
    <nd ref="252595916"/>
    <nd ref="252595915"/>
    <nd ref="252595914"/>
    <nd ref="252595913"/>
    <nd ref="252595912"/>
    <nd ref="392648873"/>
    <nd ref="252595906"/>
    <nd ref="252595911"/>
    <nd ref="252595910"/>
    <tag k="highway" v="service"/>
    <tag k="name" v="Am Schötener Bache"/>
    <tag k="noexit" v="yes"/>
    <tag k="surface" v="unpaved"/>
    <tag k="width" v="2"/>
  </way>
  <way id="34238945" version="2" timestamp="2009-09-01T12:15:39Z" uid="36809" user="pfoten_weg_!_" changeset="2336869">
    <nd ref="392667413"/>
    <nd ref="392667414"/>
    <nd ref="392667415"/>
    <nd ref="392667416"/>
    <nd ref="392667413"/>
    <tag k="building" v="yes"/>
  </way>
  <way id="34238993" version="10" timestamp="2009-11-01T19:00:18Z" uid="20587" user="balrog-kun" changeset="3009848">
    <nd ref="392659835"/>
    <nd ref="242281947"/>
    <nd ref="242281942"/>
    <nd ref="242281939"/>
    <nd ref="242281933"/>
    <nd ref="242281928"/>
    <nd ref="242281923"/>
    <nd ref="392668469"/>
    <nd ref="242281918"/>
    <nd ref="242281912"/>
    <nd ref="242281906"/>
    <nd ref="242281900"/>
    <nd ref="242281888"/>
    <nd ref="392668385"/>
    <nd ref="392668084"/>
    <nd ref="242281874"/>
    <tag k="alt_name" v="Kolej Wiedeńska"/>
    <tag k="electrified" v="contact_line"/>
    <tag k="frequency" v="0"/>
    <tag k="maxspeed" v="140"/>
    <tag k="name" v="Linia Warszawa Centralna - Katowice"/>
    <tag k="operator" v="PLK S.A."/>
    <tag k="railway" v="rail"/>
    <tag k="ref" v="1"/>
    <tag k="voltage" v="3000"/>
    <tag k="wikipedia" v="pl:Linia kolejowa nr 1"/>
  </way>
  <way id="34238993" version="11" timestamp="2009-11-11T11:16:01Z" uid="20587" user="balrog-kun" changeset="3089068">
    <nd ref="392659835"/>
    <nd ref="242281947"/>
    <nd ref="242281942"/>
    <nd ref="242281939"/>
    <nd ref="242281933"/>
    <nd ref="242281928"/>
    <nd ref="242281923"/>
    <nd ref="392668469"/>
    <nd ref="242281918"/>
    <nd ref="242281912"/>
    <nd ref="242281906"/>
    <nd ref="242281900"/>
    <nd ref="242281888"/>
    <nd ref="392668385"/>
    <nd ref="392668084"/>
    <nd ref="242281874"/>
    <tag k="electrified" v="contact_line"/>
    <tag k="frequency" v="0"/>
    <tag k="maxspeed" v="140"/>
    <tag k="railway" v="rail"/>
    <tag k="voltage" v="3000"/>
  </way>
</osm>
