<?xml version='1.0' encoding='UTF-8'?>
<osm version="0.6" generator="libosmium/2.20.0">
  <way id="34246075" version="1" timestamp="2009-05-09T16:23:24Z" uid="49111" user="Markus B" changeset="1129399">
    <nd ref="392740353"/>
    <nd ref="392740354"/>
    <nd ref="392740355"/>
    <nd ref="392740356"/>
    <nd ref="392740353"/>
    <tag k="building" v="yes"/>
  </way>
  <way id="34246075" version="3" timestamp="2010-06-16T21:09:56Z" uid="49111" user="Markus B" changeset="5004458">
    <nd ref="392740353"/>
    <nd ref="392740354"/>
    <nd ref="392740355"/>
    <nd ref="392740356"/>
    <nd ref="392740353"/>
    <tag k="addr:city" v="Schnaittach"/>
    <tag k="addr:country" v="DE"/>
    <tag k="addr:housenumber" v="12"/>
    <tag k="addr:postcode" v="91220"/>
    <tag k="addr:street" v="Marktplatz"/>
    <tag k="amenity" v="cafe"/>
    <tag k="building" v="yes"/>
    <tag k="name" v="Kaffee Lehmayer"/>
    <tag k="opening_hours" v="Mo off"/>
    <tag k="phone" v="09153-8231"/>
    <tag k="smoking" v="no"/>
    <tag k="smoking:outside" v="yes"/>
  </way>
  <way id="34246077" version="1" timestamp="2009-05-09T16:23:24Z" uid="49111" user="Markus B" changeset="1129399">
    <nd ref="392740360"/>
    <nd ref="392740361"/>
    <nd ref="392740362"/>
    <nd ref="392740363"/>
    <nd ref="392740360"/>
    <tag k="building" v="yes"/>
  </way>
  <way id="34246078" version="1" timestamp="2009-05-09T16:23:24Z" uid="49111" user="Markus B" changeset="1129399">
    <nd ref="392740364"/>
    <nd ref="392740365"/>
    <nd ref="392740366"/>
    <nd ref="392740367"/>
    <nd ref="392740364"/>
    <tag k="building" v="yes"/>
  </way>
  <way id="34246078" version="2" timestamp="2010-06-16T21:09:57Z" uid="49111" user="Markus B" changeset="5004458">
    <nd ref="392740364"/>
    <nd ref="392740365"/>
    <nd ref="392740366"/>
    <nd ref="392740367"/>
    <nd ref="392740364"/>
    <tag k="building" v="yes"/>
    <tag k="name" v="Jugendtreff"/>
  </way>
  <way id="34246080" version="1" timestamp="2009-05-09T16:23:24Z" uid="49111" user="Markus B" changeset="1129399">
    <nd ref="392740369"/>
    <nd ref="392740370"/>
    <nd ref="392740372"/>
    <nd ref="392740374"/>
    <nd ref="392740369"/>
    <tag k="building" v="yes"/>
    <tag k="name" v="Böckmann"/>
    <tag k="shop" v="doityourself"/>
  </way>
  <way id="34246080" version="2" timestamp="2010-06-17T19:16:59Z" uid="49111" user="Markus B" changeset="5011460">
    <nd ref="392740369"/>
    <nd ref="392740370"/>
    <nd ref="392740372"/>
    <nd ref="392740374"/>
    <nd ref="392740369"/>
    <tag k="addr:city" v="Schnaittach"/>
    <tag k="addr:country" v="DE"/>
    <tag k="addr:housenumber" v="16"/>
    <tag k="addr:postcode" v="91220"/>
    <tag k="addr:street" v="Marktplatz"/>
    <tag k="building" v="yes"/>
    <tag k="name" v="Böckmann"/>
    <tag k="shop" v="doityourself"/>
  </way>
  <way id="34246082" version="1" timestamp="2009-05-09T16:23:24Z" uid="49111" user="Markus B" changeset="1129399">
    <nd ref="392740375"/>
    <nd ref="392740377"/>
    <nd ref="392740379"/>
    <nd ref="392740380"/>
    <nd ref="392740381"/>
    <nd ref="392740382"/>
    <nd ref="392740375"/>
    <tag k="building" v="yes"/>
    <tag k="shop" v="butcher"/>
  </way>
  <way id="34246082" version="2" timestamp="2010-06-17T19:16:58Z" uid="49111" user="Markus B" changeset="5011460">
    <nd ref="392740375"/>
    <nd ref="392740377"/>
    <nd ref="392740379"/>
    <nd ref="392740380"/>
    <nd ref="392740381"/>
    <nd ref="392740382"/>
    <nd ref="392740375"/>
    <tag k="addr:city" v="Schnaittach"/>
    <tag k="addr:country" v="DE"/>
    <tag k="addr:housenumber" v="10"/>
    <tag k="addr:postcode" v="91220"/>
    <tag k="addr:street" v="Marktplatz"/>
    <tag k="building" v="yes"/>
    <tag k="shop" v="butcher"/>
  </way>
  <way id="34246083" version="1" timestamp="2009-05-09T16:23:24Z" uid="49111" user="Markus B" changeset="1129399">
    <nd ref="392740383"/>
    <nd ref="392740384"/>
    <nd ref="392740385"/>
    <nd ref="392740386"/>
    <nd ref="392740383"/>
    <tag k="amenity" v="pharmacy"/>
    <tag k="building" v="yes"/>
    <tag k="dispensing" v="yes"/>
  </way>
  <way id="34246083" version="3" timestamp="2010-06-17T19:16:59Z" uid="49111" user="Markus B" changeset="5011460">
    <nd ref="392740383"/>
    <nd ref="392740384"/>
    <nd ref="392740385"/>
    <nd ref="392740386"/>
    <nd ref="392740383"/>
    <tag k="addr:city" v="Schnaittach"/>
    <tag k="addr:country" v="DE"/>
    <tag k="addr:housenumber" v="14"/>
    <tag k="addr:postcode" v="91220"/>
    <tag k="addr:street" v="Marktplatz"/>
    <tag k="amenity" v="pharmacy"/>
    <tag k="building" v="yes"/>
    <tag k="dispensing" v="yes"/>
    <tag k="name" v="Jumbo Apotheke"/>
  </way>
  <way id="34246083" version="4" timestamp="2010-11-06T21:32:02Z" uid="49111" user="Markus B" changeset="6306618">
    <nd ref="392740383"/>
    <nd ref="392740384"/>
    <nd ref="392740385"/>
    <nd ref="392740386"/>
    <nd ref="392740383"/>
    <tag k="addr:city" v="Schnaittach"/>
    <tag k="addr:country" v="DE"/>
    <tag k="addr:housenumber" v="14"/>
    <tag k="addr:postcode" v="91220"/>
    <tag k="addr:street" v="Marktplatz"/>
    <tag k="amenity" v="pharmacy"/>
    <tag k="building" v="yes"/>
    <tag k="dispensing" v="yes"/>
    <tag k="name" v="Jumbo Apotheke"/>
    <tag k="phone" v="+49 9153 216"/>
    <tag k="website" v="http://jumbo-apotheke.de"/>
  </way>
  <way id="34246084" version="1" timestamp="2009-05-09T16:23:24Z" uid="49111" user="Markus B" changeset="1129399">
    <nd ref="392740390"/>
    <nd ref="392740387"/>
    <nd ref="392740389"/>
    <nd ref="392740388"/>
    <nd ref="392740390"/>
    <tag k="amenity" v="pharmacy"/>
    <tag k="building" v="yes"/>
    <tag k="dispensing" v="yes"/>
  </way>
  <way id="34246084" version="3" timestamp="2010-06-16T21:09:58Z" uid="49111" user="Markus B" changeset="5004458">
    <nd ref="392740390"/>
    <nd ref="392740387"/>
    <nd ref="392740389"/>
    <nd ref="392740388"/>
    <nd ref="392740390"/>
    <tag k="amenity" v="pharmacy"/>
    <tag k="building" v="yes"/>
    <tag k="dispensing" v="yes"/>
  </way>
  <way id="34246084" version="4" timestamp="2010-06-17T19:16:59Z" uid="49111" user="Markus B" changeset="5011460">
    <nd ref="392740390"/>
    <nd ref="392740387"/>
    <nd ref="392740389"/>
    <nd ref="392740388"/>
    <nd ref="392740390"/>
    <tag k="addr:city" v="Schnaittach"/>
    <tag k="addr:country" v="DE"/>
    <tag k="addr:housenumber" v="9"/>
    <tag k="addr:postcode" v="91220"/>
    <tag k="addr:street" v="Marktplatz"/>
    <tag k="amenity" v="pharmacy"/>
    <tag k="building" v="yes"/>
    <tag k="dispensing" v="yes"/>
  </way>
  <way id="34246084" version="5" timestamp="2010-11-06T21:32:03Z" uid="49111" user="Markus B" changeset="6306618">
    <nd ref="392740390"/>
    <nd ref="392740387"/>
    <nd ref="392740389"/>
    <nd ref="392740388"/>
    <nd ref="392740390"/>
    <tag k="addr:city" v="Schnaittach"/>
    <tag k="addr:country" v="DE"/>
    <tag k="addr:housenumber" v="9"/>
    <tag k="addr:postcode" v="91220"/>
    <tag k="addr:street" v="Marktplatz"/>
    <tag k="amenity" v="pharmacy"/>
    <tag k="building" v="yes"/>
    <tag k="dispensing" v="yes"/>
    <tag k="name" v="Marien-Apotheke"/>
    <tag k="phone" v="+49 9153 97450"/>
    <tag k="website" v="http://apotheke-schnaittach.de"/>
  </way>
  <way id="34246085" version="1" timestamp="2009-05-09T16:23:24Z" uid="49111" user="Markus B" changeset="1129399">
    <nd ref="392740393"/>
    <nd ref="392740391"/>
    <nd ref="392740392"/>
    <nd ref="392740394"/>
    <nd ref="392740393"/>
    <tag k="amenity" v="pharmacy"/>
    <tag k="building" v="yes"/>
    <tag k="dispensing" v="yes"/>
  </way>
  <way id="34246085" version="3" timestamp="2010-06-17T19:17:01Z" uid="49111" user="Markus B" changeset="5011460">
    <nd ref="392740393"/>
    <nd ref="762993691"/>
    <nd ref="392740391"/>
    <nd ref="392740392"/>
    <nd ref="392740394"/>
    <nd ref="392740393"/>
    <tag k="addr:city" v="Schnaittach"/>
    <tag k="addr:country" v="DE"/>
    <tag k="addr:housenumber" v="15"/>
    <tag k="addr:postcode" v="91220"/>
    <tag k="addr:street" v="Marktplatz"/>
    <tag k="amenity" v="pharmacy"/>
    <tag k="building" v="yes"/>
    <tag k="dispensing" v="yes"/>
  </way>
  <way id="34246085" version="4" timestamp="2010-11-06T21:32:00Z" uid="49111" user="Markus B" changeset="6306618">
    <nd ref="392740393"/>
    <nd ref="762993691"/>
    <nd ref="392740391"/>
    <nd ref="392740392"/>
    <nd ref="392740394"/>
    <nd ref="392740393"/>
    <tag k="addr:city" v="Schnaittach"/>
    <tag k="addr:country" v="DE"/>
    <tag k="addr:housenumber" v="15"/>
    <tag k="addr:postcode" v="91220"/>
    <tag k="addr:street" v="Marktplatz"/>
    <tag k="amenity" v="pharmacy"/>
    <tag k="building" v="yes"/>
    <tag k="dispensing" v="yes"/>
    <tag k="name" v="Markt-Apotheke"/>
    <tag k="phone" v="+49 9153 9288-0"/>
  </way>
  <way id="34246086" version="1" timestamp="2009-05-09T16:23:24Z" uid="49111" user="Markus B" changeset="1129399">
    <nd ref="392740395"/>
    <nd ref="392740396"/>
    <nd ref="392740397"/>
    <nd ref="392740398"/>
    <nd ref="392740395"/>
    <tag k="building" v="yes"/>
    <tag k="shop" v="toys"/>
  </way>
  <way id="34246086" version="2" timestamp="2010-06-17T19:17:01Z" uid="49111" user="Markus B" changeset="5011460">
    <nd ref="392740395"/>
    <nd ref="392740396"/>
    <nd ref="392740397"/>
    <nd ref="392740398"/>
    <nd ref="392740395"/>
    <tag k="addr:city" v="Schnaittach"/>
    <tag k="addr:country" v="DE"/>
    <tag k="addr:housenumber" v="4"/>
    <tag k="addr:postcode" v="91220"/>
    <tag k="addr:street" v="Marktplatz"/>
    <tag k="building" v="yes"/>
    <tag k="shop" v="toys"/>
  </way>
  <way id="34246087" version="1" timestamp="2009-05-09T16:23:25Z" uid="49111" user="Markus B" changeset="1129399">
    <nd ref="392740399"/>
    <nd ref="392740400"/>
    <nd ref="392740401"/>
    <nd ref="392740402"/>
    <nd ref="392740399"/>
    <tag k="building" v="yes"/>
  </way>
  <way id="34246087" version="2" timestamp="2011-04-03T07:14:04Z" uid="49111" user="Markus B" changeset="7750708">
    <nd ref="392740399"/>
    <nd ref="392740400"/>
    <nd ref="392740401"/>
    <nd ref="392740402"/>
    <nd ref="392740399"/>
    <tag k="building" v="yes"/>
    <tag k="name" v="Wasseraufbereitung"/>
  </way>
  <way id="34246088" version="1" timestamp="2009-05-09T16:23:25Z" uid="49111" user="Markus B" changeset="1129399">
    <nd ref="392740403"/>
    <nd ref="392740404"/>
    <nd ref="392740405"/>
    <nd ref="392740406"/>
    <nd ref="392740403"/>
    <tag k="building" v="yes"/>
    <tag k="name" v="Kasse"/>
  </way>
  <way id="34246089" version="1" timestamp="2009-05-09T16:23:25Z" uid="49111" user="Markus B" changeset="1129399">
    <nd ref="392740408"/>
    <nd ref="392740409"/>
    <nd ref="392740410"/>
    <nd ref="392740411"/>
    <nd ref="392740408"/>
    <tag k="amenity" v="public_building"/>
    <tag k="name" v="Bad-Saal"/>
  </way>
  <way id="34246089" version="2" timestamp="2009-06-20T13:41:57Z" uid="49111" user="Markus B" changeset="1574798">
    <nd ref="392740408"/>
    <nd ref="392740409"/>
    <nd ref="392740410"/>
    <nd ref="392740411"/>
    <nd ref="392740408"/>
    <tag k="amenity" v="theatre"/>
    <tag k="name" v="Bad-Saal"/>
  </way>
  <way id="34246089" version="3" timestamp="2009-06-22T12:34:40Z" uid="49111" user="Markus B" changeset="1593229">
    <nd ref="392740408"/>
    <nd ref="392740409"/>
    <nd ref="392740410"/>
    <nd ref="392740411"/>
    <nd ref="392740408"/>
    <tag k="amenity" v="theatre"/>
    <tag k="building" v="yes"/>
    <tag k="name" v="Bad-Saal"/>
  </way>
  <way id="34246089" version="7" timestamp="2011-04-03T07:14:02Z" uid="49111" user="Markus B" changeset="7750708">
    <nd ref="392740408"/>
    <nd ref="392740409"/>
    <nd ref="392740410"/>
    <nd ref="392740411"/>
    <nd ref="392740408"/>
    <tag k="addr:city" v="Schnaittach"/>
    <tag k="addr:country" v="DE"/>
    <tag k="addr:housenumber" v="2"/>
    <tag k="addr:postcode" v="91220"/>
    <tag k="addr:street" v="Badstraße"/>
    <tag k="amenity" v="theatre"/>
    <tag k="building" v="yes"/>
    <tag k="name" v="Bad-Saal"/>
    <tag k="smoking" v="no"/>
    <tag k="wheelchair" v="yes"/>
  </way>
  <way id="34246090" version="1" timestamp="2009-05-09T16:23:25Z" uid="49111" user="Markus B" changeset="1129399">
    <nd ref="392740412"/>
    <nd ref="392740416"/>
    <nd ref="392740417"/>
    <nd ref="392740413"/>
    <nd ref="392740414"/>
    <nd ref="392740415"/>
    <nd ref="392740412"/>
    <tag k="amenity" v="restaurant"/>
    <tag k="building" v="yes"/>
  </way>
  <way id="34246090" version="2" timestamp="2009-06-20T13:41:57Z" uid="49111" user="Markus B" changeset="1574798">
    <nd ref="392740412"/>
    <nd ref="392740416"/>
    <nd ref="392740417"/>
    <nd ref="392740413"/>
    <nd ref="392740414"/>
    <nd ref="392740415"/>
    <nd ref="392740412"/>
    <tag k="amenity" v="restaurant"/>
    <tag k="building" v="yes"/>
    <tag k="name" v="Tausendschön"/>
  </way>
  <way id="34246090" version="4" timestamp="2010-06-13T23:10:22Z" uid="49111" user="Markus B" changeset="4983912">
    <nd ref="392740412"/>
    <nd ref="392740416"/>
    <nd ref="392740417"/>
    <nd ref="392740413"/>
    <nd ref="392740414"/>
    <nd ref="392740415"/>
    <nd ref="392740412"/>
    <tag k="addr:housenumber" v="4"/>
    <tag k="amenity" v="restaurant"/>
    <tag k="building" v="yes"/>
    <tag k="name" v="Tausendschön Restaurant Event Theater"/>
    <tag k="smoking" v="no"/>
    <tag k="smoking:outside" v="yes"/>
    <tag k="website" v="www.tausendschoen-schnaittach.de"/>
  </way>
  <way id="34246090" version="5" timestamp="2010-06-16T19:36:05Z" uid="49111" user="Markus B" changeset="5003517">
    <nd ref="392740412"/>
    <nd ref="392740416"/>
    <nd ref="392740417"/>
    <nd ref="392740413"/>
    <nd ref="392740414"/>
    <nd ref="392740415"/>
    <nd ref="392740412"/>
    <tag k="addr:city" v="Schnaittach"/>
    <tag k="addr:country" v="DE"/>
    <tag k="addr:housenumber" v="4"/>
    <tag k="addr:postcode" v="91220"/>
    <tag k="addr:street" v="Badstraße"/>
    <tag k="amenity" v="restaurant"/>
    <tag k="building" v="yes"/>
    <tag k="name" v="Tausendschön Restaurant Event Theater"/>
    <tag k="opening_hours" v="Do-Mo 17:00-24:00; Di off; Mi off"/>
    <tag k="smoking" v="no"/>
    <tag k="smoking:outside" v="yes"/>
    <tag k="website" v="www.tausendschoen-schnaittach.de"/>
  </way>
  <way id="34246091" version="1" timestamp="2009-05-09T16:23:25Z" uid="49111" user="Markus B" changeset="1129399">
    <nd ref="392740418"/>
    <nd ref="392740419"/>
    <nd ref="392740420"/>
    <nd ref="392740422"/>
    <nd ref="392740423"/>
    <nd ref="392740424"/>
    <nd ref="392740426"/>
    <nd ref="392740421"/>
    <nd ref="392740418"/>
    <tag k="amenity" v="public_building"/>
    <tag k="name" v="Umkleide"/>
  </way>
  <way id="34246091" version="2" timestamp="2009-06-20T13:41:57Z" uid="49111" user="Markus B" changeset="1574798">
    <nd ref="392740418"/>
    <nd ref="392740419"/>
    <nd ref="392740420"/>
    <nd ref="392740422"/>
    <nd ref="392740423"/>
    <nd ref="392740424"/>
    <nd ref="392740426"/>
    <nd ref="392740421"/>
    <nd ref="392740418"/>
    <tag k="amenity" v="public_building"/>
    <tag k="building" v="yes"/>
    <tag k="name" v="Umkleide"/>
  </way>
  <way id="34246091" version="3" timestamp="2011-04-03T07:14:02Z" uid="49111" user="Markus B" changeset="7750708">
    <nd ref="392740422"/>
    <nd ref="392740423"/>
    <nd ref="392740424"/>
    <nd ref="392740426"/>
    <nd ref="392740422"/>
    <tag k="amenity" v="public_building"/>
    <tag k="building" v="yes"/>
    <tag k="name" v="Bademeister"/>
  </way>
  <way id="34246092" version="1" timestamp="2009-05-09T16:23:25Z" uid="49111" user="Markus B" changeset="1129399">
    <nd ref="392740431"/>
    <nd ref="392740432"/>
    <nd ref="392740433"/>
    <nd ref="392740434"/>
    <nd ref="392740431"/>
    <tag k="building" v="yes"/>
  </way>
  <way id="34246092" version="2" timestamp="2011-04-03T07:14:04Z" uid="49111" user="Markus B" changeset="7750708">
    <nd ref="392740431"/>
    <nd ref="392740432"/>
    <nd ref="392740433"/>
    <nd ref="392740434"/>
    <nd ref="392740431"/>
    <tag k="building" v="yes"/>
    <tag k="name" v="Wasserwacht"/>
  </way>
  <way id="34246093" version="1" timestamp="2009-05-09T16:23:25Z" uid="49111" user="Markus B" changeset="1129399">
    <nd ref="392740438"/>
    <nd ref="392740439"/>
    <nd ref="392740441"/>
    <nd ref="392740442"/>
    <nd ref="392740443"/>
    <nd ref="392740444"/>
    <nd ref="392740438"/>
    <tag k="amenity" v="public_building"/>
    <tag k="name" v="Kabinen"/>
  </way>
  <way id="34246093" version="2" timestamp="2009-06-20T13:41:57Z" uid="49111" user="Markus B" changeset="1574798">
    <nd ref="392740438"/>
    <nd ref="392740439"/>
    <nd ref="392740441"/>
    <nd ref="392740442"/>
    <nd ref="392740443"/>
    <nd ref="392740444"/>
    <nd ref="392740438"/>
    <tag k="amenity" v="public_building"/>
    <tag k="building" v="yes"/>
    <tag k="name" v="Kabinen"/>
  </way>
  <way id="34246105" version="1" timestamp="2009-05-09T16:24:03Z" uid="64977" user="CLoeser" changeset="1129378">
    <nd ref="392740822"/>
    <nd ref="392740823"/>
    <nd ref="392740824"/>
    <nd ref="392740825"/>
    <nd ref="392740826"/>
    <nd ref="392740827"/>
    <nd ref="392740828"/>
    <nd ref="392740829"/>
    <nd ref="392740830"/>
    <nd ref="392740822"/>
  </way>
  <way id="34246105" version="2" timestamp="2009-05-09T16:24:15Z" uid="64977" user="CLoeser" changeset="1129378">
    <nd ref="392740822"/>
    <nd ref="392740823"/>
    <nd ref="392740824"/>
    <nd ref="392740825"/>
    <nd ref="392740826"/>
    <nd ref="392740827"/>
    <nd ref="392740828"/>
    <nd ref="392740829"/>
    <nd ref="392740830"/>
    <nd ref="392740822"/>
    <tag k="landuse" v="residential"/>
  </way>
  <way id="34246118" version="1" timestamp="2009-05-09T16:24:34Z" uid="43863" user="Rundling" changeset="1129410">
    <nd ref="392319280"/>
    <nd ref="392740959"/>
    <tag k="bicycle" v="yes"/>
    <tag k="highway" v="footway"/>
    <tag k="surface" v="paved"/>
  </way>
  <way id="34246146" version="1" timestamp="2009-05-09T16:25:04Z" uid="64977" user="CLoeser" changeset="1129378">
    <nd ref="392742133"/>
    <nd ref="392742139"/>
  </way>
  <way id="34246146" version="2" timestamp="2009-05-09T16:25:09Z" uid="64977" user="CLoeser" changeset="1129378">
    <nd ref="392742133"/>
    <nd ref="392742139"/>
    <tag k="waterway" v="drain"/>
  </way>
  <way id="34246146" version="3" timestamp="2009-05-09T16:25:27Z" uid="64977" user="CLoeser" changeset="1129378">
    <nd ref="392742133"/>
    <nd ref="392742139"/>
    <nd ref="392742334"/>
    <tag k="waterway" v="drain"/>
  </way>
  <way id="34246392" version="1" timestamp="2009-05-09T16:29:19Z" uid="64977" user="CLoeser" changeset="1129441">
    <nd ref="366088756"/>
    <nd ref="366088757"/>
    <nd ref="366088758"/>
    <nd ref="366088759"/>
    <nd ref="366088760"/>
    <tag k="created_by" v="Potlatch 0.10f"/>
    <tag k="name" v="Brandteichgraben"/>
    <tag k="waterway" v="drain"/>
  </way>
  <way id="34246392" version="2" timestamp="2009-05-09T16:29:46Z" uid="64977" user="CLoeser" changeset="1129441">
    <nd ref="392738939"/>
    <nd ref="366088752"/>
    <nd ref="366088753"/>
    <nd ref="366088754"/>
    <nd ref="366088755"/>
    <nd ref="366088756"/>
    <nd ref="392745558"/>
    <nd ref="366088757"/>
    <nd ref="366088758"/>
    <nd ref="366088759"/>
    <nd ref="366088760"/>
    <tag k="created_by" v="Potlatch 0.10f"/>
    <tag k="name" v="Brandteichgraben"/>
    <tag k="waterway" v="drain"/>
  </way>
  <way id="34246392" version="3" timestamp="2009-05-09T16:30:02Z" uid="64977" user="CLoeser" changeset="1129441">
    <nd ref="392738939"/>
    <nd ref="366088752"/>
    <nd ref="366088753"/>
    <nd ref="366088754"/>
    <nd ref="366088755"/>
    <nd ref="366088756"/>
    <nd ref="392745976"/>
    <nd ref="392745558"/>
    <nd ref="366088757"/>
    <nd ref="366088758"/>
    <nd ref="366088759"/>
    <nd ref="366088760"/>
    <tag k="created_by" v="Potlatch 0.10f"/>
    <tag k="name" v="Brandteichgraben"/>
    <tag k="waterway" v="drain"/>
  </way>
  <way id="34246425" version="1" timestamp="2009-05-09T16:30:00Z" uid="64977" user="CLoeser" changeset="1129441">
    <nd ref="392745975"/>
    <nd ref="392745976"/>
  </way>
  <way id="34246425" version="2" timestamp="2009-05-09T16:30:08Z" uid="64977" user="CLoeser" changeset="1129441">
    <nd ref="392745975"/>
    <nd ref="392745976"/>
    <tag k="waterway" v="drain"/>
  </way>
  <way id="34246425" version="3" timestamp="2009-05-09T16:30:16Z" uid="64977" user="CLoeser" changeset="1129441">
    <nd ref="392745975"/>
    <nd ref="392745976"/>
    <tag k="source" v="survey"/>
    <tag k="waterway" v="drain"/>
  </way>
  <way id="34246425" version="4" timestamp="2009-05-09T16:32:22Z" uid="64977" user="CLoeser" changeset="1129441">
    <nd ref="392745975"/>
    <nd ref="392745976"/>
    <tag k="source" v="survey (gpx 377381)"/>
    <tag k="waterway" v="drain"/>
  </way>
  <way id="34246460" version="1" timestamp="2009-05-09T16:31:09Z" uid="64977" user="CLoeser" changeset="1129441">
    <nd ref="392746419"/>
    <nd ref="366088754"/>
  </way>
  <way id="34246460" version="2" timestamp="2009-05-09T16:31:20Z" uid="64977" user="CLoeser" changeset="1129441">
    <nd ref="392746419"/>
    <nd ref="366088754"/>
    <tag k="source" v="survey"/>
    <tag k="waterway" v="drain"/>
  </way>
  <way id="34246460" version="3" timestamp="2009-05-09T16:31:30Z" uid="64977" user="CLoeser" changeset="1129441">
    <nd ref="392746474"/>
    <nd ref="392746419"/>
    <nd ref="366088754"/>
    <tag k="source" v="survey"/>
    <tag k="waterway" v="drain"/>
  </way>
  <way id="34246460" version="4" timestamp="2009-05-09T16:32:26Z" uid="64977" user="CLoeser" changeset="1129441">
    <nd ref="392746474"/>
    <nd ref="392746419"/>
    <nd ref="366088754"/>
    <tag k="source" v="survey (gpx 377381)"/>
    <tag k="waterway" v="drain"/>
  </way>
  <way id="34246484" version="7" timestamp="2009-10-11T22:22:58Z" uid="20587" user="balrog-kun" changeset="2820869">
    <nd ref="392748397"/>
    <nd ref="392748363"/>
    <nd ref="392748364"/>
    <nd ref="392748365"/>
    <nd ref="392748366"/>
    <nd ref="392748367"/>
    <nd ref="392746737"/>
    <nd ref="392746743"/>
    <nd ref="392746744"/>
    <nd ref="392746746"/>
    <tag k="highway" v="primary"/>
    <tag k="int_ref" v="E 261"/>
    <tag k="name" v="Aleja Jana Pawła II"/>
    <tag k="oneway" v="yes"/>
    <tag k="ref" v="5"/>
  </way>
  <way id="34246487" version="1" timestamp="2009-05-09T16:32:10Z" uid="43863" user="Rundling" changeset="1129490">
    <nd ref="392746835"/>
    <nd ref="392746834"/>
    <nd ref="392746837"/>
    <nd ref="392746839"/>
    <nd ref="392746830"/>
    <nd ref="392746840"/>
    <nd ref="392746842"/>
    <nd ref="392746844"/>
    <nd ref="392746832"/>
    <nd ref="392746846"/>
    <nd ref="392746847"/>
    <nd ref="392746835"/>
    <tag k="building" v="yes"/>
  </way>
  <way id="34246488" version="1" timestamp="2009-05-09T16:32:10Z" uid="43863" user="Rundling" changeset="1129490">
    <nd ref="392746852"/>
    <nd ref="392746864"/>
    <nd ref="392746868"/>
    <nd ref="392746851"/>
    <nd ref="392746866"/>
    <nd ref="392746862"/>
    <nd ref="392746860"/>
    <nd ref="392746859"/>
    <nd ref="392746855"/>
    <nd ref="392746849"/>
    <nd ref="392746857"/>
    <nd ref="392746852"/>
    <tag k="building" v="yes"/>
  </way>
  <way id="34246489" version="1" timestamp="2009-05-09T16:32:10Z" uid="43863" user="Rundling" changeset="1129490">
    <nd ref="392746876"/>
    <nd ref="392746874"/>
    <nd ref="392746877"/>
    <nd ref="392746879"/>
    <nd ref="392746870"/>
    <nd ref="392746881"/>
    <nd ref="392746883"/>
    <nd ref="392746885"/>
    <nd ref="392746872"/>
    <nd ref="392746887"/>
    <nd ref="392746889"/>
    <nd ref="392746876"/>
    <tag k="building" v="yes"/>
  </way>
  <way id="34246489" version="2" timestamp="2009-05-10T15:43:52Z" uid="43863" user="Rundling" changeset="1141136"/>
  <way id="34246499" version="3" timestamp="2009-10-11T22:22:57Z" uid="20587" user="balrog-kun" changeset="2820869">
    <nd ref="392747231"/>
    <nd ref="392747229"/>
    <nd ref="392747227"/>
    <nd ref="392747226"/>
    <nd ref="392747225"/>
    <tag k="highway" v="primary"/>
    <tag k="int_ref" v="E 261"/>
    <tag k="name" v="Aleja Jana Pawła II"/>
    <tag k="oneway" v="yes"/>
    <tag k="ref" v="5"/>
  </way>
  <way id="34246870" version="2" timestamp="2009-10-11T22:22:57Z" uid="20587" user="balrog-kun" changeset="2820869">
    <nd ref="392746746"/>
    <nd ref="392746748"/>
    <nd ref="392746749"/>
    <nd ref="392746754"/>
    <nd ref="34001078"/>
    <tag k="highway" v="primary"/>
    <tag k="int_ref" v="E 261"/>
    <tag k="name" v="Aleja Jana Pawła II"/>
    <tag k="oneway" v="yes"/>
    <tag k="ref" v="5"/>
  </way>
  <way id="34246923" version="1" timestamp="2009-05-09T16:38:11Z" uid="64977" user="CLoeser" changeset="1129441">
    <nd ref="392750845"/>
    <nd ref="392750846"/>
    <nd ref="392750847"/>
    <nd ref="392750848"/>
    <nd ref="392750849"/>
    <nd ref="392750850"/>
    <nd ref="392750851"/>
    <nd ref="392750852"/>
    <nd ref="392750853"/>
    <nd ref="392750854"/>
    <nd ref="392750855"/>
    <nd ref="392750856"/>
    <nd ref="392750857"/>
    <nd ref="392750845"/>
    <tag k="landuse" v="farm"/>
  </way>
</osm>
