<?xml version='1.0' encoding='UTF-8'?>
<osm version="0.6" generator="libosmium/2.20.0">
  <way id="34240033" version="2" timestamp="2010-03-23T07:12:03Z" uid="27600" user="Islanit" changeset="4209567">
    <nd ref="392677783"/>
    <nd ref="392677784"/>
    <tag k="covered" v="yes"/>
    <tag k="highway" v="pedestrian"/>
  </way>
  <way id="34240090" version="2" timestamp="2010-10-07T19:59:34Z" uid="9581" user="Lobelt" changeset="5981056">
    <nd ref="392674311"/>
    <nd ref="392678070"/>
    <nd ref="392678071"/>
    <nd ref="392678072"/>
    <tag k="highway" v="residential"/>
    <tag k="name" v="Burgunderstraße"/>
    <tag k="surface" v="paved"/>
  </way>
  <way id="34240091" version="2" timestamp="2010-02-14T14:26:45Z" uid="9581" user="Lobelt" changeset="3874186">
    <nd ref="639027853"/>
    <nd ref="392678072"/>
    <nd ref="392678073"/>
    <nd ref="392678074"/>
    <nd ref="392678075"/>
    <nd ref="392678076"/>
    <nd ref="392678077"/>
    <nd ref="392678080"/>
    <nd ref="639027854"/>
    <tag k="highway" v="residential"/>
    <tag k="layer" v="0"/>
    <tag k="name" v="Gernotstraße"/>
    <tag k="surface" v="paved"/>
  </way>
  <way id="34240091" version="3" timestamp="2010-10-07T19:59:23Z" uid="9581" user="Lobelt" changeset="5981056">
    <nd ref="639027853"/>
    <nd ref="392678072"/>
    <nd ref="392678073"/>
    <nd ref="392678074"/>
    <nd ref="392678075"/>
    <nd ref="392678076"/>
    <nd ref="392678077"/>
    <nd ref="392678080"/>
    <nd ref="639027854"/>
    <tag k="highway" v="residential"/>
    <tag k="name" v="Gernotstraße"/>
    <tag k="surface" v="paved"/>
  </way>
  <way id="34240092" version="2" timestamp="2010-02-14T14:26:45Z" uid="9581" user="Lobelt" changeset="3874186">
    <nd ref="388264338"/>
    <nd ref="639027835"/>
    <nd ref="388264340"/>
    <tag k="highway" v="residential"/>
    <tag k="layer" v="0"/>
    <tag k="name" v="Friedensstraße"/>
    <tag k="surface" v="paved"/>
  </way>
  <way id="34240092" version="3" timestamp="2010-10-07T20:00:04Z" uid="9581" user="Lobelt" changeset="5981056">
    <nd ref="388264338"/>
    <nd ref="639027835"/>
    <nd ref="388264340"/>
    <tag k="highway" v="residential"/>
    <tag k="name" v="Friedensstraße"/>
    <tag k="surface" v="paved"/>
  </way>
  <way id="34240093" version="3" timestamp="2010-02-14T14:26:43Z" uid="9581" user="Lobelt" changeset="3874186">
    <nd ref="392678089"/>
    <nd ref="392678090"/>
    <nd ref="392678091"/>
    <nd ref="392678092"/>
    <nd ref="392678089"/>
    <tag k="building" v="yes"/>
  </way>
  <way id="34240094" version="3" timestamp="2010-02-14T14:26:44Z" uid="9581" user="Lobelt" changeset="3874186">
    <nd ref="392678094"/>
    <nd ref="392678095"/>
    <nd ref="392678096"/>
    <nd ref="410186278"/>
    <nd ref="392678097"/>
    <nd ref="410186277"/>
    <nd ref="410186276"/>
    <nd ref="410186275"/>
    <nd ref="392678094"/>
    <tag k="building" v="yes"/>
  </way>
  <way id="34240116" version="3" timestamp="2009-08-31T21:38:18Z" uid="36809" user="pfoten_weg_!_" changeset="2331946">
    <nd ref="21646587"/>
    <nd ref="10258424"/>
    <tag k="highway" v="service"/>
    <tag k="lit" v="yes"/>
    <tag k="oneway" v="no"/>
    <tag k="surface" v="paved"/>
  </way>
  <way id="34240236" version="2" timestamp="2010-02-15T05:21:28Z" uid="74617" user="JohnSmith" changeset="3880269">
    <nd ref="118993082"/>
    <nd ref="392679606"/>
    <tag k="highway" v="residential"/>
    <tag k="maxspeed" v="50"/>
    <tag k="name" v="Laurina Cresent"/>
  </way>
  <way id="34240238" version="2" timestamp="2010-02-15T05:21:26Z" uid="74617" user="JohnSmith" changeset="3880269">
    <nd ref="392679494"/>
    <nd ref="392679492"/>
    <tag k="access" v="private"/>
    <tag k="highway" v="residential"/>
    <tag k="maxspeed" v="50"/>
    <tag k="name" v="Karen Street"/>
  </way>
  <way id="34240239" version="2" timestamp="2010-02-15T05:21:26Z" uid="74617" user="JohnSmith" changeset="3880269">
    <nd ref="392679480"/>
    <nd ref="392679481"/>
    <tag k="highway" v="residential"/>
    <tag k="maxspeed" v="50"/>
    <tag k="name" v="Leanne Close"/>
  </way>
  <way id="34240240" version="2" timestamp="2010-02-15T05:21:49Z" uid="74617" user="JohnSmith" changeset="3880269">
    <nd ref="392679581"/>
    <nd ref="392679586"/>
    <tag k="highway" v="service"/>
    <tag k="maxspeed" v="50"/>
    <tag k="name" v="Woods Close"/>
  </way>
  <way id="34240242" version="2" timestamp="2010-02-15T05:21:25Z" uid="74617" user="JohnSmith" changeset="3880269">
    <nd ref="143674351"/>
    <nd ref="392679531"/>
    <nd ref="392679529"/>
    <nd ref="392679525"/>
    <nd ref="392679527"/>
    <nd ref="392679528"/>
    <nd ref="392679536"/>
    <tag k="highway" v="residential"/>
    <tag k="maxspeed" v="50"/>
    <tag k="name" v="Bellbird Place"/>
  </way>
  <way id="34240243" version="2" timestamp="2010-02-15T05:21:49Z" uid="74617" user="JohnSmith" changeset="3880269">
    <nd ref="392679602"/>
    <nd ref="392679585"/>
    <nd ref="392679581"/>
    <nd ref="392679579"/>
    <nd ref="392679582"/>
    <tag k="highway" v="residential"/>
    <tag k="maxspeed" v="50"/>
    <tag k="name" v="Woods Close"/>
    <tag k="oneway" v="yes"/>
  </way>
  <way id="34240246" version="2" timestamp="2010-02-15T05:21:28Z" uid="74617" user="JohnSmith" changeset="3880269">
    <nd ref="392679549"/>
    <nd ref="392679547"/>
    <tag k="highway" v="residential"/>
    <tag k="maxspeed" v="50"/>
    <tag k="name" v="Felsche Close"/>
  </way>
  <way id="34240247" version="2" timestamp="2010-02-15T05:21:26Z" uid="74617" user="JohnSmith" changeset="3880269">
    <nd ref="392679483"/>
    <nd ref="392679485"/>
    <tag k="access" v="private"/>
    <tag k="highway" v="residential"/>
    <tag k="maxspeed" v="50"/>
    <tag k="name" v="Amanda Street"/>
  </way>
  <way id="34240249" version="2" timestamp="2010-02-15T05:21:28Z" uid="74617" user="JohnSmith" changeset="3880269">
    <nd ref="392679545"/>
    <nd ref="392679544"/>
    <tag k="highway" v="residential"/>
    <tag k="maxspeed" v="50"/>
    <tag k="name" v="Derrer Street"/>
  </way>
  <way id="34240250" version="2" timestamp="2010-02-15T05:21:49Z" uid="74617" user="JohnSmith" changeset="3880269">
    <nd ref="392679569"/>
    <nd ref="392679570"/>
    <tag k="highway" v="residential"/>
    <tag k="maxspeed" v="50"/>
    <tag k="name" v="Olive Place"/>
  </way>
  <way id="34240251" version="2" timestamp="2010-02-15T05:21:28Z" uid="74617" user="JohnSmith" changeset="3880269">
    <nd ref="392679517"/>
    <nd ref="392679515"/>
    <nd ref="392679520"/>
    <tag k="highway" v="residential"/>
    <tag k="maxspeed" v="50"/>
    <tag k="name" v="Curlew Place"/>
  </way>
  <way id="34240255" version="2" timestamp="2010-02-15T05:21:26Z" uid="74617" user="JohnSmith" changeset="3880269">
    <nd ref="126569584"/>
    <nd ref="392679483"/>
    <nd ref="392679499"/>
    <nd ref="392679494"/>
    <nd ref="392679647"/>
    <nd ref="392679495"/>
    <tag k="access" v="private"/>
    <tag k="highway" v="residential"/>
    <tag k="maxspeed" v="50"/>
    <tag k="name" v="Karen Street"/>
  </way>
  <way id="34240258" version="2" timestamp="2010-02-15T05:21:27Z" uid="74617" user="JohnSmith" changeset="3880269">
    <nd ref="392679619"/>
    <nd ref="392679622"/>
    <nd ref="392679624"/>
    <tag k="highway" v="service"/>
    <tag k="maxspeed" v="50"/>
  </way>
  <way id="34240259" version="2" timestamp="2010-02-15T05:21:19Z" uid="74617" user="JohnSmith" changeset="3880269">
    <nd ref="392679615"/>
    <nd ref="392679617"/>
    <tag k="highway" v="service"/>
    <tag k="maxspeed" v="50"/>
  </way>
  <way id="34240260" version="2" timestamp="2010-02-15T05:21:27Z" uid="74617" user="JohnSmith" changeset="3880269">
    <nd ref="392679507"/>
    <nd ref="392679672"/>
    <nd ref="392679502"/>
    <tag k="highway" v="residential"/>
    <tag k="maxspeed" v="50"/>
    <tag k="name" v="Nelson Court"/>
  </way>
  <way id="34240261" version="2" timestamp="2010-02-15T05:21:27Z" uid="74617" user="JohnSmith" changeset="3880269">
    <nd ref="392679525"/>
    <nd ref="392679535"/>
    <nd ref="392679532"/>
    <nd ref="392679534"/>
    <tag k="highway" v="residential"/>
    <tag k="maxspeed" v="50"/>
    <tag k="name" v="Kingfisher Close"/>
  </way>
  <way id="34240264" version="2" timestamp="2010-02-15T05:21:26Z" uid="74617" user="JohnSmith" changeset="3880269">
    <nd ref="392679486"/>
    <nd ref="392679491"/>
    <tag k="access" v="private"/>
    <tag k="highway" v="residential"/>
    <tag k="maxspeed" v="50"/>
    <tag k="name" v="Lisa Street"/>
  </way>
  <way id="34240265" version="2" timestamp="2010-02-15T05:21:27Z" uid="74617" user="JohnSmith" changeset="3880269">
    <nd ref="392679533"/>
    <nd ref="392679532"/>
    <tag k="highway" v="residential"/>
    <tag k="maxspeed" v="50"/>
    <tag k="name" v="Kingfisher Close"/>
  </way>
  <way id="34240267" version="2" timestamp="2010-02-15T05:21:25Z" uid="74617" user="JohnSmith" changeset="3880269">
    <nd ref="392679506"/>
    <nd ref="392679509"/>
    <tag k="highway" v="residential"/>
    <tag k="maxspeed" v="50"/>
    <tag k="name" v="Lyell Crescent"/>
  </way>
  <way id="34240270" version="2" timestamp="2010-02-15T05:21:12Z" uid="74617" user="JohnSmith" changeset="3880269">
    <nd ref="392679599"/>
    <nd ref="392679600"/>
    <nd ref="392679582"/>
    <nd ref="392679602"/>
    <nd ref="392679569"/>
    <nd ref="392679548"/>
    <nd ref="392679549"/>
    <nd ref="392679544"/>
    <nd ref="392679562"/>
    <nd ref="392679561"/>
    <nd ref="392679565"/>
    <nd ref="126569544"/>
    <tag k="highway" v="residential"/>
    <tag k="maxspeed" v="50"/>
    <tag k="name" v="Margaret Street"/>
  </way>
  <way id="34240271" version="2" timestamp="2010-02-15T05:21:12Z" uid="74617" user="JohnSmith" changeset="3880269">
    <nd ref="392679547"/>
    <nd ref="392679542"/>
    <nd ref="392679541"/>
    <nd ref="392679551"/>
    <nd ref="392679552"/>
    <nd ref="392679553"/>
    <nd ref="392679547"/>
    <tag k="highway" v="residential"/>
    <tag k="maxspeed" v="50"/>
    <tag k="name" v="Felsche Close"/>
    <tag k="oneway" v="yes"/>
  </way>
  <way id="34240272" version="2" timestamp="2010-02-15T05:21:49Z" uid="74617" user="JohnSmith" changeset="3880269">
    <nd ref="392679548"/>
    <nd ref="392679575"/>
    <nd ref="392679560"/>
    <tag k="highway" v="residential"/>
    <tag k="maxspeed" v="50"/>
    <tag k="name" v="McLeod Court"/>
  </way>
  <way id="34240274" version="2" timestamp="2010-02-15T05:21:49Z" uid="74617" user="JohnSmith" changeset="3880269">
    <nd ref="392679575"/>
    <nd ref="392679574"/>
    <tag k="highway" v="residential"/>
    <tag k="maxspeed" v="50"/>
    <tag k="name" v="McLeod Court"/>
  </way>
  <way id="34240275" version="2" timestamp="2010-02-15T05:21:26Z" uid="74617" user="JohnSmith" changeset="3880269">
    <nd ref="392679483"/>
    <nd ref="392679484"/>
    <nd ref="392679487"/>
    <nd ref="392679643"/>
    <nd ref="392679488"/>
    <nd ref="392679486"/>
    <nd ref="392679644"/>
    <nd ref="392679490"/>
    <nd ref="392679489"/>
    <tag k="access" v="private"/>
    <tag k="highway" v="residential"/>
    <tag k="maxspeed" v="50"/>
    <tag k="name" v="Lisa Street"/>
  </way>
  <way id="34240276" version="2" timestamp="2010-02-15T05:21:25Z" uid="74617" user="JohnSmith" changeset="3880269">
    <nd ref="392679503"/>
    <nd ref="392679506"/>
    <nd ref="392679505"/>
    <nd ref="392679504"/>
    <nd ref="392679673"/>
    <nd ref="392679507"/>
    <nd ref="392679500"/>
    <tag k="highway" v="residential"/>
    <tag k="maxspeed" v="50"/>
    <tag k="name" v="Lyell Crescent"/>
  </way>
  <way id="34240277" version="3" timestamp="2010-02-15T05:21:12Z" uid="74617" user="JohnSmith" changeset="3880269">
    <nd ref="94646860"/>
    <nd ref="260098481"/>
    <nd ref="260098482"/>
    <nd ref="260098483"/>
    <nd ref="260098511"/>
    <nd ref="260098485"/>
    <tag k="highway" v="residential"/>
    <tag k="maxspeed" v="50"/>
    <tag k="name" v="Rogers Parade East"/>
    <tag k="oneway" v="yes"/>
  </way>
  <way id="34240278" version="3" timestamp="2010-02-15T05:21:27Z" uid="74617" user="JohnSmith" changeset="3880269">
    <nd ref="392679632"/>
    <nd ref="392679634"/>
    <nd ref="392679636"/>
    <tag k="highway" v="residential"/>
    <tag k="maxspeed" v="50"/>
    <tag k="name" v="Wanaka Place"/>
  </way>
  <way id="34240279" version="3" timestamp="2010-02-15T05:21:27Z" uid="74617" user="JohnSmith" changeset="3880269">
    <nd ref="392679639"/>
    <nd ref="392679640"/>
    <tag k="highway" v="residential"/>
    <tag k="maxspeed" v="50"/>
    <tag k="name" v="Malaga Street"/>
  </way>
  <way id="34240296" version="2" timestamp="2010-02-15T05:21:47Z" uid="74617" user="JohnSmith" changeset="3880269">
    <nd ref="392679596"/>
    <nd ref="260099477"/>
    <nd ref="260099478"/>
    <nd ref="260099479"/>
    <nd ref="260099404"/>
    <nd ref="260099405"/>
    <nd ref="260099406"/>
    <nd ref="260099407"/>
    <nd ref="260099408"/>
    <nd ref="260099409"/>
    <nd ref="260099410"/>
    <nd ref="260099411"/>
    <nd ref="260099412"/>
    <nd ref="260099413"/>
    <nd ref="260099414"/>
    <nd ref="260099415"/>
    <nd ref="260099416"/>
    <nd ref="260099417"/>
    <tag k="boat" v="no"/>
    <tag k="name" v="Downfall Creek"/>
    <tag k="waterway" v="drain"/>
  </way>
  <way id="34240722" version="1" timestamp="2009-05-09T13:34:25Z" uid="20587" user="balrog-kun" changeset="1127620">
    <nd ref="392682659"/>
    <nd ref="392682660"/>
    <nd ref="392682661"/>
    <tag k="highway" v="service"/>
  </way>
  <way id="34240723" version="1" timestamp="2009-05-09T13:34:25Z" uid="20587" user="balrog-kun" changeset="1127620">
    <nd ref="392682666"/>
    <nd ref="392682668"/>
    <nd ref="392682669"/>
    <nd ref="392682667"/>
    <nd ref="392682666"/>
    <tag k="building" v="shops"/>
    <tag k="loc_name" v="Kulczyk Park"/>
    <tag k="name" v="Stary Browar"/>
    <tag k="note" v="TODO"/>
    <tag k="shop" v="mall"/>
  </way>
  <way id="34240724" version="1" timestamp="2009-05-09T13:34:25Z" uid="20587" user="balrog-kun" changeset="1127620">
    <nd ref="392682670"/>
    <nd ref="392682667"/>
    <nd ref="392682669"/>
    <nd ref="392682671"/>
    <nd ref="392682672"/>
    <nd ref="392682673"/>
    <nd ref="392682674"/>
    <nd ref="392682670"/>
    <tag k="leisure" v="park"/>
  </way>
  <way id="34240725" version="1" timestamp="2009-05-09T13:34:25Z" uid="20587" user="balrog-kun" changeset="1127620">
    <nd ref="392682675"/>
    <nd ref="259192856"/>
    <nd ref="259192857"/>
    <nd ref="259192858"/>
    <tag k="created_by" v="Potlatch 0.10f"/>
    <tag k="highway" v="residential"/>
    <tag k="name" v="Garncarska"/>
    <tag k="oneway" v="yes"/>
  </way>
  <way id="34240725" version="2" timestamp="2010-03-16T21:59:43Z" uid="163746" user="anti_bot-nonsense" changeset="4147354">
    <nd ref="392682675"/>
    <nd ref="259192856"/>
    <nd ref="259192857"/>
    <nd ref="259192858"/>
    <tag k="highway" v="residential"/>
    <tag k="name" v="Garncarska"/>
    <tag k="oneway" v="yes"/>
  </way>
  <way id="34240726" version="1" timestamp="2009-05-09T13:34:26Z" uid="20587" user="balrog-kun" changeset="1127620">
    <nd ref="392682679"/>
    <nd ref="392682678"/>
    <nd ref="392682680"/>
    <nd ref="392682677"/>
    <nd ref="392682681"/>
    <nd ref="392682679"/>
    <tag k="amenity" v="university"/>
    <tag k="building" v="hall"/>
    <tag k="name" v="Akademia Ekonomiczna"/>
  </way>
  <way id="34240726" version="2" timestamp="2009-05-31T19:09:16Z" uid="123700" user="Mala" changeset="1372289">
    <nd ref="392682679"/>
    <nd ref="392682678"/>
    <nd ref="392682680"/>
    <nd ref="392682677"/>
    <nd ref="392682681"/>
    <nd ref="392682679"/>
    <tag k="amenity" v="university"/>
    <tag k="building" v="hall"/>
    <tag k="name" v="Uniwersytet Ekonomiczny"/>
  </way>
  <way id="34240726" version="3" timestamp="2010-02-15T14:40:26Z" uid="123700" user="Mala" changeset="3883707">
    <nd ref="392682679"/>
    <nd ref="392682678"/>
    <nd ref="392682680"/>
    <nd ref="392682677"/>
    <nd ref="392682681"/>
    <nd ref="392682679"/>
    <tag k="amenity" v="university"/>
    <tag k="building" v="hall"/>
    <tag k="name" v="Collegium Altum"/>
    <tag k="operator" v="Uniwersytet Ekonomiczny"/>
  </way>
  <way id="34240727" version="1" timestamp="2009-05-09T13:34:26Z" uid="20587" user="balrog-kun" changeset="1127620">
    <nd ref="392682685"/>
    <nd ref="392682686"/>
    <nd ref="392682688"/>
    <nd ref="392682687"/>
    <nd ref="392682685"/>
    <tag k="amenity" v="school"/>
  </way>
  <way id="34240793" version="2" timestamp="2009-05-16T17:14:47Z" uid="34428" user="usm78-gis" changeset="1212986">
    <nd ref="401768483"/>
    <nd ref="392683181"/>
    <nd ref="29001834"/>
    <tag k="name" v="Ново-Адмиралтейский канал"/>
    <tag k="waterway" v="river"/>
  </way>
</osm>
