<?xml version='1.0' encoding='UTF-8'?>
<osm version="0.6" generator="libosmium/2.20.0">
  <way id="34269086" version="2" timestamp="2009-08-16T10:20:51Z" uid="4667" user="MapZ" changeset="2163346">
    <nd ref="60056698"/>
    <nd ref="260945919"/>
    <nd ref="260945918"/>
    <nd ref="393013558"/>
    <nd ref="260945917"/>
    <nd ref="469128876"/>
    <nd ref="469128877"/>
    <nd ref="469128878"/>
    <nd ref="260945916"/>
    <nd ref="393013145"/>
    <nd ref="292791811"/>
    <nd ref="292791812"/>
    <nd ref="469128881"/>
    <nd ref="292791813"/>
    <nd ref="469128880"/>
    <nd ref="270338040"/>
    <tag k="highway" v="residential"/>
    <tag k="name" v="Lungolago Marconi"/>
  </way>
  <way id="34269151" version="2" timestamp="2009-08-16T10:25:06Z" uid="4667" user="MapZ" changeset="2163397">
    <nd ref="393013125"/>
    <nd ref="393013135"/>
    <tag k="highway" v="service"/>
    <tag k="name" v="Via Fasse"/>
  </way>
  <way id="34269171" version="2" timestamp="2010-04-05T15:54:27Z" uid="20587" user="balrog-kun" changeset="4334369">
    <nd ref="393013664"/>
    <nd ref="176414635"/>
    <nd ref="176414637"/>
    <nd ref="176414639"/>
    <nd ref="176414641"/>
    <nd ref="176367426"/>
    <tag k="highway" v="residential"/>
    <tag k="name" v="Lawrence Road"/>
    <tag k="tiger:cfcc" v="A41"/>
    <tag k="tiger:county" v="Boulder, CO"/>
    <tag k="tiger:name_base" v="Lawrence"/>
    <tag k="tiger:name_type" v="Rd"/>
    <tag k="tiger:reviewed" v="no"/>
    <tag k="tiger:separated" v="no"/>
    <tag k="tiger:source" v="tiger_import_dch_v0.6_20070809"/>
    <tag k="tiger:tlid" v="188233583:188231660:188231661"/>
  </way>
  <way id="34269187" version="2" timestamp="2010-04-05T15:54:27Z" uid="20587" user="balrog-kun" changeset="4334369">
    <nd ref="393013770"/>
    <nd ref="393013771"/>
    <nd ref="176561026"/>
    <tag k="highway" v="residential"/>
    <tag k="name" v="Apache Court"/>
    <tag k="name_1" v="Apache Court West"/>
    <tag k="oneway" v="yes"/>
    <tag k="tiger:cfcc" v="A41"/>
    <tag k="tiger:county" v="Boulder, CO"/>
    <tag k="tiger:name_base" v="Apache"/>
    <tag k="tiger:name_base_1" v="Apache"/>
    <tag k="tiger:name_direction_suffix_1" v="W"/>
    <tag k="tiger:name_type" v="Ct"/>
    <tag k="tiger:name_type_1" v="Ct"/>
    <tag k="tiger:reviewed" v="no"/>
    <tag k="tiger:separated" v="no"/>
    <tag k="tiger:source" v="tiger_import_dch_v0.6_20070809"/>
    <tag k="tiger:tlid" v="188213165:188213166:188162944"/>
    <tag k="tiger:zip_left" v="80303"/>
    <tag k="tiger:zip_right" v="80303"/>
  </way>
  <way id="34269188" version="2" timestamp="2010-04-05T15:54:27Z" uid="20587" user="balrog-kun" changeset="4334369">
    <nd ref="176561026"/>
    <nd ref="176561028"/>
    <nd ref="176561030"/>
    <nd ref="393013768"/>
    <tag k="highway" v="residential"/>
    <tag k="name" v="Apache Court"/>
    <tag k="name_1" v="Apache Court West"/>
    <tag k="tiger:cfcc" v="A41"/>
    <tag k="tiger:county" v="Boulder, CO"/>
    <tag k="tiger:name_base" v="Apache"/>
    <tag k="tiger:name_base_1" v="Apache"/>
    <tag k="tiger:name_direction_suffix_1" v="W"/>
    <tag k="tiger:name_type" v="Ct"/>
    <tag k="tiger:name_type_1" v="Ct"/>
    <tag k="tiger:reviewed" v="no"/>
    <tag k="tiger:separated" v="no"/>
    <tag k="tiger:source" v="tiger_import_dch_v0.6_20070809"/>
    <tag k="tiger:tlid" v="188213165:188213166:188162944"/>
    <tag k="tiger:zip_left" v="80303"/>
    <tag k="tiger:zip_right" v="80303"/>
  </way>
  <way id="34269205" version="3" timestamp="2010-04-05T15:54:28Z" uid="20587" user="balrog-kun" changeset="4334369">
    <nd ref="176425202"/>
    <nd ref="176425204"/>
    <nd ref="393013770"/>
    <nd ref="176425206"/>
    <nd ref="176425208"/>
    <nd ref="446279773"/>
    <nd ref="176425210"/>
    <nd ref="176407969"/>
    <nd ref="176425212"/>
    <nd ref="176425214"/>
    <nd ref="176425216"/>
    <nd ref="176425218"/>
    <nd ref="176425220"/>
    <nd ref="176425222"/>
    <nd ref="176425224"/>
    <nd ref="176425226"/>
    <nd ref="176402068"/>
    <tag k="highway" v="residential"/>
    <tag k="name" v="Apache Road"/>
    <tag k="tiger:cfcc" v="A41"/>
    <tag k="tiger:county" v="Boulder, CO"/>
    <tag k="tiger:name_base" v="Apache"/>
    <tag k="tiger:name_type" v="Rd"/>
    <tag k="tiger:reviewed" v="no"/>
    <tag k="tiger:separated" v="no"/>
    <tag k="tiger:source" v="tiger_import_dch_v0.6_20070809"/>
    <tag k="tiger:tlid" v="188163424:188163425:188162955:188162959:188162962:188163408:220748710:220749831:220749765"/>
    <tag k="tiger:zip_left" v="80303"/>
    <tag k="tiger:zip_right" v="80303"/>
  </way>
  <way id="34269270" version="1" timestamp="2009-05-10T04:39:46Z" uid="99207" user="Lar Kiesel" changeset="1134702">
    <nd ref="393022183"/>
    <nd ref="393022184"/>
    <nd ref="393022185"/>
    <nd ref="393022186"/>
  </way>
  <way id="34269270" version="2" timestamp="2009-05-10T04:40:21Z" uid="99207" user="Lar Kiesel" changeset="1134702">
    <nd ref="393022183"/>
    <nd ref="393022184"/>
    <nd ref="393022185"/>
    <nd ref="393022186"/>
    <tag k="highway" v="motorway"/>
    <tag k="name" v="I-126"/>
    <tag k="ref" v="I 126"/>
  </way>
  <way id="34269270" version="3" timestamp="2009-05-10T04:42:57Z" uid="99207" user="Lar Kiesel" changeset="1134702">
    <nd ref="393025366"/>
    <nd ref="393025367"/>
    <nd ref="393025368"/>
    <nd ref="393025369"/>
    <nd ref="393025370"/>
    <nd ref="393025371"/>
    <nd ref="393022183"/>
    <nd ref="393022184"/>
    <nd ref="393022185"/>
    <nd ref="393022186"/>
    <tag k="highway" v="motorway"/>
    <tag k="name" v="I-126"/>
    <tag k="ref" v="I 126"/>
  </way>
  <way id="34269270" version="4" timestamp="2009-05-10T05:01:43Z" uid="99207" user="Lar Kiesel" changeset="1134702">
    <nd ref="393025366"/>
    <nd ref="393025367"/>
    <nd ref="393025368"/>
    <nd ref="393025369"/>
    <nd ref="393025370"/>
    <nd ref="393025371"/>
    <nd ref="393022183"/>
    <nd ref="393022184"/>
    <nd ref="393022185"/>
    <nd ref="393022186"/>
    <tag k="highway" v="motorway"/>
    <tag k="name" v="I-126"/>
    <tag k="oneway" v="yes"/>
    <tag k="ref" v="I 126"/>
  </way>
  <way id="34269270" version="5" timestamp="2009-05-10T05:03:37Z" uid="99207" user="Lar Kiesel" changeset="1134702">
    <nd ref="393042514"/>
    <nd ref="393042515"/>
    <nd ref="393025366"/>
    <nd ref="393025367"/>
    <nd ref="393025368"/>
    <nd ref="393025369"/>
    <nd ref="393025370"/>
    <nd ref="393025371"/>
    <nd ref="393022183"/>
    <nd ref="393022184"/>
    <nd ref="393022185"/>
    <nd ref="393022186"/>
    <tag k="highway" v="motorway"/>
    <tag k="name" v="I-126"/>
    <tag k="oneway" v="yes"/>
    <tag k="ref" v="I 126"/>
  </way>
  <way id="34269270" version="6" timestamp="2009-05-10T05:04:13Z" uid="99207" user="Lar Kiesel" changeset="1134702">
    <nd ref="393042522"/>
    <nd ref="393042523"/>
    <nd ref="393042524"/>
    <nd ref="393042525"/>
    <nd ref="393042526"/>
    <nd ref="393042514"/>
    <nd ref="393042515"/>
    <nd ref="393025366"/>
    <nd ref="393025367"/>
    <nd ref="393025368"/>
    <nd ref="393025369"/>
    <nd ref="393025370"/>
    <nd ref="393025371"/>
    <nd ref="393022183"/>
    <nd ref="393022184"/>
    <nd ref="393022185"/>
    <nd ref="393022186"/>
    <tag k="highway" v="motorway"/>
    <tag k="name" v="I-126"/>
    <tag k="oneway" v="yes"/>
    <tag k="ref" v="I 126"/>
  </way>
  <way id="34269270" version="7" timestamp="2009-05-10T05:04:26Z" uid="99207" user="Lar Kiesel" changeset="1134702">
    <nd ref="393042522"/>
    <nd ref="393042523"/>
    <nd ref="393042524"/>
    <nd ref="393042538"/>
    <nd ref="393042525"/>
    <nd ref="393042526"/>
    <nd ref="393042514"/>
    <nd ref="393042515"/>
    <nd ref="393025366"/>
    <nd ref="393025367"/>
    <nd ref="393025368"/>
    <nd ref="393025369"/>
    <nd ref="393025370"/>
    <nd ref="393025371"/>
    <nd ref="393022183"/>
    <nd ref="393022184"/>
    <nd ref="393022185"/>
    <nd ref="393022186"/>
    <tag k="highway" v="motorway"/>
    <tag k="name" v="I-126"/>
    <tag k="oneway" v="yes"/>
    <tag k="ref" v="I 126"/>
  </way>
  <way id="34269270" version="8" timestamp="2009-05-10T05:06:16Z" uid="99207" user="Lar Kiesel" changeset="1134702">
    <nd ref="393042661"/>
    <nd ref="393042662"/>
    <nd ref="393042522"/>
    <nd ref="393042523"/>
    <nd ref="393042524"/>
    <nd ref="393042538"/>
    <nd ref="393042525"/>
    <nd ref="393042526"/>
    <nd ref="393042514"/>
    <nd ref="393042515"/>
    <nd ref="393025366"/>
    <nd ref="393025367"/>
    <nd ref="393025368"/>
    <nd ref="393025369"/>
    <nd ref="393025370"/>
    <nd ref="393025371"/>
    <nd ref="393022183"/>
    <nd ref="393022184"/>
    <nd ref="393022185"/>
    <nd ref="393022186"/>
    <tag k="highway" v="motorway"/>
    <tag k="name" v="I-126"/>
    <tag k="oneway" v="yes"/>
    <tag k="ref" v="I 126"/>
  </way>
  <way id="34269270" version="9" timestamp="2009-05-10T05:13:26Z" uid="99207" user="Lar Kiesel" changeset="1134702">
    <nd ref="393051595"/>
    <nd ref="393051596"/>
    <nd ref="393051599"/>
    <nd ref="393051601"/>
    <nd ref="393051604"/>
    <nd ref="393051606"/>
    <nd ref="393051608"/>
    <nd ref="393051610"/>
    <nd ref="393042661"/>
    <nd ref="393042662"/>
    <nd ref="393042522"/>
    <nd ref="393042523"/>
    <nd ref="393042524"/>
    <nd ref="393042538"/>
    <nd ref="393042525"/>
    <nd ref="393042526"/>
    <nd ref="393042514"/>
    <nd ref="393042515"/>
    <nd ref="393025366"/>
    <nd ref="393025367"/>
    <nd ref="393025368"/>
    <nd ref="393025369"/>
    <nd ref="393025370"/>
    <nd ref="393025371"/>
    <nd ref="393022183"/>
    <nd ref="393022184"/>
    <nd ref="393022185"/>
    <nd ref="393022186"/>
    <tag k="highway" v="motorway"/>
    <tag k="name" v="I-126"/>
    <tag k="oneway" v="yes"/>
    <tag k="ref" v="I 126"/>
  </way>
  <way id="34269270" version="10" timestamp="2009-05-10T11:25:35Z" uid="99207" user="Lar Kiesel" changeset="1138098">
    <nd ref="393051595"/>
    <nd ref="393051596"/>
    <nd ref="393051599"/>
    <nd ref="393051601"/>
    <nd ref="393051604"/>
    <nd ref="393051606"/>
    <nd ref="393051608"/>
    <nd ref="393051610"/>
    <nd ref="393042661"/>
    <nd ref="393042662"/>
    <nd ref="393042522"/>
    <nd ref="393042523"/>
    <nd ref="393042524"/>
    <nd ref="393042538"/>
    <nd ref="393042525"/>
    <nd ref="393042526"/>
    <nd ref="393042514"/>
    <nd ref="393042515"/>
    <nd ref="393025366"/>
    <nd ref="393025367"/>
    <nd ref="393025368"/>
    <nd ref="393025369"/>
    <nd ref="393025370"/>
    <nd ref="393025371"/>
    <nd ref="393022183"/>
    <nd ref="393022184"/>
    <nd ref="393022185"/>
    <nd ref="393022186"/>
    <nd ref="113945312"/>
    <tag k="highway" v="motorway"/>
    <tag k="name" v="I-126"/>
    <tag k="oneway" v="yes"/>
    <tag k="ref" v="I 126"/>
  </way>
  <way id="34269270" version="11" timestamp="2009-05-13T22:59:42Z" uid="99207" user="Lar Kiesel" changeset="1181517">
    <nd ref="393051595"/>
    <nd ref="393051596"/>
    <nd ref="393051599"/>
    <nd ref="393051601"/>
    <nd ref="393051604"/>
    <nd ref="396371334"/>
    <nd ref="393051606"/>
    <nd ref="393051608"/>
    <nd ref="393051610"/>
    <nd ref="393042661"/>
    <nd ref="393042662"/>
    <nd ref="393042522"/>
    <nd ref="393042523"/>
    <nd ref="393042524"/>
    <nd ref="393042538"/>
    <nd ref="393042525"/>
    <nd ref="393042526"/>
    <nd ref="393042514"/>
    <nd ref="393042515"/>
    <nd ref="393025366"/>
    <nd ref="393025367"/>
    <nd ref="393025368"/>
    <nd ref="393025369"/>
    <nd ref="393025370"/>
    <nd ref="393025371"/>
    <nd ref="393022183"/>
    <nd ref="393022184"/>
    <nd ref="393022185"/>
    <nd ref="393022186"/>
    <nd ref="113945312"/>
    <tag k="highway" v="motorway"/>
    <tag k="name" v="I-126"/>
    <tag k="oneway" v="yes"/>
    <tag k="ref" v="I 126"/>
  </way>
  <way id="34269270" version="12" timestamp="2009-05-13T23:11:00Z" uid="99207" user="Lar Kiesel" changeset="1181517">
    <nd ref="393051595"/>
    <nd ref="393051596"/>
    <nd ref="393051599"/>
    <nd ref="393051601"/>
    <nd ref="393051604"/>
    <nd ref="396371334"/>
    <tag k="highway" v="motorway"/>
    <tag k="name" v="I-126"/>
    <tag k="oneway" v="yes"/>
    <tag k="ref" v="I 126"/>
  </way>
  <way id="34269270" version="13" timestamp="2009-05-13T23:11:10Z" uid="99207" user="Lar Kiesel" changeset="1181517">
    <nd ref="393051595"/>
    <nd ref="393051596"/>
    <nd ref="393051599"/>
    <nd ref="393051601"/>
    <nd ref="393051604"/>
    <nd ref="396371334"/>
    <tag k="bridge" v="yes"/>
    <tag k="highway" v="motorway"/>
    <tag k="name" v="I-126"/>
    <tag k="oneway" v="yes"/>
    <tag k="ref" v="I 126"/>
  </way>
  <way id="34269270" version="14" timestamp="2009-05-15T00:04:03Z" uid="99207" user="Lar Kiesel" changeset="1193980">
    <nd ref="393051595"/>
    <nd ref="393051596"/>
    <nd ref="393051599"/>
    <nd ref="393051601"/>
    <tag k="bridge" v="yes"/>
    <tag k="highway" v="motorway"/>
    <tag k="name" v="I-126"/>
    <tag k="oneway" v="yes"/>
    <tag k="ref" v="I 126"/>
  </way>
  <way id="34269270" version="15" timestamp="2009-05-15T00:04:12Z" uid="99207" user="Lar Kiesel" changeset="1193980">
    <nd ref="393051595"/>
    <nd ref="393051596"/>
    <nd ref="393051599"/>
    <nd ref="393051601"/>
    <tag k="highway" v="motorway"/>
    <tag k="name" v="I-126"/>
    <tag k="oneway" v="yes"/>
    <tag k="ref" v="I 126"/>
  </way>
  <way id="34269270" version="16" timestamp="2009-05-15T00:07:39Z" uid="99207" user="Lar Kiesel" changeset="1193980"/>
  <way id="34269321" version="2" timestamp="2009-05-16T17:16:58Z" uid="34428" user="usm78-gis" changeset="1213023">
    <nd ref="393025387"/>
    <nd ref="393025388"/>
    <nd ref="393025389"/>
    <nd ref="393025390"/>
    <nd ref="401772952"/>
    <nd ref="393025391"/>
    <nd ref="393025392"/>
    <nd ref="393025393"/>
    <nd ref="393025394"/>
    <nd ref="393025395"/>
    <nd ref="393025396"/>
    <tag k="foot" v="yes"/>
    <tag k="highway" v="footway"/>
  </way>
  <way id="34269321" version="3" timestamp="2009-05-16T17:17:03Z" uid="34428" user="usm78-gis" changeset="1213023">
    <nd ref="393025387"/>
    <nd ref="393025388"/>
    <nd ref="393025389"/>
    <nd ref="393025390"/>
    <nd ref="401772952"/>
    <tag k="foot" v="yes"/>
    <tag k="highway" v="footway"/>
  </way>
  <way id="34269390" version="3" timestamp="2010-04-05T15:54:28Z" uid="20587" user="balrog-kun" changeset="4334369">
    <nd ref="176560586"/>
    <nd ref="176560661"/>
    <nd ref="393045946"/>
    <nd ref="176560657"/>
    <tag k="highway" v="residential"/>
    <tag k="name" v="Colorado Avenue"/>
    <tag k="tiger:cfcc" v="A41"/>
    <tag k="tiger:county" v="Boulder, CO"/>
    <tag k="tiger:name_base" v="Colorado"/>
    <tag k="tiger:name_type" v="Ave"/>
    <tag k="tiger:reviewed" v="no"/>
    <tag k="tiger:separated" v="no"/>
    <tag k="tiger:source" v="tiger_import_dch_v0.6_20070809"/>
    <tag k="tiger:tlid" v="188190444"/>
  </way>
</osm>
