<?xml version='1.0' encoding='UTF-8'?>
<osm version="0.6" generator="libosmium/2.20.0">
  <way id="3431074" version="4" timestamp="2011-02-13T14:18:44Z" uid="6269" user="Mueck" changeset="7274725">
    <nd ref="1150964374"/>
    <nd ref="1150964238"/>
    <nd ref="1150964596"/>
    <nd ref="1150964543"/>
    <nd ref="1150963757"/>
    <nd ref="1150963554"/>
    <nd ref="1150963696"/>
    <nd ref="1150964263"/>
    <nd ref="1150964103"/>
    <nd ref="1150963643"/>
    <nd ref="1150963661"/>
    <nd ref="1150964158"/>
    <nd ref="1150963485"/>
    <nd ref="1150963418"/>
    <nd ref="1150964780"/>
    <nd ref="1150964837"/>
    <nd ref="1150963580"/>
    <nd ref="1150964178"/>
    <nd ref="1150964374"/>
    <nd ref="1150964535"/>
    <nd ref="14963168"/>
    <nd ref="331231697"/>
    <nd ref="331231700"/>
    <nd ref="14963166"/>
    <tag k="highway" v="service"/>
  </way>
  <way id="3431075" version="2" timestamp="2008-07-30T10:50:21Z" uid="6269" user="Mueck" changeset="628766">
    <nd ref="26361812"/>
    <nd ref="25278245"/>
    <nd ref="15254833"/>
    <nd ref="21533423"/>
    <nd ref="15257990"/>
    <nd ref="15015715"/>
    <tag k="created_by" v="Potlatch 0.10a"/>
    <tag k="highway" v="tertiary"/>
    <tag k="name" v="Ritterstraße"/>
    <tag k="note" v="im SHP des NVK: III"/>
  </way>
  <way id="3431075" version="3" timestamp="2009-01-22T18:20:43Z" uid="6269" user="Mueck" changeset="824914">
    <nd ref="26361812"/>
    <nd ref="25278245"/>
    <nd ref="15254833"/>
    <nd ref="21533423"/>
    <nd ref="335515599"/>
    <nd ref="335515549"/>
    <nd ref="15257990"/>
    <nd ref="15015715"/>
    <tag k="created_by" v="Potlatch 0.10f"/>
    <tag k="highway" v="tertiary"/>
    <tag k="name" v="Ritterstraße"/>
    <tag k="note" v="im SHP des NVK: III"/>
  </way>
  <way id="3431075" version="11" timestamp="2011-01-25T01:27:36Z" uid="6269" user="Mueck" changeset="7079873">
    <nd ref="26361812"/>
    <nd ref="25278245"/>
    <nd ref="1119550122"/>
    <nd ref="15254833"/>
    <nd ref="1119550156"/>
    <nd ref="21533423"/>
    <nd ref="335515549"/>
    <nd ref="1119550069"/>
    <nd ref="15015715"/>
    <tag k="highway" v="tertiary"/>
    <tag k="maxspeed" v="50"/>
    <tag k="name" v="Ritterstraße"/>
    <tag k="note" v="im SHP des NVK: III"/>
    <tag k="zone:maxspeed" v="DE:urban"/>
    <tag k="zone:traffic" v="DE:urban"/>
  </way>
  <way id="3431075" version="12" timestamp="2011-01-25T01:38:48Z" uid="6269" user="Mueck" changeset="7079873">
    <nd ref="26361812"/>
    <nd ref="25278245"/>
    <nd ref="1119550122"/>
    <nd ref="15254833"/>
    <nd ref="1119550156"/>
    <nd ref="21533423"/>
    <nd ref="335515549"/>
    <nd ref="1119550069"/>
    <nd ref="1119552011"/>
    <nd ref="15015715"/>
    <tag k="highway" v="tertiary"/>
    <tag k="maxspeed" v="50"/>
    <tag k="name" v="Ritterstraße"/>
    <tag k="note" v="im SHP des NVK: III"/>
    <tag k="zone:maxspeed" v="DE:urban"/>
    <tag k="zone:traffic" v="DE:urban"/>
  </way>
  <way id="3431075" version="13" timestamp="2011-01-25T01:46:21Z" uid="6269" user="Mueck" changeset="7079873">
    <nd ref="26361812"/>
    <nd ref="25278245"/>
    <nd ref="1119550122"/>
    <nd ref="15254833"/>
    <nd ref="1119550156"/>
    <nd ref="21533423"/>
    <nd ref="335515549"/>
    <nd ref="1119550069"/>
    <nd ref="1119552011"/>
    <nd ref="1119552943"/>
    <nd ref="15015715"/>
    <tag k="highway" v="tertiary"/>
    <tag k="maxspeed" v="50"/>
    <tag k="name" v="Ritterstraße"/>
    <tag k="note" v="im SHP des NVK: III"/>
    <tag k="zone:maxspeed" v="DE:urban"/>
    <tag k="zone:traffic" v="DE:urban"/>
  </way>
  <way id="3431076" version="4" timestamp="2011-04-01T17:32:39Z" uid="6269" user="Mueck" changeset="7737379">
    <nd ref="14852005"/>
    <nd ref="950893193"/>
    <nd ref="1228104993"/>
    <tag k="highway" v="cycleway"/>
    <tag k="name" v="Beiertheimer Allee"/>
  </way>
  <way id="3431076" version="5" timestamp="2011-04-01T18:04:41Z" uid="6269" user="Mueck" changeset="7737379">
    <nd ref="1228104993"/>
    <nd ref="1228131653"/>
    <nd ref="950893193"/>
    <nd ref="14852005"/>
    <tag k="bicycle" v="yes"/>
    <tag k="highway" v="footway"/>
    <tag k="name" v="Beiertheimer Allee"/>
    <tag k="oneway" v="yes"/>
  </way>
  <way id="3431082" version="2" timestamp="2008-02-12T23:10:42Z" uid="6269" user="Mueck" changeset="111430">
    <nd ref="15015724"/>
    <nd ref="15015725"/>
    <nd ref="21533424"/>
    <nd ref="26041851"/>
    <nd ref="15015726"/>
    <nd ref="21762278"/>
    <nd ref="15015720"/>
    <nd ref="15015722"/>
    <nd ref="15015715"/>
    <tag k="created_by" v="Potlatch 0.7a"/>
    <tag k="highway" v="residential"/>
    <tag k="name" v="Mathystraße"/>
  </way>
  <way id="3431082" version="3" timestamp="2008-02-12T23:10:45Z" uid="6269" user="Mueck" changeset="111430">
    <nd ref="15015724"/>
    <nd ref="15015725"/>
    <tag k="created_by" v="Potlatch 0.7a"/>
    <tag k="highway" v="residential"/>
    <tag k="name" v="Mathystraße"/>
  </way>
  <way id="3431082" version="4" timestamp="2008-02-12T23:10:55Z" uid="6269" user="Mueck" changeset="111430">
    <nd ref="15015724"/>
    <nd ref="247389679"/>
    <tag k="created_by" v="Potlatch 0.7a"/>
    <tag k="highway" v="residential"/>
    <tag k="name" v="Mathystraße"/>
  </way>
  <way id="3431082" version="5" timestamp="2008-02-12T23:16:03Z" uid="6269" user="Mueck" changeset="111430">
    <nd ref="15015724"/>
    <nd ref="247389939"/>
    <nd ref="247389679"/>
    <tag k="created_by" v="Potlatch 0.7a"/>
    <tag k="highway" v="residential"/>
    <tag k="name" v="Mathystraße"/>
  </way>
  <way id="3431082" version="6" timestamp="2008-09-12T10:00:03Z" uid="6269" user="Mueck" changeset="613702">
    <nd ref="15015724"/>
    <nd ref="247389939"/>
    <tag k="created_by" v="Potlatch 0.10b"/>
    <tag k="highway" v="residential"/>
    <tag k="name" v="Mathystraße"/>
  </way>
  <way id="3431084" version="5" timestamp="2011-01-29T21:14:01Z" uid="6269" user="Mueck" changeset="7127449">
    <nd ref="1126865383"/>
    <nd ref="1126865339"/>
    <nd ref="15015695"/>
    <nd ref="15015705"/>
    <tag k="cycleway" v="opposite"/>
    <tag k="highway" v="residential"/>
    <tag k="name" v="Sonntagstraße"/>
    <tag k="oneway" v="yes"/>
  </way>
  <way id="3431085" version="2" timestamp="2008-02-12T23:26:11Z" uid="6269" user="Mueck" changeset="111430">
    <nd ref="15015729"/>
    <nd ref="15015696"/>
    <tag k="created_by" v="Potlatch 0.7a"/>
    <tag k="highway" v="residential"/>
    <tag k="name" v="Augustastraße"/>
  </way>
  <way id="3431085" version="3" timestamp="2008-02-12T23:27:35Z" uid="6269" user="Mueck" changeset="111430">
    <nd ref="247390319"/>
    <nd ref="15015696"/>
    <nd ref="15015729"/>
    <tag k="created_by" v="Potlatch 0.7a"/>
    <tag k="highway" v="residential"/>
    <tag k="name" v="Augustastraße"/>
    <tag k="oneway" v="yes"/>
  </way>
  <way id="3431085" version="10" timestamp="2011-04-01T15:03:25Z" uid="6269" user="Mueck" changeset="7736182">
    <nd ref="247390319"/>
    <nd ref="15015696"/>
    <nd ref="15015729"/>
    <tag k="cycleway" v="opposite"/>
    <tag k="highway" v="residential"/>
    <tag k="maxspeed" v="30"/>
    <tag k="name" v="Augustastraße"/>
    <tag k="oneway" v="yes"/>
  </way>
  <way id="3431086" version="2" timestamp="2008-02-12T23:19:56Z" uid="6269" user="Mueck" changeset="111430">
    <nd ref="15015705"/>
    <nd ref="15015703"/>
    <nd ref="247389941"/>
    <nd ref="247390067"/>
    <tag k="created_by" v="Potlatch 0.7a"/>
    <tag k="highway" v="residential"/>
    <tag k="name" v="Mathystraße"/>
    <tag k="oneway" v="true"/>
  </way>
  <way id="3431086" version="6" timestamp="2009-05-17T11:30:15Z" uid="6269" user="Mueck" changeset="1220813">
    <nd ref="15015705"/>
    <nd ref="402520726"/>
    <nd ref="15015703"/>
    <nd ref="247389941"/>
    <tag k="created_by" v="Potlatch 0.7a"/>
    <tag k="highway" v="residential"/>
    <tag k="name" v="Mathystraße"/>
    <tag k="oneway" v="yes"/>
  </way>
  <way id="3431086" version="11" timestamp="2011-01-25T11:25:34Z" uid="6269" user="Mueck" changeset="7082608">
    <nd ref="15015705"/>
    <nd ref="1048916984"/>
    <nd ref="1048916722"/>
    <nd ref="1048916849"/>
    <nd ref="1048916900"/>
    <nd ref="1048916509"/>
    <nd ref="1048917253"/>
    <nd ref="402520726"/>
    <nd ref="1119802378"/>
    <nd ref="15015703"/>
    <nd ref="1119802720"/>
    <nd ref="1119802650"/>
    <nd ref="1119802486"/>
    <nd ref="1119802490"/>
    <nd ref="247389941"/>
    <tag k="highway" v="residential"/>
    <tag k="maxspeed" v="30"/>
    <tag k="name" v="Mathystraße"/>
    <tag k="oneway" v="yes"/>
  </way>
  <way id="3431087" version="2" timestamp="2008-02-20T13:50:40Z" uid="6269" user="Mueck" changeset="164462">
    <nd ref="15015710"/>
    <nd ref="15015701"/>
    <tag k="created_by" v="Potlatch 0.7b"/>
    <tag k="highway" v="residential"/>
    <tag k="name" v="Redtenbacherstraße"/>
  </way>
  <way id="3431428" version="3" timestamp="2008-07-30T09:21:29Z" uid="6269" user="Mueck" changeset="628766">
    <nd ref="15432353"/>
    <nd ref="15432406"/>
    <tag k="abutters" v="industrial"/>
    <tag k="created_by" v="Potlatch 0.10a"/>
    <tag k="highway" v="secondary"/>
    <tag k="maxspeed" v="50"/>
    <tag k="name" v="Annweilerstraße"/>
    <tag k="note" v="im SHP des NVK: II"/>
    <tag k="oneway" v="yes"/>
  </way>
  <way id="3431434" version="9" timestamp="2010-05-05T16:31:39Z" uid="6269" user="Mueck" changeset="4614332">
    <nd ref="15432355"/>
    <nd ref="94614080"/>
    <nd ref="15432365"/>
    <nd ref="15432362"/>
    <nd ref="15432361"/>
    <nd ref="15432360"/>
    <nd ref="15432359"/>
    <nd ref="15432587"/>
    <nd ref="15432322"/>
    <nd ref="15432320"/>
    <nd ref="15432319"/>
    <nd ref="17069147"/>
    <nd ref="89337206"/>
    <nd ref="15432318"/>
    <tag k="highway" v="residential"/>
    <tag k="maxspeed" v="30"/>
    <tag k="name" v="Berliner Straße"/>
    <tag k="postal_code" v="76185"/>
  </way>
  <way id="3431434" version="11" timestamp="2011-02-20T11:46:55Z" uid="6269" user="Mueck" changeset="7341253">
    <nd ref="15432355"/>
    <nd ref="94614080"/>
    <nd ref="15432365"/>
    <nd ref="15432362"/>
    <nd ref="15432361"/>
    <nd ref="15432360"/>
    <nd ref="15432359"/>
    <nd ref="15432587"/>
    <nd ref="15432322"/>
    <nd ref="15432320"/>
    <nd ref="1065895185"/>
    <nd ref="15432319"/>
    <nd ref="17069147"/>
    <nd ref="1163169929"/>
    <nd ref="89337206"/>
    <nd ref="15432318"/>
    <tag k="highway" v="residential"/>
    <tag k="maxspeed" v="30"/>
    <tag k="name" v="Berliner Straße"/>
    <tag k="postal_code" v="76185"/>
  </way>
  <way id="3431435" version="12" timestamp="2011-02-20T11:46:57Z" uid="6269" user="Mueck" changeset="7341253">
    <nd ref="15432354"/>
    <nd ref="94614077"/>
    <nd ref="15432350"/>
    <nd ref="15432349"/>
    <nd ref="249173377"/>
    <nd ref="15432367"/>
    <nd ref="15432583"/>
    <nd ref="15432369"/>
    <nd ref="15432584"/>
    <nd ref="15432373"/>
    <nd ref="15432593"/>
    <nd ref="15432594"/>
    <nd ref="249138787"/>
    <nd ref="1048707337"/>
    <nd ref="1048707328"/>
    <nd ref="17069218"/>
    <nd ref="249173374"/>
    <nd ref="15432596"/>
    <nd ref="15432597"/>
    <nd ref="15432598"/>
    <nd ref="15432599"/>
    <nd ref="15432600"/>
    <nd ref="15432335"/>
    <nd ref="1163169973"/>
    <nd ref="89337215"/>
    <nd ref="15432316"/>
    <tag k="highway" v="residential"/>
    <tag k="maxspeed" v="30"/>
    <tag k="name" v="Bonner Straße"/>
    <tag k="postal_code" v="76185"/>
  </way>
</osm>
