<?xml version='1.0' encoding='UTF-8'?>
<osm version="0.6" generator="libosmium/2.20.0">
  <way id="34327032" version="2" timestamp="2010-07-09T05:28:16Z" uid="74617" user="JohnSmith" changeset="5170972">
    <nd ref="143390676"/>
    <nd ref="393771303"/>
    <tag k="highway" v="residential"/>
    <tag k="maxspeed" v="50"/>
    <tag k="maxspeed:source" v="default residential speed limit in Australia"/>
    <tag k="name" v="Alcorso Drive"/>
  </way>
  <way id="34327032" version="3" timestamp="2010-07-09T05:36:02Z" uid="74617" user="JohnSmith" changeset="5170972">
    <nd ref="143390676"/>
    <nd ref="393771303"/>
    <tag k="highway" v="residential"/>
    <tag k="maxspeed" v="50"/>
    <tag k="maxspeed:source" v="default residential speed limit in Australia"/>
    <tag k="name" v="Alcorso Drive"/>
  </way>
  <way id="34327513" version="7" timestamp="2010-05-01T09:14:54Z" uid="4467" user="Rosscoe" changeset="4572853">
    <nd ref="33114851"/>
    <nd ref="393778259"/>
    <nd ref="360807911"/>
    <nd ref="360794305"/>
    <nd ref="385942462"/>
    <nd ref="385942456"/>
    <nd ref="360792939"/>
    <nd ref="393778260"/>
    <nd ref="715069022"/>
    <tag k="highway" v="residential"/>
    <tag k="name" v="Brompton Road"/>
  </way>
  <way id="34327513" version="8" timestamp="2010-07-09T20:57:03Z" uid="74617" user="JohnSmith" changeset="5176956">
    <nd ref="33114851"/>
    <nd ref="393778259"/>
    <nd ref="360807911"/>
    <nd ref="360794305"/>
    <nd ref="385942462"/>
    <nd ref="385942456"/>
    <nd ref="360792939"/>
    <nd ref="393778260"/>
    <nd ref="715069022"/>
    <tag k="highway" v="residential"/>
    <tag k="maxspeed" v="50"/>
    <tag k="maxspeed:source" v="default residential speed limit in Australia"/>
    <tag k="name" v="Brompton Road"/>
  </way>
  <way id="34327534" version="7" timestamp="2010-07-09T20:54:51Z" uid="74617" user="JohnSmith" changeset="5176956">
    <nd ref="393778669"/>
    <nd ref="393778541"/>
    <nd ref="393778543"/>
    <nd ref="393778545"/>
    <nd ref="393778941"/>
    <nd ref="393778553"/>
    <tag k="highway" v="residential"/>
    <tag k="maxspeed" v="50"/>
    <tag k="maxspeed:source" v="default residential speed limit in Australia"/>
    <tag k="name" v="Dover Road"/>
  </way>
  <way id="34327593" version="4" timestamp="2010-07-09T21:41:39Z" uid="74617" user="JohnSmith" changeset="5176956">
    <nd ref="393778937"/>
    <nd ref="393778941"/>
    <nd ref="385979512"/>
    <nd ref="385981415"/>
    <nd ref="393778943"/>
    <nd ref="393778946"/>
    <nd ref="393778947"/>
    <nd ref="393778948"/>
    <nd ref="393778952"/>
    <tag k="highway" v="residential"/>
    <tag k="maxspeed" v="50"/>
    <tag k="maxspeed:source" v="default residential speed limit in Australia"/>
    <tag k="name" v="Steward Street"/>
  </way>
  <way id="34327603" version="3" timestamp="2010-07-09T21:44:00Z" uid="74617" user="JohnSmith" changeset="5176956">
    <nd ref="393779300"/>
    <nd ref="393779302"/>
    <nd ref="393778943"/>
    <nd ref="393779303"/>
    <tag k="highway" v="residential"/>
    <tag k="maxspeed" v="50"/>
    <tag k="maxspeed:source" v="default residential speed limit in Australia"/>
    <tag k="name" v="Ostend Road"/>
  </way>
  <way id="34327628" version="6" timestamp="2010-07-09T18:33:25Z" uid="74617" user="JohnSmith" changeset="5175636">
    <nd ref="393779884"/>
    <nd ref="393779888"/>
    <tag k="highway" v="residential"/>
    <tag k="maxspeed" v="50"/>
    <tag k="maxspeed:source" v="default residential speed limit in Australia"/>
    <tag k="name" v="Hastings Street"/>
  </way>
  <way id="34327823" version="6" timestamp="2010-07-09T18:30:01Z" uid="74617" user="JohnSmith" changeset="5175636">
    <nd ref="393781066"/>
    <nd ref="393781895"/>
    <nd ref="393781070"/>
    <nd ref="31037559"/>
    <tag k="highway" v="residential"/>
    <tag k="maxspeed" v="50"/>
    <tag k="maxspeed:source" v="default residential speed limit in Australia"/>
    <tag k="name" v="Westborough Street"/>
  </way>
  <way id="34327843" version="5" timestamp="2009-08-10T00:46:23Z" uid="4467" user="Rosscoe" changeset="2092174">
    <nd ref="319473750"/>
    <nd ref="319473751"/>
    <nd ref="319473745"/>
    <nd ref="393784461"/>
    <nd ref="393781108"/>
    <nd ref="393781110"/>
    <nd ref="393781111"/>
    <nd ref="393781113"/>
    <nd ref="393781115"/>
    <nd ref="393781116"/>
    <nd ref="393781118"/>
    <nd ref="393781120"/>
    <nd ref="393781121"/>
    <nd ref="393781122"/>
    <nd ref="393781124"/>
    <nd ref="393781125"/>
    <nd ref="393781126"/>
    <tag k="highway" v="residential"/>
    <tag k="name" v="Commens Street"/>
    <tag k="source" v="survey"/>
    <tag k="surface" v="paved"/>
  </way>
  <way id="34327853" version="4" timestamp="2010-07-09T18:39:59Z" uid="74617" user="JohnSmith" changeset="5175636">
    <nd ref="393781070"/>
    <nd ref="359715704"/>
    <nd ref="359715708"/>
    <nd ref="393781350"/>
    <tag k="highway" v="residential"/>
    <tag k="maxspeed" v="50"/>
    <tag k="maxspeed:source" v="default residential speed limit in Australia"/>
    <tag k="name" v="Harvest Terrace"/>
  </way>
  <way id="34327860" version="5" timestamp="2010-07-09T18:39:18Z" uid="74617" user="JohnSmith" changeset="5175636">
    <nd ref="393781895"/>
    <nd ref="359715711"/>
    <nd ref="393781905"/>
    <tag k="highway" v="residential"/>
    <tag k="maxspeed" v="50"/>
    <tag k="maxspeed:source" v="default residential speed limit in Australia"/>
    <tag k="name" v="Clifton Street"/>
  </way>
  <way id="34327868" version="2" timestamp="2009-08-10T00:46:21Z" uid="4467" user="Rosscoe" changeset="2092174">
    <nd ref="393781993"/>
    <nd ref="393781994"/>
    <nd ref="393781995"/>
    <nd ref="393781996"/>
    <nd ref="393781122"/>
    <tag k="highway" v="unclassified"/>
    <tag k="name" v="Lane Street"/>
    <tag k="source" v="survey"/>
    <tag k="surface" v="paved"/>
  </way>
  <way id="34327894" version="3" timestamp="2009-08-10T00:46:19Z" uid="4467" user="Rosscoe" changeset="2092174">
    <nd ref="393781113"/>
    <nd ref="393783605"/>
    <nd ref="393783607"/>
    <tag k="highway" v="residential"/>
    <tag k="name" v="Lidsdale Street"/>
    <tag k="source" v="survey"/>
    <tag k="surface" v="paved"/>
  </way>
  <way id="34327894" version="4" timestamp="2010-07-08T16:49:47Z" uid="74617" user="JohnSmith" changeset="5167338">
    <nd ref="393781113"/>
    <nd ref="393783605"/>
    <nd ref="393783607"/>
    <tag k="highway" v="residential"/>
    <tag k="maxspeed" v="50"/>
    <tag k="maxspeed:source" v="default residential speed limit in Australia"/>
    <tag k="name" v="Lidsdale Street"/>
    <tag k="source" v="survey"/>
    <tag k="surface" v="paved"/>
  </way>
  <way id="34327905" version="3" timestamp="2009-08-10T00:46:21Z" uid="4467" user="Rosscoe" changeset="2092174">
    <nd ref="393781111"/>
    <nd ref="393783895"/>
    <nd ref="393783896"/>
    <tag k="highway" v="residential"/>
    <tag k="name" v="Bathurst Street"/>
    <tag k="source" v="survey"/>
    <tag k="surface" v="paved"/>
  </way>
  <way id="34327905" version="4" timestamp="2010-07-08T16:51:20Z" uid="74617" user="JohnSmith" changeset="5167338">
    <nd ref="393781111"/>
    <nd ref="393783895"/>
    <nd ref="393783896"/>
    <tag k="highway" v="residential"/>
    <tag k="maxspeed" v="50"/>
    <tag k="maxspeed:source" v="default residential speed limit in Australia"/>
    <tag k="name" v="Bathurst Street"/>
    <tag k="source" v="survey"/>
    <tag k="surface" v="paved"/>
  </way>
  <way id="34327924" version="2" timestamp="2009-08-10T00:46:24Z" uid="4467" user="Rosscoe" changeset="2092174">
    <nd ref="393783992"/>
    <nd ref="393783993"/>
    <nd ref="393783895"/>
    <nd ref="393783605"/>
    <tag k="highway" v="service"/>
    <tag k="name" v="Rose Lane"/>
    <tag k="source" v="survey"/>
    <tag k="surface" v="paved"/>
  </way>
  <way id="34327939" version="3" timestamp="2009-08-10T00:46:21Z" uid="4467" user="Rosscoe" changeset="2092174">
    <nd ref="393781108"/>
    <nd ref="393783993"/>
    <nd ref="393784022"/>
    <tag k="highway" v="residential"/>
    <tag k="name" v="Junction Street"/>
    <tag k="source" v="survey"/>
    <tag k="surface" v="paved"/>
  </way>
  <way id="34327939" version="4" timestamp="2010-07-08T16:49:48Z" uid="74617" user="JohnSmith" changeset="5167338">
    <nd ref="393781108"/>
    <nd ref="393783993"/>
    <nd ref="393784022"/>
    <tag k="highway" v="residential"/>
    <tag k="maxspeed" v="50"/>
    <tag k="maxspeed:source" v="default residential speed limit in Australia"/>
    <tag k="name" v="Junction Street"/>
    <tag k="source" v="survey"/>
    <tag k="surface" v="paved"/>
  </way>
  <way id="34327950" version="3" timestamp="2009-08-10T00:46:22Z" uid="4467" user="Rosscoe" changeset="2092174">
    <nd ref="393784032"/>
    <nd ref="393783992"/>
    <nd ref="393784461"/>
    <tag k="highway" v="residential"/>
    <tag k="name" v="Mudgee Street"/>
    <tag k="source" v="survey"/>
    <tag k="surface" v="paved"/>
  </way>
  <way id="34327950" version="4" timestamp="2010-07-08T16:48:34Z" uid="74617" user="JohnSmith" changeset="5167338">
    <nd ref="393784032"/>
    <nd ref="393783992"/>
    <nd ref="393784461"/>
    <tag k="highway" v="residential"/>
    <tag k="maxspeed" v="50"/>
    <tag k="maxspeed:source" v="default residential speed limit in Australia"/>
    <tag k="name" v="Mudgee Street"/>
    <tag k="source" v="survey"/>
    <tag k="surface" v="paved"/>
  </way>
  <way id="34327957" version="3" timestamp="2009-06-28T00:27:10Z" uid="4467" user="Rosscoe" changeset="1656014">
    <nd ref="309653777"/>
    <nd ref="393784492"/>
    <nd ref="393784493"/>
    <nd ref="393784494"/>
    <nd ref="393784495"/>
    <nd ref="393784496"/>
    <nd ref="393784497"/>
    <nd ref="393784498"/>
    <nd ref="393784499"/>
    <nd ref="393784500"/>
    <nd ref="393784501"/>
    <nd ref="393784502"/>
    <nd ref="393784503"/>
    <nd ref="393784504"/>
    <nd ref="393784505"/>
    <nd ref="393784506"/>
    <nd ref="393784507"/>
    <nd ref="393784508"/>
    <nd ref="393784497"/>
    <tag k="highway" v="service"/>
    <tag k="source" v="survey"/>
    <tag k="surface" v="unpaved"/>
  </way>
  <way id="34327961" version="3" timestamp="2010-05-01T09:14:51Z" uid="4467" user="Rosscoe" changeset="4572853">
    <nd ref="715068966"/>
    <nd ref="359719038"/>
    <nd ref="359719051"/>
    <nd ref="359719064"/>
    <nd ref="359719137"/>
    <tag k="highway" v="residential"/>
    <tag k="name" v="Fulford Street"/>
  </way>
  <way id="34327961" version="4" timestamp="2010-07-09T18:32:56Z" uid="74617" user="JohnSmith" changeset="5175636">
    <nd ref="715068966"/>
    <nd ref="359719038"/>
    <nd ref="359719051"/>
    <nd ref="359719064"/>
    <nd ref="359719137"/>
    <tag k="highway" v="residential"/>
    <tag k="maxspeed" v="50"/>
    <tag k="maxspeed:source" v="default residential speed limit in Australia"/>
    <tag k="name" v="Fulford Street"/>
  </way>
  <way id="34327966" version="5" timestamp="2010-07-09T18:34:07Z" uid="74617" user="JohnSmith" changeset="5175636">
    <nd ref="393784967"/>
    <nd ref="393784711"/>
    <nd ref="393784714"/>
    <nd ref="31047478"/>
    <nd ref="359718583"/>
    <nd ref="359718619"/>
    <nd ref="359718626"/>
    <tag k="highway" v="residential"/>
    <tag k="maxspeed" v="50"/>
    <tag k="maxspeed:source" v="default residential speed limit in Australia"/>
    <tag k="name" v="Gildercliffe Street"/>
  </way>
  <way id="34327972" version="3" timestamp="2009-09-01T21:04:29Z" uid="36809" user="pfoten_weg_!_" changeset="2343001">
    <nd ref="393785013"/>
    <nd ref="393785014"/>
    <nd ref="393785015"/>
    <nd ref="393785016"/>
    <nd ref="393785017"/>
    <nd ref="393785018"/>
    <nd ref="393785013"/>
    <tag k="building" v="yes"/>
  </way>
  <way id="34327982" version="2" timestamp="2009-09-01T21:05:00Z" uid="36809" user="pfoten_weg_!_" changeset="2343001">
    <nd ref="393785089"/>
    <nd ref="393785090"/>
    <nd ref="393785091"/>
    <nd ref="393785092"/>
    <nd ref="393785093"/>
    <nd ref="393785094"/>
    <nd ref="393785095"/>
    <nd ref="393785096"/>
    <nd ref="393785089"/>
    <tag k="building" v="yes"/>
  </way>
  <way id="34327986" version="2" timestamp="2010-07-25T23:27:28Z" uid="4467" user="Rosscoe" changeset="5317533">
    <nd ref="393779847"/>
    <nd ref="393785288"/>
    <tag k="bridge" v="yes"/>
    <tag k="layer" v="1"/>
    <tag k="name" v="Leongatha Line"/>
    <tag k="railway" v="disused"/>
  </way>
  <way id="34327988" version="2" timestamp="2010-07-25T23:27:30Z" uid="4467" user="Rosscoe" changeset="5317533">
    <nd ref="393779841"/>
    <nd ref="393785289"/>
    <tag k="bridge" v="yes"/>
    <tag k="layer" v="1"/>
    <tag k="name" v="Leongatha Line"/>
    <tag k="railway" v="disused"/>
  </way>
  <way id="34327990" version="2" timestamp="2010-07-25T23:27:31Z" uid="4467" user="Rosscoe" changeset="5317533">
    <nd ref="393779784"/>
    <nd ref="393785290"/>
    <tag k="bridge" v="yes"/>
    <tag k="layer" v="1"/>
    <tag k="name" v="Leongatha Line"/>
    <tag k="railway" v="disused"/>
  </way>
</osm>
