<?xml version='1.0' encoding='UTF-8'?>
<osm version="0.6" generator="libosmium/2.20.0">
  <way id="34331081" version="4" timestamp="2010-04-07T13:37:31Z" uid="20587" user="balrog-kun" changeset="4353646">
    <nd ref="393829514"/>
    <nd ref="393829510"/>
    <tag k="addr:postcode" v="78633"/>
    <tag k="highway" v="residential"/>
    <tag k="name" v="Summit Street"/>
  </way>
  <way id="34331093" version="11" timestamp="2010-04-07T13:37:31Z" uid="20587" user="balrog-kun" changeset="4353646">
    <nd ref="393830701"/>
    <nd ref="393830704"/>
    <nd ref="393830707"/>
    <nd ref="393830711"/>
    <nd ref="393830714"/>
    <nd ref="393830718"/>
    <nd ref="393831887"/>
    <nd ref="393830721"/>
    <nd ref="393830726"/>
    <nd ref="393830729"/>
    <nd ref="393830731"/>
    <nd ref="393830734"/>
    <nd ref="393830736"/>
    <nd ref="393830738"/>
    <nd ref="393830741"/>
    <nd ref="393830744"/>
    <nd ref="393830746"/>
    <nd ref="393830749"/>
    <nd ref="393830753"/>
    <nd ref="393830756"/>
    <nd ref="393830759"/>
    <nd ref="393830763"/>
    <nd ref="393830765"/>
    <nd ref="393830775"/>
    <nd ref="393830777"/>
    <nd ref="393830779"/>
    <nd ref="393830780"/>
    <nd ref="393830781"/>
    <nd ref="393831376"/>
    <nd ref="393830783"/>
    <nd ref="393830784"/>
    <nd ref="497124499"/>
    <nd ref="393832962"/>
    <nd ref="393830701"/>
    <tag k="addr:postcode" v="78633"/>
    <tag k="highway" v="residential"/>
    <tag k="name" v="Deer Meadow Circle"/>
  </way>
  <way id="34331095" version="4" timestamp="2010-04-07T13:37:32Z" uid="20587" user="balrog-kun" changeset="4353646">
    <nd ref="393830734"/>
    <nd ref="393831359"/>
    <nd ref="393831362"/>
    <nd ref="393831364"/>
    <nd ref="393831366"/>
    <nd ref="393831369"/>
    <nd ref="393831371"/>
    <nd ref="393831373"/>
    <nd ref="393831374"/>
    <nd ref="393831376"/>
    <tag k="addr:postcode" v="78633"/>
    <tag k="highway" v="residential"/>
    <tag k="name" v="Rosecliffe Drive"/>
  </way>
  <way id="34331098" version="4" timestamp="2010-04-07T13:37:32Z" uid="20587" user="balrog-kun" changeset="4353646">
    <nd ref="393831373"/>
    <nd ref="393831813"/>
    <nd ref="393831815"/>
    <nd ref="393831818"/>
    <nd ref="393830707"/>
    <tag k="addr:postcode" v="78633"/>
    <tag k="highway" v="residential"/>
    <tag k="name" v="Courtyard Garden Lane"/>
  </way>
  <way id="34331100" version="3" timestamp="2010-10-05T01:35:33Z" uid="20587" user="balrog-kun" changeset="5958352">
    <nd ref="393827689"/>
    <nd ref="393827686"/>
    <tag k="highway" v="residential"/>
    <tag k="name" v="Adama Mickiewicza"/>
    <tag k="source" v="UMP-PL, ./UMP-Rzeszow/src/RZESZOW.ulice.txt"/>
  </way>
  <way id="34331102" version="3" timestamp="2009-11-02T02:19:59Z" uid="20587" user="balrog-kun" changeset="3013288">
    <nd ref="34662452"/>
    <nd ref="393829873"/>
    <nd ref="393829956"/>
    <nd ref="393829874"/>
    <nd ref="393829876"/>
    <nd ref="393829875"/>
    <nd ref="393829878"/>
    <nd ref="393829877"/>
    <nd ref="393829880"/>
    <nd ref="393829879"/>
    <tag k="highway" v="primary"/>
    <tag k="int_ref" v="E371"/>
    <tag k="name" v="Generała Leopolda Okulickiego"/>
    <tag k="ref" v="9"/>
    <tag k="source" v="UMP-PL, ./UMP-Rzeszow/src/RZESZOW.ulice.txt"/>
  </way>
  <way id="34331110" version="3" timestamp="2010-10-05T01:33:49Z" uid="20587" user="balrog-kun" changeset="5958352">
    <nd ref="393827693"/>
    <nd ref="393827691"/>
    <nd ref="393827675"/>
    <nd ref="393827689"/>
    <tag k="highway" v="residential"/>
    <tag k="name" v="Adama Mickiewicza"/>
    <tag k="source" v="UMP-PL, ./UMP-Rzeszow/src/RZESZOW.ulice.txt"/>
  </way>
  <way id="34331112" version="3" timestamp="2010-10-05T01:33:13Z" uid="20587" user="balrog-kun" changeset="5958352">
    <nd ref="393827689"/>
    <nd ref="393827685"/>
    <nd ref="393827558"/>
    <tag k="highway" v="residential"/>
    <tag k="name" v="Berka Joselewicza"/>
    <tag k="source" v="UMP-PL, ./UMP-Rzeszow/src/RZESZOW.ulice.txt"/>
  </way>
  <way id="34331115" version="3" timestamp="2009-11-02T02:20:00Z" uid="20587" user="balrog-kun" changeset="3013288">
    <nd ref="393829882"/>
    <nd ref="393829881"/>
    <nd ref="393830136"/>
    <nd ref="393830137"/>
    <nd ref="393830134"/>
    <nd ref="393830135"/>
    <nd ref="393830140"/>
    <nd ref="393830141"/>
    <nd ref="393830138"/>
    <nd ref="393830139"/>
    <nd ref="393830158"/>
    <nd ref="34662453"/>
    <tag k="highway" v="primary"/>
    <tag k="int_ref" v="E371"/>
    <tag k="name" v="Generała Leopolda Okulickiego"/>
    <tag k="ref" v="9"/>
    <tag k="source" v="UMP-PL, ./UMP-Rzeszow/src/RZESZOW.ulice.txt"/>
  </way>
  <way id="34331119" version="3" timestamp="2010-10-05T01:33:54Z" uid="20587" user="balrog-kun" changeset="5958352">
    <nd ref="393827551"/>
    <nd ref="393827687"/>
    <tag k="highway" v="residential"/>
    <tag k="name" v="Doktora Ludwika Zamenhofa"/>
    <tag k="source" v="UMP-PL, ./UMP-Rzeszow/src/RZESZOW.ulice.txt"/>
  </way>
  <way id="34331121" version="4" timestamp="2010-10-05T01:34:40Z" uid="20587" user="balrog-kun" changeset="5958352">
    <nd ref="393827710"/>
    <nd ref="393827695"/>
    <nd ref="393827571"/>
    <nd ref="393827713"/>
    <nd ref="393827711"/>
    <nd ref="393827700"/>
    <nd ref="393827701"/>
    <nd ref="393827698"/>
    <nd ref="142142061"/>
    <tag k="highway" v="residential"/>
    <tag k="name" v="Juliusza Słowackiego"/>
    <tag k="source" v="UMP-PL, ./UMP-Rzeszow/src/RZESZOW.ulice.txt"/>
  </way>
  <way id="34331123" version="2" timestamp="2010-10-05T01:35:04Z" uid="20587" user="balrog-kun" changeset="5958352">
    <nd ref="393830118"/>
    <nd ref="393830119"/>
    <nd ref="393830124"/>
    <tag k="highway" v="residential"/>
    <tag k="name" v="Majora Henryka Sucharskiego"/>
    <tag k="source" v="UMP-PL, ./UMP-Rzeszow/src/RZESZOW.ulice.txt"/>
  </way>
  <way id="34331145" version="3" timestamp="2010-10-05T01:35:11Z" uid="20587" user="balrog-kun" changeset="5958352">
    <nd ref="393827697"/>
    <nd ref="393827696"/>
    <nd ref="393827695"/>
    <tag k="highway" v="residential"/>
    <tag k="name" v="Tadeusza Kościuszki"/>
    <tag k="source" v="UMP-PL, ./UMP-Rzeszow/src/RZESZOW.ulice.txt"/>
  </way>
  <way id="34331149" version="3" timestamp="2010-10-05T01:34:28Z" uid="20587" user="balrog-kun" changeset="5958352">
    <nd ref="393827689"/>
    <nd ref="393827688"/>
    <nd ref="393827687"/>
    <nd ref="393827692"/>
    <tag k="highway" v="residential"/>
    <tag k="name" v="Adama Mickiewicza"/>
    <tag k="source" v="UMP-PL, ./UMP-Rzeszow/src/RZESZOW.ulice.txt"/>
  </way>
  <way id="34331154" version="2" timestamp="2010-10-05T01:34:58Z" uid="20587" user="balrog-kun" changeset="5958352">
    <nd ref="393829959"/>
    <nd ref="393829957"/>
    <nd ref="393830019"/>
    <nd ref="393829962"/>
    <tag k="highway" v="residential"/>
    <tag k="name" v="Krzysztofa Kamila Baczyńskiego"/>
    <tag k="source" v="UMP-PL, ./UMP-Rzeszow/src/RZESZOW.ulice.txt"/>
  </way>
  <way id="34331159" version="3" timestamp="2010-10-05T01:35:13Z" uid="20587" user="balrog-kun" changeset="5958352">
    <nd ref="393827694"/>
    <nd ref="393827693"/>
    <tag k="highway" v="residential"/>
    <tag k="name" v="Adama Mickiewicza"/>
    <tag k="source" v="UMP-PL, ./UMP-Rzeszow/src/RZESZOW.ulice.txt"/>
  </way>
  <way id="34331172" version="2" timestamp="2010-10-05T01:33:13Z" uid="20587" user="balrog-kun" changeset="5958352">
    <nd ref="393829564"/>
    <nd ref="393830011"/>
    <tag k="highway" v="residential"/>
    <tag k="name" v="Andrzeja Małkowskiego"/>
    <tag k="source" v="UMP-PL, ./UMP-Rzeszow/src/RZESZOW.ulice.txt"/>
  </way>
  <way id="34331180" version="2" timestamp="2010-10-05T01:34:45Z" uid="20587" user="balrog-kun" changeset="5958352">
    <nd ref="393829569"/>
    <nd ref="393830004"/>
    <nd ref="393830005"/>
    <nd ref="393830006"/>
    <nd ref="393830007"/>
    <nd ref="393830018"/>
    <nd ref="393830019"/>
    <tag k="highway" v="residential"/>
    <tag k="name" v="Mikołaja Reja"/>
    <tag k="source" v="UMP-PL, ./UMP-Rzeszow/src/RZESZOW.ulice.txt"/>
  </way>
  <way id="34331186" version="4" timestamp="2010-04-07T13:37:32Z" uid="20587" user="balrog-kun" changeset="4353646">
    <nd ref="393831887"/>
    <nd ref="349340034"/>
    <tag k="addr:postcode" v="78633"/>
    <tag k="highway" v="residential"/>
    <tag k="name" v="Caterpillar Lane"/>
  </way>
  <way id="34331218" version="2" timestamp="2010-10-05T01:35:10Z" uid="20587" user="balrog-kun" changeset="5958352">
    <nd ref="393830007"/>
    <nd ref="393830020"/>
    <nd ref="393830011"/>
    <nd ref="393830021"/>
    <nd ref="393830009"/>
    <tag k="highway" v="residential"/>
    <tag k="name" v="Leona Kruczkowskiego"/>
    <tag k="source" v="UMP-PL, ./UMP-Rzeszow/src/RZESZOW.ulice.txt"/>
  </way>
  <way id="34331226" version="2" timestamp="2010-10-05T01:34:13Z" uid="20587" user="balrog-kun" changeset="5958352">
    <nd ref="393830004"/>
    <nd ref="393830020"/>
    <tag k="highway" v="residential"/>
    <tag k="name" v="Leopolda Staffa"/>
    <tag k="source" v="UMP-PL, ./UMP-Rzeszow/src/RZESZOW.ulice.txt"/>
  </way>
  <way id="34331227" version="3" timestamp="2010-10-05T01:35:15Z" uid="20587" user="balrog-kun" changeset="5958352">
    <nd ref="393827709"/>
    <nd ref="393827710"/>
    <nd ref="393827684"/>
    <nd ref="393827706"/>
    <tag k="highway" v="residential"/>
    <tag k="name" v="Jana Matejki"/>
    <tag k="source" v="UMP-PL, ./UMP-Rzeszow/src/RZESZOW.ulice.txt"/>
  </way>
  <way id="34331242" version="4" timestamp="2010-10-05T01:33:37Z" uid="20587" user="balrog-kun" changeset="5958352">
    <nd ref="393829569"/>
    <nd ref="566835078"/>
    <nd ref="393830045"/>
    <nd ref="393830046"/>
    <nd ref="393829999"/>
    <nd ref="393829998"/>
    <nd ref="393830040"/>
    <nd ref="393830042"/>
    <nd ref="59634400"/>
    <tag k="highway" v="residential"/>
    <tag k="name" v="Marii Konopnickiej"/>
    <tag k="source" v="UMP-PL, ./UMP-Rzeszow/src/RZESZOW.ulice.txt"/>
  </way>
  <way id="34331297" version="2" timestamp="2009-11-02T02:20:09Z" uid="20587" user="balrog-kun" changeset="3013288">
    <nd ref="393829995"/>
    <nd ref="393830000"/>
    <nd ref="393830017"/>
    <tag k="highway" v="residential"/>
    <tag k="name" v="Bolesława Limanowskiego"/>
    <tag k="source" v="UMP-PL, ./UMP-Rzeszow/src/RZESZOW.ulice.txt"/>
  </way>
  <way id="34331301" version="2" timestamp="2009-11-02T02:20:09Z" uid="20587" user="balrog-kun" changeset="3013288">
    <nd ref="393829989"/>
    <nd ref="393829994"/>
    <tag k="highway" v="residential"/>
    <tag k="name" v="Stanisława Wojciechowskiego"/>
    <tag k="source" v="UMP-PL, ./UMP-Rzeszow/src/RZESZOW.ulice.txt"/>
  </way>
  <way id="34331323" version="2" timestamp="2009-11-02T02:20:08Z" uid="20587" user="balrog-kun" changeset="3013288">
    <nd ref="393830052"/>
    <nd ref="393830051"/>
    <nd ref="393829992"/>
    <nd ref="393829993"/>
    <nd ref="393830017"/>
    <nd ref="393830016"/>
    <nd ref="393829988"/>
    <tag k="highway" v="residential"/>
    <tag k="name" v="Kornela Ujejskiego"/>
    <tag k="source" v="UMP-PL, ./UMP-Rzeszow/src/RZESZOW.ulice.txt"/>
  </way>
  <way id="34331341" version="3" timestamp="2010-10-05T01:34:12Z" uid="20587" user="balrog-kun" changeset="5958352">
    <nd ref="393827604"/>
    <nd ref="393827587"/>
    <nd ref="393827590"/>
    <nd ref="393827608"/>
    <nd ref="393827611"/>
    <nd ref="393827631"/>
    <nd ref="393827614"/>
    <tag k="highway" v="tertiary"/>
    <tag k="name" v="Aleja Niepodległości"/>
    <tag k="source" v="UMP-PL, ./UMP-Rzeszow/src/RZESZOW.ulice.txt"/>
  </way>
  <way id="34331378" version="2" timestamp="2010-10-05T01:33:33Z" uid="20587" user="balrog-kun" changeset="5958352">
    <nd ref="393828339"/>
    <nd ref="393828324"/>
    <nd ref="393828325"/>
    <tag k="highway" v="residential"/>
    <tag k="name" v="Adama Asnyka"/>
    <tag k="source" v="UMP-PL, ./UMP-Rzeszow/src/RZESZOW.ulice.txt"/>
  </way>
  <way id="34331493" version="3" timestamp="2010-10-05T01:35:32Z" uid="20587" user="balrog-kun" changeset="5958352">
    <nd ref="393828360"/>
    <nd ref="393828342"/>
    <nd ref="393828380"/>
    <tag k="highway" v="residential"/>
    <tag k="name" v="Aleja Tadeusza Rejtana"/>
    <tag k="source" v="UMP-PL, ./UMP-Rzeszow/src/RZESZOW.ulice.txt"/>
  </way>
  <way id="34331506" version="3" timestamp="2010-10-05T01:35:03Z" uid="20587" user="balrog-kun" changeset="5958352">
    <nd ref="393828353"/>
    <nd ref="393828352"/>
    <nd ref="566494294"/>
    <nd ref="566494504"/>
    <tag k="highway" v="residential"/>
    <tag k="name" v="Aleja Tadeusza Rejtana"/>
    <tag k="source" v="UMP-PL, ./UMP-Rzeszow/src/RZESZOW.ulice.txt"/>
  </way>
  <way id="34331551" version="1" timestamp="2009-05-11T14:08:29Z" uid="30632" user="antblant" changeset="1152969">
    <nd ref="286060297"/>
    <nd ref="286060299"/>
    <tag k="created_by" v="Potlatch 0.10b"/>
    <tag k="highway" v="residential"/>
  </way>
  <way id="34331551" version="2" timestamp="2009-05-11T14:08:52Z" uid="30632" user="antblant" changeset="1152969">
    <nd ref="286060297"/>
    <nd ref="286060299"/>
    <tag k="created_by" v="Potlatch 0.10b"/>
    <tag k="highway" v="residential"/>
    <tag k="name" v="Plac Wincentego Witosa"/>
  </way>
  <way id="34331551" version="3" timestamp="2009-11-03T01:46:56Z" uid="36809" user="pfoten_weg_!_" changeset="3021530">
    <nd ref="286060297"/>
    <nd ref="286060299"/>
    <tag k="highway" v="residential"/>
    <tag k="name" v="Plac Wincentego Witosa"/>
  </way>
  <way id="34331637" version="2" timestamp="2010-10-05T01:34:28Z" uid="20587" user="balrog-kun" changeset="5958352">
    <nd ref="393830120"/>
    <nd ref="393831357"/>
    <nd ref="393830118"/>
    <tag k="highway" v="residential"/>
    <tag k="name" v="Lucjana Rudnickiego"/>
    <tag k="source" v="UMP-PL, ./UMP-Rzeszow/src/RZESZOW.ulice.txt"/>
  </way>
  <way id="34331674" version="3" timestamp="2010-10-05T01:34:30Z" uid="20587" user="balrog-kun" changeset="5958352">
    <nd ref="393829371"/>
    <nd ref="393829754"/>
    <nd ref="393831452"/>
    <nd ref="393827707"/>
    <tag k="highway" v="residential"/>
    <tag k="name" v="Wojciecha Bartosza Głowackiego"/>
    <tag k="source" v="UMP-PL, ./UMP-Rzeszow/src/RZESZOW.ulice.txt"/>
  </way>
  <way id="34331675" version="2" timestamp="2010-10-05T01:35:35Z" uid="20587" user="balrog-kun" changeset="5958352">
    <nd ref="393830118"/>
    <nd ref="393831361"/>
    <nd ref="393831388"/>
    <nd ref="393830126"/>
    <nd ref="393830164"/>
    <tag k="highway" v="residential"/>
    <tag k="name" v="Lucjana Rudnickiego"/>
    <tag k="source" v="UMP-PL, ./UMP-Rzeszow/src/RZESZOW.ulice.txt"/>
  </way>
  <way id="34331681" version="3" timestamp="2010-10-05T01:35:36Z" uid="20587" user="balrog-kun" changeset="5958352">
    <nd ref="393827949"/>
    <nd ref="393827947"/>
    <tag k="highway" v="residential"/>
    <tag k="name" v="Mikołaja Kopernika"/>
    <tag k="source" v="UMP-PL, ./UMP-Rzeszow/src/RZESZOW.ulice.txt"/>
  </way>
  <way id="34331724" version="3" timestamp="2010-04-07T13:37:33Z" uid="20587" user="balrog-kun" changeset="4353646">
    <nd ref="393831366"/>
    <nd ref="393832241"/>
    <nd ref="393831366"/>
    <tag k="addr:postcode" v="78633"/>
    <tag k="highway" v="residential"/>
    <tag k="name" v="Silver Bonnet Drive"/>
  </way>
  <way id="34331756" version="2" timestamp="2010-10-05T01:35:33Z" uid="20587" user="balrog-kun" changeset="5958352">
    <nd ref="393829566"/>
    <nd ref="393830008"/>
    <tag k="highway" v="residential"/>
    <tag k="name" v="Konstantego Ildefonsa Gałczyńskiego"/>
    <tag k="source" v="UMP-PL, ./UMP-Rzeszow/src/RZESZOW.ulice.txt"/>
  </way>
  <way id="34331759" version="2" timestamp="2010-10-05T01:34:29Z" uid="20587" user="balrog-kun" changeset="5958352">
    <nd ref="393829563"/>
    <nd ref="393830009"/>
    <nd ref="393830010"/>
    <tag k="highway" v="residential"/>
    <tag k="name" v="Juliana Tuwima"/>
    <tag k="source" v="UMP-PL, ./UMP-Rzeszow/src/RZESZOW.ulice.txt"/>
  </way>
  <way id="34331786" version="3" timestamp="2010-10-05T01:34:33Z" uid="20587" user="balrog-kun" changeset="5958352">
    <nd ref="393829471"/>
    <nd ref="393829767"/>
    <nd ref="393829768"/>
    <nd ref="393829769"/>
    <nd ref="393829753"/>
    <nd ref="393829751"/>
    <nd ref="393829766"/>
    <nd ref="393829780"/>
    <nd ref="393829749"/>
    <tag k="highway" v="residential"/>
    <tag k="name" v="Elizy Orzeszkowej"/>
    <tag k="source" v="UMP-PL, ./UMP-Rzeszow/src/RZESZOW.ulice.txt"/>
  </way>
  <way id="34331809" version="4" timestamp="2010-10-05T01:35:05Z" uid="20587" user="balrog-kun" changeset="5958352">
    <nd ref="393827543"/>
    <nd ref="393829758"/>
    <nd ref="393829760"/>
    <nd ref="596091563"/>
    <nd ref="393829371"/>
    <tag k="highway" v="residential"/>
    <tag k="name" v="Wojciecha Bartosza Głowackiego"/>
    <tag k="source" v="UMP-PL, ./UMP-Rzeszow/src/RZESZOW.ulice.txt"/>
  </way>
  <way id="34331818" version="3" timestamp="2010-10-05T01:33:26Z" uid="20587" user="balrog-kun" changeset="5958352">
    <nd ref="393829371"/>
    <nd ref="393829703"/>
    <nd ref="34916963"/>
    <tag k="highway" v="residential"/>
    <tag k="name" v="Stefana Batorego"/>
    <tag k="source" v="UMP-PL, ./UMP-Rzeszow/src/RZESZOW.ulice.txt"/>
  </way>
  <way id="34331822" version="2" timestamp="2010-10-05T01:35:10Z" uid="20587" user="balrog-kun" changeset="5958352">
    <nd ref="393829371"/>
    <nd ref="393829701"/>
    <tag k="highway" v="residential"/>
    <tag k="name" v="Aleksandra Fredry"/>
    <tag k="source" v="UMP-PL, ./UMP-Rzeszow/src/RZESZOW.ulice.txt"/>
  </way>
  <way id="34331823" version="2" timestamp="2010-10-05T01:33:45Z" uid="20587" user="balrog-kun" changeset="5958352">
    <nd ref="393829466"/>
    <nd ref="393829363"/>
    <nd ref="393829375"/>
    <nd ref="393829368"/>
    <nd ref="393829457"/>
    <nd ref="393829460"/>
    <nd ref="393829471"/>
    <nd ref="393829458"/>
    <nd ref="393829469"/>
    <nd ref="393829472"/>
    <nd ref="393829467"/>
    <nd ref="393829470"/>
    <tag k="highway" v="residential"/>
    <tag k="name" v="Stefana Batorego"/>
    <tag k="source" v="UMP-PL, ./UMP-Rzeszow/src/RZESZOW.ulice.txt"/>
  </way>
  <way id="34331828" version="1" timestamp="2009-05-11T14:09:13Z" uid="30632" user="antblant" changeset="1152969">
    <nd ref="286060303"/>
    <nd ref="393832288"/>
    <tag k="created_by" v="Potlatch 0.10b"/>
    <tag k="highway" v="residential"/>
    <tag k="name" v="Plac Wincentego Witosa"/>
  </way>
  <way id="34331828" version="2" timestamp="2009-05-11T14:09:38Z" uid="30632" user="antblant" changeset="1153002">
    <nd ref="286060303"/>
    <nd ref="393832288"/>
    <tag k="created_by" v="Potlatch 0.10b"/>
    <tag k="highway" v="residential"/>
    <tag k="name" v="Plac Wincentego Witosa"/>
    <tag k="oneway" v="yes"/>
  </way>
  <way id="34331828" version="3" timestamp="2009-10-22T10:58:57Z" uid="30632" user="antblant" changeset="2920491">
    <nd ref="393832288"/>
    <nd ref="286060303"/>
    <tag k="highway" v="residential"/>
    <tag k="name" v="Plac Wincentego Witosa"/>
    <tag k="oneway" v="yes"/>
  </way>
  <way id="34331828" version="4" timestamp="2009-11-01T13:06:05Z" uid="30632" user="antblant" changeset="3005940">
    <nd ref="254067471"/>
    <nd ref="286060303"/>
    <tag k="highway" v="residential"/>
    <tag k="name" v="Plac Wincentego Witosa"/>
    <tag k="oneway" v="yes"/>
  </way>
  <way id="34331841" version="2" timestamp="2010-10-05T01:33:58Z" uid="20587" user="balrog-kun" changeset="5958352">
    <nd ref="393829466"/>
    <nd ref="393829371"/>
    <tag k="highway" v="residential"/>
    <tag k="name" v="Stefana Batorego"/>
    <tag k="source" v="UMP-PL, ./UMP-Rzeszow/src/RZESZOW.ulice.txt"/>
  </way>
  <way id="34331864" version="4" timestamp="2010-10-05T01:33:53Z" uid="20587" user="balrog-kun" changeset="5958352">
    <nd ref="393827604"/>
    <nd ref="393831549"/>
    <nd ref="566494510"/>
    <nd ref="393828900"/>
    <nd ref="59634387"/>
    <tag k="highway" v="tertiary"/>
    <tag k="name" v="Aleja Niepodległości"/>
    <tag k="source" v="UMP-PL, ./UMP-Rzeszow/src/RZESZOW.ulice.txt"/>
  </way>
  <way id="34331889" version="3" timestamp="2010-10-05T01:34:47Z" uid="20587" user="balrog-kun" changeset="5958352">
    <nd ref="393827551"/>
    <nd ref="393827555"/>
    <nd ref="393827553"/>
    <nd ref="393827561"/>
    <nd ref="393827558"/>
    <tag k="highway" v="residential"/>
    <tag k="name" v="Doktora Ludwika Zamenhofa"/>
    <tag k="source" v="UMP-PL, ./UMP-Rzeszow/src/RZESZOW.ulice.txt"/>
  </way>
  <way id="34331980" version="3" timestamp="2010-10-05T01:35:08Z" uid="20587" user="balrog-kun" changeset="5958352">
    <nd ref="393827936"/>
    <nd ref="393827935"/>
    <nd ref="393827934"/>
    <nd ref="393827937"/>
    <nd ref="393827953"/>
    <nd ref="393827946"/>
    <nd ref="393827947"/>
    <tag k="highway" v="residential"/>
    <tag k="name" v="Mikołaja Kopernika"/>
    <tag k="source" v="UMP-PL, ./UMP-Rzeszow/src/RZESZOW.ulice.txt"/>
  </way>
</osm>
