<?xml version='1.0' encoding='UTF-8'?>
<osm version="0.6" generator="libosmium/2.20.0">
  <way id="34456559" version="2" timestamp="2010-08-13T10:47:59Z" uid="7617" user="Franc" changeset="5480723">
    <nd ref="28360441"/>
    <nd ref="28360443"/>
    <nd ref="858323848"/>
    <nd ref="28360444"/>
    <tag k="highway" v="secondary"/>
    <tag k="name" v="Harrow Road"/>
  </way>
  <way id="34456569" version="3" timestamp="2010-07-08T16:47:52Z" uid="74617" user="JohnSmith" changeset="5167338">
    <nd ref="396912187"/>
    <nd ref="397071660"/>
    <nd ref="397071665"/>
    <nd ref="397071670"/>
    <tag k="highway" v="residential"/>
    <tag k="maxspeed" v="50"/>
    <tag k="maxspeed:source" v="default residential speed limit in Australia"/>
    <tag k="name" v="Jersey Parade"/>
    <tag k="source" v="GPS"/>
    <tag k="surface" v="paved"/>
  </way>
  <way id="34456570" version="3" timestamp="2010-07-08T16:50:26Z" uid="74617" user="JohnSmith" changeset="5167338">
    <nd ref="397071660"/>
    <nd ref="396912194"/>
    <nd ref="397279854"/>
    <tag k="highway" v="residential"/>
    <tag k="maxspeed" v="50"/>
    <tag k="maxspeed:source" v="default residential speed limit in Australia"/>
    <tag k="name" v="Carrington Avenue"/>
    <tag k="source" v="GPS"/>
    <tag k="surface" v="paved"/>
  </way>
  <way id="34456571" version="2" timestamp="2009-12-27T12:44:54Z" uid="30201" user="rrankin" changeset="3462292">
    <nd ref="35365827"/>
    <nd ref="30191222"/>
    <nd ref="599967805"/>
    <tag k="highway" v="residential"/>
    <tag k="name" v="Warialda Street"/>
  </way>
  <way id="34456571" version="3" timestamp="2010-07-08T02:07:18Z" uid="74617" user="JohnSmith" changeset="5162525">
    <nd ref="35365827"/>
    <nd ref="30191222"/>
    <nd ref="599967805"/>
    <tag k="highway" v="residential"/>
    <tag k="maxspeed" v="50"/>
    <tag k="maxspeed:source" v="default residential speed limit in Australia"/>
    <tag k="name" v="Warialda Street"/>
  </way>
  <way id="34456576" version="2" timestamp="2010-07-08T02:07:37Z" uid="74617" user="JohnSmith" changeset="5162525">
    <nd ref="35366185"/>
    <nd ref="35366186"/>
    <nd ref="35366187"/>
    <nd ref="35366188"/>
    <nd ref="30189317"/>
    <tag k="highway" v="residential"/>
    <tag k="maxspeed" v="50"/>
    <tag k="maxspeed:source" v="default residential speed limit in Australia"/>
    <tag k="name" v="Milsop Street"/>
    <tag k="source" v="survey"/>
  </way>
  <way id="34456580" version="2" timestamp="2009-12-24T02:17:13Z" uid="30201" user="rrankin" changeset="3439561">
    <nd ref="60173141"/>
    <nd ref="60202554"/>
    <nd ref="60202553"/>
    <nd ref="60188934"/>
    <nd ref="35542673"/>
    <nd ref="131697179"/>
    <tag k="highway" v="secondary"/>
    <tag k="name" v="Willison Road"/>
    <tag k="source:name" v="survey"/>
  </way>
  <way id="34456594" version="3" timestamp="2010-02-23T07:39:30Z" uid="7617" user="Franc" changeset="3949884">
    <nd ref="34009171"/>
    <nd ref="131696745"/>
    <tag k="highway" v="residential"/>
    <tag k="name" v="Lily Street"/>
  </way>
  <way id="34456594" version="4" timestamp="2010-07-08T02:10:21Z" uid="74617" user="JohnSmith" changeset="5162525">
    <nd ref="34009171"/>
    <nd ref="131696745"/>
    <tag k="highway" v="residential"/>
    <tag k="maxspeed" v="50"/>
    <tag k="maxspeed:source" v="default residential speed limit in Australia"/>
    <tag k="name" v="Lily Street"/>
  </way>
  <way id="34456613" version="1" timestamp="2009-05-14T02:43:35Z" uid="99207" user="Lar Kiesel" changeset="1182430">
    <nd ref="114073071"/>
    <nd ref="397122336"/>
    <nd ref="397122341"/>
    <nd ref="397122346"/>
    <nd ref="397122351"/>
  </way>
  <way id="34456613" version="2" timestamp="2009-05-14T02:43:44Z" uid="99207" user="Lar Kiesel" changeset="1182430">
    <nd ref="114073071"/>
    <nd ref="397122336"/>
    <nd ref="397122341"/>
    <nd ref="397122346"/>
    <nd ref="397122351"/>
    <tag k="highway" v="motorway_link"/>
  </way>
  <way id="34456613" version="3" timestamp="2009-05-19T06:12:55Z" uid="99207" user="Lar Kiesel" changeset="1245172">
    <nd ref="114073071"/>
    <nd ref="397122336"/>
    <nd ref="405123959"/>
    <nd ref="397122341"/>
    <nd ref="397122346"/>
    <nd ref="397122351"/>
    <tag k="highway" v="motorway_link"/>
  </way>
  <way id="34456651" version="3" timestamp="2010-01-20T06:21:04Z" uid="7617" user="Franc" changeset="3664317">
    <nd ref="28375053"/>
    <nd ref="616960250"/>
    <tag k="highway" v="primary"/>
    <tag k="name" v="Bay Street"/>
  </way>
  <way id="34456660" version="2" timestamp="2010-01-20T06:21:01Z" uid="7617" user="Franc" changeset="3664317">
    <nd ref="616960250"/>
    <nd ref="32826067"/>
    <nd ref="212561377"/>
    <nd ref="32829460"/>
    <nd ref="616960255"/>
    <tag k="highway" v="primary"/>
    <tag k="name" v="Bay Street"/>
    <tag k="restriction" v="school_zone"/>
  </way>
</osm>
