<?xml version='1.0' encoding='UTF-8'?>
<osm version="0.6" generator="libosmium/2.20.0">
  <way id="34550070" version="2" timestamp="2009-08-08T01:32:39Z" uid="20587" user="balrog-kun" changeset="2071289">
    <nd ref="330506660"/>
    <nd ref="400902975"/>
    <nd ref="400902976"/>
    <nd ref="400902977"/>
    <nd ref="400902978"/>
    <tag k="highway" v="residential"/>
    <tag k="name" v="Stanisława Pawłowskiego"/>
  </way>
  <way id="34550074" version="2" timestamp="2009-08-08T01:32:39Z" uid="20587" user="balrog-kun" changeset="2071289">
    <nd ref="330506661"/>
    <nd ref="400902989"/>
    <nd ref="400902990"/>
    <nd ref="400902991"/>
    <nd ref="400902992"/>
    <tag k="highway" v="residential"/>
    <tag k="name" v="Władysława Pniewskiego"/>
  </way>
  <way id="34550118" version="3" timestamp="2009-08-08T01:32:39Z" uid="20587" user="balrog-kun" changeset="2071289">
    <nd ref="255851190"/>
    <nd ref="400903138"/>
    <nd ref="330506666"/>
    <nd ref="400903140"/>
    <tag k="highway" v="residential"/>
    <tag k="name" v="Franciszka Stróżyńskiego"/>
  </way>
  <way id="34550142" version="4" timestamp="2009-08-28T22:52:42Z" uid="36809" user="pfoten_weg_!_" changeset="2296048">
    <nd ref="150743360"/>
    <nd ref="150743361"/>
    <tag k="discovered_by" v="RambaZamba"/>
    <tag k="highway" v="motorway"/>
    <tag k="int_ref" v="E 45"/>
    <tag k="layer" v="1"/>
    <tag k="maxspeed" v="110"/>
    <tag k="name" v="Autostrada del Brennero - Brennerautobahn"/>
    <tag k="oneway" v="yes"/>
    <tag k="ref" v="A22"/>
    <tag k="toll" v="yes"/>
    <tag k="tunnel" v="yes"/>
  </way>
  <way id="34550142" version="5" timestamp="2009-08-28T23:07:21Z" uid="36809" user="pfoten_weg_!_" changeset="2296111">
    <nd ref="150743360"/>
    <nd ref="150743361"/>
    <tag k="discovered_by" v="RambaZamba"/>
    <tag k="highway" v="motorway"/>
    <tag k="int_ref" v="E 45"/>
    <tag k="layer" v="1"/>
    <tag k="maxspeed" v="110"/>
    <tag k="name" v="Autostrada del Brennero - Brennerautobahn"/>
    <tag k="oneway" v="yes"/>
    <tag k="ref" v="A22"/>
    <tag k="source" v="survey"/>
    <tag k="toll" v="yes"/>
    <tag k="tunnel" v="yes"/>
  </way>
  <way id="34550142" version="7" timestamp="2009-08-30T10:06:03Z" uid="36809" user="pfoten_weg_!_" changeset="2311149">
    <nd ref="150743360"/>
    <nd ref="150743361"/>
    <tag k="discovered_by" v="RambaZamba"/>
    <tag k="highway" v="motorway"/>
    <tag k="int_ref" v="E 45"/>
    <tag k="layer" v="1"/>
    <tag k="maxspeed" v="110"/>
    <tag k="name" v="Autostrada del Brennero - Brennerautobahn"/>
    <tag k="oneway" v="yes"/>
    <tag k="ref" v="A22"/>
    <tag k="source" v="survey"/>
    <tag k="toll" v="yes"/>
    <tag k="tunnel" v="yes"/>
  </way>
  <way id="34550142" version="9" timestamp="2009-08-30T10:26:10Z" uid="36809" user="pfoten_weg_!_" changeset="2311385">
    <nd ref="150743360"/>
    <nd ref="150743361"/>
    <tag k="highway" v="motorway"/>
    <tag k="int_ref" v="E 45"/>
    <tag k="layer" v="1"/>
    <tag k="maxspeed" v="110"/>
    <tag k="name" v="Autostrada del Brennero - Brennerautobahn"/>
    <tag k="oneway" v="yes"/>
    <tag k="ref" v="A22"/>
    <tag k="source" v="survey by RambaZamba"/>
    <tag k="toll" v="yes"/>
    <tag k="tunnel" v="yes"/>
  </way>
  <way id="34550142" version="11" timestamp="2009-09-12T02:49:53Z" uid="36809" user="pfoten_weg_!_" changeset="2453290">
    <nd ref="150743360"/>
    <nd ref="150743361"/>
    <tag k="highway" v="motorway"/>
    <tag k="int_ref" v="E 45"/>
    <tag k="layer" v="1"/>
    <tag k="maxspeed" v="110"/>
    <tag k="name" v="Autostrada del Brennero - Brennerautobahn"/>
    <tag k="oneway" v="yes"/>
    <tag k="ref" v="A22"/>
    <tag k="source" v="survey"/>
    <tag k="toll" v="yes"/>
    <tag k="tunnel" v="yes"/>
  </way>
  <way id="34550142" version="12" timestamp="2009-09-30T11:44:49Z" uid="36809" user="pfoten_weg_!_" changeset="2687353">
    <nd ref="150743360"/>
    <nd ref="150743361"/>
    <tag k="highway" v="motorway"/>
    <tag k="int_ref" v="E 45"/>
    <tag k="layer" v="1"/>
    <tag k="maxspeed" v="110"/>
    <tag k="name" v="Autostrada del Brennero - Brennerautobahn"/>
    <tag k="oneway" v="yes"/>
    <tag k="ref" v="A22"/>
    <tag k="toll" v="yes"/>
    <tag k="tunnel" v="yes"/>
  </way>
  <way id="34550144" version="3" timestamp="2009-08-28T22:53:54Z" uid="36809" user="pfoten_weg_!_" changeset="2296048">
    <nd ref="13885694"/>
    <nd ref="13885870"/>
    <nd ref="252206957"/>
    <nd ref="13886206"/>
    <nd ref="252206956"/>
    <nd ref="13885674"/>
    <nd ref="252206971"/>
    <nd ref="252206973"/>
    <nd ref="252206977"/>
    <nd ref="252206983"/>
    <nd ref="252206987"/>
    <nd ref="252206989"/>
    <nd ref="252206991"/>
    <nd ref="252206993"/>
    <nd ref="252206995"/>
    <tag k="discovered_by" v="RambaZamba"/>
    <tag k="highway" v="motorway"/>
    <tag k="int_ref" v="E 45"/>
    <tag k="layer" v="1"/>
    <tag k="maxspeed" v="110"/>
    <tag k="name" v="Autostrada del Brennero - Brennerautobahn"/>
    <tag k="oneway" v="yes"/>
    <tag k="ref" v="A22"/>
    <tag k="toll" v="yes"/>
  </way>
  <way id="34550144" version="4" timestamp="2009-08-28T23:08:26Z" uid="36809" user="pfoten_weg_!_" changeset="2296111">
    <nd ref="13885694"/>
    <nd ref="13885870"/>
    <nd ref="252206957"/>
    <nd ref="13886206"/>
    <nd ref="252206956"/>
    <nd ref="13885674"/>
    <nd ref="252206971"/>
    <nd ref="252206973"/>
    <nd ref="252206977"/>
    <nd ref="252206983"/>
    <nd ref="252206987"/>
    <nd ref="252206989"/>
    <nd ref="252206991"/>
    <nd ref="252206993"/>
    <nd ref="252206995"/>
    <tag k="discovered_by" v="RambaZamba"/>
    <tag k="highway" v="motorway"/>
    <tag k="int_ref" v="E 45"/>
    <tag k="layer" v="1"/>
    <tag k="maxspeed" v="110"/>
    <tag k="name" v="Autostrada del Brennero - Brennerautobahn"/>
    <tag k="oneway" v="yes"/>
    <tag k="ref" v="A22"/>
    <tag k="source" v="survey"/>
    <tag k="toll" v="yes"/>
  </way>
  <way id="34550144" version="6" timestamp="2009-08-30T10:05:52Z" uid="36809" user="pfoten_weg_!_" changeset="2311149">
    <nd ref="13885694"/>
    <nd ref="13885870"/>
    <nd ref="252206957"/>
    <nd ref="13886206"/>
    <nd ref="252206956"/>
    <nd ref="13885674"/>
    <nd ref="252206971"/>
    <nd ref="252206973"/>
    <nd ref="252206977"/>
    <nd ref="252206983"/>
    <nd ref="252206987"/>
    <nd ref="252206989"/>
    <nd ref="252206991"/>
    <nd ref="252206993"/>
    <nd ref="252206995"/>
    <tag k="discovered_by" v="RambaZamba"/>
    <tag k="highway" v="motorway"/>
    <tag k="int_ref" v="E 45"/>
    <tag k="layer" v="1"/>
    <tag k="maxspeed" v="110"/>
    <tag k="name" v="Autostrada del Brennero - Brennerautobahn"/>
    <tag k="oneway" v="yes"/>
    <tag k="ref" v="A22"/>
    <tag k="source" v="survey"/>
    <tag k="toll" v="yes"/>
  </way>
  <way id="34550144" version="8" timestamp="2009-08-30T10:17:42Z" uid="36809" user="pfoten_weg_!_" changeset="2311385">
    <nd ref="13885694"/>
    <nd ref="13885870"/>
    <nd ref="252206957"/>
    <nd ref="13886206"/>
    <nd ref="252206956"/>
    <nd ref="13885674"/>
    <nd ref="252206971"/>
    <nd ref="252206973"/>
    <nd ref="252206977"/>
    <nd ref="252206983"/>
    <nd ref="252206987"/>
    <nd ref="252206989"/>
    <nd ref="252206991"/>
    <nd ref="252206993"/>
    <nd ref="252206995"/>
    <tag k="highway" v="motorway"/>
    <tag k="int_ref" v="E 45"/>
    <tag k="layer" v="1"/>
    <tag k="maxspeed" v="110"/>
    <tag k="name" v="Autostrada del Brennero - Brennerautobahn"/>
    <tag k="oneway" v="yes"/>
    <tag k="ref" v="A22"/>
    <tag k="source" v="survey by RambaZamba"/>
    <tag k="toll" v="yes"/>
  </way>
  <way id="34550144" version="10" timestamp="2009-08-30T10:37:02Z" uid="36809" user="pfoten_weg_!_" changeset="2311615">
    <nd ref="13885694"/>
    <nd ref="13885870"/>
    <nd ref="252206957"/>
    <nd ref="13886206"/>
    <nd ref="252206956"/>
    <nd ref="13885674"/>
    <nd ref="252206971"/>
    <nd ref="252206973"/>
    <nd ref="252206977"/>
    <nd ref="252206983"/>
    <nd ref="252206987"/>
    <nd ref="252206989"/>
    <nd ref="252206991"/>
    <nd ref="252206993"/>
    <nd ref="252206995"/>
    <tag k="highway" v="motorway"/>
    <tag k="int_ref" v="E 45"/>
    <tag k="layer" v="1"/>
    <tag k="maxspeed" v="110"/>
    <tag k="name" v="Autostrada del Brennero - Brennerautobahn"/>
    <tag k="oneway" v="yes"/>
    <tag k="ref" v="A22"/>
    <tag k="source" v="survey"/>
    <tag k="toll" v="yes"/>
  </way>
  <way id="34550144" version="11" timestamp="2009-09-30T11:44:40Z" uid="36809" user="pfoten_weg_!_" changeset="2687353">
    <nd ref="13885694"/>
    <nd ref="13885870"/>
    <nd ref="252206957"/>
    <nd ref="13886206"/>
    <nd ref="252206956"/>
    <nd ref="13885674"/>
    <nd ref="252206971"/>
    <nd ref="252206973"/>
    <nd ref="252206977"/>
    <nd ref="252206983"/>
    <nd ref="252206987"/>
    <nd ref="252206989"/>
    <nd ref="252206991"/>
    <nd ref="252206993"/>
    <nd ref="252206995"/>
    <tag k="highway" v="motorway"/>
    <tag k="int_ref" v="E 45"/>
    <tag k="layer" v="1"/>
    <tag k="maxspeed" v="110"/>
    <tag k="name" v="Autostrada del Brennero - Brennerautobahn"/>
    <tag k="oneway" v="yes"/>
    <tag k="ref" v="A22"/>
    <tag k="toll" v="yes"/>
  </way>
  <way id="34550145" version="4" timestamp="2009-08-28T22:53:10Z" uid="36809" user="pfoten_weg_!_" changeset="2296048">
    <nd ref="13885648"/>
    <nd ref="13885694"/>
    <tag k="discovered_by" v="RambaZamba"/>
    <tag k="highway" v="motorway"/>
    <tag k="int_ref" v="E 45"/>
    <tag k="layer" v="1"/>
    <tag k="maxspeed" v="110"/>
    <tag k="name" v="Autostrada del Brennero - Brennerautobahn"/>
    <tag k="oneway" v="yes"/>
    <tag k="ref" v="A22"/>
    <tag k="toll" v="yes"/>
    <tag k="tunnel" v="yes"/>
  </way>
  <way id="34550145" version="5" timestamp="2009-08-28T23:07:44Z" uid="36809" user="pfoten_weg_!_" changeset="2296111">
    <nd ref="13885648"/>
    <nd ref="13885694"/>
    <tag k="discovered_by" v="RambaZamba"/>
    <tag k="highway" v="motorway"/>
    <tag k="int_ref" v="E 45"/>
    <tag k="layer" v="1"/>
    <tag k="maxspeed" v="110"/>
    <tag k="name" v="Autostrada del Brennero - Brennerautobahn"/>
    <tag k="oneway" v="yes"/>
    <tag k="ref" v="A22"/>
    <tag k="source" v="survey"/>
    <tag k="toll" v="yes"/>
    <tag k="tunnel" v="yes"/>
  </way>
  <way id="34550145" version="7" timestamp="2009-08-30T09:59:22Z" uid="36809" user="pfoten_weg_!_" changeset="2311149">
    <nd ref="13885648"/>
    <nd ref="13885694"/>
    <tag k="discovered_by" v="RambaZamba"/>
    <tag k="highway" v="motorway"/>
    <tag k="int_ref" v="E 45"/>
    <tag k="layer" v="1"/>
    <tag k="maxspeed" v="110"/>
    <tag k="name" v="Autostrada del Brennero - Brennerautobahn"/>
    <tag k="oneway" v="yes"/>
    <tag k="ref" v="A22"/>
    <tag k="source" v="survey"/>
    <tag k="toll" v="yes"/>
    <tag k="tunnel" v="yes"/>
  </way>
  <way id="34550145" version="9" timestamp="2009-08-30T10:23:18Z" uid="36809" user="pfoten_weg_!_" changeset="2311385">
    <nd ref="13885648"/>
    <nd ref="13885694"/>
    <tag k="highway" v="motorway"/>
    <tag k="int_ref" v="E 45"/>
    <tag k="layer" v="1"/>
    <tag k="maxspeed" v="110"/>
    <tag k="name" v="Autostrada del Brennero - Brennerautobahn"/>
    <tag k="oneway" v="yes"/>
    <tag k="ref" v="A22"/>
    <tag k="source" v="survey by RambaZamba"/>
    <tag k="toll" v="yes"/>
    <tag k="tunnel" v="yes"/>
  </way>
  <way id="34550145" version="11" timestamp="2009-08-30T10:38:29Z" uid="36809" user="pfoten_weg_!_" changeset="2311615">
    <nd ref="13885648"/>
    <nd ref="13885694"/>
    <tag k="highway" v="motorway"/>
    <tag k="int_ref" v="E 45"/>
    <tag k="layer" v="1"/>
    <tag k="maxspeed" v="110"/>
    <tag k="name" v="Autostrada del Brennero - Brennerautobahn"/>
    <tag k="oneway" v="yes"/>
    <tag k="ref" v="A22"/>
    <tag k="source" v="survey"/>
    <tag k="toll" v="yes"/>
    <tag k="tunnel" v="yes"/>
  </way>
  <way id="34550145" version="12" timestamp="2009-09-30T11:44:41Z" uid="36809" user="pfoten_weg_!_" changeset="2687353">
    <nd ref="13885648"/>
    <nd ref="13885694"/>
    <tag k="highway" v="motorway"/>
    <tag k="int_ref" v="E 45"/>
    <tag k="layer" v="1"/>
    <tag k="maxspeed" v="110"/>
    <tag k="name" v="Autostrada del Brennero - Brennerautobahn"/>
    <tag k="oneway" v="yes"/>
    <tag k="ref" v="A22"/>
    <tag k="toll" v="yes"/>
    <tag k="tunnel" v="yes"/>
  </way>
  <way id="34550543" version="1" timestamp="2009-05-15T10:54:40Z" uid="123517" user="Qichina" changeset="1197748">
    <nd ref="400906456"/>
  </way>
  <way id="34550543" version="2" timestamp="2009-05-15T11:02:43Z" uid="123517" user="Qichina" changeset="1197828"/>
  <way id="34550827" version="3" timestamp="2010-06-29T20:50:24Z" uid="74617" user="JohnSmith" changeset="5109183">
    <nd ref="400908952"/>
    <nd ref="400908953"/>
    <nd ref="400908954"/>
    <nd ref="400908955"/>
    <nd ref="400908952"/>
    <tag k="fixme" v="sport=rugby is ambiguous, see http://wiki.osm.org/wiki/Tag:sport%3Drugby for more details"/>
    <tag k="leisure" v="sports_centre"/>
    <tag k="sport" v="rugby"/>
  </way>
  <way id="34550957" version="2" timestamp="2009-10-31T11:48:12Z" uid="30632" user="antblant" changeset="2996607"/>
  <way id="34550972" version="2" timestamp="2009-10-31T11:48:12Z" uid="30632" user="antblant" changeset="2996607"/>
</osm>
