<?xml version='1.0' encoding='UTF-8'?>
<osm version="0.6" generator="libosmium/2.20.0">
  <way id="34633033" version="8" timestamp="2010-07-09T06:41:56Z" uid="74617" user="JohnSmith" changeset="5171128">
    <nd ref="402699948"/>
    <nd ref="402721583"/>
    <nd ref="402721588"/>
    <nd ref="402721593"/>
    <tag k="highway" v="residential"/>
    <tag k="maxspeed" v="50"/>
    <tag k="maxspeed:source" v="default residential speed limit in Australia"/>
  </way>
  <way id="34633058" version="4" timestamp="2010-04-03T04:14:25Z" uid="20587" user="balrog-kun" changeset="4309442">
    <nd ref="175573544"/>
    <nd ref="402724663"/>
    <nd ref="402724665"/>
    <nd ref="402724671"/>
    <nd ref="402727847"/>
    <nd ref="402724673"/>
    <nd ref="402724675"/>
    <tag k="highway" v="residential"/>
    <tag k="name" v="North Manning House Way"/>
  </way>
  <way id="34633077" version="4" timestamp="2010-12-09T13:01:10Z" uid="6269" user="Mueck" changeset="6594841">
    <nd ref="245945724"/>
    <nd ref="993605909"/>
    <nd ref="1029564647"/>
    <nd ref="1029564645"/>
    <nd ref="96952860"/>
    <tag k="cycleway" v="lane"/>
    <tag k="highway" v="tertiary"/>
    <tag k="maxspeed" v="30"/>
    <tag k="name" v="Wurster Straße"/>
    <tag k="railway" v="abandoned_tram"/>
    <tag k="source" v="survey"/>
    <tag k="surface" v="cobblestone"/>
  </way>
  <way id="34633077" version="5" timestamp="2010-12-17T11:46:54Z" uid="6269" user="Mueck" changeset="6685903">
    <nd ref="245945724"/>
    <nd ref="993605909"/>
    <nd ref="1042636124"/>
    <nd ref="1029564647"/>
    <nd ref="1029564645"/>
    <nd ref="96952860"/>
    <tag k="cycleway" v="lane"/>
    <tag k="highway" v="tertiary"/>
    <tag k="maxspeed" v="30"/>
    <tag k="name" v="Wurster Straße"/>
    <tag k="railway" v="abandoned_tram"/>
    <tag k="source" v="survey"/>
    <tag k="surface" v="cobblestone"/>
  </way>
  <way id="34633150" version="2" timestamp="2010-04-03T04:14:25Z" uid="20587" user="balrog-kun" changeset="4309442">
    <nd ref="175084587"/>
    <nd ref="175332713"/>
    <nd ref="175084534"/>
    <nd ref="175332716"/>
    <nd ref="175332719"/>
    <nd ref="175332722"/>
    <nd ref="175332725"/>
    <nd ref="175332729"/>
    <nd ref="175332732"/>
    <nd ref="175332734"/>
    <nd ref="175332737"/>
    <nd ref="175332739"/>
    <nd ref="175332742"/>
    <nd ref="175332745"/>
    <nd ref="175332747"/>
    <nd ref="175332749"/>
    <nd ref="175332751"/>
    <nd ref="175031840"/>
    <nd ref="175332753"/>
    <nd ref="175332755"/>
    <nd ref="175332759"/>
    <nd ref="175141606"/>
    <nd ref="175145113"/>
    <nd ref="175332763"/>
    <nd ref="175332765"/>
    <tag k="highway" v="residential"/>
    <tag k="name" v="East Marsh Station Road"/>
    <tag k="name_1" v="Frontage Road"/>
    <tag k="tiger:cfcc" v="A41"/>
    <tag k="tiger:county" v="Pima, AZ"/>
    <tag k="tiger:name_base" v="Marsh Station"/>
    <tag k="tiger:name_base_1" v="Frontage"/>
    <tag k="tiger:name_direction_prefix" v="E"/>
    <tag k="tiger:name_type" v="Rd"/>
    <tag k="tiger:name_type_1" v="Rd"/>
    <tag k="tiger:reviewed" v="no"/>
    <tag k="tiger:separated" v="no"/>
    <tag k="tiger:source" v="tiger_import_dch_v0.6_20070809"/>
    <tag k="tiger:tlid" v="121155041:121123544:121155042:121123318:121123550:121123552:121123220:121123228"/>
    <tag k="tiger:zip_left" v="85641"/>
    <tag k="tiger:zip_right" v="85641"/>
  </way>
  <way id="34633249" version="4" timestamp="2010-04-03T04:14:25Z" uid="20587" user="balrog-kun" changeset="4309442">
    <nd ref="175084621"/>
    <nd ref="175383043"/>
    <nd ref="175383045"/>
    <nd ref="402739798"/>
    <nd ref="175383049"/>
    <nd ref="175383052"/>
    <nd ref="402739623"/>
    <tag k="highway" v="residential"/>
    <tag k="name" v="Morsh Station Road"/>
    <tag k="tiger:cfcc" v="A41"/>
    <tag k="tiger:county" v="Pima, AZ"/>
    <tag k="tiger:name_base" v="Morsh Station"/>
    <tag k="tiger:name_type" v="Rd"/>
    <tag k="tiger:reviewed" v="no"/>
    <tag k="tiger:separated" v="no"/>
    <tag k="tiger:source" v="tiger_import_dch_v0.6_20070809"/>
    <tag k="tiger:tlid" v="121123549:121123556:121123224:121123226"/>
  </way>
  <way id="34633257" version="4" timestamp="2010-12-17T11:46:57Z" uid="6269" user="Mueck" changeset="6685903">
    <nd ref="39095904"/>
    <nd ref="1042636079"/>
    <nd ref="39095905"/>
    <nd ref="39095907"/>
    <nd ref="39095909"/>
    <nd ref="176551193"/>
    <nd ref="389129871"/>
    <nd ref="389129133"/>
    <nd ref="389130558"/>
    <nd ref="176551197"/>
    <tag k="cycleway" v="lane"/>
    <tag k="highway" v="primary"/>
    <tag k="maxspeed" v="50"/>
    <tag k="name" v="Stresemannstraße"/>
    <tag k="note" v="s. Brhv im OSM-Wiki; FIXME: position"/>
    <tag k="oneway" v="yes"/>
  </way>
  <way id="34633257" version="5" timestamp="2010-12-18T15:21:54Z" uid="6269" user="Mueck" changeset="6696806">
    <nd ref="39095904"/>
    <nd ref="1042636079"/>
    <nd ref="39095905"/>
    <nd ref="1045216039"/>
    <nd ref="1045215893"/>
    <nd ref="39095907"/>
    <nd ref="1045216326"/>
    <nd ref="39095909"/>
    <nd ref="1045216456"/>
    <nd ref="176551193"/>
    <nd ref="389129871"/>
    <nd ref="389129133"/>
    <nd ref="389130558"/>
    <nd ref="1045216770"/>
    <nd ref="176551197"/>
    <tag k="cycleway" v="lane"/>
    <tag k="highway" v="primary"/>
    <tag k="maxspeed" v="50"/>
    <tag k="name" v="Stresemannstraße"/>
    <tag k="note" v="s. Brhv im OSM-Wiki; FIXME: position"/>
    <tag k="oneway" v="yes"/>
  </way>
  <way id="34633302" version="2" timestamp="2010-08-29T18:34:15Z" uid="9581" user="Lobelt" changeset="5629275">
    <nd ref="402738612"/>
    <nd ref="265626265"/>
    <nd ref="402738697"/>
    <nd ref="402738695"/>
    <tag k="highway" v="tertiary"/>
    <tag k="name" v="Sandhofer Straße"/>
    <tag k="oneway" v="yes"/>
  </way>
  <way id="34633303" version="4" timestamp="2010-03-19T21:03:22Z" uid="9581" user="Lobelt" changeset="4174333">
    <nd ref="402738650"/>
    <nd ref="402738689"/>
    <nd ref="402738646"/>
    <nd ref="402738687"/>
    <nd ref="566533069"/>
    <nd ref="402738683"/>
    <nd ref="402738682"/>
    <nd ref="402738679"/>
    <nd ref="402738676"/>
    <nd ref="402738673"/>
    <nd ref="402916833"/>
    <nd ref="402738670"/>
    <nd ref="402738667"/>
    <nd ref="402738665"/>
    <nd ref="402738612"/>
    <tag k="highway" v="tertiary"/>
  </way>
  <way id="34633303" version="5" timestamp="2010-08-29T18:34:34Z" uid="9581" user="Lobelt" changeset="5629275">
    <nd ref="402738650"/>
    <nd ref="402738689"/>
    <nd ref="402738646"/>
    <nd ref="402738687"/>
    <nd ref="566533069"/>
    <tag k="highway" v="tertiary"/>
  </way>
  <way id="34633304" version="10" timestamp="2010-05-25T18:46:41Z" uid="9581" user="Lobelt" changeset="4806568">
    <nd ref="402738612"/>
    <nd ref="494508045"/>
    <nd ref="470650797"/>
    <nd ref="256838184"/>
    <nd ref="470650796"/>
    <nd ref="360180431"/>
    <nd ref="402626570"/>
    <nd ref="470628003"/>
    <nd ref="470651324"/>
    <nd ref="256838185"/>
    <nd ref="256838186"/>
    <nd ref="256838187"/>
    <nd ref="282264580"/>
    <nd ref="256838188"/>
    <nd ref="256838189"/>
    <nd ref="256838190"/>
    <nd ref="307350292"/>
    <nd ref="256838191"/>
    <nd ref="265626579"/>
    <nd ref="638938709"/>
    <nd ref="265626580"/>
    <nd ref="638938949"/>
    <nd ref="265626581"/>
    <nd ref="748161166"/>
    <nd ref="748161042"/>
    <nd ref="265626582"/>
    <nd ref="306474426"/>
    <nd ref="265626583"/>
    <nd ref="265626584"/>
    <nd ref="265626585"/>
    <nd ref="432537394"/>
    <nd ref="360179235"/>
    <nd ref="265626586"/>
    <nd ref="432537412"/>
    <nd ref="265626587"/>
    <nd ref="265626887"/>
    <tag k="highway" v="tertiary"/>
    <tag k="name" v="Sandhofer Straße"/>
  </way>
  <way id="34633306" version="1" timestamp="2009-05-17T13:24:14Z" uid="43863" user="Rundling" changeset="1222139">
    <nd ref="402738727"/>
    <nd ref="402738731"/>
    <tag k="bridge" v="yes"/>
    <tag k="created_by" v="Potlatch 0.10d"/>
    <tag k="highway" v="residential"/>
    <tag k="layer" v="1"/>
    <tag k="name" v="Fischerstraße"/>
  </way>
  <way id="34633307" version="1" timestamp="2009-05-17T13:24:14Z" uid="43863" user="Rundling" changeset="1222139">
    <nd ref="402738731"/>
    <nd ref="296513080"/>
    <nd ref="301652472"/>
    <nd ref="301652470"/>
    <tag k="created_by" v="Potlatch 0.10d"/>
    <tag k="highway" v="residential"/>
    <tag k="name" v="Fischerstraße"/>
  </way>
  <way id="34633308" version="7" timestamp="2010-12-18T15:50:40Z" uid="6269" user="Mueck" changeset="6696806"/>
  <way id="34633370" version="4" timestamp="2010-04-03T04:14:26Z" uid="20587" user="balrog-kun" changeset="4309442">
    <nd ref="402739623"/>
    <nd ref="402739625"/>
    <tag k="bridge" v="yes"/>
    <tag k="highway" v="residential"/>
    <tag k="layer" v="1"/>
    <tag k="name" v="Morsh Station Road"/>
    <tag k="tiger:cfcc" v="A41"/>
    <tag k="tiger:county" v="Pima, AZ"/>
    <tag k="tiger:name_base" v="Morsh Station"/>
    <tag k="tiger:name_type" v="Rd"/>
    <tag k="tiger:reviewed" v="no"/>
    <tag k="tiger:separated" v="no"/>
    <tag k="tiger:source" v="tiger_import_dch_v0.6_20070809"/>
    <tag k="tiger:tlid" v="121123549:121123556:121123224:121123226"/>
  </way>
  <way id="34633384" version="2" timestamp="2010-04-03T04:14:26Z" uid="20587" user="balrog-kun" changeset="4309442">
    <nd ref="402739625"/>
    <nd ref="175383057"/>
    <nd ref="175084532"/>
    <nd ref="175332716"/>
    <tag k="highway" v="residential"/>
    <tag k="name" v="Morsh Station Road"/>
    <tag k="tiger:cfcc" v="A41"/>
    <tag k="tiger:county" v="Pima, AZ"/>
    <tag k="tiger:name_base" v="Morsh Station"/>
    <tag k="tiger:name_type" v="Rd"/>
    <tag k="tiger:reviewed" v="no"/>
    <tag k="tiger:separated" v="no"/>
    <tag k="tiger:source" v="tiger_import_dch_v0.6_20070809"/>
    <tag k="tiger:tlid" v="121123549:121123556:121123224:121123226"/>
  </way>
  <way id="34633394" version="2" timestamp="2010-12-18T15:21:55Z" uid="6269" user="Mueck" changeset="6696806">
    <nd ref="30207910"/>
    <nd ref="1045216771"/>
    <nd ref="1045216310"/>
    <nd ref="30207863"/>
    <tag k="cycleway" v="lane"/>
    <tag k="highway" v="secondary"/>
    <tag k="maxspeed" v="50"/>
    <tag k="name" v="Melchior-Schwoon-Straße"/>
    <tag k="oneway" v="yes"/>
  </way>
  <way id="34633708" version="1" timestamp="2009-05-17T13:28:40Z" uid="9581" user="Lobelt" changeset="1222192">
    <nd ref="402742439"/>
    <nd ref="402742443"/>
    <nd ref="402742446"/>
    <nd ref="402742441"/>
    <nd ref="402742439"/>
    <tag k="building" v="yes"/>
  </way>
  <way id="34633709" version="1" timestamp="2009-05-17T13:28:40Z" uid="9581" user="Lobelt" changeset="1222192">
    <nd ref="402742449"/>
    <nd ref="402742453"/>
    <nd ref="402742456"/>
    <nd ref="402742457"/>
    <nd ref="402742459"/>
    <nd ref="402742454"/>
    <nd ref="402742451"/>
    <nd ref="402742449"/>
    <tag k="building" v="yes"/>
  </way>
  <way id="34633709" version="2" timestamp="2010-12-31T16:01:27Z" uid="9581" user="Lobelt" changeset="6821254">
    <nd ref="402742449"/>
    <nd ref="402742453"/>
    <nd ref="402742456"/>
    <nd ref="1075467938"/>
    <nd ref="1075467941"/>
    <nd ref="402742457"/>
    <nd ref="402742459"/>
    <nd ref="402742454"/>
    <nd ref="402742451"/>
    <nd ref="402742449"/>
    <tag k="addr:city" v="Orlamünde"/>
    <tag k="addr:housenumber" v="4"/>
    <tag k="addr:postcode" v="07768"/>
    <tag k="addr:street" v="Dienstädter Straße"/>
    <tag k="building" v="yes"/>
  </way>
  <way id="34633710" version="1" timestamp="2009-05-17T13:28:40Z" uid="9581" user="Lobelt" changeset="1222192">
    <nd ref="402742460"/>
    <nd ref="402742464"/>
    <nd ref="402742466"/>
    <nd ref="402742462"/>
    <nd ref="402742460"/>
    <tag k="building" v="yes"/>
  </way>
  <way id="34633712" version="1" timestamp="2009-05-17T13:28:40Z" uid="9581" user="Lobelt" changeset="1222192">
    <nd ref="402742467"/>
    <nd ref="402742470"/>
    <nd ref="402742476"/>
    <nd ref="402742478"/>
    <nd ref="402742474"/>
    <nd ref="402742472"/>
    <nd ref="402742469"/>
    <nd ref="402742467"/>
    <tag k="building" v="yes"/>
  </way>
  <way id="34633712" version="2" timestamp="2010-12-31T11:57:33Z" uid="9581" user="Lobelt" changeset="6818771">
    <nd ref="402742467"/>
    <nd ref="402742470"/>
    <nd ref="402742476"/>
    <nd ref="402742478"/>
    <nd ref="402742474"/>
    <nd ref="402742472"/>
    <nd ref="402742469"/>
    <nd ref="402742467"/>
    <tag k="addr:city" v="Orlamünde"/>
    <tag k="addr:housenumber" v="8"/>
    <tag k="addr:postcode" v="07768"/>
    <tag k="addr:street" v="Dienstädter Straße"/>
    <tag k="building" v="yes"/>
  </way>
  <way id="34633713" version="1" timestamp="2009-05-17T13:28:41Z" uid="9581" user="Lobelt" changeset="1222192">
    <nd ref="402742476"/>
    <nd ref="402742480"/>
    <nd ref="402742482"/>
    <nd ref="402742484"/>
    <nd ref="402742486"/>
    <nd ref="402742467"/>
    <nd ref="402742470"/>
    <nd ref="402742476"/>
    <tag k="building" v="yes"/>
  </way>
  <way id="34633713" version="2" timestamp="2010-12-31T11:57:18Z" uid="9581" user="Lobelt" changeset="6818771">
    <nd ref="402742476"/>
    <nd ref="402742480"/>
    <nd ref="402742482"/>
    <nd ref="402742484"/>
    <nd ref="402742486"/>
    <nd ref="402742467"/>
    <nd ref="402742470"/>
    <nd ref="402742476"/>
    <tag k="addr:city" v="Orlamünde"/>
    <tag k="addr:housenumber" v="10"/>
    <tag k="addr:postcode" v="07768"/>
    <tag k="addr:street" v="Dienstädter Straße"/>
    <tag k="building" v="yes"/>
  </way>
  <way id="34633714" version="1" timestamp="2009-05-17T13:28:41Z" uid="9581" user="Lobelt" changeset="1222192">
    <nd ref="402742487"/>
    <nd ref="402742490"/>
    <nd ref="402742492"/>
    <nd ref="402742488"/>
    <nd ref="402742487"/>
    <tag k="building" v="yes"/>
  </way>
  <way id="34633714" version="2" timestamp="2011-01-01T19:31:24Z" uid="9581" user="Lobelt" changeset="6831399">
    <nd ref="402742487"/>
    <nd ref="402742490"/>
    <nd ref="402742492"/>
    <nd ref="402742488"/>
    <nd ref="1077317264"/>
    <nd ref="402742493"/>
    <nd ref="402742487"/>
    <tag k="building" v="yes"/>
  </way>
  <way id="34633715" version="1" timestamp="2009-05-17T13:28:41Z" uid="9581" user="Lobelt" changeset="1222192">
    <nd ref="402742493"/>
    <nd ref="402742497"/>
    <nd ref="402742510"/>
    <nd ref="402742499"/>
    <nd ref="402742495"/>
    <nd ref="402742493"/>
    <tag k="building" v="yes"/>
  </way>
  <way id="34633715" version="2" timestamp="2011-01-01T19:31:17Z" uid="9581" user="Lobelt" changeset="6831399">
    <nd ref="402742493"/>
    <nd ref="402742497"/>
    <nd ref="402742510"/>
    <nd ref="402742499"/>
    <nd ref="402742495"/>
    <nd ref="1077317264"/>
    <nd ref="402742493"/>
    <tag k="building" v="yes"/>
  </way>
  <way id="34633716" version="1" timestamp="2009-05-17T13:28:41Z" uid="9581" user="Lobelt" changeset="1222192">
    <nd ref="402742499"/>
    <nd ref="402742501"/>
    <nd ref="402742503"/>
    <nd ref="402742505"/>
    <nd ref="402742507"/>
    <nd ref="402742508"/>
    <nd ref="402742510"/>
    <nd ref="402742499"/>
    <tag k="building" v="yes"/>
  </way>
  <way id="34633716" version="2" timestamp="2011-01-01T19:31:28Z" uid="9581" user="Lobelt" changeset="6831399">
    <nd ref="1077317174"/>
    <nd ref="402742510"/>
    <nd ref="402742499"/>
    <nd ref="402742501"/>
    <nd ref="402742503"/>
    <nd ref="1077317174"/>
    <tag k="building" v="yes"/>
  </way>
  <way id="34633717" version="1" timestamp="2009-05-17T13:28:41Z" uid="9581" user="Lobelt" changeset="1222192">
    <nd ref="402742512"/>
    <nd ref="402742516"/>
    <nd ref="402742518"/>
    <nd ref="402742519"/>
    <nd ref="402742514"/>
    <nd ref="402742512"/>
    <tag k="building" v="yes"/>
  </way>
  <way id="34633718" version="1" timestamp="2009-05-17T13:28:41Z" uid="9581" user="Lobelt" changeset="1222192">
    <nd ref="402742519"/>
    <nd ref="402742522"/>
    <nd ref="402742525"/>
    <nd ref="402742526"/>
    <nd ref="402742529"/>
    <nd ref="402742518"/>
    <nd ref="402742519"/>
    <tag k="building" v="yes"/>
  </way>
  <way id="34633720" version="1" timestamp="2009-05-17T13:28:41Z" uid="9581" user="Lobelt" changeset="1222192">
    <nd ref="402742526"/>
    <nd ref="402742530"/>
    <nd ref="402742532"/>
    <nd ref="402742529"/>
    <nd ref="402742526"/>
    <tag k="building" v="yes"/>
  </way>
  <way id="34633720" version="2" timestamp="2011-01-01T19:31:20Z" uid="9581" user="Lobelt" changeset="6831399">
    <nd ref="402742526"/>
    <nd ref="402742530"/>
    <nd ref="402742532"/>
    <nd ref="402742529"/>
    <nd ref="402742526"/>
    <tag k="addr:city" v="Orlamünde"/>
    <tag k="addr:housenumber" v="15"/>
    <tag k="addr:postcode" v="07768"/>
    <tag k="addr:street" v="Dienstädter Straße"/>
    <tag k="building" v="yes"/>
  </way>
  <way id="34633721" version="1" timestamp="2009-05-17T13:28:41Z" uid="9581" user="Lobelt" changeset="1222192">
    <nd ref="402742534"/>
    <nd ref="402742536"/>
    <nd ref="402742537"/>
    <nd ref="402742535"/>
    <nd ref="402742534"/>
    <tag k="building" v="yes"/>
  </way>
  <way id="34633722" version="1" timestamp="2009-05-17T13:28:41Z" uid="9581" user="Lobelt" changeset="1222192">
    <nd ref="402742538"/>
    <nd ref="402742542"/>
    <nd ref="402742544"/>
    <nd ref="402742540"/>
    <nd ref="402742538"/>
    <tag k="building" v="yes"/>
  </way>
  <way id="34633722" version="2" timestamp="2011-01-01T19:31:37Z" uid="9581" user="Lobelt" changeset="6831399">
    <nd ref="402742538"/>
    <nd ref="402742542"/>
    <nd ref="402742544"/>
    <nd ref="402742540"/>
    <nd ref="402742538"/>
    <tag k="addr:city" v="Orlamünde"/>
    <tag k="addr:housenumber" v="13"/>
    <tag k="addr:postcode" v="07768"/>
    <tag k="addr:street" v="Dienstädter Straße"/>
    <tag k="building" v="yes"/>
  </way>
  <way id="34633723" version="1" timestamp="2009-05-17T13:28:42Z" uid="9581" user="Lobelt" changeset="1222192">
    <nd ref="402742547"/>
    <nd ref="402742550"/>
    <nd ref="402742553"/>
    <nd ref="402742548"/>
    <nd ref="402742547"/>
    <tag k="building" v="yes"/>
  </way>
  <way id="34633724" version="1" timestamp="2009-05-17T13:28:42Z" uid="9581" user="Lobelt" changeset="1222192">
    <nd ref="402742550"/>
    <nd ref="402742555"/>
    <nd ref="402742558"/>
    <nd ref="402742547"/>
    <nd ref="402742550"/>
    <tag k="building" v="yes"/>
  </way>
  <way id="34633724" version="2" timestamp="2011-01-01T19:31:42Z" uid="9581" user="Lobelt" changeset="6831399">
    <nd ref="402742550"/>
    <nd ref="402742555"/>
    <nd ref="402742558"/>
    <nd ref="1077317169"/>
    <nd ref="402742547"/>
    <nd ref="402742550"/>
    <tag k="building" v="yes"/>
  </way>
  <way id="34633725" version="1" timestamp="2009-05-17T13:28:42Z" uid="9581" user="Lobelt" changeset="1222192">
    <nd ref="402742548"/>
    <nd ref="402742561"/>
    <nd ref="402742564"/>
    <nd ref="402742553"/>
    <nd ref="402742548"/>
    <tag k="building" v="yes"/>
  </way>
  <way id="34633727" version="1" timestamp="2009-05-17T13:28:42Z" uid="9581" user="Lobelt" changeset="1222192">
    <nd ref="402742561"/>
    <nd ref="402742568"/>
    <nd ref="402742569"/>
    <nd ref="402742564"/>
    <nd ref="402742561"/>
    <tag k="building" v="yes"/>
  </way>
  <way id="34633727" version="2" timestamp="2011-01-01T19:31:51Z" uid="9581" user="Lobelt" changeset="6831399">
    <nd ref="402742561"/>
    <nd ref="402742568"/>
    <nd ref="402742569"/>
    <nd ref="1077317054"/>
    <nd ref="402742564"/>
    <nd ref="402742561"/>
    <tag k="addr:city" v="Orlamünde"/>
    <tag k="addr:housenumber" v="11"/>
    <tag k="addr:postcode" v="07768"/>
    <tag k="addr:street" v="Dienstädter Straße"/>
    <tag k="building" v="yes"/>
  </way>
  <way id="34633728" version="1" timestamp="2009-05-17T13:28:42Z" uid="9581" user="Lobelt" changeset="1222192">
    <nd ref="402742572"/>
    <nd ref="402742577"/>
    <nd ref="402742580"/>
    <nd ref="402742574"/>
    <nd ref="402742572"/>
    <tag k="building" v="yes"/>
  </way>
  <way id="34633728" version="2" timestamp="2011-01-01T19:32:01Z" uid="9581" user="Lobelt" changeset="6831399">
    <nd ref="402742572"/>
    <nd ref="1077317166"/>
    <nd ref="1077317207"/>
    <nd ref="402742577"/>
    <nd ref="402742580"/>
    <nd ref="402742574"/>
    <nd ref="402742572"/>
    <tag k="building" v="yes"/>
  </way>
  <way id="34633729" version="1" timestamp="2009-05-17T13:28:42Z" uid="9581" user="Lobelt" changeset="1222192">
    <nd ref="402742583"/>
    <nd ref="402742589"/>
    <nd ref="402742607"/>
    <nd ref="402742591"/>
    <nd ref="402742586"/>
    <nd ref="402742583"/>
    <tag k="building" v="yes"/>
  </way>
  <way id="34633730" version="1" timestamp="2009-05-17T13:28:42Z" uid="9581" user="Lobelt" changeset="1222192">
    <nd ref="402742594"/>
    <nd ref="402742598"/>
    <nd ref="402742600"/>
    <nd ref="402742603"/>
    <nd ref="402742605"/>
    <nd ref="402742589"/>
    <nd ref="402742607"/>
    <nd ref="402742594"/>
    <tag k="building" v="yes"/>
  </way>
  <way id="34633730" version="2" timestamp="2010-12-31T11:57:19Z" uid="9581" user="Lobelt" changeset="6818771">
    <nd ref="402742594"/>
    <nd ref="402742598"/>
    <nd ref="402742600"/>
    <nd ref="402742603"/>
    <nd ref="402742605"/>
    <nd ref="402742589"/>
    <nd ref="402742607"/>
    <nd ref="402742594"/>
    <tag k="addr:city" v="Orlamünde"/>
    <tag k="addr:housenumber" v="9"/>
    <tag k="addr:postcode" v="07768"/>
    <tag k="addr:street" v="Dienstädter Straße"/>
    <tag k="building" v="yes"/>
  </way>
  <way id="34633732" version="1" timestamp="2009-05-17T13:28:42Z" uid="9581" user="Lobelt" changeset="1222192">
    <nd ref="31286517"/>
    <nd ref="402742608"/>
    <tag k="highway" v="track"/>
    <tag k="tracktype" v="grade2"/>
  </way>
  <way id="34633733" version="1" timestamp="2009-05-17T13:28:42Z" uid="9581" user="Lobelt" changeset="1222192">
    <nd ref="402742612"/>
    <nd ref="402742616"/>
    <nd ref="402742618"/>
    <nd ref="402742614"/>
    <nd ref="402742612"/>
    <tag k="building" v="yes"/>
  </way>
  <way id="34633733" version="2" timestamp="2010-12-31T11:57:34Z" uid="9581" user="Lobelt" changeset="6818771">
    <nd ref="402742612"/>
    <nd ref="402742616"/>
    <nd ref="402742618"/>
    <nd ref="402742614"/>
    <nd ref="402742612"/>
    <tag k="addr:city" v="Orlamünde"/>
    <tag k="addr:housenumber" v="7"/>
    <tag k="addr:postcode" v="07768"/>
    <tag k="addr:street" v="Dienstädter Straße"/>
    <tag k="building" v="yes"/>
  </way>
  <way id="34633734" version="1" timestamp="2009-05-17T13:28:43Z" uid="9581" user="Lobelt" changeset="1222192">
    <nd ref="402742614"/>
    <nd ref="402742619"/>
    <nd ref="402742621"/>
    <nd ref="402742618"/>
    <nd ref="402742614"/>
    <tag k="building" v="yes"/>
  </way>
  <way id="34633735" version="1" timestamp="2009-05-17T13:28:43Z" uid="9581" user="Lobelt" changeset="1222192">
    <nd ref="402742619"/>
    <nd ref="402742623"/>
    <nd ref="402742625"/>
    <nd ref="402742621"/>
    <nd ref="402742619"/>
    <tag k="building" v="yes"/>
  </way>
  <way id="34633736" version="1" timestamp="2009-05-17T13:28:43Z" uid="9581" user="Lobelt" changeset="1222192">
    <nd ref="402742627"/>
    <nd ref="402742631"/>
    <nd ref="402742633"/>
    <nd ref="402742629"/>
    <nd ref="402742627"/>
    <tag k="building" v="yes"/>
  </way>
  <way id="34633737" version="1" timestamp="2009-05-17T13:28:43Z" uid="9581" user="Lobelt" changeset="1222192">
    <nd ref="402742635"/>
    <nd ref="402742638"/>
    <nd ref="402742642"/>
    <nd ref="402742644"/>
    <nd ref="402742646"/>
    <nd ref="402742640"/>
    <nd ref="402742637"/>
    <nd ref="402742635"/>
    <tag k="building" v="yes"/>
  </way>
  <way id="34633738" version="1" timestamp="2009-05-17T13:28:43Z" uid="9581" user="Lobelt" changeset="1222192">
    <nd ref="402742648"/>
    <nd ref="402742650"/>
    <nd ref="402742652"/>
    <nd ref="402742649"/>
    <nd ref="402742648"/>
    <tag k="building" v="yes"/>
  </way>
  <way id="34633738" version="2" timestamp="2011-01-01T19:31:30Z" uid="9581" user="Lobelt" changeset="6831399">
    <nd ref="402742648"/>
    <nd ref="402742650"/>
    <nd ref="402742652"/>
    <nd ref="402742649"/>
    <nd ref="402742648"/>
    <tag k="addr:city" v="Orlamünde"/>
    <tag k="addr:housenumber" v="29"/>
    <tag k="addr:postcode" v="07318"/>
    <tag k="addr:street" v="Vor dem Tor"/>
    <tag k="building" v="yes"/>
  </way>
  <way id="34633740" version="1" timestamp="2009-05-17T13:28:44Z" uid="9581" user="Lobelt" changeset="1222192">
    <nd ref="402742654"/>
    <nd ref="402742659"/>
    <nd ref="402742661"/>
    <nd ref="402742666"/>
    <nd ref="402742657"/>
    <nd ref="402742654"/>
    <tag k="building" v="yes"/>
  </way>
  <way id="34633740" version="2" timestamp="2011-01-01T19:31:35Z" uid="9581" user="Lobelt" changeset="6831399">
    <nd ref="402742654"/>
    <nd ref="402742659"/>
    <nd ref="402742661"/>
    <nd ref="402742666"/>
    <nd ref="402742657"/>
    <nd ref="402742654"/>
    <tag k="addr:city" v="Orlamünde"/>
    <tag k="addr:housenumber" v="27b"/>
    <tag k="addr:postcode" v="07318"/>
    <tag k="addr:street" v="Vor dem Tor"/>
    <tag k="building" v="yes"/>
  </way>
  <way id="34633741" version="1" timestamp="2009-05-17T13:28:44Z" uid="9581" user="Lobelt" changeset="1222192">
    <nd ref="402742661"/>
    <nd ref="402742663"/>
    <nd ref="402742664"/>
    <nd ref="402742666"/>
    <nd ref="402742661"/>
    <tag k="building" v="yes"/>
  </way>
  <way id="34633743" version="1" timestamp="2009-05-17T13:28:44Z" uid="9581" user="Lobelt" changeset="1222192">
    <nd ref="402742668"/>
    <nd ref="402742697"/>
    <nd ref="402742673"/>
    <nd ref="402742675"/>
    <nd ref="402742670"/>
    <nd ref="402742668"/>
    <tag k="building" v="yes"/>
  </way>
  <way id="34633743" version="2" timestamp="2010-12-31T17:18:01Z" uid="9581" user="Lobelt" changeset="6822015">
    <nd ref="402742668"/>
    <nd ref="402742697"/>
    <nd ref="402742673"/>
    <nd ref="402742675"/>
    <nd ref="402742670"/>
    <nd ref="402742668"/>
    <tag k="addr:city" v="Orlamünde"/>
    <tag k="addr:housenumber" v="27a"/>
    <tag k="addr:postcode" v="07318"/>
    <tag k="addr:street" v="Vor dem Tor"/>
    <tag k="building" v="yes"/>
  </way>
  <way id="34633744" version="1" timestamp="2009-05-17T13:28:44Z" uid="9581" user="Lobelt" changeset="1222192">
    <nd ref="402742668"/>
    <nd ref="402742677"/>
    <nd ref="402742679"/>
    <nd ref="402742681"/>
    <nd ref="402742683"/>
    <nd ref="402742695"/>
    <nd ref="402742697"/>
    <nd ref="402742668"/>
    <tag k="building" v="yes"/>
  </way>
  <way id="34633745" version="1" timestamp="2009-05-17T13:28:44Z" uid="9581" user="Lobelt" changeset="1222192">
    <nd ref="402742683"/>
    <nd ref="402742699"/>
    <nd ref="402742701"/>
    <nd ref="402742704"/>
    <nd ref="402742706"/>
    <nd ref="402742708"/>
    <nd ref="402742710"/>
    <nd ref="402742711"/>
    <nd ref="402742673"/>
    <nd ref="402742697"/>
    <nd ref="402742695"/>
    <nd ref="402742683"/>
    <tag k="building" v="yes"/>
  </way>
  <way id="34633746" version="1" timestamp="2009-05-17T13:28:45Z" uid="9581" user="Lobelt" changeset="1222192">
    <nd ref="402742713"/>
    <nd ref="402742717"/>
    <nd ref="402742719"/>
    <nd ref="402742715"/>
    <nd ref="402742713"/>
    <tag k="building" v="yes"/>
  </way>
  <way id="34633746" version="2" timestamp="2010-12-31T16:01:31Z" uid="9581" user="Lobelt" changeset="6821254">
    <nd ref="402742713"/>
    <nd ref="402742717"/>
    <nd ref="402742719"/>
    <nd ref="402742715"/>
    <nd ref="402742713"/>
    <tag k="addr:city" v="Orlamünde"/>
    <tag k="addr:housenumber" v="25"/>
    <tag k="addr:postcode" v="07318"/>
    <tag k="addr:street" v="Vor dem Tor"/>
    <tag k="building" v="yes"/>
  </way>
  <way id="34633747" version="1" timestamp="2009-05-17T13:28:45Z" uid="9581" user="Lobelt" changeset="1222192">
    <nd ref="402742722"/>
    <nd ref="402742725"/>
    <nd ref="402742726"/>
    <nd ref="402742723"/>
    <nd ref="402742722"/>
    <tag k="building" v="yes"/>
  </way>
  <way id="34633747" version="2" timestamp="2011-01-01T19:31:41Z" uid="9581" user="Lobelt" changeset="6831399">
    <nd ref="402742722"/>
    <nd ref="402742725"/>
    <nd ref="402742726"/>
    <nd ref="402742723"/>
    <nd ref="402742722"/>
    <tag k="addr:city" v="Orlamünde"/>
    <tag k="addr:housenumber" v="22"/>
    <tag k="addr:postcode" v="07318"/>
    <tag k="addr:street" v="Vor dem Tor"/>
    <tag k="building" v="yes"/>
  </way>
  <way id="34633748" version="1" timestamp="2009-05-17T13:28:45Z" uid="9581" user="Lobelt" changeset="1222192">
    <nd ref="402742727"/>
    <nd ref="402742730"/>
    <nd ref="402742736"/>
    <nd ref="402742738"/>
    <nd ref="402742734"/>
    <nd ref="402742732"/>
    <nd ref="402742728"/>
    <nd ref="402742727"/>
    <tag k="building" v="yes"/>
  </way>
  <way id="34633748" version="2" timestamp="2011-01-01T19:31:57Z" uid="9581" user="Lobelt" changeset="6831399">
    <nd ref="402742727"/>
    <nd ref="402742730"/>
    <nd ref="402742736"/>
    <nd ref="402742738"/>
    <nd ref="402742734"/>
    <nd ref="402742732"/>
    <nd ref="402742728"/>
    <nd ref="402742727"/>
    <tag k="addr:city" v="Orlamünde"/>
    <tag k="addr:housenumber" v="20"/>
    <tag k="addr:postcode" v="07318"/>
    <tag k="addr:street" v="Vor dem Tor"/>
    <tag k="building" v="yes"/>
  </way>
  <way id="34633750" version="1" timestamp="2009-05-17T13:28:45Z" uid="9581" user="Lobelt" changeset="1222192">
    <nd ref="402742740"/>
    <nd ref="402742744"/>
    <nd ref="402742747"/>
    <nd ref="402742742"/>
    <nd ref="402742740"/>
    <tag k="building" v="yes"/>
  </way>
  <way id="34633750" version="2" timestamp="2011-01-01T19:31:16Z" uid="9581" user="Lobelt" changeset="6831399">
    <nd ref="402742740"/>
    <nd ref="402742744"/>
    <nd ref="402742747"/>
    <nd ref="402742742"/>
    <nd ref="402742740"/>
    <tag k="addr:city" v="Orlamünde"/>
    <tag k="addr:housenumber" v="18"/>
    <tag k="addr:postcode" v="07318"/>
    <tag k="addr:street" v="Vor dem Tor"/>
    <tag k="building" v="yes"/>
  </way>
  <way id="34633751" version="1" timestamp="2009-05-17T13:28:45Z" uid="9581" user="Lobelt" changeset="1222192">
    <nd ref="402742749"/>
    <nd ref="402742751"/>
    <nd ref="402742753"/>
    <nd ref="402742755"/>
    <nd ref="402742757"/>
    <nd ref="402742759"/>
    <nd ref="402742761"/>
    <nd ref="402742763"/>
    <nd ref="402742766"/>
    <nd ref="402742749"/>
    <tag k="building" v="yes"/>
  </way>
  <way id="34633751" version="2" timestamp="2011-01-01T19:32:06Z" uid="9581" user="Lobelt" changeset="6831399">
    <nd ref="402742759"/>
    <nd ref="402742766"/>
    <nd ref="402742749"/>
    <nd ref="402742751"/>
    <nd ref="402742753"/>
    <nd ref="1077317061"/>
    <nd ref="1077317280"/>
    <nd ref="402742759"/>
    <tag k="building" v="yes"/>
  </way>
  <way id="34633752" version="1" timestamp="2009-05-17T13:28:45Z" uid="9581" user="Lobelt" changeset="1222192">
    <nd ref="402742768"/>
    <nd ref="402742771"/>
    <nd ref="402742773"/>
    <nd ref="402742770"/>
    <nd ref="402742768"/>
    <tag k="building" v="yes"/>
  </way>
  <way id="34633752" version="2" timestamp="2011-01-01T19:31:46Z" uid="9581" user="Lobelt" changeset="6831399">
    <nd ref="402742768"/>
    <nd ref="402742771"/>
    <nd ref="402742773"/>
    <nd ref="402742770"/>
    <nd ref="402742768"/>
    <tag k="addr:city" v="Orlamünde"/>
    <tag k="addr:housenumber" v="21"/>
    <tag k="addr:postcode" v="07318"/>
    <tag k="addr:street" v="Vor dem Tor"/>
    <tag k="building" v="yes"/>
  </way>
  <way id="34633754" version="1" timestamp="2009-05-17T13:28:45Z" uid="9581" user="Lobelt" changeset="1222192">
    <nd ref="402742774"/>
    <nd ref="402742778"/>
    <nd ref="402742779"/>
    <nd ref="402742776"/>
    <nd ref="402742774"/>
    <tag k="building" v="yes"/>
  </way>
  <way id="34633755" version="1" timestamp="2009-05-17T13:28:46Z" uid="9581" user="Lobelt" changeset="1222192">
    <nd ref="402742781"/>
    <nd ref="402742785"/>
    <nd ref="402742885"/>
    <nd ref="402742787"/>
    <nd ref="402742783"/>
    <nd ref="402742781"/>
    <tag k="building" v="yes"/>
  </way>
  <way id="34633755" version="2" timestamp="2010-12-31T16:01:33Z" uid="9581" user="Lobelt" changeset="6821254">
    <nd ref="402742885"/>
    <nd ref="1075467957"/>
    <nd ref="402742781"/>
    <nd ref="402742785"/>
    <nd ref="402742885"/>
    <tag k="addr:city" v="Orlamünde"/>
    <tag k="addr:housenumber" v="13"/>
    <tag k="addr:postcode" v="07318"/>
    <tag k="addr:street" v="Vor dem Tor"/>
    <tag k="building" v="yes"/>
  </way>
  <way id="34633756" version="1" timestamp="2009-05-17T13:28:46Z" uid="9581" user="Lobelt" changeset="1222192">
    <nd ref="402742783"/>
    <nd ref="402742788"/>
    <nd ref="402742790"/>
    <nd ref="402742791"/>
    <nd ref="402742793"/>
    <nd ref="402742796"/>
    <nd ref="402742787"/>
    <nd ref="402742783"/>
    <tag k="building" v="yes"/>
  </way>
  <way id="34633756" version="2" timestamp="2010-12-31T16:01:41Z" uid="9581" user="Lobelt" changeset="6821254">
    <nd ref="402742783"/>
    <nd ref="402742788"/>
    <nd ref="402742790"/>
    <nd ref="402742791"/>
    <nd ref="402742793"/>
    <nd ref="402742796"/>
    <nd ref="402742787"/>
    <nd ref="402742783"/>
    <tag k="addr:city" v="Orlamünde"/>
    <tag k="addr:housenumber" v="9"/>
    <tag k="addr:postcode" v="07318"/>
    <tag k="addr:street" v="Vor dem Tor"/>
    <tag k="building" v="yes"/>
  </way>
  <way id="34633757" version="1" timestamp="2009-05-17T13:28:46Z" uid="9581" user="Lobelt" changeset="1222192">
    <nd ref="402742797"/>
    <nd ref="402742799"/>
    <nd ref="402742801"/>
    <nd ref="402742803"/>
    <nd ref="402742828"/>
    <nd ref="402742806"/>
    <nd ref="402742807"/>
    <nd ref="402742790"/>
    <nd ref="402742788"/>
    <nd ref="402742797"/>
    <tag k="building" v="yes"/>
  </way>
  <way id="34633757" version="2" timestamp="2010-12-31T16:01:38Z" uid="9581" user="Lobelt" changeset="6821254">
    <nd ref="402742797"/>
    <nd ref="402742799"/>
    <nd ref="402742801"/>
    <nd ref="402742803"/>
    <nd ref="402742828"/>
    <nd ref="402742806"/>
    <nd ref="1075467948"/>
    <nd ref="402742807"/>
    <nd ref="402742790"/>
    <nd ref="402742788"/>
    <nd ref="402742797"/>
    <tag k="addr:city" v="Orlamünde"/>
    <tag k="addr:housenumber" v="7"/>
    <tag k="addr:postcode" v="07318"/>
    <tag k="addr:street" v="Vor dem Tor"/>
    <tag k="building" v="yes"/>
  </way>
  <way id="34633758" version="1" timestamp="2009-05-17T13:28:46Z" uid="9581" user="Lobelt" changeset="1222192">
    <nd ref="402742810"/>
    <nd ref="402742821"/>
    <nd ref="402742812"/>
    <nd ref="402742813"/>
    <nd ref="402742815"/>
    <nd ref="402742830"/>
    <nd ref="402742826"/>
    <nd ref="402742828"/>
    <nd ref="402742799"/>
    <nd ref="402742797"/>
    <nd ref="402742810"/>
    <tag k="building" v="yes"/>
  </way>
  <way id="34633758" version="2" timestamp="2010-12-31T16:01:28Z" uid="9581" user="Lobelt" changeset="6821254">
    <nd ref="402742810"/>
    <nd ref="402742821"/>
    <nd ref="402742812"/>
    <nd ref="402742813"/>
    <nd ref="402742815"/>
    <nd ref="402742830"/>
    <nd ref="402742826"/>
    <nd ref="402742828"/>
    <nd ref="402742799"/>
    <nd ref="402742797"/>
    <nd ref="402742810"/>
    <tag k="addr:city" v="Orlamünde"/>
    <tag k="addr:housenumber" v="5"/>
    <tag k="addr:postcode" v="07318"/>
    <tag k="addr:street" v="Vor dem Tor"/>
    <tag k="building" v="yes"/>
  </way>
  <way id="34633759" version="1" timestamp="2009-05-17T13:28:46Z" uid="9581" user="Lobelt" changeset="1222192">
    <nd ref="402742817"/>
    <nd ref="402742818"/>
    <nd ref="402742819"/>
    <nd ref="402742812"/>
    <nd ref="402742821"/>
    <nd ref="402742817"/>
    <tag k="building" v="yes"/>
  </way>
  <way id="34633759" version="2" timestamp="2010-12-31T16:01:43Z" uid="9581" user="Lobelt" changeset="6821254">
    <nd ref="402742817"/>
    <nd ref="402742818"/>
    <nd ref="1075467955"/>
    <nd ref="402742819"/>
    <nd ref="402742812"/>
    <nd ref="402742821"/>
    <nd ref="402742817"/>
    <tag k="building" v="yes"/>
  </way>
  <way id="34633759" version="3" timestamp="2011-01-01T19:31:19Z" uid="9581" user="Lobelt" changeset="6831399">
    <nd ref="402742817"/>
    <nd ref="402742818"/>
    <nd ref="1075467955"/>
    <nd ref="1075467954"/>
    <nd ref="402742819"/>
    <nd ref="402742812"/>
    <nd ref="402742821"/>
    <nd ref="402742817"/>
    <tag k="addr:city" v="Orlamünde"/>
    <tag k="addr:housenumber" v="3"/>
    <tag k="addr:postcode" v="07318"/>
    <tag k="addr:street" v="Vor dem Tor"/>
    <tag k="building" v="yes"/>
  </way>
  <way id="34633760" version="1" timestamp="2009-05-17T13:28:46Z" uid="9581" user="Lobelt" changeset="1222192">
    <nd ref="402742828"/>
    <nd ref="402742826"/>
    <nd ref="402742822"/>
    <nd ref="402742824"/>
    <nd ref="402742806"/>
    <nd ref="402742828"/>
    <tag k="building" v="yes"/>
  </way>
  <way id="34633760" version="2" timestamp="2010-12-31T16:01:32Z" uid="9581" user="Lobelt" changeset="6821254">
    <nd ref="402742828"/>
    <nd ref="402742826"/>
    <nd ref="402742822"/>
    <nd ref="1075467949"/>
    <nd ref="402742824"/>
    <nd ref="402742806"/>
    <nd ref="402742828"/>
    <tag k="building" v="yes"/>
  </way>
  <way id="34633760" version="3" timestamp="2011-01-01T19:31:56Z" uid="9581" user="Lobelt" changeset="6831399">
    <nd ref="402742828"/>
    <nd ref="402742826"/>
    <nd ref="402742819"/>
    <nd ref="1075467949"/>
    <nd ref="402742824"/>
    <nd ref="402742806"/>
    <nd ref="402742828"/>
    <tag k="building" v="yes"/>
  </way>
  <way id="34633761" version="1" timestamp="2009-05-17T13:28:46Z" uid="9581" user="Lobelt" changeset="1222192">
    <nd ref="402742832"/>
    <nd ref="402742836"/>
    <nd ref="402742838"/>
    <nd ref="402742834"/>
    <nd ref="402742844"/>
    <nd ref="402742832"/>
    <tag k="building" v="yes"/>
  </way>
  <way id="34633762" version="1" timestamp="2009-05-17T13:28:47Z" uid="9581" user="Lobelt" changeset="1222192">
    <nd ref="402742832"/>
    <nd ref="402742840"/>
    <nd ref="402742841"/>
    <nd ref="402742844"/>
    <nd ref="402742832"/>
    <tag k="building" v="yes"/>
  </way>
  <way id="34633763" version="1" timestamp="2009-05-17T13:28:47Z" uid="9581" user="Lobelt" changeset="1222192">
    <nd ref="402742836"/>
    <nd ref="402742845"/>
    <nd ref="402742847"/>
    <nd ref="402742832"/>
    <nd ref="402742836"/>
    <tag k="building" v="yes"/>
  </way>
  <way id="34633764" version="1" timestamp="2009-05-17T13:28:47Z" uid="9581" user="Lobelt" changeset="1222192">
    <nd ref="402742845"/>
    <nd ref="402742850"/>
    <nd ref="402742852"/>
    <nd ref="402742847"/>
    <nd ref="402742845"/>
    <tag k="building" v="yes"/>
  </way>
  <way id="34633765" version="1" timestamp="2009-05-17T13:28:47Z" uid="9581" user="Lobelt" changeset="1222192">
    <nd ref="402742854"/>
    <nd ref="402742857"/>
    <nd ref="402742858"/>
    <nd ref="402742855"/>
    <nd ref="402742854"/>
    <tag k="building" v="yes"/>
  </way>
  <way id="34633766" version="1" timestamp="2009-05-17T13:28:47Z" uid="9581" user="Lobelt" changeset="1222192">
    <nd ref="402742858"/>
    <nd ref="402742860"/>
    <nd ref="402742862"/>
    <nd ref="402742857"/>
    <nd ref="402742858"/>
    <tag k="building" v="yes"/>
  </way>
  <way id="34633767" version="1" timestamp="2009-05-17T13:28:47Z" uid="9581" user="Lobelt" changeset="1222192">
    <nd ref="402742864"/>
    <nd ref="402742862"/>
    <nd ref="402742860"/>
    <nd ref="402742865"/>
    <nd ref="402742864"/>
    <tag k="building" v="yes"/>
  </way>
  <way id="34633768" version="1" timestamp="2009-05-17T13:28:47Z" uid="9581" user="Lobelt" changeset="1222192">
    <nd ref="402742866"/>
    <nd ref="402742869"/>
    <nd ref="402742871"/>
    <nd ref="402742867"/>
    <nd ref="402742866"/>
    <tag k="building" v="yes"/>
  </way>
  <way id="34633769" version="1" timestamp="2009-05-17T13:28:47Z" uid="9581" user="Lobelt" changeset="1222192">
    <nd ref="402742871"/>
    <nd ref="402742873"/>
    <nd ref="402742875"/>
    <nd ref="402742869"/>
    <nd ref="402742871"/>
    <tag k="building" v="yes"/>
  </way>
  <way id="34633770" version="1" timestamp="2009-05-17T13:28:47Z" uid="9581" user="Lobelt" changeset="1222192">
    <nd ref="402742873"/>
    <nd ref="402742877"/>
    <nd ref="402742879"/>
    <nd ref="402742875"/>
    <nd ref="402742873"/>
    <tag k="building" v="yes"/>
  </way>
  <way id="34633771" version="1" timestamp="2009-05-17T13:28:48Z" uid="9581" user="Lobelt" changeset="1222192">
    <nd ref="402742785"/>
    <nd ref="402742881"/>
    <nd ref="402742883"/>
    <nd ref="402742885"/>
    <nd ref="402742785"/>
    <tag k="building" v="yes"/>
  </way>
  <way id="34633772" version="1" timestamp="2009-05-17T13:28:48Z" uid="9581" user="Lobelt" changeset="1222192">
    <nd ref="31253069"/>
    <nd ref="402742886"/>
    <nd ref="402742888"/>
    <nd ref="402742889"/>
    <nd ref="402742891"/>
    <nd ref="402742893"/>
    <nd ref="402742895"/>
    <nd ref="402742897"/>
    <tag k="highway" v="service"/>
  </way>
  <way id="34633773" version="1" timestamp="2009-05-17T13:28:48Z" uid="9581" user="Lobelt" changeset="1222192">
    <nd ref="402742899"/>
    <nd ref="402742904"/>
    <nd ref="402742907"/>
    <nd ref="402742902"/>
    <nd ref="402742899"/>
    <tag k="building" v="yes"/>
  </way>
  <way id="34633775" version="1" timestamp="2009-05-17T13:28:48Z" uid="9581" user="Lobelt" changeset="1222192">
    <nd ref="402742907"/>
    <nd ref="402742909"/>
    <nd ref="402742910"/>
    <nd ref="402742904"/>
    <nd ref="402742907"/>
    <tag k="building" v="yes"/>
  </way>
  <way id="34633775" version="2" timestamp="2011-01-01T19:31:39Z" uid="9581" user="Lobelt" changeset="6831399">
    <nd ref="402742907"/>
    <nd ref="1077317265"/>
    <nd ref="402742909"/>
    <nd ref="402742910"/>
    <nd ref="402742904"/>
    <nd ref="402742907"/>
    <tag k="building" v="yes"/>
  </way>
  <way id="34633776" version="1" timestamp="2009-05-17T13:28:48Z" uid="9581" user="Lobelt" changeset="1222192">
    <nd ref="402742909"/>
    <nd ref="402742911"/>
    <nd ref="402742912"/>
    <nd ref="402742910"/>
    <nd ref="402742909"/>
    <tag k="building" v="yes"/>
  </way>
  <way id="34633777" version="1" timestamp="2009-05-17T13:28:48Z" uid="9581" user="Lobelt" changeset="1222192">
    <nd ref="402742913"/>
    <nd ref="402742915"/>
    <nd ref="402742918"/>
    <nd ref="402742921"/>
    <nd ref="402742913"/>
    <tag k="building" v="yes"/>
  </way>
  <way id="34633777" version="2" timestamp="2011-01-01T19:31:19Z" uid="9581" user="Lobelt" changeset="6831399">
    <nd ref="1077317289"/>
    <nd ref="402742921"/>
    <nd ref="402742913"/>
    <nd ref="1077317109"/>
    <nd ref="1077317289"/>
    <tag k="addr:city" v="Orlamünde"/>
    <tag k="addr:housenumber" v="6"/>
    <tag k="addr:postcode" v="07318"/>
    <tag k="addr:street" v="Vor dem Tor"/>
    <tag k="building" v="yes"/>
  </way>
  <way id="34633778" version="1" timestamp="2009-05-17T13:28:48Z" uid="9581" user="Lobelt" changeset="1222192">
    <nd ref="402742915"/>
    <nd ref="402742922"/>
    <nd ref="402742924"/>
    <nd ref="402742979"/>
    <nd ref="402742918"/>
    <nd ref="402742915"/>
    <tag k="building" v="yes"/>
  </way>
  <way id="34633778" version="2" timestamp="2011-01-01T19:31:45Z" uid="9581" user="Lobelt" changeset="6831399">
    <nd ref="402742915"/>
    <nd ref="402742922"/>
    <nd ref="402742924"/>
    <nd ref="1077317153"/>
    <nd ref="402742979"/>
    <nd ref="1077317131"/>
    <nd ref="402742918"/>
    <nd ref="1077317281"/>
    <nd ref="402742915"/>
    <tag k="building" v="yes"/>
  </way>
  <way id="34633779" version="1" timestamp="2009-05-17T13:28:49Z" uid="9581" user="Lobelt" changeset="1222192">
    <nd ref="402742915"/>
    <nd ref="402742926"/>
    <nd ref="402742928"/>
    <nd ref="402742922"/>
    <nd ref="402742915"/>
    <tag k="building" v="yes"/>
  </way>
  <way id="34633779" version="2" timestamp="2011-01-01T19:31:34Z" uid="9581" user="Lobelt" changeset="6831399">
    <nd ref="402742915"/>
    <nd ref="1077317163"/>
    <nd ref="1077317249"/>
    <nd ref="402742926"/>
    <nd ref="402742928"/>
    <nd ref="402742922"/>
    <nd ref="402742915"/>
    <tag k="building" v="yes"/>
  </way>
  <way id="34633781" version="1" timestamp="2009-05-17T13:28:49Z" uid="9581" user="Lobelt" changeset="1222192">
    <nd ref="402742930"/>
    <nd ref="402742934"/>
    <nd ref="402742936"/>
    <nd ref="402742932"/>
    <nd ref="402742930"/>
    <tag k="building" v="yes"/>
  </way>
  <way id="34633781" version="2" timestamp="2010-12-31T16:01:32Z" uid="9581" user="Lobelt" changeset="6821254">
    <nd ref="402742930"/>
    <nd ref="402742934"/>
    <nd ref="402742936"/>
    <nd ref="402742932"/>
    <nd ref="402742930"/>
    <tag k="addr:city" v="Orlamünde"/>
    <tag k="addr:housenumber" v="4"/>
    <tag k="addr:postcode" v="07318"/>
    <tag k="addr:street" v="Vor dem Tor"/>
    <tag k="building" v="yes"/>
  </way>
  <way id="34633782" version="1" timestamp="2009-05-17T13:28:49Z" uid="9581" user="Lobelt" changeset="1222192">
    <nd ref="402742938"/>
    <nd ref="402742942"/>
    <nd ref="402742943"/>
    <nd ref="402742940"/>
    <nd ref="402742948"/>
    <nd ref="402742950"/>
    <nd ref="402742946"/>
    <nd ref="402742938"/>
    <tag k="building" v="yes"/>
  </way>
  <way id="34633782" version="2" timestamp="2010-12-31T16:01:39Z" uid="9581" user="Lobelt" changeset="6821254">
    <nd ref="402742938"/>
    <nd ref="402742942"/>
    <nd ref="402742943"/>
    <nd ref="402742940"/>
    <nd ref="402742948"/>
    <nd ref="402742950"/>
    <nd ref="402742946"/>
    <nd ref="402742938"/>
    <tag k="addr:city" v="Orlamünde"/>
    <tag k="addr:housenumber" v="2"/>
    <tag k="addr:postcode" v="07318"/>
    <tag k="addr:street" v="Vor dem Tor"/>
    <tag k="building" v="yes"/>
  </way>
  <way id="34633783" version="1" timestamp="2009-05-17T13:28:49Z" uid="9581" user="Lobelt" changeset="1222192">
    <nd ref="402742952"/>
    <nd ref="402742956"/>
    <nd ref="402742957"/>
    <nd ref="402742954"/>
    <nd ref="402742952"/>
    <tag k="building" v="yes"/>
  </way>
  <way id="34633784" version="1" timestamp="2009-05-17T13:28:49Z" uid="9581" user="Lobelt" changeset="1222192">
    <nd ref="402742958"/>
    <nd ref="402742960"/>
    <nd ref="402742962"/>
    <nd ref="402742959"/>
    <nd ref="402742982"/>
    <nd ref="402742983"/>
    <nd ref="402742980"/>
    <nd ref="402742958"/>
    <tag k="building" v="yes"/>
  </way>
  <way id="34633785" version="1" timestamp="2009-05-17T13:28:49Z" uid="9581" user="Lobelt" changeset="1222192">
    <nd ref="402742960"/>
    <nd ref="402742964"/>
    <nd ref="402742966"/>
    <nd ref="402742962"/>
    <nd ref="402742960"/>
    <tag k="building" v="yes"/>
  </way>
  <way id="34633786" version="1" timestamp="2009-05-17T13:28:49Z" uid="9581" user="Lobelt" changeset="1222192">
    <nd ref="402742958"/>
    <nd ref="402742968"/>
    <nd ref="402742970"/>
    <nd ref="402742971"/>
    <nd ref="402742973"/>
    <nd ref="402742976"/>
    <nd ref="402742960"/>
    <nd ref="402742958"/>
    <tag k="building" v="yes"/>
  </way>
  <way id="34633786" version="2" timestamp="2011-01-01T19:32:00Z" uid="9581" user="Lobelt" changeset="6831399">
    <nd ref="402742958"/>
    <nd ref="402742968"/>
    <nd ref="402742970"/>
    <nd ref="402742971"/>
    <nd ref="1077317102"/>
    <nd ref="402742960"/>
    <nd ref="402742958"/>
    <tag k="building" v="yes"/>
  </way>
  <way id="34633787" version="1" timestamp="2009-05-17T13:28:50Z" uid="9581" user="Lobelt" changeset="1222192">
    <nd ref="402742924"/>
    <nd ref="402742976"/>
    <nd ref="402742973"/>
    <nd ref="402742977"/>
    <nd ref="402742979"/>
    <nd ref="402742924"/>
    <tag k="building" v="yes"/>
  </way>
  <way id="34633787" version="2" timestamp="2011-01-01T19:31:50Z" uid="9581" user="Lobelt" changeset="6831399">
    <nd ref="402742924"/>
    <nd ref="402742976"/>
    <nd ref="402742977"/>
    <nd ref="402742979"/>
    <nd ref="1077317153"/>
    <nd ref="402742924"/>
    <tag k="building" v="yes"/>
  </way>
  <way id="34633788" version="1" timestamp="2009-05-17T13:28:50Z" uid="9581" user="Lobelt" changeset="1222192">
    <nd ref="402742986"/>
    <nd ref="402742990"/>
    <nd ref="402742992"/>
    <nd ref="402742988"/>
    <nd ref="402742986"/>
    <tag k="building" v="yes"/>
  </way>
  <way id="34633789" version="1" timestamp="2009-05-17T13:28:50Z" uid="9581" user="Lobelt" changeset="1222192">
    <nd ref="402742994"/>
    <nd ref="402742996"/>
    <nd ref="402742998"/>
    <nd ref="402743000"/>
    <nd ref="402742994"/>
    <tag k="landuse" v="allotments"/>
  </way>
  <way id="34633790" version="1" timestamp="2009-05-17T13:28:50Z" uid="9581" user="Lobelt" changeset="1222192">
    <nd ref="402743002"/>
    <nd ref="402743004"/>
    <nd ref="402743006"/>
    <nd ref="402743007"/>
    <nd ref="402743008"/>
    <nd ref="402743009"/>
    <nd ref="402743010"/>
    <nd ref="402743011"/>
    <nd ref="402743013"/>
    <nd ref="402743015"/>
    <nd ref="402743017"/>
    <nd ref="402743019"/>
    <nd ref="402743002"/>
    <tag k="landuse" v="allotments"/>
  </way>
  <way id="34633791" version="1" timestamp="2009-05-17T13:28:50Z" uid="9581" user="Lobelt" changeset="1222192">
    <nd ref="402743027"/>
    <nd ref="402743029"/>
    <nd ref="402743031"/>
    <nd ref="402743033"/>
    <nd ref="402743035"/>
    <nd ref="402743041"/>
    <nd ref="402743042"/>
    <nd ref="402743044"/>
    <nd ref="32216087"/>
    <nd ref="402743046"/>
    <nd ref="31250163"/>
    <nd ref="31250162"/>
    <nd ref="31250161"/>
    <nd ref="31250160"/>
    <nd ref="402743027"/>
    <tag k="landuse" v="allotments"/>
  </way>
  <way id="34633792" version="1" timestamp="2009-05-17T13:28:50Z" uid="9581" user="Lobelt" changeset="1222192">
    <nd ref="402743050"/>
    <nd ref="402743055"/>
    <nd ref="402743056"/>
    <nd ref="402743052"/>
    <nd ref="402743050"/>
    <tag k="building" v="yes"/>
  </way>
  <way id="34633793" version="1" timestamp="2009-05-17T13:28:51Z" uid="9581" user="Lobelt" changeset="1222192">
    <nd ref="402743057"/>
    <nd ref="402743061"/>
    <nd ref="402743063"/>
    <nd ref="402743059"/>
    <nd ref="402743057"/>
    <tag k="building" v="yes"/>
  </way>
  <way id="34633794" version="1" timestamp="2009-05-17T13:28:51Z" uid="9581" user="Lobelt" changeset="1222192">
    <nd ref="402743065"/>
    <nd ref="402743069"/>
    <nd ref="402743071"/>
    <nd ref="402743067"/>
    <nd ref="402743065"/>
    <tag k="building" v="yes"/>
  </way>
  <way id="34633917" version="3" timestamp="2010-05-11T11:56:24Z" uid="49111" user="Markus B" changeset="4667822">
    <nd ref="370418040"/>
    <nd ref="729647898"/>
    <nd ref="729647897"/>
    <nd ref="402812528"/>
    <nd ref="402812525"/>
    <nd ref="402812524"/>
    <nd ref="402812522"/>
    <nd ref="402812519"/>
    <nd ref="402744057"/>
    <nd ref="402744056"/>
    <nd ref="402744055"/>
    <nd ref="402744054"/>
    <nd ref="402744053"/>
    <nd ref="402744052"/>
    <nd ref="402744051"/>
    <nd ref="402744046"/>
    <tag k="access" v="agricultural"/>
    <tag k="highway" v="track"/>
    <tag k="surface" v="gravel"/>
    <tag k="tracktype" v="grade2"/>
  </way>
  <way id="34633917" version="4" timestamp="2010-05-11T12:39:42Z" uid="49111" user="Markus B" changeset="4668220">
    <nd ref="370418040"/>
    <nd ref="729647898"/>
    <nd ref="729647897"/>
    <nd ref="402812528"/>
    <nd ref="402812525"/>
    <nd ref="402812524"/>
    <nd ref="402812522"/>
    <nd ref="402812519"/>
    <nd ref="402744057"/>
    <nd ref="402744056"/>
    <nd ref="729666891"/>
    <nd ref="402744055"/>
    <nd ref="729666892"/>
    <nd ref="402744054"/>
    <nd ref="402744053"/>
    <nd ref="729666899"/>
    <nd ref="402744052"/>
    <nd ref="729666888"/>
    <nd ref="402744051"/>
    <nd ref="729666886"/>
    <nd ref="402744046"/>
    <tag k="access" v="agricultural"/>
    <tag k="highway" v="track"/>
    <tag k="surface" v="gravel"/>
    <tag k="tracktype" v="grade2"/>
  </way>
  <way id="34633917" version="5" timestamp="2010-09-22T11:49:37Z" uid="49111" user="Markus B" changeset="5844805">
    <nd ref="370418040"/>
    <nd ref="729647898"/>
    <nd ref="729647897"/>
    <nd ref="402812528"/>
    <nd ref="402812525"/>
    <nd ref="402812524"/>
    <nd ref="402812522"/>
    <nd ref="402812519"/>
    <nd ref="402744057"/>
    <nd ref="402744056"/>
    <nd ref="729666891"/>
    <nd ref="402744055"/>
    <nd ref="729666892"/>
    <nd ref="402744054"/>
    <nd ref="402744053"/>
    <nd ref="729666899"/>
    <nd ref="402744052"/>
    <nd ref="729666888"/>
    <nd ref="402744051"/>
    <nd ref="729666886"/>
    <nd ref="409293413"/>
    <tag k="access" v="agricultural"/>
    <tag k="highway" v="track"/>
    <tag k="surface" v="gravel"/>
    <tag k="tracktype" v="grade2"/>
  </way>
  <way id="34633918" version="5" timestamp="2010-05-11T11:56:19Z" uid="49111" user="Markus B" changeset="4667822">
    <nd ref="402744046"/>
    <nd ref="409293412"/>
    <nd ref="409293413"/>
    <nd ref="409293414"/>
    <nd ref="402744047"/>
    <nd ref="402744048"/>
    <nd ref="729647868"/>
    <nd ref="729647866"/>
    <nd ref="402744049"/>
    <nd ref="402744050"/>
    <nd ref="402812529"/>
    <nd ref="402812531"/>
    <nd ref="402812533"/>
    <nd ref="402812535"/>
    <nd ref="729647885"/>
    <nd ref="402812537"/>
    <nd ref="729647888"/>
    <nd ref="729647887"/>
    <nd ref="402812540"/>
    <nd ref="402812541"/>
    <nd ref="402812544"/>
    <nd ref="289677346"/>
    <nd ref="289677345"/>
    <nd ref="289677344"/>
    <nd ref="729647889"/>
    <nd ref="289677343"/>
    <nd ref="729647882"/>
    <nd ref="729647883"/>
    <nd ref="402812545"/>
    <nd ref="402812547"/>
    <nd ref="729647884"/>
    <nd ref="402812548"/>
    <nd ref="402812550"/>
    <nd ref="729647881"/>
    <nd ref="402812552"/>
    <nd ref="402812555"/>
    <nd ref="402812556"/>
    <nd ref="402812559"/>
    <nd ref="729647873"/>
    <nd ref="402812561"/>
    <nd ref="402812564"/>
    <nd ref="402812565"/>
    <nd ref="729648098"/>
    <nd ref="402812568"/>
    <nd ref="402812569"/>
    <nd ref="402812571"/>
    <nd ref="402812572"/>
    <nd ref="402812574"/>
    <nd ref="402812575"/>
    <nd ref="402812577"/>
    <nd ref="402812578"/>
    <nd ref="402812580"/>
    <tag k="access" v="agricultural"/>
    <tag k="highway" v="track"/>
    <tag k="name" v="Steinmaurer Wattwilerstrasse"/>
    <tag k="surface" v="gravel"/>
    <tag k="tracktype" v="grade2"/>
  </way>
  <way id="34633918" version="6" timestamp="2010-09-22T11:49:38Z" uid="49111" user="Markus B" changeset="5844805"/>
</osm>
