<?xml version='1.0' encoding='UTF-8'?>
<osm version="0.6" generator="libosmium/2.20.0">
  <way id="34675097" version="2" timestamp="2010-04-07T13:37:54Z" uid="20587" user="balrog-kun" changeset="4353646">
    <nd ref="403454315"/>
    <nd ref="403461892"/>
    <nd ref="403461895"/>
    <nd ref="403461898"/>
    <nd ref="403461900"/>
    <nd ref="403461903"/>
    <nd ref="403461905"/>
    <nd ref="403461909"/>
    <nd ref="403461912"/>
    <tag k="highway" v="residential"/>
    <tag k="name" v="Lynnwood Court"/>
  </way>
  <way id="34675352" version="1" timestamp="2009-05-17T20:38:35Z" uid="6269" user="Mueck" changeset="1229124">
    <nd ref="403462927"/>
    <nd ref="335137614"/>
    <nd ref="403462928"/>
    <nd ref="399814281"/>
    <nd ref="399846045"/>
    <nd ref="399847761"/>
    <tag k="addr:interpolation" v="even"/>
  </way>
  <way id="34675352" version="2" timestamp="2009-05-17T20:38:38Z" uid="6269" user="Mueck" changeset="1229124">
    <nd ref="403462927"/>
    <nd ref="335137614"/>
    <nd ref="403462928"/>
    <tag k="addr:interpolation" v="even"/>
  </way>
  <way id="34675352" version="3" timestamp="2009-05-17T20:38:54Z" uid="6269" user="Mueck" changeset="1229124">
    <nd ref="335137614"/>
    <nd ref="403462928"/>
    <tag k="addr:interpolation" v="even"/>
  </way>
  <way id="34675352" version="4" timestamp="2009-05-17T20:39:33Z" uid="6269" user="Mueck" changeset="1229124">
    <nd ref="335137614"/>
    <nd ref="403463642"/>
    <tag k="addr:interpolation" v="even"/>
  </way>
  <way id="34675352" version="5" timestamp="2009-05-28T15:49:43Z" uid="6269" user="Mueck" changeset="1343846">
    <nd ref="335137614"/>
    <nd ref="403463642"/>
  </way>
  <way id="34675366" version="1" timestamp="2009-05-17T20:38:38Z" uid="6269" user="Mueck" changeset="1229124">
    <nd ref="403462928"/>
    <nd ref="399814281"/>
    <nd ref="399846045"/>
    <nd ref="399847761"/>
    <tag k="addr:interpolation" v="even"/>
  </way>
  <way id="34675366" version="2" timestamp="2009-05-17T20:38:45Z" uid="6269" user="Mueck" changeset="1229124">
    <nd ref="399814281"/>
    <nd ref="399846045"/>
    <nd ref="399847761"/>
    <tag k="addr:interpolation" v="even"/>
  </way>
  <way id="34675366" version="3" timestamp="2009-05-28T15:50:10Z" uid="6269" user="Mueck" changeset="1343846">
    <nd ref="399814281"/>
    <nd ref="412199476"/>
    <tag k="addr:interpolation" v="even"/>
  </way>
  <way id="34675366" version="4" timestamp="2009-05-28T15:50:34Z" uid="6269" user="Mueck" changeset="1343846">
    <nd ref="399814281"/>
    <nd ref="412199476"/>
  </way>
  <way id="34675665" version="1" timestamp="2009-05-17T20:43:10Z" uid="36809" user="pfoten_weg_!_" changeset="1229202">
    <nd ref="403467210"/>
    <nd ref="403467211"/>
    <nd ref="403467212"/>
    <nd ref="403467213"/>
    <nd ref="403467214"/>
    <nd ref="403467215"/>
    <nd ref="403467216"/>
    <nd ref="403467217"/>
    <nd ref="403467218"/>
    <nd ref="403467210"/>
    <tag k="created_by" v="RambaZamba"/>
    <tag k="landuse" v="recreation_ground"/>
    <tag k="name" v="Kasten"/>
    <tag k="osmarender:renderName" v="no"/>
    <tag k="source" v="survey"/>
  </way>
  <way id="34675665" version="3" timestamp="2009-09-29T01:13:14Z" uid="36809" user="pfoten_weg_!_" changeset="2671973">
    <nd ref="403467210"/>
    <nd ref="403467211"/>
    <nd ref="403467212"/>
    <nd ref="403467213"/>
    <nd ref="403467214"/>
    <nd ref="403467215"/>
    <nd ref="403467216"/>
    <nd ref="403467217"/>
    <nd ref="403467218"/>
    <nd ref="403467210"/>
    <tag k="landuse" v="recreation_ground"/>
    <tag k="name" v="Kasten"/>
    <tag k="osmarender:renderName" v="no"/>
    <tag k="source" v="survey"/>
  </way>
  <way id="34675665" version="4" timestamp="2009-10-12T22:04:22Z" uid="36809" user="pfoten_weg_!_" changeset="2831291">
    <nd ref="403467210"/>
    <nd ref="403467211"/>
    <nd ref="403467212"/>
    <nd ref="403467213"/>
    <nd ref="403467214"/>
    <nd ref="403467215"/>
    <nd ref="403467216"/>
    <nd ref="403467217"/>
    <nd ref="403467218"/>
    <nd ref="403467210"/>
    <tag k="landuse" v="recreation_ground"/>
    <tag k="name" v="Kasten"/>
    <tag k="osmarender:renderName" v="no"/>
  </way>
  <way id="34675684" version="2" timestamp="2010-03-22T06:28:43Z" uid="20587" user="balrog-kun" changeset="4199043">
    <nd ref="38698829"/>
    <nd ref="359678167"/>
    <nd ref="403468204"/>
    <nd ref="359678169"/>
    <nd ref="38711437"/>
    <tag k="created_by" v="Potlatch 0.10f"/>
    <tag k="highway" v="residential"/>
    <tag k="name" v="Southwest Edy Road"/>
    <tag k="tiger:cfcc" v="A41"/>
    <tag k="tiger:county" v="Washington, OR"/>
    <tag k="tiger:name_base" v="Edy"/>
    <tag k="tiger:name_direction_prefix" v="SW"/>
    <tag k="tiger:separated" v="no"/>
    <tag k="tiger:source" v="tiger_import_dch_v0.6_20070808"/>
    <tag k="tiger:tlid" v="158222720:158222730:158232491:158232492:158225685:158232471:158232472:158232476:158232477:158222766:158222792:158175367:158230039:158188672:158188676:158233968:158222900:158222901:158222719"/>
    <tag k="tiger:zip_left" v="97140"/>
    <tag k="tiger:zip_right" v="97140"/>
  </way>
  <way id="34675686" version="2" timestamp="2010-03-22T06:28:43Z" uid="20587" user="balrog-kun" changeset="4199043">
    <nd ref="38711437"/>
    <nd ref="359678172"/>
    <nd ref="359678175"/>
    <nd ref="38770310"/>
    <nd ref="38770312"/>
    <tag k="created_by" v="Potlatch 0.10f"/>
    <tag k="highway" v="road"/>
    <tag k="name" v="Southwest Edy Road"/>
    <tag k="tiger:cfcc" v="A41"/>
    <tag k="tiger:county" v="Washington, OR"/>
    <tag k="tiger:name_base" v="Edy"/>
    <tag k="tiger:name_direction_prefix" v="SW"/>
    <tag k="tiger:reviewed" v="no"/>
    <tag k="tiger:source" v="tiger_import_dch_v0.6_20070808"/>
    <tag k="tiger:tlid" v="158222720:158222730:158232491:158232492:158225685:158232471:158232472:158232476:158232477:158222766:158222792:158175367:158230039:158188672:158188676:158233968:158222900:158222901:158222719"/>
    <tag k="tiger:zip_left" v="97140"/>
    <tag k="tiger:zip_right" v="97140"/>
  </way>
  <way id="34675786" version="2" timestamp="2010-01-10T10:26:13Z" uid="20587" user="balrog-kun" changeset="3585409">
    <nd ref="403471352"/>
    <nd ref="403471357"/>
    <nd ref="403471356"/>
    <nd ref="403471354"/>
    <nd ref="403471352"/>
    <tag k="building" v="hall"/>
  </way>
  <way id="34675790" version="1" timestamp="2009-05-17T20:47:11Z" uid="96874" user="Quedel" changeset="1229079">
    <nd ref="403471736"/>
    <nd ref="287081525"/>
    <nd ref="287081524"/>
    <nd ref="299535824"/>
    <nd ref="299605544"/>
    <nd ref="287081523"/>
    <nd ref="300442298"/>
    <nd ref="300445667"/>
    <tag k="created_by" v="Potlatch 0.10c"/>
    <tag k="highway" v="residential"/>
    <tag k="name" v="Breite Straße"/>
  </way>
  <way id="34675790" version="2" timestamp="2009-05-17T20:47:48Z" uid="96874" user="Quedel" changeset="1229079">
    <nd ref="403471736"/>
    <nd ref="287081525"/>
    <nd ref="287081524"/>
    <nd ref="299535824"/>
    <nd ref="299605544"/>
    <nd ref="287081523"/>
    <nd ref="300442298"/>
    <nd ref="300445667"/>
    <tag k="created_by" v="Potlatch 0.10c"/>
    <tag k="highway" v="footway"/>
    <tag k="name" v="Breite Straße"/>
  </way>
  <way id="34675790" version="3" timestamp="2009-05-17T20:49:07Z" uid="96874" user="Quedel" changeset="1229079">
    <nd ref="403471736"/>
    <nd ref="287081525"/>
    <nd ref="287081524"/>
    <nd ref="299535824"/>
    <nd ref="299605544"/>
    <nd ref="287081523"/>
    <nd ref="300442298"/>
    <nd ref="300445667"/>
    <tag k="created_by" v="Potlatch 0.10c"/>
    <tag k="highway" v="living_street"/>
    <tag k="name" v="Breite Straße"/>
  </way>
  <way id="34675790" version="4" timestamp="2009-05-17T20:50:31Z" uid="96874" user="Quedel" changeset="1229079">
    <nd ref="403471736"/>
    <nd ref="287081525"/>
    <nd ref="287081524"/>
    <nd ref="299535824"/>
    <nd ref="299605544"/>
    <nd ref="287081523"/>
    <nd ref="300442298"/>
    <nd ref="300445667"/>
    <tag k="created_by" v="Potlatch 0.10c"/>
    <tag k="highway" v="pedestrian"/>
    <tag k="name" v="Breite Straße"/>
  </way>
</osm>
