<?xml version='1.0' encoding='UTF-8'?>
<osm version="0.6" generator="libosmium/2.20.0">
  <way id="34893093" version="2" timestamp="2009-10-18T00:38:28Z" uid="36809" user="pfoten_weg_!_" changeset="2879237"/>
  <way id="34893094" version="2" timestamp="2009-10-18T00:38:28Z" uid="36809" user="pfoten_weg_!_" changeset="2879237"/>
  <way id="34893097" version="2" timestamp="2009-10-18T00:38:23Z" uid="36809" user="pfoten_weg_!_" changeset="2879237">
    <nd ref="352820816"/>
    <nd ref="409202728"/>
    <tag k="bicycle" v="yes"/>
    <tag k="bridge" v="yes"/>
    <tag k="highway" v="unclassified"/>
    <tag k="maxweight" v="4"/>
    <tag k="name" v="SteinbachstraÃŸe"/>
    <tag k="oneway" v="no"/>
    <tag k="ref" v="TK 4"/>
  </way>
  <way id="34893098" version="2" timestamp="2009-10-18T00:38:22Z" uid="36809" user="pfoten_weg_!_" changeset="2879237">
    <nd ref="409202728"/>
    <nd ref="352820818"/>
    <nd ref="409202726"/>
    <nd ref="275662094"/>
    <nd ref="275662095"/>
    <nd ref="409202730"/>
    <tag k="bicycle" v="yes"/>
    <tag k="highway" v="unclassified"/>
    <tag k="ref" v="TK 4"/>
  </way>
  <way id="34893103" version="3" timestamp="2009-10-18T00:54:55Z" uid="36809" user="pfoten_weg_!_" changeset="2879254">
    <nd ref="409202756"/>
    <nd ref="409202758"/>
    <nd ref="275662102"/>
    <nd ref="275662103"/>
    <nd ref="409202760"/>
    <nd ref="409202764"/>
    <nd ref="409202762"/>
    <nd ref="275662104"/>
    <nd ref="275662105"/>
    <nd ref="332783813"/>
    <tag k="bicycle" v="yes"/>
    <tag k="highway" v="unclassified"/>
    <tag k="ref" v="TK 4"/>
  </way>
  <way id="34893105" version="2" timestamp="2009-10-18T00:54:54Z" uid="36809" user="pfoten_weg_!_" changeset="2879254">
    <nd ref="332783813"/>
    <nd ref="409202765"/>
    <tag k="bicycle" v="yes"/>
    <tag k="foot" v="yes"/>
    <tag k="highway" v="cycleway"/>
    <tag k="ref" v="TK 4"/>
  </way>
  <way id="34893106" version="2" timestamp="2009-10-18T00:54:56Z" uid="36809" user="pfoten_weg_!_" changeset="2879254">
    <nd ref="409202765"/>
    <nd ref="409202766"/>
    <tag k="bicycle" v="yes"/>
    <tag k="foot" v="yes"/>
    <tag k="highway" v="cycleway"/>
    <tag k="ref" v="TK 4"/>
    <tag k="tunnel" v="yes"/>
  </way>
  <way id="34893107" version="2" timestamp="2009-10-18T00:54:57Z" uid="36809" user="pfoten_weg_!_" changeset="2879254">
    <nd ref="409202766"/>
    <nd ref="332783920"/>
    <tag k="bicycle" v="yes"/>
    <tag k="foot" v="yes"/>
    <tag k="highway" v="cycleway"/>
    <tag k="ref" v="TK 4"/>
  </way>
  <way id="34893758" version="2" timestamp="2009-06-16T18:21:51Z" uid="43863" user="Rundling" changeset="1537840"/>
  <way id="34893828" version="2" timestamp="2010-04-30T20:57:03Z" uid="23543" user="jkjk" changeset="4569976">
    <nd ref="409211472"/>
    <nd ref="409211477"/>
    <nd ref="409211471"/>
    <tag k="highway" v="tertiary"/>
    <tag k="lanes" v="2"/>
  </way>
  <way id="34893832" version="2" timestamp="2010-04-30T20:57:03Z" uid="23543" user="jkjk" changeset="4569976">
    <nd ref="409211476"/>
    <nd ref="409211481"/>
    <nd ref="409211482"/>
    <nd ref="409211483"/>
    <nd ref="409211484"/>
    <nd ref="409211485"/>
    <nd ref="409211486"/>
    <nd ref="409211487"/>
    <nd ref="409211488"/>
    <nd ref="409211489"/>
    <nd ref="409211490"/>
    <nd ref="409211491"/>
    <tag k="highway" v="residential"/>
    <tag k="layer" v="0"/>
    <tag k="surface" v="paved"/>
    <tag k="width" v="8"/>
  </way>
</osm>
