<?xml version='1.0' encoding='UTF-8'?>
<osm version="0.6" generator="libosmium/2.20.0">
  <way id="34900223" version="2" timestamp="2009-09-27T09:09:34Z" uid="12188" user="Babis" changeset="2649861">
    <nd ref="250659268"/>
    <nd ref="250659267"/>
    <nd ref="250659266"/>
    <nd ref="250659265"/>
    <nd ref="250659264"/>
    <nd ref="364338865"/>
    <nd ref="250659263"/>
    <nd ref="250659224"/>
    <tag k="highway" v="residential"/>
    <tag k="name" v="Διαγόρα; Λυκούργου"/>
    <tag k="oneway" v="yes"/>
    <tag k="source" v="GPS"/>
  </way>
  <way id="34900223" version="3" timestamp="2009-09-27T09:09:56Z" uid="12188" user="Babis" changeset="2649861">
    <nd ref="250659268"/>
    <nd ref="250659267"/>
    <nd ref="250659266"/>
    <nd ref="250659265"/>
    <nd ref="250659264"/>
    <nd ref="364338865"/>
    <nd ref="250659263"/>
    <nd ref="250659224"/>
    <tag k="highway" v="residential"/>
    <tag k="oneway" v="yes"/>
    <tag k="source" v="GPS"/>
  </way>
  <way id="34900223" version="4" timestamp="2009-09-27T09:10:04Z" uid="12188" user="Babis" changeset="2649861">
    <nd ref="250659268"/>
    <nd ref="250659267"/>
    <nd ref="250659266"/>
    <nd ref="250659265"/>
    <nd ref="250659264"/>
    <nd ref="364338865"/>
    <nd ref="250659263"/>
    <nd ref="250659224"/>
    <nd ref="250659082"/>
    <tag k="highway" v="residential"/>
    <tag k="oneway" v="yes"/>
    <tag k="source" v="GPS"/>
  </way>
  <way id="34900223" version="5" timestamp="2009-09-27T09:10:05Z" uid="12188" user="Babis" changeset="2649861"/>
  <way id="34900249" version="3" timestamp="2010-03-28T02:06:45Z" uid="20587" user="balrog-kun" changeset="4250871">
    <nd ref="409340626"/>
    <nd ref="409340627"/>
    <tag k="bridge" v="yes"/>
    <tag k="highway" v="motorway"/>
    <tag k="layer" v="3"/>
    <tag k="name" v="Orange Freeway"/>
    <tag k="oneway" v="yes"/>
    <tag k="ref" v="CA 57"/>
    <tag k="tiger:cfcc" v="A15"/>
    <tag k="tiger:county" v="Los Angeles, CA"/>
    <tag k="tiger:name_base" v="Orange"/>
    <tag k="tiger:name_base_1" v="State Highway 57"/>
    <tag k="tiger:name_type" v="Fwy"/>
    <tag k="tiger:separated" v="yes"/>
    <tag k="tiger:source" v="tiger_import_dch_v0.6_20070809"/>
    <tag k="tiger:tlid" v="141806919:141806922:141806925:141806928"/>
  </way>
  <way id="34900250" version="3" timestamp="2010-03-28T02:06:45Z" uid="20587" user="balrog-kun" changeset="4250871">
    <nd ref="409340627"/>
    <nd ref="409340622"/>
    <nd ref="394928578"/>
    <tag k="highway" v="motorway"/>
    <tag k="name" v="Orange Freeway"/>
    <tag k="oneway" v="yes"/>
    <tag k="ref" v="CA 57"/>
    <tag k="tiger:cfcc" v="A15"/>
    <tag k="tiger:county" v="Los Angeles, CA"/>
    <tag k="tiger:name_base" v="Orange"/>
    <tag k="tiger:name_base_1" v="State Highway 57"/>
    <tag k="tiger:name_type" v="Fwy"/>
    <tag k="tiger:separated" v="yes"/>
    <tag k="tiger:source" v="tiger_import_dch_v0.6_20070809"/>
    <tag k="tiger:tlid" v="141806919:141806922:141806925:141806928"/>
  </way>
  <way id="34900265" version="3" timestamp="2010-03-28T02:06:46Z" uid="20587" user="balrog-kun" changeset="4250871">
    <nd ref="409376048"/>
    <nd ref="409376024"/>
    <tag k="bridge" v="yes"/>
    <tag k="highway" v="motorway"/>
    <tag k="layer" v="1"/>
    <tag k="name" v="Chino Valley Freeway"/>
    <tag k="oneway" v="yes"/>
    <tag k="ref" v="CA 71"/>
  </way>
  <way id="34900266" version="4" timestamp="2010-03-28T02:06:46Z" uid="20587" user="balrog-kun" changeset="4250871">
    <nd ref="409376049"/>
    <nd ref="122404529"/>
    <tag k="highway" v="motorway"/>
    <tag k="name" v="Chino Valley Freeway"/>
    <tag k="oneway" v="yes"/>
    <tag k="ref" v="CA 71"/>
  </way>
  <way id="34900267" version="3" timestamp="2010-03-28T02:06:47Z" uid="20587" user="balrog-kun" changeset="4250871">
    <nd ref="32599439"/>
    <nd ref="409376049"/>
    <tag k="bridge" v="yes"/>
    <tag k="highway" v="motorway"/>
    <tag k="layer" v="1"/>
    <tag k="name" v="Chino Valley Freeway"/>
    <tag k="oneway" v="yes"/>
    <tag k="ref" v="CA 71"/>
  </way>
  <way id="34900268" version="5" timestamp="2010-03-28T02:06:47Z" uid="20587" user="balrog-kun" changeset="4250871">
    <nd ref="409376024"/>
    <nd ref="122541300"/>
    <nd ref="32583552"/>
    <nd ref="32583648"/>
    <nd ref="32581143"/>
    <nd ref="409454278"/>
    <tag k="highway" v="motorway"/>
    <tag k="name" v="Chino Valley Freeway"/>
    <tag k="oneway" v="yes"/>
    <tag k="ref" v="CA 71"/>
  </way>
  <way id="34900269" version="2" timestamp="2010-03-28T02:06:47Z" uid="20587" user="balrog-kun" changeset="4250871">
    <nd ref="122901205"/>
    <nd ref="409376053"/>
    <tag k="bridge" v="yes"/>
    <tag k="highway" v="tertiary"/>
    <tag k="layer" v="1"/>
    <tag k="name" v="Ridgeway Street"/>
    <tag k="tiger:cfcc" v="A41"/>
    <tag k="tiger:county" v="Los Angeles, CA"/>
    <tag k="tiger:name_base" v="Ridgeway"/>
    <tag k="tiger:name_type" v="St"/>
    <tag k="tiger:separated" v="no"/>
    <tag k="tiger:source" v="tiger_import_dch_v0.6_20070809"/>
    <tag k="tiger:tlid" v="141729288:141729433:141729439:141729441:141729452:141729454:141729554:141729470:141771864"/>
    <tag k="tiger:zip_left" v="91768"/>
    <tag k="tiger:zip_right" v="91768"/>
  </way>
  <way id="34900270" version="2" timestamp="2010-03-28T02:06:47Z" uid="20587" user="balrog-kun" changeset="4250871">
    <nd ref="409376053"/>
    <nd ref="122901207"/>
    <nd ref="409376029"/>
    <nd ref="122901211"/>
    <nd ref="122901214"/>
    <tag k="highway" v="tertiary"/>
    <tag k="name" v="Ridgeway Street"/>
    <tag k="tiger:cfcc" v="A41"/>
    <tag k="tiger:county" v="Los Angeles, CA"/>
    <tag k="tiger:name_base" v="Ridgeway"/>
    <tag k="tiger:name_type" v="St"/>
    <tag k="tiger:separated" v="no"/>
    <tag k="tiger:source" v="tiger_import_dch_v0.6_20070809"/>
    <tag k="tiger:tlid" v="141729288:141729433:141729439:141729441:141729452:141729454:141729554:141729470:141771864"/>
    <tag k="tiger:zip_left" v="91768"/>
    <tag k="tiger:zip_right" v="91768"/>
  </way>
  <way id="34900271" version="3" timestamp="2010-03-28T02:06:47Z" uid="20587" user="balrog-kun" changeset="4250871">
    <nd ref="122974828"/>
    <nd ref="122974826"/>
    <nd ref="409340503"/>
    <tag k="highway" v="motorway"/>
    <tag k="name" v="Orange Freeway"/>
    <tag k="oneway" v="yes"/>
    <tag k="ref" v="CA 57"/>
    <tag k="tiger:cfcc" v="A11"/>
    <tag k="tiger:county" v="Los Angeles, CA"/>
    <tag k="tiger:name_base" v="Orange"/>
    <tag k="tiger:name_base_1" v="State Highway 57"/>
    <tag k="tiger:name_type" v="Fwy"/>
    <tag k="tiger:separated" v="no"/>
    <tag k="tiger:source" v="tiger_import_dch_v0.6_20070809"/>
    <tag k="tiger:tlid" v="141729269:141729274:141729362:141729381:141729383:141729412:141729415:141730360:141730368:141730374:141730376:141730417:141771862:141781738:141806926:141806927:141806931:141820029:142244758:142244759:142252614:142252615:142674455"/>
  </way>
  <way id="34900272" version="3" timestamp="2010-03-28T02:06:47Z" uid="20587" user="balrog-kun" changeset="4250871">
    <nd ref="409340508"/>
    <nd ref="409340625"/>
    <tag k="bridge" v="yes"/>
    <tag k="highway" v="motorway"/>
    <tag k="layer" v="1"/>
    <tag k="name" v="Orange Freeway"/>
    <tag k="oneway" v="yes"/>
    <tag k="ref" v="CA 57"/>
    <tag k="tiger:cfcc" v="A15"/>
    <tag k="tiger:county" v="Los Angeles, CA"/>
    <tag k="tiger:name_base" v="Orange"/>
    <tag k="tiger:name_base_1" v="State Highway 57"/>
    <tag k="tiger:name_type" v="Fwy"/>
    <tag k="tiger:separated" v="yes"/>
    <tag k="tiger:source" v="tiger_import_dch_v0.6_20070809"/>
    <tag k="tiger:tlid" v="141806919:141806922:141806925:141806928"/>
  </way>
  <way id="34900276" version="3" timestamp="2010-03-28T02:06:48Z" uid="20587" user="balrog-kun" changeset="4250871">
    <nd ref="409340510"/>
    <nd ref="122974828"/>
    <tag k="bridge" v="yes"/>
    <tag k="highway" v="motorway"/>
    <tag k="layer" v="1"/>
    <tag k="name" v="Orange Freeway"/>
    <tag k="oneway" v="yes"/>
    <tag k="ref" v="CA 57"/>
    <tag k="tiger:cfcc" v="A11"/>
    <tag k="tiger:county" v="Los Angeles, CA"/>
    <tag k="tiger:name_base" v="Orange"/>
    <tag k="tiger:name_base_1" v="State Highway 57"/>
    <tag k="tiger:name_type" v="Fwy"/>
    <tag k="tiger:separated" v="no"/>
    <tag k="tiger:source" v="tiger_import_dch_v0.6_20070809"/>
    <tag k="tiger:tlid" v="141729269:141729274:141729362:141729381:141729383:141729412:141729415:141730360:141730368:141730374:141730376:141730417:141771862:141781738:141806926:141806927:141806931:141820029:142244758:142244759:142252614:142252615:142674455"/>
  </way>
  <way id="34900277" version="3" timestamp="2010-03-28T02:06:48Z" uid="20587" user="balrog-kun" changeset="4250871">
    <nd ref="409340625"/>
    <nd ref="409340626"/>
    <tag k="highway" v="motorway"/>
    <tag k="name" v="Orange Freeway"/>
    <tag k="oneway" v="yes"/>
    <tag k="ref" v="CA 57"/>
    <tag k="tiger:cfcc" v="A15"/>
    <tag k="tiger:county" v="Los Angeles, CA"/>
    <tag k="tiger:name_base" v="Orange"/>
    <tag k="tiger:name_base_1" v="State Highway 57"/>
    <tag k="tiger:name_type" v="Fwy"/>
    <tag k="tiger:separated" v="yes"/>
    <tag k="tiger:source" v="tiger_import_dch_v0.6_20070809"/>
    <tag k="tiger:tlid" v="141806919:141806922:141806925:141806928"/>
  </way>
  <way id="34900333" version="2" timestamp="2010-07-08T18:53:55Z" uid="74617" user="JohnSmith" changeset="5167338">
    <nd ref="409389513"/>
    <nd ref="409389514"/>
    <nd ref="409389516"/>
    <tag k="highway" v="residential"/>
    <tag k="maxspeed" v="50"/>
    <tag k="maxspeed:source" v="default residential speed limit in Australia"/>
    <tag k="name" v="Ashton Place"/>
  </way>
  <way id="34900334" version="2" timestamp="2010-07-08T19:04:12Z" uid="74617" user="JohnSmith" changeset="5167338">
    <nd ref="409389517"/>
    <nd ref="409389518"/>
    <nd ref="409389519"/>
    <tag k="highway" v="residential"/>
    <tag k="maxspeed" v="50"/>
    <tag k="maxspeed:source" v="default residential speed limit in Australia"/>
    <tag k="name" v="Lorraine Court"/>
  </way>
  <way id="34900335" version="3" timestamp="2010-07-08T19:00:29Z" uid="74617" user="JohnSmith" changeset="5167338">
    <nd ref="409389521"/>
    <nd ref="409389523"/>
    <tag k="highway" v="residential"/>
    <tag k="maxspeed" v="50"/>
    <tag k="maxspeed:source" v="default residential speed limit in Australia"/>
    <tag k="name" v="Harness Place"/>
  </way>
  <way id="34900341" version="3" timestamp="2009-08-10T01:47:26Z" uid="4467" user="Rosscoe" changeset="2092291">
    <nd ref="409389558"/>
    <nd ref="409389559"/>
    <nd ref="409389561"/>
    <nd ref="409389562"/>
    <tag k="highway" v="service"/>
    <tag k="service" v="parking_aisle"/>
    <tag k="surface" v="paved"/>
  </way>
</osm>
