<?xml version='1.0' encoding='UTF-8'?>
<osm version="0.6" generator="libosmium/2.20.0">
  <way id="34952041" version="3" timestamp="2010-03-22T06:30:30Z" uid="20587" user="balrog-kun" changeset="4199043">
    <nd ref="47680978"/>
    <nd ref="410178213"/>
    <nd ref="410178214"/>
    <nd ref="410178215"/>
    <nd ref="410178216"/>
    <nd ref="410178217"/>
    <nd ref="410178218"/>
    <nd ref="47680759"/>
    <tag k="highway" v="residential"/>
    <tag k="name" v="Old Pacific Highway South"/>
    <tag k="oneway" v="yes"/>
    <tag k="tiger:cfcc" v="A41"/>
    <tag k="tiger:county" v="Cowlitz, WA"/>
    <tag k="tiger:name_base" v="Old Pacific"/>
    <tag k="tiger:name_direction_suffix" v="S"/>
    <tag k="tiger:reviewed" v="no"/>
    <tag k="tiger:separated" v="no"/>
    <tag k="tiger:source" v="tiger_import_dch_v0.6_20070830"/>
    <tag k="tiger:tlid" v="184515923:184515924:184520660:184514833:184520514:184491903:184514831:184507593"/>
  </way>
  <way id="34952063" version="1" timestamp="2009-05-23T13:24:38Z" uid="123517" user="Qichina" changeset="1294983">
    <nd ref="148265747"/>
    <nd ref="148265748"/>
    <nd ref="148265747"/>
    <tag k="class" v="highway"/>
    <tag k="created_by" v="Potlatch 0.6"/>
    <tag k="highway" v="residential"/>
    <tag k="name" v="Betjeman Road"/>
    <tag k="oneway" v="no"/>
  </way>
  <way id="34952063" version="2" timestamp="2009-07-04T10:23:41Z" uid="123517" user="Qichina" changeset="1728450"/>
  <way id="34952064" version="1" timestamp="2009-05-23T13:24:38Z" uid="123517" user="Qichina" changeset="1294983">
    <nd ref="148265747"/>
    <nd ref="148265749"/>
    <tag k="created_by" v="Potlatch 0.6"/>
    <tag k="highway" v="residential"/>
    <tag k="name" v="Betjeman Road"/>
  </way>
  <way id="34952064" version="2" timestamp="2009-07-04T10:23:41Z" uid="123517" user="Qichina" changeset="1728450">
    <nd ref="148265747"/>
    <nd ref="148265749"/>
    <tag k="created_by" v="Potlatch 0.6"/>
    <tag k="highway" v="residential"/>
    <tag k="name" v="Betjeman Way"/>
  </way>
  <way id="34952506" version="3" timestamp="2010-03-22T06:30:31Z" uid="20587" user="balrog-kun" changeset="4199043">
    <nd ref="410181789"/>
    <nd ref="47772446"/>
    <nd ref="47772451"/>
    <nd ref="47772458"/>
    <nd ref="47772462"/>
    <nd ref="47772465"/>
    <tag k="created_by" v="Potlatch 0.10b"/>
    <tag k="highway" v="residential"/>
    <tag k="name" v="Mount Brynion Street"/>
    <tag k="tiger:cfcc" v="A41"/>
    <tag k="tiger:county" v="Cowlitz, WA"/>
    <tag k="tiger:name_base" v="Mt Brynion"/>
    <tag k="tiger:reviewed" v="no"/>
    <tag k="tiger:separated" v="no"/>
    <tag k="tiger:source" v="tiger_import_dch_v0.6_20070830"/>
    <tag k="tiger:tlid" v="184510695:184510368:184491160:184491162:184491169:184520216"/>
    <tag k="tiger:zip_left" v="98626"/>
    <tag k="tiger:zip_right" v="98626"/>
  </way>
  <way id="34952507" version="3" timestamp="2010-03-22T06:30:31Z" uid="20587" user="balrog-kun" changeset="4199043">
    <nd ref="410181788"/>
    <nd ref="410181789"/>
    <tag k="bridge" v="yes"/>
    <tag k="created_by" v="Potlatch 0.10b"/>
    <tag k="highway" v="residential"/>
    <tag k="layer" v="1"/>
    <tag k="name" v="Mount Brynion Street"/>
    <tag k="tiger:cfcc" v="A41"/>
    <tag k="tiger:county" v="Cowlitz, WA"/>
    <tag k="tiger:name_base" v="Mt Brynion"/>
    <tag k="tiger:reviewed" v="no"/>
    <tag k="tiger:separated" v="no"/>
    <tag k="tiger:source" v="tiger_import_dch_v0.6_20070830"/>
    <tag k="tiger:tlid" v="184510695:184510368:184491160:184491162:184491169:184520216"/>
    <tag k="tiger:zip_left" v="98626"/>
    <tag k="tiger:zip_right" v="98626"/>
  </way>
  <way id="34952587" version="5" timestamp="2010-07-06T09:18:39Z" uid="74617" user="JohnSmith" changeset="5147679">
    <nd ref="410182090"/>
    <nd ref="410182089"/>
    <nd ref="410182092"/>
    <nd ref="616231641"/>
    <nd ref="616231642"/>
    <nd ref="616231643"/>
    <nd ref="616231645"/>
    <nd ref="410182091"/>
    <nd ref="616231326"/>
    <nd ref="410182094"/>
    <nd ref="616231334"/>
    <nd ref="616231339"/>
    <nd ref="410182093"/>
    <nd ref="616231346"/>
    <nd ref="616231350"/>
    <nd ref="410182096"/>
    <nd ref="410182098"/>
    <nd ref="410182095"/>
    <tag k="highway" v="unclassified"/>
    <tag k="maxspeed" v="50"/>
    <tag k="maxspeed:source" v="default residential speed limit in Australia"/>
    <tag k="name" v="Rosa Street"/>
  </way>
  <way id="34952589" version="5" timestamp="2010-07-06T09:13:21Z" uid="74617" user="JohnSmith" changeset="5147679">
    <nd ref="410182084"/>
    <nd ref="775813480"/>
    <nd ref="410182083"/>
    <nd ref="775815439"/>
    <nd ref="410182085"/>
    <tag k="highway" v="unclassified"/>
    <tag k="maxspeed" v="50"/>
    <tag k="maxspeed:source" v="default residential speed limit in Australia"/>
    <tag k="name" v="Westringia Road"/>
  </way>
  <way id="34952590" version="3" timestamp="2010-07-06T09:19:42Z" uid="74617" user="JohnSmith" changeset="5147679">
    <nd ref="410182086"/>
    <nd ref="410182085"/>
    <nd ref="410182088"/>
    <nd ref="410182087"/>
    <tag k="highway" v="unclassified"/>
    <tag k="maxspeed" v="50"/>
    <tag k="maxspeed:source" v="default residential speed limit in Australia"/>
    <tag k="name" v="Cyperus Street"/>
  </way>
  <way id="34952599" version="3" timestamp="2010-04-17T08:37:41Z" uid="74617" user="JohnSmith" changeset="4445439">
    <nd ref="410384512"/>
    <nd ref="699613033"/>
    <nd ref="410182218"/>
    <nd ref="410182217"/>
    <nd ref="243166282"/>
    <tag k="highway" v="service"/>
  </way>
  <way id="34952603" version="2" timestamp="2009-08-11T11:04:09Z" uid="4467" user="Rosscoe" changeset="2107049">
    <nd ref="410182186"/>
    <nd ref="410182189"/>
    <nd ref="25842314"/>
    <nd ref="26339480"/>
    <tag k="highway" v="primary"/>
    <tag k="is_in" v="Brisbane, QLD, Queensland, Australia"/>
    <tag k="name" v="Airport Drive"/>
    <tag k="note" v="FIXME previously unwayed segment"/>
    <tag k="oneway" v="yes"/>
    <tag k="ref" v="S20"/>
  </way>
  <way id="34952609" version="2" timestamp="2009-08-11T11:04:09Z" uid="4467" user="Rosscoe" changeset="2107049">
    <nd ref="320099162"/>
    <nd ref="410182176"/>
    <nd ref="410182178"/>
    <nd ref="410182169"/>
    <nd ref="243171408"/>
    <nd ref="243171409"/>
    <nd ref="243171484"/>
    <nd ref="243171485"/>
    <nd ref="21590415"/>
    <tag k="highway" v="primary"/>
    <tag k="is_in" v="Brisbane, QLD, Queensland, Australia"/>
    <tag k="name" v="Airport Drive"/>
    <tag k="oneway" v="yes"/>
    <tag k="ref" v="S20"/>
  </way>
  <way id="34952609" version="11" timestamp="2010-03-20T16:02:44Z" uid="74617" user="JohnSmith" changeset="4181375">
    <nd ref="26339487"/>
    <nd ref="561076096"/>
    <nd ref="26339489"/>
    <nd ref="616158744"/>
    <nd ref="561076002"/>
    <nd ref="410182187"/>
    <nd ref="557625632"/>
    <tag k="highway" v="primary"/>
    <tag k="name" v="Airport Drive"/>
    <tag k="oneway" v="yes"/>
  </way>
  <way id="34952610" version="2" timestamp="2009-08-11T11:04:10Z" uid="4467" user="Rosscoe" changeset="2107049">
    <nd ref="410182186"/>
    <nd ref="320099162"/>
    <tag k="highway" v="primary"/>
    <tag k="is_in" v="Brisbane, QLD, Queensland, Australia"/>
    <tag k="name" v="Airport Drive"/>
    <tag k="ref" v="S20"/>
  </way>
  <way id="34952611" version="4" timestamp="2010-07-06T09:49:49Z" uid="74617" user="JohnSmith" changeset="5147679">
    <nd ref="410182206"/>
    <nd ref="616238624"/>
    <nd ref="616238625"/>
    <nd ref="410182219"/>
    <nd ref="410182220"/>
    <nd ref="616238626"/>
    <nd ref="616238627"/>
    <nd ref="616238629"/>
    <nd ref="410182221"/>
    <nd ref="410182222"/>
    <nd ref="410182229"/>
    <tag k="highway" v="unclassified"/>
    <tag k="maxspeed" v="50"/>
    <tag k="maxspeed:source" v="default residential speed limit in Australia"/>
    <tag k="name" v="Leonardo Drive"/>
  </way>
  <way id="34952612" version="5" timestamp="2010-07-06T09:49:23Z" uid="74617" user="JohnSmith" changeset="5147679">
    <nd ref="410182223"/>
    <nd ref="410182222"/>
    <nd ref="451518248"/>
    <nd ref="410182244"/>
    <nd ref="616237427"/>
    <nd ref="616237435"/>
    <nd ref="616237440"/>
    <nd ref="474981794"/>
    <nd ref="410182243"/>
    <tag k="highway" v="unclassified"/>
    <tag k="maxspeed" v="50"/>
    <tag k="maxspeed:source" v="default residential speed limit in Australia"/>
    <tag k="name" v="Da Vinci Boulevard"/>
  </way>
  <way id="34952613" version="3" timestamp="2010-07-06T09:52:40Z" uid="74617" user="JohnSmith" changeset="5147679">
    <nd ref="243164375"/>
    <nd ref="410182242"/>
    <tag k="highway" v="unclassified"/>
    <tag k="maxspeed" v="50"/>
    <tag k="maxspeed:source" v="default residential speed limit in Australia"/>
    <tag k="name" v="Unwin Street"/>
  </way>
  <way id="34952614" version="3" timestamp="2010-07-06T09:50:35Z" uid="74617" user="JohnSmith" changeset="5147679">
    <nd ref="243164999"/>
    <nd ref="243164772"/>
    <tag k="highway" v="unclassified"/>
    <tag k="maxspeed" v="50"/>
    <tag k="maxspeed:source" v="default residential speed limit in Australia"/>
    <tag k="name" v="Gregg Street"/>
  </way>
  <way id="34952617" version="4" timestamp="2010-07-06T09:52:17Z" uid="74617" user="JohnSmith" changeset="5147679">
    <nd ref="410182235"/>
    <nd ref="578659655"/>
    <nd ref="410182240"/>
    <nd ref="578659661"/>
    <nd ref="578659664"/>
    <nd ref="410182239"/>
    <nd ref="578659670"/>
    <nd ref="410182238"/>
    <nd ref="578659684"/>
    <nd ref="578659687"/>
    <nd ref="410182237"/>
    <nd ref="578659693"/>
    <nd ref="578659697"/>
    <nd ref="410182255"/>
    <nd ref="578659704"/>
    <nd ref="410182234"/>
    <nd ref="578659711"/>
    <nd ref="578659714"/>
    <nd ref="410182235"/>
    <tag k="highway" v="unclassified"/>
    <tag k="junction" v="roundabout"/>
    <tag k="maxspeed" v="50"/>
    <tag k="maxspeed:source" v="default residential speed limit in Australia"/>
    <tag k="name" v="Amy Johnson Place"/>
  </way>
  <way id="34952618" version="4" timestamp="2010-07-06T09:50:04Z" uid="74617" user="JohnSmith" changeset="5147679">
    <nd ref="316426338"/>
    <nd ref="410182254"/>
    <nd ref="410182259"/>
    <nd ref="410182260"/>
    <nd ref="410182257"/>
    <nd ref="410182258"/>
    <nd ref="660100634"/>
    <nd ref="410182251"/>
    <nd ref="410182252"/>
    <nd ref="410182249"/>
    <nd ref="410182250"/>
    <nd ref="316426340"/>
    <tag k="highway" v="unclassified"/>
    <tag k="maxspeed" v="50"/>
    <tag k="maxspeed:source" v="default residential speed limit in Australia"/>
    <tag k="name" v="TradeCoast Drive"/>
  </way>
  <way id="34952619" version="3" timestamp="2010-07-06T09:23:01Z" uid="74617" user="JohnSmith" changeset="5147679">
    <nd ref="410182076"/>
    <nd ref="476137966"/>
    <nd ref="476137979"/>
    <tag k="highway" v="unclassified"/>
    <tag k="maxspeed" v="50"/>
    <tag k="maxspeed:source" v="default residential speed limit in Australia"/>
    <tag k="name" v="Grevillea Place"/>
  </way>
  <way id="34952620" version="4" timestamp="2010-07-06T09:52:52Z" uid="74617" user="JohnSmith" changeset="5147679">
    <nd ref="410182072"/>
    <nd ref="474981826"/>
    <nd ref="410182073"/>
    <nd ref="775808307"/>
    <nd ref="474981830"/>
    <nd ref="775808308"/>
    <nd ref="474981750"/>
    <nd ref="474981748"/>
    <nd ref="474981754"/>
    <nd ref="474981753"/>
    <nd ref="775808309"/>
    <nd ref="410182074"/>
    <tag k="highway" v="unclassified"/>
    <tag k="maxspeed" v="50"/>
    <tag k="maxspeed:source" v="default residential speed limit in Australia"/>
    <tag k="name" v="The Boulevard"/>
  </way>
  <way id="34952621" version="4" timestamp="2010-07-06T09:18:32Z" uid="74617" user="JohnSmith" changeset="5147679">
    <nd ref="410182081"/>
    <nd ref="410182082"/>
    <nd ref="410182083"/>
    <tag k="highway" v="unclassified"/>
    <tag k="maxspeed" v="50"/>
    <tag k="maxspeed:source" v="default residential speed limit in Australia"/>
    <tag k="name" v="Dianella Street"/>
  </way>
  <way id="34952622" version="5" timestamp="2010-07-06T09:13:45Z" uid="74617" user="JohnSmith" changeset="5147679">
    <nd ref="410182078"/>
    <nd ref="410182079"/>
    <nd ref="775820740"/>
    <nd ref="775820853"/>
    <nd ref="775820854"/>
    <nd ref="775820855"/>
    <nd ref="775820856"/>
    <nd ref="775820857"/>
    <nd ref="775820858"/>
    <nd ref="775820859"/>
    <nd ref="775820860"/>
    <nd ref="775820861"/>
    <nd ref="775820862"/>
    <nd ref="775820863"/>
    <nd ref="775820864"/>
    <nd ref="410182080"/>
    <tag k="highway" v="unclassified"/>
    <tag k="maxspeed" v="50"/>
    <tag k="maxspeed:source" v="default residential speed limit in Australia"/>
    <tag k="name" v="Callistemon Street"/>
  </way>
  <way id="34952969" version="4" timestamp="2010-07-06T09:49:42Z" uid="74617" user="JohnSmith" changeset="5147679">
    <nd ref="410185423"/>
    <nd ref="362434261"/>
    <nd ref="362434262"/>
    <nd ref="362434264"/>
    <nd ref="362434265"/>
    <nd ref="474981804"/>
    <nd ref="474981799"/>
    <tag k="highway" v="unclassified"/>
    <tag k="maxspeed" v="50"/>
    <tag k="maxspeed:source" v="default residential speed limit in Australia"/>
    <tag k="name" v="Viola Place"/>
  </way>
  <way id="34952970" version="3" timestamp="2010-07-06T09:52:50Z" uid="74617" user="JohnSmith" changeset="5147679">
    <nd ref="345104634"/>
    <nd ref="474981780"/>
    <tag k="highway" v="unclassified"/>
    <tag k="maxspeed" v="50"/>
    <tag k="maxspeed:source" v="default residential speed limit in Australia"/>
    <tag k="name" v="Macarthur Avenue West"/>
  </way>
</osm>
