<?xml version='1.0' encoding='UTF-8'?>
<osm version="0.6" generator="libosmium/2.20.0">
  <way id="3508367" version="16" timestamp="2008-01-22T11:34:19Z" uid="7617" user="Franc" changeset="682440">
    <nd ref="17392793"/>
    <nd ref="17392794"/>
    <nd ref="96272613"/>
    <nd ref="17392795"/>
    <nd ref="17392796"/>
    <nd ref="17392797"/>
    <nd ref="17392798"/>
    <nd ref="17392799"/>
    <nd ref="17392801"/>
    <nd ref="17392806"/>
    <nd ref="17392810"/>
    <nd ref="17392813"/>
    <nd ref="17392817"/>
    <tag k="abutters" v="mixed"/>
    <tag k="created_by" v="Potlatch 0.5"/>
    <tag k="highway" v="trunk"/>
    <tag k="name" v="Pacific Highway"/>
    <tag k="ref" v="MR1"/>
    <tag k="source" v="survey"/>
  </way>
  <way id="3508367" version="17" timestamp="2008-01-24T05:05:43Z" uid="7617" user="Franc" changeset="689083">
    <nd ref="17392793"/>
    <nd ref="17392794"/>
    <nd ref="96272613"/>
    <nd ref="17392795"/>
    <nd ref="17392796"/>
    <nd ref="17392797"/>
    <nd ref="242860292"/>
    <nd ref="17392798"/>
    <nd ref="17392799"/>
    <nd ref="17392801"/>
    <nd ref="17392806"/>
    <nd ref="17392810"/>
    <nd ref="17392813"/>
    <nd ref="17392817"/>
    <tag k="abutters" v="mixed"/>
    <tag k="created_by" v="Potlatch 0.5"/>
    <tag k="highway" v="trunk"/>
    <tag k="name" v="Pacific Highway"/>
    <tag k="ref" v="MR1"/>
    <tag k="source" v="survey"/>
  </way>
  <way id="3508367" version="20" timestamp="2009-03-04T08:17:44Z" uid="61114" user="Trav" changeset="733303">
    <nd ref="17392793"/>
    <nd ref="17392794"/>
    <nd ref="96272613"/>
    <nd ref="17392795"/>
    <nd ref="17392796"/>
    <nd ref="283272865"/>
    <nd ref="242860292"/>
    <nd ref="17392798"/>
    <nd ref="17392799"/>
    <nd ref="355508098"/>
    <nd ref="17392801"/>
    <nd ref="17392806"/>
    <nd ref="17392810"/>
    <nd ref="17392813"/>
    <nd ref="17392817"/>
    <tag k="abutters" v="mixed"/>
    <tag k="created_by" v="Merkaartor 0.13"/>
    <tag k="highway" v="trunk"/>
    <tag k="name" v="Pacific Highway"/>
    <tag k="ref" v="MR1"/>
    <tag k="source" v="survey"/>
  </way>
  <way id="3508367" version="21" timestamp="2009-03-07T09:52:43Z" uid="61114" user="Trav" changeset="752969">
    <nd ref="17392793"/>
    <nd ref="17392794"/>
    <nd ref="96272613"/>
    <nd ref="17392795"/>
    <nd ref="17392796"/>
    <nd ref="283272865"/>
    <nd ref="242860292"/>
    <nd ref="17392798"/>
    <nd ref="17392799"/>
    <nd ref="355508098"/>
    <nd ref="356626871"/>
    <nd ref="17392801"/>
    <nd ref="17392806"/>
    <nd ref="17392810"/>
    <nd ref="17392813"/>
    <nd ref="17392817"/>
    <tag k="abutters" v="mixed"/>
    <tag k="created_by" v="Merkaartor 0.13"/>
    <tag k="highway" v="trunk"/>
    <tag k="name" v="Pacific Highway"/>
    <tag k="ref" v="MR1"/>
    <tag k="source" v="survey"/>
  </way>
  <way id="3508367" version="22" timestamp="2009-12-04T00:23:53Z" uid="30201" user="rrankin" changeset="3285224">
    <nd ref="17392793"/>
    <nd ref="17392794"/>
    <nd ref="96272613"/>
    <nd ref="17392795"/>
    <nd ref="17392796"/>
    <nd ref="283272865"/>
    <nd ref="242860292"/>
    <nd ref="17392798"/>
    <nd ref="17392799"/>
    <nd ref="355508098"/>
    <nd ref="356626871"/>
    <nd ref="17392801"/>
    <nd ref="17392806"/>
    <nd ref="17392810"/>
    <nd ref="17392813"/>
    <nd ref="17392817"/>
    <tag k="highway" v="trunk"/>
    <tag k="name" v="Pacific Highway"/>
    <tag k="ref" v="MR1"/>
    <tag k="source" v="survey"/>
  </way>
  <way id="3508367" version="23" timestamp="2010-01-15T12:55:05Z" uid="61114" user="Trav" changeset="3623940"/>
  <way id="3508764" version="7" timestamp="2009-08-16T05:56:58Z" uid="4467" user="Rosscoe" changeset="2160391">
    <nd ref="17395218"/>
    <nd ref="17395219"/>
    <nd ref="469079014"/>
    <tag k="highway" v="motorway"/>
    <tag k="layer" v="1"/>
    <tag k="name" v="Bradfield Highway"/>
    <tag k="oneway" v="yes"/>
  </way>
  <way id="3508815" version="2" timestamp="2008-05-03T23:50:12Z" uid="30201" user="rrankin" changeset="326090">
    <nd ref="17395614"/>
    <nd ref="26625419"/>
    <nd ref="17395613"/>
    <nd ref="17395610"/>
    <nd ref="26628045"/>
    <nd ref="17395609"/>
    <nd ref="17395608"/>
    <nd ref="17395607"/>
    <nd ref="26625772"/>
    <nd ref="26625424"/>
    <tag k="created_by" v="Potlatch alpha"/>
    <tag k="highway" v="motorway"/>
    <tag k="layer" v="2"/>
    <tag k="name" v="Western Distributor"/>
    <tag k="oneway" v="yes"/>
    <tag k="ref" v="MR4"/>
  </way>
  <way id="3508815" version="3" timestamp="2009-08-16T05:23:15Z" uid="4467" user="Rosscoe" changeset="2160248">
    <nd ref="17395614"/>
    <nd ref="26625419"/>
    <nd ref="17395613"/>
    <nd ref="17395610"/>
    <nd ref="26628045"/>
    <nd ref="17395609"/>
    <nd ref="17395608"/>
    <nd ref="17395607"/>
    <nd ref="26625772"/>
    <nd ref="26625424"/>
    <tag k="highway" v="motorway"/>
    <tag k="layer" v="2"/>
    <tag k="name" v="Western Distributor"/>
    <tag k="oneway" v="yes"/>
    <tag k="ref" v="MR4"/>
  </way>
  <way id="3508815" version="6" timestamp="2010-04-01T13:07:07Z" uid="74617" user="JohnSmith" changeset="4293399">
    <nd ref="600645148"/>
    <nd ref="20958875"/>
    <nd ref="599100142"/>
    <nd ref="20958876"/>
    <nd ref="598916849"/>
    <nd ref="26627283"/>
    <nd ref="20958877"/>
    <nd ref="26627284"/>
    <nd ref="26627285"/>
    <nd ref="26627286"/>
    <nd ref="679781293"/>
    <nd ref="26627287"/>
    <nd ref="17395614"/>
    <nd ref="26625419"/>
    <nd ref="17395613"/>
    <tag k="bridge" v="viaduct"/>
    <tag k="highway" v="motorway"/>
    <tag k="lanes" v="3"/>
    <tag k="layer" v="2"/>
    <tag k="maxspeed" v="60"/>
    <tag k="name" v="Western Distributor"/>
    <tag k="oneway" v="yes"/>
  </way>
</osm>
