<?xml version='1.0' encoding='UTF-8'?>
<osm version="0.6" generator="libosmium/2.20.0">
  <way id="35254103" version="1" timestamp="2009-05-30T23:02:14Z" uid="36809" user="pfoten_weg_!_" changeset="1364332">
    <nd ref="286080708"/>
    <nd ref="322139905"/>
    <nd ref="322139900"/>
    <nd ref="322139909"/>
    <nd ref="322139903"/>
    <tag k="highway" v="unclassified"/>
    <tag k="maxspeed" v="60"/>
    <tag k="name" v="Bad-Wörishofener-Straße"/>
    <tag k="oneway" v="yes"/>
    <tag k="source" v="survey"/>
    <tag k="width" v="5"/>
  </way>
  <way id="35254103" version="2" timestamp="2009-06-09T08:58:59Z" uid="36809" user="pfoten_weg_!_" changeset="1466365">
    <nd ref="286080708"/>
    <nd ref="322139905"/>
    <nd ref="322139900"/>
    <nd ref="322139909"/>
    <nd ref="322139903"/>
    <tag k="created_by" v="RambaZamba"/>
    <tag k="highway" v="unclassified"/>
    <tag k="maxspeed" v="60"/>
    <tag k="name" v="Bad-Wörishofener-Straße"/>
    <tag k="oneway" v="yes"/>
    <tag k="source" v="survey"/>
    <tag k="width" v="5"/>
  </way>
  <way id="35254103" version="3" timestamp="2009-07-13T11:17:35Z" uid="36809" user="pfoten_weg_!_" changeset="1815836">
    <nd ref="286080708"/>
    <nd ref="322139905"/>
    <nd ref="322139900"/>
    <nd ref="322139909"/>
    <nd ref="322139903"/>
    <tag k="highway" v="unclassified"/>
    <tag k="info" v="Pfoten WEG !"/>
    <tag k="maxspeed" v="60"/>
    <tag k="name" v="Bad-Wörishofener-Straße"/>
    <tag k="oneway" v="yes"/>
    <tag k="source" v="survey"/>
    <tag k="width" v="5"/>
  </way>
  <way id="35254103" version="4" timestamp="2009-07-14T14:31:28Z" uid="36809" user="pfoten_weg_!_" changeset="1827425"/>
  <way id="35254104" version="1" timestamp="2009-05-30T23:02:14Z" uid="36809" user="pfoten_weg_!_" changeset="1364332">
    <nd ref="279050643"/>
    <nd ref="296356866"/>
    <nd ref="286080708"/>
    <tag k="created_by" v="RambaZamba"/>
    <tag k="highway" v="motorway_link"/>
    <tag k="name" v="Bad-Wörishofener-Straße"/>
    <tag k="oneway" v="yes"/>
    <tag k="ref" v="AS München-Fürstenried"/>
    <tag k="source" v="survey"/>
  </way>
  <way id="35254104" version="3" timestamp="2009-06-09T08:58:58Z" uid="36809" user="pfoten_weg_!_" changeset="1466365">
    <nd ref="279050643"/>
    <nd ref="296356866"/>
    <nd ref="286080708"/>
    <tag k="created_by" v="RambaZamba"/>
    <tag k="highway" v="secondary"/>
    <tag k="name" v="Bad-Wörishofener-Straße"/>
    <tag k="oneway" v="yes"/>
    <tag k="ref" v="AS München-Fürstenried"/>
    <tag k="source" v="survey"/>
  </way>
  <way id="35254104" version="4" timestamp="2009-06-09T09:53:47Z" uid="36809" user="pfoten_weg_!_" changeset="1466742"/>
  <way id="35254105" version="1" timestamp="2009-05-30T23:02:14Z" uid="36809" user="pfoten_weg_!_" changeset="1364332">
    <nd ref="286080708"/>
    <nd ref="413289257"/>
    <nd ref="413289258"/>
    <nd ref="286281630"/>
    <tag k="created_by" v="RambaZamba"/>
    <tag k="highway" v="motorway_link"/>
    <tag k="name" v="Bad-Wörishofener-Straße"/>
    <tag k="oneway" v="yes"/>
    <tag k="ref" v="AS München-Fürstenried"/>
    <tag k="source" v="survey"/>
  </way>
  <way id="35254105" version="2" timestamp="2009-07-13T11:02:46Z" uid="36809" user="pfoten_weg_!_" changeset="1815700">
    <nd ref="286080708"/>
    <nd ref="413289257"/>
    <nd ref="413289258"/>
    <nd ref="286281630"/>
    <tag k="highway" v="motorway_link"/>
    <tag k="name" v="AS München-Fürstenried"/>
    <tag k="oneway" v="yes"/>
    <tag k="ref" v="AS München-Fürstenried"/>
    <tag k="source" v="survey"/>
  </way>
  <way id="35254105" version="3" timestamp="2009-07-13T11:17:36Z" uid="36809" user="pfoten_weg_!_" changeset="1815836"/>
  <way id="35254106" version="1" timestamp="2009-05-30T23:02:15Z" uid="36809" user="pfoten_weg_!_" changeset="1364332">
    <nd ref="287061796"/>
    <nd ref="413289260"/>
    <nd ref="413289259"/>
    <nd ref="79766554"/>
    <nd ref="413289261"/>
    <nd ref="296356867"/>
    <nd ref="286335200"/>
    <nd ref="413289262"/>
    <tag k="created_by" v="RambaZamba"/>
    <tag k="highway" v="motorway_link"/>
    <tag k="name" v="AS München-Fürstenried"/>
    <tag k="oneway" v="yes"/>
    <tag k="ref" v="3 AS"/>
    <tag k="source" v="survey"/>
  </way>
  <way id="35254106" version="2" timestamp="2009-07-13T22:48:43Z" uid="36809" user="pfoten_weg_!_" changeset="1822517">
    <nd ref="287061796"/>
    <nd ref="413289260"/>
    <nd ref="413289259"/>
    <nd ref="79766554"/>
    <nd ref="413289261"/>
    <nd ref="296356867"/>
    <nd ref="286335200"/>
    <nd ref="413289262"/>
    <tag k="highway" v="motorway_link"/>
    <tag k="layer" v="1"/>
    <tag k="name" v="AS München-Fürstenried"/>
    <tag k="oneway" v="yes"/>
    <tag k="ref" v="3 AS"/>
    <tag k="source" v="survey"/>
  </way>
  <way id="35254106" version="3" timestamp="2009-07-14T08:58:17Z" uid="36809" user="pfoten_weg_!_" changeset="1824989">
    <nd ref="287061796"/>
    <nd ref="413289260"/>
    <nd ref="413289259"/>
    <nd ref="79766554"/>
    <nd ref="413289261"/>
    <nd ref="296356867"/>
    <nd ref="286335200"/>
    <nd ref="413289262"/>
    <tag k="highway" v="motorway_link"/>
    <tag k="name" v="AS München-Fürstenried"/>
    <tag k="oneway" v="yes"/>
    <tag k="ref" v="3 AS"/>
    <tag k="source" v="survey"/>
  </way>
  <way id="35254106" version="4" timestamp="2009-07-14T17:23:32Z" uid="36809" user="pfoten_weg_!_" changeset="1828881">
    <nd ref="287061796"/>
    <nd ref="413289260"/>
    <nd ref="413289259"/>
    <nd ref="79766554"/>
    <nd ref="413289261"/>
    <nd ref="296356867"/>
    <nd ref="286335200"/>
    <nd ref="413289262"/>
    <tag k="discovered_by" v="RambaZamba"/>
    <tag k="highway" v="motorway_link"/>
    <tag k="name" v="AS München-Fürstenried"/>
    <tag k="oneway" v="yes"/>
    <tag k="ref" v="3 AS"/>
    <tag k="source" v="survey"/>
  </way>
  <way id="35254106" version="6" timestamp="2009-08-28T21:03:05Z" uid="36809" user="pfoten_weg_!_" changeset="2295155">
    <nd ref="287061796"/>
    <nd ref="413289260"/>
    <nd ref="413289259"/>
    <nd ref="79766554"/>
    <nd ref="413289261"/>
    <nd ref="296356867"/>
    <nd ref="286335200"/>
    <nd ref="413289262"/>
    <tag k="discovered_by" v="RambaZamba"/>
    <tag k="highway" v="motorway_link"/>
    <tag k="name" v="AS München-Fürstenried"/>
    <tag k="oneway" v="yes"/>
    <tag k="ref" v="3 AS"/>
    <tag k="source" v="survey"/>
  </way>
  <way id="35254106" version="8" timestamp="2009-09-01T11:01:49Z" uid="36809" user="pfoten_weg_!_" changeset="2335754">
    <nd ref="287061796"/>
    <nd ref="413289260"/>
    <nd ref="413289259"/>
    <nd ref="79766554"/>
    <nd ref="413289261"/>
    <nd ref="296356867"/>
    <nd ref="286335200"/>
    <nd ref="413289262"/>
    <tag k="highway" v="motorway_link"/>
    <tag k="name" v="AS München-Fürstenried"/>
    <tag k="oneway" v="yes"/>
    <tag k="ref" v="3 AS"/>
    <tag k="source" v="survey"/>
  </way>
  <way id="35254106" version="9" timestamp="2009-10-02T17:51:30Z" uid="86259" user="hasse_osm_korinthenkacker" changeset="2715119">
    <nd ref="287061796"/>
    <nd ref="413289260"/>
    <nd ref="413289259"/>
    <nd ref="79766554"/>
    <nd ref="413289261"/>
    <nd ref="296356867"/>
    <nd ref="286335200"/>
    <nd ref="413289262"/>
    <tag k="highway" v="motorway_link"/>
    <tag k="name" v="AS München-Fürstenried"/>
    <tag k="oneway" v="yes"/>
    <tag k="ref" v="3 AS"/>
  </way>
  <way id="35254106" version="10" timestamp="2009-10-20T01:28:15Z" uid="36809" user="pfoten_weg_!_" changeset="2899488"/>
  <way id="35254334" version="2" timestamp="2010-03-31T08:30:45Z" uid="38528" user="acrosscanadatrails" changeset="4283398">
    <nd ref="413151312"/>
    <nd ref="679039205"/>
    <nd ref="413129436"/>
    <tag k="attribution" v="GeoBase®"/>
    <tag k="geobase:acquisitionTechnique" v="GPS"/>
    <tag k="geobase:datasetName" v="NRN:Ontario"/>
    <tag k="geobase:uuid" v="149b29c365f343e6b4acdb39bd707394"/>
    <tag k="highway" v="residential"/>
    <tag k="is_in" v="Ontario,Canada"/>
    <tag k="lanes" v="2"/>
    <tag k="name" v="Edgar Street"/>
    <tag k="source" v="Geobase_Import_2009"/>
    <tag k="statscan:rbuid" v="1184332"/>
    <tag k="surface" v="unpaved"/>
  </way>
  <way id="35254402" version="2" timestamp="2010-04-13T02:31:52Z" uid="38528" user="acrosscanadatrails" changeset="4410332">
    <nd ref="413091895"/>
    <nd ref="413217135"/>
    <nd ref="413263060"/>
    <nd ref="413056130"/>
    <nd ref="413054207"/>
    <nd ref="413092823"/>
    <nd ref="413052039"/>
    <nd ref="413240454"/>
    <nd ref="413100528"/>
    <nd ref="413059402"/>
    <nd ref="413145347"/>
    <nd ref="413183744"/>
    <nd ref="413139334"/>
    <nd ref="412923577"/>
    <nd ref="413154541"/>
    <nd ref="413087710"/>
    <nd ref="413185070"/>
    <nd ref="413073065"/>
    <nd ref="413128657"/>
    <nd ref="413029463"/>
    <nd ref="413003222"/>
    <nd ref="413024764"/>
    <nd ref="413059499"/>
    <nd ref="413046850"/>
    <nd ref="413090606"/>
    <nd ref="413069884"/>
    <nd ref="413170207"/>
    <nd ref="413149823"/>
    <nd ref="413079815"/>
    <nd ref="413073094"/>
    <nd ref="413209265"/>
    <nd ref="413081073"/>
    <nd ref="413256364"/>
    <nd ref="413090055"/>
    <nd ref="413094783"/>
    <nd ref="413099099"/>
    <nd ref="413104006"/>
    <nd ref="413108540"/>
    <nd ref="413113660"/>
    <nd ref="413118152"/>
    <nd ref="413124351"/>
    <nd ref="413126479"/>
    <nd ref="413019868"/>
    <nd ref="413132727"/>
    <nd ref="413135536"/>
    <nd ref="413220430"/>
    <nd ref="413136505"/>
    <nd ref="413145260"/>
    <nd ref="413149400"/>
    <nd ref="413145140"/>
    <nd ref="413022219"/>
    <nd ref="413161012"/>
    <nd ref="413164928"/>
    <nd ref="413259381"/>
    <nd ref="413172022"/>
    <nd ref="413131375"/>
    <nd ref="413179833"/>
    <nd ref="413183589"/>
    <nd ref="413187689"/>
    <nd ref="412931620"/>
    <nd ref="413195397"/>
    <nd ref="694987393"/>
    <nd ref="413200121"/>
    <nd ref="412927570"/>
    <nd ref="413209019"/>
    <nd ref="413213831"/>
    <nd ref="413218682"/>
    <nd ref="413223711"/>
    <nd ref="413227997"/>
    <nd ref="413233740"/>
    <nd ref="413121928"/>
    <nd ref="413241325"/>
    <nd ref="413182419"/>
    <nd ref="413251956"/>
    <nd ref="413270789"/>
    <nd ref="413260092"/>
    <nd ref="412922386"/>
    <nd ref="412923804"/>
    <tag k="attribution" v="GeoBase®"/>
    <tag k="geobase:acquisitionTechnique" v="GPS"/>
    <tag k="geobase:datasetName" v="NRN:Ontario"/>
    <tag k="geobase:uuid" v="49147d645ff24f49a8f1cd940b83506c"/>
    <tag k="highway" v="residential"/>
    <tag k="is_in" v="Ontario,Canada"/>
    <tag k="lanes" v="1"/>
    <tag k="source" v="Geobase_Import_2009"/>
    <tag k="surface" v="unpaved"/>
  </way>
  <way id="35254803" version="2" timestamp="2010-03-31T07:19:00Z" uid="38528" user="acrosscanadatrails" changeset="4282948">
    <nd ref="413249969"/>
    <nd ref="413245903"/>
    <nd ref="679019435"/>
    <nd ref="413211403"/>
    <tag k="attribution" v="GeoBase®"/>
    <tag k="geobase:acquisitionTechnique" v="GPS"/>
    <tag k="geobase:datasetName" v="NRN:Ontario"/>
    <tag k="geobase:uuid" v="f23bd37e18cc444cbcaf4157ea46f049"/>
    <tag k="highway" v="residential"/>
    <tag k="is_in" v="Ontario,Canada"/>
    <tag k="lanes" v="2"/>
    <tag k="source" v="Geobase_Import_2009"/>
    <tag k="surface" v="unpaved"/>
  </way>
</osm>
