<?xml version='1.0' encoding='UTF-8'?>
<osm version="0.6" generator="libosmium/2.20.0">
  <way id="35277286" version="1" timestamp="2009-05-31T15:10:57Z" uid="123700" user="Mala" changeset="1369537">
    <nd ref="413518181"/>
    <nd ref="413518182"/>
    <nd ref="413518183"/>
    <nd ref="413518184"/>
    <nd ref="413518181"/>
    <tag k="amenity" v="library"/>
    <tag k="name" v="Biblioteka Raczyńskich"/>
  </way>
  <way id="35277286" version="2" timestamp="2009-06-01T03:35:46Z" uid="123700" user="Mala" changeset="1375128">
    <nd ref="413518181"/>
    <nd ref="413518182"/>
    <nd ref="413518183"/>
    <nd ref="413518184"/>
    <nd ref="413518181"/>
    <tag k="amenity" v="library"/>
    <tag k="building" v="hall"/>
    <tag k="name" v="Biblioteka Raczyńskich"/>
  </way>
  <way id="35277405" version="1" timestamp="2009-05-31T15:14:31Z" uid="123700" user="Mala" changeset="1369537">
    <nd ref="413519017"/>
    <nd ref="413519018"/>
    <nd ref="413519019"/>
    <nd ref="413519020"/>
    <nd ref="413519021"/>
    <nd ref="413519022"/>
    <nd ref="413519017"/>
    <tag k="building" v="amenities"/>
  </way>
  <way id="35277405" version="2" timestamp="2009-07-01T03:20:47Z" uid="20587" user="balrog-kun" changeset="1697137">
    <nd ref="413519017"/>
    <nd ref="413519022"/>
    <nd ref="413519021"/>
    <nd ref="413519020"/>
    <nd ref="413519019"/>
    <nd ref="413519018"/>
    <nd ref="413519017"/>
    <tag k="building" v="amenities"/>
  </way>
  <way id="35277467" version="1" timestamp="2009-05-31T15:18:35Z" uid="36809" user="pfoten_weg_!_" changeset="1370129">
    <nd ref="413519352"/>
    <nd ref="413519347"/>
    <nd ref="413519348"/>
    <nd ref="413519349"/>
    <nd ref="413519350"/>
    <nd ref="413519351"/>
    <nd ref="413519352"/>
    <tag k="created_by" v="RambaZamba"/>
    <tag k="landuse" v="commercial"/>
    <tag k="name" v="Speziallampen GmbH"/>
    <tag k="source" v="survey"/>
  </way>
  <way id="35277467" version="3" timestamp="2009-08-28T21:13:19Z" uid="36809" user="pfoten_weg_!_" changeset="2295155">
    <nd ref="413519352"/>
    <nd ref="413519347"/>
    <nd ref="413519348"/>
    <nd ref="413519349"/>
    <nd ref="413519350"/>
    <nd ref="413519351"/>
    <nd ref="413519352"/>
    <tag k="discovered_by" v="RambaZamba"/>
    <tag k="landuse" v="commercial"/>
    <tag k="name" v="Speziallampen GmbH"/>
    <tag k="source" v="survey"/>
  </way>
  <way id="35277467" version="5" timestamp="2009-09-01T10:41:34Z" uid="36809" user="pfoten_weg_!_" changeset="2335754">
    <nd ref="413519352"/>
    <nd ref="413519347"/>
    <nd ref="413519348"/>
    <nd ref="413519349"/>
    <nd ref="413519350"/>
    <nd ref="413519351"/>
    <nd ref="413519352"/>
    <tag k="landuse" v="commercial"/>
    <tag k="name" v="Speziallampen GmbH"/>
    <tag k="source" v="survey"/>
  </way>
  <way id="35277467" version="6" timestamp="2009-10-03T17:41:41Z" uid="179968" user="Ich_hasse_doitsche_OSM-Korinthenkacker" changeset="2727120">
    <nd ref="413519352"/>
    <nd ref="413519347"/>
    <nd ref="413519348"/>
    <nd ref="413519349"/>
    <nd ref="413519350"/>
    <nd ref="413519351"/>
    <nd ref="413519352"/>
    <tag k="landuse" v="commercial"/>
    <tag k="name" v="Speziallampen GmbH"/>
  </way>
  <way id="35277661" version="1" timestamp="2009-05-31T15:26:19Z" uid="123700" user="Mala" changeset="1369537">
    <nd ref="413521054"/>
    <nd ref="413521057"/>
    <nd ref="413521060"/>
    <nd ref="413521062"/>
    <nd ref="413521064"/>
    <nd ref="413521054"/>
    <tag k="name" v="Kupiec Poznański"/>
    <tag k="shop" v="mall"/>
    <tag k="wikipedia" v="Kupiec Poznański"/>
  </way>
  <way id="35277661" version="2" timestamp="2009-06-01T03:33:50Z" uid="123700" user="Mala" changeset="1375123">
    <nd ref="413521054"/>
    <nd ref="413521057"/>
    <nd ref="413521060"/>
    <nd ref="413521062"/>
    <nd ref="413521064"/>
    <nd ref="413521054"/>
    <tag k="building" v="hall"/>
    <tag k="name" v="Kupiec Poznański"/>
    <tag k="shop" v="mall"/>
    <tag k="wikipedia" v="Kupiec Poznański"/>
  </way>
  <way id="35277661" version="3" timestamp="2009-06-29T01:55:44Z" uid="20587" user="balrog-kun" changeset="1672485">
    <nd ref="413521054"/>
    <nd ref="413521057"/>
    <nd ref="413521060"/>
    <nd ref="413521062"/>
    <nd ref="413521064"/>
    <nd ref="413521054"/>
    <tag k="building" v="hall"/>
    <tag k="name" v="Kupiec Poznański"/>
    <tag k="shop" v="mall"/>
    <tag k="wikipedia" v="pl:Kupiec Poznański"/>
  </way>
  <way id="35277862" version="1" timestamp="2009-05-31T15:32:51Z" uid="123700" user="Mala" changeset="1369537">
    <nd ref="413525735"/>
    <nd ref="413525736"/>
    <nd ref="413525737"/>
    <nd ref="413525738"/>
    <nd ref="413525735"/>
    <tag k="amenity" v="university"/>
    <tag k="building" v="hall"/>
    <tag k="name" v="Wydział Informatyki i Zarządzania Politechniki Poznańskiej"/>
  </way>
  <way id="35277862" version="2" timestamp="2009-05-31T15:37:37Z" uid="123700" user="Mala" changeset="1369537">
    <nd ref="413525735"/>
    <nd ref="413525736"/>
    <nd ref="413525737"/>
    <nd ref="413525738"/>
    <nd ref="413525735"/>
    <tag k="addr:housenumber" v="11"/>
    <tag k="addr:postcode" v="60-965"/>
    <tag k="addr:street" v="Strzelecka"/>
    <tag k="amenity" v="university"/>
    <tag k="building" v="hall"/>
    <tag k="name" v="Wydział Informatyki i Zarządzania Politechniki Poznańskiej"/>
  </way>
  <way id="35277877" version="1" timestamp="2009-05-31T15:33:43Z" uid="58091" user="Andreas M" changeset="1370272">
    <nd ref="413526794"/>
    <nd ref="413526788"/>
    <nd ref="413526792"/>
    <nd ref="413526787"/>
    <nd ref="413526795"/>
    <nd ref="413526791"/>
    <nd ref="413526790"/>
    <nd ref="413526805"/>
    <nd ref="413526796"/>
    <nd ref="413526793"/>
    <nd ref="413526789"/>
    <nd ref="413526800"/>
    <nd ref="413526794"/>
    <tag k="addr:city" v="Wien"/>
    <tag k="addr:country" v="AT"/>
    <tag k="addr:housenumber" v="3"/>
    <tag k="addr:postcode" v="1020"/>
    <tag k="addr:street" v="Obermüllnerstraße"/>
    <tag k="building" v="yes"/>
  </way>
  <way id="35277878" version="1" timestamp="2009-05-31T15:33:44Z" uid="58091" user="Andreas M" changeset="1370272">
    <nd ref="413526799"/>
    <nd ref="413526794"/>
    <nd ref="413526800"/>
    <nd ref="413526803"/>
    <nd ref="413526797"/>
    <nd ref="413526796"/>
    <nd ref="413526805"/>
    <nd ref="413526806"/>
    <nd ref="413526802"/>
    <nd ref="413526801"/>
    <nd ref="413526798"/>
    <nd ref="413526804"/>
    <nd ref="413526799"/>
    <tag k="addr:city" v="Wien"/>
    <tag k="addr:country" v="AT"/>
    <tag k="addr:housenumber" v="5"/>
    <tag k="addr:postcode" v="1020"/>
    <tag k="addr:street" v="Obermüllnerstraße"/>
    <tag k="building" v="yes"/>
  </way>
  <way id="35277879" version="1" timestamp="2009-05-31T15:33:44Z" uid="58091" user="Andreas M" changeset="1370272">
    <nd ref="413526809"/>
    <nd ref="413526799"/>
    <nd ref="413526804"/>
    <nd ref="413526813"/>
    <nd ref="413526807"/>
    <nd ref="413526802"/>
    <nd ref="413526806"/>
    <nd ref="413526808"/>
    <nd ref="413526814"/>
    <nd ref="413526812"/>
    <nd ref="413526810"/>
    <nd ref="413526811"/>
    <nd ref="413526809"/>
    <tag k="addr:city" v="Wien"/>
    <tag k="addr:country" v="AT"/>
    <tag k="addr:housenumber" v="7"/>
    <tag k="addr:postcode" v="1020"/>
    <tag k="addr:street" v="Obermüllnerstraße"/>
    <tag k="building" v="yes"/>
  </way>
  <way id="35277881" version="1" timestamp="2009-05-31T15:33:44Z" uid="58091" user="Andreas M" changeset="1370272">
    <nd ref="413526815"/>
    <nd ref="413526816"/>
    <nd ref="413526817"/>
    <nd ref="413526818"/>
    <nd ref="413526819"/>
    <nd ref="413526820"/>
    <nd ref="413526821"/>
    <nd ref="413526791"/>
    <nd ref="413526790"/>
    <nd ref="413526822"/>
    <nd ref="413526815"/>
    <tag k="building" v="yes"/>
  </way>
  <way id="35277882" version="1" timestamp="2009-05-31T15:33:44Z" uid="58091" user="Andreas M" changeset="1370272">
    <nd ref="413526832"/>
    <nd ref="413526823"/>
    <nd ref="413526824"/>
    <nd ref="413526825"/>
    <nd ref="413526831"/>
    <nd ref="413526826"/>
    <nd ref="413526827"/>
    <nd ref="413526828"/>
    <nd ref="413526829"/>
    <nd ref="413526830"/>
    <nd ref="413526816"/>
    <nd ref="413526815"/>
    <nd ref="413526832"/>
    <tag k="addr:city" v="Wien"/>
    <tag k="addr:country" v="AT"/>
    <tag k="addr:housenumber" v="15"/>
    <tag k="addr:postcode" v="1020"/>
    <tag k="addr:street" v="Max-Winter-Platz"/>
    <tag k="building" v="yes"/>
  </way>
  <way id="35277883" version="1" timestamp="2009-05-31T15:33:44Z" uid="58091" user="Andreas M" changeset="1370272">
    <nd ref="413526835"/>
    <nd ref="413526840"/>
    <nd ref="413526839"/>
    <nd ref="413526838"/>
    <nd ref="413526836"/>
    <nd ref="413526834"/>
    <nd ref="413526826"/>
    <nd ref="413526831"/>
    <nd ref="413526837"/>
    <nd ref="413526833"/>
    <nd ref="413526823"/>
    <nd ref="413526832"/>
    <nd ref="413526835"/>
    <tag k="addr:city" v="Wien"/>
    <tag k="addr:country" v="AT"/>
    <tag k="addr:housenumber" v="14"/>
    <tag k="addr:postcode" v="1020"/>
    <tag k="addr:street" v="Max-Winter-Platz"/>
    <tag k="building" v="yes"/>
  </way>
  <way id="35277884" version="1" timestamp="2009-05-31T15:33:44Z" uid="58091" user="Andreas M" changeset="1370272">
    <nd ref="413526841"/>
    <nd ref="413526842"/>
    <nd ref="413526808"/>
    <nd ref="413526814"/>
    <nd ref="413526843"/>
    <nd ref="413526844"/>
    <nd ref="413526845"/>
    <nd ref="413526846"/>
    <nd ref="413526841"/>
    <tag k="addr:city" v="Wien"/>
    <tag k="addr:country" v="AT"/>
    <tag k="addr:housenumber" v="9"/>
    <tag k="addr:postcode" v="1020"/>
    <tag k="addr:street" v="Obermüllnerstraße"/>
    <tag k="building" v="yes"/>
  </way>
  <way id="35277885" version="1" timestamp="2009-05-31T15:33:44Z" uid="58091" user="Andreas M" changeset="1370272">
    <nd ref="413526847"/>
    <nd ref="413526848"/>
    <nd ref="413526835"/>
    <nd ref="413526840"/>
    <nd ref="413526849"/>
    <nd ref="413526850"/>
    <nd ref="413526847"/>
    <tag k="addr:city" v="Wien"/>
    <tag k="addr:country" v="AT"/>
    <tag k="addr:housenumber" v="2"/>
    <tag k="addr:postcode" v="1020"/>
    <tag k="addr:street" v="Erlafstraße"/>
    <tag k="building" v="yes"/>
  </way>
  <way id="35277886" version="1" timestamp="2009-05-31T15:33:44Z" uid="58091" user="Andreas M" changeset="1370272">
    <nd ref="413526851"/>
    <nd ref="413526852"/>
    <nd ref="413526853"/>
    <nd ref="413526854"/>
    <nd ref="413526855"/>
    <nd ref="413526856"/>
    <nd ref="413526851"/>
    <tag k="building" v="yes"/>
  </way>
  <way id="35277888" version="1" timestamp="2009-05-31T15:33:44Z" uid="58091" user="Andreas M" changeset="1370272">
    <nd ref="413526857"/>
    <nd ref="413526850"/>
    <nd ref="413526847"/>
    <nd ref="413526858"/>
    <nd ref="413526859"/>
    <nd ref="413526860"/>
    <nd ref="413526861"/>
    <nd ref="413526851"/>
    <nd ref="413526852"/>
    <nd ref="413526869"/>
    <nd ref="413526868"/>
    <nd ref="413526862"/>
    <nd ref="413526857"/>
    <tag k="addr:city" v="Wien"/>
    <tag k="addr:country" v="AT"/>
    <tag k="addr:housenumber" v="4-6"/>
    <tag k="addr:postcode" v="1020"/>
    <tag k="addr:street" v="Erlafstraße"/>
    <tag k="building" v="yes"/>
  </way>
  <way id="35277889" version="1" timestamp="2009-05-31T15:33:45Z" uid="58091" user="Andreas M" changeset="1370272">
    <nd ref="413526855"/>
    <nd ref="413526863"/>
    <nd ref="413526871"/>
    <nd ref="413526874"/>
    <nd ref="413526875"/>
    <nd ref="413526864"/>
    <nd ref="413526865"/>
    <nd ref="413526866"/>
    <nd ref="413526867"/>
    <nd ref="413526868"/>
    <nd ref="413526869"/>
    <nd ref="413526854"/>
    <nd ref="413526855"/>
    <tag k="addr:city" v="Wien"/>
    <tag k="addr:country" v="AT"/>
    <tag k="addr:housenumber" v="14-16"/>
    <tag k="addr:postcode" v="1020"/>
    <tag k="addr:street" v="Wohlmutstraße"/>
    <tag k="building" v="yes"/>
  </way>
  <way id="35277890" version="1" timestamp="2009-05-31T15:33:45Z" uid="58091" user="Andreas M" changeset="1370272">
    <nd ref="413526870"/>
    <nd ref="413526863"/>
    <nd ref="413526871"/>
    <nd ref="413526872"/>
    <nd ref="413526873"/>
    <nd ref="413526874"/>
    <nd ref="413526875"/>
    <nd ref="413526876"/>
    <nd ref="413526877"/>
    <nd ref="413526878"/>
    <nd ref="413526879"/>
    <nd ref="413526880"/>
    <nd ref="413526870"/>
    <tag k="addr:city" v="Wien"/>
    <tag k="addr:country" v="AT"/>
    <tag k="addr:housenumber" v="18"/>
    <tag k="addr:postcode" v="1020"/>
    <tag k="addr:street" v="Wohlmutstraße"/>
    <tag k="building" v="yes"/>
  </way>
  <way id="35277891" version="1" timestamp="2009-05-31T15:33:45Z" uid="58091" user="Andreas M" changeset="1370272">
    <nd ref="413526881"/>
    <nd ref="413526870"/>
    <nd ref="413526880"/>
    <nd ref="413526882"/>
    <nd ref="413526883"/>
    <nd ref="413526877"/>
    <nd ref="413526876"/>
    <nd ref="413526884"/>
    <nd ref="413526885"/>
    <nd ref="413526886"/>
    <nd ref="413526881"/>
    <tag k="addr:city" v="Wien"/>
    <tag k="addr:country" v="AT"/>
    <tag k="addr:housenumber" v="20"/>
    <tag k="addr:postcode" v="1020"/>
    <tag k="addr:street" v="Wohlmutstraße"/>
    <tag k="building" v="yes"/>
  </way>
  <way id="35277892" version="1" timestamp="2009-05-31T15:33:45Z" uid="58091" user="Andreas M" changeset="1370272">
    <nd ref="413526842"/>
    <nd ref="413526887"/>
    <nd ref="413526888"/>
    <nd ref="413526881"/>
    <nd ref="413526886"/>
    <nd ref="413526889"/>
    <nd ref="413526841"/>
    <nd ref="413526842"/>
    <tag k="building" v="yes"/>
  </way>
  <way id="35277951" version="1" timestamp="2009-05-31T15:34:30Z" uid="123700" user="Mala" changeset="1369537">
    <nd ref="413527278"/>
    <nd ref="413527279"/>
    <nd ref="413527280"/>
    <nd ref="413525736"/>
    <nd ref="413525735"/>
    <tag k="amenity" v="parking"/>
  </way>
</osm>
