<?xml version='1.0' encoding='UTF-8'?>
<osm version="0.6" generator="libosmium/2.20.0">
  <way id="3531084" version="8" timestamp="2008-08-17T14:38:27Z" uid="20587" user="balrog-kun" changeset="290382"/>
  <way id="3531542" version="3" timestamp="2009-08-06T18:28:38Z" uid="6269" user="Mueck" changeset="2058802">
    <nd ref="17198874"/>
    <nd ref="17198875"/>
    <nd ref="23621174"/>
    <nd ref="17198876"/>
    <tag k="highway" v="cycleway"/>
  </way>
  <way id="3531542" version="4" timestamp="2009-08-06T18:28:43Z" uid="6269" user="Mueck" changeset="2058802"/>
  <way id="3531547" version="3" timestamp="2009-05-12T10:08:26Z" uid="6269" user="Mueck" changeset="1162331"/>
  <way id="3531548" version="4" timestamp="2008-07-30T09:38:15Z" uid="6269" user="Mueck" changeset="628766">
    <nd ref="18308830"/>
    <nd ref="28783867"/>
    <nd ref="16261968"/>
    <nd ref="17070827"/>
    <nd ref="16261971"/>
    <nd ref="29399591"/>
    <tag k="created_by" v="Potlatch 0.10a"/>
    <tag k="highway" v="primary"/>
    <tag k="name" v="Rheinstraße"/>
    <tag k="note" v="im SHP des NVK: I"/>
  </way>
  <way id="3531548" version="5" timestamp="2008-08-04T17:50:42Z" uid="6269" user="Mueck" changeset="54102">
    <nd ref="18308830"/>
    <nd ref="28783867"/>
    <nd ref="16261968"/>
    <nd ref="17070827"/>
    <nd ref="16261971"/>
    <nd ref="29399591"/>
    <tag k="created_by" v="Potlatch 0.10b"/>
    <tag k="highway" v="secondary"/>
    <tag k="name" v="Rheinstraße"/>
    <tag k="note" v="im SHP des NVK: II"/>
  </way>
  <way id="3531548" version="6" timestamp="2008-08-04T17:51:12Z" uid="6269" user="Mueck" changeset="54102">
    <nd ref="18308830"/>
    <nd ref="28783867"/>
    <nd ref="16261968"/>
    <nd ref="17070827"/>
    <nd ref="16261971"/>
    <nd ref="29399591"/>
    <tag k="created_by" v="Potlatch 0.10b"/>
    <tag k="highway" v="secondary"/>
    <tag k="name" v="Rheinstraße"/>
    <tag k="note" v="im SHP des NVK: II"/>
  </way>
  <way id="3531548" version="7" timestamp="2008-08-04T17:52:11Z" uid="6269" user="Mueck" changeset="54102">
    <nd ref="18308830"/>
    <nd ref="28783867"/>
    <nd ref="16261968"/>
    <nd ref="17070827"/>
    <nd ref="16261971"/>
    <nd ref="29399591"/>
    <tag k="created_by" v="Potlatch 0.10b"/>
    <tag k="highway" v="secondary"/>
    <tag k="name" v="Rheinstraße"/>
    <tag k="note" v="im SHP des NVK: II"/>
  </way>
  <way id="3531549" version="2" timestamp="2008-05-18T14:45:21Z" uid="16922" user="amai" changeset="474593">
    <nd ref="14890774"/>
    <nd ref="21498803"/>
    <nd ref="14912566"/>
    <nd ref="14912567"/>
    <nd ref="21498797"/>
    <nd ref="31263504"/>
    <tag k="created_by" v="Potlatch 0.9a"/>
    <tag k="highway" v="primary"/>
    <tag k="name" v="Karl-Wilhelm-Straße"/>
  </way>
  <way id="3531549" version="3" timestamp="2008-07-30T09:58:50Z" uid="6269" user="Mueck" changeset="628766">
    <nd ref="14890774"/>
    <nd ref="21498803"/>
    <nd ref="14912566"/>
    <nd ref="14912567"/>
    <nd ref="21498797"/>
    <nd ref="31263504"/>
    <tag k="created_by" v="Potlatch 0.10a"/>
    <tag k="highway" v="secondary"/>
    <tag k="name" v="Karl-Wilhelm-Straße"/>
    <tag k="note" v="im SHP des NVK: II"/>
  </way>
  <way id="3531549" version="8" timestamp="2011-02-04T00:37:59Z" uid="6269" user="Mueck" changeset="7179414"/>
  <way id="3531551" version="2" timestamp="2011-04-06T22:39:15Z" uid="6269" user="Mueck" changeset="7789512">
    <nd ref="15612369"/>
    <nd ref="15612392"/>
    <nd ref="1235299507"/>
    <nd ref="29948652"/>
    <nd ref="15612364"/>
    <nd ref="15612365"/>
    <tag k="highway" v="unclassified"/>
    <tag k="name" v="Im Vogelsand"/>
  </way>
  <way id="3531552" version="2" timestamp="2008-08-09T01:08:51Z" uid="6269" user="Mueck" changeset="154032">
    <nd ref="15612356"/>
    <nd ref="26290861"/>
    <nd ref="25971894"/>
    <nd ref="25379641"/>
    <nd ref="18911745"/>
    <nd ref="15612355"/>
    <nd ref="31685133"/>
    <nd ref="15612354"/>
    <tag k="created_by" v="Potlatch 0.10b"/>
    <tag k="highway" v="tertiary"/>
    <tag k="name" v="Rintheimer Querallee"/>
    <tag k="note" v="im SHP des NVK: III"/>
  </way>
  <way id="3531552" version="4" timestamp="2009-04-22T19:39:23Z" uid="6269" user="Mueck" changeset="904745">
    <nd ref="15612356"/>
    <nd ref="381134398"/>
    <nd ref="26290861"/>
    <nd ref="343685022"/>
    <tag k="created_by" v="Merkaartor 0.13"/>
    <tag k="highway" v="tertiary"/>
    <tag k="lanes" v="4"/>
    <tag k="name" v="Rintheimer Querallee"/>
    <tag k="note" v="im SHP des NVK: III"/>
  </way>
  <way id="3531553" version="2" timestamp="2008-02-20T13:34:53Z" uid="6269" user="Mueck" changeset="164462">
    <nd ref="14912575"/>
    <nd ref="21498802"/>
    <nd ref="21498799"/>
    <nd ref="21498798"/>
    <nd ref="14911465"/>
    <tag k="created_by" v="Potlatch 0.7b"/>
    <tag k="highway" v="residential"/>
    <tag k="name" v="Ludwig-Wilhelm-Straße"/>
  </way>
  <way id="3531553" version="5" timestamp="2011-04-04T01:29:31Z" uid="6269" user="Mueck" changeset="7760460">
    <nd ref="14912575"/>
    <nd ref="1231749874"/>
    <nd ref="21498802"/>
    <nd ref="1231749971"/>
    <tag k="highway" v="service"/>
    <tag k="name" v="Ludwig-Wilhelm-Straße"/>
  </way>
  <way id="3531557" version="2" timestamp="2008-03-29T17:25:20Z" uid="16922" user="amai" changeset="420423">
    <nd ref="16375847"/>
    <nd ref="16375849"/>
    <tag k="created_by" v="Potlatch 0.8"/>
    <tag k="highway" v="living_street"/>
    <tag k="name" v="Veilchenstraße"/>
  </way>
  <way id="3531557" version="4" timestamp="2009-02-01T22:28:57Z" uid="6269" user="Mueck" changeset="68685">
    <nd ref="16375847"/>
    <nd ref="339879724"/>
    <nd ref="274957351"/>
    <nd ref="274957349"/>
    <tag k="created_by" v="Potlatch 0.10f"/>
    <tag k="highway" v="living_street"/>
    <tag k="name" v="Veilchenstraße"/>
  </way>
  <way id="3531557" version="5" timestamp="2009-04-27T11:26:06Z" uid="6269" user="Mueck" changeset="989391">
    <nd ref="16375847"/>
    <nd ref="339879724"/>
    <nd ref="274957351"/>
    <tag k="created_by" v="Potlatch 0.10f"/>
    <tag k="highway" v="living_street"/>
    <tag k="name" v="Veilchenstraße"/>
  </way>
  <way id="3531560" version="5" timestamp="2011-04-06T22:39:15Z" uid="6269" user="Mueck" changeset="7789512">
    <nd ref="15612392"/>
    <nd ref="1235299511"/>
    <nd ref="15612410"/>
    <nd ref="340178354"/>
    <tag k="highway" v="unclassified"/>
    <tag k="name" v="Wilhelm-Schickard-Straße"/>
  </way>
  <way id="3531561" version="3" timestamp="2011-04-06T22:39:15Z" uid="6269" user="Mueck" changeset="7789512">
    <nd ref="15612392"/>
    <nd ref="1235299524"/>
    <nd ref="15612394"/>
    <tag k="highway" v="unclassified"/>
    <tag k="name" v="Wilhelm-Schickard-Straße"/>
  </way>
  <way id="3531563" version="3" timestamp="2011-02-10T23:16:25Z" uid="6269" user="Mueck" changeset="7250518">
    <nd ref="26699574"/>
    <nd ref="1146328868"/>
    <nd ref="1146328871"/>
    <nd ref="1146328874"/>
    <nd ref="26699576"/>
    <nd ref="15612360"/>
    <nd ref="1115689135"/>
    <nd ref="15612362"/>
    <nd ref="15612364"/>
    <nd ref="29948655"/>
    <nd ref="15612412"/>
    <nd ref="15612413"/>
    <nd ref="15612415"/>
    <nd ref="15612417"/>
    <nd ref="15612418"/>
    <nd ref="15612421"/>
    <nd ref="15612423"/>
    <nd ref="15612424"/>
    <nd ref="15612427"/>
    <nd ref="15612429"/>
    <nd ref="15612430"/>
    <nd ref="15612432"/>
    <nd ref="15612412"/>
    <tag k="highway" v="unclassified"/>
    <tag k="name" v="Albert-Nestler-Straße"/>
  </way>
  <way id="3531565" version="5" timestamp="2011-04-06T22:39:15Z" uid="6269" user="Mueck" changeset="7789512">
    <nd ref="15612359"/>
    <nd ref="1115789079"/>
    <nd ref="1115789101"/>
    <nd ref="1116117285"/>
    <nd ref="1115789055"/>
    <nd ref="26699575"/>
    <nd ref="1235299512"/>
    <nd ref="15612370"/>
    <tag k="highway" v="unclassified"/>
  </way>
  <way id="3531567" version="6" timestamp="2011-04-06T22:39:16Z" uid="6269" user="Mueck" changeset="7789512">
    <nd ref="15612358"/>
    <nd ref="796447724"/>
    <nd ref="796445759"/>
    <nd ref="15612443"/>
    <nd ref="15612433"/>
    <nd ref="340178355"/>
    <nd ref="1235299501"/>
    <nd ref="340178356"/>
    <nd ref="340178357"/>
    <nd ref="15612370"/>
    <tag k="highway" v="cycleway"/>
    <tag k="source" v="survey"/>
    <tag k="surface" v="paved"/>
  </way>
  <way id="3531568" version="2" timestamp="2008-07-30T10:28:35Z" uid="6269" user="Mueck" changeset="628766">
    <nd ref="21498796"/>
    <nd ref="21498811"/>
    <nd ref="21618136"/>
    <nd ref="14911409"/>
    <nd ref="29947553"/>
    <nd ref="14911410"/>
    <nd ref="21421061"/>
    <nd ref="14911403"/>
    <tag k="created_by" v="Potlatch 0.10a"/>
    <tag k="highway" v="secondary"/>
    <tag k="name" v="Wolfartsweierer Straße"/>
    <tag k="note" v="im SHP des NVK: II"/>
  </way>
  <way id="3531568" version="8" timestamp="2010-05-02T23:49:57Z" uid="6269" user="Mueck" changeset="4591215">
    <nd ref="21498796"/>
    <nd ref="718121853"/>
    <nd ref="421656398"/>
    <nd ref="463206977"/>
    <tag k="bicycle" v="designated"/>
    <tag k="cycleway" v="lane"/>
    <tag k="highway" v="secondary"/>
    <tag k="lanes" v="3"/>
    <tag k="name" v="Wolfartsweierer Straße"/>
    <tag k="note" v="im SHP des NVK: II"/>
  </way>
  <way id="3531568" version="9" timestamp="2011-02-04T15:12:51Z" uid="6269" user="Mueck" changeset="7184150">
    <nd ref="21498796"/>
    <nd ref="421656398"/>
    <nd ref="463206977"/>
    <tag k="bicycle" v="designated"/>
    <tag k="cycleway" v="lane"/>
    <tag k="highway" v="secondary"/>
    <tag k="lanes" v="3"/>
    <tag k="name" v="Wolfartsweierer Straße"/>
    <tag k="note" v="im SHP des NVK: II"/>
  </way>
  <way id="3531568" version="10" timestamp="2011-03-21T23:41:14Z" uid="6269" user="Mueck" changeset="7632655">
    <nd ref="21498796"/>
    <nd ref="1212673664"/>
    <nd ref="421656398"/>
    <nd ref="463206977"/>
    <tag k="bicycle" v="designated"/>
    <tag k="cycleway" v="lane"/>
    <tag k="highway" v="secondary"/>
    <tag k="lanes" v="3"/>
    <tag k="name" v="Wolfartsweierer Straße"/>
    <tag k="note" v="im SHP des NVK: II"/>
  </way>
  <way id="3531573" version="4" timestamp="2008-02-13T23:21:47Z" uid="6269" user="Mueck" changeset="116769">
    <nd ref="27549652"/>
    <nd ref="89104997"/>
    <nd ref="26065449"/>
    <nd ref="15357716"/>
    <nd ref="15357717"/>
    <nd ref="15357718"/>
    <nd ref="15357720"/>
    <nd ref="15357721"/>
    <nd ref="15357722"/>
    <tag k="created_by" v="Potlatch 0.7a"/>
    <tag k="highway" v="secondary"/>
    <tag k="maxspeed" v="50"/>
    <tag k="name" v="August-Bebel-Straße"/>
  </way>
  <way id="3531573" version="10" timestamp="2008-07-30T09:27:31Z" uid="6269" user="Mueck" changeset="628766">
    <nd ref="27549652"/>
    <nd ref="89104997"/>
    <nd ref="26065449"/>
    <nd ref="248933321"/>
    <nd ref="248931150"/>
    <nd ref="15357716"/>
    <nd ref="248933318"/>
    <nd ref="248931114"/>
    <nd ref="248931143"/>
    <nd ref="248933316"/>
    <nd ref="248933308"/>
    <nd ref="248931140"/>
    <nd ref="248933314"/>
    <nd ref="248931134"/>
    <nd ref="248933313"/>
    <nd ref="15357717"/>
    <nd ref="248931127"/>
    <nd ref="248931122"/>
    <nd ref="15357718"/>
    <nd ref="15357720"/>
    <nd ref="15357721"/>
    <nd ref="15357722"/>
    <tag k="created_by" v="Potlatch 0.10a"/>
    <tag k="highway" v="tertiary"/>
    <tag k="maxspeed" v="50"/>
    <tag k="name" v="August-Bebel-Straße"/>
    <tag k="note" v="im SHP des NVK: III"/>
    <tag k="oneway" v="no"/>
    <tag k="postal_code" v="76187"/>
  </way>
  <way id="3531647" version="6" timestamp="2011-02-02T14:38:04Z" uid="6269" user="Mueck" changeset="7165051">
    <nd ref="412346"/>
    <nd ref="1132375115"/>
    <nd ref="412347"/>
    <nd ref="286069026"/>
    <nd ref="412348"/>
    <tag k="highway" v="primary"/>
    <tag k="name" v="Am Entenfang"/>
    <tag k="oneway" v="yes"/>
  </way>
  <way id="3531648" version="2" timestamp="2008-03-31T19:43:17Z" uid="16922" user="amai" changeset="434241">
    <nd ref="412344"/>
    <nd ref="412345"/>
    <nd ref="26470142"/>
    <tag k="created_by" v="Potlatch 0.8a"/>
    <tag k="highway" v="primary"/>
    <tag k="name" v="Vogesenbrücke"/>
    <tag k="oneway" v="true"/>
  </way>
  <way id="3531648" version="6" timestamp="2011-02-14T23:32:29Z" uid="6269" user="Mueck" changeset="7290890">
    <nd ref="26470125"/>
    <nd ref="412344"/>
    <nd ref="1126475855"/>
    <nd ref="1153718275"/>
    <nd ref="412345"/>
    <nd ref="1126475580"/>
    <nd ref="1126475907"/>
    <nd ref="1126475781"/>
    <nd ref="26470142"/>
    <tag k="highway" v="primary"/>
    <tag k="name" v="Vogesenbrücke"/>
    <tag k="oneway" v="yes"/>
  </way>
  <way id="3531770" version="7" timestamp="2010-11-06T17:08:34Z" uid="6269" user="Mueck" changeset="6304139">
    <nd ref="14961462"/>
    <nd ref="25996949"/>
    <nd ref="27046212"/>
    <tag k="highway" v="primary"/>
    <tag k="maxspeed" v="50"/>
    <tag k="name" v="Michelinstraße"/>
    <tag k="oneway" v="yes"/>
    <tag k="ref" v="B 36"/>
  </way>
  <way id="3531770" version="8" timestamp="2011-02-14T23:32:30Z" uid="6269" user="Mueck" changeset="7290890">
    <nd ref="1153718518"/>
    <nd ref="1153718837"/>
    <nd ref="1153718189"/>
    <nd ref="1153718430"/>
    <nd ref="1153718167"/>
    <nd ref="25996949"/>
    <nd ref="27046212"/>
    <tag k="highway" v="primary"/>
    <tag k="maxspeed" v="50"/>
    <tag k="name" v="Michelinstraße"/>
    <tag k="oneway" v="yes"/>
    <tag k="ref" v="B 36"/>
  </way>
  <way id="3531772" version="2" timestamp="2008-02-20T12:00:05Z" uid="6269" user="Mueck" changeset="164462">
    <nd ref="26468439"/>
    <nd ref="14961465"/>
    <nd ref="25997985"/>
    <nd ref="14961464"/>
    <nd ref="14961463"/>
    <nd ref="31154326"/>
    <tag k="created_by" v="Potlatch 0.7b"/>
    <tag k="highway" v="primary"/>
    <tag k="name" v="Eckenerstraße"/>
    <tag k="oneway" v="true"/>
    <tag k="ref" v="B36"/>
  </way>
  <way id="3531772" version="8" timestamp="2011-02-15T00:29:50Z" uid="6269" user="Mueck" changeset="7291158">
    <nd ref="26468439"/>
    <nd ref="14961465"/>
    <nd ref="1130680654"/>
    <nd ref="1130680862"/>
    <nd ref="1130680624"/>
    <nd ref="25997985"/>
    <nd ref="1153816657"/>
    <nd ref="14961464"/>
    <nd ref="1153816663"/>
    <nd ref="14961463"/>
    <nd ref="31154326"/>
    <tag k="highway" v="primary"/>
    <tag k="maxspeed" v="50"/>
    <tag k="name" v="Eckenerstraße"/>
    <tag k="oneway" v="yes"/>
    <tag k="ref" v="B 36"/>
  </way>
  <way id="3531927" version="3" timestamp="2008-09-25T21:04:38Z" uid="6269" user="Mueck" changeset="695572">
    <nd ref="15520042"/>
    <nd ref="135838510"/>
    <nd ref="16082746"/>
    <nd ref="31236259"/>
    <nd ref="16082744"/>
    <nd ref="16082743"/>
    <nd ref="17496594"/>
    <nd ref="299828909"/>
    <tag k="created_by" v="Potlatch 0.10b"/>
    <tag k="highway" v="residential"/>
    <tag k="name" v="Schillerstraße"/>
  </way>
  <way id="3531927" version="8" timestamp="2011-01-30T13:03:49Z" uid="6269" user="Mueck" changeset="7133406">
    <nd ref="15520042"/>
    <nd ref="135838510"/>
    <nd ref="1127895571"/>
    <nd ref="16082746"/>
    <nd ref="1127895605"/>
    <nd ref="31236259"/>
    <nd ref="16082744"/>
    <nd ref="16082743"/>
    <nd ref="17496594"/>
    <nd ref="299828909"/>
    <tag k="highway" v="residential"/>
    <tag k="maxspeed" v="30"/>
    <tag k="name" v="Schillerstraße"/>
    <tag k="oneway" v="yes"/>
  </way>
  <way id="3531927" version="9" timestamp="2011-01-30T13:17:50Z" uid="6269" user="Mueck" changeset="7133406">
    <nd ref="15520042"/>
    <nd ref="135838510"/>
    <nd ref="1127895571"/>
    <nd ref="16082746"/>
    <nd ref="1127895605"/>
    <nd ref="1127916121"/>
    <nd ref="1127916137"/>
    <nd ref="1127916116"/>
    <nd ref="31236259"/>
    <nd ref="1127916126"/>
    <nd ref="16082744"/>
    <nd ref="1127916176"/>
    <nd ref="16082743"/>
    <nd ref="1127916168"/>
    <nd ref="1127916166"/>
    <nd ref="1127916118"/>
    <nd ref="1127916132"/>
    <nd ref="1127916161"/>
    <nd ref="1127916158"/>
    <nd ref="17496594"/>
    <nd ref="299828909"/>
    <tag k="highway" v="residential"/>
    <tag k="maxspeed" v="30"/>
    <tag k="name" v="Schillerstraße"/>
    <tag k="oneway" v="yes"/>
  </way>
  <way id="3531927" version="10" timestamp="2011-01-30T14:07:55Z" uid="6269" user="Mueck" changeset="7134515">
    <nd ref="15520042"/>
    <nd ref="135838510"/>
    <nd ref="1127895571"/>
    <nd ref="1127959400"/>
    <nd ref="16082746"/>
    <nd ref="1127895605"/>
    <nd ref="1127916121"/>
    <nd ref="1127916137"/>
    <nd ref="1127916116"/>
    <nd ref="31236259"/>
    <nd ref="1127916126"/>
    <nd ref="16082744"/>
    <nd ref="1127916176"/>
    <nd ref="16082743"/>
    <nd ref="1127916168"/>
    <nd ref="1127916166"/>
    <nd ref="1127916118"/>
    <nd ref="1127916132"/>
    <nd ref="1127916161"/>
    <nd ref="1127916158"/>
    <nd ref="17496594"/>
    <nd ref="299828909"/>
    <tag k="highway" v="residential"/>
    <tag k="maxspeed" v="30"/>
    <tag k="name" v="Schillerstraße"/>
    <tag k="oneway" v="yes"/>
  </way>
  <way id="3531927" version="11" timestamp="2011-01-31T12:59:43Z" uid="6269" user="Mueck" changeset="7144777">
    <nd ref="15520042"/>
    <nd ref="135838510"/>
    <nd ref="1127895571"/>
    <nd ref="1127959400"/>
    <nd ref="16082746"/>
    <nd ref="1127895605"/>
    <nd ref="1127916121"/>
    <nd ref="1127916137"/>
    <nd ref="1127916116"/>
    <nd ref="31236259"/>
    <nd ref="1127916126"/>
    <nd ref="16082744"/>
    <nd ref="1127916176"/>
    <nd ref="16082743"/>
    <nd ref="1127916168"/>
    <nd ref="1127916166"/>
    <nd ref="1127916118"/>
    <nd ref="1127916132"/>
    <nd ref="1127916161"/>
    <nd ref="1127916158"/>
    <nd ref="1129382387"/>
    <nd ref="1129382378"/>
    <nd ref="17496594"/>
    <nd ref="1129382361"/>
    <nd ref="1129382377"/>
    <nd ref="1129382383"/>
    <nd ref="299828909"/>
    <tag k="highway" v="residential"/>
    <tag k="maxspeed" v="30"/>
    <tag k="name" v="Schillerstraße"/>
    <tag k="oneway" v="yes"/>
  </way>
  <way id="3531927" version="12" timestamp="2011-01-31T15:24:36Z" uid="6269" user="Mueck" changeset="7145926">
    <nd ref="15520042"/>
    <nd ref="135838510"/>
    <nd ref="1127895571"/>
    <nd ref="1127959400"/>
    <nd ref="16082746"/>
    <nd ref="1127895605"/>
    <nd ref="1127916121"/>
    <nd ref="1127916137"/>
    <nd ref="1127916116"/>
    <nd ref="31236259"/>
    <nd ref="1127916126"/>
    <nd ref="16082744"/>
    <nd ref="1127916176"/>
    <nd ref="16082743"/>
    <nd ref="1127916168"/>
    <nd ref="1127916166"/>
    <nd ref="1127916118"/>
    <nd ref="1127916132"/>
    <nd ref="1127916161"/>
    <nd ref="1127916158"/>
    <nd ref="1129382387"/>
    <nd ref="1129382378"/>
    <nd ref="17496594"/>
    <nd ref="1129382361"/>
    <nd ref="1129382377"/>
    <nd ref="1129382383"/>
    <nd ref="1129495074"/>
    <nd ref="299828909"/>
    <tag k="highway" v="residential"/>
    <tag k="maxspeed" v="30"/>
    <tag k="name" v="Schillerstraße"/>
    <tag k="oneway" v="yes"/>
  </way>
</osm>
