<?xml version='1.0' encoding='UTF-8'?>
<osm version="0.6" generator="libosmium/2.20.0">
  <way id="35448031" version="3" timestamp="2011-04-26T17:14:27Z" uid="9581" user="Lobelt" changeset="7977082">
    <nd ref="415798515"/>
    <nd ref="415799352"/>
    <nd ref="415799382"/>
    <nd ref="1261014052"/>
    <tag k="highway" v="tertiary"/>
    <tag k="ref" v="K 629"/>
  </way>
  <way id="35448159" version="2" timestamp="2009-08-18T08:13:00Z" uid="66036" user="h4v" changeset="2186777">
    <nd ref="470241739"/>
    <nd ref="470241741"/>
    <nd ref="415800360"/>
    <nd ref="415800359"/>
    <nd ref="395538866"/>
    <tag k="highway" v="footway"/>
  </way>
  <way id="35448161" version="2" timestamp="2009-08-20T11:50:05Z" uid="66036" user="h4v" changeset="2211499">
    <nd ref="415800363"/>
    <nd ref="415800364"/>
    <nd ref="415800365"/>
    <nd ref="415800366"/>
    <nd ref="415800367"/>
    <nd ref="415800368"/>
    <nd ref="471471670"/>
    <nd ref="471471672"/>
    <tag k="highway" v="footway"/>
  </way>
  <way id="35448162" version="2" timestamp="2009-08-18T08:12:56Z" uid="66036" user="h4v" changeset="2186777">
    <nd ref="470241737"/>
    <nd ref="470241736"/>
    <nd ref="415800371"/>
    <nd ref="415800372"/>
    <nd ref="415800373"/>
    <nd ref="470241735"/>
    <nd ref="415800374"/>
    <nd ref="415800375"/>
    <nd ref="415800376"/>
    <nd ref="415800377"/>
    <nd ref="415800378"/>
    <tag k="highway" v="footway"/>
  </way>
  <way id="35448188" version="1" timestamp="2009-06-04T20:54:29Z" uid="38528" user="acrosscanadatrails" changeset="1424803">
    <nd ref="415800663"/>
    <nd ref="415800664"/>
    <nd ref="415800665"/>
    <nd ref="415800666"/>
    <nd ref="415800667"/>
    <nd ref="415800668"/>
    <nd ref="415800669"/>
    <nd ref="415800670"/>
    <nd ref="415800671"/>
    <nd ref="415800672"/>
    <nd ref="415800673"/>
    <nd ref="415793814"/>
    <tag k="highway" v="path"/>
    <tag k="sac_scale" v="hiking"/>
  </way>
  <way id="35448189" version="1" timestamp="2009-06-04T20:54:29Z" uid="38528" user="acrosscanadatrails" changeset="1424803">
    <nd ref="415800674"/>
    <nd ref="415800675"/>
    <nd ref="415800676"/>
    <nd ref="415800677"/>
    <nd ref="415800678"/>
    <nd ref="415800679"/>
    <nd ref="415800680"/>
    <nd ref="415800681"/>
    <nd ref="415800682"/>
    <nd ref="415800683"/>
    <nd ref="415800663"/>
    <tag k="highway" v="path"/>
    <tag k="surface" v="grass/dirt"/>
  </way>
  <way id="35448190" version="1" timestamp="2009-06-04T20:54:29Z" uid="38528" user="acrosscanadatrails" changeset="1424803">
    <nd ref="415800684"/>
    <nd ref="415800685"/>
    <nd ref="415800686"/>
    <nd ref="415800687"/>
    <nd ref="415800688"/>
    <nd ref="415800674"/>
    <nd ref="415800689"/>
    <nd ref="415800690"/>
    <nd ref="415800691"/>
    <nd ref="415800692"/>
    <nd ref="415800693"/>
    <nd ref="415800694"/>
    <nd ref="415800695"/>
    <tag k="bicycle" v="yes"/>
    <tag k="foot" v="yes"/>
    <tag k="highway" v="track"/>
    <tag k="motorcar" v="no"/>
    <tag k="motorcycle" v="no"/>
    <tag k="surface" v="gravel"/>
    <tag k="tracktype" v="grade1"/>
  </way>
  <way id="35448191" version="1" timestamp="2009-06-04T20:54:29Z" uid="38528" user="acrosscanadatrails" changeset="1424803">
    <nd ref="415800696"/>
    <nd ref="415800697"/>
    <nd ref="415800695"/>
    <nd ref="415800698"/>
    <nd ref="415800699"/>
    <nd ref="415800700"/>
    <tag k="bicycle" v="yes"/>
    <tag k="foot" v="yes"/>
    <tag k="highway" v="path"/>
    <tag k="motorcar" v="no"/>
    <tag k="surface" v="dirt"/>
  </way>
  <way id="35448192" version="1" timestamp="2009-06-04T20:54:29Z" uid="38528" user="acrosscanadatrails" changeset="1424803">
    <nd ref="415800701"/>
    <nd ref="415800704"/>
    <nd ref="415800714"/>
    <nd ref="415800702"/>
    <nd ref="415800707"/>
    <nd ref="415800710"/>
    <nd ref="415800703"/>
    <nd ref="415800712"/>
    <nd ref="415800706"/>
    <nd ref="415800709"/>
    <nd ref="415800705"/>
    <nd ref="415800708"/>
    <nd ref="415800713"/>
    <nd ref="415800711"/>
    <tag k="addr:city" v="Cranbrook"/>
    <tag k="addr:city:right" v="Cranbrook"/>
    <tag k="addr:housenumber" v="0"/>
    <tag k="addr:housenumber:first:left" v="0"/>
    <tag k="addr:housenumber:first:right" v="0"/>
    <tag k="addr:housenumber:last:left" v="0"/>
    <tag k="addr:housenumber:last:right" v="0"/>
    <tag k="addr:province" v="British Columbia"/>
    <tag k="addr:street" v="College Way"/>
    <tag k="attribution" v="Natural Resources Canada"/>
    <tag k="canvec:ACQTECH" v="GPS"/>
    <tag k="canvec:ADRANGENID" v="b6e9e12af50c11dc9cb7000ea65e52d8"/>
    <tag k="canvec:CODE" v="1760011"/>
    <tag k="canvec:CODEPROV" v="British Columbia"/>
    <tag k="canvec:CREDATE" v="199707"/>
    <tag k="canvec:EXITNO" v="nul"/>
    <tag k="canvec:L_ADDDIRFG:3" v="Not applicable"/>
    <tag k="canvec:L_HNUMF" v="0"/>
    <tag k="canvec:L_HNUML" v="0"/>
    <tag k="canvec:L_PLACENAM" v="Cranbrook"/>
    <tag k="canvec:L_STNAME" v="College Way"/>
    <tag k="canvec:NOLANES" v="2"/>
    <tag k="canvec:PAVSTATUS" v="Paved"/>
    <tag k="canvec:PAVSURF" v="Unknown"/>
    <tag k="canvec:PROVIDER" v="provincial_territorial"/>
    <tag k="canvec:Planimetric Accuracy (CMAS)" v="10"/>
    <tag k="canvec:REVDATE" v="200803"/>
    <tag k="canvec:ROADCLASS" v="Local/Street"/>
    <tag k="canvec:ROADSEG_UUID" v="166189"/>
    <tag k="canvec:RTENAME1EN" v="-"/>
    <tag k="canvec:RTENAME1FR" v="-"/>
    <tag k="canvec:RTENAME2EN" v="-"/>
    <tag k="canvec:RTENAME2FR" v="-"/>
    <tag k="canvec:RTENAME3EN" v="-"/>
    <tag k="canvec:RTENAME3FR" v="-"/>
    <tag k="canvec:RTENAME4EN" v="-"/>
    <tag k="canvec:RTENAME4FR" v="-"/>
    <tag k="canvec:RTENUMBER1" v="-"/>
    <tag k="canvec:RTENUMBER2" v="-"/>
    <tag k="canvec:RTENUMBER3" v="-"/>
    <tag k="canvec:RTENUMBER4" v="-"/>
    <tag k="canvec:RTENUMBER5" v="-"/>
    <tag k="canvec:R_ADDDIRFG" v="Not applicable"/>
    <tag k="canvec:R_HNUMF" v="0"/>
    <tag k="canvec:R_HNUML" v="0"/>
    <tag k="canvec:R_PLACENAM" v="Cranbrook"/>
    <tag k="canvec:R_STNAME" v="College Way"/>
    <tag k="canvec:SOURCEID" v="4054583c968311d99c9f000ea65e52d8"/>
    <tag k="canvec:SOURCEID_UUID" v="4054583c968311d99c9f000ea65e52d8"/>
    <tag k="canvec:STDVER" v="2.0"/>
    <tag k="canvec:STRUCID" v="-"/>
    <tag k="canvec:STRUCTYPE" v="none"/>
    <tag k="canvec:STRUNAMEEN" v="-"/>
    <tag k="canvec:STRUNAMEFR" v="-"/>
    <tag k="canvec:Theme" v="TR Transportation"/>
    <tag k="canvec:UNPAVSURF" v="None"/>
    <tag k="canvec:UUID" v="ab30c167b7774ec29509dab8638c2ac4"/>
    <tag k="canvec:VALDATE" v="200803"/>
    <tag k="canvec:datasetName" v="082G12"/>
    <tag k="canvec:source" v="CanVec_Feature_Catalogue_Edition_1_0_2.pdf"/>
    <tag k="created_by" v="canvec2osm"/>
    <tag k="highway" v="residential"/>
    <tag k="highway:ramp:number" v="-"/>
    <tag k="is_in" v="British Columbia"/>
    <tag k="is_in:left" v="Cranbrook"/>
    <tag k="lanes" v="2"/>
    <tag k="name" v="0"/>
    <tag k="name:en" v="nul"/>
    <tag k="name:fr" v="-"/>
    <tag k="paved" v="yes"/>
    <tag k="route1:number" v="-"/>
    <tag k="route2:number" v="-"/>
    <tag k="route3:number" v="-"/>
    <tag k="route4:number" v="-"/>
    <tag k="route5:number" v="-"/>
    <tag k="route:name1:fr" v="-"/>
    <tag k="route:name2:fr" v="-"/>
    <tag k="route:name3:fr" v="-"/>
    <tag k="route:name4:fr" v="-"/>
    <tag k="source" v="CanVec_Import_2009"/>
    <tag k="structure:name:en" v="nul"/>
    <tag k="surface" v="unknown"/>
  </way>
  <way id="35448193" version="1" timestamp="2009-06-04T20:54:30Z" uid="38528" user="acrosscanadatrails" changeset="1424803">
    <nd ref="415800715"/>
    <nd ref="415800737"/>
    <nd ref="415800716"/>
    <tag k="addr:city" v="Cranbrook"/>
    <tag k="addr:city:right" v="Cranbrook"/>
    <tag k="addr:housenumber" v="0"/>
    <tag k="addr:housenumber:first:left" v="0"/>
    <tag k="addr:housenumber:first:right" v="0"/>
    <tag k="addr:housenumber:last:left" v="0"/>
    <tag k="addr:housenumber:last:right" v="0"/>
    <tag k="addr:province" v="British Columbia"/>
    <tag k="addr:street" v="2nd Street North"/>
    <tag k="attribution" v="Natural Resources Canada"/>
    <tag k="canvec:ACQTECH" v="GPS"/>
    <tag k="canvec:ADRANGENID" v="c7ef35baf50c11dc9cb7000ea65e52d8"/>
    <tag k="canvec:CODE" v="1760011"/>
    <tag k="canvec:CODEPROV" v="British Columbia"/>
    <tag k="canvec:CREDATE" v="199707"/>
    <tag k="canvec:EXITNO" v="nul"/>
    <tag k="canvec:L_ADDDIRFG:3" v="Not applicable"/>
    <tag k="canvec:L_HNUMF" v="0"/>
    <tag k="canvec:L_HNUML" v="0"/>
    <tag k="canvec:L_PLACENAM" v="Cranbrook"/>
    <tag k="canvec:L_STNAME" v="2nd Street North"/>
    <tag k="canvec:NOLANES" v="2"/>
    <tag k="canvec:PAVSTATUS" v="Paved"/>
    <tag k="canvec:PAVSURF" v="Unknown"/>
    <tag k="canvec:PROVIDER" v="provincial_territorial"/>
    <tag k="canvec:Planimetric Accuracy (CMAS)" v="10"/>
    <tag k="canvec:REVDATE" v="199707"/>
    <tag k="canvec:ROADCLASS" v="Local/Street"/>
    <tag k="canvec:ROADSEG_UUID" v="69607"/>
    <tag k="canvec:RTENAME1EN" v="-"/>
    <tag k="canvec:RTENAME1FR" v="-"/>
    <tag k="canvec:RTENAME2EN" v="-"/>
    <tag k="canvec:RTENAME2FR" v="-"/>
    <tag k="canvec:RTENAME3EN" v="-"/>
    <tag k="canvec:RTENAME3FR" v="-"/>
    <tag k="canvec:RTENAME4EN" v="-"/>
    <tag k="canvec:RTENAME4FR" v="-"/>
    <tag k="canvec:RTENUMBER1" v="-"/>
    <tag k="canvec:RTENUMBER2" v="-"/>
    <tag k="canvec:RTENUMBER3" v="-"/>
    <tag k="canvec:RTENUMBER4" v="-"/>
    <tag k="canvec:RTENUMBER5" v="-"/>
    <tag k="canvec:R_ADDDIRFG" v="Not applicable"/>
    <tag k="canvec:R_HNUMF" v="0"/>
    <tag k="canvec:R_HNUML" v="0"/>
    <tag k="canvec:R_PLACENAM" v="Cranbrook"/>
    <tag k="canvec:R_STNAME" v="2nd Street North"/>
    <tag k="canvec:SOURCEID" v="3c409954968311d99c9f000ea65e52d8"/>
    <tag k="canvec:SOURCEID_UUID" v="3c409954968311d99c9f000ea65e52d8"/>
    <tag k="canvec:STDVER" v="2.0"/>
    <tag k="canvec:STRUCID" v="-"/>
    <tag k="canvec:STRUCTYPE" v="none"/>
    <tag k="canvec:STRUNAMEEN" v="-"/>
    <tag k="canvec:STRUNAMEFR" v="-"/>
    <tag k="canvec:Theme" v="TR Transportation"/>
    <tag k="canvec:UNPAVSURF" v="None"/>
    <tag k="canvec:UUID" v="3fff1bca8d6549ab94accc67be6dacb3"/>
    <tag k="canvec:VALDATE" v="199707"/>
    <tag k="canvec:datasetName" v="082G12"/>
    <tag k="canvec:source" v="CanVec_Feature_Catalogue_Edition_1_0_2.pdf"/>
    <tag k="created_by" v="canvec2osm"/>
    <tag k="highway" v="residential"/>
    <tag k="highway:ramp:number" v="-"/>
    <tag k="is_in" v="British Columbia"/>
    <tag k="is_in:left" v="Cranbrook"/>
    <tag k="lanes" v="2"/>
    <tag k="name" v="0"/>
    <tag k="name:en" v="nul"/>
    <tag k="name:fr" v="-"/>
    <tag k="paved" v="yes"/>
    <tag k="route1:number" v="-"/>
    <tag k="route2:number" v="-"/>
    <tag k="route3:number" v="-"/>
    <tag k="route4:number" v="-"/>
    <tag k="route5:number" v="-"/>
    <tag k="route:name1:fr" v="-"/>
    <tag k="route:name2:fr" v="-"/>
    <tag k="route:name3:fr" v="-"/>
    <tag k="route:name4:fr" v="-"/>
    <tag k="source" v="CanVec_Import_2009"/>
    <tag k="structure:name:en" v="nul"/>
    <tag k="surface" v="unknown"/>
  </way>
  <way id="35448194" version="1" timestamp="2009-06-04T20:54:31Z" uid="38528" user="acrosscanadatrails" changeset="1424803">
    <nd ref="415800717"/>
    <nd ref="415800723"/>
    <tag k="addr:city" v="Cranbrook"/>
    <tag k="addr:city:right" v="Cranbrook"/>
    <tag k="addr:housenumber" v="0"/>
    <tag k="addr:housenumber:first:left" v="0"/>
    <tag k="addr:housenumber:first:right" v="0"/>
    <tag k="addr:housenumber:last:left" v="0"/>
    <tag k="addr:housenumber:last:right" v="0"/>
    <tag k="addr:province" v="British Columbia"/>
    <tag k="addr:street" v="24th Avenue North"/>
    <tag k="attribution" v="Natural Resources Canada"/>
    <tag k="canvec:ACQTECH" v="GPS"/>
    <tag k="canvec:ADRANGENID" v="fbd810fef50c11dc9cb7000ea65e52d8"/>
    <tag k="canvec:CODE" v="1760011"/>
    <tag k="canvec:CODEPROV" v="British Columbia"/>
    <tag k="canvec:CREDATE" v="199707"/>
    <tag k="canvec:EXITNO" v="nul"/>
    <tag k="canvec:L_ADDDIRFG:3" v="Not applicable"/>
    <tag k="canvec:L_HNUMF" v="0"/>
    <tag k="canvec:L_HNUML" v="0"/>
    <tag k="canvec:L_PLACENAM" v="Cranbrook"/>
    <tag k="canvec:L_STNAME" v="24th Avenue North"/>
    <tag k="canvec:NOLANES" v="2"/>
    <tag k="canvec:PAVSTATUS" v="Paved"/>
    <tag k="canvec:PAVSURF" v="Unknown"/>
    <tag k="canvec:PROVIDER" v="provincial_territorial"/>
    <tag k="canvec:Planimetric Accuracy (CMAS)" v="10"/>
    <tag k="canvec:REVDATE" v="200803"/>
    <tag k="canvec:ROADCLASS" v="Local/Street"/>
    <tag k="canvec:ROADSEG_UUID" v="82621"/>
    <tag k="canvec:RTENAME1EN" v="-"/>
    <tag k="canvec:RTENAME1FR" v="-"/>
    <tag k="canvec:RTENAME2EN" v="-"/>
    <tag k="canvec:RTENAME2FR" v="-"/>
    <tag k="canvec:RTENAME3EN" v="-"/>
    <tag k="canvec:RTENAME3FR" v="-"/>
    <tag k="canvec:RTENAME4EN" v="-"/>
    <tag k="canvec:RTENAME4FR" v="-"/>
    <tag k="canvec:RTENUMBER1" v="-"/>
    <tag k="canvec:RTENUMBER2" v="-"/>
    <tag k="canvec:RTENUMBER3" v="-"/>
    <tag k="canvec:RTENUMBER4" v="-"/>
    <tag k="canvec:RTENUMBER5" v="-"/>
    <tag k="canvec:R_ADDDIRFG" v="Not applicable"/>
    <tag k="canvec:R_HNUMF" v="0"/>
    <tag k="canvec:R_HNUML" v="0"/>
    <tag k="canvec:R_PLACENAM" v="Cranbrook"/>
    <tag k="canvec:R_STNAME" v="24th Avenue North"/>
    <tag k="canvec:SOURCEID" v="589726fe968311d99c9f000ea65e52d8"/>
    <tag k="canvec:SOURCEID_UUID" v="589726fe968311d99c9f000ea65e52d8"/>
    <tag k="canvec:STDVER" v="2.0"/>
    <tag k="canvec:STRUCID" v="-"/>
    <tag k="canvec:STRUCTYPE" v="none"/>
    <tag k="canvec:STRUNAMEEN" v="-"/>
    <tag k="canvec:STRUNAMEFR" v="-"/>
    <tag k="canvec:Theme" v="TR Transportation"/>
    <tag k="canvec:UNPAVSURF" v="None"/>
    <tag k="canvec:UUID" v="1d38a554128a4b9eafecff424899982a"/>
    <tag k="canvec:VALDATE" v="200803"/>
    <tag k="canvec:datasetName" v="082G12"/>
    <tag k="canvec:source" v="CanVec_Feature_Catalogue_Edition_1_0_2.pdf"/>
    <tag k="created_by" v="canvec2osm"/>
    <tag k="highway" v="residential"/>
    <tag k="highway:ramp:number" v="-"/>
    <tag k="is_in" v="British Columbia"/>
    <tag k="is_in:left" v="Cranbrook"/>
    <tag k="lanes" v="2"/>
    <tag k="name" v="0"/>
    <tag k="name:en" v="nul"/>
    <tag k="name:fr" v="-"/>
    <tag k="paved" v="yes"/>
    <tag k="route1:number" v="-"/>
    <tag k="route2:number" v="-"/>
    <tag k="route3:number" v="-"/>
    <tag k="route4:number" v="-"/>
    <tag k="route5:number" v="-"/>
    <tag k="route:name1:fr" v="-"/>
    <tag k="route:name2:fr" v="-"/>
    <tag k="route:name3:fr" v="-"/>
    <tag k="route:name4:fr" v="-"/>
    <tag k="source" v="CanVec_Import_2009"/>
    <tag k="structure:name:en" v="nul"/>
    <tag k="surface" v="unknown"/>
  </way>
  <way id="35448195" version="1" timestamp="2009-06-04T20:54:31Z" uid="38528" user="acrosscanadatrails" changeset="1424803">
    <nd ref="415800724"/>
    <nd ref="415800722"/>
    <nd ref="415800719"/>
    <tag k="addr:city" v="Cranbrook"/>
    <tag k="addr:city:right" v="Cranbrook"/>
    <tag k="addr:housenumber" v="0"/>
    <tag k="addr:housenumber:first:left" v="0"/>
    <tag k="addr:housenumber:first:right" v="0"/>
    <tag k="addr:housenumber:last:left" v="0"/>
    <tag k="addr:housenumber:last:right" v="0"/>
    <tag k="addr:province" v="British Columbia"/>
    <tag k="addr:street" v="2nd Street North"/>
    <tag k="attribution" v="Natural Resources Canada"/>
    <tag k="canvec:ACQTECH" v="GPS"/>
    <tag k="canvec:ADRANGENID" v="f31920e8f50c11dc9cb7000ea65e52d8"/>
    <tag k="canvec:CODE" v="1760011"/>
    <tag k="canvec:CODEPROV" v="British Columbia"/>
    <tag k="canvec:CREDATE" v="199707"/>
    <tag k="canvec:EXITNO" v="nul"/>
    <tag k="canvec:L_ADDDIRFG:3" v="Not applicable"/>
    <tag k="canvec:L_HNUMF" v="0"/>
    <tag k="canvec:L_HNUML" v="0"/>
    <tag k="canvec:L_PLACENAM" v="Cranbrook"/>
    <tag k="canvec:L_STNAME" v="2nd Street North"/>
    <tag k="canvec:NOLANES" v="2"/>
    <tag k="canvec:PAVSTATUS" v="Paved"/>
    <tag k="canvec:PAVSURF" v="Unknown"/>
    <tag k="canvec:PROVIDER" v="provincial_territorial"/>
    <tag k="canvec:Planimetric Accuracy (CMAS)" v="10"/>
    <tag k="canvec:REVDATE" v="200803"/>
    <tag k="canvec:ROADCLASS" v="Local/Street"/>
    <tag k="canvec:ROADSEG_UUID" v="13661"/>
    <tag k="canvec:RTENAME1EN" v="-"/>
    <tag k="canvec:RTENAME1FR" v="-"/>
    <tag k="canvec:RTENAME2EN" v="-"/>
    <tag k="canvec:RTENAME2FR" v="-"/>
    <tag k="canvec:RTENAME3EN" v="-"/>
    <tag k="canvec:RTENAME3FR" v="-"/>
    <tag k="canvec:RTENAME4EN" v="-"/>
    <tag k="canvec:RTENAME4FR" v="-"/>
    <tag k="canvec:RTENUMBER1" v="-"/>
    <tag k="canvec:RTENUMBER2" v="-"/>
    <tag k="canvec:RTENUMBER3" v="-"/>
    <tag k="canvec:RTENUMBER4" v="-"/>
    <tag k="canvec:RTENUMBER5" v="-"/>
    <tag k="canvec:R_ADDDIRFG" v="Not applicable"/>
    <tag k="canvec:R_HNUMF" v="0"/>
    <tag k="canvec:R_HNUML" v="0"/>
    <tag k="canvec:R_PLACENAM" v="Cranbrook"/>
    <tag k="canvec:R_STNAME" v="2nd Street North"/>
    <tag k="canvec:SOURCEID" v="4054583c968311d99c9f000ea65e52d8"/>
    <tag k="canvec:SOURCEID_UUID" v="4054583c968311d99c9f000ea65e52d8"/>
    <tag k="canvec:STDVER" v="2.0"/>
    <tag k="canvec:STRUCID" v="-"/>
    <tag k="canvec:STRUCTYPE" v="none"/>
    <tag k="canvec:STRUNAMEEN" v="-"/>
    <tag k="canvec:STRUNAMEFR" v="-"/>
    <tag k="canvec:Theme" v="TR Transportation"/>
    <tag k="canvec:UNPAVSURF" v="None"/>
    <tag k="canvec:UUID" v="d6d17a2f9fb548509b93725d37250bb8"/>
    <tag k="canvec:VALDATE" v="200803"/>
    <tag k="canvec:datasetName" v="082G12"/>
    <tag k="canvec:source" v="CanVec_Feature_Catalogue_Edition_1_0_2.pdf"/>
    <tag k="created_by" v="canvec2osm"/>
    <tag k="highway" v="residential"/>
    <tag k="highway:ramp:number" v="-"/>
    <tag k="is_in" v="British Columbia"/>
    <tag k="is_in:left" v="Cranbrook"/>
    <tag k="lanes" v="2"/>
    <tag k="name" v="0"/>
    <tag k="name:en" v="nul"/>
    <tag k="name:fr" v="-"/>
    <tag k="paved" v="yes"/>
    <tag k="route1:number" v="-"/>
    <tag k="route2:number" v="-"/>
    <tag k="route3:number" v="-"/>
    <tag k="route4:number" v="-"/>
    <tag k="route5:number" v="-"/>
    <tag k="route:name1:fr" v="-"/>
    <tag k="route:name2:fr" v="-"/>
    <tag k="route:name3:fr" v="-"/>
    <tag k="route:name4:fr" v="-"/>
    <tag k="source" v="CanVec_Import_2009"/>
    <tag k="structure:name:en" v="nul"/>
    <tag k="surface" v="unknown"/>
  </way>
  <way id="35448196" version="1" timestamp="2009-06-04T20:54:32Z" uid="38528" user="acrosscanadatrails" changeset="1424803">
    <nd ref="415800716"/>
    <nd ref="415800721"/>
    <nd ref="415800720"/>
    <tag k="addr:city" v="Cranbrook"/>
    <tag k="addr:city:right" v="Cranbrook"/>
    <tag k="addr:housenumber" v="0"/>
    <tag k="addr:housenumber:first:left" v="0"/>
    <tag k="addr:housenumber:first:right" v="0"/>
    <tag k="addr:housenumber:last:left" v="0"/>
    <tag k="addr:housenumber:last:right" v="0"/>
    <tag k="addr:province" v="British Columbia"/>
    <tag k="addr:street" v="2nd Street North"/>
    <tag k="attribution" v="Natural Resources Canada"/>
    <tag k="canvec:ACQTECH" v="GPS"/>
    <tag k="canvec:ADRANGENID" v="1e23d378f50d11dc9cb7000ea65e52d8"/>
    <tag k="canvec:CODE" v="1760011"/>
    <tag k="canvec:CODEPROV" v="British Columbia"/>
    <tag k="canvec:CREDATE" v="199707"/>
    <tag k="canvec:EXITNO" v="nul"/>
    <tag k="canvec:L_ADDDIRFG:3" v="Not applicable"/>
    <tag k="canvec:L_HNUMF" v="0"/>
    <tag k="canvec:L_HNUML" v="0"/>
    <tag k="canvec:L_PLACENAM" v="Cranbrook"/>
    <tag k="canvec:L_STNAME" v="2nd Street North"/>
    <tag k="canvec:NOLANES" v="2"/>
    <tag k="canvec:PAVSTATUS" v="Paved"/>
    <tag k="canvec:PAVSURF" v="Unknown"/>
    <tag k="canvec:PROVIDER" v="provincial_territorial"/>
    <tag k="canvec:Planimetric Accuracy (CMAS)" v="10"/>
    <tag k="canvec:REVDATE" v="199707"/>
    <tag k="canvec:ROADCLASS" v="Local/Street"/>
    <tag k="canvec:ROADSEG_UUID" v="107938"/>
    <tag k="canvec:RTENAME1EN" v="-"/>
    <tag k="canvec:RTENAME1FR" v="-"/>
    <tag k="canvec:RTENAME2EN" v="-"/>
    <tag k="canvec:RTENAME2FR" v="-"/>
    <tag k="canvec:RTENAME3EN" v="-"/>
    <tag k="canvec:RTENAME3FR" v="-"/>
    <tag k="canvec:RTENAME4EN" v="-"/>
    <tag k="canvec:RTENAME4FR" v="-"/>
    <tag k="canvec:RTENUMBER1" v="-"/>
    <tag k="canvec:RTENUMBER2" v="-"/>
    <tag k="canvec:RTENUMBER3" v="-"/>
    <tag k="canvec:RTENUMBER4" v="-"/>
    <tag k="canvec:RTENUMBER5" v="-"/>
    <tag k="canvec:R_ADDDIRFG" v="Not applicable"/>
    <tag k="canvec:R_HNUMF" v="0"/>
    <tag k="canvec:R_HNUML" v="0"/>
    <tag k="canvec:R_PLACENAM" v="Cranbrook"/>
    <tag k="canvec:R_STNAME" v="2nd Street North"/>
    <tag k="canvec:SOURCEID" v="ecbb4712968211d99c9f000ea65e52d8"/>
    <tag k="canvec:SOURCEID_UUID" v="ecbb4712968211d99c9f000ea65e52d8"/>
    <tag k="canvec:STDVER" v="2.0"/>
    <tag k="canvec:STRUCID" v="-"/>
    <tag k="canvec:STRUCTYPE" v="none"/>
    <tag k="canvec:STRUNAMEEN" v="-"/>
    <tag k="canvec:STRUNAMEFR" v="-"/>
    <tag k="canvec:Theme" v="TR Transportation"/>
    <tag k="canvec:UNPAVSURF" v="None"/>
    <tag k="canvec:UUID" v="f97d4d4c6bec4a6e8f1689382a1842fb"/>
    <tag k="canvec:VALDATE" v="199707"/>
    <tag k="canvec:datasetName" v="082G12"/>
    <tag k="canvec:source" v="CanVec_Feature_Catalogue_Edition_1_0_2.pdf"/>
    <tag k="created_by" v="canvec2osm"/>
    <tag k="highway" v="residential"/>
    <tag k="highway:ramp:number" v="-"/>
    <tag k="is_in" v="British Columbia"/>
    <tag k="is_in:left" v="Cranbrook"/>
    <tag k="lanes" v="2"/>
    <tag k="name" v="0"/>
    <tag k="name:en" v="nul"/>
    <tag k="name:fr" v="-"/>
    <tag k="paved" v="yes"/>
    <tag k="route1:number" v="-"/>
    <tag k="route2:number" v="-"/>
    <tag k="route3:number" v="-"/>
    <tag k="route4:number" v="-"/>
    <tag k="route5:number" v="-"/>
    <tag k="route:name1:fr" v="-"/>
    <tag k="route:name2:fr" v="-"/>
    <tag k="route:name3:fr" v="-"/>
    <tag k="route:name4:fr" v="-"/>
    <tag k="source" v="CanVec_Import_2009"/>
    <tag k="structure:name:en" v="nul"/>
    <tag k="surface" v="unknown"/>
  </way>
  <way id="35448196" version="6" timestamp="2010-06-14T12:08:26Z" uid="38528" user="acrosscanadatrails" changeset="4987336">
    <nd ref="415800737"/>
    <nd ref="772584590"/>
    <nd ref="415800721"/>
    <nd ref="415800720"/>
    <tag k="addr:city" v="Cranbrook"/>
    <tag k="addr:city:right" v="Cranbrook"/>
    <tag k="addr:housenumber" v="0"/>
    <tag k="addr:housenumber:first:left" v="0"/>
    <tag k="addr:housenumber:first:right" v="0"/>
    <tag k="addr:housenumber:last:left" v="0"/>
    <tag k="addr:housenumber:last:right" v="0"/>
    <tag k="addr:province" v="British Columbia"/>
    <tag k="addr:street" v="2nd Street North"/>
    <tag k="attribution" v="Natural Resources Canada"/>
    <tag k="canvec:CODE" v="1760011"/>
    <tag k="canvec:L_HNUMF" v="0"/>
    <tag k="canvec:L_HNUML" v="0"/>
    <tag k="canvec:L_PLACENAM" v="Cranbrook"/>
    <tag k="canvec:L_STNAME" v="2nd Street North"/>
    <tag k="canvec:NOLANES" v="2"/>
    <tag k="canvec:PAVSTATUS" v="Paved"/>
    <tag k="canvec:PAVSURF" v="Unknown"/>
    <tag k="canvec:ROADCLASS" v="Local/Street"/>
    <tag k="canvec:ROADSEG_UUID" v="107938"/>
    <tag k="canvec:RTENAME1EN" v="-"/>
    <tag k="canvec:RTENAME1FR" v="-"/>
    <tag k="canvec:RTENAME2EN" v="-"/>
    <tag k="canvec:RTENAME2FR" v="-"/>
    <tag k="canvec:RTENAME3EN" v="-"/>
    <tag k="canvec:RTENAME3FR" v="-"/>
    <tag k="canvec:RTENAME4EN" v="-"/>
    <tag k="canvec:RTENAME4FR" v="-"/>
    <tag k="canvec:RTENUMBER1" v="-"/>
    <tag k="canvec:RTENUMBER2" v="-"/>
    <tag k="canvec:RTENUMBER3" v="-"/>
    <tag k="canvec:RTENUMBER4" v="-"/>
    <tag k="canvec:RTENUMBER5" v="-"/>
    <tag k="canvec:R_ADDDIRFG" v="Not applicable"/>
    <tag k="canvec:R_HNUMF" v="0"/>
    <tag k="canvec:R_HNUML" v="0"/>
    <tag k="canvec:R_PLACENAM" v="Cranbrook"/>
    <tag k="canvec:R_STNAME" v="2nd Street North"/>
    <tag k="canvec:STRUNAMEEN" v="-"/>
    <tag k="canvec:STRUNAMEFR" v="-"/>
    <tag k="canvec:UNPAVSURF" v="None"/>
    <tag k="canvec:UUID" v="f97d4d4c6bec4a6e8f1689382a1842fb"/>
    <tag k="highway" v="residential"/>
    <tag k="highway:ramp:number" v="-"/>
    <tag k="is_in" v="British Columbia"/>
    <tag k="is_in:left" v="Cranbrook"/>
    <tag k="lanes" v="2"/>
    <tag k="name" v="0"/>
    <tag k="name:en" v="nul"/>
    <tag k="name:fr" v="-"/>
    <tag k="paved" v="yes"/>
    <tag k="route1:number" v="-"/>
    <tag k="route2:number" v="-"/>
    <tag k="route3:number" v="-"/>
    <tag k="route4:number" v="-"/>
    <tag k="route5:number" v="-"/>
    <tag k="route:name1:fr" v="-"/>
    <tag k="route:name2:fr" v="-"/>
    <tag k="route:name3:fr" v="-"/>
    <tag k="route:name4:fr" v="-"/>
    <tag k="source" v="CanVec_Import_2009"/>
    <tag k="structure:name:en" v="nul"/>
    <tag k="surface" v="unknown"/>
  </way>
  <way id="35448197" version="1" timestamp="2009-06-04T20:54:32Z" uid="38528" user="acrosscanadatrails" changeset="1424803">
    <nd ref="415800737"/>
    <nd ref="415800718"/>
    <tag k="addr:city" v="Cranbrook"/>
    <tag k="addr:city:right" v="Cranbrook"/>
    <tag k="addr:housenumber" v="0"/>
    <tag k="addr:housenumber:first:left" v="0"/>
    <tag k="addr:housenumber:first:right" v="0"/>
    <tag k="addr:housenumber:last:left" v="0"/>
    <tag k="addr:housenumber:last:right" v="0"/>
    <tag k="addr:province" v="British Columbia"/>
    <tag k="addr:street" v="23rd Avenue North"/>
    <tag k="attribution" v="Natural Resources Canada"/>
    <tag k="canvec:ACQTECH" v="GPS"/>
    <tag k="canvec:ADRANGENID" v="70716ca8f50d11dc9cb7000ea65e52d8"/>
    <tag k="canvec:CODE" v="1760011"/>
    <tag k="canvec:CODEPROV" v="British Columbia"/>
    <tag k="canvec:CREDATE" v="199707"/>
    <tag k="canvec:EXITNO" v="nul"/>
    <tag k="canvec:L_ADDDIRFG:3" v="Not applicable"/>
    <tag k="canvec:L_HNUMF" v="0"/>
    <tag k="canvec:L_HNUML" v="0"/>
    <tag k="canvec:L_PLACENAM" v="Cranbrook"/>
    <tag k="canvec:L_STNAME" v="23rd Avenue North"/>
    <tag k="canvec:NOLANES" v="2"/>
    <tag k="canvec:PAVSTATUS" v="Paved"/>
    <tag k="canvec:PAVSURF" v="Unknown"/>
    <tag k="canvec:PROVIDER" v="provincial_territorial"/>
    <tag k="canvec:Planimetric Accuracy (CMAS)" v="10"/>
    <tag k="canvec:REVDATE" v="199707"/>
    <tag k="canvec:ROADCLASS" v="Local/Street"/>
    <tag k="canvec:ROADSEG_UUID" v="108271"/>
    <tag k="canvec:RTENAME1EN" v="-"/>
    <tag k="canvec:RTENAME1FR" v="-"/>
    <tag k="canvec:RTENAME2EN" v="-"/>
    <tag k="canvec:RTENAME2FR" v="-"/>
    <tag k="canvec:RTENAME3EN" v="-"/>
    <tag k="canvec:RTENAME3FR" v="-"/>
    <tag k="canvec:RTENAME4EN" v="-"/>
    <tag k="canvec:RTENAME4FR" v="-"/>
    <tag k="canvec:RTENUMBER1" v="-"/>
    <tag k="canvec:RTENUMBER2" v="-"/>
    <tag k="canvec:RTENUMBER3" v="-"/>
    <tag k="canvec:RTENUMBER4" v="-"/>
    <tag k="canvec:RTENUMBER5" v="-"/>
    <tag k="canvec:R_ADDDIRFG" v="Not applicable"/>
    <tag k="canvec:R_HNUMF" v="0"/>
    <tag k="canvec:R_HNUML" v="0"/>
    <tag k="canvec:R_PLACENAM" v="Cranbrook"/>
    <tag k="canvec:R_STNAME" v="23rd Avenue North"/>
    <tag k="canvec:SOURCEID" v="3c41c266968311d99c9f000ea65e52d8"/>
    <tag k="canvec:SOURCEID_UUID" v="3c41c266968311d99c9f000ea65e52d8"/>
    <tag k="canvec:STDVER" v="2.0"/>
    <tag k="canvec:STRUCID" v="-"/>
    <tag k="canvec:STRUCTYPE" v="none"/>
    <tag k="canvec:STRUNAMEEN" v="-"/>
    <tag k="canvec:STRUNAMEFR" v="-"/>
    <tag k="canvec:Theme" v="TR Transportation"/>
    <tag k="canvec:UNPAVSURF" v="None"/>
    <tag k="canvec:UUID" v="2d8437efc40841cebb5d26af9ce10757"/>
    <tag k="canvec:VALDATE" v="199707"/>
    <tag k="canvec:datasetName" v="082G12"/>
    <tag k="canvec:source" v="CanVec_Feature_Catalogue_Edition_1_0_2.pdf"/>
    <tag k="created_by" v="canvec2osm"/>
    <tag k="highway" v="residential"/>
    <tag k="highway:ramp:number" v="-"/>
    <tag k="is_in" v="British Columbia"/>
    <tag k="is_in:left" v="Cranbrook"/>
    <tag k="lanes" v="2"/>
    <tag k="name" v="0"/>
    <tag k="name:en" v="nul"/>
    <tag k="name:fr" v="-"/>
    <tag k="paved" v="yes"/>
    <tag k="route1:number" v="-"/>
    <tag k="route2:number" v="-"/>
    <tag k="route3:number" v="-"/>
    <tag k="route4:number" v="-"/>
    <tag k="route5:number" v="-"/>
    <tag k="route:name1:fr" v="-"/>
    <tag k="route:name2:fr" v="-"/>
    <tag k="route:name3:fr" v="-"/>
    <tag k="route:name4:fr" v="-"/>
    <tag k="source" v="CanVec_Import_2009"/>
    <tag k="structure:name:en" v="nul"/>
    <tag k="surface" v="unknown"/>
  </way>
  <way id="35448198" version="1" timestamp="2009-06-04T20:54:33Z" uid="38528" user="acrosscanadatrails" changeset="1424803">
    <nd ref="415800734"/>
    <nd ref="415800736"/>
    <nd ref="415800726"/>
    <nd ref="415800727"/>
    <nd ref="415800733"/>
    <nd ref="415800729"/>
    <nd ref="415800728"/>
    <tag k="addr:city" v="Cranbrook"/>
    <tag k="addr:city:right" v="Cranbrook"/>
    <tag k="addr:housenumber" v="0"/>
    <tag k="addr:housenumber:first:left" v="0"/>
    <tag k="addr:housenumber:first:right" v="0"/>
    <tag k="addr:housenumber:last:left" v="0"/>
    <tag k="addr:housenumber:last:right" v="0"/>
    <tag k="addr:province" v="British Columbia"/>
    <tag k="addr:street" v="24th Avenue South"/>
    <tag k="attribution" v="Natural Resources Canada"/>
    <tag k="canvec:ACQTECH" v="GPS"/>
    <tag k="canvec:ADRANGENID" v="66019e28f50d11dc9cb7000ea65e52d8"/>
    <tag k="canvec:CODE" v="1760011"/>
    <tag k="canvec:CODEPROV" v="British Columbia"/>
    <tag k="canvec:CREDATE" v="199707"/>
    <tag k="canvec:EXITNO" v="nul"/>
    <tag k="canvec:L_ADDDIRFG:3" v="Not applicable"/>
    <tag k="canvec:L_HNUMF" v="0"/>
    <tag k="canvec:L_HNUML" v="0"/>
    <tag k="canvec:L_PLACENAM" v="Cranbrook"/>
    <tag k="canvec:L_STNAME" v="24th Avenue South"/>
    <tag k="canvec:NOLANES" v="2"/>
    <tag k="canvec:PAVSTATUS" v="Paved"/>
    <tag k="canvec:PAVSURF" v="Unknown"/>
    <tag k="canvec:PROVIDER" v="provincial_territorial"/>
    <tag k="canvec:Planimetric Accuracy (CMAS)" v="10"/>
    <tag k="canvec:REVDATE" v="200803"/>
    <tag k="canvec:ROADCLASS" v="Local/Street"/>
    <tag k="canvec:ROADSEG_UUID" v="144947"/>
    <tag k="canvec:RTENAME1EN" v="-"/>
    <tag k="canvec:RTENAME1FR" v="-"/>
    <tag k="canvec:RTENAME2EN" v="-"/>
    <tag k="canvec:RTENAME2FR" v="-"/>
    <tag k="canvec:RTENAME3EN" v="-"/>
    <tag k="canvec:RTENAME3FR" v="-"/>
    <tag k="canvec:RTENAME4EN" v="-"/>
    <tag k="canvec:RTENAME4FR" v="-"/>
    <tag k="canvec:RTENUMBER1" v="-"/>
    <tag k="canvec:RTENUMBER2" v="-"/>
    <tag k="canvec:RTENUMBER3" v="-"/>
    <tag k="canvec:RTENUMBER4" v="-"/>
    <tag k="canvec:RTENUMBER5" v="-"/>
    <tag k="canvec:R_ADDDIRFG" v="Not applicable"/>
    <tag k="canvec:R_HNUMF" v="0"/>
    <tag k="canvec:R_HNUML" v="0"/>
    <tag k="canvec:R_PLACENAM" v="Cranbrook"/>
    <tag k="canvec:R_STNAME" v="24th Avenue South"/>
    <tag k="canvec:SOURCEID" v="589726fe968311d99c9f000ea65e52d8"/>
    <tag k="canvec:SOURCEID_UUID" v="589726fe968311d99c9f000ea65e52d8"/>
    <tag k="canvec:STDVER" v="2.0"/>
    <tag k="canvec:STRUCID" v="-"/>
    <tag k="canvec:STRUCTYPE" v="none"/>
    <tag k="canvec:STRUNAMEEN" v="-"/>
    <tag k="canvec:STRUNAMEFR" v="-"/>
    <tag k="canvec:Theme" v="TR Transportation"/>
    <tag k="canvec:UNPAVSURF" v="None"/>
    <tag k="canvec:UUID" v="90fb86389d9a45e6909f3f5e7e944f5e"/>
    <tag k="canvec:VALDATE" v="200803"/>
    <tag k="canvec:datasetName" v="082G12"/>
    <tag k="canvec:source" v="CanVec_Feature_Catalogue_Edition_1_0_2.pdf"/>
    <tag k="created_by" v="canvec2osm"/>
    <tag k="highway" v="residential"/>
    <tag k="highway:ramp:number" v="-"/>
    <tag k="is_in" v="British Columbia"/>
    <tag k="is_in:left" v="Cranbrook"/>
    <tag k="lanes" v="2"/>
    <tag k="name" v="0"/>
    <tag k="name:en" v="nul"/>
    <tag k="name:fr" v="-"/>
    <tag k="paved" v="yes"/>
    <tag k="route1:number" v="-"/>
    <tag k="route2:number" v="-"/>
    <tag k="route3:number" v="-"/>
    <tag k="route4:number" v="-"/>
    <tag k="route5:number" v="-"/>
    <tag k="route:name1:fr" v="-"/>
    <tag k="route:name2:fr" v="-"/>
    <tag k="route:name3:fr" v="-"/>
    <tag k="route:name4:fr" v="-"/>
    <tag k="source" v="CanVec_Import_2009"/>
    <tag k="structure:name:en" v="nul"/>
    <tag k="surface" v="unknown"/>
  </way>
  <way id="35448199" version="1" timestamp="2009-06-04T20:54:34Z" uid="38528" user="acrosscanadatrails" changeset="1424803">
    <nd ref="415800725"/>
    <nd ref="415800736"/>
    <tag k="addr:city" v="Cranbrook"/>
    <tag k="addr:city:right" v="Cranbrook"/>
    <tag k="addr:housenumber" v="0"/>
    <tag k="addr:housenumber:first:left" v="0"/>
    <tag k="addr:housenumber:first:right" v="0"/>
    <tag k="addr:housenumber:last:left" v="0"/>
    <tag k="addr:housenumber:last:right" v="0"/>
    <tag k="addr:province" v="British Columbia"/>
    <tag k="addr:street" v="1st Street South"/>
    <tag k="attribution" v="Natural Resources Canada"/>
    <tag k="canvec:ACQTECH" v="GPS"/>
    <tag k="canvec:ADRANGENID" v="821b5626f50d11dc9cb7000ea65e52d8"/>
    <tag k="canvec:CODE" v="1760011"/>
    <tag k="canvec:CODEPROV" v="British Columbia"/>
    <tag k="canvec:CREDATE" v="200612"/>
    <tag k="canvec:EXITNO" v="nul"/>
    <tag k="canvec:L_ADDDIRFG:3" v="Not applicable"/>
    <tag k="canvec:L_HNUMF" v="0"/>
    <tag k="canvec:L_HNUML" v="0"/>
    <tag k="canvec:L_PLACENAM" v="Cranbrook"/>
    <tag k="canvec:L_STNAME" v="1st Street South"/>
    <tag k="canvec:NOLANES" v="2"/>
    <tag k="canvec:PAVSTATUS" v="Paved"/>
    <tag k="canvec:PAVSURF" v="Unknown"/>
    <tag k="canvec:PROVIDER" v="provincial_territorial"/>
    <tag k="canvec:Planimetric Accuracy (CMAS)" v="10"/>
    <tag k="canvec:REVDATE" v="200612"/>
    <tag k="canvec:ROADCLASS" v="Local/Street"/>
    <tag k="canvec:ROADSEG_UUID" v="76702"/>
    <tag k="canvec:RTENAME1EN" v="-"/>
    <tag k="canvec:RTENAME1FR" v="-"/>
    <tag k="canvec:RTENAME2EN" v="-"/>
    <tag k="canvec:RTENAME2FR" v="-"/>
    <tag k="canvec:RTENAME3EN" v="-"/>
    <tag k="canvec:RTENAME3FR" v="-"/>
    <tag k="canvec:RTENAME4EN" v="-"/>
    <tag k="canvec:RTENAME4FR" v="-"/>
    <tag k="canvec:RTENUMBER1" v="-"/>
    <tag k="canvec:RTENUMBER2" v="-"/>
    <tag k="canvec:RTENUMBER3" v="-"/>
    <tag k="canvec:RTENUMBER4" v="-"/>
    <tag k="canvec:RTENUMBER5" v="-"/>
    <tag k="canvec:R_ADDDIRFG" v="Not applicable"/>
    <tag k="canvec:R_HNUMF" v="0"/>
    <tag k="canvec:R_HNUML" v="0"/>
    <tag k="canvec:R_PLACENAM" v="Cranbrook"/>
    <tag k="canvec:R_STNAME" v="1st Street South"/>
    <tag k="canvec:SOURCEID" v="7ab8828af51911dc83ba000ea65e52d8"/>
    <tag k="canvec:SOURCEID_UUID" v="7ab8828af51911dc83ba000ea65e52d8"/>
    <tag k="canvec:STDVER" v="2.0"/>
    <tag k="canvec:STRUCID" v="-"/>
    <tag k="canvec:STRUCTYPE" v="none"/>
    <tag k="canvec:STRUNAMEEN" v="-"/>
    <tag k="canvec:STRUNAMEFR" v="-"/>
    <tag k="canvec:Theme" v="TR Transportation"/>
    <tag k="canvec:UNPAVSURF" v="None"/>
    <tag k="canvec:UUID" v="0f36d18f3d6047999a750152b4abc946"/>
    <tag k="canvec:VALDATE" v="200612"/>
    <tag k="canvec:datasetName" v="082G12"/>
    <tag k="canvec:source" v="CanVec_Feature_Catalogue_Edition_1_0_2.pdf"/>
    <tag k="created_by" v="canvec2osm"/>
    <tag k="highway" v="residential"/>
    <tag k="highway:ramp:number" v="-"/>
    <tag k="is_in" v="British Columbia"/>
    <tag k="is_in:left" v="Cranbrook"/>
    <tag k="lanes" v="2"/>
    <tag k="name" v="0"/>
    <tag k="name:en" v="nul"/>
    <tag k="name:fr" v="-"/>
    <tag k="paved" v="yes"/>
    <tag k="route1:number" v="-"/>
    <tag k="route2:number" v="-"/>
    <tag k="route3:number" v="-"/>
    <tag k="route4:number" v="-"/>
    <tag k="route5:number" v="-"/>
    <tag k="route:name1:fr" v="-"/>
    <tag k="route:name2:fr" v="-"/>
    <tag k="route:name3:fr" v="-"/>
    <tag k="route:name4:fr" v="-"/>
    <tag k="source" v="CanVec_Import_2009"/>
    <tag k="structure:name:en" v="nul"/>
    <tag k="surface" v="unknown"/>
  </way>
  <way id="35448199" version="5" timestamp="2010-06-14T12:08:31Z" uid="38528" user="acrosscanadatrails" changeset="4987336">
    <nd ref="772584572"/>
    <nd ref="772584588"/>
    <nd ref="772584587"/>
    <nd ref="772584581"/>
    <nd ref="772584582"/>
    <nd ref="772584573"/>
    <nd ref="415800725"/>
    <nd ref="415800736"/>
    <tag k="addr:city" v="Cranbrook"/>
    <tag k="addr:city:right" v="Cranbrook"/>
    <tag k="addr:housenumber" v="0"/>
    <tag k="addr:housenumber:first:left" v="0"/>
    <tag k="addr:housenumber:first:right" v="0"/>
    <tag k="addr:housenumber:last:left" v="0"/>
    <tag k="addr:housenumber:last:right" v="0"/>
    <tag k="addr:province" v="British Columbia"/>
    <tag k="addr:street" v="1st Street South"/>
    <tag k="attribution" v="Natural Resources Canada"/>
    <tag k="canvec:CODE" v="1760011"/>
    <tag k="canvec:L_HNUMF" v="0"/>
    <tag k="canvec:L_HNUML" v="0"/>
    <tag k="canvec:L_PLACENAM" v="Cranbrook"/>
    <tag k="canvec:L_STNAME" v="1st Street South"/>
    <tag k="canvec:NOLANES" v="2"/>
    <tag k="canvec:PAVSTATUS" v="Paved"/>
    <tag k="canvec:PAVSURF" v="Unknown"/>
    <tag k="canvec:ROADCLASS" v="Local/Street"/>
    <tag k="canvec:ROADSEG_UUID" v="76702"/>
    <tag k="canvec:RTENAME1EN" v="-"/>
    <tag k="canvec:RTENAME1FR" v="-"/>
    <tag k="canvec:RTENAME2EN" v="-"/>
    <tag k="canvec:RTENAME2FR" v="-"/>
    <tag k="canvec:RTENAME3EN" v="-"/>
    <tag k="canvec:RTENAME3FR" v="-"/>
    <tag k="canvec:RTENAME4EN" v="-"/>
    <tag k="canvec:RTENAME4FR" v="-"/>
    <tag k="canvec:RTENUMBER1" v="-"/>
    <tag k="canvec:RTENUMBER2" v="-"/>
    <tag k="canvec:RTENUMBER3" v="-"/>
    <tag k="canvec:RTENUMBER4" v="-"/>
    <tag k="canvec:RTENUMBER5" v="-"/>
    <tag k="canvec:R_ADDDIRFG" v="Not applicable"/>
    <tag k="canvec:R_HNUMF" v="0"/>
    <tag k="canvec:R_HNUML" v="0"/>
    <tag k="canvec:R_PLACENAM" v="Cranbrook"/>
    <tag k="canvec:R_STNAME" v="1st Street South"/>
    <tag k="canvec:STRUNAMEEN" v="-"/>
    <tag k="canvec:STRUNAMEFR" v="-"/>
    <tag k="canvec:UNPAVSURF" v="None"/>
    <tag k="canvec:UUID" v="0f36d18f3d6047999a750152b4abc946"/>
    <tag k="highway" v="residential"/>
    <tag k="highway:ramp:number" v="-"/>
    <tag k="is_in" v="British Columbia"/>
    <tag k="is_in:left" v="Cranbrook"/>
    <tag k="lanes" v="2"/>
    <tag k="name" v="0"/>
    <tag k="name:en" v="nul"/>
    <tag k="name:fr" v="-"/>
    <tag k="paved" v="yes"/>
    <tag k="route1:number" v="-"/>
    <tag k="route2:number" v="-"/>
    <tag k="route3:number" v="-"/>
    <tag k="route4:number" v="-"/>
    <tag k="route5:number" v="-"/>
    <tag k="route:name1:fr" v="-"/>
    <tag k="route:name2:fr" v="-"/>
    <tag k="route:name3:fr" v="-"/>
    <tag k="route:name4:fr" v="-"/>
    <tag k="source" v="CanVec_Import_2009"/>
    <tag k="structure:name:en" v="nul"/>
    <tag k="surface" v="unknown"/>
  </way>
  <way id="35448200" version="1" timestamp="2009-06-04T20:54:34Z" uid="38528" user="acrosscanadatrails" changeset="1424803">
    <nd ref="415800735"/>
    <nd ref="415800731"/>
    <nd ref="415800730"/>
    <nd ref="415800732"/>
    <nd ref="415800734"/>
    <tag k="addr:city" v="Cranbrook"/>
    <tag k="addr:city:right" v="Cranbrook"/>
    <tag k="addr:housenumber" v="0"/>
    <tag k="addr:housenumber:first:left" v="0"/>
    <tag k="addr:housenumber:first:right" v="0"/>
    <tag k="addr:housenumber:last:left" v="0"/>
    <tag k="addr:housenumber:last:right" v="0"/>
    <tag k="addr:province" v="British Columbia"/>
    <tag k="addr:street" v="24th Avenue South"/>
    <tag k="attribution" v="Natural Resources Canada"/>
    <tag k="canvec:ACQTECH" v="GPS"/>
    <tag k="canvec:ADRANGENID" v="49d26534f50d11dc9cb7000ea65e52d8"/>
    <tag k="canvec:CODE" v="1760011"/>
    <tag k="canvec:CODEPROV" v="British Columbia"/>
    <tag k="canvec:CREDATE" v="200210"/>
    <tag k="canvec:EXITNO" v="nul"/>
    <tag k="canvec:L_ADDDIRFG:3" v="Not applicable"/>
    <tag k="canvec:L_HNUMF" v="0"/>
    <tag k="canvec:L_HNUML" v="0"/>
    <tag k="canvec:L_PLACENAM" v="Cranbrook"/>
    <tag k="canvec:L_STNAME" v="24th Avenue South"/>
    <tag k="canvec:NOLANES" v="2"/>
    <tag k="canvec:PAVSTATUS" v="Paved"/>
    <tag k="canvec:PAVSURF" v="Unknown"/>
    <tag k="canvec:PROVIDER" v="provincial_territorial"/>
    <tag k="canvec:Planimetric Accuracy (CMAS)" v="10"/>
    <tag k="canvec:REVDATE" v="200210"/>
    <tag k="canvec:ROADCLASS" v="Local/Street"/>
    <tag k="canvec:ROADSEG_UUID" v="19522"/>
    <tag k="canvec:RTENAME1EN" v="-"/>
    <tag k="canvec:RTENAME1FR" v="-"/>
    <tag k="canvec:RTENAME2EN" v="-"/>
    <tag k="canvec:RTENAME2FR" v="-"/>
    <tag k="canvec:RTENAME3EN" v="-"/>
    <tag k="canvec:RTENAME3FR" v="-"/>
    <tag k="canvec:RTENAME4EN" v="-"/>
    <tag k="canvec:RTENAME4FR" v="-"/>
    <tag k="canvec:RTENUMBER1" v="-"/>
    <tag k="canvec:RTENUMBER2" v="-"/>
    <tag k="canvec:RTENUMBER3" v="-"/>
    <tag k="canvec:RTENUMBER4" v="-"/>
    <tag k="canvec:RTENUMBER5" v="-"/>
    <tag k="canvec:R_ADDDIRFG" v="Not applicable"/>
    <tag k="canvec:R_HNUMF" v="0"/>
    <tag k="canvec:R_HNUML" v="0"/>
    <tag k="canvec:R_PLACENAM" v="Cranbrook"/>
    <tag k="canvec:R_STNAME" v="24th Avenue South"/>
    <tag k="canvec:SOURCEID" v="61c9dae6968311d99c9f000ea65e52d8"/>
    <tag k="canvec:SOURCEID_UUID" v="61c9dae6968311d99c9f000ea65e52d8"/>
    <tag k="canvec:STDVER" v="2.0"/>
    <tag k="canvec:STRUCID" v="-"/>
    <tag k="canvec:STRUCTYPE" v="none"/>
    <tag k="canvec:STRUNAMEEN" v="-"/>
    <tag k="canvec:STRUNAMEFR" v="-"/>
    <tag k="canvec:Theme" v="TR Transportation"/>
    <tag k="canvec:UNPAVSURF" v="None"/>
    <tag k="canvec:UUID" v="bb0d81e846844f0896364bbed871ff44"/>
    <tag k="canvec:VALDATE" v="200210"/>
    <tag k="canvec:datasetName" v="082G12"/>
    <tag k="canvec:source" v="CanVec_Feature_Catalogue_Edition_1_0_2.pdf"/>
    <tag k="created_by" v="canvec2osm"/>
    <tag k="highway" v="residential"/>
    <tag k="highway:ramp:number" v="-"/>
    <tag k="is_in" v="British Columbia"/>
    <tag k="is_in:left" v="Cranbrook"/>
    <tag k="lanes" v="2"/>
    <tag k="name" v="0"/>
    <tag k="name:en" v="nul"/>
    <tag k="name:fr" v="-"/>
    <tag k="paved" v="yes"/>
    <tag k="route1:number" v="-"/>
    <tag k="route2:number" v="-"/>
    <tag k="route3:number" v="-"/>
    <tag k="route4:number" v="-"/>
    <tag k="route5:number" v="-"/>
    <tag k="route:name1:fr" v="-"/>
    <tag k="route:name2:fr" v="-"/>
    <tag k="route:name3:fr" v="-"/>
    <tag k="route:name4:fr" v="-"/>
    <tag k="source" v="CanVec_Import_2009"/>
    <tag k="structure:name:en" v="nul"/>
    <tag k="surface" v="unknown"/>
  </way>
  <way id="35448201" version="1" timestamp="2009-06-04T20:54:35Z" uid="38528" user="acrosscanadatrails" changeset="1424803">
    <nd ref="415800745"/>
    <nd ref="415800744"/>
    <nd ref="415800743"/>
    <nd ref="415800742"/>
    <nd ref="415800738"/>
    <nd ref="415800739"/>
    <nd ref="415800740"/>
    <nd ref="415800741"/>
    <tag k="foot" v="yes"/>
    <tag k="highway" v="path"/>
    <tag k="surface" v="dirt"/>
  </way>
  <way id="35448202" version="1" timestamp="2009-06-04T20:54:35Z" uid="38528" user="acrosscanadatrails" changeset="1424803">
    <nd ref="415800738"/>
    <nd ref="415800746"/>
    <nd ref="415800747"/>
    <nd ref="415800748"/>
    <nd ref="415800695"/>
    <tag k="foot" v="designated"/>
    <tag k="highway" v="path"/>
    <tag k="surface" v="dirt"/>
  </way>
  <way id="35448203" version="1" timestamp="2009-06-04T20:54:35Z" uid="38528" user="acrosscanadatrails" changeset="1424803">
    <nd ref="415800749"/>
    <nd ref="415800750"/>
    <nd ref="415800754"/>
    <nd ref="415800751"/>
    <nd ref="415800752"/>
    <nd ref="415800753"/>
    <tag k="highway" v="service"/>
    <tag k="service" v="alley"/>
    <tag k="surface" v="gravel"/>
  </way>
  <way id="35448203" version="2" timestamp="2009-06-04T21:42:23Z" uid="38528" user="acrosscanadatrails" changeset="1425074">
    <nd ref="415805483"/>
    <nd ref="415805482"/>
    <nd ref="415805481"/>
    <nd ref="415805480"/>
    <nd ref="415805479"/>
    <nd ref="415805478"/>
    <nd ref="415805477"/>
    <nd ref="415805476"/>
    <nd ref="415805475"/>
    <nd ref="415805474"/>
    <nd ref="415805473"/>
    <nd ref="415805472"/>
    <nd ref="415805471"/>
    <nd ref="415805470"/>
    <nd ref="415805469"/>
    <nd ref="415805524"/>
    <nd ref="415805468"/>
    <nd ref="415805467"/>
    <nd ref="415805466"/>
    <nd ref="415805465"/>
    <nd ref="415805464"/>
    <nd ref="415805463"/>
    <nd ref="415805462"/>
    <nd ref="415805461"/>
    <nd ref="415805460"/>
    <nd ref="415805459"/>
    <nd ref="415805489"/>
    <nd ref="415805458"/>
    <nd ref="415805457"/>
    <nd ref="415805456"/>
    <nd ref="415805455"/>
    <nd ref="415805454"/>
    <nd ref="415805499"/>
    <nd ref="415805453"/>
    <nd ref="415800749"/>
    <nd ref="415800750"/>
    <nd ref="415800754"/>
    <nd ref="415800751"/>
    <nd ref="415800752"/>
    <nd ref="415800753"/>
    <tag k="highway" v="service"/>
    <tag k="service" v="alley"/>
    <tag k="surface" v="gravel"/>
  </way>
  <way id="35448204" version="1" timestamp="2009-06-04T20:54:36Z" uid="38528" user="acrosscanadatrails" changeset="1424803">
    <nd ref="415800754"/>
    <nd ref="415800755"/>
    <nd ref="415800756"/>
    <nd ref="415800757"/>
    <nd ref="415800758"/>
    <tag k="highway" v="path"/>
    <tag k="name" v="Meander Trail"/>
    <tag k="sac_scale" v="hiking"/>
  </way>
  <way id="35448412" version="4" timestamp="2010-01-08T18:51:48Z" uid="9581" user="Lobelt" changeset="3572524">
    <nd ref="559513512"/>
    <nd ref="559513511"/>
    <nd ref="559513510"/>
    <nd ref="559513509"/>
    <nd ref="559513508"/>
    <nd ref="559513507"/>
    <nd ref="559513506"/>
    <nd ref="559513504"/>
    <nd ref="559513503"/>
    <nd ref="559513502"/>
    <nd ref="559513501"/>
    <nd ref="559513500"/>
    <nd ref="559513499"/>
    <nd ref="559513498"/>
    <nd ref="559513497"/>
    <nd ref="559513496"/>
    <nd ref="559513495"/>
    <nd ref="559513494"/>
    <nd ref="559513493"/>
    <nd ref="559513492"/>
    <nd ref="559513491"/>
    <nd ref="559513490"/>
    <nd ref="559513489"/>
    <nd ref="559513488"/>
    <nd ref="559513486"/>
    <nd ref="559513485"/>
    <nd ref="559513484"/>
    <nd ref="559513481"/>
    <nd ref="559513478"/>
    <nd ref="559513477"/>
    <nd ref="559513476"/>
    <nd ref="559513474"/>
    <nd ref="559513473"/>
    <nd ref="559513470"/>
    <nd ref="559513469"/>
    <nd ref="559513467"/>
    <nd ref="559513465"/>
    <nd ref="559513464"/>
    <nd ref="559513463"/>
    <nd ref="559513461"/>
    <nd ref="559513460"/>
    <nd ref="559513458"/>
    <nd ref="559513457"/>
    <nd ref="559513454"/>
    <nd ref="559513452"/>
    <nd ref="559513451"/>
    <nd ref="559513449"/>
    <nd ref="559513448"/>
    <nd ref="559513446"/>
    <nd ref="559513445"/>
    <nd ref="559513444"/>
    <nd ref="559513442"/>
    <nd ref="559513441"/>
    <nd ref="559513439"/>
    <nd ref="559513437"/>
    <nd ref="559513436"/>
    <nd ref="559513434"/>
    <nd ref="559513433"/>
    <nd ref="559513431"/>
    <nd ref="559513430"/>
    <nd ref="559513429"/>
    <nd ref="559513428"/>
    <nd ref="559513424"/>
    <nd ref="559513423"/>
    <nd ref="559513422"/>
    <nd ref="559513421"/>
    <nd ref="559513420"/>
    <nd ref="559513419"/>
    <nd ref="559513417"/>
    <nd ref="559513416"/>
    <nd ref="559513413"/>
    <nd ref="559513412"/>
    <nd ref="559513410"/>
    <nd ref="559513409"/>
    <nd ref="559513408"/>
    <nd ref="559513407"/>
    <nd ref="559513406"/>
    <nd ref="559513405"/>
    <nd ref="559513404"/>
    <nd ref="559513403"/>
    <nd ref="559513402"/>
    <nd ref="559513401"/>
    <nd ref="559513399"/>
    <nd ref="559513398"/>
    <nd ref="559513397"/>
    <nd ref="559513396"/>
    <nd ref="559513395"/>
    <nd ref="559513394"/>
    <nd ref="559513393"/>
    <nd ref="559513392"/>
    <nd ref="559513391"/>
    <nd ref="559513390"/>
    <nd ref="559513389"/>
    <nd ref="559513388"/>
    <nd ref="559513387"/>
    <nd ref="559513386"/>
    <nd ref="559513384"/>
    <nd ref="559513383"/>
    <nd ref="559513382"/>
    <nd ref="559513381"/>
    <nd ref="559513379"/>
    <nd ref="559513378"/>
    <nd ref="559513377"/>
    <nd ref="559513376"/>
    <nd ref="559513374"/>
    <nd ref="559513373"/>
    <nd ref="559513371"/>
    <nd ref="559513370"/>
    <nd ref="559513369"/>
    <nd ref="559513367"/>
    <nd ref="559513366"/>
    <nd ref="559513365"/>
    <nd ref="559513364"/>
    <nd ref="559513363"/>
    <nd ref="559513362"/>
    <nd ref="559513361"/>
    <nd ref="559513360"/>
    <nd ref="559513351"/>
    <nd ref="559513350"/>
    <nd ref="559513358"/>
    <nd ref="559513349"/>
    <nd ref="559513352"/>
    <nd ref="559513348"/>
    <nd ref="559513347"/>
    <nd ref="559513346"/>
    <nd ref="559513345"/>
    <nd ref="559513344"/>
    <nd ref="559513343"/>
    <nd ref="559513342"/>
    <nd ref="559513341"/>
    <nd ref="559513340"/>
    <nd ref="559513339"/>
    <nd ref="559513338"/>
    <nd ref="559513337"/>
    <nd ref="559581410"/>
    <nd ref="559513336"/>
    <nd ref="559513335"/>
    <nd ref="559513334"/>
    <nd ref="559513333"/>
    <nd ref="559513332"/>
    <nd ref="559581409"/>
    <nd ref="559513331"/>
    <nd ref="559513329"/>
    <nd ref="559513328"/>
    <nd ref="559513327"/>
    <nd ref="559513326"/>
    <nd ref="559513325"/>
    <nd ref="559513324"/>
    <nd ref="559513323"/>
    <nd ref="559513322"/>
    <nd ref="559513321"/>
    <nd ref="559513320"/>
    <nd ref="559581407"/>
    <nd ref="559513319"/>
    <nd ref="559513318"/>
    <nd ref="559581405"/>
    <nd ref="559513317"/>
    <nd ref="559513316"/>
    <nd ref="559513314"/>
    <nd ref="415802058"/>
    <nd ref="415802059"/>
    <tag k="highway" v="service"/>
    <tag k="maxspeed" v="30"/>
    <tag k="name" v="Schlo Wald Leinigen"/>
    <tag k="service" v="driveway"/>
    <tag k="surface" v="paved"/>
    <tag k="width" v="3"/>
  </way>
  <way id="35448413" version="3" timestamp="2010-02-12T19:42:44Z" uid="9581" user="Lobelt" changeset="3859592">
    <nd ref="323914907"/>
    <nd ref="302013089"/>
    <nd ref="302013087"/>
    <nd ref="637695185"/>
    <nd ref="302013086"/>
    <nd ref="302013085"/>
    <nd ref="415802053"/>
    <nd ref="637695192"/>
    <nd ref="302013084"/>
    <nd ref="268287767"/>
    <nd ref="637695216"/>
    <nd ref="268287768"/>
    <nd ref="637695215"/>
    <nd ref="637695224"/>
    <nd ref="637695223"/>
    <nd ref="268287769"/>
    <nd ref="268287770"/>
    <nd ref="637695083"/>
    <nd ref="415802052"/>
    <nd ref="637695078"/>
    <nd ref="268287771"/>
    <nd ref="637695074"/>
    <nd ref="302013083"/>
    <nd ref="637695073"/>
    <nd ref="637695075"/>
    <nd ref="268287772"/>
    <nd ref="302013082"/>
    <nd ref="268287773"/>
    <nd ref="637695076"/>
    <nd ref="637695376"/>
    <nd ref="637695382"/>
    <nd ref="415802051"/>
    <nd ref="637695369"/>
    <nd ref="268287774"/>
    <nd ref="637695373"/>
    <nd ref="268287775"/>
    <nd ref="268287776"/>
    <nd ref="268287777"/>
    <nd ref="637695370"/>
    <nd ref="637695371"/>
    <nd ref="268287778"/>
    <nd ref="637695372"/>
    <nd ref="302892364"/>
    <nd ref="302892363"/>
    <nd ref="637695341"/>
    <nd ref="268287779"/>
    <nd ref="637695335"/>
    <nd ref="268287780"/>
    <nd ref="637695331"/>
    <nd ref="637695337"/>
    <nd ref="268287781"/>
    <nd ref="302892361"/>
    <nd ref="302892362"/>
    <nd ref="302892355"/>
    <nd ref="637695440"/>
    <nd ref="302892357"/>
    <nd ref="302892356"/>
    <nd ref="302892360"/>
    <nd ref="302892358"/>
    <nd ref="302892359"/>
    <nd ref="637695295"/>
    <nd ref="268287782"/>
    <nd ref="302892353"/>
    <nd ref="302892354"/>
    <nd ref="302892352"/>
    <nd ref="637695296"/>
    <nd ref="302892350"/>
    <nd ref="637695282"/>
    <nd ref="302892351"/>
    <nd ref="302892349"/>
    <nd ref="268287783"/>
    <nd ref="302892347"/>
    <nd ref="637695269"/>
    <nd ref="268287784"/>
    <nd ref="268287785"/>
    <nd ref="637695260"/>
    <nd ref="268287786"/>
    <nd ref="268287787"/>
    <nd ref="302892346"/>
    <nd ref="268287788"/>
    <nd ref="268287789"/>
    <nd ref="637695309"/>
    <nd ref="302892344"/>
    <nd ref="302892343"/>
    <nd ref="268287795"/>
    <nd ref="637695303"/>
    <nd ref="302892342"/>
    <nd ref="302892340"/>
    <nd ref="302892339"/>
    <nd ref="268287797"/>
    <nd ref="302892337"/>
    <nd ref="268287798"/>
    <nd ref="268287799"/>
    <tag k="highway" v="tertiary"/>
    <tag k="ref" v="K 40"/>
  </way>
  <way id="35448638" version="1" timestamp="2009-06-04T21:15:21Z" uid="34428" user="usm78-gis" changeset="1424938">
    <nd ref="415803259"/>
    <nd ref="17766067"/>
    <nd ref="17766071"/>
    <nd ref="17766072"/>
    <nd ref="17766073"/>
    <nd ref="17766074"/>
    <nd ref="17766075"/>
    <nd ref="17766076"/>
    <nd ref="269348112"/>
    <tag k="highway" v="unclassified"/>
    <tag k="name" v="Niemenkylntie"/>
  </way>
  <way id="35448659" version="1" timestamp="2009-06-04T21:17:47Z" uid="34428" user="usm78-gis" changeset="1424955">
    <nd ref="415803548"/>
    <nd ref="267650445"/>
    <nd ref="267650446"/>
    <nd ref="267650447"/>
    <nd ref="267650449"/>
    <nd ref="267650450"/>
    <nd ref="267650451"/>
    <nd ref="267650452"/>
    <nd ref="267650454"/>
    <nd ref="267650455"/>
    <nd ref="267650456"/>
    <nd ref="267650457"/>
    <nd ref="267650458"/>
    <nd ref="267650460"/>
    <nd ref="267650461"/>
    <nd ref="267650462"/>
    <nd ref="267650463"/>
    <nd ref="267650464"/>
    <nd ref="267650465"/>
    <nd ref="267650466"/>
    <nd ref="267650468"/>
    <nd ref="267650469"/>
    <nd ref="267650470"/>
    <nd ref="267650471"/>
    <nd ref="267650473"/>
    <nd ref="267650474"/>
    <nd ref="267650475"/>
    <nd ref="267650476"/>
    <nd ref="267650477"/>
    <nd ref="267650479"/>
    <nd ref="267650480"/>
    <nd ref="267650481"/>
    <nd ref="267650482"/>
    <nd ref="267650483"/>
    <nd ref="267650485"/>
    <nd ref="267650486"/>
    <nd ref="267650487"/>
    <nd ref="267650488"/>
    <nd ref="267650489"/>
    <nd ref="267650491"/>
    <nd ref="267650492"/>
    <nd ref="267650493"/>
    <tag k="highway" v="track"/>
    <tag k="tracktype" v="grade4"/>
  </way>
  <way id="35448667" version="1" timestamp="2009-06-04T21:18:35Z" uid="34428" user="usm78-gis" changeset="1424960">
    <nd ref="415803557"/>
    <nd ref="267692331"/>
    <nd ref="267692332"/>
    <nd ref="267692333"/>
    <nd ref="267692334"/>
    <tag k="created_by" v="Potlatch 0.9c"/>
    <tag k="highway" v="track"/>
    <tag k="tracktype" v="grade4"/>
  </way>
  <way id="35448669" version="2" timestamp="2011-04-30T12:50:06Z" uid="9581" user="Lobelt" changeset="8011373">
    <nd ref="415803569"/>
    <nd ref="415803568"/>
    <nd ref="415803567"/>
    <nd ref="257393233"/>
    <nd ref="257393234"/>
    <nd ref="257393235"/>
    <tag k="highway" v="residential"/>
    <tag k="name" v="Sonnenweg"/>
  </way>
  <way id="35448670" version="3" timestamp="2011-04-30T12:50:01Z" uid="9581" user="Lobelt" changeset="8011373">
    <nd ref="60497303"/>
    <nd ref="415803566"/>
    <nd ref="415803565"/>
    <nd ref="415804004"/>
    <nd ref="415803564"/>
    <nd ref="415803563"/>
    <nd ref="415803562"/>
    <nd ref="257393235"/>
    <nd ref="415803561"/>
    <nd ref="257393236"/>
    <nd ref="257393237"/>
    <tag k="highway" v="residential"/>
    <tag k="name" v="Grohlochstrae"/>
  </way>
  <way id="35448673" version="1" timestamp="2009-06-04T21:19:18Z" uid="34428" user="usm78-gis" changeset="1424968">
    <nd ref="415803655"/>
    <nd ref="694974"/>
    <nd ref="694975"/>
    <tag k="created_by" v="Potlatch alpha"/>
    <tag k="highway" v="secondary"/>
    <tag k="name" v="Vaalimaantie"/>
    <tag k="ref" v="387"/>
  </way>
  <way id="35448681" version="1" timestamp="2009-06-04T21:20:13Z" uid="34428" user="usm78-gis" changeset="1424970">
    <nd ref="415803706"/>
    <nd ref="21632356"/>
    <nd ref="21632357"/>
    <nd ref="21632358"/>
    <nd ref="21632359"/>
    <nd ref="21632360"/>
    <nd ref="21632361"/>
    <nd ref="21632362"/>
    <nd ref="21632363"/>
    <nd ref="21632364"/>
    <nd ref="21632365"/>
    <nd ref="21632366"/>
    <nd ref="21632367"/>
    <nd ref="21632368"/>
    <nd ref="21632369"/>
    <nd ref="21632370"/>
    <nd ref="21632371"/>
    <nd ref="21632372"/>
    <nd ref="21632373"/>
    <nd ref="21632374"/>
    <nd ref="21632375"/>
    <nd ref="21632376"/>
    <nd ref="21632377"/>
    <nd ref="21632378"/>
    <nd ref="21632379"/>
    <tag k="created_by" v="Potlatch 0.7b"/>
    <tag k="highway" v="tertiary"/>
    <tag k="name" v="Kanalammentie"/>
  </way>
  <way id="35448693" version="1" timestamp="2009-06-04T21:20:59Z" uid="34428" user="usm78-gis" changeset="1424974">
    <nd ref="415803778"/>
    <nd ref="253739693"/>
    <nd ref="253739694"/>
    <nd ref="253739714"/>
    <nd ref="253739695"/>
    <nd ref="253739696"/>
    <nd ref="253739697"/>
    <nd ref="253739698"/>
    <nd ref="253755414"/>
    <nd ref="253739699"/>
    <nd ref="253739898"/>
    <nd ref="253739700"/>
    <nd ref="253739899"/>
    <nd ref="253739900"/>
    <nd ref="253739901"/>
    <nd ref="253739902"/>
    <nd ref="253739903"/>
    <nd ref="253739904"/>
    <nd ref="253739905"/>
    <nd ref="253739906"/>
    <nd ref="253739907"/>
    <nd ref="253739908"/>
    <nd ref="253739909"/>
    <nd ref="253739910"/>
    <nd ref="253739911"/>
    <nd ref="253739912"/>
    <nd ref="253739913"/>
    <nd ref="253739914"/>
    <nd ref="253739915"/>
    <nd ref="253739916"/>
    <nd ref="253739917"/>
    <nd ref="253739918"/>
    <nd ref="253739919"/>
    <nd ref="253739920"/>
    <nd ref="253739921"/>
    <nd ref="253739922"/>
    <nd ref="253739923"/>
    <nd ref="253739924"/>
    <nd ref="253739925"/>
    <nd ref="253739926"/>
    <nd ref="253739927"/>
    <nd ref="253739928"/>
    <nd ref="415803706"/>
    <tag k="created_by" v="Potlatch 0.7b"/>
    <tag k="highway" v="tertiary"/>
    <tag k="name" v="Haikalantie"/>
  </way>
  <way id="35448693" version="2" timestamp="2009-06-04T21:21:24Z" uid="34428" user="usm78-gis" changeset="1424974">
    <nd ref="415803778"/>
    <nd ref="253739693"/>
    <nd ref="253739694"/>
    <nd ref="253739714"/>
    <nd ref="253739695"/>
    <tag k="created_by" v="Potlatch 0.7b"/>
    <tag k="highway" v="tertiary"/>
    <tag k="name" v="Haikalantie"/>
  </way>
  <way id="35448694" version="1" timestamp="2009-06-04T21:21:05Z" uid="34428" user="usm78-gis" changeset="1424974">
    <nd ref="253739566"/>
    <nd ref="253739714"/>
    <tag k="created_by" v="Potlatch 0.7b"/>
    <tag k="highway" v="tertiary"/>
    <tag k="name" v="Vapaavarastontie"/>
  </way>
  <way id="35448694" version="2" timestamp="2009-06-04T21:21:10Z" uid="34428" user="usm78-gis" changeset="1424974"/>
  <way id="35448699" version="1" timestamp="2009-06-04T21:21:24Z" uid="34428" user="usm78-gis" changeset="1424974">
    <nd ref="253739695"/>
    <nd ref="253739696"/>
    <nd ref="253739697"/>
    <nd ref="253739698"/>
    <nd ref="253755414"/>
    <nd ref="253739699"/>
    <nd ref="253739898"/>
    <nd ref="253739700"/>
    <nd ref="253739899"/>
    <nd ref="253739900"/>
    <nd ref="253739901"/>
    <nd ref="253739902"/>
    <nd ref="253739903"/>
    <nd ref="253739904"/>
    <nd ref="253739905"/>
    <nd ref="253739906"/>
    <nd ref="253739907"/>
    <nd ref="253739908"/>
    <nd ref="253739909"/>
    <nd ref="253739910"/>
    <nd ref="253739911"/>
    <nd ref="253739912"/>
    <nd ref="253739913"/>
    <nd ref="253739914"/>
    <nd ref="253739915"/>
    <nd ref="253739916"/>
    <nd ref="253739917"/>
    <nd ref="253739918"/>
    <nd ref="253739919"/>
    <nd ref="253739920"/>
    <nd ref="253739921"/>
    <nd ref="253739922"/>
    <nd ref="253739923"/>
    <nd ref="253739924"/>
    <nd ref="253739925"/>
    <nd ref="253739926"/>
    <nd ref="253739927"/>
    <nd ref="253739928"/>
    <nd ref="415803706"/>
    <tag k="created_by" v="Potlatch 0.7b"/>
    <tag k="highway" v="tertiary"/>
    <tag k="name" v="Haikalantie"/>
  </way>
  <way id="35448749" version="1" timestamp="2009-06-04T21:23:31Z" uid="34428" user="usm78-gis" changeset="1424984">
    <nd ref="415803953"/>
    <nd ref="187741642"/>
    <nd ref="187741665"/>
    <nd ref="152692298"/>
    <nd ref="152692300"/>
    <nd ref="152692302"/>
    <nd ref="152692304"/>
    <nd ref="152692305"/>
    <nd ref="152692307"/>
    <nd ref="267234132"/>
    <nd ref="267978046"/>
    <nd ref="267978042"/>
    <nd ref="152692315"/>
    <nd ref="152692318"/>
    <tag k="highway" v="tertiary"/>
    <tag k="name" v="Onnelantie"/>
    <tag k="oneway" v="no"/>
  </way>
  <way id="35448749" version="2" timestamp="2009-06-04T21:23:34Z" uid="34428" user="usm78-gis" changeset="1424984">
    <nd ref="415803953"/>
    <nd ref="187741642"/>
    <tag k="highway" v="tertiary"/>
    <tag k="name" v="Onnelantie"/>
    <tag k="oneway" v="no"/>
  </way>
  <way id="35448750" version="1" timestamp="2009-06-04T21:23:34Z" uid="34428" user="usm78-gis" changeset="1424984">
    <nd ref="187741642"/>
    <nd ref="187741665"/>
    <nd ref="152692298"/>
    <nd ref="152692300"/>
    <nd ref="152692302"/>
    <nd ref="152692304"/>
    <nd ref="152692305"/>
    <nd ref="152692307"/>
    <nd ref="267234132"/>
    <nd ref="267978046"/>
    <nd ref="267978042"/>
    <nd ref="152692315"/>
    <nd ref="152692318"/>
    <tag k="highway" v="tertiary"/>
    <tag k="name" v="Onnelantie"/>
    <tag k="oneway" v="no"/>
  </way>
  <way id="35448750" version="2" timestamp="2009-06-04T21:23:36Z" uid="34428" user="usm78-gis" changeset="1424984">
    <nd ref="187741642"/>
    <nd ref="187741665"/>
    <tag k="highway" v="tertiary"/>
    <tag k="name" v="Onnelantie"/>
    <tag k="oneway" v="no"/>
  </way>
  <way id="35448751" version="1" timestamp="2009-06-04T21:23:36Z" uid="34428" user="usm78-gis" changeset="1424984">
    <nd ref="187741665"/>
    <nd ref="152692298"/>
    <nd ref="152692300"/>
    <nd ref="152692302"/>
    <nd ref="152692304"/>
    <nd ref="152692305"/>
    <nd ref="152692307"/>
    <nd ref="267234132"/>
    <nd ref="267978046"/>
    <nd ref="267978042"/>
    <nd ref="152692315"/>
    <nd ref="152692318"/>
    <tag k="highway" v="tertiary"/>
    <tag k="name" v="Onnelantie"/>
    <tag k="oneway" v="no"/>
  </way>
  <way id="35448757" version="1" timestamp="2009-06-04T21:24:22Z" uid="34428" user="usm78-gis" changeset="1424987">
    <nd ref="287221480"/>
    <nd ref="287221473"/>
    <tag k="highway" v="residential"/>
    <tag k="name" v="Kaurankatu"/>
  </way>
  <way id="35448764" version="2" timestamp="2011-04-30T12:50:27Z" uid="9581" user="Lobelt" changeset="8011373">
    <nd ref="257393237"/>
    <nd ref="257393238"/>
    <nd ref="257393239"/>
    <nd ref="257393240"/>
    <nd ref="257393241"/>
    <nd ref="257393242"/>
    <tag k="highway" v="track"/>
    <tag k="tracktype" v="grade1"/>
  </way>
  <way id="35448776" version="3" timestamp="2009-12-03T17:19:07Z" uid="200463" user="harmagedon" changeset="3282369">
    <nd ref="371547255"/>
    <nd ref="371547257"/>
    <nd ref="371547258"/>
    <nd ref="371547261"/>
    <nd ref="371547264"/>
    <nd ref="336510041"/>
    <tag k="highway" v="tertiary"/>
    <tag k="name" v="PAN 6"/>
    <tag k="ref" v="PAN 6"/>
  </way>
  <way id="35448781" version="1" timestamp="2009-06-04T21:25:29Z" uid="34428" user="usm78-gis" changeset="1424995">
    <nd ref="415804024"/>
    <nd ref="150376874"/>
    <tag k="highway" v="tertiary"/>
    <tag k="oneway" v="no"/>
  </way>
  <way id="35448783" version="1" timestamp="2009-06-04T21:26:29Z" uid="34428" user="usm78-gis" changeset="1425002">
    <nd ref="415804054"/>
    <nd ref="135598462"/>
    <nd ref="135598458"/>
    <nd ref="135598455"/>
    <nd ref="151238782"/>
    <nd ref="151238735"/>
    <nd ref="156273341"/>
    <tag k="created_by" v="Potlatch 0.5d"/>
    <tag k="highway" v="residential"/>
    <tag k="name" v="Kapteeninkatu"/>
    <tag k="oneway" v="no"/>
  </way>
  <way id="35448793" version="1" timestamp="2009-06-04T21:26:54Z" uid="34428" user="usm78-gis" changeset="1425005">
    <nd ref="415804166"/>
    <nd ref="135598475"/>
    <nd ref="135598481"/>
    <nd ref="135598485"/>
    <nd ref="135598489"/>
    <nd ref="135598499"/>
    <nd ref="135598503"/>
    <nd ref="135598513"/>
    <nd ref="135598517"/>
    <nd ref="135598918"/>
    <tag k="highway" v="residential"/>
    <tag k="name" v="Kesmenkatu"/>
    <tag k="oneway" v="no"/>
  </way>
  <way id="35448793" version="2" timestamp="2009-06-04T21:27:18Z" uid="34428" user="usm78-gis" changeset="1425008">
    <nd ref="415804166"/>
    <nd ref="135598475"/>
    <nd ref="135598481"/>
    <nd ref="135598485"/>
    <nd ref="135598489"/>
    <nd ref="135598499"/>
    <nd ref="135598503"/>
    <nd ref="135598513"/>
    <nd ref="135598517"/>
    <nd ref="415804174"/>
    <nd ref="135598918"/>
    <tag k="highway" v="residential"/>
    <tag k="name" v="Kesmenkatu"/>
    <tag k="oneway" v="no"/>
  </way>
  <way id="35448793" version="3" timestamp="2009-06-04T21:27:20Z" uid="34428" user="usm78-gis" changeset="1425008">
    <nd ref="415804166"/>
    <nd ref="135598475"/>
    <nd ref="135598481"/>
    <nd ref="135598485"/>
    <nd ref="135598489"/>
    <nd ref="135598499"/>
    <nd ref="135598503"/>
    <nd ref="135598513"/>
    <nd ref="135598517"/>
    <nd ref="415804174"/>
    <tag k="highway" v="residential"/>
    <tag k="name" v="Kesmenkatu"/>
    <tag k="oneway" v="no"/>
  </way>
  <way id="35448797" version="1" timestamp="2009-06-04T21:27:20Z" uid="34428" user="usm78-gis" changeset="1425008">
    <nd ref="415804174"/>
    <nd ref="135598918"/>
    <tag k="highway" v="residential"/>
    <tag k="name" v="Kesmenkatu"/>
    <tag k="oneway" v="no"/>
  </way>
  <way id="35448799" version="4" timestamp="2009-11-29T22:45:28Z" uid="200463" user="harmagedon" changeset="3251061">
    <nd ref="415804182"/>
    <nd ref="371546719"/>
    <nd ref="371546721"/>
    <nd ref="371546722"/>
    <nd ref="371546726"/>
    <nd ref="371546728"/>
    <nd ref="371546729"/>
    <nd ref="371546732"/>
    <nd ref="339919137"/>
    <nd ref="339919136"/>
    <nd ref="339919135"/>
    <nd ref="339919134"/>
    <nd ref="339919133"/>
    <nd ref="339919132"/>
    <nd ref="339919130"/>
    <nd ref="339918566"/>
    <nd ref="339919129"/>
    <nd ref="339919128"/>
    <nd ref="339919127"/>
    <nd ref="339919126"/>
    <nd ref="339919125"/>
    <nd ref="339919124"/>
    <nd ref="339919123"/>
    <nd ref="339919122"/>
    <nd ref="339919121"/>
    <nd ref="339919120"/>
    <nd ref="339919119"/>
    <nd ref="339919118"/>
    <nd ref="339919117"/>
    <nd ref="339919116"/>
    <nd ref="339919115"/>
    <nd ref="339919114"/>
    <nd ref="339919113"/>
    <nd ref="339919112"/>
    <nd ref="339919111"/>
    <nd ref="339919110"/>
    <nd ref="339919109"/>
    <nd ref="339919108"/>
    <nd ref="339920757"/>
    <nd ref="339920758"/>
    <nd ref="339920759"/>
    <nd ref="339920761"/>
    <nd ref="339920762"/>
    <nd ref="339920763"/>
    <nd ref="339920765"/>
    <nd ref="339920766"/>
    <nd ref="339920768"/>
    <nd ref="339920769"/>
    <nd ref="339920771"/>
    <nd ref="339920772"/>
    <nd ref="339920773"/>
    <nd ref="339920775"/>
    <nd ref="339920776"/>
    <nd ref="339920778"/>
    <nd ref="339920779"/>
    <nd ref="339920780"/>
    <nd ref="339920781"/>
    <nd ref="339920782"/>
    <nd ref="339920783"/>
    <nd ref="339920784"/>
    <nd ref="339920785"/>
    <nd ref="339920786"/>
    <nd ref="339920787"/>
    <nd ref="339920788"/>
    <nd ref="339920789"/>
    <nd ref="339920790"/>
    <nd ref="339920791"/>
    <nd ref="339920792"/>
    <nd ref="339920793"/>
    <nd ref="339920794"/>
    <nd ref="339920795"/>
    <nd ref="339920796"/>
    <nd ref="339920797"/>
    <nd ref="339920798"/>
    <nd ref="339920799"/>
    <nd ref="339920800"/>
    <nd ref="339920801"/>
    <nd ref="339920802"/>
    <nd ref="339920803"/>
    <nd ref="339920804"/>
    <nd ref="339920805"/>
    <nd ref="339920806"/>
    <nd ref="339920807"/>
    <nd ref="339920808"/>
    <nd ref="339920809"/>
    <nd ref="339920810"/>
    <nd ref="339920811"/>
    <nd ref="339920812"/>
    <nd ref="339920813"/>
    <nd ref="339920814"/>
    <nd ref="339920815"/>
    <nd ref="339920816"/>
    <nd ref="339920817"/>
    <nd ref="339920818"/>
    <nd ref="339920819"/>
    <nd ref="339920820"/>
    <nd ref="339920821"/>
    <nd ref="339920822"/>
    <nd ref="339920823"/>
    <nd ref="339920824"/>
    <nd ref="339920825"/>
    <nd ref="339920826"/>
    <nd ref="339920827"/>
    <nd ref="339920828"/>
    <nd ref="339920829"/>
    <nd ref="339920830"/>
    <nd ref="339920831"/>
    <nd ref="339920832"/>
    <nd ref="339920833"/>
    <nd ref="339920834"/>
    <nd ref="339920835"/>
    <nd ref="339920836"/>
    <nd ref="339920837"/>
    <nd ref="339920838"/>
    <nd ref="339920839"/>
    <nd ref="339920840"/>
    <nd ref="339920841"/>
    <nd ref="339920842"/>
    <nd ref="339920843"/>
    <nd ref="339920844"/>
    <nd ref="339920845"/>
    <nd ref="339920846"/>
    <nd ref="339920847"/>
    <nd ref="339920848"/>
    <nd ref="339920849"/>
    <nd ref="339920850"/>
    <nd ref="339920851"/>
    <nd ref="339920852"/>
    <nd ref="339920853"/>
    <nd ref="339920854"/>
    <nd ref="339920855"/>
    <nd ref="339920856"/>
    <nd ref="339920857"/>
    <nd ref="339920858"/>
    <nd ref="339920859"/>
    <nd ref="339920861"/>
    <nd ref="339920862"/>
    <tag k="highway" v="tertiary"/>
    <tag k="name" v="PAN 22"/>
    <tag k="ref" v="PAN 22"/>
  </way>
  <way id="35448835" version="3" timestamp="2011-04-30T12:50:04Z" uid="9581" user="Lobelt" changeset="8011373">
    <nd ref="415804470"/>
    <nd ref="305262015"/>
    <nd ref="415803986"/>
    <nd ref="60497255"/>
    <nd ref="415803987"/>
    <nd ref="415803988"/>
    <nd ref="60497210"/>
    <nd ref="415803989"/>
    <nd ref="60497325"/>
    <nd ref="415804468"/>
    <nd ref="415803990"/>
    <nd ref="415803994"/>
    <nd ref="60497362"/>
    <nd ref="415803996"/>
    <nd ref="60497303"/>
    <tag k="highway" v="secondary"/>
    <tag k="name" v="Rdesheimer Strae"/>
    <tag k="ref" v="L 3272"/>
  </way>
</osm>
