<?xml version='1.0' encoding='UTF-8'?>
<osm version="0.6" generator="libosmium/2.20.0">
  <way id="35473034" version="2" timestamp="2009-09-30T13:59:47Z" uid="36809" user="pfoten_weg_!_" changeset="2688655">
    <nd ref="221670084"/>
    <nd ref="221670085"/>
    <nd ref="221670086"/>
    <nd ref="221670087"/>
    <nd ref="221670088"/>
    <nd ref="221670089"/>
    <nd ref="221670090"/>
    <nd ref="221670091"/>
    <nd ref="221670092"/>
    <nd ref="221670093"/>
    <nd ref="221670094"/>
    <tag k="highway" v="residential"/>
    <tag k="name" v="SportplatzstraÃŸe"/>
  </way>
  <way id="35473035" version="2" timestamp="2009-09-30T13:59:49Z" uid="36809" user="pfoten_weg_!_" changeset="2688655">
    <nd ref="221670080"/>
    <nd ref="264131571"/>
    <nd ref="221672989"/>
    <nd ref="221672990"/>
    <nd ref="221672992"/>
    <nd ref="221672995"/>
    <nd ref="221672997"/>
    <nd ref="221672999"/>
    <nd ref="221673001"/>
    <nd ref="221673003"/>
    <nd ref="221664843"/>
    <nd ref="221673005"/>
    <nd ref="221673007"/>
    <nd ref="221673009"/>
    <nd ref="221673015"/>
    <nd ref="221673021"/>
    <nd ref="221673022"/>
    <nd ref="221673024"/>
    <tag k="highway" v="tertiary"/>
    <tag k="ref" v="FFB 8"/>
  </way>
  <way id="35473157" version="4" timestamp="2010-02-11T14:09:18Z" uid="163746" user="anti_bot-nonsense" changeset="3848655">
    <nd ref="415999535"/>
    <nd ref="415999536"/>
    <tag k="bridge" v="yes"/>
    <tag k="highway" v="tertiary"/>
    <tag k="layer" v="1"/>
    <tag k="ref" v="PAN 11"/>
  </way>
  <way id="35473160" version="7" timestamp="2010-04-16T15:29:30Z" uid="4467" user="Rosscoe" changeset="4439633">
    <nd ref="638193944"/>
    <nd ref="641564675"/>
    <nd ref="415999539"/>
    <nd ref="70189214"/>
    <nd ref="698790239"/>
    <tag k="highway" v="residential"/>
    <tag k="name" v="McDonald Street"/>
  </way>
  <way id="35473160" version="8" timestamp="2010-07-09T18:19:56Z" uid="74617" user="JohnSmith" changeset="5175333">
    <nd ref="638193944"/>
    <nd ref="641564675"/>
    <nd ref="415999539"/>
    <nd ref="70189214"/>
    <nd ref="698790239"/>
    <tag k="highway" v="residential"/>
    <tag k="maxspeed" v="50"/>
    <tag k="maxspeed:source" v="default residential speed limit in Australia"/>
    <tag k="name" v="McDonald Street"/>
  </way>
  <way id="35473160" version="9" timestamp="2011-04-24T04:05:04Z" uid="4467" user="Rosscoe" changeset="7949114">
    <nd ref="638193944"/>
    <nd ref="641564675"/>
    <nd ref="415999539"/>
    <nd ref="70189214"/>
    <nd ref="698790239"/>
    <tag k="highway" v="residential"/>
    <tag k="maxspeed" v="50"/>
    <tag k="name" v="McDonald Street"/>
    <tag k="source:maxspeed" v="default residential speed limit in Australia"/>
  </way>
  <way id="35473164" version="3" timestamp="2010-02-11T14:09:13Z" uid="163746" user="anti_bot-nonsense" changeset="3848655">
    <nd ref="415999663"/>
    <nd ref="17080586"/>
    <nd ref="415999801"/>
    <tag k="highway" v="primary"/>
    <tag k="ref" v="B 388"/>
  </way>
  <way id="35473165" version="3" timestamp="2010-02-11T14:09:18Z" uid="163746" user="anti_bot-nonsense" changeset="3848655">
    <nd ref="415999664"/>
    <nd ref="415999663"/>
    <tag k="bridge" v="yes"/>
    <tag k="highway" v="primary"/>
    <tag k="layer" v="1"/>
    <tag k="ref" v="B 388"/>
  </way>
  <way id="35473182" version="4" timestamp="2010-02-11T14:09:34Z" uid="163746" user="anti_bot-nonsense" changeset="3848655">
    <nd ref="415999801"/>
    <nd ref="415999802"/>
    <tag k="bridge" v="yes"/>
    <tag k="highway" v="primary"/>
    <tag k="layer" v="1"/>
    <tag k="ref" v="B 388"/>
  </way>
  <way id="35473195" version="2" timestamp="2010-02-11T14:09:14Z" uid="163746" user="anti_bot-nonsense" changeset="3848655">
    <nd ref="415999837"/>
    <nd ref="17081676"/>
    <tag k="highway" v="primary"/>
    <tag k="ref" v="B 388"/>
  </way>
  <way id="35473196" version="3" timestamp="2010-02-11T14:09:17Z" uid="163746" user="anti_bot-nonsense" changeset="3848655">
    <nd ref="415999838"/>
    <nd ref="415999837"/>
    <tag k="bridge" v="yes"/>
    <tag k="highway" v="primary"/>
    <tag k="layer" v="1"/>
    <tag k="ref" v="B 388"/>
  </way>
  <way id="35473222" version="4" timestamp="2010-02-11T14:09:15Z" uid="163746" user="anti_bot-nonsense" changeset="3848655">
    <nd ref="415999970"/>
    <nd ref="415999971"/>
    <tag k="bridge" v="yes"/>
    <tag k="highway" v="primary"/>
    <tag k="layer" v="1"/>
    <tag k="ref" v="B 388"/>
  </way>
  <way id="35473227" version="2" timestamp="2010-02-11T14:09:15Z" uid="163746" user="anti_bot-nonsense" changeset="3848655">
    <nd ref="415999971"/>
    <nd ref="415999838"/>
    <tag k="highway" v="primary"/>
    <tag k="ref" v="B 388"/>
  </way>
  <way id="35473278" version="4" timestamp="2010-02-11T14:09:16Z" uid="163746" user="anti_bot-nonsense" changeset="3848655">
    <nd ref="416000337"/>
    <nd ref="416000345"/>
    <tag k="bridge" v="yes"/>
    <tag k="highway" v="primary"/>
    <tag k="layer" v="1"/>
    <tag k="ref" v="B 388"/>
  </way>
  <way id="35473279" version="2" timestamp="2010-02-11T14:09:16Z" uid="163746" user="anti_bot-nonsense" changeset="3848655">
    <nd ref="416000345"/>
    <nd ref="415999970"/>
    <tag k="highway" v="primary"/>
    <tag k="ref" v="B 388"/>
  </way>
  <way id="35473294" version="4" timestamp="2010-01-28T19:30:12Z" uid="163746" user="anti_bot-nonsense" changeset="3738205">
    <nd ref="416000564"/>
    <nd ref="416000566"/>
    <tag k="bridge" v="yes"/>
    <tag k="highway" v="primary"/>
    <tag k="layer" v="1"/>
    <tag k="ref" v="B 388"/>
  </way>
  <way id="35473297" version="3" timestamp="2010-01-28T19:30:11Z" uid="163746" user="anti_bot-nonsense" changeset="3738205">
    <nd ref="416000566"/>
    <nd ref="416000568"/>
    <tag k="highway" v="primary"/>
    <tag k="ref" v="B 388"/>
  </way>
  <way id="35473300" version="4" timestamp="2010-01-28T19:30:11Z" uid="163746" user="anti_bot-nonsense" changeset="3738205">
    <nd ref="416000568"/>
    <nd ref="416000574"/>
    <tag k="bridge" v="yes"/>
    <tag k="highway" v="primary"/>
    <tag k="layer" v="1"/>
    <tag k="ref" v="B 388"/>
  </way>
  <way id="35473332" version="2" timestamp="2010-02-11T14:09:17Z" uid="163746" user="anti_bot-nonsense" changeset="3848655">
    <nd ref="416000574"/>
    <nd ref="416000337"/>
    <tag k="highway" v="primary"/>
    <tag k="ref" v="B 388"/>
  </way>
  <way id="35473343" version="4" timestamp="2010-02-23T16:52:00Z" uid="163746" user="anti_bot-nonsense" changeset="3955403"/>
  <way id="35473344" version="3" timestamp="2010-01-28T19:29:58Z" uid="163746" user="anti_bot-nonsense" changeset="3738205">
    <nd ref="416000762"/>
    <nd ref="416000761"/>
    <tag k="bridge" v="yes"/>
    <tag k="highway" v="tertiary"/>
    <tag k="layer" v="1"/>
    <tag k="ref" v="PAN 13"/>
  </way>
  <way id="35473344" version="4" timestamp="2010-02-23T16:58:23Z" uid="163746" user="anti_bot-nonsense" changeset="3955470"/>
  <way id="35473368" version="3" timestamp="2010-01-28T19:29:56Z" uid="163746" user="anti_bot-nonsense" changeset="3738205">
    <nd ref="416000919"/>
    <nd ref="416000898"/>
    <tag k="bridge" v="yes"/>
    <tag k="highway" v="primary"/>
    <tag k="layer" v="1"/>
    <tag k="ref" v="B 388"/>
  </way>
  <way id="35473385" version="3" timestamp="2010-05-31T21:09:08Z" uid="151899" user="Bikeman2000" changeset="4868557">
    <nd ref="415566160"/>
    <nd ref="760721002"/>
    <nd ref="415566161"/>
    <nd ref="426682520"/>
    <tag k="highway" v="residential"/>
    <tag k="name" v="Am Lindsbach"/>
    <tag k="source" v="Yahoo"/>
  </way>
  <way id="35473419" version="3" timestamp="2010-04-16T15:29:31Z" uid="4467" user="Rosscoe" changeset="4439633">
    <nd ref="698790247"/>
    <nd ref="367722466"/>
    <tag k="highway" v="residential"/>
    <tag k="name" v="Comer Street"/>
    <tag k="source" v="yahoo"/>
  </way>
  <way id="35473419" version="4" timestamp="2010-06-11T01:52:04Z" uid="4467" user="Rosscoe" changeset="4959360">
    <nd ref="698790247"/>
    <nd ref="367722466"/>
    <nd ref="768959270"/>
    <tag k="highway" v="residential"/>
    <tag k="name" v="Comer Street"/>
    <tag k="source" v="yahoo"/>
  </way>
  <way id="35473419" version="5" timestamp="2010-07-09T18:18:51Z" uid="74617" user="JohnSmith" changeset="5175333">
    <nd ref="698790247"/>
    <nd ref="367722466"/>
    <nd ref="768959270"/>
    <tag k="highway" v="residential"/>
    <tag k="maxspeed" v="50"/>
    <tag k="maxspeed:source" v="default residential speed limit in Australia"/>
    <tag k="name" v="Comer Street"/>
    <tag k="source" v="yahoo"/>
  </way>
  <way id="35473637" version="3" timestamp="2009-08-15T22:03:33Z" uid="7617" user="Franc" changeset="2158971">
    <nd ref="272645706"/>
    <nd ref="288776490"/>
    <nd ref="288776492"/>
    <nd ref="288776493"/>
    <nd ref="288776494"/>
    <nd ref="288776495"/>
    <nd ref="288776496"/>
    <nd ref="288776497"/>
    <nd ref="288776498"/>
    <nd ref="288776499"/>
    <nd ref="288776500"/>
    <nd ref="288776501"/>
    <nd ref="288776503"/>
    <nd ref="288776505"/>
    <nd ref="288776508"/>
    <nd ref="288776510"/>
    <nd ref="468594258"/>
    <nd ref="288776512"/>
    <tag k="created_by" v="Potlatch 0.10b"/>
    <tag k="highway" v="residential"/>
    <tag k="name" v="St Andrews Road"/>
    <tag k="source" v="yahoo_imagery"/>
  </way>
  <way id="35473637" version="4" timestamp="2009-10-03T05:07:24Z" uid="7617" user="Franc" changeset="2719359">
    <nd ref="272645706"/>
    <nd ref="288776490"/>
    <nd ref="288776492"/>
    <nd ref="288776493"/>
    <nd ref="288776494"/>
    <nd ref="288776495"/>
    <nd ref="288776496"/>
    <nd ref="288776497"/>
    <nd ref="288776498"/>
    <nd ref="288776499"/>
    <nd ref="288776500"/>
    <nd ref="288776501"/>
    <nd ref="288776503"/>
    <tag k="highway" v="residential"/>
    <tag k="name" v="St Andrews Road"/>
    <tag k="source" v="survey"/>
  </way>
  <way id="35473637" version="5" timestamp="2010-01-26T11:54:28Z" uid="7617" user="Franc" changeset="3718728">
    <nd ref="620521895"/>
    <nd ref="620521904"/>
    <tag k="highway" v="residential"/>
    <tag k="name" v="St Andrews Road"/>
    <tag k="restriction" v="school_zone"/>
    <tag k="source" v="survey"/>
  </way>
  <way id="35473637" version="6" timestamp="2010-07-07T20:34:58Z" uid="74617" user="JohnSmith" changeset="5161069">
    <nd ref="620521895"/>
    <nd ref="620521904"/>
    <tag k="highway" v="residential"/>
    <tag k="maxspeed" v="50"/>
    <tag k="maxspeed:source" v="default residential speed limit in Australia"/>
    <tag k="name" v="St Andrews Road"/>
    <tag k="restriction" v="school_zone"/>
    <tag k="source" v="survey"/>
  </way>
  <way id="35473768" version="2" timestamp="2011-03-09T22:17:16Z" uid="66036" user="h4v" changeset="7509377">
    <nd ref="415786462"/>
    <nd ref="1194694683"/>
    <nd ref="416005216"/>
    <tag k="highway" v="residential"/>
    <tag k="name" v="Kacza"/>
  </way>
  <way id="35473821" version="13" timestamp="2010-09-07T16:21:39Z" uid="43967" user="railsnail" changeset="5709404">
    <nd ref="283356735"/>
    <nd ref="283356736"/>
    <nd ref="283356737"/>
    <nd ref="283356739"/>
    <nd ref="283356740"/>
    <nd ref="283356742"/>
    <nd ref="283356743"/>
    <nd ref="283356744"/>
    <nd ref="283356747"/>
    <nd ref="283356749"/>
    <nd ref="283356750"/>
    <nd ref="283356751"/>
    <nd ref="283356753"/>
    <nd ref="283356754"/>
    <nd ref="283356755"/>
    <nd ref="283356756"/>
    <nd ref="283356757"/>
    <nd ref="283356758"/>
    <nd ref="283356759"/>
    <nd ref="283356761"/>
    <nd ref="283356764"/>
    <nd ref="283356766"/>
    <nd ref="283356767"/>
    <nd ref="283356769"/>
    <nd ref="283356771"/>
    <nd ref="283356773"/>
    <nd ref="283356775"/>
    <nd ref="283356776"/>
    <nd ref="283356778"/>
    <nd ref="283356779"/>
    <nd ref="283356780"/>
    <nd ref="283356781"/>
    <nd ref="442546958"/>
    <nd ref="417202567"/>
    <nd ref="283356786"/>
    <nd ref="283356787"/>
    <nd ref="503971263"/>
    <nd ref="278543379"/>
    <nd ref="278543378"/>
    <nd ref="278543377"/>
    <nd ref="416911766"/>
    <nd ref="278543376"/>
    <nd ref="417180559"/>
    <nd ref="278543375"/>
    <nd ref="278543368"/>
    <nd ref="433481672"/>
    <nd ref="901094816"/>
    <nd ref="278543367"/>
    <nd ref="433481673"/>
    <nd ref="417183257"/>
    <nd ref="417185531"/>
    <nd ref="278543334"/>
    <nd ref="278543333"/>
    <nd ref="417187267"/>
    <nd ref="278543331"/>
    <nd ref="417187272"/>
    <nd ref="278543327"/>
    <tag k="highway" v="secondary"/>
    <tag k="name" v="SP228"/>
  </way>
  <way id="35473844" version="2" timestamp="2010-01-16T20:21:36Z" uid="9581" user="Lobelt" changeset="3635265">
    <nd ref="416006625"/>
    <nd ref="614938029"/>
    <nd ref="416006626"/>
    <nd ref="614938062"/>
    <nd ref="614938058"/>
    <nd ref="416006628"/>
    <nd ref="416006629"/>
    <nd ref="416006630"/>
    <nd ref="416006631"/>
    <nd ref="416006632"/>
    <nd ref="416006633"/>
    <nd ref="416006634"/>
    <nd ref="614938066"/>
    <nd ref="614938026"/>
    <nd ref="416006635"/>
    <nd ref="416006636"/>
    <nd ref="416006637"/>
    <nd ref="416006638"/>
    <nd ref="614938023"/>
    <nd ref="416006639"/>
    <nd ref="416006640"/>
    <nd ref="614937960"/>
    <nd ref="416006625"/>
    <tag k="name" v="Teich"/>
    <tag k="natural" v="water"/>
  </way>
  <way id="35473850" version="2" timestamp="2010-01-16T20:21:37Z" uid="9581" user="Lobelt" changeset="3635265">
    <nd ref="416006698"/>
    <nd ref="416006699"/>
    <nd ref="416006700"/>
    <nd ref="614938063"/>
    <nd ref="252518298"/>
    <tag k="highway" v="footway"/>
  </way>
  <way id="35473917" version="5" timestamp="2009-07-10T15:04:01Z" uid="43863" user="Rundling" changeset="1789845">
    <nd ref="408432552"/>
    <nd ref="416007279"/>
    <nd ref="416007302"/>
    <nd ref="416007280"/>
    <tag k="foot" v="yes"/>
    <tag k="highway" v="footway"/>
  </way>
</osm>
