<?xml version='1.0' encoding='UTF-8'?>
<osm version="0.6" generator="libosmium/2.20.0">
  <way id="35499162" version="1" timestamp="2009-06-06T03:21:57Z" uid="61114" user="Trav" changeset="1434233">
    <nd ref="114315399"/>
    <nd ref="114319465"/>
    <nd ref="163547849"/>
    <nd ref="114319464"/>
    <nd ref="114318384"/>
    <tag k="highway" v="secondary"/>
    <tag k="name" v="Heather Street"/>
    <tag k="source:name" v="survey"/>
  </way>
  <way id="35499166" version="1" timestamp="2009-06-06T03:21:57Z" uid="61114" user="Trav" changeset="1434233">
    <nd ref="114319468"/>
    <nd ref="114325803"/>
    <nd ref="114325806"/>
    <nd ref="114325809"/>
    <nd ref="163548721"/>
    <nd ref="114325812"/>
    <nd ref="114324680"/>
    <nd ref="114325814"/>
    <nd ref="114325816"/>
    <nd ref="122945906"/>
    <nd ref="114325820"/>
    <tag k="highway" v="secondary"/>
    <tag k="name" v="Veterans Parade"/>
    <tag k="source:name" v="survey"/>
  </way>
  <way id="35499166" version="2" timestamp="2009-07-07T09:16:07Z" uid="61114" user="Trav" changeset="1760591">
    <nd ref="114319468"/>
    <nd ref="114325803"/>
    <nd ref="114325806"/>
    <nd ref="114325809"/>
    <nd ref="163548721"/>
    <nd ref="114325812"/>
    <nd ref="114324680"/>
    <nd ref="436169448"/>
    <nd ref="114325814"/>
    <nd ref="114325816"/>
    <nd ref="122945906"/>
    <nd ref="114325820"/>
    <tag k="highway" v="secondary"/>
    <tag k="name" v="Veterans Parade"/>
    <tag k="source:name" v="survey"/>
  </way>
  <way id="35499166" version="3" timestamp="2009-12-28T10:02:41Z" uid="7617" user="Franc" changeset="3469871">
    <nd ref="114319468"/>
    <nd ref="114325803"/>
    <nd ref="114325806"/>
    <nd ref="114325809"/>
    <nd ref="163548721"/>
    <nd ref="114325812"/>
    <nd ref="114324680"/>
    <nd ref="436169448"/>
    <nd ref="114325814"/>
    <nd ref="114325816"/>
    <nd ref="600322052"/>
    <nd ref="122945906"/>
    <nd ref="600322051"/>
    <nd ref="114325820"/>
    <tag k="highway" v="secondary"/>
    <tag k="name" v="Veterans Parade"/>
    <tag k="source:name" v="survey"/>
  </way>
  <way id="35499166" version="4" timestamp="2010-01-23T12:10:58Z" uid="30201" user="rrankin" changeset="3690907">
    <nd ref="114319468"/>
    <nd ref="114325803"/>
    <nd ref="114325806"/>
    <nd ref="618623832"/>
    <nd ref="618623834"/>
    <tag k="highway" v="secondary"/>
    <tag k="name" v="Veterans Parade"/>
    <tag k="source:name" v="survey"/>
  </way>
  <way id="35499208" version="1" timestamp="2009-06-06T03:22:05Z" uid="61114" user="Trav" changeset="1434233">
    <nd ref="163547566"/>
    <nd ref="163548719"/>
    <nd ref="163549859"/>
    <nd ref="163549858"/>
    <nd ref="163549857"/>
    <nd ref="163549574"/>
    <tag k="highway" v="residential"/>
    <tag k="name" v="Kendall Crescent"/>
    <tag k="source:name" v="survey"/>
  </way>
  <way id="35499208" version="2" timestamp="2010-03-10T08:54:03Z" uid="7617" user="Franc" changeset="4087205">
    <nd ref="163547566"/>
    <nd ref="163548719"/>
    <nd ref="663559964"/>
    <nd ref="163549859"/>
    <nd ref="663559963"/>
    <nd ref="163549858"/>
    <nd ref="663559948"/>
    <nd ref="663559947"/>
    <nd ref="163549857"/>
    <nd ref="163549574"/>
    <tag k="highway" v="residential"/>
    <tag k="name" v="Kendall Crescent"/>
    <tag k="source:name" v="survey"/>
  </way>
  <way id="35499208" version="3" timestamp="2010-07-07T23:35:20Z" uid="74617" user="JohnSmith" changeset="5162525">
    <nd ref="163547566"/>
    <nd ref="163548719"/>
    <nd ref="663559964"/>
    <nd ref="163549859"/>
    <nd ref="663559963"/>
    <nd ref="163549858"/>
    <nd ref="663559948"/>
    <nd ref="663559947"/>
    <nd ref="163549857"/>
    <nd ref="163549574"/>
    <tag k="highway" v="residential"/>
    <tag k="maxspeed" v="50"/>
    <tag k="maxspeed:source" v="default residential speed limit in Australia"/>
    <tag k="name" v="Kendall Crescent"/>
    <tag k="source:name" v="survey"/>
  </way>
  <way id="35499211" version="1" timestamp="2009-06-06T03:22:05Z" uid="61114" user="Trav" changeset="1434233">
    <nd ref="163548719"/>
    <nd ref="163548720"/>
    <nd ref="163548721"/>
    <tag k="highway" v="residential"/>
    <tag k="name" v="Ettalong Street"/>
    <tag k="source:name" v="survey"/>
  </way>
  <way id="35499211" version="2" timestamp="2010-03-10T08:54:09Z" uid="7617" user="Franc" changeset="4087205">
    <nd ref="163548719"/>
    <nd ref="163548720"/>
    <nd ref="663559967"/>
    <nd ref="163548721"/>
    <tag k="highway" v="residential"/>
    <tag k="name" v="Ettalong Street"/>
    <tag k="source:name" v="survey"/>
  </way>
  <way id="35499211" version="3" timestamp="2010-07-07T23:33:14Z" uid="74617" user="JohnSmith" changeset="5162525">
    <nd ref="163548719"/>
    <nd ref="163548720"/>
    <nd ref="663559967"/>
    <nd ref="163548721"/>
    <tag k="highway" v="residential"/>
    <tag k="maxspeed" v="50"/>
    <tag k="maxspeed:source" v="default residential speed limit in Australia"/>
    <tag k="name" v="Ettalong Street"/>
    <tag k="source:name" v="survey"/>
  </way>
  <way id="35499318" version="1" timestamp="2009-06-06T03:22:27Z" uid="61114" user="Trav" changeset="1434233">
    <nd ref="416264607"/>
    <nd ref="163555081"/>
    <nd ref="163558061"/>
    <nd ref="114310849"/>
    <tag k="highway" v="residential"/>
    <tag k="name" v="Inman Road"/>
    <tag k="source:name" v="survey"/>
  </way>
  <way id="35499318" version="2" timestamp="2010-03-10T08:54:09Z" uid="7617" user="Franc" changeset="4087205">
    <nd ref="416264607"/>
    <nd ref="663559962"/>
    <nd ref="163555081"/>
    <nd ref="163558061"/>
    <nd ref="663559959"/>
    <tag k="highway" v="residential"/>
    <tag k="name" v="Inman Road"/>
    <tag k="source:name" v="survey"/>
  </way>
  <way id="35499318" version="3" timestamp="2010-07-07T23:34:25Z" uid="74617" user="JohnSmith" changeset="5162525">
    <nd ref="416264607"/>
    <nd ref="663559962"/>
    <nd ref="163555081"/>
    <nd ref="163558061"/>
    <nd ref="663559959"/>
    <tag k="highway" v="residential"/>
    <tag k="maxspeed" v="50"/>
    <tag k="maxspeed:source" v="default residential speed limit in Australia"/>
    <tag k="name" v="Inman Road"/>
    <tag k="source:name" v="survey"/>
  </way>
  <way id="35499427" version="1" timestamp="2009-06-06T03:22:47Z" uid="61114" user="Trav" changeset="1434233">
    <nd ref="124738722"/>
    <nd ref="124738723"/>
    <nd ref="124738724"/>
    <nd ref="124738715"/>
    <tag k="highway" v="residential"/>
    <tag k="name" v="Tarra Crescent"/>
    <tag k="source:name" v="survey"/>
  </way>
  <way id="35499427" version="2" timestamp="2010-07-07T23:36:03Z" uid="74617" user="JohnSmith" changeset="5162525">
    <nd ref="124738722"/>
    <nd ref="124738723"/>
    <nd ref="124738724"/>
    <nd ref="124738715"/>
    <tag k="highway" v="residential"/>
    <tag k="maxspeed" v="50"/>
    <tag k="maxspeed:source" v="default residential speed limit in Australia"/>
    <tag k="name" v="Tarra Crescent"/>
    <tag k="source:name" v="survey"/>
  </way>
  <way id="35499453" version="1" timestamp="2009-06-06T03:22:51Z" uid="61114" user="Trav" changeset="1434233">
    <nd ref="124542793"/>
    <nd ref="124547281"/>
    <nd ref="88618794"/>
    <nd ref="114310727"/>
    <nd ref="114310728"/>
    <nd ref="114310764"/>
    <nd ref="114310765"/>
    <nd ref="114310766"/>
    <tag k="highway" v="secondary"/>
    <tag k="name" v="Fisher Rd North"/>
  </way>
  <way id="35499453" version="2" timestamp="2009-06-07T23:01:26Z" uid="61114" user="Trav" changeset="1454401">
    <nd ref="124542793"/>
    <nd ref="124547281"/>
    <nd ref="88618794"/>
    <nd ref="114310727"/>
    <nd ref="114310728"/>
    <nd ref="114310764"/>
    <nd ref="114310765"/>
    <nd ref="114310766"/>
    <tag k="highway" v="secondary"/>
    <tag k="name" v="Fisher Road North"/>
  </way>
  <way id="35499453" version="3" timestamp="2010-01-23T08:40:11Z" uid="30201" user="rrankin" changeset="3689609">
    <nd ref="124542793"/>
    <nd ref="124547281"/>
    <nd ref="122919768"/>
    <nd ref="88618794"/>
    <nd ref="114310727"/>
    <nd ref="114310728"/>
    <nd ref="114310764"/>
    <nd ref="114310765"/>
    <nd ref="114310766"/>
    <tag k="highway" v="secondary"/>
    <tag k="name" v="Fisher Road North"/>
  </way>
  <way id="35499458" version="1" timestamp="2009-06-06T03:22:52Z" uid="61114" user="Trav" changeset="1434233">
    <nd ref="124546666"/>
    <nd ref="124542780"/>
    <nd ref="124540613"/>
    <nd ref="124542788"/>
    <nd ref="124549904"/>
    <nd ref="124542782"/>
    <nd ref="124542783"/>
    <nd ref="124542793"/>
    <tag k="highway" v="residential"/>
    <tag k="name" v="Lynwood Avenue"/>
    <tag k="source:name" v="survey"/>
  </way>
  <way id="35499458" version="2" timestamp="2010-07-07T23:36:14Z" uid="74617" user="JohnSmith" changeset="5162525">
    <nd ref="124546666"/>
    <nd ref="124542780"/>
    <nd ref="124540613"/>
    <nd ref="124542788"/>
    <nd ref="124549904"/>
    <nd ref="124542782"/>
    <nd ref="124542783"/>
    <nd ref="124542793"/>
    <tag k="highway" v="residential"/>
    <tag k="maxspeed" v="50"/>
    <tag k="maxspeed:source" v="default residential speed limit in Australia"/>
    <tag k="name" v="Lynwood Avenue"/>
    <tag k="source:name" v="survey"/>
  </way>
  <way id="35499559" version="1" timestamp="2009-06-06T03:23:10Z" uid="61114" user="Trav" changeset="1434233">
    <nd ref="124537452"/>
    <nd ref="124537458"/>
    <nd ref="124537460"/>
    <nd ref="124537468"/>
    <tag k="highway" v="residential"/>
    <tag k="name" v="Rayner Avenue"/>
    <tag k="source:name" v="survey"/>
  </way>
  <way id="35499559" version="2" timestamp="2010-07-07T23:32:25Z" uid="74617" user="JohnSmith" changeset="5162525">
    <nd ref="124537452"/>
    <nd ref="124537458"/>
    <nd ref="124537460"/>
    <nd ref="124537468"/>
    <tag k="highway" v="residential"/>
    <tag k="maxspeed" v="50"/>
    <tag k="maxspeed:source" v="default residential speed limit in Australia"/>
    <tag k="name" v="Rayner Avenue"/>
    <tag k="source:name" v="survey"/>
  </way>
  <way id="35499571" version="1" timestamp="2009-06-06T03:23:12Z" uid="61114" user="Trav" changeset="1434233">
    <nd ref="88619203"/>
    <nd ref="194678348"/>
    <nd ref="88619247"/>
    <nd ref="204381246"/>
    <nd ref="88619262"/>
    <nd ref="194677179"/>
    <nd ref="204371425"/>
    <nd ref="194676591"/>
    <nd ref="88619052"/>
    <tag k="highway" v="residential"/>
    <tag k="name" v="Parr Parade"/>
    <tag k="source:name" v="survey"/>
  </way>
  <way id="35499571" version="2" timestamp="2010-07-07T23:35:04Z" uid="74617" user="JohnSmith" changeset="5162525">
    <nd ref="88619203"/>
    <nd ref="194678348"/>
    <nd ref="88619247"/>
    <nd ref="204381246"/>
    <nd ref="88619262"/>
    <nd ref="194677179"/>
    <nd ref="204371425"/>
    <nd ref="194676591"/>
    <nd ref="88619052"/>
    <tag k="highway" v="residential"/>
    <tag k="maxspeed" v="50"/>
    <tag k="maxspeed:source" v="default residential speed limit in Australia"/>
    <tag k="name" v="Parr Parade"/>
    <tag k="source:name" v="survey"/>
  </way>
  <way id="35499571" version="3" timestamp="2010-10-22T22:18:12Z" uid="7617" user="Franc" changeset="6140904">
    <nd ref="88619203"/>
    <nd ref="960868762"/>
    <nd ref="960868592"/>
    <nd ref="194678348"/>
    <nd ref="88619247"/>
    <nd ref="204381246"/>
    <nd ref="88619262"/>
    <nd ref="194677179"/>
    <nd ref="204371425"/>
    <nd ref="194676591"/>
    <nd ref="88619052"/>
    <tag k="highway" v="residential"/>
    <tag k="maxspeed" v="50"/>
    <tag k="maxspeed:source" v="default residential speed limit in Australia"/>
    <tag k="name" v="Parr Parade"/>
    <tag k="source:name" v="survey"/>
  </way>
  <way id="35499621" version="1" timestamp="2009-06-06T03:23:21Z" uid="61114" user="Trav" changeset="1434233">
    <nd ref="416265568"/>
    <nd ref="32416773"/>
    <nd ref="32416774"/>
    <tag k="highway" v="secondary"/>
    <tag k="name" v="Cornish Avenue"/>
    <tag k="source:name" v="survey"/>
  </way>
  <way id="35499680" version="2" timestamp="2010-07-06T09:17:32Z" uid="74617" user="JohnSmith" changeset="5147679">
    <nd ref="260100390"/>
    <nd ref="260100393"/>
    <tag k="highway" v="residential"/>
    <tag k="maxspeed" v="50"/>
    <tag k="maxspeed:source" v="default residential speed limit in Australia"/>
    <tag k="name" v="Dibbil Street"/>
  </way>
</osm>
