<?xml version='1.0' encoding='UTF-8'?>
<osm version="0.6" generator="libosmium/2.20.0">
  <way id="35563372" version="1" timestamp="2009-06-06T22:01:09Z" uid="34428" user="usm78-gis" changeset="1442920">
    <nd ref="416703277"/>
    <nd ref="22302440"/>
    <tag k="cladr:code" v="78000000000026300"/>
    <tag k="cladr:name" v="Воронежская"/>
    <tag k="cladr:suffix" v="Улица"/>
    <tag k="highway" v="residential"/>
    <tag k="name" v="Воронежская ул."/>
    <tag k="oneway" v="yes"/>
  </way>
  <way id="35563684" version="1" timestamp="2009-06-06T22:02:19Z" uid="34428" user="usm78-gis" changeset="1442927">
    <nd ref="416704362"/>
    <nd ref="223659"/>
    <tag k="addr:postcode" v="143103"/>
    <tag k="cladr:code" v="78000000000123800"/>
    <tag k="cladr:name" v="Садовая"/>
    <tag k="cladr:suffix" v="Улица"/>
    <tag k="highway" v="tertiary"/>
    <tag k="name" v="Садовая ул."/>
  </way>
  <way id="35563690" version="1" timestamp="2009-06-06T22:02:23Z" uid="34428" user="usm78-gis" changeset="1442927">
    <nd ref="414011836"/>
    <nd ref="414011837"/>
    <nd ref="414011838"/>
    <tag k="highway" v="pedestrian"/>
  </way>
  <way id="35563703" version="1" timestamp="2009-06-06T22:02:25Z" uid="34428" user="usm78-gis" changeset="1442927">
    <nd ref="414011835"/>
    <nd ref="416704362"/>
    <nd ref="414011836"/>
    <tag k="highway" v="pedestrian"/>
  </way>
  <way id="35563732" version="1" timestamp="2009-06-06T22:02:31Z" uid="34428" user="usm78-gis" changeset="1442927">
    <nd ref="414011834"/>
    <nd ref="412194997"/>
    <nd ref="412194998"/>
    <nd ref="246004"/>
    <tag k="addr:postcode" v="190031"/>
    <tag k="cladr:code" v="78000000000040900"/>
    <tag k="cladr:name" v="Ефимова"/>
    <tag k="cladr:suffix" v="Улица"/>
    <tag k="highway" v="residential"/>
    <tag k="name" v="Ефимова ул."/>
  </way>
  <way id="35563770" version="1" timestamp="2009-06-06T22:02:37Z" uid="34428" user="usm78-gis" changeset="1442927">
    <nd ref="414011835"/>
    <nd ref="307196"/>
    <tag k="cladr:code" v="78000000000085200"/>
    <tag k="cladr:name" v="Московский"/>
    <tag k="cladr:suffix" v="Проспект"/>
    <tag k="highway" v="primary"/>
    <tag k="name" v="Московский пр."/>
  </way>
</osm>
