<?xml version='1.0' encoding='UTF-8'?>
<osm version="0.6" generator="libosmium/2.20.0">
  <way id="35648198" version="1" timestamp="2009-06-08T16:38:06Z" uid="74617" user="JohnSmith" changeset="1460473">
    <nd ref="417610393"/>
    <nd ref="417610435"/>
    <nd ref="417610438"/>
    <nd ref="417610443"/>
    <nd ref="417610446"/>
    <nd ref="417610451"/>
    <nd ref="417610455"/>
    <nd ref="417610413"/>
    <tag k="name" v="Castlereagh River"/>
    <tag k="source" v="yahoo"/>
    <tag k="waterway" v="river"/>
  </way>
  <way id="35648201" version="1" timestamp="2009-06-08T16:38:06Z" uid="74617" user="JohnSmith" changeset="1460473">
    <nd ref="417610465"/>
    <nd ref="417610508"/>
    <nd ref="417610509"/>
    <nd ref="358756343"/>
    <tag k="name" v="Castlereagh River"/>
    <tag k="source" v="yahoo"/>
    <tag k="waterway" v="river"/>
  </way>
  <way id="35648203" version="1" timestamp="2009-06-08T16:38:06Z" uid="74617" user="JohnSmith" changeset="1460473">
    <nd ref="417610458"/>
    <nd ref="417610512"/>
    <nd ref="417610515"/>
    <nd ref="358756566"/>
    <tag k="name" v="Castlereagh River"/>
    <tag k="source" v="yahoo"/>
    <tag k="waterway" v="river"/>
  </way>
  <way id="35648205" version="1" timestamp="2009-06-08T16:38:07Z" uid="74617" user="JohnSmith" changeset="1460473">
    <nd ref="417610483"/>
    <nd ref="417610517"/>
    <tag k="name" v="Castlereagh River"/>
    <tag k="source" v="yahoo"/>
    <tag k="waterway" v="river"/>
  </way>
  <way id="35648208" version="1" timestamp="2009-06-08T16:38:07Z" uid="74617" user="JohnSmith" changeset="1460473">
    <nd ref="417610524"/>
    <nd ref="417610501"/>
    <nd ref="417610521"/>
    <tag k="name" v="Castlereagh River"/>
    <tag k="source" v="yahoo"/>
    <tag k="waterway" v="river"/>
  </way>
  <way id="35648298" version="2" timestamp="2010-05-17T13:32:10Z" uid="58091" user="Andreas M" changeset="4728825">
    <nd ref="417610920"/>
    <nd ref="417610922"/>
    <nd ref="417610926"/>
    <nd ref="417610929"/>
    <nd ref="417610932"/>
    <nd ref="417610920"/>
    <tag k="leisure" v="dog_park"/>
  </way>
  <way id="35648315" version="2" timestamp="2010-05-17T13:32:10Z" uid="58091" user="Andreas M" changeset="4728825">
    <nd ref="417610935"/>
    <nd ref="417610939"/>
    <nd ref="417610942"/>
    <nd ref="417610946"/>
    <nd ref="417610949"/>
    <nd ref="417610952"/>
    <nd ref="417610935"/>
    <tag k="leisure" v="dog_park"/>
  </way>
  <way id="35648477" version="1" timestamp="2009-06-08T16:38:58Z" uid="43863" user="Rundling" changeset="1460485">
    <nd ref="290374671"/>
    <nd ref="290374673"/>
    <nd ref="290374675"/>
    <tag k="highway" v="tertiary"/>
    <tag k="ref" v="K 46"/>
  </way>
  <way id="35648478" version="1" timestamp="2009-06-08T16:38:58Z" uid="43863" user="Rundling" changeset="1460485">
    <nd ref="290374652"/>
    <nd ref="417611304"/>
    <nd ref="417611306"/>
    <nd ref="417611308"/>
    <tag k="highway" v="residential"/>
    <tag k="name" v="Ellerndorf"/>
    <tag k="surface" v="paved"/>
  </way>
  <way id="35648478" version="2" timestamp="2009-06-08T16:57:21Z" uid="43863" user="Rundling" changeset="1460706">
    <nd ref="290374652"/>
    <nd ref="417611304"/>
    <nd ref="417611306"/>
    <nd ref="417611308"/>
    <tag k="highway" v="residential"/>
    <tag k="name" v="Lindener StraÃŸe"/>
    <tag k="surface" v="paved"/>
  </way>
  <way id="35648479" version="1" timestamp="2009-06-08T16:38:58Z" uid="43863" user="Rundling" changeset="1460485">
    <nd ref="417611308"/>
    <nd ref="417611309"/>
    <nd ref="417611310"/>
    <nd ref="417611312"/>
    <tag k="highway" v="unclassified"/>
  </way>
</osm>
