<?xml version='1.0' encoding='UTF-8'?>
<osm version="0.6" generator="libosmium/2.20.0">
  <way id="35698276" version="2" timestamp="2010-03-28T02:16:12Z" uid="20587" user="balrog-kun" changeset="4250871">
    <nd ref="417948754"/>
    <nd ref="54287765"/>
    <nd ref="54287767"/>
    <tag k="highway" v="residential"/>
    <tag k="name" v="Overland Drive"/>
    <tag k="tiger:cfcc" v="A41"/>
    <tag k="tiger:county" v="Riverside, CA"/>
    <tag k="tiger:name_base" v="Overland"/>
    <tag k="tiger:name_type" v="Dr"/>
    <tag k="tiger:reviewed" v="no"/>
    <tag k="tiger:separated" v="no"/>
    <tag k="tiger:source" v="tiger_import_dch_v0.6_20070809"/>
    <tag k="tiger:tlid" v="194878490:195085082:195089654"/>
  </way>
  <way id="35698280" version="2" timestamp="2010-03-28T02:16:12Z" uid="20587" user="balrog-kun" changeset="4250871">
    <nd ref="54287761"/>
    <nd ref="417948754"/>
    <tag k="bridge" v="yes"/>
    <tag k="highway" v="residential"/>
    <tag k="layer" v="1"/>
    <tag k="name" v="Overland Drive"/>
    <tag k="tiger:cfcc" v="A41"/>
    <tag k="tiger:county" v="Riverside, CA"/>
    <tag k="tiger:name_base" v="Overland"/>
    <tag k="tiger:name_type" v="Dr"/>
    <tag k="tiger:reviewed" v="no"/>
    <tag k="tiger:separated" v="no"/>
    <tag k="tiger:source" v="tiger_import_dch_v0.6_20070809"/>
    <tag k="tiger:tlid" v="194878490:195085082:195089654"/>
  </way>
  <way id="35698377" version="1" timestamp="2009-06-09T15:00:41Z" uid="74617" user="JohnSmith" changeset="1469147">
    <nd ref="362280742"/>
    <nd ref="362280743"/>
    <nd ref="362280744"/>
    <nd ref="362280745"/>
    <nd ref="362280746"/>
    <nd ref="362280747"/>
    <nd ref="362280748"/>
    <nd ref="362222338"/>
    <tag k="admin_level" v="10"/>
    <tag k="attribution" v="Based on Australian Bureau of Statistics data"/>
    <tag k="boundary" v="administrative"/>
    <tag k="source" v="ABS_2006"/>
  </way>
  <way id="35698378" version="1" timestamp="2009-06-09T15:00:41Z" uid="74617" user="JohnSmith" changeset="1469147">
    <nd ref="417948885"/>
    <nd ref="417948884"/>
    <nd ref="417948883"/>
    <nd ref="417948882"/>
    <nd ref="417948878"/>
    <nd ref="417948879"/>
    <nd ref="417948880"/>
    <nd ref="362280742"/>
    <tag k="name" v="North Coast Line"/>
    <tag k="railway" v="rail"/>
    <tag k="source" v="yahoo"/>
  </way>
  <way id="35698378" version="2" timestamp="2009-06-09T15:13:57Z" uid="74617" user="JohnSmith" changeset="1469257">
    <nd ref="362212101"/>
    <nd ref="417951871"/>
    <nd ref="417951872"/>
    <nd ref="417951873"/>
    <nd ref="417951874"/>
    <nd ref="417951875"/>
    <nd ref="417951876"/>
    <nd ref="417951877"/>
    <nd ref="417951878"/>
    <nd ref="417951879"/>
    <nd ref="417951880"/>
    <nd ref="417951881"/>
    <nd ref="417951882"/>
    <nd ref="417951883"/>
    <nd ref="417951884"/>
    <nd ref="417951885"/>
    <nd ref="417951886"/>
    <nd ref="417951889"/>
    <nd ref="417951890"/>
    <nd ref="417951891"/>
    <nd ref="417951888"/>
    <nd ref="417951892"/>
    <nd ref="417951887"/>
    <nd ref="417951894"/>
    <nd ref="417951893"/>
    <nd ref="417948885"/>
    <nd ref="417948884"/>
    <nd ref="417948883"/>
    <nd ref="417948882"/>
    <nd ref="417948878"/>
    <nd ref="417948879"/>
    <nd ref="417948880"/>
    <nd ref="362280742"/>
    <tag k="name" v="North Coast Line"/>
    <tag k="railway" v="rail"/>
    <tag k="source" v="yahoo"/>
  </way>
  <way id="35698458" version="4" timestamp="2010-03-28T02:16:12Z" uid="20587" user="balrog-kun" changeset="4250871">
    <nd ref="411244509"/>
    <nd ref="411244402"/>
    <nd ref="411244510"/>
    <nd ref="411244511"/>
    <nd ref="411244512"/>
    <nd ref="411244513"/>
    <tag k="highway" v="motorway"/>
    <tag k="name" v="I-15"/>
    <tag k="name_1" v="Escondido Freeway"/>
    <tag k="oneway" v="yes"/>
    <tag k="ref" v="I 15"/>
    <tag k="tiger:cfcc" v="A15"/>
    <tag k="tiger:county" v="Riverside, CA"/>
    <tag k="tiger:name_base" v="I-15"/>
    <tag k="tiger:name_base_1" v="Escondido"/>
    <tag k="tiger:name_type_1" v="Fwy"/>
    <tag k="tiger:separated" v="yes"/>
    <tag k="tiger:source" v="tiger_import_dch_v0.6_20070809"/>
    <tag k="tiger:tlid" v="194878318:194860905"/>
  </way>
  <way id="35698463" version="2" timestamp="2010-03-28T02:16:13Z" uid="20587" user="balrog-kun" changeset="4250871">
    <nd ref="411244508"/>
    <nd ref="411244509"/>
    <tag k="bridge" v="yes"/>
    <tag k="highway" v="motorway"/>
    <tag k="layer" v="1"/>
    <tag k="name" v="I-15"/>
    <tag k="name_1" v="Escondido Freeway"/>
    <tag k="oneway" v="yes"/>
    <tag k="ref" v="I 15"/>
    <tag k="tiger:cfcc" v="A15"/>
    <tag k="tiger:county" v="Riverside, CA"/>
    <tag k="tiger:name_base" v="I-15"/>
    <tag k="tiger:name_base_1" v="Escondido"/>
    <tag k="tiger:name_type_1" v="Fwy"/>
    <tag k="tiger:reviewed" v="no"/>
    <tag k="tiger:separated" v="yes"/>
    <tag k="tiger:source" v="tiger_import_dch_v0.6_20070809"/>
    <tag k="tiger:tlid" v="194878318:194860905"/>
  </way>
  <way id="35698466" version="3" timestamp="2010-03-28T02:16:13Z" uid="20587" user="balrog-kun" changeset="4250871">
    <nd ref="411244416"/>
    <nd ref="411244418"/>
    <nd ref="411244421"/>
    <nd ref="411244423"/>
    <nd ref="411244401"/>
    <tag k="highway" v="motorway"/>
    <tag k="name" v="I-15"/>
    <tag k="name_1" v="Escondido Freeway"/>
    <tag k="oneway" v="yes"/>
    <tag k="ref" v="I 15"/>
    <tag k="tiger:cfcc" v="A15"/>
    <tag k="tiger:county" v="Riverside, CA"/>
    <tag k="tiger:name_base" v="I-15"/>
    <tag k="tiger:name_base_1" v="Escondido"/>
    <tag k="tiger:name_type_1" v="Fwy"/>
    <tag k="tiger:reviewed" v="no"/>
    <tag k="tiger:separated" v="yes"/>
    <tag k="tiger:source" v="tiger_import_dch_v0.6_20070809"/>
    <tag k="tiger:tlid" v="194878318:194860905"/>
  </way>
  <way id="35698467" version="2" timestamp="2010-03-28T02:16:13Z" uid="20587" user="balrog-kun" changeset="4250871">
    <nd ref="411244414"/>
    <nd ref="411244416"/>
    <tag k="bridge" v="yes"/>
    <tag k="highway" v="motorway"/>
    <tag k="layer" v="1"/>
    <tag k="name" v="I-15"/>
    <tag k="name_1" v="Escondido Freeway"/>
    <tag k="oneway" v="yes"/>
    <tag k="ref" v="I 15"/>
    <tag k="tiger:cfcc" v="A15"/>
    <tag k="tiger:county" v="Riverside, CA"/>
    <tag k="tiger:name_base" v="I-15"/>
    <tag k="tiger:name_base_1" v="Escondido"/>
    <tag k="tiger:name_type_1" v="Fwy"/>
    <tag k="tiger:reviewed" v="no"/>
    <tag k="tiger:separated" v="yes"/>
    <tag k="tiger:source" v="tiger_import_dch_v0.6_20070809"/>
    <tag k="tiger:tlid" v="194878318:194860905"/>
  </way>
  <way id="35698636" version="4" timestamp="2010-03-28T02:16:13Z" uid="20587" user="balrog-kun" changeset="4250871">
    <nd ref="411244404"/>
    <nd ref="411244405"/>
    <tag k="bridge" v="yes"/>
    <tag k="highway" v="motorway"/>
    <tag k="layer" v="1"/>
    <tag k="name" v="I-15"/>
    <tag k="name_1" v="Escondido Freeway"/>
    <tag k="oneway" v="yes"/>
    <tag k="ref" v="I 15"/>
    <tag k="tiger:cfcc" v="A15"/>
    <tag k="tiger:county" v="Riverside, CA"/>
    <tag k="tiger:name_base" v="I-15"/>
    <tag k="tiger:name_base_1" v="Escondido"/>
    <tag k="tiger:name_type_1" v="Fwy"/>
    <tag k="tiger:separated" v="yes"/>
    <tag k="tiger:source" v="tiger_import_dch_v0.6_20070809"/>
    <tag k="tiger:tlid" v="194878318:194860905"/>
  </way>
  <way id="35698810" version="3" timestamp="2010-03-28T02:16:14Z" uid="20587" user="balrog-kun" changeset="4250871">
    <nd ref="411244513"/>
    <nd ref="411244514"/>
    <tag k="bridge" v="yes"/>
    <tag k="highway" v="motorway"/>
    <tag k="layer" v="1"/>
    <tag k="name" v="I-15"/>
    <tag k="name_1" v="Escondido Freeway"/>
    <tag k="oneway" v="yes"/>
    <tag k="ref" v="I 15"/>
    <tag k="tiger:cfcc" v="A15"/>
    <tag k="tiger:county" v="Riverside, CA"/>
    <tag k="tiger:name_base" v="I-15"/>
    <tag k="tiger:name_base_1" v="Escondido"/>
    <tag k="tiger:name_type_1" v="Fwy"/>
    <tag k="tiger:separated" v="yes"/>
    <tag k="tiger:source" v="tiger_import_dch_v0.6_20070809"/>
    <tag k="tiger:tlid" v="194878318:194860905"/>
  </way>
  <way id="35698820" version="3" timestamp="2010-03-28T02:16:14Z" uid="20587" user="balrog-kun" changeset="4250871">
    <nd ref="411244405"/>
    <nd ref="411244407"/>
    <nd ref="411244410"/>
    <nd ref="411244412"/>
    <nd ref="411244414"/>
    <tag k="highway" v="motorway"/>
    <tag k="name" v="I-15"/>
    <tag k="name_1" v="Escondido Freeway"/>
    <tag k="oneway" v="yes"/>
    <tag k="ref" v="I 15"/>
    <tag k="tiger:cfcc" v="A15"/>
    <tag k="tiger:county" v="Riverside, CA"/>
    <tag k="tiger:name_base" v="I-15"/>
    <tag k="tiger:name_base_1" v="Escondido"/>
    <tag k="tiger:name_type_1" v="Fwy"/>
    <tag k="tiger:separated" v="yes"/>
    <tag k="tiger:source" v="tiger_import_dch_v0.6_20070809"/>
    <tag k="tiger:tlid" v="194878318:194860905"/>
  </way>
</osm>
