<?xml version='1.0' encoding='UTF-8'?>
<osm version="0.6" generator="libosmium/2.20.0">
  <way id="35737945" version="4" timestamp="2010-03-28T02:16:40Z" uid="20587" user="balrog-kun" changeset="4250871">
    <nd ref="418029264"/>
    <nd ref="411502809"/>
    <tag k="bridge" v="yes"/>
    <tag k="highway" v="motorway"/>
    <tag k="layer" v="1"/>
    <tag k="name" v="I-15"/>
    <tag k="name_1" v="Escondido Freeway"/>
    <tag k="oneway" v="yes"/>
    <tag k="ref" v="I 15"/>
    <tag k="tiger:cfcc" v="A15"/>
    <tag k="tiger:county" v="Riverside, CA"/>
    <tag k="tiger:name_base" v="I-15"/>
    <tag k="tiger:name_base_1" v="Escondido"/>
    <tag k="tiger:name_type_1" v="Fwy"/>
    <tag k="tiger:reviewed" v="no"/>
    <tag k="tiger:separated" v="yes"/>
    <tag k="tiger:source" v="tiger_import_dch_v0.6_20070809"/>
    <tag k="tiger:tlid" v="194878318:194860905"/>
  </way>
  <way id="35737946" version="4" timestamp="2010-03-28T02:16:40Z" uid="20587" user="balrog-kun" changeset="4250871">
    <nd ref="411502809"/>
    <nd ref="411502810"/>
    <nd ref="411502811"/>
    <nd ref="411502812"/>
    <nd ref="411502813"/>
    <nd ref="411502814"/>
    <nd ref="411502815"/>
    <nd ref="411502816"/>
    <tag k="highway" v="motorway"/>
    <tag k="name" v="I-15"/>
    <tag k="name_1" v="Escondido Freeway"/>
    <tag k="oneway" v="yes"/>
    <tag k="ref" v="I 15"/>
    <tag k="tiger:cfcc" v="A15"/>
    <tag k="tiger:county" v="Riverside, CA"/>
    <tag k="tiger:name_base" v="I-15"/>
    <tag k="tiger:name_base_1" v="Escondido"/>
    <tag k="tiger:name_type_1" v="Fwy"/>
    <tag k="tiger:reviewed" v="no"/>
    <tag k="tiger:separated" v="yes"/>
    <tag k="tiger:source" v="tiger_import_dch_v0.6_20070809"/>
    <tag k="tiger:tlid" v="194878318:194860905"/>
  </way>
  <way id="35737947" version="4" timestamp="2010-03-28T02:16:41Z" uid="20587" user="balrog-kun" changeset="4250871">
    <nd ref="418029265"/>
    <nd ref="411502759"/>
    <nd ref="411502760"/>
    <nd ref="411502761"/>
    <nd ref="411502763"/>
    <nd ref="411502736"/>
    <nd ref="411502765"/>
    <nd ref="411502767"/>
    <tag k="highway" v="motorway"/>
    <tag k="name" v="I-15"/>
    <tag k="name_1" v="Escondido Freeway"/>
    <tag k="oneway" v="yes"/>
    <tag k="ref" v="I 15"/>
    <tag k="tiger:cfcc" v="A15"/>
    <tag k="tiger:county" v="Riverside, CA"/>
    <tag k="tiger:name_base" v="I-15"/>
    <tag k="tiger:name_base_1" v="Escondido"/>
    <tag k="tiger:name_type_1" v="Fwy"/>
    <tag k="tiger:reviewed" v="no"/>
    <tag k="tiger:separated" v="yes"/>
    <tag k="tiger:source" v="tiger_import_dch_v0.6_20070809"/>
    <tag k="tiger:tlid" v="194878318:194860905"/>
  </way>
  <way id="35737949" version="4" timestamp="2010-03-28T02:16:41Z" uid="20587" user="balrog-kun" changeset="4250871">
    <nd ref="411502757"/>
    <nd ref="418029265"/>
    <tag k="bridge" v="yes"/>
    <tag k="highway" v="motorway"/>
    <tag k="layer" v="1"/>
    <tag k="name" v="I-15"/>
    <tag k="name_1" v="Escondido Freeway"/>
    <tag k="oneway" v="yes"/>
    <tag k="ref" v="I 15"/>
    <tag k="tiger:cfcc" v="A15"/>
    <tag k="tiger:county" v="Riverside, CA"/>
    <tag k="tiger:name_base" v="I-15"/>
    <tag k="tiger:name_base_1" v="Escondido"/>
    <tag k="tiger:name_type_1" v="Fwy"/>
    <tag k="tiger:reviewed" v="no"/>
    <tag k="tiger:separated" v="yes"/>
    <tag k="tiger:source" v="tiger_import_dch_v0.6_20070809"/>
    <tag k="tiger:tlid" v="194878318:194860905"/>
  </way>
</osm>
