<?xml version='1.0' encoding='UTF-8'?>
<osm version="0.6" generator="libosmium/2.20.0">
  <way id="35745192" version="3" timestamp="2010-04-02T17:35:39Z" uid="20587" user="balrog-kun" changeset="4304500">
    <nd ref="418094267"/>
    <nd ref="418094272"/>
    <tag k="highway" v="residential"/>
    <tag k="name" v="Pine Court"/>
    <tag k="source" v="Yahoo image"/>
  </way>
  <way id="35745200" version="2" timestamp="2010-04-02T17:35:39Z" uid="20587" user="balrog-kun" changeset="4304500">
    <nd ref="47863072"/>
    <nd ref="418094294"/>
    <nd ref="418094295"/>
    <nd ref="418094296"/>
    <nd ref="418094297"/>
    <tag k="highway" v="unclassified"/>
    <tag k="name" v="Chapel Hill Boulevard"/>
    <tag k="source" v="Yahoo image"/>
  </way>
  <way id="35745214" version="4" timestamp="2009-12-07T00:10:00Z" uid="200463" user="harmagedon" changeset="3311752">
    <nd ref="394699164"/>
    <nd ref="394699181"/>
    <tag k="bridge" v="yes"/>
    <tag k="highway" v="residential"/>
    <tag k="name" v="Bahnhofstraße"/>
  </way>
  <way id="35745214" version="5" timestamp="2009-12-07T12:02:35Z" uid="200463" user="harmagedon" changeset="3314630">
    <nd ref="394699164"/>
    <nd ref="394699181"/>
    <tag k="bridge" v="yes"/>
    <tag k="highway" v="residential"/>
    <tag k="name" v="Bahnhofstraße"/>
  </way>
  <way id="35745215" version="2" timestamp="2009-12-07T00:10:00Z" uid="200463" user="harmagedon" changeset="3311752">
    <nd ref="394699181"/>
    <nd ref="394699180"/>
    <nd ref="394699183"/>
    <nd ref="394699182"/>
    <nd ref="394699185"/>
    <nd ref="394699184"/>
    <nd ref="394699187"/>
    <nd ref="394699186"/>
    <nd ref="394702346"/>
    <tag k="highway" v="residential"/>
    <tag k="name" v="Bahnhofstraße"/>
  </way>
  <way id="35745215" version="3" timestamp="2009-12-07T12:02:35Z" uid="200463" user="harmagedon" changeset="3314630">
    <nd ref="394699181"/>
    <nd ref="394699180"/>
    <nd ref="394699183"/>
    <nd ref="394699182"/>
    <nd ref="394699185"/>
    <nd ref="394699184"/>
    <nd ref="394699187"/>
    <nd ref="394699186"/>
    <nd ref="394702346"/>
    <tag k="highway" v="residential"/>
    <tag k="name" v="Bahnhofstraße"/>
  </way>
  <way id="35745216" version="4" timestamp="2009-12-07T00:09:57Z" uid="200463" user="harmagedon" changeset="3311752">
    <nd ref="394699163"/>
    <nd ref="394699162"/>
    <tag k="bridge" v="yes"/>
    <tag k="highway" v="residential"/>
    <tag k="name" v="Müllnerweg"/>
  </way>
  <way id="35745216" version="5" timestamp="2009-12-07T12:02:23Z" uid="200463" user="harmagedon" changeset="3314630">
    <nd ref="394699163"/>
    <nd ref="394699162"/>
    <tag k="bridge" v="yes"/>
    <tag k="highway" v="residential"/>
    <tag k="name" v="Müllnerweg"/>
  </way>
  <way id="35745217" version="2" timestamp="2009-12-07T00:09:52Z" uid="200463" user="harmagedon" changeset="3311752">
    <nd ref="394699162"/>
    <nd ref="394699161"/>
    <nd ref="394699160"/>
    <nd ref="394699159"/>
    <nd ref="394699158"/>
    <nd ref="394699157"/>
    <nd ref="394699156"/>
    <nd ref="394699171"/>
    <nd ref="280515460"/>
    <tag k="highway" v="residential"/>
    <tag k="name" v="Müllnerweg"/>
  </way>
  <way id="35745217" version="3" timestamp="2009-12-07T12:02:08Z" uid="200463" user="harmagedon" changeset="3314630">
    <nd ref="394699162"/>
    <nd ref="394699161"/>
    <nd ref="394699160"/>
    <nd ref="394699159"/>
    <nd ref="394699158"/>
    <nd ref="394699157"/>
    <nd ref="394699156"/>
    <nd ref="394699171"/>
    <nd ref="280515460"/>
    <tag k="highway" v="residential"/>
    <tag k="name" v="Müllnerweg"/>
  </way>
  <way id="35745312" version="5" timestamp="2010-08-10T20:22:00Z" uid="9581" user="Lobelt" changeset="5457385">
    <nd ref="417563154"/>
    <nd ref="417563151"/>
    <nd ref="417563149"/>
    <nd ref="417563147"/>
    <nd ref="417563145"/>
    <tag k="highway" v="primary"/>
    <tag k="oneway" v="yes"/>
    <tag k="ref" v="RN5"/>
  </way>
  <way id="35745410" version="3" timestamp="2010-08-10T20:22:01Z" uid="9581" user="Lobelt" changeset="5457385">
    <nd ref="418096406"/>
    <nd ref="853643842"/>
    <tag k="highway" v="primary"/>
    <tag k="ref" v="RN5"/>
  </way>
</osm>
