<?xml version='1.0' encoding='UTF-8'?>
<osm version="0.6" generator="libosmium/2.20.0">
  <way id="35792843" version="3" timestamp="2009-08-28T21:17:06Z" uid="36809" user="pfoten_weg_!_" changeset="2295155">
    <nd ref="31402757"/>
    <nd ref="31402758"/>
    <nd ref="31402819"/>
    <nd ref="31402760"/>
    <nd ref="31402761"/>
    <tag k="discovered_by" v="RambaZamba"/>
    <tag k="highway" v="service"/>
    <tag k="maxspeed" v="50"/>
    <tag k="name" v="Wörnbrunner Straße"/>
    <tag k="source" v="survey"/>
    <tag k="surface" v="paved"/>
  </way>
  <way id="35792843" version="5" timestamp="2009-09-01T10:43:35Z" uid="36809" user="pfoten_weg_!_" changeset="2335754">
    <nd ref="31402757"/>
    <nd ref="31402758"/>
    <nd ref="31402819"/>
    <nd ref="31402760"/>
    <nd ref="31402761"/>
    <tag k="highway" v="service"/>
    <tag k="maxspeed" v="50"/>
    <tag k="name" v="Wörnbrunner Straße"/>
    <tag k="source" v="survey"/>
    <tag k="surface" v="paved"/>
  </way>
  <way id="35792846" version="4" timestamp="2009-08-28T21:11:47Z" uid="36809" user="pfoten_weg_!_" changeset="2295155">
    <nd ref="31402751"/>
    <nd ref="415436076"/>
    <nd ref="31402752"/>
    <nd ref="31402754"/>
    <nd ref="31402755"/>
    <nd ref="31402756"/>
    <nd ref="418725649"/>
    <nd ref="31402297"/>
    <nd ref="27233602"/>
    <nd ref="418497417"/>
    <nd ref="418497415"/>
    <nd ref="31402757"/>
    <tag k="discovered_by" v="RambaZamba"/>
    <tag k="highway" v="service"/>
    <tag k="maxspeed" v="30"/>
    <tag k="name" v="Wörnbrunner Straße"/>
    <tag k="source" v="survey"/>
    <tag k="surface" v="paved"/>
  </way>
  <way id="35792846" version="6" timestamp="2009-09-01T10:31:06Z" uid="36809" user="pfoten_weg_!_" changeset="2335754">
    <nd ref="31402751"/>
    <nd ref="415436076"/>
    <nd ref="31402752"/>
    <nd ref="31402754"/>
    <nd ref="31402755"/>
    <nd ref="31402756"/>
    <nd ref="418725649"/>
    <nd ref="31402297"/>
    <nd ref="27233602"/>
    <nd ref="418497417"/>
    <nd ref="418497415"/>
    <nd ref="31402757"/>
    <tag k="highway" v="service"/>
    <tag k="maxspeed" v="30"/>
    <tag k="name" v="Wörnbrunner Straße"/>
    <tag k="source" v="survey"/>
    <tag k="surface" v="paved"/>
  </way>
  <way id="35792949" version="4" timestamp="2010-05-02T10:30:31Z" uid="12188" user="Babis" changeset="4583214"/>
  <way id="35792976" version="3" timestamp="2010-05-02T10:40:10Z" uid="12188" user="Babis" changeset="4583345"/>
  <way id="35792987" version="3" timestamp="2010-05-02T10:30:04Z" uid="12188" user="Babis" changeset="4583214">
    <nd ref="300930635"/>
    <nd ref="300930636"/>
    <nd ref="300930637"/>
    <nd ref="300930638"/>
    <nd ref="300930639"/>
    <nd ref="300930640"/>
    <tag k="construction" v="motorway"/>
    <tag k="highway" v="construction"/>
    <tag k="int_ref" v="E 65"/>
    <tag k="lanes" v="2"/>
    <tag k="name:de" v="Ostpeloponnes Autobahn"/>
    <tag k="name:el" v="Αυτοκινητόδρομος Ανατολικής Πελοποννήσου"/>
    <tag k="name:en" v="East Peloponnese Motorway"/>
    <tag k="name:fr" v="Autoroute Peloponesienne Est"/>
    <tag k="oneway" v="yes"/>
    <tag k="ref" v="A7"/>
  </way>
  <way id="35792987" version="4" timestamp="2010-05-02T10:30:08Z" uid="12188" user="Babis" changeset="4583214"/>
</osm>
