<?xml version='1.0' encoding='UTF-8'?>
<osm version="0.6" generator="libosmium/2.20.0">
  <way id="35822040" version="4" timestamp="2009-10-22T20:48:51Z" uid="36809" user="pfoten_weg_!_" changeset="2925342">
    <nd ref="48852235"/>
    <nd ref="48852505"/>
    <nd ref="48852236"/>
    <tag k="highway" v="secondary"/>
    <tag k="junction" v="roundabout"/>
    <tag k="name" v="Rosenheimer StraÃŸe"/>
  </way>
  <way id="35822173" version="1" timestamp="2009-06-11T16:00:36Z" uid="4667" user="MapZ" changeset="1488685">
    <nd ref="401297347"/>
    <nd ref="418802868"/>
    <nd ref="418802869"/>
    <nd ref="418802870"/>
    <tag k="highway" v="residential"/>
  </way>
  <way id="35822174" version="1" timestamp="2009-06-11T16:00:36Z" uid="4667" user="MapZ" changeset="1488685">
    <nd ref="418802871"/>
    <nd ref="418802872"/>
    <nd ref="418802873"/>
    <nd ref="418802874"/>
    <nd ref="418802871"/>
    <tag k="Note" v="Might be longer at the North end"/>
    <tag k="aeroway" v="terminal"/>
  </way>
  <way id="35822175" version="1" timestamp="2009-06-11T16:00:37Z" uid="4667" user="MapZ" changeset="1488685">
    <nd ref="292849052"/>
    <nd ref="292849053"/>
    <nd ref="292849054"/>
    <tag k="created_by" v="Potlatch 0.10b"/>
    <tag k="highway" v="secondary"/>
    <tag k="layer" v="-1"/>
    <tag k="name" v="LP-5"/>
    <tag k="ref" v="LP-5"/>
    <tag k="tunnel" v="yes"/>
  </way>
  <way id="35822176" version="1" timestamp="2009-06-11T16:00:37Z" uid="4667" user="MapZ" changeset="1488685">
    <nd ref="292849054"/>
    <nd ref="292849056"/>
    <nd ref="292849057"/>
    <nd ref="292849337"/>
    <nd ref="292849338"/>
    <nd ref="292849339"/>
    <nd ref="292849340"/>
    <nd ref="292849341"/>
    <nd ref="292849063"/>
    <nd ref="292849342"/>
    <nd ref="292849343"/>
    <nd ref="292849344"/>
    <nd ref="322864253"/>
    <nd ref="292849345"/>
    <nd ref="292841842"/>
    <nd ref="292841843"/>
    <nd ref="292841844"/>
    <nd ref="292841845"/>
    <nd ref="292841846"/>
    <nd ref="292841847"/>
    <nd ref="292841848"/>
    <nd ref="292841849"/>
    <nd ref="292841850"/>
    <nd ref="292841851"/>
    <nd ref="292841852"/>
    <nd ref="292841853"/>
    <nd ref="292841854"/>
    <nd ref="292841855"/>
    <nd ref="292841856"/>
    <nd ref="292841857"/>
    <nd ref="292841858"/>
    <nd ref="292841859"/>
    <nd ref="292841860"/>
    <nd ref="292841861"/>
    <nd ref="292841862"/>
    <nd ref="292841863"/>
    <nd ref="292841864"/>
    <nd ref="292841865"/>
    <nd ref="292841866"/>
    <nd ref="292841867"/>
    <nd ref="292841868"/>
    <nd ref="292841869"/>
    <nd ref="292841870"/>
    <tag k="created_by" v="Potlatch 0.10b"/>
    <tag k="highway" v="secondary"/>
    <tag k="name" v="LP-5"/>
    <tag k="ref" v="LP-5"/>
  </way>
  <way id="35822301" version="2" timestamp="2010-07-08T18:09:42Z" uid="74617" user="JohnSmith" changeset="5167338">
    <nd ref="418803749"/>
    <nd ref="418803740"/>
    <tag k="highway" v="residential"/>
    <tag k="maxspeed" v="50"/>
    <tag k="maxspeed:source" v="default residential speed limit in Australia"/>
    <tag k="name" v="Sandy Court"/>
  </way>
  <way id="35822302" version="2" timestamp="2010-07-08T18:08:22Z" uid="74617" user="JohnSmith" changeset="5167338">
    <nd ref="418803751"/>
    <nd ref="418803741"/>
    <tag k="highway" v="residential"/>
    <tag k="maxspeed" v="50"/>
    <tag k="maxspeed:source" v="default residential speed limit in Australia"/>
    <tag k="name" v="Haven Street"/>
  </way>
  <way id="35822303" version="2" timestamp="2010-07-08T18:07:00Z" uid="74617" user="JohnSmith" changeset="5167338">
    <nd ref="418803753"/>
    <nd ref="418803742"/>
    <tag k="highway" v="residential"/>
    <tag k="maxspeed" v="50"/>
    <tag k="maxspeed:source" v="default residential speed limit in Australia"/>
    <tag k="name" v="Reid Court"/>
  </way>
  <way id="35822304" version="2" timestamp="2010-07-08T18:09:13Z" uid="74617" user="JohnSmith" changeset="5167338">
    <nd ref="418803754"/>
    <nd ref="418803755"/>
    <nd ref="418803756"/>
    <nd ref="418803748"/>
    <tag k="highway" v="residential"/>
    <tag k="maxspeed" v="50"/>
    <tag k="maxspeed:source" v="default residential speed limit in Australia"/>
    <tag k="name" v="Kay Court"/>
  </way>
  <way id="35822306" version="2" timestamp="2010-07-08T18:06:14Z" uid="74617" user="JohnSmith" changeset="5167338">
    <nd ref="418803757"/>
    <nd ref="418803758"/>
    <nd ref="418803759"/>
    <nd ref="418803760"/>
    <nd ref="418803761"/>
    <nd ref="418803747"/>
    <tag k="highway" v="residential"/>
    <tag k="maxspeed" v="50"/>
    <tag k="maxspeed:source" v="default residential speed limit in Australia"/>
    <tag k="name" v="Goldsmith Street"/>
  </way>
  <way id="35822307" version="2" timestamp="2010-07-08T18:04:41Z" uid="74617" user="JohnSmith" changeset="5167338">
    <nd ref="418803762"/>
    <nd ref="418803763"/>
    <nd ref="418803764"/>
    <nd ref="418803758"/>
    <tag k="highway" v="residential"/>
    <tag k="maxspeed" v="50"/>
    <tag k="maxspeed:source" v="default residential speed limit in Australia"/>
    <tag k="name" v="Charles Court"/>
  </way>
  <way id="35822309" version="2" timestamp="2010-07-08T18:06:38Z" uid="74617" user="JohnSmith" changeset="5167338">
    <nd ref="418803772"/>
    <nd ref="418803775"/>
    <nd ref="418803780"/>
    <nd ref="418803760"/>
    <tag k="highway" v="residential"/>
    <tag k="maxspeed" v="50"/>
    <tag k="maxspeed:source" v="default residential speed limit in Australia"/>
    <tag k="name" v="Nisson Court"/>
  </way>
  <way id="35822313" version="2" timestamp="2010-07-08T18:09:39Z" uid="74617" user="JohnSmith" changeset="5167338">
    <nd ref="418803784"/>
    <nd ref="418803785"/>
    <nd ref="418803786"/>
    <nd ref="418803759"/>
    <tag k="highway" v="residential"/>
    <tag k="maxspeed" v="50"/>
    <tag k="maxspeed:source" v="default residential speed limit in Australia"/>
    <tag k="name" v="Norman Street"/>
  </way>
  <way id="35822314" version="2" timestamp="2010-07-08T18:08:18Z" uid="74617" user="JohnSmith" changeset="5167338">
    <nd ref="418803787"/>
    <nd ref="418803786"/>
    <tag k="highway" v="residential"/>
    <tag k="maxspeed" v="50"/>
    <tag k="maxspeed:source" v="default residential speed limit in Australia"/>
    <tag k="name" v="Kenneth Court"/>
  </way>
  <way id="35822315" version="2" timestamp="2010-07-08T18:06:55Z" uid="74617" user="JohnSmith" changeset="5167338">
    <nd ref="418803788"/>
    <nd ref="418803745"/>
    <tag k="highway" v="residential"/>
    <tag k="maxspeed" v="50"/>
    <tag k="maxspeed:source" v="default residential speed limit in Australia"/>
  </way>
  <way id="35822316" version="2" timestamp="2010-04-26T03:39:09Z" uid="4467" user="Rosscoe" changeset="4528114">
    <nd ref="418803746"/>
    <nd ref="418803789"/>
    <nd ref="418803744"/>
    <tag k="highway" v="residential"/>
    <tag k="name" v="Bonview Avenue"/>
  </way>
  <way id="35822316" version="3" timestamp="2010-07-08T18:09:55Z" uid="74617" user="JohnSmith" changeset="5167338">
    <nd ref="418803746"/>
    <nd ref="418803789"/>
    <nd ref="418803744"/>
    <tag k="highway" v="residential"/>
    <tag k="maxspeed" v="50"/>
    <tag k="maxspeed:source" v="default residential speed limit in Australia"/>
    <tag k="name" v="Bonview Avenue"/>
  </way>
  <way id="35822317" version="2" timestamp="2010-07-08T18:08:52Z" uid="74617" user="JohnSmith" changeset="5167338">
    <nd ref="418803791"/>
    <nd ref="418803789"/>
    <nd ref="418803792"/>
    <tag k="highway" v="residential"/>
    <tag k="maxspeed" v="50"/>
    <tag k="maxspeed:source" v="default residential speed limit in Australia"/>
    <tag k="name" v="Palm Beach Grove"/>
  </way>
</osm>
