<?xml version='1.0' encoding='UTF-8'?>
<osm version="0.6" generator="libosmium/2.20.0">
  <way id="35991003" version="2" timestamp="2009-06-28T01:28:32Z" uid="4467" user="Rosscoe" changeset="1656137">
    <nd ref="420655067"/>
    <nd ref="430024731"/>
    <nd ref="420655010"/>
    <tag k="highway" v="residential"/>
    <tag k="source" v="Yahoo"/>
  </way>
  <way id="35991003" version="3" timestamp="2009-07-11T04:02:52Z" uid="4467" user="Rosscoe" changeset="1793864">
    <nd ref="420655067"/>
    <nd ref="430024731"/>
    <nd ref="420655010"/>
    <tag k="highway" v="residential"/>
    <tag k="source" v="Yahoo"/>
  </way>
  <way id="35991003" version="4" timestamp="2009-08-12T06:39:34Z" uid="4467" user="Rosscoe" changeset="2115377">
    <nd ref="420655067"/>
    <nd ref="430024731"/>
    <nd ref="420655010"/>
    <tag k="highway" v="residential"/>
    <tag k="name" v="Prospect Street"/>
    <tag k="source" v="Yahoo"/>
  </way>
  <way id="35991003" version="5" timestamp="2010-07-08T09:30:46Z" uid="74617" user="JohnSmith" changeset="5164427">
    <nd ref="420655067"/>
    <nd ref="430024731"/>
    <nd ref="420655010"/>
    <tag k="highway" v="residential"/>
    <tag k="maxspeed" v="50"/>
    <tag k="maxspeed:source" v="default residential speed limit in Australia"/>
    <tag k="name" v="Prospect Street"/>
    <tag k="source" v="Yahoo"/>
  </way>
  <way id="35991003" version="6" timestamp="2010-08-01T02:49:31Z" uid="4467" user="Rosscoe" changeset="5367241">
    <nd ref="420655067"/>
    <nd ref="430024731"/>
    <nd ref="420655010"/>
    <tag k="highway" v="residential"/>
    <tag k="maxspeed" v="50"/>
    <tag k="name" v="Prospect Street"/>
    <tag k="source" v="Yahoo"/>
    <tag k="source:maxspeed" v="default residential speed limit in Australia"/>
  </way>
  <way id="35991004" version="2" timestamp="2009-08-12T06:48:53Z" uid="4467" user="Rosscoe" changeset="2115435">
    <nd ref="420655069"/>
    <nd ref="420655007"/>
    <tag k="highway" v="residential"/>
    <tag k="name" v="Wentford Street"/>
    <tag k="source" v="survey"/>
    <tag k="surface" v="paved"/>
  </way>
  <way id="35991004" version="3" timestamp="2010-07-08T09:33:33Z" uid="74617" user="JohnSmith" changeset="5164427">
    <nd ref="420655069"/>
    <nd ref="420655007"/>
    <tag k="highway" v="residential"/>
    <tag k="maxspeed" v="50"/>
    <tag k="maxspeed:source" v="default residential speed limit in Australia"/>
    <tag k="name" v="Wentford Street"/>
    <tag k="source" v="survey"/>
    <tag k="surface" v="paved"/>
  </way>
  <way id="35991004" version="4" timestamp="2010-08-01T02:48:44Z" uid="4467" user="Rosscoe" changeset="5367241">
    <nd ref="420655069"/>
    <nd ref="420655007"/>
    <tag k="highway" v="residential"/>
    <tag k="maxspeed" v="50"/>
    <tag k="name" v="Wentford Street"/>
    <tag k="source" v="survey"/>
    <tag k="source:maxspeed" v="default residential speed limit in Australia"/>
    <tag k="surface" v="paved"/>
  </way>
  <way id="35991005" version="2" timestamp="2009-07-11T05:48:49Z" uid="4467" user="Rosscoe" changeset="1794195">
    <nd ref="420655071"/>
    <nd ref="420655005"/>
    <nd ref="420655005"/>
    <tag k="highway" v="residential"/>
    <tag k="source" v="Yahoo"/>
  </way>
  <way id="35991005" version="3" timestamp="2009-07-11T06:13:27Z" uid="4467" user="Rosscoe" changeset="1794307">
    <nd ref="420655071"/>
    <nd ref="420655005"/>
    <tag k="highway" v="residential"/>
    <tag k="source" v="Yahoo"/>
  </way>
  <way id="35991005" version="4" timestamp="2009-08-12T06:48:53Z" uid="4467" user="Rosscoe" changeset="2115435">
    <nd ref="420655071"/>
    <nd ref="420655005"/>
    <tag k="highway" v="residential"/>
    <tag k="name" v="Hucker Street"/>
    <tag k="source" v="survey"/>
    <tag k="surface" v="paved"/>
  </way>
  <way id="35991005" version="5" timestamp="2010-07-08T09:31:42Z" uid="74617" user="JohnSmith" changeset="5164427">
    <nd ref="420655071"/>
    <nd ref="420655005"/>
    <tag k="highway" v="residential"/>
    <tag k="maxspeed" v="50"/>
    <tag k="maxspeed:source" v="default residential speed limit in Australia"/>
    <tag k="name" v="Hucker Street"/>
    <tag k="source" v="survey"/>
    <tag k="surface" v="paved"/>
  </way>
  <way id="35991005" version="6" timestamp="2010-08-01T02:39:52Z" uid="4467" user="Rosscoe" changeset="5367241">
    <nd ref="420655071"/>
    <nd ref="420655005"/>
    <tag k="highway" v="residential"/>
    <tag k="maxspeed" v="50"/>
    <tag k="name" v="Hucker Street"/>
    <tag k="source" v="survey"/>
    <tag k="source:maxspeed" v="default residential speed limit in Australia"/>
    <tag k="surface" v="paved"/>
  </way>
  <way id="35991006" version="2" timestamp="2009-08-12T06:48:53Z" uid="4467" user="Rosscoe" changeset="2115435">
    <nd ref="420655072"/>
    <nd ref="420654998"/>
    <tag k="highway" v="residential"/>
    <tag k="name" v="Gold Street"/>
    <tag k="source" v="survey"/>
    <tag k="surface" v="paved"/>
  </way>
  <way id="35991006" version="3" timestamp="2010-07-08T09:35:36Z" uid="74617" user="JohnSmith" changeset="5164427">
    <nd ref="420655072"/>
    <nd ref="420654998"/>
    <tag k="highway" v="residential"/>
    <tag k="maxspeed" v="50"/>
    <tag k="maxspeed:source" v="default residential speed limit in Australia"/>
    <tag k="name" v="Gold Street"/>
    <tag k="source" v="survey"/>
    <tag k="surface" v="paved"/>
  </way>
  <way id="35991006" version="4" timestamp="2010-08-01T02:20:35Z" uid="4467" user="Rosscoe" changeset="5367241">
    <nd ref="420655072"/>
    <nd ref="420654998"/>
    <tag k="highway" v="residential"/>
    <tag k="maxspeed" v="50"/>
    <tag k="name" v="Gold Street"/>
    <tag k="source" v="survey"/>
    <tag k="source:maxspeed" v="default residential speed limit in Australia"/>
    <tag k="surface" v="paved"/>
  </way>
  <way id="35991006" version="5" timestamp="2010-08-01T02:31:56Z" uid="4467" user="Rosscoe" changeset="5367241">
    <nd ref="420655072"/>
    <nd ref="420654998"/>
    <tag k="highway" v="residential"/>
    <tag k="maxspeed" v="50"/>
    <tag k="name" v="Gold Street"/>
    <tag k="source" v="survey"/>
    <tag k="source:maxspeed" v="default residential speed limit in Australia"/>
    <tag k="surface" v="paved"/>
  </way>
  <way id="35991007" version="2" timestamp="2009-07-11T06:31:26Z" uid="4467" user="Rosscoe" changeset="1794388">
    <nd ref="420655075"/>
    <nd ref="420655151"/>
    <nd ref="420655153"/>
    <nd ref="420655158"/>
    <nd ref="317390565"/>
    <tag k="highway" v="residential"/>
    <tag k="name" v="Hague Street"/>
    <tag k="source" v="survey"/>
    <tag k="surface" v="paved"/>
  </way>
  <way id="35991007" version="3" timestamp="2010-07-08T09:34:40Z" uid="74617" user="JohnSmith" changeset="5164427">
    <nd ref="420655075"/>
    <nd ref="420655151"/>
    <nd ref="420655153"/>
    <nd ref="420655158"/>
    <nd ref="317390565"/>
    <tag k="highway" v="residential"/>
    <tag k="maxspeed" v="50"/>
    <tag k="maxspeed:source" v="default residential speed limit in Australia"/>
    <tag k="name" v="Hague Street"/>
    <tag k="source" v="survey"/>
    <tag k="surface" v="paved"/>
  </way>
  <way id="35991007" version="4" timestamp="2010-08-01T02:42:45Z" uid="4467" user="Rosscoe" changeset="5367241">
    <nd ref="420655075"/>
    <nd ref="420655151"/>
    <nd ref="420655153"/>
    <nd ref="420655158"/>
    <nd ref="317390565"/>
    <tag k="highway" v="residential"/>
    <tag k="maxspeed" v="50"/>
    <tag k="name" v="Hague Street"/>
    <tag k="source" v="survey"/>
    <tag k="source:maxspeed" v="default residential speed limit in Australia"/>
    <tag k="surface" v="paved"/>
  </way>
  <way id="35991010" version="2" timestamp="2009-07-11T06:31:26Z" uid="4467" user="Rosscoe" changeset="1794388">
    <nd ref="420655158"/>
    <nd ref="420655166"/>
    <tag k="highway" v="residential"/>
    <tag k="source" v="survey"/>
    <tag k="surface" v="paved"/>
  </way>
  <way id="35991010" version="3" timestamp="2009-07-11T07:15:28Z" uid="4467" user="Rosscoe" changeset="1794641">
    <nd ref="420655158"/>
    <nd ref="420655166"/>
    <tag k="highway" v="residential"/>
    <tag k="source" v="survey"/>
    <tag k="surface" v="paved"/>
  </way>
  <way id="35991010" version="4" timestamp="2009-07-11T07:35:58Z" uid="4467" user="Rosscoe" changeset="1794752">
    <nd ref="420655158"/>
    <nd ref="420655166"/>
    <tag k="highway" v="residential"/>
    <tag k="name" v="Bothwick Street"/>
    <tag k="source" v="survey"/>
    <tag k="surface" v="paved"/>
  </way>
  <way id="35991010" version="5" timestamp="2010-07-08T09:28:32Z" uid="74617" user="JohnSmith" changeset="5164427">
    <nd ref="420655158"/>
    <nd ref="420655166"/>
    <tag k="highway" v="residential"/>
    <tag k="maxspeed" v="50"/>
    <tag k="maxspeed:source" v="default residential speed limit in Australia"/>
    <tag k="name" v="Bothwick Street"/>
    <tag k="source" v="survey"/>
    <tag k="surface" v="paved"/>
  </way>
  <way id="35991010" version="6" timestamp="2010-08-01T02:38:55Z" uid="4467" user="Rosscoe" changeset="5367241">
    <nd ref="420655158"/>
    <nd ref="420655166"/>
    <tag k="highway" v="residential"/>
    <tag k="maxspeed" v="50"/>
    <tag k="name" v="Bothwick Street"/>
    <tag k="source" v="survey"/>
    <tag k="source:maxspeed" v="default residential speed limit in Australia"/>
    <tag k="surface" v="paved"/>
  </way>
  <way id="35991011" version="2" timestamp="2009-07-11T06:31:26Z" uid="4467" user="Rosscoe" changeset="1794388">
    <nd ref="420655153"/>
    <nd ref="420655173"/>
    <tag k="highway" v="residential"/>
    <tag k="name" v="Kate Street"/>
    <tag k="source" v="survey"/>
    <tag k="surface" v="paved"/>
  </way>
  <way id="35991011" version="3" timestamp="2009-07-11T07:15:28Z" uid="4467" user="Rosscoe" changeset="1794641">
    <nd ref="420655153"/>
    <nd ref="420655173"/>
    <tag k="highway" v="residential"/>
    <tag k="name" v="Kate Street"/>
    <tag k="source" v="survey"/>
    <tag k="surface" v="paved"/>
  </way>
  <way id="35991011" version="4" timestamp="2010-07-08T09:36:39Z" uid="74617" user="JohnSmith" changeset="5164427">
    <nd ref="420655153"/>
    <nd ref="420655173"/>
    <tag k="highway" v="residential"/>
    <tag k="maxspeed" v="50"/>
    <tag k="maxspeed:source" v="default residential speed limit in Australia"/>
    <tag k="name" v="Kate Street"/>
    <tag k="source" v="survey"/>
    <tag k="surface" v="paved"/>
  </way>
  <way id="35991011" version="5" timestamp="2010-08-01T02:50:58Z" uid="4467" user="Rosscoe" changeset="5367241">
    <nd ref="420655153"/>
    <nd ref="420655173"/>
    <tag k="highway" v="residential"/>
    <tag k="maxspeed" v="50"/>
    <tag k="name" v="Kate Street"/>
    <tag k="source" v="survey"/>
    <tag k="source:maxspeed" v="default residential speed limit in Australia"/>
    <tag k="surface" v="paved"/>
  </way>
  <way id="35991012" version="2" timestamp="2009-07-11T06:31:26Z" uid="4467" user="Rosscoe" changeset="1794388">
    <nd ref="420655151"/>
    <nd ref="420655181"/>
    <nd ref="420655180"/>
    <nd ref="439994698"/>
    <nd ref="420655178"/>
    <nd ref="420655176"/>
    <nd ref="196793727"/>
    <tag k="highway" v="residential"/>
    <tag k="name" v="Macrossan Street"/>
    <tag k="source" v="survey"/>
    <tag k="surface" v="paved"/>
  </way>
  <way id="35991012" version="3" timestamp="2010-07-08T09:29:38Z" uid="74617" user="JohnSmith" changeset="5164427">
    <nd ref="420655151"/>
    <nd ref="420655181"/>
    <nd ref="420655180"/>
    <nd ref="439994698"/>
    <nd ref="420655178"/>
    <nd ref="420655176"/>
    <nd ref="196793727"/>
    <tag k="highway" v="residential"/>
    <tag k="maxspeed" v="50"/>
    <tag k="maxspeed:source" v="default residential speed limit in Australia"/>
    <tag k="name" v="Macrossan Street"/>
    <tag k="source" v="survey"/>
    <tag k="surface" v="paved"/>
  </way>
  <way id="35991012" version="4" timestamp="2010-08-01T02:50:17Z" uid="4467" user="Rosscoe" changeset="5367241">
    <nd ref="420655151"/>
    <nd ref="420655181"/>
    <nd ref="420655180"/>
    <nd ref="439994698"/>
    <nd ref="420655178"/>
    <nd ref="420655176"/>
    <nd ref="196793727"/>
    <tag k="highway" v="residential"/>
    <tag k="maxspeed" v="50"/>
    <tag k="name" v="Macrossan Street"/>
    <tag k="source" v="survey"/>
    <tag k="source:maxspeed" v="default residential speed limit in Australia"/>
    <tag k="surface" v="paved"/>
  </way>
  <way id="35991013" version="2" timestamp="2009-06-28T01:28:27Z" uid="4467" user="Rosscoe" changeset="1656137">
    <nd ref="430024731"/>
    <nd ref="420655202"/>
    <nd ref="420655204"/>
    <nd ref="420655011"/>
    <tag k="highway" v="residential"/>
    <tag k="source" v="Yahoo"/>
  </way>
  <way id="35991013" version="3" timestamp="2009-08-12T06:39:34Z" uid="4467" user="Rosscoe" changeset="2115377">
    <nd ref="430024731"/>
    <nd ref="420655202"/>
    <tag k="highway" v="residential"/>
    <tag k="name" v="Hayes Lane"/>
    <tag k="source" v="Yahoo"/>
  </way>
  <way id="35991013" version="4" timestamp="2010-07-08T09:37:10Z" uid="74617" user="JohnSmith" changeset="5164427">
    <nd ref="430024731"/>
    <nd ref="420655202"/>
    <tag k="highway" v="residential"/>
    <tag k="maxspeed" v="50"/>
    <tag k="maxspeed:source" v="default residential speed limit in Australia"/>
    <tag k="name" v="Hayes Lane"/>
    <tag k="source" v="Yahoo"/>
  </way>
  <way id="35991013" version="5" timestamp="2010-08-01T02:41:13Z" uid="4467" user="Rosscoe" changeset="5367241">
    <nd ref="430024731"/>
    <nd ref="420655202"/>
    <tag k="highway" v="residential"/>
    <tag k="maxspeed" v="50"/>
    <tag k="name" v="Hayes Lane"/>
    <tag k="source" v="Yahoo"/>
    <tag k="source:maxspeed" v="default residential speed limit in Australia"/>
  </way>
  <way id="35991014" version="2" timestamp="2009-07-11T05:56:08Z" uid="4467" user="Rosscoe" changeset="1794226"/>
  <way id="35991015" version="2" timestamp="2009-07-11T05:56:08Z" uid="4467" user="Rosscoe" changeset="1794226"/>
  <way id="35991016" version="2" timestamp="2009-07-11T05:47:55Z" uid="4467" user="Rosscoe" changeset="1794189">
    <nd ref="439989535"/>
    <nd ref="420655237"/>
    <nd ref="420655239"/>
    <tag k="highway" v="residential"/>
    <tag k="source" v="survey"/>
    <tag k="surface" v="paved"/>
  </way>
  <way id="35991016" version="3" timestamp="2009-07-11T06:12:39Z" uid="4467" user="Rosscoe" changeset="1794302">
    <nd ref="439989535"/>
    <nd ref="420655237"/>
    <nd ref="420655239"/>
    <tag k="highway" v="residential"/>
    <tag k="name" v="Scanlan Street"/>
    <tag k="source" v="survey"/>
    <tag k="surface" v="paved"/>
  </way>
  <way id="35991016" version="4" timestamp="2010-07-08T09:34:10Z" uid="74617" user="JohnSmith" changeset="5164427">
    <nd ref="439989535"/>
    <nd ref="420655237"/>
    <nd ref="420655239"/>
    <tag k="highway" v="residential"/>
    <tag k="maxspeed" v="50"/>
    <tag k="maxspeed:source" v="default residential speed limit in Australia"/>
    <tag k="name" v="Scanlan Street"/>
    <tag k="source" v="survey"/>
    <tag k="surface" v="paved"/>
  </way>
  <way id="35991016" version="5" timestamp="2010-08-01T02:48:25Z" uid="4467" user="Rosscoe" changeset="5367241">
    <nd ref="439989535"/>
    <nd ref="420655237"/>
    <nd ref="420655239"/>
    <tag k="highway" v="residential"/>
    <tag k="maxspeed" v="50"/>
    <tag k="name" v="Scanlan Street"/>
    <tag k="source" v="survey"/>
    <tag k="source:maxspeed" v="default residential speed limit in Australia"/>
    <tag k="surface" v="paved"/>
  </way>
  <way id="35991017" version="2" timestamp="2009-07-11T05:47:55Z" uid="4467" user="Rosscoe" changeset="1794189">
    <nd ref="242836032"/>
    <nd ref="420655245"/>
    <tag k="highway" v="residential"/>
    <tag k="source" v="survey"/>
    <tag k="surface" v="paved"/>
  </way>
  <way id="35991017" version="3" timestamp="2009-07-11T06:12:39Z" uid="4467" user="Rosscoe" changeset="1794302">
    <nd ref="242836032"/>
    <nd ref="420655245"/>
    <tag k="highway" v="residential"/>
    <tag k="name" v="Harvison Street"/>
    <tag k="source" v="survey"/>
    <tag k="surface" v="paved"/>
  </way>
  <way id="35991017" version="4" timestamp="2010-07-08T09:32:46Z" uid="74617" user="JohnSmith" changeset="5164427">
    <nd ref="242836032"/>
    <nd ref="420655245"/>
    <tag k="highway" v="residential"/>
    <tag k="maxspeed" v="50"/>
    <tag k="maxspeed:source" v="default residential speed limit in Australia"/>
    <tag k="name" v="Harvison Street"/>
    <tag k="source" v="survey"/>
    <tag k="surface" v="paved"/>
  </way>
  <way id="35991017" version="5" timestamp="2010-08-01T02:39:38Z" uid="4467" user="Rosscoe" changeset="5367241">
    <nd ref="242836032"/>
    <nd ref="420655245"/>
    <tag k="highway" v="residential"/>
    <tag k="maxspeed" v="50"/>
    <tag k="name" v="Harvison Street"/>
    <tag k="source" v="survey"/>
    <tag k="source:maxspeed" v="default residential speed limit in Australia"/>
    <tag k="surface" v="paved"/>
  </way>
  <way id="35991018" version="2" timestamp="2009-07-11T05:47:55Z" uid="4467" user="Rosscoe" changeset="1794189">
    <nd ref="420655062"/>
    <nd ref="420655254"/>
    <tag k="highway" v="residential"/>
    <tag k="source" v="survey"/>
    <tag k="surface" v="paved"/>
  </way>
  <way id="35991018" version="3" timestamp="2009-07-11T06:12:39Z" uid="4467" user="Rosscoe" changeset="1794302">
    <nd ref="420655062"/>
    <nd ref="420655254"/>
    <tag k="highway" v="residential"/>
    <tag k="name" v="Atkinson Street"/>
    <tag k="source" v="survey"/>
    <tag k="surface" v="paved"/>
  </way>
  <way id="35991018" version="4" timestamp="2010-07-08T09:36:06Z" uid="74617" user="JohnSmith" changeset="5164427">
    <nd ref="420655062"/>
    <nd ref="420655254"/>
    <tag k="highway" v="residential"/>
    <tag k="maxspeed" v="50"/>
    <tag k="maxspeed:source" v="default residential speed limit in Australia"/>
    <tag k="name" v="Atkinson Street"/>
    <tag k="source" v="survey"/>
    <tag k="surface" v="paved"/>
  </way>
  <way id="35991018" version="5" timestamp="2010-08-01T02:20:12Z" uid="4467" user="Rosscoe" changeset="5367241">
    <nd ref="420655062"/>
    <nd ref="420655254"/>
    <tag k="highway" v="residential"/>
    <tag k="maxspeed" v="50"/>
    <tag k="name" v="Atkinson Street"/>
    <tag k="source" v="survey"/>
    <tag k="source:maxspeed" v="default residential speed limit in Australia"/>
    <tag k="surface" v="paved"/>
  </way>
  <way id="35991018" version="6" timestamp="2010-08-01T02:31:34Z" uid="4467" user="Rosscoe" changeset="5367241">
    <nd ref="420655062"/>
    <nd ref="420655254"/>
    <tag k="highway" v="residential"/>
    <tag k="maxspeed" v="50"/>
    <tag k="name" v="Atkinson Street"/>
    <tag k="source" v="survey"/>
    <tag k="source:maxspeed" v="default residential speed limit in Australia"/>
    <tag k="surface" v="paved"/>
  </way>
  <way id="35991020" version="2" timestamp="2009-07-11T05:47:55Z" uid="4467" user="Rosscoe" changeset="1794189">
    <nd ref="242836027"/>
    <nd ref="420655260"/>
    <tag k="highway" v="residential"/>
    <tag k="source" v="Yahoo"/>
  </way>
  <way id="35991020" version="3" timestamp="2009-07-11T05:56:08Z" uid="4467" user="Rosscoe" changeset="1794226">
    <nd ref="242836027"/>
    <nd ref="420655260"/>
    <tag k="highway" v="residential"/>
    <tag k="source" v="survey"/>
    <tag k="surface" v="paved"/>
  </way>
  <way id="35991020" version="4" timestamp="2009-07-11T06:12:39Z" uid="4467" user="Rosscoe" changeset="1794302">
    <nd ref="242836027"/>
    <nd ref="420655260"/>
    <tag k="highway" v="residential"/>
    <tag k="name" v="Henderson Street"/>
    <tag k="source" v="survey"/>
    <tag k="surface" v="paved"/>
  </way>
  <way id="35991020" version="5" timestamp="2010-07-08T09:36:43Z" uid="74617" user="JohnSmith" changeset="5164427">
    <nd ref="242836027"/>
    <nd ref="420655260"/>
    <tag k="highway" v="residential"/>
    <tag k="maxspeed" v="50"/>
    <tag k="maxspeed:source" v="default residential speed limit in Australia"/>
    <tag k="name" v="Henderson Street"/>
    <tag k="source" v="survey"/>
    <tag k="surface" v="paved"/>
  </way>
  <way id="35991020" version="6" timestamp="2010-08-01T02:41:52Z" uid="4467" user="Rosscoe" changeset="5367241">
    <nd ref="242836027"/>
    <nd ref="420655260"/>
    <tag k="highway" v="residential"/>
    <tag k="maxspeed" v="50"/>
    <tag k="name" v="Henderson Street"/>
    <tag k="source" v="survey"/>
    <tag k="source:maxspeed" v="default residential speed limit in Australia"/>
    <tag k="surface" v="paved"/>
  </way>
  <way id="35991021" version="2" timestamp="2009-07-11T05:47:55Z" uid="4467" user="Rosscoe" changeset="1794189">
    <nd ref="242836047"/>
    <nd ref="420655264"/>
    <tag k="highway" v="residential"/>
    <tag k="source" v="survey"/>
    <tag k="surface" v="paved"/>
  </way>
  <way id="35991021" version="3" timestamp="2009-07-11T06:12:39Z" uid="4467" user="Rosscoe" changeset="1794302">
    <nd ref="242836047"/>
    <nd ref="420655264"/>
    <tag k="highway" v="residential"/>
    <tag k="name" v="McIntyre Street"/>
    <tag k="source" v="survey"/>
    <tag k="surface" v="paved"/>
  </way>
  <way id="35991021" version="4" timestamp="2010-07-08T09:35:34Z" uid="74617" user="JohnSmith" changeset="5164427">
    <nd ref="242836047"/>
    <nd ref="420655264"/>
    <tag k="highway" v="residential"/>
    <tag k="maxspeed" v="50"/>
    <tag k="maxspeed:source" v="default residential speed limit in Australia"/>
    <tag k="name" v="McIntyre Street"/>
    <tag k="source" v="survey"/>
    <tag k="surface" v="paved"/>
  </way>
  <way id="35991021" version="5" timestamp="2010-08-01T02:22:27Z" uid="4467" user="Rosscoe" changeset="5367241">
    <nd ref="242836047"/>
    <nd ref="420655264"/>
    <tag k="highway" v="residential"/>
    <tag k="maxspeed" v="50"/>
    <tag k="name" v="McIntyre Street"/>
    <tag k="source" v="survey"/>
    <tag k="source:maxspeed" v="default residential speed limit in Australia"/>
    <tag k="surface" v="paved"/>
  </way>
  <way id="35991021" version="6" timestamp="2010-08-01T02:33:43Z" uid="4467" user="Rosscoe" changeset="5367241">
    <nd ref="242836047"/>
    <nd ref="420655264"/>
    <tag k="highway" v="residential"/>
    <tag k="maxspeed" v="50"/>
    <tag k="name" v="McIntyre Street"/>
    <tag k="source" v="survey"/>
    <tag k="source:maxspeed" v="default residential speed limit in Australia"/>
    <tag k="surface" v="paved"/>
  </way>
  <way id="35991022" version="2" timestamp="2009-07-11T05:47:55Z" uid="4467" user="Rosscoe" changeset="1794189">
    <nd ref="361816938"/>
    <nd ref="420655264"/>
    <nd ref="420655237"/>
    <tag k="highway" v="residential"/>
    <tag k="source" v="survey"/>
    <tag k="surface" v="paved"/>
  </way>
  <way id="35991022" version="3" timestamp="2009-07-11T06:12:39Z" uid="4467" user="Rosscoe" changeset="1794302">
    <nd ref="361816938"/>
    <nd ref="420655264"/>
    <nd ref="420655237"/>
    <tag k="highway" v="residential"/>
    <tag k="name" v="Christie Street"/>
    <tag k="source" v="survey"/>
    <tag k="surface" v="paved"/>
  </way>
  <way id="35991022" version="4" timestamp="2009-07-11T13:46:34Z" uid="4467" user="Rosscoe" changeset="1797476">
    <nd ref="361816938"/>
    <nd ref="420655264"/>
    <nd ref="420655237"/>
    <tag k="highway" v="residential"/>
    <tag k="name" v="Christie Street"/>
    <tag k="source" v="survey"/>
    <tag k="surface" v="paved"/>
  </way>
  <way id="35991022" version="5" timestamp="2010-07-08T09:30:41Z" uid="74617" user="JohnSmith" changeset="5164427">
    <nd ref="361816938"/>
    <nd ref="420655264"/>
    <nd ref="420655237"/>
    <tag k="highway" v="residential"/>
    <tag k="maxspeed" v="50"/>
    <tag k="maxspeed:source" v="default residential speed limit in Australia"/>
    <tag k="name" v="Christie Street"/>
    <tag k="source" v="survey"/>
    <tag k="surface" v="paved"/>
  </way>
  <way id="35991022" version="6" timestamp="2010-08-01T02:44:43Z" uid="4467" user="Rosscoe" changeset="5367241">
    <nd ref="361816938"/>
    <nd ref="420655264"/>
    <nd ref="420655237"/>
    <tag k="highway" v="residential"/>
    <tag k="maxspeed" v="50"/>
    <tag k="name" v="Christie Street"/>
    <tag k="source" v="survey"/>
    <tag k="source:maxspeed" v="default residential speed limit in Australia"/>
    <tag k="surface" v="paved"/>
  </way>
  <way id="35991023" version="2" timestamp="2009-07-22T08:15:30Z" uid="4467" user="Rosscoe" changeset="1902383"/>
  <way id="35991024" version="2" timestamp="2009-07-11T06:12:39Z" uid="4467" user="Rosscoe" changeset="1794302">
    <nd ref="420655280"/>
    <nd ref="242836040"/>
    <tag k="highway" v="residential"/>
    <tag k="source" v="Yahoo"/>
  </way>
  <way id="35991024" version="3" timestamp="2010-07-08T09:30:24Z" uid="74617" user="JohnSmith" changeset="5164427">
    <nd ref="420655280"/>
    <nd ref="242836040"/>
    <tag k="highway" v="residential"/>
    <tag k="maxspeed" v="50"/>
    <tag k="maxspeed:source" v="default residential speed limit in Australia"/>
    <tag k="source" v="Yahoo"/>
  </way>
  <way id="35991024" version="4" timestamp="2010-08-01T02:20:21Z" uid="4467" user="Rosscoe" changeset="5367241">
    <nd ref="420655280"/>
    <nd ref="242836040"/>
    <tag k="highway" v="residential"/>
    <tag k="maxspeed" v="50"/>
    <tag k="source" v="Yahoo"/>
    <tag k="source:maxspeed" v="default residential speed limit in Australia"/>
  </way>
  <way id="35991024" version="5" timestamp="2010-08-01T02:31:42Z" uid="4467" user="Rosscoe" changeset="5367241">
    <nd ref="420655280"/>
    <nd ref="242836040"/>
    <tag k="highway" v="residential"/>
    <tag k="maxspeed" v="50"/>
    <tag k="source" v="Yahoo"/>
    <tag k="source:maxspeed" v="default residential speed limit in Australia"/>
  </way>
  <way id="35991025" version="2" timestamp="2009-07-11T06:12:38Z" uid="4467" user="Rosscoe" changeset="1794302">
    <nd ref="420654988"/>
    <nd ref="420655285"/>
    <tag k="highway" v="residential"/>
    <tag k="name" v="McLean Street"/>
    <tag k="source" v="Yahoo"/>
  </way>
  <way id="35991025" version="3" timestamp="2009-07-11T13:46:34Z" uid="4467" user="Rosscoe" changeset="1797476">
    <nd ref="420654988"/>
    <nd ref="420655285"/>
    <tag k="highway" v="residential"/>
    <tag k="name" v="McLean Street"/>
    <tag k="source" v="Yahoo"/>
  </way>
  <way id="35991025" version="4" timestamp="2010-07-08T09:28:24Z" uid="74617" user="JohnSmith" changeset="5164427">
    <nd ref="420654988"/>
    <nd ref="420655285"/>
    <tag k="highway" v="residential"/>
    <tag k="maxspeed" v="50"/>
    <tag k="maxspeed:source" v="default residential speed limit in Australia"/>
    <tag k="name" v="McLean Street"/>
    <tag k="source" v="Yahoo"/>
  </way>
  <way id="35991025" version="5" timestamp="2010-08-01T02:42:32Z" uid="4467" user="Rosscoe" changeset="5367241">
    <nd ref="420654988"/>
    <nd ref="420655285"/>
    <tag k="highway" v="residential"/>
    <tag k="maxspeed" v="50"/>
    <tag k="name" v="McLean Street"/>
    <tag k="source" v="Yahoo"/>
    <tag k="source:maxspeed" v="default residential speed limit in Australia"/>
  </way>
  <way id="35991026" version="2" timestamp="2009-07-11T06:12:38Z" uid="4467" user="Rosscoe" changeset="1794302">
    <nd ref="420655097"/>
    <nd ref="420655213"/>
    <tag k="highway" v="residential"/>
    <tag k="name" v="Weir Street"/>
    <tag k="source" v="survey"/>
    <tag k="surface" v="paved"/>
  </way>
  <way id="35991026" version="3" timestamp="2009-07-11T06:15:13Z" uid="4467" user="Rosscoe" changeset="1794317">
    <nd ref="420655097"/>
    <nd ref="420655213"/>
    <tag k="highway" v="residential"/>
    <tag k="name" v="Weir Street"/>
    <tag k="source" v="survey"/>
    <tag k="surface" v="paved"/>
  </way>
  <way id="35991026" version="4" timestamp="2009-07-11T06:17:05Z" uid="4467" user="Rosscoe" changeset="1794328">
    <nd ref="420655097"/>
    <nd ref="420655213"/>
    <tag k="highway" v="residential"/>
    <tag k="name" v="Weir Street"/>
    <tag k="source" v="survey"/>
    <tag k="surface" v="paved"/>
  </way>
  <way id="35991026" version="5" timestamp="2010-07-08T09:33:59Z" uid="74617" user="JohnSmith" changeset="5164427">
    <nd ref="420655097"/>
    <nd ref="420655213"/>
    <tag k="highway" v="residential"/>
    <tag k="maxspeed" v="50"/>
    <tag k="maxspeed:source" v="default residential speed limit in Australia"/>
    <tag k="name" v="Weir Street"/>
    <tag k="source" v="survey"/>
    <tag k="surface" v="paved"/>
  </way>
  <way id="35991026" version="6" timestamp="2010-08-01T02:23:15Z" uid="4467" user="Rosscoe" changeset="5367241">
    <nd ref="420655097"/>
    <nd ref="420655213"/>
    <tag k="highway" v="residential"/>
    <tag k="maxspeed" v="50"/>
    <tag k="name" v="Weir Street"/>
    <tag k="source" v="survey"/>
    <tag k="source:maxspeed" v="default residential speed limit in Australia"/>
    <tag k="surface" v="paved"/>
  </way>
  <way id="35991026" version="7" timestamp="2010-08-01T02:34:31Z" uid="4467" user="Rosscoe" changeset="5367241">
    <nd ref="420655097"/>
    <nd ref="420655213"/>
    <tag k="highway" v="residential"/>
    <tag k="maxspeed" v="50"/>
    <tag k="name" v="Weir Street"/>
    <tag k="source" v="survey"/>
    <tag k="source:maxspeed" v="default residential speed limit in Australia"/>
    <tag k="surface" v="paved"/>
  </way>
  <way id="35991029" version="2" timestamp="2009-06-28T01:32:17Z" uid="4467" user="Rosscoe" changeset="1656137"/>
  <way id="35991030" version="2" timestamp="2009-06-28T01:32:17Z" uid="4467" user="Rosscoe" changeset="1656137"/>
  <way id="35991417" version="2" timestamp="2010-01-16T14:05:05Z" uid="58091" user="Andreas M" changeset="3631788">
    <nd ref="420660383"/>
    <nd ref="78208778"/>
    <nd ref="78212097"/>
    <nd ref="420660388"/>
    <tag k="highway" v="cycleway"/>
  </way>
  <way id="35991529" version="6" timestamp="2009-07-26T01:29:53Z" uid="18775" user="drlizau" changeset="1939917">
    <nd ref="322077535"/>
    <nd ref="322077539"/>
    <tag k="highway" v="residential"/>
    <tag k="name" v="Beqir Musliu 1"/>
  </way>
  <way id="35991739" version="6" timestamp="2009-07-26T01:29:57Z" uid="18775" user="drlizau" changeset="1939917">
    <nd ref="322077550"/>
    <nd ref="322077554"/>
    <tag k="highway" v="residential"/>
    <tag k="name" v="Beqir Musliu 3"/>
  </way>
  <way id="35991790" version="6" timestamp="2009-07-26T01:29:53Z" uid="18775" user="drlizau" changeset="1939917">
    <nd ref="322077559"/>
    <nd ref="420778682"/>
    <nd ref="420778688"/>
    <nd ref="322077562"/>
    <tag k="highway" v="residential"/>
    <tag k="name" v="Muharrem Ibrahimi 4"/>
  </way>
</osm>
