<?xml version='1.0' encoding='UTF-8'?>
<osm version="0.6" generator="libosmium/2.20.0">
  <way id="36020206" version="8" timestamp="2010-03-28T02:19:15Z" uid="20587" user="balrog-kun" changeset="4250871">
    <nd ref="65448240"/>
    <nd ref="65386951"/>
    <tag k="highway" v="motorway"/>
    <tag k="name" v="South Valley Freeway"/>
    <tag k="name_1" v="United States Highway 101"/>
    <tag k="oneway" v="yes"/>
    <tag k="ref" v="US 101"/>
    <tag k="tiger:cfcc" v="A11"/>
    <tag k="tiger:county" v="Santa Clara, CA"/>
    <tag k="tiger:name_base" v="South Valley"/>
    <tag k="tiger:name_base_1" v="United States Highway 101"/>
    <tag k="tiger:name_type" v="Fwy"/>
    <tag k="tiger:separated" v="no"/>
    <tag k="tiger:source" v="tiger_import_dch_v0.6_20070809"/>
    <tag k="tiger:tlid" v="122983006:123000141:122928583:122928645:123179153:123160293:122928941:122928944:122928949:122928958:122928960:122928961:122970714:123179273:123179275:122929670:122929591:123006127:122988360:122928811:122928779:123179271:122928916:123182908:122929757:12292"/>
  </way>
  <way id="36020207" version="4" timestamp="2010-03-28T02:19:15Z" uid="20587" user="balrog-kun" changeset="4250871">
    <nd ref="65448243"/>
    <nd ref="65448240"/>
    <tag k="bridge" v="yes"/>
    <tag k="highway" v="motorway"/>
    <tag k="layer" v="1"/>
    <tag k="name" v="South Valley Freeway"/>
    <tag k="name_1" v="United States Highway 101"/>
    <tag k="oneway" v="yes"/>
    <tag k="ref" v="US 101"/>
    <tag k="tiger:cfcc" v="A11"/>
    <tag k="tiger:county" v="Santa Clara, CA"/>
    <tag k="tiger:name_base" v="South Valley"/>
    <tag k="tiger:name_base_1" v="United States Highway 101"/>
    <tag k="tiger:name_type" v="Fwy"/>
    <tag k="tiger:separated" v="no"/>
    <tag k="tiger:source" v="tiger_import_dch_v0.6_20070809"/>
    <tag k="tiger:tlid" v="122983006:123000141:122928583:122928645:123179153:123160293:122928941:122928944:122928949:122928958:122928960:122928961:122970714:123179273:123179275:122929670:122929591:123006127:122988360:122928811:122928779:123179271:122928916:123182908:122929757:12292"/>
  </way>
  <way id="36020208" version="4" timestamp="2010-03-28T02:19:15Z" uid="20587" user="balrog-kun" changeset="4250871">
    <nd ref="367134104"/>
    <nd ref="367134100"/>
    <tag k="bridge" v="yes"/>
    <tag k="highway" v="motorway"/>
    <tag k="layer" v="1"/>
    <tag k="name" v="South Valley Freeway"/>
    <tag k="oneway" v="yes"/>
    <tag k="ref" v="US 101"/>
  </way>
  <way id="36020220" version="3" timestamp="2010-03-28T02:19:16Z" uid="20587" user="balrog-kun" changeset="4250871">
    <nd ref="367134100"/>
    <nd ref="260543591"/>
    <nd ref="31416615"/>
    <nd ref="260543592"/>
    <nd ref="310349194"/>
    <nd ref="260543590"/>
    <nd ref="31416618"/>
    <nd ref="25457948"/>
    <nd ref="260543571"/>
    <nd ref="31416619"/>
    <nd ref="260543565"/>
    <nd ref="367136287"/>
    <nd ref="367136286"/>
    <nd ref="25457998"/>
    <nd ref="31416620"/>
    <nd ref="260543542"/>
    <nd ref="252026740"/>
    <nd ref="31416621"/>
    <nd ref="252026734"/>
    <nd ref="31416623"/>
    <nd ref="25457950"/>
    <nd ref="31416622"/>
    <nd ref="25457951"/>
    <nd ref="31416625"/>
    <nd ref="25457953"/>
    <nd ref="31416627"/>
    <nd ref="252014159"/>
    <nd ref="297287883"/>
    <nd ref="297373006"/>
    <nd ref="65549938"/>
    <nd ref="31416628"/>
    <nd ref="292461124"/>
    <nd ref="65388949"/>
    <nd ref="303443952"/>
    <nd ref="292461261"/>
    <nd ref="31354458"/>
    <nd ref="367139870"/>
    <nd ref="25457954"/>
    <nd ref="308021281"/>
    <nd ref="31416630"/>
    <nd ref="25457955"/>
    <nd ref="277475058"/>
    <tag k="highway" v="motorway"/>
    <tag k="layer" v="1"/>
    <tag k="name" v="South Valley Freeway"/>
    <tag k="oneway" v="yes"/>
    <tag k="ref" v="US 101"/>
  </way>
  <way id="36020613" version="4" timestamp="2010-03-28T02:19:17Z" uid="20587" user="balrog-kun" changeset="4250871">
    <nd ref="386925477"/>
    <nd ref="65402815"/>
    <nd ref="310347367"/>
    <nd ref="65468594"/>
    <nd ref="332161532"/>
    <nd ref="65397184"/>
    <nd ref="293063756"/>
    <nd ref="310345245"/>
    <nd ref="65615092"/>
    <nd ref="293064042"/>
    <nd ref="338842078"/>
    <nd ref="65646056"/>
    <nd ref="332161462"/>
    <nd ref="310345276"/>
    <nd ref="332161320"/>
    <nd ref="65646060"/>
    <nd ref="310345285"/>
    <nd ref="65646062"/>
    <nd ref="332161318"/>
    <nd ref="332161319"/>
    <nd ref="65396688"/>
    <nd ref="65532037"/>
    <nd ref="332161298"/>
    <nd ref="332161299"/>
    <nd ref="293064289"/>
    <nd ref="332161300"/>
    <nd ref="332161301"/>
    <nd ref="332161302"/>
    <nd ref="65646064"/>
    <nd ref="332161303"/>
    <nd ref="595495986"/>
    <nd ref="65491633"/>
    <tag k="highway" v="trunk"/>
    <tag k="name" v="Pacheco Pass Highway"/>
    <tag k="name_1" v="State Highway 152"/>
    <tag k="ref" v="CA 152"/>
    <tag k="tiger:cfcc" v="A31"/>
    <tag k="tiger:county" v="Santa Clara, CA"/>
    <tag k="tiger:name_base" v="Pacheco Pass"/>
    <tag k="tiger:name_base_1" v="State Highway 152"/>
    <tag k="tiger:name_type" v="Hwy"/>
    <tag k="tiger:reviewed" v="no"/>
    <tag k="tiger:separated" v="no"/>
    <tag k="tiger:source" v="tiger_import_dch_v0.6_20070809"/>
    <tag k="tiger:tlid" v="122897198:122932428:123159611"/>
  </way>
  <way id="36020630" version="4" timestamp="2010-03-28T02:19:18Z" uid="20587" user="balrog-kun" changeset="4250871">
    <nd ref="386924997"/>
    <nd ref="386925477"/>
    <tag k="bridge" v="yes"/>
    <tag k="highway" v="trunk"/>
    <tag k="layer" v="2"/>
    <tag k="name" v="Pacheco Pass Highway"/>
    <tag k="name_1" v="State Highway 152"/>
    <tag k="ref" v="CA 152"/>
    <tag k="tiger:cfcc" v="A31"/>
    <tag k="tiger:county" v="Santa Clara, CA"/>
    <tag k="tiger:name_base" v="Pacheco Pass"/>
    <tag k="tiger:name_base_1" v="State Highway 152"/>
    <tag k="tiger:name_type" v="Hwy"/>
    <tag k="tiger:reviewed" v="no"/>
    <tag k="tiger:separated" v="no"/>
    <tag k="tiger:source" v="tiger_import_dch_v0.6_20070809"/>
    <tag k="tiger:tlid" v="122897198:122932428:123159611"/>
  </way>
  <way id="36020667" version="2" timestamp="2009-06-22T01:49:32Z" uid="110593" user="esetzer" changeset="1589749">
    <nd ref="421000669"/>
    <nd ref="376187372"/>
    <tag k="created_by" v="Merkaartor 0.11"/>
    <tag k="highway" v="pedestrian"/>
    <tag k="name" v="Exchange Place"/>
  </way>
  <way id="36020826" version="2" timestamp="2010-03-28T02:19:18Z" uid="20587" user="balrog-kun" changeset="4250871">
    <nd ref="91082421"/>
    <nd ref="420888523"/>
    <nd ref="91070533"/>
    <nd ref="91082423"/>
    <tag k="created_by" v="Potlatch 0.10f"/>
    <tag k="highway" v="residential"/>
    <tag k="name" v="South Branciforte Avenue"/>
    <tag k="tiger:cfcc" v="A41"/>
    <tag k="tiger:county" v="Santa Cruz, CA"/>
    <tag k="tiger:name_base" v="Branciforte"/>
    <tag k="tiger:name_direction_prefix" v="S"/>
    <tag k="tiger:name_type" v="Ave"/>
    <tag k="tiger:reviewed" v="no"/>
    <tag k="tiger:separated" v="no"/>
    <tag k="tiger:source" v="tiger_import_dch_v0.6_20070809"/>
    <tag k="tiger:tlid" v="125506534:125506535:125506551:125519635:125506600:125506554"/>
    <tag k="tiger:zip_left" v="95062"/>
    <tag k="tiger:zip_right" v="95062"/>
  </way>
  <way id="36020827" version="3" timestamp="2010-03-28T02:19:18Z" uid="20587" user="balrog-kun" changeset="4250871">
    <nd ref="386924749"/>
    <nd ref="31416608"/>
    <nd ref="25457926"/>
    <tag k="highway" v="motorway"/>
    <tag k="name" v="South Valley Freeway"/>
    <tag k="oneway" v="yes"/>
    <tag k="ref" v="US 101"/>
  </way>
  <way id="36020828" version="4" timestamp="2010-03-28T02:19:18Z" uid="20587" user="balrog-kun" changeset="4250871">
    <nd ref="386924827"/>
    <nd ref="386924749"/>
    <tag k="bridge" v="yes"/>
    <tag k="highway" v="motorway"/>
    <tag k="layer" v="1"/>
    <tag k="name" v="South Valley Freeway"/>
    <tag k="oneway" v="yes"/>
    <tag k="ref" v="US 101"/>
  </way>
  <way id="36020829" version="6" timestamp="2010-03-28T02:19:18Z" uid="20587" user="balrog-kun" changeset="4250871">
    <nd ref="386922639"/>
    <nd ref="386924664"/>
    <tag k="highway" v="motorway"/>
    <tag k="name" v="South Valley Freeway"/>
    <tag k="name_1" v="United States Highway 101"/>
    <tag k="oneway" v="yes"/>
    <tag k="ref" v="US 101"/>
    <tag k="tiger:cfcc" v="A11"/>
    <tag k="tiger:county" v="Santa Clara, CA"/>
    <tag k="tiger:name_base" v="South Valley"/>
    <tag k="tiger:name_base_1" v="United States Highway 101"/>
    <tag k="tiger:name_type" v="Fwy"/>
    <tag k="tiger:separated" v="no"/>
    <tag k="tiger:source" v="tiger_import_dch_v0.6_20070809"/>
    <tag k="tiger:tlid" v="122983006:123000141:122928583:122928645:123179153:123160293:122928941:122928944:122928949:122928958:122928960:122928961:122970714:123179273:123179275:122929670:122929591:123006127:122988360:122928811:122928779:123179271:122928916:123182908:122929757:12292"/>
  </way>
  <way id="36020830" version="4" timestamp="2010-03-28T02:19:18Z" uid="20587" user="balrog-kun" changeset="4250871">
    <nd ref="386922631"/>
    <nd ref="386922639"/>
    <tag k="bridge" v="yes"/>
    <tag k="highway" v="motorway"/>
    <tag k="layer" v="1"/>
    <tag k="name" v="South Valley Freeway"/>
    <tag k="name_1" v="United States Highway 101"/>
    <tag k="oneway" v="yes"/>
    <tag k="ref" v="US 101"/>
    <tag k="tiger:cfcc" v="A11"/>
    <tag k="tiger:county" v="Santa Clara, CA"/>
    <tag k="tiger:name_base" v="South Valley"/>
    <tag k="tiger:name_base_1" v="United States Highway 101"/>
    <tag k="tiger:name_type" v="Fwy"/>
    <tag k="tiger:separated" v="no"/>
    <tag k="tiger:source" v="tiger_import_dch_v0.6_20070809"/>
    <tag k="tiger:tlid" v="122983006:123000141:122928583:122928645:123179153:123160293:122928941:122928944:122928949:122928958:122928960:122928961:122970714:123179273:123179275:122929670:122929591:123006127:122988360:122928811:122928779:123179271:122928916:123182908:122929757:12292"/>
  </way>
  <way id="36020871" version="3" timestamp="2010-03-28T02:19:19Z" uid="20587" user="balrog-kun" changeset="4250871">
    <nd ref="386924601"/>
    <nd ref="386924827"/>
    <tag k="highway" v="motorway"/>
    <tag k="name" v="South Valley Freeway"/>
    <tag k="oneway" v="yes"/>
    <tag k="ref" v="US 101"/>
  </way>
  <way id="36020901" version="4" timestamp="2010-03-28T02:19:19Z" uid="20587" user="balrog-kun" changeset="4250871">
    <nd ref="386924371"/>
    <nd ref="386924601"/>
    <tag k="bridge" v="yes"/>
    <tag k="highway" v="motorway"/>
    <tag k="layer" v="1"/>
    <tag k="name" v="South Valley Freeway"/>
    <tag k="oneway" v="yes"/>
    <tag k="ref" v="US 101"/>
  </way>
  <way id="36020964" version="4" timestamp="2010-03-28T02:19:19Z" uid="20587" user="balrog-kun" changeset="4250871">
    <nd ref="386924664"/>
    <nd ref="65415165"/>
    <tag k="bridge" v="yes"/>
    <tag k="highway" v="motorway"/>
    <tag k="layer" v="1"/>
    <tag k="name" v="South Valley Freeway"/>
    <tag k="name_1" v="United States Highway 101"/>
    <tag k="oneway" v="yes"/>
    <tag k="ref" v="US 101"/>
    <tag k="tiger:cfcc" v="A11"/>
    <tag k="tiger:county" v="Santa Clara, CA"/>
    <tag k="tiger:name_base" v="South Valley"/>
    <tag k="tiger:name_base_1" v="United States Highway 101"/>
    <tag k="tiger:name_type" v="Fwy"/>
    <tag k="tiger:separated" v="no"/>
    <tag k="tiger:source" v="tiger_import_dch_v0.6_20070809"/>
    <tag k="tiger:tlid" v="122983006:123000141:122928583:122928645:123179153:123160293:122928941:122928944:122928949:122928958:122928960:122928961:122970714:123179273:123179275:122929670:122929591:123006127:122988360:122928811:122928779:123179271:122928916:123182908:122929757:12292"/>
  </way>
  <way id="36020965" version="5" timestamp="2010-03-28T02:19:19Z" uid="20587" user="balrog-kun" changeset="4250871">
    <nd ref="65415165"/>
    <nd ref="386923913"/>
    <nd ref="65413301"/>
    <nd ref="298682198"/>
    <nd ref="65448201"/>
    <nd ref="298682031"/>
    <nd ref="65448199"/>
    <nd ref="298682030"/>
    <nd ref="298681674"/>
    <nd ref="298681873"/>
    <nd ref="65415966"/>
    <nd ref="65448198"/>
    <nd ref="298681025"/>
    <nd ref="65382141"/>
    <nd ref="298681026"/>
    <nd ref="65448194"/>
    <tag k="highway" v="motorway"/>
    <tag k="name" v="South Valley Freeway"/>
    <tag k="name_1" v="United States Highway 101"/>
    <tag k="oneway" v="yes"/>
    <tag k="ref" v="US 101"/>
    <tag k="tiger:cfcc" v="A11"/>
    <tag k="tiger:county" v="Santa Clara, CA"/>
    <tag k="tiger:name_base" v="South Valley"/>
    <tag k="tiger:name_base_1" v="United States Highway 101"/>
    <tag k="tiger:name_type" v="Fwy"/>
    <tag k="tiger:separated" v="no"/>
    <tag k="tiger:source" v="tiger_import_dch_v0.6_20070809"/>
    <tag k="tiger:tlid" v="122983006:123000141:122928583:122928645:123179153:123160293:122928941:122928944:122928949:122928958:122928960:122928961:122970714:123179273:123179275:122929670:122929591:123006127:122988360:122928811:122928779:123179271:122928916:123182908:122929757:12292"/>
  </way>
</osm>
