<?xml version='1.0' encoding='UTF-8'?>
<osm version="0.6" generator="libosmium/2.20.0">
  <way id="36184251" version="2" timestamp="2010-04-10T10:25:48Z" uid="7617" user="Franc" changeset="4381091">
    <nd ref="691256379"/>
    <nd ref="252343868"/>
    <nd ref="691256348"/>
    <tag k="highway" v="tertiary"/>
    <tag k="name" v="Isaac Street"/>
    <tag k="source" v="yahoo_imagery"/>
    <tag k="source:name" v="survey"/>
  </way>
  <way id="36184253" version="2" timestamp="2010-07-08T02:09:55Z" uid="74617" user="JohnSmith" changeset="5162525">
    <nd ref="240882086"/>
    <nd ref="240880395"/>
    <nd ref="240882698"/>
    <tag k="highway" v="residential"/>
    <tag k="maxspeed" v="50"/>
    <tag k="maxspeed:source" v="default residential speed limit in Australia"/>
    <tag k="name" v="Glen Road"/>
  </way>
  <way id="36184254" version="2" timestamp="2010-07-08T02:07:58Z" uid="74617" user="JohnSmith" changeset="5162525">
    <nd ref="240882086"/>
    <nd ref="240882087"/>
    <tag k="highway" v="residential"/>
    <tag k="maxspeed" v="50"/>
    <tag k="maxspeed:source" v="default residential speed limit in Australia"/>
    <tag k="name" v="Acacia Street"/>
    <tag k="source" v="survey"/>
  </way>
  <way id="36184254" version="3" timestamp="2011-03-19T04:32:01Z" uid="7617" user="Franc" changeset="7601345">
    <nd ref="240882086"/>
    <nd ref="1208292920"/>
    <nd ref="240882087"/>
    <tag k="highway" v="residential"/>
    <tag k="maxspeed" v="50"/>
    <tag k="maxspeed:source" v="default residential speed limit in Australia"/>
    <tag k="name" v="Acacia Street"/>
    <tag k="source" v="survey"/>
  </way>
  <way id="36184255" version="2" timestamp="2010-01-07T12:39:07Z" uid="7617" user="Franc" changeset="3561369">
    <nd ref="608021143"/>
    <nd ref="608021156"/>
    <nd ref="240883262"/>
    <nd ref="240882086"/>
    <tag k="highway" v="residential"/>
    <tag k="name" v="Acacia Street"/>
    <tag k="source" v="survey"/>
  </way>
  <way id="36184255" version="3" timestamp="2010-07-08T02:10:56Z" uid="74617" user="JohnSmith" changeset="5162525">
    <nd ref="608021143"/>
    <nd ref="608021156"/>
    <nd ref="240883262"/>
    <nd ref="240882086"/>
    <tag k="highway" v="residential"/>
    <tag k="maxspeed" v="50"/>
    <tag k="maxspeed:source" v="default residential speed limit in Australia"/>
    <tag k="name" v="Acacia Street"/>
    <tag k="source" v="survey"/>
  </way>
  <way id="36184256" version="2" timestamp="2010-01-07T12:39:06Z" uid="7617" user="Franc" changeset="3561369">
    <nd ref="608021112"/>
    <nd ref="240882718"/>
    <nd ref="240877243"/>
    <tag k="highway" v="residential"/>
    <tag k="name" v="Gungah Bay Road"/>
  </way>
  <way id="36184256" version="3" timestamp="2010-07-08T02:07:54Z" uid="74617" user="JohnSmith" changeset="5162525">
    <nd ref="608021112"/>
    <nd ref="240882718"/>
    <nd ref="240877243"/>
    <tag k="highway" v="residential"/>
    <tag k="maxspeed" v="50"/>
    <tag k="maxspeed:source" v="default residential speed limit in Australia"/>
    <tag k="name" v="Gungah Bay Road"/>
  </way>
  <way id="36184257" version="2" timestamp="2010-01-07T12:39:06Z" uid="7617" user="Franc" changeset="3561369">
    <nd ref="240873954"/>
    <nd ref="240885569"/>
    <nd ref="240874955"/>
    <nd ref="608021137"/>
    <tag k="highway" v="residential"/>
    <tag k="name" v="Gungah Bay Road"/>
    <tag k="source" v="survey"/>
  </way>
  <way id="36184257" version="3" timestamp="2010-07-07T21:30:46Z" uid="74617" user="JohnSmith" changeset="5161069">
    <nd ref="240873954"/>
    <nd ref="240885569"/>
    <nd ref="240874955"/>
    <nd ref="608021137"/>
    <tag k="highway" v="residential"/>
    <tag k="maxspeed" v="50"/>
    <tag k="maxspeed:source" v="default residential speed limit in Australia"/>
    <tag k="name" v="Gungah Bay Road"/>
    <tag k="source" v="survey"/>
  </way>
  <way id="36184257" version="4" timestamp="2011-04-25T09:55:53Z" uid="7617" user="Franc" changeset="7961332">
    <nd ref="240873954"/>
    <nd ref="240885569"/>
    <nd ref="1259291087"/>
    <tag k="highway" v="residential"/>
    <tag k="maxspeed" v="50"/>
    <tag k="maxspeed:source" v="default residential speed limit in Australia"/>
    <tag k="name" v="Gungah Bay Road"/>
    <tag k="source" v="survey"/>
  </way>
  <way id="36184258" version="2" timestamp="2010-07-07T21:37:49Z" uid="74617" user="JohnSmith" changeset="5161069">
    <nd ref="240475393"/>
    <nd ref="240475394"/>
    <nd ref="331792916"/>
    <nd ref="240475395"/>
    <nd ref="331792920"/>
    <nd ref="240475396"/>
    <nd ref="240475397"/>
    <tag k="highway" v="residential"/>
    <tag k="lcn" v="yes"/>
    <tag k="maxspeed" v="50"/>
    <tag k="maxspeed:source" v="default residential speed limit in Australia"/>
    <tag k="name" v="River Road"/>
  </way>
  <way id="36184258" version="3" timestamp="2011-04-06T09:29:37Z" uid="7617" user="Franc" changeset="7782926">
    <nd ref="240475393"/>
    <nd ref="240475394"/>
    <nd ref="331792916"/>
    <nd ref="1234570490"/>
    <nd ref="240475395"/>
    <nd ref="331792920"/>
    <nd ref="240475396"/>
    <nd ref="240475397"/>
    <tag k="highway" v="residential"/>
    <tag k="lcn" v="yes"/>
    <tag k="maxspeed" v="50"/>
    <tag k="maxspeed:source" v="default residential speed limit in Australia"/>
    <tag k="name" v="River Road"/>
  </way>
  <way id="36184259" version="2" timestamp="2010-07-08T02:11:52Z" uid="74617" user="JohnSmith" changeset="5162525">
    <nd ref="240874955"/>
    <nd ref="240874957"/>
    <tag k="highway" v="residential"/>
    <tag k="maxspeed" v="50"/>
    <tag k="maxspeed:source" v="default residential speed limit in Australia"/>
    <tag k="name" v="Wonona Parade West"/>
  </way>
  <way id="36184259" version="3" timestamp="2011-04-25T09:55:48Z" uid="7617" user="Franc" changeset="7961332">
    <nd ref="1259291049"/>
    <nd ref="1259291066"/>
    <nd ref="240874957"/>
    <tag k="highway" v="residential"/>
    <tag k="maxspeed" v="50"/>
    <tag k="maxspeed:source" v="default residential speed limit in Australia"/>
    <tag k="name" v="Wonona Parade West"/>
  </way>
  <way id="36184260" version="2" timestamp="2010-07-08T02:12:39Z" uid="74617" user="JohnSmith" changeset="5162525">
    <nd ref="240875576"/>
    <nd ref="240881437"/>
    <tag k="highway" v="residential"/>
    <tag k="lcn" v="yes"/>
    <tag k="maxspeed" v="50"/>
    <tag k="maxspeed:source" v="default residential speed limit in Australia"/>
    <tag k="name" v="Waratah Street"/>
  </way>
  <way id="36184261" version="2" timestamp="2010-07-08T02:08:47Z" uid="74617" user="JohnSmith" changeset="5162525">
    <nd ref="240881437"/>
    <nd ref="240875577"/>
    <tag k="highway" v="residential"/>
    <tag k="maxspeed" v="50"/>
    <tag k="maxspeed:source" v="default residential speed limit in Australia"/>
    <tag k="name" v="Waratah Street"/>
  </way>
  <way id="36184262" version="2" timestamp="2010-01-07T12:39:07Z" uid="7617" user="Franc" changeset="3561369">
    <nd ref="240882081"/>
    <nd ref="240882082"/>
    <nd ref="240882084"/>
    <nd ref="608021162"/>
    <nd ref="608021130"/>
    <tag k="highway" v="residential"/>
    <tag k="name" v="Acacia Street"/>
    <tag k="source" v="survey"/>
  </way>
  <way id="36184262" version="3" timestamp="2010-07-08T02:13:46Z" uid="74617" user="JohnSmith" changeset="5162525">
    <nd ref="240882081"/>
    <nd ref="240882082"/>
    <nd ref="240882084"/>
    <nd ref="608021162"/>
    <nd ref="608021130"/>
    <tag k="highway" v="residential"/>
    <tag k="maxspeed" v="50"/>
    <tag k="maxspeed:source" v="default residential speed limit in Australia"/>
    <tag k="name" v="Acacia Street"/>
    <tag k="source" v="survey"/>
  </way>
  <way id="36184263" version="2" timestamp="2010-07-08T02:09:52Z" uid="74617" user="JohnSmith" changeset="5162525">
    <nd ref="240882081"/>
    <nd ref="240876462"/>
    <nd ref="240876463"/>
    <tag k="highway" v="residential"/>
    <tag k="lcn" v="yes"/>
    <tag k="maxspeed" v="50"/>
    <tag k="maxspeed:source" v="default residential speed limit in Australia"/>
    <tag k="name" v="Woronora Parade"/>
  </way>
  <way id="36184263" version="3" timestamp="2011-04-06T09:29:24Z" uid="7617" user="Franc" changeset="7782926">
    <nd ref="240882081"/>
    <nd ref="1234570332"/>
    <nd ref="240876462"/>
    <nd ref="1234570417"/>
    <nd ref="240876463"/>
    <tag k="highway" v="residential"/>
    <tag k="lcn" v="yes"/>
    <tag k="maxspeed" v="50"/>
    <tag k="maxspeed:source" v="default residential speed limit in Australia"/>
    <tag k="name" v="Woronora Parade"/>
  </way>
  <way id="36184266" version="2" timestamp="2010-07-08T02:11:37Z" uid="74617" user="JohnSmith" changeset="5162525">
    <nd ref="241454170"/>
    <nd ref="241454334"/>
    <tag k="highway" v="residential"/>
    <tag k="lcn" v="yes"/>
    <tag k="maxspeed" v="50"/>
    <tag k="maxspeed:source" v="default residential speed limit in Australia"/>
    <tag k="name" v="The Strand"/>
  </way>
  <way id="36184267" version="2" timestamp="2010-07-08T02:07:38Z" uid="74617" user="JohnSmith" changeset="5162525">
    <nd ref="241454334"/>
    <nd ref="241454347"/>
    <nd ref="241454356"/>
    <nd ref="241454330"/>
    <nd ref="241454394"/>
    <nd ref="241454431"/>
    <nd ref="241454450"/>
    <nd ref="241454461"/>
    <tag k="highway" v="residential"/>
    <tag k="maxspeed" v="50"/>
    <tag k="maxspeed:source" v="default residential speed limit in Australia"/>
    <tag k="name" v="The Strand"/>
  </way>
  <way id="36184270" version="2" timestamp="2010-07-08T02:09:38Z" uid="74617" user="JohnSmith" changeset="5162525">
    <nd ref="240435429"/>
    <nd ref="240427747"/>
    <nd ref="240427750"/>
    <nd ref="240427664"/>
    <tag k="highway" v="residential"/>
    <tag k="lcn" v="yes"/>
    <tag k="maxspeed" v="50"/>
    <tag k="maxspeed:source" v="default residential speed limit in Australia"/>
    <tag k="name" v="Rainbow Parade"/>
    <tag k="source" v="survey"/>
  </way>
  <way id="36184271" version="2" timestamp="2010-04-15T09:59:46Z" uid="7617" user="Franc" changeset="4429510">
    <nd ref="697287976"/>
    <nd ref="697287962"/>
    <nd ref="240427684"/>
    <tag k="highway" v="residential"/>
    <tag k="name" v="Waterside Parade"/>
    <tag k="source" v="survey"/>
  </way>
  <way id="36184271" version="3" timestamp="2010-07-08T02:12:25Z" uid="74617" user="JohnSmith" changeset="5162525">
    <nd ref="697287976"/>
    <nd ref="697287962"/>
    <nd ref="240427684"/>
    <tag k="highway" v="residential"/>
    <tag k="maxspeed" v="50"/>
    <tag k="maxspeed:source" v="default residential speed limit in Australia"/>
    <tag k="name" v="Waterside Parade"/>
    <tag k="source" v="survey"/>
  </way>
  <way id="36184272" version="2" timestamp="2010-04-15T09:59:46Z" uid="7617" user="Franc" changeset="4429510">
    <nd ref="240427695"/>
    <nd ref="240427661"/>
    <nd ref="240427664"/>
    <nd ref="240427667"/>
    <nd ref="240427670"/>
    <nd ref="240427672"/>
    <nd ref="240427675"/>
    <nd ref="240427678"/>
    <nd ref="697287968"/>
    <tag k="highway" v="residential"/>
    <tag k="lcn" v="yes"/>
    <tag k="name" v="Waterside Parade"/>
    <tag k="source" v="survey"/>
  </way>
  <way id="36184272" version="3" timestamp="2010-07-08T02:09:34Z" uid="74617" user="JohnSmith" changeset="5162525">
    <nd ref="240427695"/>
    <nd ref="240427661"/>
    <nd ref="240427664"/>
    <nd ref="240427667"/>
    <nd ref="240427670"/>
    <nd ref="240427672"/>
    <nd ref="240427675"/>
    <nd ref="240427678"/>
    <nd ref="697287968"/>
    <tag k="highway" v="residential"/>
    <tag k="lcn" v="yes"/>
    <tag k="maxspeed" v="50"/>
    <tag k="maxspeed:source" v="default residential speed limit in Australia"/>
    <tag k="name" v="Waterside Parade"/>
    <tag k="source" v="survey"/>
  </way>
  <way id="36184562" version="1" timestamp="2009-06-17T02:27:43Z" uid="110593" user="esetzer" changeset="1541198">
    <nd ref="421063229"/>
    <nd ref="83525179"/>
    <tag k="created_by" v="Potlatch 0.10f"/>
    <tag k="highway" v="tertiary"/>
    <tag k="oneway" v="yes"/>
  </way>
</osm>
