<?xml version='1.0' encoding='UTF-8'?>
<osm version="0.6" generator="libosmium/2.20.0">
  <way id="36351513" version="5" timestamp="2010-08-04T17:44:22Z" uid="9581" user="Lobelt" changeset="5401263">
    <nd ref="423976254"/>
    <nd ref="423976258"/>
    <nd ref="423976263"/>
    <nd ref="423976275"/>
    <nd ref="401272088"/>
    <tag k="cables" v="6"/>
    <tag k="fixme" v="Leitungsnummer"/>
    <tag k="frequency" v="50"/>
    <tag k="operator" v="EON_Netz"/>
    <tag k="power" v="line"/>
    <tag k="voltage" v="110000"/>
    <tag k="wires" v="single"/>
  </way>
  <way id="36351514" version="8" timestamp="2010-08-04T17:39:59Z" uid="9581" user="Lobelt" changeset="5401263">
    <nd ref="401272088"/>
    <nd ref="423976291"/>
    <nd ref="423976296"/>
    <nd ref="423976301"/>
    <nd ref="423976308"/>
    <nd ref="423976317"/>
    <nd ref="423976329"/>
    <nd ref="423976332"/>
    <nd ref="423976335"/>
    <nd ref="423976338"/>
    <nd ref="423976344"/>
    <nd ref="423976351"/>
    <nd ref="425515397"/>
    <nd ref="425515396"/>
    <nd ref="425515395"/>
    <nd ref="425515389"/>
    <nd ref="425515390"/>
    <nd ref="425515391"/>
    <nd ref="425515392"/>
    <nd ref="425515393"/>
    <nd ref="425515394"/>
    <nd ref="425515380"/>
    <tag k="cables" v="6"/>
    <tag k="frequency" v="50"/>
    <tag k="name" v="109"/>
    <tag k="operator" v="EON_Netz"/>
    <tag k="power" v="line"/>
    <tag k="voltage" v="110000"/>
    <tag k="wires" v="single"/>
  </way>
</osm>
