<?xml version='1.0' encoding='UTF-8'?>
<osm version="0.6" generator="libosmium/2.20.0">
  <way id="36354208" version="1" timestamp="2009-06-18T15:51:43Z" uid="20587" user="balrog-kun" changeset="1555652">
    <nd ref="424003603"/>
    <nd ref="417904448"/>
    <nd ref="424003604"/>
    <nd ref="417910928"/>
    <nd ref="417904581"/>
    <nd ref="95148503"/>
    <tag k="bridge" v="yes"/>
    <tag k="highway" v="primary"/>
    <tag k="layer" v="1"/>
    <tag k="name" v="Brzeźnicka"/>
    <tag k="ref" v="42"/>
  </way>
  <way id="36354209" version="1" timestamp="2009-06-18T15:51:44Z" uid="20587" user="balrog-kun" changeset="1555652">
    <nd ref="312486181"/>
    <nd ref="417902541"/>
    <nd ref="417902558"/>
    <nd ref="417904256"/>
    <tag k="highway" v="residential"/>
    <tag k="name" v="Stefana Żeromskiego"/>
    <tag k="source" v="http://ump.waw.pl/ retrieved 13:50:02 06/07/09 (UMP-Kielce/src/RADOMSKO.ulice.txt)"/>
  </way>
  <way id="36354210" version="1" timestamp="2009-06-18T15:51:44Z" uid="20587" user="balrog-kun" changeset="1555652">
    <nd ref="318437269"/>
    <nd ref="313546286"/>
    <nd ref="313546287"/>
    <nd ref="312486345"/>
    <nd ref="312486678"/>
    <nd ref="318437269"/>
    <tag k="area" v="yes"/>
    <tag k="highway" v="pedestrian"/>
    <tag k="name" v="Plac 3 Maja"/>
  </way>
</osm>
