<?xml version='1.0' encoding='UTF-8'?>
<osm version="0.6" generator="libosmium/2.20.0">
  <way id="3640095" version="2" timestamp="2007-10-11T21:26:42Z" uid="4667" user="MapZ" changeset="122267">
    <nd ref="10993487"/>
    <nd ref="65207984"/>
    <nd ref="18039048"/>
    <nd ref="18039049"/>
    <nd ref="18039050"/>
    <nd ref="18039051"/>
    <nd ref="18039052"/>
    <nd ref="18039053"/>
    <nd ref="17408470"/>
    <tag k="abutters" v="residential"/>
    <tag k="created_by" v="JOSM"/>
    <tag k="highway" v="unclassified"/>
    <tag k="name" v="Friedrich-Vogler-Straße"/>
  </way>
  <way id="3640095" version="3" timestamp="2008-02-10T12:35:02Z" uid="4667" user="MapZ" changeset="94024">
    <nd ref="10993487"/>
    <nd ref="65207984"/>
    <nd ref="18039048"/>
    <nd ref="18039049"/>
    <nd ref="18039050"/>
    <nd ref="247024300"/>
    <nd ref="18039051"/>
    <nd ref="18039052"/>
    <nd ref="18039053"/>
    <nd ref="247024309"/>
    <nd ref="17408470"/>
    <tag k="abutters" v="residential"/>
    <tag k="created_by" v="JOSM"/>
    <tag k="highway" v="unclassified"/>
    <tag k="name" v="Friedrich-Vogler-Straße"/>
  </way>
  <way id="3640096" version="2" timestamp="2008-02-10T12:35:02Z" uid="4667" user="MapZ" changeset="94024">
    <nd ref="17408470"/>
    <nd ref="18039054"/>
    <nd ref="247024312"/>
    <nd ref="18039055"/>
    <tag k="abutters" v="residential"/>
    <tag k="created_by" v="JOSM"/>
    <tag k="highway" v="residential"/>
    <tag k="name" v="Weberstraße"/>
  </way>
  <way id="3640097" version="2" timestamp="2008-02-10T12:35:02Z" uid="4667" user="MapZ" changeset="94024">
    <nd ref="18039055"/>
    <nd ref="247024320"/>
    <nd ref="247024324"/>
    <nd ref="247024327"/>
    <nd ref="15609013"/>
    <tag k="created_by" v="JOSM"/>
    <tag k="highway" v="residential"/>
    <tag k="name" v="Beethovenstraße"/>
  </way>
  <way id="3640097" version="6" timestamp="2010-10-03T20:16:27Z" uid="9581" user="Lobelt" changeset="5948350">
    <nd ref="18039055"/>
    <nd ref="247024320"/>
    <nd ref="247024324"/>
    <nd ref="247024327"/>
    <nd ref="15609013"/>
    <tag k="highway" v="residential"/>
    <tag k="name" v="Beethovenstraße"/>
  </way>
  <way id="3640098" version="2" timestamp="2007-10-11T21:26:42Z" uid="4667" user="MapZ" changeset="122267">
    <nd ref="17026144"/>
    <nd ref="18039044"/>
    <nd ref="18039046"/>
    <nd ref="17408467"/>
    <nd ref="17408469"/>
    <nd ref="17408470"/>
    <nd ref="17408471"/>
    <nd ref="17408472"/>
    <nd ref="17408473"/>
    <nd ref="17408474"/>
    <nd ref="17408475"/>
    <nd ref="17408476"/>
    <nd ref="17408477"/>
    <nd ref="17408478"/>
    <nd ref="17408479"/>
    <nd ref="17408480"/>
    <nd ref="17408481"/>
    <nd ref="17408482"/>
    <nd ref="17408483"/>
    <nd ref="17408484"/>
    <nd ref="65207949"/>
    <nd ref="13888287"/>
    <tag k="abutters" v="residential"/>
    <tag k="created_by" v="JOSM"/>
    <tag k="highway" v="unclassified"/>
    <tag k="name" v="Prankelstraße"/>
  </way>
  <way id="3640098" version="13" timestamp="2009-06-20T17:03:58Z" uid="9581" user="Lobelt" changeset="1576547">
    <nd ref="17026144"/>
    <nd ref="18039044"/>
    <nd ref="18039046"/>
    <nd ref="321788435"/>
    <nd ref="321786620"/>
    <nd ref="17408467"/>
    <nd ref="17408469"/>
    <nd ref="17408470"/>
    <nd ref="274653945"/>
    <nd ref="322578328"/>
    <nd ref="322577342"/>
    <nd ref="17408471"/>
    <nd ref="17408472"/>
    <nd ref="17408473"/>
    <nd ref="17408474"/>
    <nd ref="17408475"/>
    <nd ref="17408476"/>
    <nd ref="17408477"/>
    <nd ref="17408478"/>
    <nd ref="17408479"/>
    <nd ref="17408480"/>
    <nd ref="17408481"/>
    <nd ref="17408482"/>
    <nd ref="17408483"/>
    <nd ref="426980229"/>
    <nd ref="17408484"/>
    <nd ref="65207949"/>
    <nd ref="13888287"/>
    <tag k="abutters" v="residential"/>
    <tag k="created_by" v="Potlatch 0.10f"/>
    <tag k="highway" v="residential"/>
    <tag k="name" v="Prankelstraße"/>
  </way>
  <way id="3640098" version="15" timestamp="2009-12-14T19:45:15Z" uid="9581" user="Lobelt" changeset="3374487">
    <nd ref="17026144"/>
    <nd ref="18039044"/>
    <nd ref="18039046"/>
    <nd ref="321788435"/>
    <nd ref="321786620"/>
    <nd ref="17408467"/>
    <nd ref="17408469"/>
    <nd ref="17408470"/>
    <nd ref="274653945"/>
    <nd ref="322578328"/>
    <nd ref="322577342"/>
    <nd ref="17408471"/>
    <nd ref="17408472"/>
    <nd ref="17408473"/>
    <nd ref="17408474"/>
    <nd ref="17408475"/>
    <nd ref="17408476"/>
    <nd ref="17408477"/>
    <nd ref="17408478"/>
    <nd ref="17408479"/>
    <nd ref="590714558"/>
    <nd ref="17408480"/>
    <nd ref="17408481"/>
    <nd ref="17408482"/>
    <nd ref="17408483"/>
    <nd ref="426980229"/>
    <nd ref="17408484"/>
    <nd ref="65207949"/>
    <nd ref="13888287"/>
    <tag k="highway" v="residential"/>
    <tag k="name" v="Prankelstraße"/>
  </way>
  <way id="3640098" version="19" timestamp="2010-10-03T20:16:39Z" uid="9581" user="Lobelt" changeset="5948350">
    <nd ref="17026144"/>
    <nd ref="18039044"/>
    <nd ref="937148829"/>
    <nd ref="18039046"/>
    <nd ref="321788435"/>
    <nd ref="321786620"/>
    <nd ref="767466474"/>
    <nd ref="17408467"/>
    <nd ref="17408469"/>
    <nd ref="17408470"/>
    <nd ref="274653945"/>
    <nd ref="322578328"/>
    <nd ref="322577342"/>
    <nd ref="767429974"/>
    <nd ref="17408472"/>
    <nd ref="17408473"/>
    <nd ref="17408474"/>
    <nd ref="17408475"/>
    <nd ref="17408476"/>
    <nd ref="17408477"/>
    <nd ref="17408478"/>
    <nd ref="17408479"/>
    <nd ref="590714558"/>
    <nd ref="17408480"/>
    <nd ref="17408481"/>
    <nd ref="17408482"/>
    <tag k="highway" v="residential"/>
    <tag k="maxspeed" v="30"/>
    <tag k="name" v="Prankelstraße"/>
  </way>
  <way id="3640100" version="2" timestamp="2008-07-03T21:24:14Z" uid="4667" user="MapZ" changeset="390188">
    <nd ref="15602619"/>
    <nd ref="18039026"/>
    <nd ref="18039027"/>
    <nd ref="276069241"/>
    <tag k="created_by" v="JOSM"/>
    <tag k="highway" v="residential"/>
    <tag k="name" v="Hügelstraße"/>
  </way>
  <way id="3640101" version="6" timestamp="2010-10-03T20:16:48Z" uid="9581" user="Lobelt" changeset="5948350">
    <nd ref="18039039"/>
    <nd ref="18039037"/>
    <nd ref="791677422"/>
    <nd ref="791677428"/>
    <nd ref="18039034"/>
    <nd ref="791671676"/>
    <nd ref="18039040"/>
    <nd ref="937148849"/>
    <nd ref="18039032"/>
    <nd ref="18039031"/>
    <nd ref="937148766"/>
    <tag k="highway" v="residential"/>
    <tag k="name" v="Schloßgartenstraße"/>
    <tag k="oneway" v="yes"/>
  </way>
  <way id="3640104" version="3" timestamp="2010-10-03T20:16:30Z" uid="9581" user="Lobelt" changeset="5948350">
    <nd ref="17408452"/>
    <nd ref="766676735"/>
    <nd ref="17408453"/>
    <nd ref="17408454"/>
    <nd ref="17408455"/>
    <nd ref="17408456"/>
    <nd ref="16932651"/>
    <tag k="highway" v="residential"/>
    <tag k="name" v="Kopernikusstraße"/>
  </way>
  <way id="3640113" version="3" timestamp="2010-10-03T20:16:49Z" uid="9581" user="Lobelt" changeset="5948350">
    <nd ref="937148870"/>
    <nd ref="18039101"/>
    <nd ref="791685163"/>
    <nd ref="18039097"/>
    <nd ref="18039098"/>
    <nd ref="18039099"/>
    <nd ref="18039100"/>
    <tag k="highway" v="footway"/>
    <tag k="name" v="Rote Turmstraße"/>
  </way>
  <way id="3640114" version="2" timestamp="2010-10-03T20:16:32Z" uid="9581" user="Lobelt" changeset="5948350">
    <nd ref="18039031"/>
    <nd ref="18039030"/>
    <nd ref="18039045"/>
    <nd ref="937148750"/>
    <nd ref="18039046"/>
    <tag k="highway" v="residential"/>
    <tag k="name" v="Bissingerstraße"/>
  </way>
  <way id="3640122" version="1" timestamp="2007-08-28T02:08:59Z" uid="6454" user="B10xxx" changeset="259179">
    <nd ref="162725"/>
    <nd ref="507067"/>
    <nd ref="507068"/>
    <nd ref="507069"/>
    <nd ref="507070"/>
    <tag k="created_by" v="Potlatch alpha"/>
    <tag k="direction" v="O"/>
    <tag k="highway" v="motorway"/>
    <tag k="name" v="A66"/>
    <tag k="oneway" v="true"/>
    <tag k="ref" v="A66"/>
  </way>
  <way id="3640122" version="3" timestamp="2008-04-05T22:22:28Z" uid="16922" user="amai" changeset="59122">
    <nd ref="162725"/>
    <nd ref="255953808"/>
    <tag k="created_by" v="Potlatch 0.8a"/>
    <tag k="direction" v="O"/>
    <tag k="highway" v="motorway"/>
    <tag k="oneway" v="true"/>
    <tag k="ref" v="A66"/>
  </way>
  <way id="3640122" version="4" timestamp="2008-04-05T22:22:39Z" uid="16922" user="amai" changeset="59122">
    <nd ref="162725"/>
    <nd ref="255953808"/>
    <tag k="bridge" v="yes"/>
    <tag k="created_by" v="Potlatch 0.8a"/>
    <tag k="direction" v="O"/>
    <tag k="highway" v="motorway"/>
    <tag k="oneway" v="true"/>
    <tag k="ref" v="A66"/>
  </way>
  <way id="3640123" version="1" timestamp="2007-08-28T02:09:58Z" uid="6454" user="B10xxx" changeset="259179">
    <nd ref="507257"/>
    <nd ref="162717"/>
    <nd ref="507259"/>
    <nd ref="507318"/>
    <nd ref="507260"/>
    <nd ref="507319"/>
    <nd ref="507261"/>
    <nd ref="507262"/>
    <nd ref="507263"/>
    <nd ref="507264"/>
    <nd ref="507176"/>
    <nd ref="507611"/>
    <nd ref="507267"/>
    <nd ref="507268"/>
    <nd ref="507269"/>
    <tag k="created_by" v="Potlatch alpha"/>
    <tag k="direction" v="W"/>
    <tag k="highway" v="motorway"/>
    <tag k="name" v="A66"/>
    <tag k="oneway" v="true"/>
    <tag k="osmarender:nameDirection" v="-1"/>
    <tag k="osmarender:renderName" v="no"/>
    <tag k="ref" v="A66"/>
  </way>
  <way id="3640123" version="3" timestamp="2008-04-05T22:21:48Z" uid="16922" user="amai" changeset="59122">
    <nd ref="507257"/>
    <nd ref="162717"/>
    <nd ref="507259"/>
    <nd ref="507318"/>
    <nd ref="507260"/>
    <nd ref="507319"/>
    <nd ref="507261"/>
    <nd ref="507262"/>
    <nd ref="507263"/>
    <nd ref="507264"/>
    <nd ref="507176"/>
    <nd ref="507611"/>
    <nd ref="507267"/>
    <nd ref="507268"/>
    <tag k="created_by" v="Potlatch 0.8a"/>
    <tag k="direction" v="W"/>
    <tag k="highway" v="motorway"/>
    <tag k="oneway" v="true"/>
    <tag k="osmarender:nameDirection" v="-1"/>
    <tag k="osmarender:renderName" v="no"/>
    <tag k="ref" v="A66"/>
  </way>
  <way id="3640126" version="1" timestamp="2007-08-28T02:08:59Z" uid="6454" user="B10xxx" changeset="259179">
    <nd ref="162728"/>
    <nd ref="24639487"/>
    <nd ref="162727"/>
    <nd ref="162726"/>
    <nd ref="162725"/>
    <tag k="created_by" v="Potlatch alpha"/>
    <tag k="highway" v="motorway"/>
    <tag k="name" v="A66"/>
    <tag k="oneway" v="true"/>
  </way>
  <way id="3640127" version="1" timestamp="2007-08-28T02:08:16Z" uid="6454" user="B10xxx" changeset="259179">
    <nd ref="507269"/>
    <nd ref="507270"/>
    <nd ref="507271"/>
    <nd ref="507272"/>
    <nd ref="507273"/>
    <nd ref="507274"/>
    <nd ref="507275"/>
    <nd ref="507178"/>
    <nd ref="507179"/>
    <nd ref="507180"/>
    <nd ref="507181"/>
    <nd ref="16463003"/>
    <tag k="created_by" v="Potlatch alpha"/>
    <tag k="highway" v="motorway"/>
    <tag k="name" v="A66"/>
    <tag k="oneway" v="true"/>
    <tag k="osmarender:nameDirection" v="-1"/>
    <tag k="osmarender:renderName" v="no"/>
  </way>
</osm>
