<?xml version='1.0' encoding='UTF-8'?>
<osm version="0.6" generator="libosmium/2.20.0">
  <way id="36429118" version="2" timestamp="2010-07-08T05:00:25Z" uid="74617" user="JohnSmith" changeset="5163091">
    <nd ref="424766668"/>
    <nd ref="424766669"/>
    <nd ref="424766670"/>
    <nd ref="424766671"/>
    <nd ref="424766672"/>
    <tag k="highway" v="residential"/>
    <tag k="maxspeed" v="50"/>
    <tag k="maxspeed:source" v="default residential speed limit in Australia"/>
    <tag k="name" v="Katandra Street"/>
  </way>
  <way id="36429120" version="2" timestamp="2010-07-08T04:58:26Z" uid="74617" user="JohnSmith" changeset="5163091">
    <nd ref="424766671"/>
    <nd ref="424766673"/>
    <nd ref="424766674"/>
    <nd ref="424766675"/>
    <nd ref="424766676"/>
    <tag k="highway" v="residential"/>
    <tag k="maxspeed" v="50"/>
    <tag k="maxspeed:source" v="default residential speed limit in Australia"/>
    <tag k="name" v="Parraweena Court"/>
  </way>
  <way id="36429121" version="2" timestamp="2010-07-08T04:59:28Z" uid="74617" user="JohnSmith" changeset="5163091">
    <nd ref="424766673"/>
    <nd ref="424766677"/>
    <nd ref="424766678"/>
    <tag k="highway" v="residential"/>
    <tag k="maxspeed" v="50"/>
    <tag k="maxspeed:source" v="default residential speed limit in Australia"/>
    <tag k="name" v="Cumberland Court"/>
  </way>
  <way id="36429123" version="2" timestamp="2010-07-08T04:59:52Z" uid="74617" user="JohnSmith" changeset="5163091">
    <nd ref="424766679"/>
    <nd ref="424766680"/>
    <tag k="highway" v="residential"/>
    <tag k="maxspeed" v="50"/>
    <tag k="maxspeed:source" v="default residential speed limit in Australia"/>
    <tag k="note" v="No Street Sign"/>
    <tag k="surface" v="unpaved"/>
  </way>
  <way id="36429125" version="2" timestamp="2010-07-08T04:58:44Z" uid="74617" user="JohnSmith" changeset="5163091">
    <nd ref="423751239"/>
    <nd ref="424766681"/>
    <nd ref="424766682"/>
    <nd ref="424766683"/>
    <nd ref="424766684"/>
    <tag k="highway" v="residential"/>
    <tag k="maxspeed" v="50"/>
    <tag k="maxspeed:source" v="default residential speed limit in Australia"/>
    <tag k="name" v="Eden Way"/>
  </way>
  <way id="36429127" version="2" timestamp="2010-07-08T04:59:05Z" uid="74617" user="JohnSmith" changeset="5163091">
    <nd ref="424766685"/>
    <nd ref="424766684"/>
    <nd ref="424766686"/>
    <nd ref="424766687"/>
    <nd ref="424766688"/>
    <nd ref="424766689"/>
    <tag k="highway" v="residential"/>
    <tag k="maxspeed" v="50"/>
    <tag k="maxspeed:source" v="default residential speed limit in Australia"/>
    <tag k="name" v="Paradise Street"/>
  </way>
  <way id="36429129" version="2" timestamp="2010-07-08T05:00:25Z" uid="74617" user="JohnSmith" changeset="5163091">
    <nd ref="424766690"/>
    <nd ref="424766691"/>
    <nd ref="424766692"/>
    <tag k="highway" v="residential"/>
    <tag k="maxspeed" v="50"/>
    <tag k="maxspeed:source" v="default residential speed limit in Australia"/>
    <tag k="name" v="Marr Street"/>
  </way>
  <way id="36429131" version="2" timestamp="2010-07-08T04:58:21Z" uid="74617" user="JohnSmith" changeset="5163091">
    <nd ref="424766693"/>
    <nd ref="424766702"/>
    <tag k="highway" v="residential"/>
    <tag k="maxspeed" v="50"/>
    <tag k="maxspeed:source" v="default residential speed limit in Australia"/>
    <tag k="name" v="Seabreeze Lane"/>
  </way>
  <way id="36429132" version="2" timestamp="2010-07-08T04:58:40Z" uid="74617" user="JohnSmith" changeset="5163091">
    <nd ref="424766695"/>
    <nd ref="424766703"/>
    <nd ref="424766704"/>
    <nd ref="424766705"/>
    <nd ref="424766706"/>
    <nd ref="424766707"/>
    <nd ref="424766708"/>
    <nd ref="424766709"/>
    <nd ref="424766710"/>
    <nd ref="424766711"/>
    <nd ref="424766713"/>
    <nd ref="424766697"/>
    <tag k="highway" v="residential"/>
    <tag k="maxspeed" v="50"/>
    <tag k="maxspeed:source" v="default residential speed limit in Australia"/>
    <tag k="name" v="Paul Drive"/>
  </way>
  <way id="36429134" version="2" timestamp="2010-07-08T04:58:59Z" uid="74617" user="JohnSmith" changeset="5163091">
    <nd ref="424766706"/>
    <nd ref="424766712"/>
    <tag k="highway" v="residential"/>
    <tag k="maxspeed" v="50"/>
    <tag k="maxspeed:source" v="default residential speed limit in Australia"/>
    <tag k="name" v="Eddie Court"/>
  </way>
  <way id="36429135" version="2" timestamp="2010-07-08T05:00:05Z" uid="74617" user="JohnSmith" changeset="5163091">
    <nd ref="424766713"/>
    <nd ref="424766714"/>
    <nd ref="424766715"/>
    <nd ref="424766716"/>
    <tag k="highway" v="residential"/>
    <tag k="maxspeed" v="50"/>
    <tag k="maxspeed:source" v="default residential speed limit in Australia"/>
    <tag k="name" v="Berna Court"/>
  </way>
  <way id="36429137" version="2" timestamp="2010-07-08T05:00:03Z" uid="74617" user="JohnSmith" changeset="5163091">
    <nd ref="424766696"/>
    <nd ref="424766717"/>
    <tag k="highway" v="residential"/>
    <tag k="maxspeed" v="50"/>
    <tag k="maxspeed:source" v="default residential speed limit in Australia"/>
    <tag k="name" v="Jenny Court"/>
  </way>
  <way id="36429138" version="2" timestamp="2010-07-08T04:59:22Z" uid="74617" user="JohnSmith" changeset="5163091">
    <nd ref="424766722"/>
    <nd ref="424766699"/>
    <tag k="highway" v="residential"/>
    <tag k="maxspeed" v="50"/>
    <tag k="maxspeed:source" v="default residential speed limit in Australia"/>
    <tag k="name" v="Kenny Way"/>
  </way>
  <way id="36429140" version="2" timestamp="2010-07-08T04:58:15Z" uid="74617" user="JohnSmith" changeset="5163091">
    <nd ref="424766720"/>
    <nd ref="424766724"/>
    <tag k="highway" v="residential"/>
    <tag k="maxspeed" v="50"/>
    <tag k="maxspeed:source" v="default residential speed limit in Australia"/>
    <tag k="name" v="Carmel Court"/>
  </way>
  <way id="36429141" version="2" timestamp="2010-07-08T04:59:16Z" uid="74617" user="JohnSmith" changeset="5163091">
    <nd ref="424766725"/>
    <nd ref="424766726"/>
    <tag k="highway" v="residential"/>
    <tag k="maxspeed" v="50"/>
    <tag k="maxspeed:source" v="default residential speed limit in Australia"/>
    <tag k="name" v="Haynes Street"/>
  </way>
  <way id="36429143" version="2" timestamp="2010-07-08T04:59:39Z" uid="74617" user="JohnSmith" changeset="5163091">
    <nd ref="61103099"/>
    <nd ref="424766727"/>
    <nd ref="424766732"/>
    <nd ref="424766728"/>
    <nd ref="424766729"/>
    <nd ref="424766730"/>
    <nd ref="424766731"/>
    <tag k="highway" v="residential"/>
    <tag k="maxspeed" v="50"/>
    <tag k="maxspeed:source" v="default residential speed limit in Australia"/>
    <tag k="name" v="Mayfair Street"/>
  </way>
  <way id="36429145" version="2" timestamp="2010-07-08T04:58:32Z" uid="74617" user="JohnSmith" changeset="5163091">
    <nd ref="424766729"/>
    <nd ref="424766733"/>
    <nd ref="424766734"/>
    <nd ref="424766735"/>
    <nd ref="424766736"/>
    <tag k="highway" v="residential"/>
    <tag k="maxspeed" v="50"/>
    <tag k="maxspeed:source" v="default residential speed limit in Australia"/>
    <tag k="name" v="Cliveden Street"/>
  </way>
  <way id="36429147" version="2" timestamp="2010-07-08T04:58:54Z" uid="74617" user="JohnSmith" changeset="5163091">
    <nd ref="424766730"/>
    <nd ref="424766736"/>
    <nd ref="424766700"/>
    <tag k="highway" v="residential"/>
    <tag k="maxspeed" v="50"/>
    <tag k="maxspeed:source" v="default residential speed limit in Australia"/>
    <tag k="name" v="Preston Street"/>
  </way>
  <way id="36429620" version="2" timestamp="2010-07-08T04:59:36Z" uid="74617" user="JohnSmith" changeset="5163091">
    <nd ref="61102030"/>
    <nd ref="424770867"/>
    <nd ref="424770868"/>
    <tag k="highway" v="residential"/>
    <tag k="maxspeed" v="50"/>
    <tag k="maxspeed:source" v="default residential speed limit in Australia"/>
    <tag k="name" v="Moreton Street"/>
  </way>
  <way id="36429622" version="2" timestamp="2010-07-08T05:00:02Z" uid="74617" user="JohnSmith" changeset="5163091">
    <nd ref="424770867"/>
    <nd ref="424770869"/>
    <tag k="highway" v="residential"/>
    <tag k="maxspeed" v="50"/>
    <tag k="maxspeed:source" v="default residential speed limit in Australia"/>
    <tag k="name" v="Moreton Street"/>
  </way>
</osm>
