<?xml version='1.0' encoding='UTF-8'?>
<osm version="0.6" generator="libosmium/2.20.0">
  <way id="36433917" version="2" timestamp="2010-07-08T04:58:09Z" uid="74617" user="JohnSmith" changeset="5163091">
    <nd ref="424836879"/>
    <nd ref="424836884"/>
    <nd ref="424836886"/>
    <nd ref="424836889"/>
    <nd ref="423740194"/>
    <tag k="highway" v="residential"/>
    <tag k="maxspeed" v="50"/>
    <tag k="maxspeed:source" v="default residential speed limit in Australia"/>
    <tag k="name" v="Hythe Street"/>
  </way>
  <way id="36433918" version="2" timestamp="2010-07-08T04:59:59Z" uid="74617" user="JohnSmith" changeset="5163091">
    <nd ref="424836891"/>
    <nd ref="424836893"/>
    <nd ref="424836895"/>
    <nd ref="424836898"/>
    <nd ref="424836900"/>
    <nd ref="424836902"/>
    <tag k="highway" v="residential"/>
    <tag k="maxspeed" v="50"/>
    <tag k="maxspeed:source" v="default residential speed limit in Australia"/>
    <tag k="name" v="Shorham Street"/>
  </way>
  <way id="36433919" version="2" timestamp="2010-07-08T04:58:33Z" uid="74617" user="JohnSmith" changeset="5163091">
    <nd ref="424836884"/>
    <nd ref="424836913"/>
    <nd ref="424836915"/>
    <nd ref="424836902"/>
    <nd ref="424836917"/>
    <nd ref="424836911"/>
    <nd ref="424836919"/>
    <nd ref="424836921"/>
    <nd ref="424836924"/>
    <nd ref="424837028"/>
    <nd ref="424836926"/>
    <tag k="highway" v="residential"/>
    <tag k="maxspeed" v="50"/>
    <tag k="maxspeed:source" v="default residential speed limit in Australia"/>
    <tag k="name" v="Romney Street"/>
  </way>
  <way id="36433920" version="2" timestamp="2010-07-08T05:00:07Z" uid="74617" user="JohnSmith" changeset="5163091">
    <nd ref="424836898"/>
    <nd ref="424836928"/>
    <nd ref="424836886"/>
    <tag k="highway" v="residential"/>
    <tag k="maxspeed" v="50"/>
    <tag k="maxspeed:source" v="default residential speed limit in Australia"/>
    <tag k="name" v="Worthing Street"/>
  </way>
  <way id="36433921" version="2" timestamp="2010-07-08T04:58:42Z" uid="74617" user="JohnSmith" changeset="5163091">
    <nd ref="424836928"/>
    <nd ref="424836913"/>
    <tag k="highway" v="residential"/>
    <tag k="maxspeed" v="50"/>
    <tag k="maxspeed:source" v="default residential speed limit in Australia"/>
    <tag k="name" v="Jackson Street"/>
  </way>
  <way id="36433922" version="2" timestamp="2010-07-08T05:00:28Z" uid="74617" user="JohnSmith" changeset="5163091">
    <nd ref="424836933"/>
    <nd ref="424837026"/>
    <nd ref="424837018"/>
    <nd ref="424836904"/>
    <nd ref="424836895"/>
    <nd ref="424836889"/>
    <tag k="highway" v="residential"/>
    <tag k="maxspeed" v="50"/>
    <tag k="maxspeed:source" v="default residential speed limit in Australia"/>
    <tag k="name" v="Winchelsea Street"/>
  </way>
  <way id="36433923" version="2" timestamp="2010-07-08T04:59:02Z" uid="74617" user="JohnSmith" changeset="5163091">
    <nd ref="424836915"/>
    <nd ref="424836941"/>
    <nd ref="424836943"/>
    <nd ref="424836945"/>
    <nd ref="424836947"/>
    <nd ref="424836949"/>
    <nd ref="424836951"/>
    <nd ref="424836953"/>
    <nd ref="424836956"/>
    <nd ref="424836958"/>
    <nd ref="424836960"/>
    <nd ref="424836962"/>
    <nd ref="424836964"/>
    <nd ref="424836966"/>
    <nd ref="424836968"/>
    <nd ref="424836970"/>
    <nd ref="424836972"/>
    <nd ref="424836917"/>
    <tag k="highway" v="residential"/>
    <tag k="maxspeed" v="50"/>
    <tag k="maxspeed:source" v="default residential speed limit in Australia"/>
    <tag k="name" v="Saint Andrews Drive"/>
  </way>
  <way id="36433924" version="2" timestamp="2010-07-08T04:59:20Z" uid="74617" user="JohnSmith" changeset="5163091">
    <nd ref="424836972"/>
    <nd ref="424836974"/>
    <nd ref="424836976"/>
    <nd ref="424836978"/>
    <nd ref="424836980"/>
    <tag k="highway" v="residential"/>
    <tag k="maxspeed" v="50"/>
    <tag k="maxspeed:source" v="default residential speed limit in Australia"/>
    <tag k="name" v="Palm Meadows Place"/>
  </way>
  <way id="36433925" version="2" timestamp="2010-07-08T05:00:23Z" uid="74617" user="JohnSmith" changeset="5163091">
    <nd ref="424836966"/>
    <nd ref="424836983"/>
    <tag k="highway" v="residential"/>
    <tag k="maxspeed" v="50"/>
    <tag k="maxspeed:source" v="default residential speed limit in Australia"/>
    <tag k="name" v="Namwen Court"/>
  </way>
  <way id="36433926" version="2" timestamp="2010-07-08T04:59:44Z" uid="74617" user="JohnSmith" changeset="5163091">
    <nd ref="424836906"/>
    <nd ref="424836985"/>
    <nd ref="424836987"/>
    <nd ref="424836989"/>
    <nd ref="424836991"/>
    <nd ref="424837007"/>
    <nd ref="424837009"/>
    <nd ref="424836900"/>
    <tag k="highway" v="residential"/>
    <tag k="maxspeed" v="50"/>
    <tag k="maxspeed:source" v="default residential speed limit in Australia"/>
    <tag k="name" v="Bayview Terrace"/>
  </way>
  <way id="36433927" version="2" timestamp="2010-07-08T04:58:19Z" uid="74617" user="JohnSmith" changeset="5163091">
    <nd ref="424836989"/>
    <nd ref="424837011"/>
    <tag k="highway" v="residential"/>
    <tag k="maxspeed" v="50"/>
    <tag k="maxspeed:source" v="default residential speed limit in Australia"/>
    <tag k="name" v="Corbet Court"/>
  </way>
  <way id="36433928" version="2" timestamp="2010-07-08T04:58:37Z" uid="74617" user="JohnSmith" changeset="5163091">
    <nd ref="424836991"/>
    <nd ref="424837013"/>
    <tag k="highway" v="residential"/>
    <tag k="maxspeed" v="50"/>
    <tag k="maxspeed:source" v="default residential speed limit in Australia"/>
    <tag k="name" v="Norman Court"/>
  </way>
  <way id="36433929" version="2" timestamp="2010-07-08T04:59:37Z" uid="74617" user="JohnSmith" changeset="5163091">
    <nd ref="424836909"/>
    <nd ref="424837016"/>
    <tag k="highway" v="residential"/>
    <tag k="maxspeed" v="50"/>
    <tag k="maxspeed:source" v="default residential speed limit in Australia"/>
    <tag k="name" v="Maple Street"/>
  </way>
  <way id="36433930" version="2" timestamp="2010-07-08T04:58:57Z" uid="74617" user="JohnSmith" changeset="5163091">
    <nd ref="424837018"/>
    <nd ref="424837020"/>
    <nd ref="424837016"/>
    <nd ref="424837024"/>
    <nd ref="424836924"/>
    <tag k="highway" v="residential"/>
    <tag k="maxspeed" v="50"/>
    <tag k="maxspeed:source" v="default residential speed limit in Australia"/>
    <tag k="name" v="Jack Street"/>
  </way>
  <way id="36433931" version="2" timestamp="2010-07-08T05:00:02Z" uid="74617" user="JohnSmith" changeset="5163091">
    <nd ref="424836924"/>
    <nd ref="424837022"/>
    <tag k="highway" v="residential"/>
    <tag k="maxspeed" v="50"/>
    <tag k="maxspeed:source" v="default residential speed limit in Australia"/>
    <tag k="name" v="Stirling Court"/>
  </way>
  <way id="36433932" version="2" timestamp="2010-07-08T05:00:18Z" uid="74617" user="JohnSmith" changeset="5163091">
    <nd ref="424837026"/>
    <nd ref="424837028"/>
    <tag k="highway" v="residential"/>
    <tag k="maxspeed" v="50"/>
    <tag k="maxspeed:source" v="default residential speed limit in Australia"/>
    <tag k="name" v="Ripley Avenue"/>
  </way>
  <way id="36433933" version="2" timestamp="2010-07-08T04:58:52Z" uid="74617" user="JohnSmith" changeset="5163091">
    <nd ref="424837028"/>
    <nd ref="424837030"/>
    <tag k="highway" v="residential"/>
    <tag k="maxspeed" v="50"/>
    <tag k="maxspeed:source" v="default residential speed limit in Australia"/>
    <tag k="name" v="Mackenzie Court"/>
  </way>
  <way id="36433934" version="2" timestamp="2010-07-08T04:58:13Z" uid="74617" user="JohnSmith" changeset="5163091">
    <nd ref="424836921"/>
    <nd ref="424837032"/>
    <tag k="highway" v="residential"/>
    <tag k="maxspeed" v="50"/>
    <tag k="maxspeed:source" v="default residential speed limit in Australia"/>
    <tag k="name" v="Olive Court"/>
  </way>
  <way id="36433935" version="2" timestamp="2010-07-08T04:59:14Z" uid="74617" user="JohnSmith" changeset="5163091">
    <nd ref="424836919"/>
    <nd ref="424837034"/>
    <tag k="highway" v="residential"/>
    <tag k="maxspeed" v="50"/>
    <tag k="maxspeed:source" v="default residential speed limit in Australia"/>
    <tag k="name" v="Eley Court"/>
  </way>
  <way id="36433936" version="2" timestamp="2010-07-08T04:58:12Z" uid="74617" user="JohnSmith" changeset="5163091">
    <nd ref="424836882"/>
    <nd ref="424837036"/>
    <nd ref="424837038"/>
    <nd ref="424837040"/>
    <nd ref="424837042"/>
    <nd ref="424837044"/>
    <nd ref="424837046"/>
    <nd ref="424837048"/>
    <nd ref="424837050"/>
    <nd ref="424836921"/>
    <tag k="highway" v="residential"/>
    <tag k="maxspeed" v="50"/>
    <tag k="maxspeed:source" v="default residential speed limit in Australia"/>
    <tag k="name" v="Greenway Drive"/>
  </way>
  <way id="36433937" version="2" timestamp="2010-07-08T04:59:13Z" uid="74617" user="JohnSmith" changeset="5163091">
    <nd ref="424837042"/>
    <nd ref="424837052"/>
    <nd ref="424837054"/>
    <nd ref="424837056"/>
    <nd ref="424837058"/>
    <tag k="highway" v="residential"/>
    <tag k="maxspeed" v="50"/>
    <tag k="maxspeed:source" v="default residential speed limit in Australia"/>
    <tag k="name" v="Vista Court"/>
  </way>
  <way id="36433938" version="2" timestamp="2010-07-08T04:58:35Z" uid="74617" user="JohnSmith" changeset="5163091">
    <nd ref="424837046"/>
    <nd ref="424837060"/>
    <nd ref="424837062"/>
    <tag k="highway" v="residential"/>
    <tag k="maxspeed" v="50"/>
    <tag k="maxspeed:source" v="default residential speed limit in Australia"/>
    <tag k="name" v="Hillrise Court"/>
  </way>
  <way id="36433939" version="2" timestamp="2010-07-08T04:59:35Z" uid="74617" user="JohnSmith" changeset="5163091">
    <nd ref="424837040"/>
    <nd ref="424837064"/>
    <nd ref="424837066"/>
    <nd ref="424837068"/>
    <nd ref="424836937"/>
    <tag k="highway" v="residential"/>
    <tag k="maxspeed" v="50"/>
    <tag k="maxspeed:source" v="default residential speed limit in Australia"/>
    <tag k="name" v="Hastings Street"/>
  </way>
</osm>
