<?xml version='1.0' encoding='UTF-8'?>
<osm version="0.6" generator="libosmium/2.20.0">
  <way id="36454475" version="5" timestamp="2010-07-09T05:00:25Z" uid="74617" user="JohnSmith" changeset="5170986">
    <nd ref="147174364"/>
    <nd ref="147174365"/>
    <nd ref="147175103"/>
    <nd ref="147175882"/>
    <tag k="highway" v="residential"/>
    <tag k="maxspeed" v="50"/>
    <tag k="maxspeed:source" v="default residential speed limit in Australia"/>
    <tag k="name" v="Leoni Avenue"/>
  </way>
  <way id="36454639" version="3" timestamp="2010-07-09T04:58:57Z" uid="74617" user="JohnSmith" changeset="5170986">
    <nd ref="425051867"/>
    <nd ref="425052024"/>
    <nd ref="425052027"/>
    <nd ref="425052029"/>
    <nd ref="425052030"/>
    <nd ref="425052031"/>
    <tag k="highway" v="residential"/>
    <tag k="maxspeed" v="50"/>
    <tag k="maxspeed:source" v="default residential speed limit in Australia"/>
    <tag k="name" v="Wainui Avenue"/>
  </way>
  <way id="36454661" version="2" timestamp="2009-10-02T19:55:04Z" uid="86259" user="hasse_osm_korinthenkacker" changeset="2716821">
    <nd ref="282839138"/>
    <nd ref="282838757"/>
    <tag k="highway" v="service"/>
    <tag k="name" v="Kreuzstraße"/>
    <tag k="postal_code" v="83624"/>
    <tag k="service" v="parking_aisle"/>
    <tag k="source" v="survey"/>
  </way>
  <way id="36454661" version="3" timestamp="2009-10-23T11:39:19Z" uid="36809" user="pfoten_weg_!_" changeset="2928981">
    <nd ref="282839138"/>
    <nd ref="282838757"/>
    <tag k="highway" v="service"/>
    <tag k="name" v="Kreuzstraße"/>
    <tag k="postal_code" v="83624"/>
    <tag k="service" v="parking_aisle"/>
  </way>
</osm>
