<?xml version='1.0' encoding='UTF-8'?>
<osm version="0.6" generator="libosmium/2.20.0">
  <way id="36479786" version="1" timestamp="2009-06-19T09:04:40Z" uid="43863" user="Rundling" changeset="1562609">
    <nd ref="425191804"/>
    <nd ref="425191807"/>
    <nd ref="425191810"/>
    <nd ref="425191814"/>
    <nd ref="425191816"/>
    <nd ref="425191804"/>
    <tag k="leisure" v="playground"/>
    <tag k="name" v="Spielplatz mit Hütte"/>
  </way>
  <way id="36479798" version="2" timestamp="2009-11-25T01:18:24Z" uid="99207" user="Lar Kiesel" changeset="3209117">
    <nd ref="425192269"/>
    <nd ref="425192408"/>
    <nd ref="425192287"/>
    <nd ref="425192457"/>
    <nd ref="425192298"/>
    <nd ref="425192484"/>
    <nd ref="425192370"/>
    <nd ref="425192506"/>
    <nd ref="425192408"/>
    <tag k="highway" v="service"/>
    <tag k="service" v="parking_aisle"/>
  </way>
  <way id="36479812" version="7" timestamp="2011-03-14T10:48:52Z" uid="115477" user="wowik" changeset="7554973">
    <nd ref="425192461"/>
    <nd ref="425192466"/>
    <nd ref="425192464"/>
    <nd ref="425192462"/>
    <nd ref="425192461"/>
    <tag k="addr:housenumber" v="71Б с2"/>
    <tag k="addr:street" v="Ленинградское шоссе"/>
    <tag k="amenity" v="restaurant"/>
    <tag k="building" v="yes"/>
    <tag k="cuisine" v="italian"/>
    <tag k="name" v="IL Патио"/>
    <tag k="operator" v="Росинтер"/>
  </way>
  <way id="36479813" version="2" timestamp="2010-03-23T11:20:31Z" uid="115477" user="wowik" changeset="4211059">
    <nd ref="425192468"/>
    <nd ref="425192476"/>
    <nd ref="425192473"/>
    <nd ref="425192470"/>
    <nd ref="425192468"/>
    <tag k="amenity" v="fuel"/>
    <tag k="building" v="yes"/>
  </way>
  <way id="36479813" version="3" timestamp="2011-03-14T10:56:17Z" uid="115477" user="wowik" changeset="7555046">
    <nd ref="425192468"/>
    <nd ref="425192476"/>
    <nd ref="1201425572"/>
    <nd ref="1201425576"/>
    <nd ref="425192473"/>
    <nd ref="425192470"/>
    <nd ref="425192468"/>
    <tag k="amenity" v="fuel"/>
    <tag k="building" v="yes"/>
  </way>
  <way id="36479815" version="3" timestamp="2011-05-12T09:26:06Z" uid="115477" user="wowik" changeset="8120079">
    <nd ref="425192503"/>
    <nd ref="425192508"/>
    <nd ref="626935359"/>
    <nd ref="626935368"/>
    <nd ref="626935371"/>
    <nd ref="626935372"/>
    <nd ref="626935374"/>
    <nd ref="425192503"/>
    <tag k="addr:city" v="Москва"/>
    <tag k="addr:country" v="RU"/>
    <tag k="addr:housenumber" v="77 с2"/>
    <tag k="addr:street" v="Ленинградское шоссе"/>
    <tag k="building" v="yes"/>
    <tag k="source" v="ggk.mos.ru"/>
  </way>
</osm>
