<?xml version='1.0' encoding='UTF-8'?>
<osm version="0.6" generator="libosmium/2.20.0">
  <way id="36660433" version="3" timestamp="2010-07-09T20:53:32Z" uid="74617" user="JohnSmith" changeset="5176956">
    <nd ref="598435046"/>
    <nd ref="346659782"/>
    <nd ref="31003531"/>
    <tag k="highway" v="residential"/>
    <tag k="maxspeed" v="50"/>
    <tag k="maxspeed:source" v="default residential speed limit in Australia"/>
    <tag k="name" v="Howlett Street"/>
    <tag k="source" v="Yahoo Imagery"/>
  </way>
  <way id="36660434" version="4" timestamp="2010-07-09T21:02:00Z" uid="74617" user="JohnSmith" changeset="5176956">
    <nd ref="346656446"/>
    <nd ref="346656465"/>
    <nd ref="346656448"/>
    <nd ref="790770846"/>
    <nd ref="276565798"/>
    <tag k="highway" v="residential"/>
    <tag k="maxspeed" v="50"/>
    <tag k="maxspeed:source" v="default residential speed limit in Australia"/>
    <tag k="name" v="Albert Street"/>
    <tag k="source" v="Yahoo Imagery"/>
  </way>
  <way id="36660435" version="3" timestamp="2010-07-09T21:06:49Z" uid="74617" user="JohnSmith" changeset="5176956">
    <nd ref="346658727"/>
    <nd ref="346658728"/>
    <nd ref="346658724"/>
    <nd ref="33498676"/>
    <tag k="highway" v="residential"/>
    <tag k="maxspeed" v="50"/>
    <tag k="maxspeed:source" v="default residential speed limit in Australia"/>
    <tag k="name" v="Farr Avenue"/>
    <tag k="source" v="Yahoo Imagery"/>
  </way>
</osm>
