<?xml version='1.0' encoding='UTF-8'?>
<osm version="0.6" generator="libosmium/2.20.0">
  <way id="36707454" version="3" timestamp="2010-07-09T03:49:31Z" uid="74617" user="JohnSmith" changeset="5170825">
    <nd ref="355275586"/>
    <nd ref="355275680"/>
    <nd ref="355275671"/>
    <nd ref="355275673"/>
    <tag k="highway" v="residential"/>
    <tag k="maxspeed" v="50"/>
    <tag k="maxspeed:source" v="default residential speed limit in Australia"/>
    <tag k="name" v="Lyell Avenue"/>
  </way>
  <way id="36707454" version="4" timestamp="2011-03-06T08:54:45Z" uid="4467" user="Rosscoe" changeset="7470703">
    <nd ref="355275586"/>
    <nd ref="355275680"/>
    <nd ref="355275671"/>
    <nd ref="355275673"/>
    <tag k="highway" v="residential"/>
    <tag k="maxspeed" v="50"/>
    <tag k="name" v="Lyell Avenue"/>
    <tag k="source:maxspeed" v="default residential speed limit in Australia"/>
  </way>
  <way id="36707589" version="4" timestamp="2010-07-27T10:02:39Z" uid="74617" user="JohnSmith" changeset="5325888">
    <nd ref="424836935"/>
    <nd ref="424845211"/>
    <nd ref="424845210"/>
    <nd ref="428698730"/>
    <nd ref="428698729"/>
    <nd ref="428698728"/>
    <nd ref="426501571"/>
    <nd ref="428702177"/>
    <nd ref="426696878"/>
    <nd ref="426696879"/>
    <nd ref="426696881"/>
    <nd ref="426696884"/>
    <nd ref="426696886"/>
    <nd ref="835248028"/>
    <nd ref="835248019"/>
    <tag k="highway" v="tertiary"/>
    <tag k="name" v="Nissen Street"/>
  </way>
  <way id="36707589" version="5" timestamp="2010-07-28T19:48:19Z" uid="74617" user="JohnSmith" changeset="5339329">
    <nd ref="424836935"/>
    <nd ref="424845211"/>
    <nd ref="424845210"/>
    <nd ref="428698730"/>
    <nd ref="836730014"/>
    <nd ref="428698729"/>
    <nd ref="428698728"/>
    <nd ref="426501571"/>
    <nd ref="428702177"/>
    <nd ref="426696878"/>
    <nd ref="426696879"/>
    <nd ref="426696881"/>
    <nd ref="426696884"/>
    <nd ref="426696886"/>
    <nd ref="835248028"/>
    <nd ref="835248019"/>
    <tag k="highway" v="tertiary"/>
    <tag k="name" v="Nissen Street"/>
  </way>
  <way id="36707590" version="2" timestamp="2010-07-27T10:02:40Z" uid="74617" user="JohnSmith" changeset="5325888"/>
  <way id="36707591" version="2" timestamp="2010-07-27T10:02:39Z" uid="74617" user="JohnSmith" changeset="5325888">
    <nd ref="426696894"/>
    <nd ref="835248007"/>
    <nd ref="426696901"/>
    <tag k="highway" v="unclassified"/>
  </way>
  <way id="36707592" version="2" timestamp="2010-07-08T04:59:18Z" uid="74617" user="JohnSmith" changeset="5163091">
    <nd ref="426696884"/>
    <nd ref="426696903"/>
    <nd ref="426696906"/>
    <nd ref="426696908"/>
    <nd ref="426696910"/>
    <nd ref="426696912"/>
    <nd ref="426696914"/>
    <nd ref="426696916"/>
    <nd ref="426696919"/>
    <nd ref="426696921"/>
    <nd ref="426696923"/>
    <nd ref="426696925"/>
    <tag k="highway" v="residential"/>
    <tag k="maxspeed" v="50"/>
    <tag k="maxspeed:source" v="default residential speed limit in Australia"/>
    <tag k="name" v="Bayswater Drive"/>
  </way>
  <way id="36707593" version="2" timestamp="2010-07-08T05:00:21Z" uid="74617" user="JohnSmith" changeset="5163091">
    <nd ref="426696906"/>
    <nd ref="426696927"/>
    <tag k="highway" v="residential"/>
    <tag k="maxspeed" v="50"/>
    <tag k="maxspeed:source" v="default residential speed limit in Australia"/>
    <tag k="name" v="Belgrave Way"/>
  </way>
  <way id="36707594" version="2" timestamp="2010-07-08T04:59:41Z" uid="74617" user="JohnSmith" changeset="5163091">
    <nd ref="426696928"/>
    <nd ref="426696927"/>
    <nd ref="426696929"/>
    <tag k="highway" v="residential"/>
    <tag k="maxspeed" v="50"/>
    <tag k="maxspeed:source" v="default residential speed limit in Australia"/>
    <tag k="name" v="Baley Court"/>
  </way>
  <way id="36707595" version="2" timestamp="2010-07-08T04:58:17Z" uid="74617" user="JohnSmith" changeset="5163091">
    <nd ref="426696914"/>
    <nd ref="426696930"/>
    <nd ref="426696931"/>
    <nd ref="426696933"/>
    <tag k="highway" v="residential"/>
    <tag k="maxspeed" v="50"/>
    <tag k="maxspeed:source" v="default residential speed limit in Australia"/>
    <tag k="name" v="Cambridge Way"/>
  </way>
  <way id="36707596" version="2" timestamp="2010-07-08T04:58:34Z" uid="74617" user="JohnSmith" changeset="5163091">
    <nd ref="426696933"/>
    <nd ref="426696935"/>
    <nd ref="426696937"/>
    <nd ref="426696939"/>
    <nd ref="426696941"/>
    <nd ref="426696943"/>
    <nd ref="426696945"/>
    <nd ref="426696947"/>
    <nd ref="426696949"/>
    <nd ref="426696952"/>
    <nd ref="426696954"/>
    <nd ref="426696956"/>
    <nd ref="426696958"/>
    <nd ref="426696960"/>
    <nd ref="426696961"/>
    <nd ref="426696963"/>
    <nd ref="426696965"/>
    <nd ref="426696967"/>
    <nd ref="426696969"/>
    <nd ref="426696970"/>
    <nd ref="426696972"/>
    <nd ref="426696974"/>
    <nd ref="426696976"/>
    <nd ref="426696978"/>
    <nd ref="426696943"/>
    <tag k="highway" v="residential"/>
    <tag k="maxspeed" v="50"/>
    <tag k="maxspeed:source" v="default residential speed limit in Australia"/>
    <tag k="name" v="Pembridge Circuit"/>
  </way>
  <way id="36707597" version="2" timestamp="2010-07-08T04:59:34Z" uid="74617" user="JohnSmith" changeset="5163091">
    <nd ref="426696972"/>
    <nd ref="426696980"/>
    <tag k="highway" v="residential"/>
    <tag k="maxspeed" v="50"/>
    <tag k="maxspeed:source" v="default residential speed limit in Australia"/>
    <tag k="name" v="Pembridge Circuit"/>
  </way>
  <way id="36707598" version="2" timestamp="2010-07-08T04:58:55Z" uid="74617" user="JohnSmith" changeset="5163091">
    <nd ref="426696933"/>
    <nd ref="426696982"/>
    <nd ref="426696984"/>
    <nd ref="426696985"/>
    <nd ref="426696986"/>
    <tag k="highway" v="residential"/>
    <tag k="maxspeed" v="50"/>
    <tag k="maxspeed:source" v="default residential speed limit in Australia"/>
    <tag k="name" v="Rochester Court"/>
  </way>
  <way id="36707599" version="2" timestamp="2010-07-08T05:00:00Z" uid="74617" user="JohnSmith" changeset="5163091">
    <nd ref="426696956"/>
    <nd ref="426696987"/>
    <nd ref="426696988"/>
    <tag k="highway" v="residential"/>
    <tag k="maxspeed" v="50"/>
    <tag k="maxspeed:source" v="default residential speed limit in Australia"/>
    <tag k="name" v="Duke Court"/>
  </way>
  <way id="36707600" version="2" timestamp="2010-07-08T04:58:54Z" uid="74617" user="JohnSmith" changeset="5163091">
    <nd ref="426696961"/>
    <nd ref="426696989"/>
    <tag k="highway" v="residential"/>
    <tag k="maxspeed" v="50"/>
    <tag k="maxspeed:source" v="default residential speed limit in Australia"/>
    <tag k="name" v="Coventry Court"/>
  </way>
  <way id="36707601" version="2" timestamp="2010-07-08T04:59:58Z" uid="74617" user="JohnSmith" changeset="5163091">
    <nd ref="426696923"/>
    <nd ref="426696991"/>
    <tag k="highway" v="residential"/>
    <tag k="maxspeed" v="50"/>
    <tag k="maxspeed:source" v="default residential speed limit in Australia"/>
    <tag k="name" v="Endsleigh Way"/>
  </way>
  <way id="36707602" version="2" timestamp="2010-07-08T04:59:16Z" uid="74617" user="JohnSmith" changeset="5163091">
    <nd ref="426696993"/>
    <nd ref="426696991"/>
    <nd ref="426696995"/>
    <tag k="highway" v="residential"/>
    <tag k="maxspeed" v="50"/>
    <tag k="maxspeed:source" v="default residential speed limit in Australia"/>
    <tag k="name" v="Harly Court"/>
  </way>
  <way id="36707603" version="2" timestamp="2010-07-08T05:00:20Z" uid="74617" user="JohnSmith" changeset="5163091">
    <nd ref="426696921"/>
    <nd ref="426696997"/>
    <tag k="highway" v="residential"/>
    <tag k="maxspeed" v="50"/>
    <tag k="maxspeed:source" v="default residential speed limit in Australia"/>
    <tag k="name" v="Kemble Way"/>
  </way>
  <way id="36707604" version="2" timestamp="2010-07-08T04:58:08Z" uid="74617" user="JohnSmith" changeset="5163091">
    <nd ref="426696997"/>
    <nd ref="426696999"/>
    <nd ref="426697001"/>
    <nd ref="426697003"/>
    <nd ref="426697005"/>
    <nd ref="426697007"/>
    <nd ref="426697009"/>
    <nd ref="426697032"/>
    <nd ref="426697011"/>
    <nd ref="426697012"/>
    <nd ref="426697014"/>
    <nd ref="426697016"/>
    <nd ref="426697018"/>
    <nd ref="426697019"/>
    <nd ref="426697021"/>
    <nd ref="426697023"/>
    <nd ref="426697025"/>
    <nd ref="426697026"/>
    <nd ref="426697028"/>
    <nd ref="426697030"/>
    <nd ref="426696997"/>
    <tag k="highway" v="residential"/>
    <tag k="maxspeed" v="50"/>
    <tag k="maxspeed:source" v="default residential speed limit in Australia"/>
    <tag k="name" v="Lancaster Circuit"/>
  </way>
  <way id="36707605" version="2" timestamp="2010-07-08T04:59:09Z" uid="74617" user="JohnSmith" changeset="5163091">
    <nd ref="426697032"/>
    <nd ref="426697034"/>
    <nd ref="426697036"/>
    <nd ref="426697038"/>
    <nd ref="426697040"/>
    <nd ref="426697042"/>
    <nd ref="426697044"/>
    <nd ref="426697045"/>
    <nd ref="426697046"/>
    <nd ref="426697047"/>
    <nd ref="426697048"/>
    <nd ref="426697049"/>
    <nd ref="426697050"/>
    <nd ref="426697052"/>
    <nd ref="426697053"/>
    <nd ref="426697040"/>
    <tag k="highway" v="residential"/>
    <tag k="maxspeed" v="50"/>
    <tag k="maxspeed:source" v="default residential speed limit in Australia"/>
    <tag k="name" v="Picadilly Circuit"/>
  </way>
  <way id="36707606" version="2" timestamp="2010-07-08T04:58:32Z" uid="74617" user="JohnSmith" changeset="5163091">
    <nd ref="426697014"/>
    <nd ref="426697055"/>
    <tag k="highway" v="residential"/>
    <tag k="maxspeed" v="50"/>
    <tag k="maxspeed:source" v="default residential speed limit in Australia"/>
    <tag k="name" v="Montague Court"/>
  </way>
  <way id="36707607" version="2" timestamp="2010-07-08T04:59:32Z" uid="74617" user="JohnSmith" changeset="5163091">
    <nd ref="426697016"/>
    <nd ref="426697057"/>
    <tag k="highway" v="residential"/>
    <tag k="maxspeed" v="50"/>
    <tag k="maxspeed:source" v="default residential speed limit in Australia"/>
    <tag k="name" v="Marlowe Court"/>
  </way>
  <way id="36707608" version="2" timestamp="2010-07-08T04:59:52Z" uid="74617" user="JohnSmith" changeset="5163091">
    <nd ref="426697021"/>
    <nd ref="426697059"/>
    <nd ref="426697061"/>
    <nd ref="426697063"/>
    <nd ref="426697065"/>
    <nd ref="426697067"/>
    <nd ref="426697069"/>
    <nd ref="426697071"/>
    <tag k="highway" v="residential"/>
    <tag k="maxspeed" v="50"/>
    <tag k="maxspeed:source" v="default residential speed limit in Australia"/>
    <tag k="name" v="Chelsea Court"/>
  </way>
  <way id="36707609" version="2" timestamp="2010-07-08T04:58:26Z" uid="74617" user="JohnSmith" changeset="5163091">
    <nd ref="426697026"/>
    <nd ref="426697074"/>
    <nd ref="426697076"/>
    <tag k="highway" v="residential"/>
    <tag k="maxspeed" v="50"/>
    <tag k="maxspeed:source" v="default residential speed limit in Australia"/>
    <tag k="name" v="McIntyre Court"/>
  </way>
  <way id="36707726" version="3" timestamp="2010-07-09T03:47:51Z" uid="74617" user="JohnSmith" changeset="5170825">
    <nd ref="355341464"/>
    <nd ref="355341470"/>
    <nd ref="355341473"/>
    <nd ref="355341479"/>
    <nd ref="355341482"/>
    <tag k="highway" v="residential"/>
    <tag k="maxspeed" v="50"/>
    <tag k="maxspeed:source" v="default residential speed limit in Australia"/>
    <tag k="name" v="Mount Court"/>
  </way>
  <way id="36707726" version="4" timestamp="2011-03-06T08:53:57Z" uid="4467" user="Rosscoe" changeset="7470703">
    <nd ref="355341464"/>
    <nd ref="355341470"/>
    <nd ref="355341473"/>
    <nd ref="355341479"/>
    <nd ref="355341482"/>
    <tag k="highway" v="residential"/>
    <tag k="maxspeed" v="50"/>
    <tag k="name" v="Mount Court"/>
    <tag k="source:maxspeed" v="default residential speed limit in Australia"/>
  </way>
  <way id="36707853" version="5" timestamp="2011-03-06T08:12:49Z" uid="4467" user="Rosscoe" changeset="7470443">
    <nd ref="567264796"/>
    <nd ref="277091541"/>
    <nd ref="277091542"/>
    <nd ref="277091543"/>
    <nd ref="1188811916"/>
    <nd ref="1188811926"/>
    <tag k="highway" v="residential"/>
    <tag k="maxspeed" v="50"/>
    <tag k="name" v="Garden Grove Drive"/>
  </way>
</osm>
