<?xml version='1.0' encoding='UTF-8'?>
<osm version="0.6" generator="libosmium/2.20.0">
  <way id="36712462" version="3" timestamp="2010-07-08T04:58:22Z" uid="74617" user="JohnSmith" changeset="5163091">
    <nd ref="426748156"/>
    <nd ref="426748157"/>
    <nd ref="426748158"/>
    <nd ref="426748159"/>
    <nd ref="429689461"/>
    <tag k="highway" v="residential"/>
    <tag k="maxspeed" v="50"/>
    <tag k="maxspeed:source" v="default residential speed limit in Australia"/>
    <tag k="name" v="Burrum Street"/>
  </way>
  <way id="36712463" version="2" timestamp="2010-07-08T04:59:23Z" uid="74617" user="JohnSmith" changeset="5163091">
    <nd ref="426748158"/>
    <nd ref="426748160"/>
    <tag k="highway" v="residential"/>
    <tag k="maxspeed" v="50"/>
    <tag k="maxspeed:source" v="default residential speed limit in Australia"/>
    <tag k="name" v="Herbert Street"/>
  </way>
  <way id="36712464" version="2" timestamp="2010-07-08T04:58:22Z" uid="74617" user="JohnSmith" changeset="5163091">
    <nd ref="426748160"/>
    <nd ref="426748161"/>
    <nd ref="426748162"/>
    <nd ref="426748163"/>
    <tag k="highway" v="residential"/>
    <tag k="maxspeed" v="50"/>
    <tag k="maxspeed:source" v="default residential speed limit in Australia"/>
    <tag k="name" v="Herbert Street"/>
    <tag k="oneway" v="yes"/>
  </way>
  <way id="36712466" version="2" timestamp="2010-07-08T04:58:44Z" uid="74617" user="JohnSmith" changeset="5163091">
    <nd ref="426748164"/>
    <nd ref="426748163"/>
    <nd ref="426748165"/>
    <nd ref="426748166"/>
    <tag k="highway" v="residential"/>
    <tag k="maxspeed" v="50"/>
    <tag k="maxspeed:source" v="default residential speed limit in Australia"/>
    <tag k="name" v="Edward Street"/>
  </way>
  <way id="36712467" version="2" timestamp="2010-07-08T04:59:47Z" uid="74617" user="JohnSmith" changeset="5163091">
    <nd ref="426748167"/>
    <nd ref="426748168"/>
    <nd ref="426748169"/>
    <nd ref="426748170"/>
    <nd ref="426748171"/>
    <nd ref="426748172"/>
    <nd ref="426748173"/>
    <nd ref="426748174"/>
    <nd ref="426748175"/>
    <nd ref="426748176"/>
    <nd ref="426748177"/>
    <nd ref="297682419"/>
    <tag k="highway" v="residential"/>
    <tag k="maxspeed" v="50"/>
    <tag k="maxspeed:source" v="default residential speed limit in Australia"/>
    <tag k="name" v="Crescent Street"/>
  </way>
  <way id="36712468" version="2" timestamp="2010-07-08T05:00:05Z" uid="74617" user="JohnSmith" changeset="5163091">
    <nd ref="426748165"/>
    <nd ref="426748178"/>
    <nd ref="426748179"/>
    <nd ref="426748180"/>
    <tag k="highway" v="residential"/>
    <tag k="maxspeed" v="50"/>
    <tag k="maxspeed:source" v="default residential speed limit in Australia"/>
    <tag k="name" v="Stewart Street"/>
  </way>
  <way id="36712470" version="2" timestamp="2010-07-08T05:00:25Z" uid="74617" user="JohnSmith" changeset="5163091">
    <nd ref="426748157"/>
    <nd ref="426748181"/>
    <tag k="highway" v="residential"/>
    <tag k="maxspeed" v="50"/>
    <tag k="maxspeed:source" v="default residential speed limit in Australia"/>
    <tag k="name" v="Cooloola Crescent"/>
  </way>
  <way id="36712471" version="2" timestamp="2010-07-08T04:58:59Z" uid="74617" user="JohnSmith" changeset="5163091">
    <nd ref="426748185"/>
    <nd ref="426748187"/>
    <nd ref="426748188"/>
    <nd ref="426748189"/>
    <tag k="highway" v="residential"/>
    <tag k="maxspeed" v="50"/>
    <tag k="maxspeed:source" v="default residential speed limit in Australia"/>
    <tag k="name" v="Shell Street"/>
  </way>
  <way id="36712473" version="2" timestamp="2010-07-08T05:00:21Z" uid="74617" user="JohnSmith" changeset="5163091">
    <nd ref="426748182"/>
    <nd ref="426748183"/>
    <tag k="highway" v="residential"/>
    <tag k="maxspeed" v="50"/>
    <tag k="maxspeed:source" v="default residential speed limit in Australia"/>
    <tag k="name" v="Short Street"/>
  </way>
  <way id="36712474" version="2" timestamp="2010-07-08T04:59:41Z" uid="74617" user="JohnSmith" changeset="5163091">
    <nd ref="426748190"/>
    <nd ref="426748191"/>
    <nd ref="426748192"/>
    <nd ref="426748193"/>
    <nd ref="426748194"/>
    <nd ref="426748195"/>
    <nd ref="426748196"/>
    <nd ref="424994879"/>
    <tag k="highway" v="residential"/>
    <tag k="maxspeed" v="50"/>
    <tag k="maxspeed:source" v="default residential speed limit in Australia"/>
    <tag k="name" v="Prince Street"/>
  </way>
  <way id="36712702" version="2" timestamp="2010-06-23T06:39:53Z" uid="4467" user="Rosscoe" changeset="5056518">
    <nd ref="426749722"/>
    <nd ref="426749719"/>
    <nd ref="426749724"/>
    <nd ref="426749718"/>
    <nd ref="426749726"/>
    <nd ref="426749720"/>
    <nd ref="426749728"/>
    <nd ref="426749716"/>
    <nd ref="426749722"/>
    <tag k="highway" v="primary"/>
    <tag k="junction" v="roundabout"/>
  </way>
</osm>
