<?xml version='1.0' encoding='UTF-8'?>
<osm version="0.6" generator="libosmium/2.20.0">
  <way id="36755092" version="1" timestamp="2009-06-21T02:51:24Z" uid="4467" user="Rosscoe" changeset="1579821">
    <nd ref="427491927"/>
    <nd ref="427491931"/>
    <nd ref="415913402"/>
    <tag k="highway" v="residential"/>
    <tag k="name" v="Edgecumbe Street"/>
  </way>
  <way id="36755092" version="2" timestamp="2009-06-21T02:51:28Z" uid="4467" user="Rosscoe" changeset="1579821">
    <nd ref="427491927"/>
    <nd ref="427491931"/>
    <tag k="highway" v="residential"/>
    <tag k="name" v="Edgecumbe Street"/>
  </way>
  <way id="36755092" version="3" timestamp="2009-06-21T02:51:48Z" uid="4467" user="Rosscoe" changeset="1579821"/>
  <way id="36755093" version="1" timestamp="2009-06-21T02:51:28Z" uid="4467" user="Rosscoe" changeset="1579821">
    <nd ref="427491931"/>
    <nd ref="415913402"/>
    <tag k="highway" v="residential"/>
    <tag k="name" v="Edgecumbe Street"/>
  </way>
  <way id="36755093" version="2" timestamp="2010-05-23T13:18:15Z" uid="4467" user="Rosscoe" changeset="4783177">
    <nd ref="427491931"/>
    <nd ref="746464182"/>
    <nd ref="415913402"/>
    <tag k="highway" v="residential"/>
    <tag k="name" v="Edgecumbe Street"/>
    <tag k="oneway" v="yes"/>
    <tag k="source" v="nearmap"/>
  </way>
  <way id="36755093" version="3" timestamp="2010-07-09T17:26:42Z" uid="74617" user="JohnSmith" changeset="5175333">
    <nd ref="427491931"/>
    <nd ref="746464182"/>
    <nd ref="415913402"/>
    <tag k="highway" v="residential"/>
    <tag k="maxspeed" v="50"/>
    <tag k="maxspeed:source" v="default residential speed limit in Australia"/>
    <tag k="name" v="Edgecumbe Street"/>
    <tag k="oneway" v="yes"/>
    <tag k="source" v="nearmap"/>
  </way>
  <way id="36755094" version="1" timestamp="2009-06-21T02:51:32Z" uid="4467" user="Rosscoe" changeset="1579821">
    <nd ref="427491928"/>
    <nd ref="427491929"/>
    <nd ref="415831870"/>
    <nd ref="358831916"/>
    <nd ref="415831165"/>
    <nd ref="413988669"/>
    <nd ref="413988670"/>
    <nd ref="413988671"/>
    <nd ref="369079291"/>
    <nd ref="413988672"/>
    <nd ref="413988673"/>
    <nd ref="413988674"/>
    <nd ref="413988675"/>
    <nd ref="413988676"/>
    <nd ref="413988677"/>
    <nd ref="413988678"/>
    <nd ref="413988679"/>
    <nd ref="413988680"/>
    <nd ref="413988681"/>
    <tag k="highway" v="residential"/>
    <tag k="name" v="Cloister Avenue"/>
  </way>
  <way id="36755094" version="2" timestamp="2009-06-21T02:51:37Z" uid="4467" user="Rosscoe" changeset="1579821">
    <nd ref="427491928"/>
    <nd ref="427491929"/>
    <tag k="highway" v="residential"/>
    <tag k="name" v="Cloister Avenue"/>
  </way>
  <way id="36755094" version="3" timestamp="2009-06-21T02:51:40Z" uid="4467" user="Rosscoe" changeset="1579821"/>
  <way id="36755095" version="1" timestamp="2009-06-21T02:51:37Z" uid="4467" user="Rosscoe" changeset="1579821">
    <nd ref="427491929"/>
    <nd ref="415831870"/>
    <nd ref="358831916"/>
    <nd ref="415831165"/>
    <nd ref="413988669"/>
    <nd ref="413988670"/>
    <nd ref="413988671"/>
    <nd ref="369079291"/>
    <nd ref="413988672"/>
    <nd ref="413988673"/>
    <nd ref="413988674"/>
    <nd ref="413988675"/>
    <nd ref="413988676"/>
    <nd ref="413988677"/>
    <nd ref="413988678"/>
    <nd ref="413988679"/>
    <nd ref="413988680"/>
    <nd ref="413988681"/>
    <tag k="highway" v="residential"/>
    <tag k="name" v="Cloister Avenue"/>
  </way>
  <way id="36755095" version="5" timestamp="2010-04-16T16:11:38Z" uid="4467" user="Rosscoe" changeset="4439896">
    <nd ref="427491929"/>
    <nd ref="415831870"/>
    <nd ref="698804089"/>
    <tag k="highway" v="residential"/>
    <tag k="name" v="Gentilli Way"/>
  </way>
  <way id="36755095" version="6" timestamp="2010-07-09T17:21:41Z" uid="74617" user="JohnSmith" changeset="5175333">
    <nd ref="427491929"/>
    <nd ref="415831870"/>
    <nd ref="698804089"/>
    <tag k="highway" v="residential"/>
    <tag k="maxspeed" v="50"/>
    <tag k="maxspeed:source" v="default residential speed limit in Australia"/>
    <tag k="name" v="Gentilli Way"/>
  </way>
  <way id="36755096" version="1" timestamp="2009-06-21T02:52:05Z" uid="4467" user="Rosscoe" changeset="1579821">
    <nd ref="427491928"/>
    <nd ref="427491927"/>
    <nd ref="427491929"/>
    <nd ref="427491931"/>
    <tag k="highway" v="residential"/>
    <tag k="name" v="Cloister Avenue"/>
  </way>
  <way id="36755096" version="2" timestamp="2009-06-21T02:52:14Z" uid="4467" user="Rosscoe" changeset="1579821">
    <nd ref="427491928"/>
    <nd ref="427491927"/>
    <nd ref="427491929"/>
    <nd ref="427491931"/>
    <nd ref="427491928"/>
    <tag k="highway" v="residential"/>
    <tag k="name" v="Cloister Avenue"/>
  </way>
  <way id="36755096" version="3" timestamp="2009-06-21T02:52:28Z" uid="4467" user="Rosscoe" changeset="1579821">
    <nd ref="427491928"/>
    <nd ref="427491927"/>
    <nd ref="427491929"/>
    <nd ref="427491931"/>
    <nd ref="427491928"/>
    <tag k="highway" v="residential"/>
    <tag k="junction" v="roundabout"/>
    <tag k="name" v="Cloister Avenue"/>
  </way>
  <way id="36755096" version="4" timestamp="2010-05-23T13:18:35Z" uid="4467" user="Rosscoe" changeset="4783177">
    <nd ref="427491928"/>
    <nd ref="746464406"/>
    <nd ref="427491927"/>
    <nd ref="746464670"/>
    <nd ref="427491929"/>
    <nd ref="427491931"/>
    <nd ref="746464329"/>
    <nd ref="746464100"/>
    <nd ref="427491928"/>
    <tag k="highway" v="residential"/>
    <tag k="junction" v="roundabout"/>
  </way>
  <way id="36755096" version="5" timestamp="2010-07-09T17:28:31Z" uid="74617" user="JohnSmith" changeset="5175333">
    <nd ref="427491928"/>
    <nd ref="746464406"/>
    <nd ref="427491927"/>
    <nd ref="746464670"/>
    <nd ref="427491929"/>
    <nd ref="427491931"/>
    <nd ref="746464329"/>
    <nd ref="746464100"/>
    <nd ref="427491928"/>
    <tag k="highway" v="residential"/>
    <tag k="junction" v="roundabout"/>
    <tag k="maxspeed" v="50"/>
    <tag k="maxspeed:source" v="default residential speed limit in Australia"/>
  </way>
  <way id="36755693" version="4" timestamp="2010-03-28T02:21:05Z" uid="20587" user="balrog-kun" changeset="4250871">
    <nd ref="427492052"/>
    <nd ref="429405903"/>
    <nd ref="427492053"/>
    <tag k="highway" v="residential"/>
    <tag k="name" v="Lexington Avenue"/>
  </way>
  <way id="36755694" version="5" timestamp="2010-03-28T02:21:06Z" uid="20587" user="balrog-kun" changeset="4250871">
    <nd ref="427492061"/>
    <nd ref="427492060"/>
    <nd ref="427492059"/>
    <nd ref="427492058"/>
    <nd ref="427492057"/>
    <nd ref="427492056"/>
    <nd ref="427492055"/>
    <nd ref="427492054"/>
    <nd ref="65683248"/>
    <nd ref="65683251"/>
    <nd ref="65623478"/>
    <nd ref="65400844"/>
    <nd ref="65484142"/>
    <tag k="created_by" v="Potlatch 0.8a"/>
    <tag k="highway" v="residential"/>
    <tag k="name" v="Raleigh Road"/>
    <tag k="tiger:cfcc" v="A41"/>
    <tag k="tiger:county" v="Santa Clara, CA"/>
    <tag k="tiger:name_base" v="Raleigh"/>
    <tag k="tiger:name_type" v="Rd"/>
    <tag k="tiger:reviewed" v="no"/>
    <tag k="tiger:separated" v="no"/>
    <tag k="tiger:source" v="tiger_import_dch_v0.6_20070809"/>
    <tag k="tiger:tlid" v="122926875:122999842:123179634"/>
  </way>
</osm>
