<?xml version='1.0' encoding='UTF-8'?>
<osm version="0.6" generator="libosmium/2.20.0">
  <way id="36784584" version="1" timestamp="2009-06-21T16:49:09Z" uid="55964" user="Evan Sebire" changeset="1585374">
    <nd ref="427663279"/>
    <nd ref="427663332"/>
    <nd ref="427663369"/>
    <nd ref="427663397"/>
    <nd ref="427663407"/>
    <nd ref="427663426"/>
    <nd ref="427663446"/>
    <nd ref="427663448"/>
    <nd ref="427663449"/>
    <nd ref="427663450"/>
    <nd ref="427663451"/>
    <nd ref="427663452"/>
    <nd ref="427663453"/>
    <nd ref="427663454"/>
    <nd ref="427663459"/>
    <nd ref="427663465"/>
    <nd ref="427663472"/>
    <nd ref="427663473"/>
    <tag k="highway" v="footway"/>
  </way>
  <way id="36784592" version="6" timestamp="2010-08-04T17:35:57Z" uid="9581" user="Lobelt" changeset="5401263">
    <nd ref="244320920"/>
    <nd ref="244320921"/>
    <nd ref="244320922"/>
    <nd ref="244320923"/>
    <nd ref="244320924"/>
    <nd ref="244320925"/>
    <nd ref="244320926"/>
    <nd ref="244320927"/>
    <nd ref="244320928"/>
    <nd ref="244320929"/>
    <nd ref="245069823"/>
    <nd ref="244320930"/>
    <nd ref="244320931"/>
    <nd ref="244320932"/>
    <nd ref="244320933"/>
    <tag k="cables" v="12"/>
    <tag k="frequency" v="50"/>
    <tag k="name" v="380 kV Leichlingen Ost|West; 220 kV Bigge Ost|West"/>
    <tag k="note" v="6*quad*380 kV; 6*double*220 kV"/>
    <tag k="operator" v="RWE"/>
    <tag k="power" v="line"/>
    <tag k="ref" v="4561"/>
    <tag k="source" v="yahoo; survey"/>
    <tag k="voltage" v="380000;220000"/>
    <tag k="wires" v="quad;double"/>
  </way>
  <way id="36784595" version="4" timestamp="2010-08-04T17:38:27Z" uid="9581" user="Lobelt" changeset="5401263">
    <nd ref="427663576"/>
    <nd ref="427663565"/>
    <nd ref="427663575"/>
    <tag k="cables" v="6"/>
    <tag k="frequency" v="50"/>
    <tag k="name" v="220 kV Bigge Ost|West"/>
    <tag k="operator" v="RWE"/>
    <tag k="power" v="line"/>
    <tag k="voltage" v="220000"/>
    <tag k="wires" v="double"/>
  </way>
  <way id="36784596" version="7" timestamp="2010-08-04T17:45:01Z" uid="9581" user="Lobelt" changeset="5401263">
    <nd ref="244314223"/>
    <nd ref="244314224"/>
    <nd ref="244314225"/>
    <nd ref="244314227"/>
    <nd ref="244314229"/>
    <tag k="cables" v="6"/>
    <tag k="frequency" v="50"/>
    <tag k="name" v="220 kV Kasselberg Süd; Niederaußem 5e"/>
    <tag k="operator" v="RWE"/>
    <tag k="power" v="line"/>
    <tag k="ref" v="2483"/>
    <tag k="source" v="survey"/>
    <tag k="voltage" v="220000"/>
    <tag k="wires" v="double"/>
  </way>
  <way id="36784599" version="4" timestamp="2010-08-04T17:48:49Z" uid="9581" user="Lobelt" changeset="5401263">
    <nd ref="427663581"/>
    <nd ref="244320920"/>
    <tag k="cables" v="6"/>
    <tag k="frequency" v="50"/>
    <tag k="name" v="380 kV Leichlingen Ost|West"/>
    <tag k="operator" v="RWE"/>
    <tag k="power" v="line"/>
    <tag k="source" v="survey"/>
    <tag k="voltage" v="380000"/>
    <tag k="wires" v="quad"/>
  </way>
  <way id="36784600" version="5" timestamp="2010-08-04T17:40:42Z" uid="9581" user="Lobelt" changeset="5401263">
    <nd ref="427663583"/>
    <nd ref="244321714"/>
    <tag k="cables" v="6"/>
    <tag k="frequency" v="50"/>
    <tag k="name" v="110 kV Kürten Süd; Neschen Nord"/>
    <tag k="operator" v="RWE"/>
    <tag k="power" v="line"/>
    <tag k="source" v="yahoo"/>
    <tag k="voltage" v="110000"/>
    <tag k="wires" v="single"/>
  </way>
  <way id="36784605" version="8" timestamp="2010-08-04T17:36:06Z" uid="9581" user="Lobelt" changeset="5401263">
    <nd ref="427663583"/>
    <nd ref="244378822"/>
    <nd ref="244380454"/>
    <nd ref="244380456"/>
    <nd ref="244380457"/>
    <nd ref="244380458"/>
    <tag k="cables" v="6"/>
    <tag k="cables:diff" v="3"/>
    <tag k="frequency" v="50"/>
    <tag k="name" v="110 kV Kürten Süd"/>
    <tag k="name:diff" v="0 kV ground_9285"/>
    <tag k="operator" v="RWE"/>
    <tag k="power" v="line"/>
    <tag k="ref" v="0010"/>
    <tag k="source" v="survey"/>
    <tag k="voltage" v="110000;0"/>
    <tag k="wires" v="single"/>
  </way>
  <way id="36784630" version="1" timestamp="2009-06-21T16:50:23Z" uid="85955" user="Gerd Höweler" changeset="1585389">
    <nd ref="427655535"/>
    <nd ref="427655536"/>
    <nd ref="294663669"/>
    <nd ref="427655537"/>
    <nd ref="294663670"/>
    <tag k="created_by" v="Potlatch 0.10b"/>
    <tag k="highway" v="residential"/>
    <tag k="name" v="Geislinger Straße"/>
    <tag k="source" v="yahoo"/>
    <tag k="surface" v="paved"/>
  </way>
  <way id="36784631" version="1" timestamp="2009-06-21T16:50:23Z" uid="85955" user="Gerd Höweler" changeset="1585389">
    <nd ref="210358503"/>
    <nd ref="294662757"/>
    <nd ref="210358504"/>
    <nd ref="210358505"/>
    <nd ref="210358506"/>
    <nd ref="210358507"/>
    <nd ref="427655543"/>
    <nd ref="210358509"/>
    <nd ref="210358511"/>
    <nd ref="427655570"/>
    <nd ref="210358512"/>
    <nd ref="355891389"/>
    <nd ref="210358513"/>
    <nd ref="210358514"/>
    <nd ref="355888326"/>
    <nd ref="210358516"/>
    <nd ref="210358517"/>
    <nd ref="210358518"/>
    <nd ref="210358519"/>
    <nd ref="210358520"/>
    <tag k="created_by" v="Potlatch 0.10f"/>
    <tag k="highway" v="residential"/>
    <tag k="name" v="Donauschwabenstraße"/>
  </way>
  <way id="36784632" version="1" timestamp="2009-06-21T16:50:24Z" uid="85955" user="Gerd Höweler" changeset="1585389">
    <nd ref="210358501"/>
    <nd ref="210358503"/>
    <tag k="created_by" v="Potlatch 0.10f"/>
    <tag k="highway" v="residential"/>
    <tag k="name" v="Donauschwabenstraße"/>
  </way>
  <way id="36784633" version="1" timestamp="2009-06-21T16:50:24Z" uid="85955" user="Gerd Höweler" changeset="1585389">
    <nd ref="427655535"/>
    <nd ref="210358501"/>
    <tag k="created_by" v="Potlatch 0.10f"/>
    <tag k="highway" v="residential"/>
    <tag k="name" v="Donauschwabenstraße"/>
  </way>
  <way id="36784634" version="1" timestamp="2009-06-21T16:50:24Z" uid="85955" user="Gerd Höweler" changeset="1585389">
    <nd ref="294662951"/>
    <nd ref="427655535"/>
    <tag k="highway" v="residential"/>
    <tag k="name" v="Donauschwabenstraße"/>
  </way>
  <way id="36784716" version="3" timestamp="2009-10-22T21:27:13Z" uid="36809" user="pfoten_weg_!_" changeset="2925674">
    <nd ref="335290443"/>
    <nd ref="31414565"/>
    <nd ref="333557309"/>
    <nd ref="31414568"/>
    <nd ref="427664355"/>
    <nd ref="333556959"/>
    <nd ref="31414570"/>
    <nd ref="333556568"/>
    <nd ref="31414574"/>
    <nd ref="31414578"/>
    <tag k="highway" v="tertiary"/>
    <tag k="name" v="Westerhamer Straße"/>
    <tag k="ref" v="MB 17"/>
  </way>
  <way id="36784838" version="1" timestamp="2009-06-21T16:56:16Z" uid="55964" user="Evan Sebire" changeset="1585445">
    <nd ref="427665458"/>
    <nd ref="427665468"/>
    <nd ref="427663473"/>
    <nd ref="427665476"/>
    <nd ref="427665490"/>
    <nd ref="427665498"/>
    <nd ref="427665507"/>
    <nd ref="427665518"/>
    <nd ref="427665522"/>
    <nd ref="427665525"/>
    <nd ref="427665533"/>
    <nd ref="427665535"/>
    <nd ref="427665539"/>
    <nd ref="427665542"/>
    <nd ref="427665544"/>
    <nd ref="427665545"/>
    <nd ref="427665546"/>
    <nd ref="427665547"/>
    <nd ref="427665553"/>
    <nd ref="427665554"/>
    <nd ref="427665556"/>
    <nd ref="427665557"/>
    <nd ref="427665558"/>
    <nd ref="427665559"/>
    <nd ref="427665560"/>
    <tag k="highway" v="residential"/>
  </way>
  <way id="36784838" version="2" timestamp="2009-06-23T15:04:35Z" uid="55964" user="Evan Sebire" changeset="1603248"/>
</osm>
