<?xml version='1.0' encoding='UTF-8'?>
<osm version="0.6" generator="libosmium/2.20.0">
  <way id="3680032" version="2" timestamp="2008-05-03T23:50:11Z" uid="30201" user="rrankin" changeset="326090">
    <nd ref="8107775"/>
    <nd ref="8107779"/>
    <nd ref="8107782"/>
    <nd ref="18249497"/>
    <tag k="bridge" v="yes"/>
    <tag k="created_by" v="JOSM"/>
    <tag k="highway" v="footway"/>
    <tag k="layer" v="1"/>
    <tag k="name" v="footbridge"/>
  </way>
  <way id="3680032" version="3" timestamp="2008-05-04T22:18:42Z" uid="30201" user="rrankin" changeset="336241">
    <nd ref="8107775"/>
    <nd ref="8107779"/>
    <tag k="bridge" v="yes"/>
    <tag k="created_by" v="JOSM"/>
    <tag k="highway" v="footway"/>
    <tag k="layer" v="1"/>
    <tag k="name" v="footbridge"/>
  </way>
  <way id="3680143" version="2" timestamp="2008-09-01T09:22:42Z" uid="7617" user="Franc" changeset="482530">
    <nd ref="18249980"/>
    <nd ref="292825595"/>
    <nd ref="18249976"/>
    <nd ref="292825591"/>
    <nd ref="18249971"/>
    <tag k="abutters" v="mixed"/>
    <tag k="created_by" v="JOSM"/>
    <tag k="highway" v="unclassified"/>
    <tag k="name" v="Slip Street"/>
  </way>
  <way id="3680143" version="3" timestamp="2008-09-12T03:40:38Z" uid="7617" user="Franc" changeset="613311">
    <nd ref="18249980"/>
    <nd ref="292825595"/>
    <nd ref="18249976"/>
    <nd ref="292825591"/>
    <nd ref="296028475"/>
    <nd ref="18249971"/>
    <tag k="abutters" v="mixed"/>
    <tag k="created_by" v="JOSM"/>
    <tag k="highway" v="unclassified"/>
    <tag k="name" v="Slip Street"/>
  </way>
  <way id="3680143" version="5" timestamp="2009-12-24T12:35:30Z" uid="30201" user="rrankin" changeset="3441832">
    <nd ref="18249980"/>
    <nd ref="292825595"/>
    <nd ref="18249976"/>
    <nd ref="292825591"/>
    <nd ref="296028475"/>
    <nd ref="18249971"/>
    <tag k="highway" v="unclassified"/>
    <tag k="name" v="Slip Street"/>
  </way>
  <way id="3680143" version="6" timestamp="2009-12-29T21:58:50Z" uid="8807" user="brendanpuck" changeset="3485706">
    <nd ref="18249980"/>
    <nd ref="292825595"/>
    <nd ref="18249976"/>
    <nd ref="292825591"/>
    <nd ref="296028475"/>
    <nd ref="18249971"/>
    <nd ref="601150686"/>
    <nd ref="601150689"/>
    <nd ref="601150690"/>
    <nd ref="601150691"/>
    <nd ref="601150692"/>
    <nd ref="601150693"/>
    <nd ref="601150690"/>
    <tag k="highway" v="unclassified"/>
    <tag k="layer" v="-3"/>
    <tag k="name" v="Slip Street"/>
    <tag k="source" v="nearmap"/>
  </way>
  <way id="3680143" version="7" timestamp="2010-04-18T12:37:09Z" uid="7617" user="Franc" changeset="4457384">
    <nd ref="18249980"/>
    <nd ref="292825595"/>
    <nd ref="18249976"/>
    <nd ref="292825591"/>
    <nd ref="296028475"/>
    <nd ref="18249971"/>
    <nd ref="700911525"/>
    <tag k="highway" v="unclassified"/>
    <tag k="layer" v="-3"/>
    <tag k="name" v="Slip Street"/>
    <tag k="source" v="nearmap"/>
  </way>
  <way id="3680143" version="8" timestamp="2010-11-01T08:52:41Z" uid="7617" user="Franc" changeset="6252462">
    <nd ref="18249980"/>
    <nd ref="292825595"/>
    <nd ref="18249976"/>
    <nd ref="973540748"/>
    <nd ref="292825591"/>
    <nd ref="296028475"/>
    <nd ref="700911525"/>
    <tag k="highway" v="unclassified"/>
    <tag k="layer" v="-3"/>
    <tag k="name" v="Slip Street"/>
    <tag k="source" v="nearmap"/>
  </way>
  <way id="3680965" version="4" timestamp="2011-04-23T12:55:02Z" uid="7617" user="Franc" changeset="7943317">
    <nd ref="33225485"/>
    <nd ref="33225490"/>
    <nd ref="33225556"/>
    <nd ref="33225500"/>
    <nd ref="33225505"/>
    <nd ref="59708784"/>
    <nd ref="1256657352"/>
    <nd ref="18252520"/>
    <tag k="highway" v="secondary"/>
    <tag k="maxspeed" v="60"/>
    <tag k="name" v="Ramsgate Road"/>
    <tag k="source" v="interpolation"/>
  </way>
  <way id="3680966" version="5" timestamp="2009-12-08T19:54:02Z" uid="30201" user="rrankin" changeset="3327458">
    <nd ref="18253497"/>
    <nd ref="18253527"/>
    <nd ref="213433140"/>
    <nd ref="213434402"/>
    <nd ref="213433144"/>
    <tag k="highway" v="residential"/>
    <tag k="incomplete" v="yes"/>
    <tag k="name" v="Wyee Street"/>
  </way>
  <way id="3680966" version="6" timestamp="2009-12-13T02:47:53Z" uid="7617" user="Franc" changeset="3360208">
    <nd ref="18253497"/>
    <nd ref="18253527"/>
    <nd ref="213433140"/>
    <nd ref="213434402"/>
    <nd ref="588189396"/>
    <nd ref="213433144"/>
    <tag k="highway" v="residential"/>
    <tag k="incomplete" v="yes"/>
    <tag k="name" v="Wyee Street"/>
  </way>
  <way id="3680966" version="7" timestamp="2010-07-07T21:27:52Z" uid="74617" user="JohnSmith" changeset="5161069">
    <nd ref="18253497"/>
    <nd ref="18253527"/>
    <nd ref="213433140"/>
    <nd ref="213434402"/>
    <nd ref="588189396"/>
    <nd ref="213433144"/>
    <tag k="highway" v="residential"/>
    <tag k="incomplete" v="yes"/>
    <tag k="maxspeed" v="50"/>
    <tag k="maxspeed:source" v="default residential speed limit in Australia"/>
    <tag k="name" v="Wyee Street"/>
  </way>
  <way id="3680967" version="4" timestamp="2009-11-30T09:37:25Z" uid="7617" user="Franc" changeset="3254049"/>
  <way id="3680968" version="7" timestamp="2008-10-25T21:54:29Z" uid="7617" user="Franc" changeset="568909">
    <nd ref="18252520"/>
    <nd ref="59830639"/>
    <nd ref="29334142"/>
    <tag k="abutters" v="residential"/>
    <tag k="created_by" v="Potlatch 0.10c"/>
    <tag k="highway" v="secondary"/>
    <tag k="lcn" v="yes"/>
    <tag k="name" v="Ramsgate Road"/>
  </way>
  <way id="3680968" version="8" timestamp="2009-12-08T19:54:02Z" uid="30201" user="rrankin" changeset="3327458">
    <nd ref="18252520"/>
    <nd ref="59830639"/>
    <nd ref="29334142"/>
    <tag k="highway" v="secondary"/>
    <tag k="lcn" v="yes"/>
    <tag k="name" v="Ramsgate Road"/>
  </way>
  <way id="3680968" version="13" timestamp="2011-04-23T12:54:50Z" uid="7617" user="Franc" changeset="7943317">
    <nd ref="1081517323"/>
    <nd ref="1081517326"/>
    <nd ref="1081517314"/>
    <nd ref="59830639"/>
    <nd ref="585611220"/>
    <nd ref="18252520"/>
    <tag k="highway" v="secondary"/>
    <tag k="lcn" v="yes"/>
    <tag k="maxspeed" v="60"/>
    <tag k="name" v="Ramsgate Road"/>
  </way>
  <way id="3680969" version="10" timestamp="2009-11-30T09:37:22Z" uid="7617" user="Franc" changeset="3254049">
    <nd ref="18253506"/>
    <nd ref="18253495"/>
    <nd ref="213425187"/>
    <nd ref="18253497"/>
    <nd ref="18253500"/>
    <nd ref="213425841"/>
    <nd ref="213426413"/>
    <nd ref="213428902"/>
    <nd ref="213431163"/>
    <nd ref="213426460"/>
    <nd ref="213428639"/>
    <nd ref="575727161"/>
    <nd ref="575727163"/>
    <nd ref="28548061"/>
    <tag k="highway" v="secondary"/>
    <tag k="lcn" v="yes"/>
    <tag k="name" v="Park Road"/>
  </way>
  <way id="3680971" version="2" timestamp="2009-12-08T19:53:57Z" uid="30201" user="rrankin" changeset="3327458">
    <nd ref="18253489"/>
    <nd ref="18253519"/>
    <nd ref="18253518"/>
    <nd ref="18253517"/>
    <nd ref="18253516"/>
    <nd ref="18253515"/>
    <nd ref="18253513"/>
    <tag k="highway" v="residential"/>
    <tag k="name" v="Vaudan Street"/>
  </way>
  <way id="3680971" version="3" timestamp="2010-07-07T21:31:52Z" uid="74617" user="JohnSmith" changeset="5161069">
    <nd ref="18253489"/>
    <nd ref="18253519"/>
    <nd ref="18253518"/>
    <nd ref="18253517"/>
    <nd ref="18253516"/>
    <nd ref="18253515"/>
    <nd ref="18253513"/>
    <tag k="highway" v="residential"/>
    <tag k="maxspeed" v="50"/>
    <tag k="maxspeed:source" v="default residential speed limit in Australia"/>
    <tag k="name" v="Vaudan Street"/>
  </way>
  <way id="3680972" version="2" timestamp="2009-12-08T19:54:02Z" uid="30201" user="rrankin" changeset="3327458">
    <nd ref="18253513"/>
    <nd ref="18253509"/>
    <nd ref="18253506"/>
    <tag k="highway" v="residential"/>
    <tag k="name" v="Park Road"/>
  </way>
  <way id="3680972" version="3" timestamp="2010-07-07T21:31:14Z" uid="74617" user="JohnSmith" changeset="5161069">
    <nd ref="18253513"/>
    <nd ref="18253509"/>
    <nd ref="18253506"/>
    <tag k="highway" v="residential"/>
    <tag k="maxspeed" v="50"/>
    <tag k="maxspeed:source" v="default residential speed limit in Australia"/>
    <tag k="name" v="Park Road"/>
  </way>
  <way id="3680973" version="8" timestamp="2009-12-08T19:53:59Z" uid="30201" user="rrankin" changeset="3327458">
    <nd ref="18253513"/>
    <nd ref="18253520"/>
    <nd ref="18253521"/>
    <nd ref="213432032"/>
    <nd ref="213434403"/>
    <nd ref="18253523"/>
    <nd ref="18253524"/>
    <nd ref="213435906"/>
    <nd ref="18253525"/>
    <nd ref="18253526"/>
    <nd ref="213436645"/>
    <nd ref="18253580"/>
    <nd ref="213434522"/>
    <nd ref="18253581"/>
    <nd ref="18253582"/>
    <nd ref="18253583"/>
    <nd ref="18253584"/>
    <tag k="highway" v="residential"/>
    <tag k="name" v="Carlton Crescent"/>
  </way>
  <way id="3680973" version="9" timestamp="2009-12-13T02:47:53Z" uid="7617" user="Franc" changeset="3360208">
    <nd ref="18253513"/>
    <nd ref="18253520"/>
    <nd ref="18253521"/>
    <nd ref="213432032"/>
    <nd ref="213434403"/>
    <nd ref="18253523"/>
    <nd ref="213435906"/>
    <nd ref="18253525"/>
    <nd ref="588189389"/>
    <nd ref="18253526"/>
    <nd ref="213436645"/>
    <nd ref="18253580"/>
    <nd ref="213434522"/>
    <nd ref="18253581"/>
    <nd ref="18253582"/>
    <nd ref="18253583"/>
    <nd ref="18253584"/>
    <tag k="highway" v="residential"/>
    <tag k="name" v="Carlton Crescent"/>
  </way>
  <way id="3680973" version="11" timestamp="2010-07-07T21:28:18Z" uid="74617" user="JohnSmith" changeset="5161069">
    <nd ref="18253513"/>
    <nd ref="18253520"/>
    <nd ref="18253521"/>
    <nd ref="213432032"/>
    <nd ref="213434403"/>
    <nd ref="18253523"/>
    <nd ref="213435906"/>
    <nd ref="18253525"/>
    <nd ref="588189389"/>
    <nd ref="18253526"/>
    <nd ref="213436645"/>
    <nd ref="18253580"/>
    <nd ref="213434522"/>
    <nd ref="18253581"/>
    <nd ref="18253582"/>
    <nd ref="18253583"/>
    <nd ref="18253584"/>
    <tag k="highway" v="residential"/>
    <tag k="lcn" v="yes"/>
    <tag k="maxspeed" v="50"/>
    <tag k="maxspeed:source" v="default residential speed limit in Australia"/>
    <tag k="name" v="Carlton Crescent"/>
  </way>
  <way id="3680973" version="12" timestamp="2010-10-04T05:33:30Z" uid="7617" user="Franc" changeset="5950430">
    <nd ref="18253513"/>
    <nd ref="18253520"/>
    <nd ref="18253521"/>
    <nd ref="213432032"/>
    <nd ref="213434403"/>
    <nd ref="18253523"/>
    <nd ref="213435906"/>
    <nd ref="18253525"/>
    <nd ref="588189389"/>
    <nd ref="18253526"/>
    <nd ref="213436645"/>
    <nd ref="18253580"/>
    <nd ref="213434522"/>
    <nd ref="18253581"/>
    <nd ref="18253582"/>
    <tag k="highway" v="residential"/>
    <tag k="lcn" v="yes"/>
    <tag k="maxspeed" v="50"/>
    <tag k="maxspeed:source" v="default residential speed limit in Australia"/>
    <tag k="name" v="Carlton Crescent"/>
  </way>
  <way id="3680975" version="8" timestamp="2009-08-26T11:24:45Z" uid="7617" user="Franc" changeset="2266338">
    <nd ref="221719537"/>
    <nd ref="474437973"/>
    <nd ref="221719538"/>
    <nd ref="221719539"/>
    <nd ref="221719541"/>
    <nd ref="221721251"/>
    <nd ref="221719542"/>
    <nd ref="221719545"/>
    <nd ref="221722323"/>
    <nd ref="221719547"/>
    <nd ref="221722853"/>
    <nd ref="221719549"/>
    <nd ref="18253585"/>
    <nd ref="18253584"/>
    <nd ref="18253586"/>
    <nd ref="18253587"/>
    <nd ref="221722337"/>
    <nd ref="18253588"/>
    <tag k="created_by" v="Potlatch 0.6a"/>
    <tag k="highway" v="residential"/>
    <tag k="name" v="Carwar Avenue"/>
    <tag k="source" v="survey"/>
  </way>
  <way id="3680975" version="9" timestamp="2009-11-30T09:37:22Z" uid="7617" user="Franc" changeset="3254049">
    <nd ref="221719537"/>
    <nd ref="474437973"/>
    <nd ref="221719538"/>
    <nd ref="221719539"/>
    <nd ref="221719541"/>
    <nd ref="221721251"/>
    <nd ref="221719542"/>
    <nd ref="221719545"/>
    <nd ref="221722323"/>
    <nd ref="221722853"/>
    <nd ref="221719549"/>
    <nd ref="18253584"/>
    <nd ref="18253586"/>
    <nd ref="18253587"/>
    <nd ref="221722337"/>
    <nd ref="18253588"/>
    <tag k="highway" v="residential"/>
    <tag k="name" v="Carwar Avenue"/>
    <tag k="source" v="survey"/>
  </way>
  <way id="3680975" version="10" timestamp="2009-12-12T05:41:08Z" uid="7617" user="Franc" changeset="3353764">
    <nd ref="221719537"/>
    <nd ref="587611978"/>
    <nd ref="474437973"/>
    <nd ref="221719538"/>
    <nd ref="221719539"/>
    <nd ref="221719541"/>
    <nd ref="221721251"/>
    <nd ref="221719542"/>
    <nd ref="221719545"/>
    <nd ref="221722323"/>
    <nd ref="221722853"/>
    <nd ref="221719549"/>
    <nd ref="18253584"/>
    <nd ref="18253586"/>
    <nd ref="18253587"/>
    <nd ref="221722337"/>
    <nd ref="18253588"/>
    <tag k="highway" v="residential"/>
    <tag k="name" v="Carwar Avenue"/>
    <tag k="source" v="survey"/>
  </way>
  <way id="3680975" version="11" timestamp="2009-12-13T02:47:53Z" uid="7617" user="Franc" changeset="3360208">
    <nd ref="221719537"/>
    <nd ref="587611978"/>
    <nd ref="474437973"/>
    <nd ref="221719538"/>
    <nd ref="221719539"/>
    <nd ref="221719541"/>
    <nd ref="221721251"/>
    <nd ref="221719542"/>
    <nd ref="221719545"/>
    <nd ref="221722323"/>
    <nd ref="221722853"/>
    <nd ref="221719549"/>
    <nd ref="18253584"/>
    <nd ref="221722337"/>
    <nd ref="588189388"/>
    <nd ref="18253588"/>
    <tag k="highway" v="residential"/>
    <tag k="name" v="Carwar Avenue"/>
    <tag k="source" v="survey"/>
  </way>
  <way id="3680975" version="13" timestamp="2010-07-07T21:33:55Z" uid="74617" user="JohnSmith" changeset="5161069">
    <nd ref="221719537"/>
    <nd ref="587611978"/>
    <nd ref="474437973"/>
    <nd ref="221719538"/>
    <nd ref="221719539"/>
    <nd ref="221719541"/>
    <nd ref="221721251"/>
    <nd ref="221719542"/>
    <nd ref="221719545"/>
    <nd ref="221722323"/>
    <nd ref="221722853"/>
    <nd ref="221719549"/>
    <nd ref="18253584"/>
    <nd ref="221722337"/>
    <nd ref="588189388"/>
    <nd ref="18253588"/>
    <tag k="highway" v="residential"/>
    <tag k="lcn" v="yes"/>
    <tag k="maxspeed" v="50"/>
    <tag k="maxspeed:source" v="default residential speed limit in Australia"/>
    <tag k="name" v="Carwar Avenue"/>
    <tag k="source" v="survey"/>
  </way>
  <way id="3680975" version="14" timestamp="2011-04-22T23:16:17Z" uid="7617" user="Franc" changeset="7939553">
    <nd ref="221719537"/>
    <nd ref="587611978"/>
    <tag k="highway" v="residential"/>
    <tag k="lcn" v="yes"/>
    <tag k="maxspeed" v="50"/>
    <tag k="maxspeed:source" v="default residential speed limit in Australia"/>
    <tag k="name" v="Carwar Avenue"/>
    <tag k="source" v="survey"/>
  </way>
  <way id="3680976" version="3" timestamp="2009-12-08T19:54:02Z" uid="30201" user="rrankin" changeset="3327458">
    <nd ref="18253588"/>
    <nd ref="18253589"/>
    <nd ref="18253590"/>
    <nd ref="18253591"/>
    <nd ref="18253601"/>
    <nd ref="18253592"/>
    <nd ref="18253596"/>
    <nd ref="18253597"/>
    <tag k="highway" v="service"/>
    <tag k="name" v="Carss Bush Park"/>
  </way>
</osm>
