<?xml version='1.0' encoding='UTF-8'?>
<osm version="0.6" generator="libosmium/2.20.0">
  <way id="36830090" version="3" timestamp="2009-10-01T15:26:15Z" uid="86259" user="hasse_osm_korinthenkacker" changeset="2701530">
    <nd ref="428135501"/>
    <nd ref="428135507"/>
    <nd ref="428135512"/>
    <nd ref="428135334"/>
    <tag k="highway" v="residential"/>
    <tag k="name" v="Alte Gartenstraße"/>
    <tag k="surface" v="paving_stones"/>
  </way>
  <way id="36830169" version="2" timestamp="2009-07-17T07:18:01Z" uid="27600" user="Islanit" changeset="1851315">
    <nd ref="428137577"/>
    <nd ref="428137578"/>
    <nd ref="428137579"/>
    <nd ref="428137583"/>
    <nd ref="442870448"/>
    <nd ref="428137570"/>
    <tag k="highway" v="residential"/>
    <tag k="name" v="Anna-von-Gierke-Ring"/>
    <tag k="postal_code" v="21035"/>
  </way>
  <way id="36830170" version="2" timestamp="2009-07-17T07:18:00Z" uid="27600" user="Islanit" changeset="1851315">
    <nd ref="428137568"/>
    <nd ref="442870448"/>
    <tag k="highway" v="residential"/>
    <tag k="name" v="Anna-von-Gierke-Ring"/>
    <tag k="postal_code" v="21035"/>
  </way>
  <way id="36830579" version="4" timestamp="2010-04-25T17:51:36Z" uid="115477" user="wowik" changeset="4524343">
    <nd ref="428146911"/>
    <nd ref="428146997"/>
    <nd ref="428147091"/>
    <nd ref="428146876"/>
    <nd ref="428146911"/>
    <tag k="addr:city" v="Зеленоград"/>
    <tag k="addr:housenumber" v="428"/>
    <tag k="addr:street" v="4-й Микрорайон"/>
    <tag k="building" v="yes"/>
    <tag k="building:levels" v="9"/>
    <tag k="is_in" v="Russia"/>
  </way>
  <way id="36830579" version="5" timestamp="2011-01-12T10:25:23Z" uid="115477" user="wowik" changeset="6945653">
    <nd ref="428146911"/>
    <nd ref="428146997"/>
    <nd ref="428147091"/>
    <nd ref="428146876"/>
    <nd ref="428146911"/>
    <tag k="addr:city" v="Зеленоград"/>
    <tag k="addr:housenumber" v="428"/>
    <tag k="addr:street" v="4-й Микрорайон"/>
    <tag k="building" v="yes"/>
    <tag k="building:levels" v="9"/>
    <tag k="building:use" v="residential"/>
    <tag k="is_in" v="Russia"/>
  </way>
  <way id="36830579" version="6" timestamp="2011-01-12T11:08:40Z" uid="115477" user="wowik" changeset="6945967">
    <nd ref="428146911"/>
    <nd ref="428146997"/>
    <nd ref="428147091"/>
    <nd ref="1099603022"/>
    <nd ref="428146876"/>
    <nd ref="428146911"/>
    <tag k="addr:city" v="Зеленоград"/>
    <tag k="addr:housenumber" v="428"/>
    <tag k="addr:street" v="4-й Микрорайон"/>
    <tag k="building" v="yes"/>
    <tag k="building:levels" v="9"/>
    <tag k="building:use" v="residential"/>
    <tag k="is_in" v="Russia"/>
  </way>
  <way id="36830581" version="4" timestamp="2010-04-21T10:52:34Z" uid="115477" user="wowik" changeset="4485166">
    <nd ref="428146543"/>
    <nd ref="428146540"/>
    <nd ref="428146506"/>
    <nd ref="428146537"/>
    <nd ref="428146543"/>
    <tag k="addr:city" v="Зеленоград"/>
    <tag k="addr:housenumber" v="430А"/>
    <tag k="addr:street" v="4-й Микрорайон"/>
    <tag k="building" v="yes"/>
    <tag k="description" v="Комиссия по комплектованию дошкольных учреждений Зеленоградского округа"/>
    <tag k="is_in" v="Russia"/>
    <tag k="name" v="РОНО"/>
  </way>
  <way id="36830581" version="5" timestamp="2010-04-25T17:57:36Z" uid="115477" user="wowik" changeset="4524343">
    <nd ref="428146543"/>
    <nd ref="428146540"/>
    <nd ref="428146506"/>
    <nd ref="428146537"/>
    <nd ref="428146543"/>
    <tag k="addr:city" v="Зеленоград"/>
    <tag k="addr:housenumber" v="430А"/>
    <tag k="addr:street" v="4-й Микрорайон"/>
    <tag k="building" v="yes"/>
    <tag k="building:levels" v="3"/>
    <tag k="description" v="Комиссия по комплектованию дошкольных учреждений Зеленоградского округа"/>
    <tag k="is_in" v="Russia"/>
    <tag k="name" v="РОНО"/>
  </way>
  <way id="36830581" version="6" timestamp="2010-11-08T14:56:43Z" uid="115477" user="wowik" changeset="6321309">
    <nd ref="428146543"/>
    <nd ref="428146540"/>
    <nd ref="428146506"/>
    <nd ref="428146537"/>
    <nd ref="982476785"/>
    <nd ref="982476759"/>
    <nd ref="982476749"/>
    <nd ref="982476762"/>
    <nd ref="428146543"/>
    <tag k="addr:city" v="Зеленоград"/>
    <tag k="addr:housenumber" v="430А"/>
    <tag k="addr:street" v="4-й Микрорайон"/>
    <tag k="building" v="yes"/>
    <tag k="building:levels" v="3"/>
    <tag k="description" v="Комиссия по комплектованию дошкольных учреждений Зеленоградского округа"/>
    <tag k="is_in" v="Russia"/>
    <tag k="name" v="РОНО"/>
  </way>
  <way id="36830582" version="4" timestamp="2010-04-25T17:52:44Z" uid="115477" user="wowik" changeset="4524343">
    <nd ref="428146829"/>
    <nd ref="428146982"/>
    <nd ref="428147030"/>
    <nd ref="428146766"/>
    <nd ref="428146829"/>
    <tag k="addr:city" v="Зеленоград"/>
    <tag k="addr:housenumber" v="422"/>
    <tag k="addr:street" v="4-й Микрорайон"/>
    <tag k="building" v="yes"/>
    <tag k="building:levels" v="9"/>
    <tag k="is_in" v="Russia"/>
  </way>
  <way id="36830582" version="5" timestamp="2011-01-12T10:24:53Z" uid="115477" user="wowik" changeset="6945653">
    <nd ref="428146829"/>
    <nd ref="428146982"/>
    <nd ref="428147030"/>
    <nd ref="428146766"/>
    <nd ref="428146829"/>
    <tag k="addr:city" v="Зеленоград"/>
    <tag k="addr:housenumber" v="422"/>
    <tag k="addr:street" v="4-й Микрорайон"/>
    <tag k="building" v="yes"/>
    <tag k="building:levels" v="9"/>
    <tag k="building:use" v="residential"/>
    <tag k="is_in" v="Russia"/>
  </way>
  <way id="36830582" version="6" timestamp="2011-01-12T11:08:34Z" uid="115477" user="wowik" changeset="6945967">
    <nd ref="428146829"/>
    <nd ref="428146982"/>
    <nd ref="428147030"/>
    <nd ref="1099603056"/>
    <nd ref="428146766"/>
    <nd ref="428146829"/>
    <tag k="addr:city" v="Зеленоград"/>
    <tag k="addr:housenumber" v="422"/>
    <tag k="addr:street" v="4-й Микрорайон"/>
    <tag k="building" v="yes"/>
    <tag k="building:levels" v="9"/>
    <tag k="building:use" v="residential"/>
    <tag k="is_in" v="Russia"/>
  </way>
  <way id="36830583" version="5" timestamp="2011-03-14T10:56:17Z" uid="115477" user="wowik" changeset="7555046">
    <nd ref="428146768"/>
    <nd ref="428146965"/>
    <nd ref="428147152"/>
    <nd ref="428147163"/>
    <nd ref="428146768"/>
    <tag k="addr:city" v="Зеленоград"/>
    <tag k="addr:street" v="4-й Микрорайон"/>
    <tag k="comment" v="Частные гаражи / private parking"/>
    <tag k="is_in" v="Russia"/>
    <tag k="landuse" v="garages"/>
  </way>
  <way id="36830584" version="4" timestamp="2010-04-25T17:57:32Z" uid="115477" user="wowik" changeset="4524343">
    <nd ref="428146675"/>
    <nd ref="428146761"/>
    <nd ref="428146275"/>
    <nd ref="428146251"/>
    <nd ref="428146675"/>
    <tag k="addr:city" v="Зеленоград"/>
    <tag k="addr:housenumber" v="409"/>
    <tag k="addr:street" v="4-й Микрорайон"/>
    <tag k="building" v="yes"/>
    <tag k="building:levels" v="9"/>
    <tag k="is_in" v="Russia"/>
  </way>
  <way id="36830584" version="5" timestamp="2010-11-30T16:56:50Z" uid="115477" user="wowik" changeset="6495856">
    <nd ref="428146675"/>
    <nd ref="428146761"/>
    <nd ref="428146275"/>
    <nd ref="428146251"/>
    <nd ref="428146675"/>
    <tag k="addr:city" v="Зеленоград"/>
    <tag k="addr:country" v="RU"/>
    <tag k="addr:housenumber" v="409"/>
    <tag k="addr:region" v="Москва"/>
    <tag k="addr:street" v="4-й Микрорайон"/>
    <tag k="building" v="yes"/>
    <tag k="building:levels" v="9"/>
    <tag k="is_in" v="Russia"/>
    <tag k="landuse" v="service"/>
  </way>
  <way id="36830584" version="6" timestamp="2011-01-12T10:25:01Z" uid="115477" user="wowik" changeset="6945653">
    <nd ref="428146675"/>
    <nd ref="428146761"/>
    <nd ref="428146275"/>
    <nd ref="428146251"/>
    <nd ref="428146675"/>
    <tag k="addr:city" v="Зеленоград"/>
    <tag k="addr:country" v="RU"/>
    <tag k="addr:housenumber" v="409"/>
    <tag k="addr:region" v="Москва"/>
    <tag k="addr:street" v="4-й Микрорайон"/>
    <tag k="building" v="yes"/>
    <tag k="building:levels" v="9"/>
    <tag k="building:use" v="residential"/>
    <tag k="is_in" v="Russia"/>
    <tag k="landuse" v="service"/>
  </way>
  <way id="36830584" version="7" timestamp="2011-01-12T11:08:36Z" uid="115477" user="wowik" changeset="6945967">
    <nd ref="428146675"/>
    <nd ref="428146761"/>
    <nd ref="428146275"/>
    <nd ref="1099602995"/>
    <nd ref="1099603045"/>
    <nd ref="1099603073"/>
    <nd ref="1099602975"/>
    <nd ref="428146251"/>
    <nd ref="428146675"/>
    <tag k="addr:city" v="Зеленоград"/>
    <tag k="addr:country" v="RU"/>
    <tag k="addr:housenumber" v="409"/>
    <tag k="addr:region" v="Москва"/>
    <tag k="addr:street" v="4-й Микрорайон"/>
    <tag k="building" v="yes"/>
    <tag k="building:levels" v="9"/>
    <tag k="building:use" v="residential"/>
    <tag k="is_in" v="Russia"/>
    <tag k="landuse" v="service"/>
  </way>
  <way id="36830585" version="4" timestamp="2010-04-25T17:51:43Z" uid="115477" user="wowik" changeset="4524343">
    <nd ref="428147110"/>
    <nd ref="428146914"/>
    <nd ref="428146995"/>
    <nd ref="428146831"/>
    <nd ref="428147110"/>
    <tag k="addr:city" v="Зеленоград"/>
    <tag k="addr:housenumber" v="442А"/>
    <tag k="addr:street" v="4-й Микрорайон"/>
    <tag k="amenity" v="school"/>
    <tag k="building" v="yes"/>
    <tag k="building:levels" v="3"/>
    <tag k="is_in" v="Russia"/>
  </way>
  <way id="36830585" version="5" timestamp="2010-05-06T07:32:50Z" uid="115477" user="wowik" changeset="4619162">
    <nd ref="428147110"/>
    <nd ref="428146914"/>
    <nd ref="428146995"/>
    <nd ref="428146831"/>
    <nd ref="428147110"/>
    <tag k="addr:city" v="Зеленоград"/>
    <tag k="addr:housenumber" v="429А"/>
    <tag k="addr:street" v="4-й Микрорайон"/>
    <tag k="amenity" v="school"/>
    <tag k="building" v="yes"/>
    <tag k="building:levels" v="3"/>
    <tag k="is_in" v="Russia"/>
    <tag k="name" v="школа №618 (нач.классы)"/>
  </way>
  <way id="36830585" version="7" timestamp="2010-11-08T17:16:58Z" uid="115477" user="wowik" changeset="6322246">
    <nd ref="428147110"/>
    <nd ref="428146914"/>
    <nd ref="428146995"/>
    <nd ref="428146831"/>
    <nd ref="982632364"/>
    <nd ref="982632531"/>
    <nd ref="982632544"/>
    <nd ref="982632199"/>
    <nd ref="428147110"/>
    <tag k="addr:city" v="Зеленоград"/>
    <tag k="addr:housenumber" v="429А"/>
    <tag k="addr:street" v="4-й Микрорайон"/>
    <tag k="amenity" v="school"/>
    <tag k="building" v="yes"/>
    <tag k="building:levels" v="3"/>
    <tag k="is_in" v="Russia"/>
    <tag k="name" v="Школа №618 (нач.классы)"/>
  </way>
  <way id="36830586" version="4" timestamp="2010-04-21T10:26:40Z" uid="115477" user="wowik" changeset="4485137">
    <nd ref="428147020"/>
    <nd ref="428146999"/>
    <nd ref="428146794"/>
    <nd ref="428147049"/>
    <nd ref="428146845"/>
    <nd ref="428146860"/>
    <nd ref="428146780"/>
    <nd ref="428146857"/>
    <nd ref="428147131"/>
    <nd ref="428147128"/>
    <nd ref="428146784"/>
    <nd ref="428146958"/>
    <nd ref="428147020"/>
    <tag k="addr:city" v="Зеленоград"/>
    <tag k="addr:housenumber" v="425А"/>
    <tag k="addr:street" v="4-й Микрорайон"/>
    <tag k="amenity" v="college"/>
    <tag k="building" v="yes"/>
    <tag k="description" v="Московский Городской Педагогический университет (МГПУ) Педагогический факультет"/>
    <tag k="is_in" v="Russia"/>
    <tag k="name" v="Педучилище"/>
  </way>
  <way id="36830586" version="5" timestamp="2010-04-25T17:52:14Z" uid="115477" user="wowik" changeset="4524343">
    <nd ref="428147020"/>
    <nd ref="428146999"/>
    <nd ref="428146794"/>
    <nd ref="428147049"/>
    <nd ref="428146845"/>
    <nd ref="428146860"/>
    <nd ref="428146780"/>
    <nd ref="428146857"/>
    <nd ref="428147131"/>
    <nd ref="428147128"/>
    <nd ref="428146784"/>
    <nd ref="428146958"/>
    <nd ref="428147020"/>
    <tag k="addr:city" v="Зеленоград"/>
    <tag k="addr:housenumber" v="425А"/>
    <tag k="addr:street" v="4-й Микрорайон"/>
    <tag k="amenity" v="college"/>
    <tag k="building" v="yes"/>
    <tag k="building:levels" v="3"/>
    <tag k="description" v="Московский Городской Педагогический университет (МГПУ) Педагогический факультет"/>
    <tag k="is_in" v="Russia"/>
    <tag k="name" v="Педучилище"/>
  </way>
  <way id="36830587" version="4" timestamp="2010-04-25T17:57:14Z" uid="115477" user="wowik" changeset="4524343">
    <nd ref="428146671"/>
    <nd ref="428146389"/>
    <nd ref="428146487"/>
    <nd ref="428146727"/>
    <nd ref="428146671"/>
    <tag k="addr:city" v="Зеленоград"/>
    <tag k="addr:housenumber" v="447"/>
    <tag k="addr:street" v="4-й Микрорайон"/>
    <tag k="building" v="yes"/>
    <tag k="building:levels" v="9"/>
    <tag k="is_in" v="Russia"/>
  </way>
  <way id="36830588" version="4" timestamp="2010-04-25T17:52:12Z" uid="115477" user="wowik" changeset="4524343">
    <nd ref="428146937"/>
    <nd ref="428146967"/>
    <nd ref="428147060"/>
    <nd ref="428146907"/>
    <nd ref="428146937"/>
    <tag k="addr:city" v="Зеленоград"/>
    <tag k="addr:housenumber" v="424В"/>
    <tag k="addr:street" v="4-й Микрорайон"/>
    <tag k="building" v="yes"/>
    <tag k="building:levels" v="9"/>
    <tag k="is_in" v="Russia"/>
  </way>
  <way id="36830588" version="5" timestamp="2011-01-12T10:25:30Z" uid="115477" user="wowik" changeset="6945653">
    <nd ref="428146937"/>
    <nd ref="428146967"/>
    <nd ref="428147060"/>
    <nd ref="428146907"/>
    <nd ref="428146937"/>
    <tag k="addr:city" v="Зеленоград"/>
    <tag k="addr:housenumber" v="424В"/>
    <tag k="addr:street" v="4-й Микрорайон"/>
    <tag k="building" v="yes"/>
    <tag k="building:levels" v="9"/>
    <tag k="building:use" v="residential"/>
    <tag k="is_in" v="Russia"/>
  </way>
  <way id="36830588" version="6" timestamp="2011-01-12T11:08:41Z" uid="115477" user="wowik" changeset="6945967">
    <nd ref="428146937"/>
    <nd ref="428146967"/>
    <nd ref="428147060"/>
    <nd ref="428146907"/>
    <nd ref="1099602949"/>
    <nd ref="1099603043"/>
    <nd ref="1099602990"/>
    <nd ref="1099603081"/>
    <nd ref="428146937"/>
    <tag k="addr:city" v="Зеленоград"/>
    <tag k="addr:housenumber" v="424В"/>
    <tag k="addr:street" v="4-й Микрорайон"/>
    <tag k="building" v="yes"/>
    <tag k="building:levels" v="9"/>
    <tag k="building:use" v="residential"/>
    <tag k="is_in" v="Russia"/>
  </way>
  <way id="36830589" version="5" timestamp="2010-10-13T17:32:42Z" uid="115477" user="wowik" changeset="6031203">
    <nd ref="428146950"/>
    <nd ref="428146962"/>
    <nd ref="428146887"/>
    <nd ref="428146925"/>
    <nd ref="428146950"/>
    <tag k="addr:city" v="Зеленоград"/>
    <tag k="addr:housenumber" v="452А"/>
    <tag k="addr:street" v="4-й Микрорайон"/>
    <tag k="building" v="yes"/>
    <tag k="building:levels" v="10"/>
    <tag k="is_in" v="Russia"/>
    <tag k="landuse" v="service"/>
  </way>
  <way id="36830589" version="6" timestamp="2010-10-13T17:38:01Z" uid="115477" user="wowik" changeset="6031283">
    <nd ref="428146950"/>
    <nd ref="428146962"/>
    <nd ref="428146887"/>
    <nd ref="428146925"/>
    <nd ref="428146950"/>
    <tag k="addr:city" v="Зеленоград"/>
    <tag k="addr:housenumber" v="452А"/>
    <tag k="addr:street" v="4-й Микрорайон"/>
    <tag k="building" v="yes"/>
    <tag k="building:levels" v="1"/>
    <tag k="is_in" v="Russia"/>
    <tag k="landuse" v="service"/>
  </way>
  <way id="36830589" version="7" timestamp="2011-02-06T14:44:56Z" uid="115477" user="wowik" changeset="7204196">
    <nd ref="428146950"/>
    <nd ref="428146962"/>
    <nd ref="428146887"/>
    <nd ref="428146925"/>
    <nd ref="428146950"/>
    <tag k="addr:city" v="Зеленоград"/>
    <tag k="addr:housenumber" v="452А"/>
    <tag k="addr:street" v="4-й Микрорайон"/>
    <tag k="building" v="yes"/>
    <tag k="building:levels" v="1"/>
    <tag k="is_in" v="Russia"/>
    <tag k="power" v="sub_station"/>
  </way>
  <way id="36830590" version="4" timestamp="2010-04-25T18:00:49Z" uid="115477" user="wowik" changeset="4524343">
    <nd ref="428146379"/>
    <nd ref="428146728"/>
    <nd ref="428146383"/>
    <nd ref="428146745"/>
    <nd ref="428146755"/>
    <nd ref="428146310"/>
    <nd ref="428146241"/>
    <nd ref="428146391"/>
    <nd ref="428146632"/>
    <nd ref="428146381"/>
    <nd ref="428146379"/>
    <tag k="addr:city" v="Зеленоград"/>
    <tag k="addr:housenumber" v="438А"/>
    <tag k="addr:street" v="4-й Микрорайон"/>
    <tag k="amenity" v="bank"/>
    <tag k="building" v="yes"/>
    <tag k="building:levels" v="3"/>
    <tag k="is_in" v="Russia"/>
  </way>
  <way id="36830590" version="5" timestamp="2010-11-08T17:17:09Z" uid="115477" user="wowik" changeset="6322246">
    <nd ref="428146379"/>
    <nd ref="428146728"/>
    <nd ref="982632449"/>
    <nd ref="982632180"/>
    <nd ref="428146383"/>
    <nd ref="428146745"/>
    <nd ref="982632320"/>
    <nd ref="982632247"/>
    <nd ref="982632344"/>
    <nd ref="982632513"/>
    <nd ref="982632420"/>
    <nd ref="982632150"/>
    <nd ref="428146755"/>
    <nd ref="428146310"/>
    <nd ref="428146241"/>
    <nd ref="428146391"/>
    <nd ref="428146632"/>
    <nd ref="982632508"/>
    <nd ref="982632444"/>
    <nd ref="982632173"/>
    <nd ref="982632403"/>
    <nd ref="982632132"/>
    <nd ref="982632339"/>
    <nd ref="428146381"/>
    <nd ref="428146379"/>
    <tag k="addr:city" v="Зеленоград"/>
    <tag k="addr:housenumber" v="438А"/>
    <tag k="addr:street" v="4-й Микрорайон"/>
    <tag k="amenity" v="bank"/>
    <tag k="building" v="yes"/>
    <tag k="building:levels" v="3"/>
    <tag k="is_in" v="Russia"/>
  </way>
  <way id="36830591" version="3" timestamp="2010-01-14T13:45:43Z" uid="115477" user="wowik" changeset="3617052">
    <nd ref="428147089"/>
    <nd ref="428146748"/>
    <nd ref="428146809"/>
    <nd ref="428147139"/>
    <nd ref="428146979"/>
    <nd ref="428146987"/>
    <nd ref="428147074"/>
    <nd ref="428146892"/>
    <nd ref="428146988"/>
    <nd ref="428146918"/>
    <nd ref="428146763"/>
    <nd ref="428146819"/>
    <nd ref="428147089"/>
    <tag k="addr:city" v="Зеленоград"/>
    <tag k="addr:housenumber" v="8А"/>
    <tag k="addr:street" v="Берёзовая аллея"/>
    <tag k="amenity" v="school"/>
    <tag k="building" v="yes"/>
    <tag k="is_in" v="Russia"/>
    <tag k="name" v="школа №1353"/>
  </way>
  <way id="36830591" version="5" timestamp="2010-04-21T10:56:26Z" uid="115477" user="wowik" changeset="4485367">
    <nd ref="428147089"/>
    <nd ref="428146748"/>
    <nd ref="428146809"/>
    <nd ref="428147139"/>
    <nd ref="428146979"/>
    <nd ref="428146987"/>
    <nd ref="428147074"/>
    <nd ref="428146892"/>
    <nd ref="428146988"/>
    <nd ref="428146918"/>
    <nd ref="428146763"/>
    <nd ref="428146819"/>
    <nd ref="428147089"/>
    <tag k="addr:city" v="Зеленоград"/>
    <tag k="addr:housenumber" v="8А"/>
    <tag k="addr:street" v="Берёзовая аллея"/>
    <tag k="amenity" v="school"/>
    <tag k="building" v="yes"/>
    <tag k="cladr:code" v="77000002000084500"/>
    <tag k="description" v="с углубленным изучением английского языка"/>
    <tag k="is_in" v="Russia"/>
    <tag k="name" v="школа №1353"/>
  </way>
  <way id="36830591" version="6" timestamp="2010-04-21T13:17:13Z" uid="115477" user="wowik" changeset="4486364">
    <nd ref="428147089"/>
    <nd ref="428146748"/>
    <nd ref="428146809"/>
    <nd ref="428147139"/>
    <nd ref="428146979"/>
    <nd ref="428146987"/>
    <nd ref="428147074"/>
    <nd ref="428146892"/>
    <nd ref="428146988"/>
    <nd ref="428146918"/>
    <nd ref="428146763"/>
    <nd ref="428146819"/>
    <nd ref="428147089"/>
    <tag k="addr:city" v="Зеленоград"/>
    <tag k="addr:housenumber" v="8А"/>
    <tag k="addr:street" v="Берёзовая аллея"/>
    <tag k="amenity" v="school"/>
    <tag k="building" v="yes"/>
    <tag k="cladr:code" v="77000002000084500"/>
    <tag k="description" v="с углубленным изучением английского языка"/>
    <tag k="is_in" v="Russia"/>
    <tag k="name" v="школа №1353"/>
    <tag k="website" v="http://s1353.zouo.ru"/>
  </way>
  <way id="36830591" version="7" timestamp="2010-04-25T17:51:59Z" uid="115477" user="wowik" changeset="4524343">
    <nd ref="428147089"/>
    <nd ref="428146748"/>
    <nd ref="428146809"/>
    <nd ref="428147139"/>
    <nd ref="428146979"/>
    <nd ref="428146987"/>
    <nd ref="428147074"/>
    <nd ref="428146892"/>
    <nd ref="428146988"/>
    <nd ref="428146918"/>
    <nd ref="428146763"/>
    <nd ref="428146819"/>
    <nd ref="428147089"/>
    <tag k="addr:city" v="Зеленоград"/>
    <tag k="addr:housenumber" v="8А"/>
    <tag k="addr:street" v="Берёзовая аллея"/>
    <tag k="amenity" v="school"/>
    <tag k="building" v="yes"/>
    <tag k="building:levels" v="3"/>
    <tag k="cladr:code" v="77000002000084500"/>
    <tag k="description" v="с углубленным изучением английского языка"/>
    <tag k="is_in" v="Russia"/>
    <tag k="name" v="школа №1353"/>
    <tag k="website" v="http://s1353.zouo.ru"/>
  </way>
  <way id="36830591" version="9" timestamp="2010-11-08T17:16:43Z" uid="115477" user="wowik" changeset="6322246">
    <nd ref="428147089"/>
    <nd ref="428146748"/>
    <nd ref="428146809"/>
    <nd ref="428147139"/>
    <nd ref="428146979"/>
    <nd ref="982632480"/>
    <nd ref="982632215"/>
    <nd ref="428146987"/>
    <nd ref="428147074"/>
    <nd ref="428146892"/>
    <nd ref="428146988"/>
    <nd ref="428146918"/>
    <nd ref="428146763"/>
    <nd ref="982632545"/>
    <nd ref="982632379"/>
    <nd ref="428146819"/>
    <nd ref="428147089"/>
    <tag k="addr:city" v="Зеленоград"/>
    <tag k="addr:housenumber" v="8А"/>
    <tag k="addr:street" v="Берёзовая аллея"/>
    <tag k="amenity" v="school"/>
    <tag k="building" v="yes"/>
    <tag k="building:levels" v="3"/>
    <tag k="cladr:code" v="77000002000084500"/>
    <tag k="description" v="с углубленным изучением английского языка"/>
    <tag k="is_in" v="Russia"/>
    <tag k="name" v="Школа №1353"/>
    <tag k="website" v="http://s1353.zouo.ru"/>
  </way>
  <way id="36830591" version="10" timestamp="2011-04-01T17:48:35Z" uid="115477" user="wowik" changeset="7737524">
    <nd ref="428146979"/>
    <nd ref="428146819"/>
    <nd ref="1228118408"/>
    <nd ref="1228118403"/>
    <nd ref="1228118390"/>
    <nd ref="1228118407"/>
    <nd ref="428147089"/>
    <nd ref="428146748"/>
    <nd ref="1228118387"/>
    <nd ref="428146809"/>
    <nd ref="428147139"/>
    <nd ref="1228118378"/>
    <nd ref="1228118395"/>
    <nd ref="1228118394"/>
    <nd ref="1228118409"/>
    <nd ref="428146979"/>
    <tag k="addr:city" v="Зеленоград"/>
    <tag k="addr:housenumber" v="8А"/>
    <tag k="addr:street" v="Берёзовая аллея"/>
    <tag k="amenity" v="school"/>
    <tag k="building" v="yes"/>
    <tag k="building:levels" v="3"/>
    <tag k="cladr:code" v="77000002000084500"/>
    <tag k="description" v="с углубленным изучением английского языка"/>
    <tag k="is_in" v="Russia"/>
    <tag k="name" v="Школа №1353"/>
    <tag k="website" v="http://s1353.zouo.ru"/>
  </way>
  <way id="36830592" version="4" timestamp="2010-04-25T17:52:27Z" uid="115477" user="wowik" changeset="4524343">
    <nd ref="428147148"/>
    <nd ref="428147126"/>
    <nd ref="428146864"/>
    <nd ref="428146848"/>
    <nd ref="428147148"/>
    <tag k="addr:city" v="Зеленоград"/>
    <tag k="addr:housenumber" v="9"/>
    <tag k="addr:street" v="Берёзовая аллея"/>
    <tag k="building" v="yes"/>
    <tag k="building:levels" v="10"/>
    <tag k="cladr:code" v="77000002000084500"/>
    <tag k="is_in" v="Russia"/>
  </way>
  <way id="36830592" version="5" timestamp="2011-01-12T10:25:42Z" uid="115477" user="wowik" changeset="6945653">
    <nd ref="428147148"/>
    <nd ref="428147126"/>
    <nd ref="428146864"/>
    <nd ref="428146848"/>
    <nd ref="428147148"/>
    <tag k="addr:city" v="Зеленоград"/>
    <tag k="addr:housenumber" v="9"/>
    <tag k="addr:street" v="Берёзовая аллея"/>
    <tag k="building" v="yes"/>
    <tag k="building:levels" v="10"/>
    <tag k="building:use" v="residential"/>
    <tag k="cladr:code" v="77000002000084500"/>
    <tag k="is_in" v="Russia"/>
  </way>
  <way id="36830592" version="6" timestamp="2011-01-12T10:37:13Z" uid="115477" user="wowik" changeset="6945760"/>
  <way id="36830593" version="4" timestamp="2010-04-25T17:52:34Z" uid="115477" user="wowik" changeset="4524343">
    <nd ref="428146802"/>
    <nd ref="428146866"/>
    <nd ref="428146932"/>
    <nd ref="428146742"/>
    <nd ref="428146802"/>
    <tag k="addr:city" v="Зеленоград"/>
    <tag k="addr:housenumber" v="424"/>
    <tag k="addr:street" v="4-й Микрорайон"/>
    <tag k="building" v="yes"/>
    <tag k="building:levels" v="9"/>
    <tag k="is_in" v="Russia"/>
  </way>
  <way id="36830593" version="5" timestamp="2011-01-12T10:25:29Z" uid="115477" user="wowik" changeset="6945653">
    <nd ref="428146802"/>
    <nd ref="428146866"/>
    <nd ref="428146932"/>
    <nd ref="428146742"/>
    <nd ref="428146802"/>
    <tag k="addr:city" v="Зеленоград"/>
    <tag k="addr:housenumber" v="424"/>
    <tag k="addr:street" v="4-й Микрорайон"/>
    <tag k="building" v="yes"/>
    <tag k="building:levels" v="9"/>
    <tag k="building:use" v="residential"/>
    <tag k="is_in" v="Russia"/>
  </way>
  <way id="36830593" version="6" timestamp="2011-01-12T11:08:40Z" uid="115477" user="wowik" changeset="6945967">
    <nd ref="428146802"/>
    <nd ref="428146866"/>
    <nd ref="428146932"/>
    <nd ref="1099603061"/>
    <nd ref="428146742"/>
    <nd ref="428146802"/>
    <tag k="addr:city" v="Зеленоград"/>
    <tag k="addr:housenumber" v="424"/>
    <tag k="addr:street" v="4-й Микрорайон"/>
    <tag k="building" v="yes"/>
    <tag k="building:levels" v="9"/>
    <tag k="building:use" v="residential"/>
    <tag k="is_in" v="Russia"/>
  </way>
  <way id="36830594" version="4" timestamp="2010-04-25T17:56:58Z" uid="115477" user="wowik" changeset="4524343">
    <nd ref="428146754"/>
    <nd ref="428146588"/>
    <nd ref="428146278"/>
    <nd ref="428146575"/>
    <nd ref="428146754"/>
    <tag k="addr:city" v="Зеленоград"/>
    <tag k="addr:housenumber" v="403"/>
    <tag k="addr:street" v="4-й Микрорайон"/>
    <tag k="building" v="yes"/>
    <tag k="building:levels" v="9"/>
    <tag k="is_in" v="Russia"/>
  </way>
  <way id="36830594" version="5" timestamp="2010-11-30T16:56:54Z" uid="115477" user="wowik" changeset="6495856">
    <nd ref="428146754"/>
    <nd ref="428146588"/>
    <nd ref="428146278"/>
    <nd ref="428146575"/>
    <nd ref="428146754"/>
    <tag k="addr:city" v="Зеленоград"/>
    <tag k="addr:country" v="RU"/>
    <tag k="addr:housenumber" v="403"/>
    <tag k="addr:region" v="Москва"/>
    <tag k="addr:street" v="4-й Микрорайон"/>
    <tag k="building" v="yes"/>
    <tag k="building:levels" v="9"/>
    <tag k="is_in" v="Russia"/>
  </way>
  <way id="36830594" version="6" timestamp="2011-01-12T10:25:18Z" uid="115477" user="wowik" changeset="6945653">
    <nd ref="428146754"/>
    <nd ref="428146588"/>
    <nd ref="428146278"/>
    <nd ref="428146575"/>
    <nd ref="428146754"/>
    <tag k="addr:city" v="Зеленоград"/>
    <tag k="addr:country" v="RU"/>
    <tag k="addr:housenumber" v="403"/>
    <tag k="addr:region" v="Москва"/>
    <tag k="addr:street" v="4-й Микрорайон"/>
    <tag k="building" v="yes"/>
    <tag k="building:levels" v="9"/>
    <tag k="building:use" v="residential"/>
    <tag k="is_in" v="Russia"/>
  </way>
  <way id="36830594" version="7" timestamp="2011-01-12T11:20:33Z" uid="115477" user="wowik" changeset="6946036">
    <nd ref="428146754"/>
    <nd ref="1099613488"/>
    <nd ref="1099613485"/>
    <nd ref="1099613475"/>
    <nd ref="1099613477"/>
    <nd ref="1099613484"/>
    <nd ref="1099613480"/>
    <nd ref="428146588"/>
    <nd ref="428146278"/>
    <nd ref="428146575"/>
    <nd ref="428146754"/>
    <tag k="addr:city" v="Зеленоград"/>
    <tag k="addr:country" v="RU"/>
    <tag k="addr:housenumber" v="403"/>
    <tag k="addr:region" v="Москва"/>
    <tag k="addr:street" v="4-й Микрорайон"/>
    <tag k="building" v="yes"/>
    <tag k="building:levels" v="9"/>
    <tag k="building:use" v="residential"/>
    <tag k="is_in" v="Russia"/>
  </way>
  <way id="36830595" version="4" timestamp="2010-04-25T17:52:22Z" uid="115477" user="wowik" changeset="4524343">
    <nd ref="428146931"/>
    <nd ref="428146910"/>
    <nd ref="428146807"/>
    <nd ref="428146822"/>
    <nd ref="428146931"/>
    <tag k="addr:city" v="Зеленоград"/>
    <tag k="addr:housenumber" v="3"/>
    <tag k="addr:street" v="Берёзовая аллея"/>
    <tag k="building" v="yes"/>
    <tag k="building:levels" v="9"/>
    <tag k="cladr:code" v="77000002000084500"/>
    <tag k="is_in" v="Russia"/>
  </way>
  <way id="36830595" version="5" timestamp="2011-01-12T10:25:07Z" uid="115477" user="wowik" changeset="6945653">
    <nd ref="428146931"/>
    <nd ref="428146910"/>
    <nd ref="428146807"/>
    <nd ref="428146822"/>
    <nd ref="428146931"/>
    <tag k="addr:city" v="Зеленоград"/>
    <tag k="addr:housenumber" v="3"/>
    <tag k="addr:street" v="Берёзовая аллея"/>
    <tag k="building" v="yes"/>
    <tag k="building:levels" v="9"/>
    <tag k="building:use" v="residential"/>
    <tag k="cladr:code" v="77000002000084500"/>
    <tag k="is_in" v="Russia"/>
  </way>
  <way id="36830595" version="6" timestamp="2011-01-12T11:08:36Z" uid="115477" user="wowik" changeset="6945967">
    <nd ref="428146931"/>
    <nd ref="428146910"/>
    <nd ref="428146807"/>
    <nd ref="1099603075"/>
    <nd ref="428146822"/>
    <nd ref="428146931"/>
    <tag k="addr:city" v="Зеленоград"/>
    <tag k="addr:housenumber" v="3"/>
    <tag k="addr:street" v="Берёзовая аллея"/>
    <tag k="building" v="yes"/>
    <tag k="building:levels" v="9"/>
    <tag k="building:use" v="residential"/>
    <tag k="cladr:code" v="77000002000084500"/>
    <tag k="is_in" v="Russia"/>
  </way>
  <way id="36830596" version="5" timestamp="2010-12-20T14:45:33Z" uid="115477" user="wowik" changeset="6716627">
    <nd ref="428146820"/>
    <nd ref="428146816"/>
    <nd ref="428147001"/>
    <nd ref="428146739"/>
    <nd ref="428146820"/>
    <tag k="addr:city" v="Зеленоград"/>
    <tag k="addr:housenumber" v="448Б"/>
    <tag k="addr:street" v="4-й Микрорайон"/>
    <tag k="building" v="yes"/>
    <tag k="building:levels" v="1"/>
    <tag k="is_in" v="Russia"/>
    <tag k="landuse" v="service"/>
  </way>
  <way id="36830596" version="6" timestamp="2011-06-01T15:32:30Z" uid="115477" user="wowik" changeset="8310580">
    <nd ref="428146820"/>
    <nd ref="428146816"/>
    <nd ref="428147001"/>
    <nd ref="428146739"/>
    <nd ref="428146820"/>
    <tag k="addr:city" v="Зеленоград"/>
    <tag k="addr:country" v="RU"/>
    <tag k="addr:housenumber" v="456А"/>
    <tag k="addr:street" v="4-й Микрорайон"/>
    <tag k="building" v="yes"/>
    <tag k="building:levels" v="1"/>
    <tag k="is_in" v="Russia"/>
    <tag k="landuse" v="service"/>
  </way>
  <way id="36830597" version="4" timestamp="2010-04-21T10:36:32Z" uid="115477" user="wowik" changeset="4485166">
    <nd ref="428146494"/>
    <nd ref="428146408"/>
    <nd ref="428146725"/>
    <nd ref="428146554"/>
    <nd ref="428146494"/>
    <tag k="addr:city" v="Зеленоград"/>
    <tag k="addr:housenumber" v="445А"/>
    <tag k="addr:street" v="4-й Микрорайон"/>
    <tag k="amenity" v="kindergarten"/>
    <tag k="building" v="yes"/>
    <tag k="description" v="№ 860 Детский сад (с ясельными группами)"/>
    <tag k="is_in" v="Russia"/>
    <tag k="name" v="д/с № 860"/>
  </way>
  <way id="36830597" version="5" timestamp="2010-04-21T10:43:16Z" uid="115477" user="wowik" changeset="4485166">
    <nd ref="428146494"/>
    <nd ref="428146408"/>
    <nd ref="428146725"/>
    <nd ref="428146554"/>
    <nd ref="428146494"/>
    <tag k="addr:city" v="Зеленоград"/>
    <tag k="addr:housenumber" v="445А"/>
    <tag k="addr:street" v="4-й Микрорайон"/>
    <tag k="amenity" v="kindergarten"/>
    <tag k="building" v="yes"/>
    <tag k="description" v="с яслями"/>
    <tag k="is_in" v="Russia"/>
    <tag k="name" v="д/с № 860"/>
  </way>
  <way id="36830597" version="6" timestamp="2010-04-21T13:15:56Z" uid="115477" user="wowik" changeset="4486364">
    <nd ref="428146494"/>
    <nd ref="428146408"/>
    <nd ref="428146725"/>
    <nd ref="428146554"/>
    <nd ref="428146494"/>
    <tag k="addr:city" v="Зеленоград"/>
    <tag k="addr:housenumber" v="445А"/>
    <tag k="addr:street" v="4-й Микрорайон"/>
    <tag k="amenity" v="kindergarten"/>
    <tag k="building" v="yes"/>
    <tag k="description" v="с яслями"/>
    <tag k="is_in" v="Russia"/>
    <tag k="name" v="д/с №860"/>
  </way>
  <way id="36830597" version="7" timestamp="2010-04-25T17:57:21Z" uid="115477" user="wowik" changeset="4524343">
    <nd ref="428146494"/>
    <nd ref="428146408"/>
    <nd ref="428146725"/>
    <nd ref="428146554"/>
    <nd ref="428146494"/>
    <tag k="addr:city" v="Зеленоград"/>
    <tag k="addr:housenumber" v="445А"/>
    <tag k="addr:street" v="4-й Микрорайон"/>
    <tag k="amenity" v="kindergarten"/>
    <tag k="building" v="yes"/>
    <tag k="building:levels" v="3"/>
    <tag k="description" v="с яслями"/>
    <tag k="is_in" v="Russia"/>
    <tag k="name" v="д/с №860"/>
  </way>
  <way id="36830597" version="9" timestamp="2010-11-08T17:16:47Z" uid="115477" user="wowik" changeset="6322246">
    <nd ref="428146494"/>
    <nd ref="428146408"/>
    <nd ref="428146725"/>
    <nd ref="428146554"/>
    <nd ref="982632409"/>
    <nd ref="982632236"/>
    <nd ref="982632423"/>
    <nd ref="982632156"/>
    <nd ref="428146494"/>
    <tag k="addr:city" v="Зеленоград"/>
    <tag k="addr:housenumber" v="445А"/>
    <tag k="addr:street" v="4-й Микрорайон"/>
    <tag k="amenity" v="kindergarten"/>
    <tag k="building" v="yes"/>
    <tag k="building:levels" v="3"/>
    <tag k="description" v="с яслями"/>
    <tag k="is_in" v="Russia"/>
    <tag k="name" v="Детский сад №860"/>
  </way>
  <way id="36830598" version="4" timestamp="2010-04-21T10:59:29Z" uid="115477" user="wowik" changeset="4485367">
    <nd ref="428146863"/>
    <nd ref="428146814"/>
    <nd ref="428146942"/>
    <nd ref="428147135"/>
    <nd ref="428146863"/>
    <tag k="addr:city" v="Зеленоград"/>
    <tag k="addr:housenumber" v="421А"/>
    <tag k="addr:street" v="4-й Микрорайон"/>
    <tag k="amenity" v="school"/>
    <tag k="building" v="yes"/>
    <tag k="description" v="негосударственное общеобразовательное учреждение"/>
    <tag k="is_in" v="Russia"/>
    <tag k="name" v="Гармония"/>
  </way>
  <way id="36830598" version="5" timestamp="2010-05-06T07:34:07Z" uid="115477" user="wowik" changeset="4619162">
    <nd ref="428146863"/>
    <nd ref="428146814"/>
    <nd ref="428146942"/>
    <nd ref="428147135"/>
    <nd ref="428146863"/>
    <tag k="addr:city" v="Зеленоград"/>
    <tag k="addr:housenumber" v="421А"/>
    <tag k="addr:street" v="4-й Микрорайон"/>
    <tag k="amenity" v="school"/>
    <tag k="building" v="yes"/>
    <tag k="building:levels" v="3"/>
    <tag k="description" v="негосударственное общеобразовательное учреждение"/>
    <tag k="is_in" v="Russia"/>
    <tag k="name" v="Гармония"/>
  </way>
  <way id="36830598" version="7" timestamp="2010-11-08T17:16:40Z" uid="115477" user="wowik" changeset="6322246">
    <nd ref="428146863"/>
    <nd ref="428146814"/>
    <nd ref="428146942"/>
    <nd ref="428147135"/>
    <nd ref="982632439"/>
    <nd ref="982632267"/>
    <nd ref="982632366"/>
    <nd ref="982632534"/>
    <nd ref="428146863"/>
    <tag k="addr:city" v="Зеленоград"/>
    <tag k="addr:housenumber" v="421А"/>
    <tag k="addr:street" v="4-й Микрорайон"/>
    <tag k="amenity" v="school"/>
    <tag k="building" v="yes"/>
    <tag k="building:levels" v="3"/>
    <tag k="description" v="негосударственное общеобразовательное учреждение"/>
    <tag k="is_in" v="Russia"/>
    <tag k="name" v="Школа Гармония"/>
  </way>
  <way id="36830599" version="4" timestamp="2010-04-25T17:52:39Z" uid="115477" user="wowik" changeset="4524343">
    <nd ref="428146859"/>
    <nd ref="428146777"/>
    <nd ref="428147070"/>
    <nd ref="428147122"/>
    <nd ref="428146859"/>
    <tag k="addr:city" v="Зеленоград"/>
    <tag k="addr:housenumber" v="424А"/>
    <tag k="addr:street" v="4-й Микрорайон"/>
    <tag k="building" v="yes"/>
    <tag k="building:levels" v="9"/>
    <tag k="is_in" v="Russia"/>
  </way>
  <way id="36830599" version="5" timestamp="2011-01-12T10:25:36Z" uid="115477" user="wowik" changeset="6945653">
    <nd ref="428146859"/>
    <nd ref="428146777"/>
    <nd ref="428147070"/>
    <nd ref="428147122"/>
    <nd ref="428146859"/>
    <tag k="addr:city" v="Зеленоград"/>
    <tag k="addr:housenumber" v="424А"/>
    <tag k="addr:street" v="4-й Микрорайон"/>
    <tag k="building" v="yes"/>
    <tag k="building:levels" v="9"/>
    <tag k="building:use" v="residential"/>
    <tag k="is_in" v="Russia"/>
  </way>
  <way id="36830599" version="6" timestamp="2011-01-12T11:08:42Z" uid="115477" user="wowik" changeset="6945967">
    <nd ref="428146859"/>
    <nd ref="428146777"/>
    <nd ref="428147070"/>
    <nd ref="1099603002"/>
    <nd ref="428147122"/>
    <nd ref="1099603067"/>
    <nd ref="1099602998"/>
    <nd ref="1099603024"/>
    <nd ref="1099603036"/>
    <nd ref="428146859"/>
    <tag k="addr:city" v="Зеленоград"/>
    <tag k="addr:housenumber" v="424А"/>
    <tag k="addr:street" v="4-й Микрорайон"/>
    <tag k="building" v="yes"/>
    <tag k="building:levels" v="9"/>
    <tag k="building:use" v="residential"/>
    <tag k="is_in" v="Russia"/>
  </way>
  <way id="36830600" version="4" timestamp="2010-04-25T17:57:27Z" uid="115477" user="wowik" changeset="4524343">
    <nd ref="428146492"/>
    <nd ref="428146410"/>
    <nd ref="428146240"/>
    <nd ref="428146338"/>
    <nd ref="428146492"/>
    <tag k="addr:city" v="Зеленоград"/>
    <tag k="addr:housenumber" v="442"/>
    <tag k="addr:street" v="4-й Микрорайон"/>
    <tag k="building" v="yes"/>
    <tag k="building:levels" v="9"/>
    <tag k="is_in" v="Russia"/>
  </way>
  <way id="36830600" version="5" timestamp="2011-01-12T10:24:48Z" uid="115477" user="wowik" changeset="6945653">
    <nd ref="428146492"/>
    <nd ref="428146410"/>
    <nd ref="428146240"/>
    <nd ref="428146338"/>
    <nd ref="428146492"/>
    <tag k="addr:city" v="Зеленоград"/>
    <tag k="addr:housenumber" v="442"/>
    <tag k="addr:street" v="4-й Микрорайон"/>
    <tag k="building" v="yes"/>
    <tag k="building:levels" v="9"/>
    <tag k="building:use" v="residential"/>
    <tag k="is_in" v="Russia"/>
  </way>
  <way id="36830601" version="4" timestamp="2010-10-13T17:38:02Z" uid="115477" user="wowik" changeset="6031283">
    <nd ref="428146867"/>
    <nd ref="428146767"/>
    <nd ref="428147153"/>
    <nd ref="428146922"/>
    <nd ref="428146867"/>
    <tag k="addr:city" v="Зеленоград"/>
    <tag k="addr:housenumber" v="417"/>
    <tag k="addr:street" v="4-й Микрорайон"/>
    <tag k="building" v="yes"/>
    <tag k="building:levels" v="10"/>
    <tag k="is_in" v="Russia"/>
  </way>
  <way id="36830601" version="5" timestamp="2011-01-12T10:25:48Z" uid="115477" user="wowik" changeset="6945653">
    <nd ref="428146867"/>
    <nd ref="428146767"/>
    <nd ref="428147153"/>
    <nd ref="428146922"/>
    <nd ref="428146867"/>
    <tag k="addr:city" v="Зеленоград"/>
    <tag k="addr:housenumber" v="417"/>
    <tag k="addr:street" v="4-й Микрорайон"/>
    <tag k="building" v="yes"/>
    <tag k="building:levels" v="10"/>
    <tag k="building:use" v="residential"/>
    <tag k="is_in" v="Russia"/>
  </way>
  <way id="36830601" version="6" timestamp="2011-01-14T11:07:20Z" uid="115477" user="wowik" changeset="6966068">
    <nd ref="428146867"/>
    <nd ref="428146767"/>
    <nd ref="428147153"/>
    <nd ref="428146922"/>
    <nd ref="1103090169"/>
    <nd ref="1103090159"/>
    <nd ref="428146867"/>
    <tag k="addr:city" v="Зеленоград"/>
    <tag k="addr:housenumber" v="417"/>
    <tag k="addr:street" v="4-й Микрорайон"/>
    <tag k="building" v="yes"/>
    <tag k="building:levels" v="10"/>
    <tag k="building:use" v="residential"/>
    <tag k="is_in" v="Russia"/>
  </way>
  <way id="36830602" version="4" timestamp="2010-04-21T13:15:59Z" uid="115477" user="wowik" changeset="4486364">
    <nd ref="428146960"/>
    <nd ref="428146893"/>
    <nd ref="428147041"/>
    <nd ref="428146827"/>
    <nd ref="428146960"/>
    <tag k="addr:city" v="Зеленоград"/>
    <tag k="addr:housenumber" v="9А"/>
    <tag k="addr:street" v="Берёзовая аллея"/>
    <tag k="amenity" v="school"/>
    <tag k="building" v="yes"/>
    <tag k="cladr:code" v="77000002000084500"/>
    <tag k="depth" v="Начальная школа Здоровья"/>
    <tag k="is_in" v="Russia"/>
    <tag k="name" v="школа №1703"/>
  </way>
  <way id="36830602" version="5" timestamp="2010-04-21T13:17:12Z" uid="115477" user="wowik" changeset="4486364">
    <nd ref="428146960"/>
    <nd ref="428146893"/>
    <nd ref="428147041"/>
    <nd ref="428146827"/>
    <nd ref="428146960"/>
    <tag k="addr:city" v="Зеленоград"/>
    <tag k="addr:housenumber" v="9А"/>
    <tag k="addr:street" v="Берёзовая аллея"/>
    <tag k="amenity" v="school"/>
    <tag k="building" v="yes"/>
    <tag k="cladr:code" v="77000002000084500"/>
    <tag k="depth" v="Начальная школа Здоровья"/>
    <tag k="is_in" v="Russia"/>
    <tag k="name" v="школа №1703"/>
    <tag k="website" v="http://s1703.zouo.ru"/>
  </way>
  <way id="36830602" version="6" timestamp="2010-04-25T17:52:01Z" uid="115477" user="wowik" changeset="4524343">
    <nd ref="428146960"/>
    <nd ref="428146893"/>
    <nd ref="428147041"/>
    <nd ref="428146827"/>
    <nd ref="428146960"/>
    <tag k="addr:city" v="Зеленоград"/>
    <tag k="addr:housenumber" v="9А"/>
    <tag k="addr:street" v="Берёзовая аллея"/>
    <tag k="amenity" v="school"/>
    <tag k="building" v="yes"/>
    <tag k="building:levels" v="3"/>
    <tag k="cladr:code" v="77000002000084500"/>
    <tag k="depth" v="Начальная школа Здоровья"/>
    <tag k="is_in" v="Russia"/>
    <tag k="name" v="школа №1703"/>
    <tag k="website" v="http://s1703.zouo.ru"/>
  </way>
  <way id="36830602" version="8" timestamp="2010-11-08T17:17:00Z" uid="115477" user="wowik" changeset="6322246">
    <nd ref="428146960"/>
    <nd ref="428146893"/>
    <nd ref="428147041"/>
    <nd ref="428146827"/>
    <nd ref="982632369"/>
    <nd ref="982632202"/>
    <nd ref="982632296"/>
    <nd ref="982632470"/>
    <nd ref="428146960"/>
    <tag k="addr:city" v="Зеленоград"/>
    <tag k="addr:housenumber" v="9А"/>
    <tag k="addr:street" v="Берёзовая аллея"/>
    <tag k="amenity" v="school"/>
    <tag k="building" v="yes"/>
    <tag k="building:levels" v="3"/>
    <tag k="cladr:code" v="77000002000084500"/>
    <tag k="depth" v="Начальная школа Здоровья"/>
    <tag k="is_in" v="Russia"/>
    <tag k="name" v="Школа №1703"/>
    <tag k="website" v="http://s1703.zouo.ru"/>
  </way>
  <way id="36830602" version="9" timestamp="2010-11-13T10:59:44Z" uid="115477" user="wowik" changeset="6356871">
    <nd ref="428146960"/>
    <nd ref="428146893"/>
    <nd ref="428147041"/>
    <nd ref="428146827"/>
    <nd ref="982632369"/>
    <nd ref="982632202"/>
    <nd ref="982632296"/>
    <nd ref="982632470"/>
    <nd ref="428146960"/>
    <tag k="addr:city" v="Зеленоград"/>
    <tag k="addr:housenumber" v="9А"/>
    <tag k="addr:street" v="Берёзовая аллея"/>
    <tag k="amenity" v="school"/>
    <tag k="building" v="yes"/>
    <tag k="building:levels" v="3"/>
    <tag k="cladr:code" v="77000002000084500"/>
    <tag k="description" v="Начальная школа Здоровья"/>
    <tag k="is_in" v="Russia"/>
    <tag k="name" v="Школа №1703"/>
    <tag k="website" v="http://s1703.zouo.ru"/>
  </way>
  <way id="36830603" version="3" timestamp="2009-08-02T19:12:13Z" uid="115477" user="wowik" changeset="2018495">
    <nd ref="428146244"/>
    <nd ref="454599273"/>
    <nd ref="428146235"/>
    <nd ref="428146239"/>
    <nd ref="454599274"/>
    <nd ref="428146509"/>
    <nd ref="428146244"/>
    <tag k="addr:city" v="Зеленоград"/>
    <tag k="addr:housenumber" v="440"/>
    <tag k="addr:street" v="4-й микрорайон"/>
    <tag k="building" v="yes"/>
    <tag k="is_in" v="Russia"/>
  </way>
  <way id="36830603" version="5" timestamp="2010-04-25T17:57:19Z" uid="115477" user="wowik" changeset="4524343">
    <nd ref="428146244"/>
    <nd ref="454599273"/>
    <nd ref="428146235"/>
    <nd ref="428146239"/>
    <nd ref="454599274"/>
    <nd ref="428146509"/>
    <nd ref="428146244"/>
    <tag k="addr:city" v="Зеленоград"/>
    <tag k="addr:housenumber" v="440"/>
    <tag k="addr:street" v="4-й Микрорайон"/>
    <tag k="building" v="yes"/>
    <tag k="building:levels" v="9"/>
    <tag k="is_in" v="Russia"/>
  </way>
  <way id="36830603" version="6" timestamp="2011-01-12T10:25:22Z" uid="115477" user="wowik" changeset="6945653">
    <nd ref="428146244"/>
    <nd ref="454599273"/>
    <nd ref="428146235"/>
    <nd ref="428146239"/>
    <nd ref="454599274"/>
    <nd ref="428146509"/>
    <nd ref="428146244"/>
    <tag k="addr:city" v="Зеленоград"/>
    <tag k="addr:housenumber" v="440"/>
    <tag k="addr:street" v="4-й Микрорайон"/>
    <tag k="building" v="yes"/>
    <tag k="building:levels" v="9"/>
    <tag k="building:use" v="residential"/>
    <tag k="is_in" v="Russia"/>
  </way>
  <way id="36830604" version="4" timestamp="2010-04-25T17:52:11Z" uid="115477" user="wowik" changeset="4524343">
    <nd ref="428146861"/>
    <nd ref="428146880"/>
    <nd ref="428146881"/>
    <nd ref="428147014"/>
    <nd ref="428146861"/>
    <tag k="addr:city" v="Зеленоград"/>
    <tag k="addr:housenumber" v="6А"/>
    <tag k="addr:street" v="Берёзовая аллея"/>
    <tag k="building" v="yes"/>
    <tag k="building:levels" v="10"/>
    <tag k="cladr:code" v="77000002000084500"/>
    <tag k="is_in" v="Russia"/>
  </way>
  <way id="36830604" version="5" timestamp="2011-01-12T10:25:11Z" uid="115477" user="wowik" changeset="6945653">
    <nd ref="428146861"/>
    <nd ref="428146880"/>
    <nd ref="428146881"/>
    <nd ref="428147014"/>
    <nd ref="428146861"/>
    <tag k="addr:city" v="Зеленоград"/>
    <tag k="addr:housenumber" v="6А"/>
    <tag k="addr:street" v="Берёзовая аллея"/>
    <tag k="building" v="yes"/>
    <tag k="building:levels" v="10"/>
    <tag k="building:use" v="residential"/>
    <tag k="cladr:code" v="77000002000084500"/>
    <tag k="is_in" v="Russia"/>
  </way>
  <way id="36830604" version="6" timestamp="2011-01-12T10:37:12Z" uid="115477" user="wowik" changeset="6945760">
    <nd ref="428146861"/>
    <nd ref="428146880"/>
    <nd ref="428146881"/>
    <nd ref="428147014"/>
    <nd ref="1099564105"/>
    <nd ref="1099564087"/>
    <nd ref="1099564122"/>
    <nd ref="1099564091"/>
    <nd ref="1099564114"/>
    <nd ref="428146861"/>
    <tag k="addr:city" v="Зеленоград"/>
    <tag k="addr:housenumber" v="6А"/>
    <tag k="addr:street" v="Берёзовая аллея"/>
    <tag k="building" v="yes"/>
    <tag k="building:levels" v="10"/>
    <tag k="building:use" v="residential"/>
    <tag k="cladr:code" v="77000002000084500"/>
    <tag k="is_in" v="Russia"/>
  </way>
  <way id="36830605" version="4" timestamp="2010-04-25T17:57:22Z" uid="115477" user="wowik" changeset="4524343">
    <nd ref="428146236"/>
    <nd ref="428146322"/>
    <nd ref="428146314"/>
    <nd ref="428146335"/>
    <nd ref="428146236"/>
    <tag k="addr:city" v="Зеленоград"/>
    <tag k="addr:housenumber" v="446"/>
    <tag k="addr:street" v="4-й Микрорайон"/>
    <tag k="building" v="yes"/>
    <tag k="building:levels" v="9"/>
    <tag k="is_in" v="Russia"/>
  </way>
  <way id="36830605" version="5" timestamp="2010-11-08T17:17:28Z" uid="115477" user="wowik" changeset="6322246">
    <nd ref="428146236"/>
    <nd ref="428146322"/>
    <nd ref="428146314"/>
    <nd ref="428146335"/>
    <nd ref="428146236"/>
    <tag k="addr:city" v="Зеленоград"/>
    <tag k="addr:housenumber" v="446"/>
    <tag k="addr:street" v="4-й Микрорайон"/>
    <tag k="building" v="yes"/>
    <tag k="building:levels" v="9"/>
    <tag k="is_in" v="Russia"/>
  </way>
  <way id="36830605" version="6" timestamp="2010-11-09T13:20:03Z" uid="115477" user="wowik" changeset="6327211">
    <nd ref="428146236"/>
    <nd ref="428146322"/>
    <nd ref="983355647"/>
    <nd ref="983355628"/>
    <nd ref="983355608"/>
    <nd ref="983355629"/>
    <nd ref="428146314"/>
    <nd ref="428146335"/>
    <nd ref="428146236"/>
    <tag k="addr:city" v="Зеленоград"/>
    <tag k="addr:housenumber" v="446"/>
    <tag k="addr:street" v="4-й Микрорайон"/>
    <tag k="building" v="yes"/>
    <tag k="building:levels" v="9"/>
    <tag k="is_in" v="Russia"/>
  </way>
  <way id="36830606" version="4" timestamp="2010-04-15T17:40:54Z" uid="115477" user="wowik" changeset="4432733">
    <nd ref="428146991"/>
    <nd ref="428146936"/>
    <nd ref="428147080"/>
    <nd ref="428147065"/>
    <nd ref="428147155"/>
    <nd ref="428146895"/>
    <nd ref="428146991"/>
    <tag k="addr:city" v="Зеленоград"/>
    <tag k="addr:housenumber" v="419"/>
    <tag k="addr:street" v="4-й Микрорайон"/>
    <tag k="building" v="yes"/>
    <tag k="is_in" v="Russia"/>
  </way>
  <way id="36830606" version="5" timestamp="2010-10-13T17:38:01Z" uid="115477" user="wowik" changeset="6031283">
    <nd ref="428146991"/>
    <nd ref="428146936"/>
    <nd ref="428147080"/>
    <nd ref="428147065"/>
    <nd ref="428147155"/>
    <nd ref="428146895"/>
    <nd ref="428146991"/>
    <tag k="addr:city" v="Зеленоград"/>
    <tag k="addr:housenumber" v="419"/>
    <tag k="addr:street" v="4-й Микрорайон"/>
    <tag k="building" v="yes"/>
    <tag k="building:levels" v="12"/>
    <tag k="is_in" v="Russia"/>
  </way>
  <way id="36830606" version="6" timestamp="2011-01-12T10:24:52Z" uid="115477" user="wowik" changeset="6945653">
    <nd ref="428146991"/>
    <nd ref="428146936"/>
    <nd ref="428147080"/>
    <nd ref="428147065"/>
    <nd ref="428147155"/>
    <nd ref="428146895"/>
    <nd ref="428146991"/>
    <tag k="addr:city" v="Зеленоград"/>
    <tag k="addr:housenumber" v="419"/>
    <tag k="addr:street" v="4-й Микрорайон"/>
    <tag k="building" v="yes"/>
    <tag k="building:levels" v="12"/>
    <tag k="building:use" v="residential"/>
    <tag k="is_in" v="Russia"/>
  </way>
  <way id="36830607" version="4" timestamp="2010-04-21T10:24:57Z" uid="115477" user="wowik" changeset="4485137">
    <nd ref="428147160"/>
    <nd ref="428146956"/>
    <nd ref="428146915"/>
    <nd ref="428147068"/>
    <nd ref="428146885"/>
    <nd ref="428146792"/>
    <nd ref="428147028"/>
    <nd ref="428146900"/>
    <nd ref="428146749"/>
    <nd ref="428147096"/>
    <nd ref="428146896"/>
    <nd ref="428146935"/>
    <nd ref="428147160"/>
    <tag k="addr:city" v="Зеленоград"/>
    <tag k="addr:housenumber" v="429А"/>
    <tag k="addr:street" v="4-й Микрорайон"/>
    <tag k="amenity" v="school"/>
    <tag k="building" v="yes"/>
    <tag k="is_in" v="Russia"/>
    <tag k="name" v="школа № 618"/>
  </way>
  <way id="36830607" version="5" timestamp="2010-04-21T13:16:00Z" uid="115477" user="wowik" changeset="4486364">
    <nd ref="428147160"/>
    <nd ref="428146956"/>
    <nd ref="428146915"/>
    <nd ref="428147068"/>
    <nd ref="428146885"/>
    <nd ref="428146792"/>
    <nd ref="428147028"/>
    <nd ref="428146900"/>
    <nd ref="428146749"/>
    <nd ref="428147096"/>
    <nd ref="428146896"/>
    <nd ref="428146935"/>
    <nd ref="428147160"/>
    <tag k="addr:city" v="Зеленоград"/>
    <tag k="addr:housenumber" v="429А"/>
    <tag k="addr:street" v="4-й Микрорайон"/>
    <tag k="amenity" v="school"/>
    <tag k="building" v="yes"/>
    <tag k="is_in" v="Russia"/>
    <tag k="name" v="школа №618"/>
  </way>
  <way id="36830607" version="6" timestamp="2010-04-25T17:51:37Z" uid="115477" user="wowik" changeset="4524343">
    <nd ref="428147160"/>
    <nd ref="428146956"/>
    <nd ref="428146915"/>
    <nd ref="428147068"/>
    <nd ref="428146885"/>
    <nd ref="428146792"/>
    <nd ref="428147028"/>
    <nd ref="428146900"/>
    <nd ref="428146749"/>
    <nd ref="428147096"/>
    <nd ref="428146896"/>
    <nd ref="428146935"/>
    <nd ref="428147160"/>
    <tag k="addr:city" v="Зеленоград"/>
    <tag k="addr:housenumber" v="429А"/>
    <tag k="addr:street" v="4-й Микрорайон"/>
    <tag k="amenity" v="school"/>
    <tag k="building" v="yes"/>
    <tag k="building:levels" v="3"/>
    <tag k="is_in" v="Russia"/>
    <tag k="name" v="школа №618"/>
  </way>
  <way id="36830607" version="8" timestamp="2010-11-08T17:16:53Z" uid="115477" user="wowik" changeset="6322246">
    <nd ref="428147160"/>
    <nd ref="428146956"/>
    <nd ref="428146915"/>
    <nd ref="428147068"/>
    <nd ref="428146885"/>
    <nd ref="982632494"/>
    <nd ref="982632260"/>
    <nd ref="428146792"/>
    <nd ref="428147028"/>
    <nd ref="428146900"/>
    <nd ref="428146749"/>
    <nd ref="428147096"/>
    <nd ref="428146896"/>
    <nd ref="982632124"/>
    <nd ref="982632276"/>
    <nd ref="428146935"/>
    <nd ref="428147160"/>
    <tag k="addr:city" v="Зеленоград"/>
    <tag k="addr:housenumber" v="429А"/>
    <tag k="addr:street" v="4-й Микрорайон"/>
    <tag k="amenity" v="school"/>
    <tag k="building" v="yes"/>
    <tag k="building:levels" v="3"/>
    <tag k="is_in" v="Russia"/>
    <tag k="name" v="Школа №618"/>
  </way>
  <way id="36830610" version="4" timestamp="2010-04-25T17:57:38Z" uid="115477" user="wowik" changeset="4524343">
    <nd ref="428146464"/>
    <nd ref="428146245"/>
    <nd ref="428146665"/>
    <nd ref="428146525"/>
    <nd ref="428146464"/>
    <tag k="addr:city" v="Зеленоград"/>
    <tag k="addr:housenumber" v="410"/>
    <tag k="addr:street" v="4-й Микрорайон"/>
    <tag k="building" v="yes"/>
    <tag k="building:levels" v="9"/>
    <tag k="is_in" v="Russia"/>
  </way>
  <way id="36830610" version="5" timestamp="2011-01-12T10:24:48Z" uid="115477" user="wowik" changeset="6945653">
    <nd ref="428146464"/>
    <nd ref="428146245"/>
    <nd ref="428146665"/>
    <nd ref="428146525"/>
    <nd ref="428146464"/>
    <tag k="addr:city" v="Зеленоград"/>
    <tag k="addr:housenumber" v="410"/>
    <tag k="addr:street" v="4-й Микрорайон"/>
    <tag k="building" v="yes"/>
    <tag k="building:levels" v="9"/>
    <tag k="building:use" v="residential"/>
    <tag k="is_in" v="Russia"/>
  </way>
  <way id="36830610" version="6" timestamp="2011-01-12T11:08:33Z" uid="115477" user="wowik" changeset="6945967">
    <nd ref="428146464"/>
    <nd ref="428146245"/>
    <nd ref="1099603082"/>
    <nd ref="428146665"/>
    <nd ref="1099603053"/>
    <nd ref="1099603050"/>
    <nd ref="1099603074"/>
    <nd ref="1099602977"/>
    <nd ref="428146525"/>
    <nd ref="428146464"/>
    <tag k="addr:city" v="Зеленоград"/>
    <tag k="addr:housenumber" v="410"/>
    <tag k="addr:street" v="4-й Микрорайон"/>
    <tag k="building" v="yes"/>
    <tag k="building:levels" v="9"/>
    <tag k="building:use" v="residential"/>
    <tag k="is_in" v="Russia"/>
  </way>
  <way id="36830611" version="4" timestamp="2010-04-25T17:57:03Z" uid="115477" user="wowik" changeset="4524343">
    <nd ref="428146771"/>
    <nd ref="428146804"/>
    <nd ref="428146921"/>
    <nd ref="428146903"/>
    <nd ref="428146771"/>
    <tag k="addr:city" v="Зеленоград"/>
    <tag k="addr:housenumber" v="449"/>
    <tag k="addr:street" v="4-й Микрорайон"/>
    <tag k="building" v="yes"/>
    <tag k="building:levels" v="12"/>
    <tag k="is_in" v="Russia"/>
  </way>
  <way id="36830613" version="4" timestamp="2010-10-13T17:38:02Z" uid="115477" user="wowik" changeset="6031283">
    <nd ref="428147025"/>
    <nd ref="428147013"/>
    <nd ref="428147076"/>
    <nd ref="428146906"/>
    <nd ref="428146971"/>
    <nd ref="428146743"/>
    <nd ref="428147025"/>
    <tag k="addr:city" v="Зеленоград"/>
    <tag k="addr:housenumber" v="418"/>
    <tag k="addr:street" v="4-й Микрорайон"/>
    <tag k="building" v="yes"/>
    <tag k="building:levels" v="12"/>
    <tag k="is_in" v="Russia"/>
  </way>
  <way id="36830613" version="7" timestamp="2011-01-12T10:25:25Z" uid="115477" user="wowik" changeset="6945653">
    <nd ref="428147025"/>
    <nd ref="428147013"/>
    <nd ref="428147076"/>
    <nd ref="428146906"/>
    <nd ref="428147025"/>
    <tag k="addr:city" v="Зеленоград"/>
    <tag k="addr:housenumber" v="418"/>
    <tag k="addr:street" v="4-й Микрорайон"/>
    <tag k="building" v="yes"/>
    <tag k="building:levels" v="14"/>
    <tag k="building:use" v="residential"/>
    <tag k="is_in" v="Russia"/>
  </way>
  <way id="36830614" version="5" timestamp="2010-04-16T08:21:09Z" uid="115477" user="wowik" changeset="4436740">
    <nd ref="428146667"/>
    <nd ref="428146603"/>
    <nd ref="428146566"/>
    <nd ref="428146238"/>
    <nd ref="428146667"/>
    <tag k="addr:city" v="Зеленоград"/>
    <tag k="addr:street" v="4-й Микрорайон"/>
    <tag k="amenity" v="restaurant"/>
    <tag k="building" v="yes"/>
    <tag k="cladr:code" v="77000002000306700"/>
    <tag k="is_in" v="Russia"/>
  </way>
  <way id="36830614" version="6" timestamp="2010-04-25T18:00:47Z" uid="115477" user="wowik" changeset="4524343">
    <nd ref="428146667"/>
    <nd ref="428146603"/>
    <nd ref="428146566"/>
    <nd ref="428146238"/>
    <nd ref="428146667"/>
    <tag k="addr:city" v="Зеленоград"/>
    <tag k="addr:street" v="4-й Микрорайон"/>
    <tag k="amenity" v="restaurant"/>
    <tag k="building" v="yes"/>
    <tag k="building:levels" v="3"/>
    <tag k="cladr:code" v="77000002000306700"/>
    <tag k="is_in" v="Russia"/>
  </way>
  <way id="36830614" version="7" timestamp="2010-11-30T16:56:50Z" uid="115477" user="wowik" changeset="6495856">
    <nd ref="428146667"/>
    <nd ref="428146603"/>
    <nd ref="428146566"/>
    <nd ref="428146238"/>
    <nd ref="428146667"/>
    <tag k="addr:city" v="Зеленоград"/>
    <tag k="addr:country" v="RU"/>
    <tag k="addr:region" v="Москва"/>
    <tag k="addr:street" v="4-й Микрорайон"/>
    <tag k="amenity" v="restaurant"/>
    <tag k="building" v="yes"/>
    <tag k="building:levels" v="3"/>
    <tag k="cladr:code" v="77000002000306700"/>
    <tag k="is_in" v="Russia"/>
    <tag k="landuse" v="service"/>
  </way>
  <way id="36830615" version="3" timestamp="2010-01-14T13:45:42Z" uid="115477" user="wowik" changeset="3617052">
    <nd ref="428147005"/>
    <nd ref="428146951"/>
    <nd ref="428147044"/>
    <nd ref="428146928"/>
    <nd ref="428147023"/>
    <nd ref="428146972"/>
    <nd ref="428147084"/>
    <nd ref="428146834"/>
    <nd ref="428146938"/>
    <nd ref="428146968"/>
    <nd ref="428147021"/>
    <nd ref="428146990"/>
    <nd ref="428147005"/>
    <tag k="addr:city" v="Зеленоград"/>
    <tag k="addr:housenumber" v="7А"/>
    <tag k="addr:street" v="Берёзовая аллея"/>
    <tag k="amenity" v="school"/>
    <tag k="building" v="yes"/>
    <tag k="is_in" v="Russia"/>
    <tag k="name" v="школа №617"/>
  </way>
  <way id="36830615" version="5" timestamp="2010-04-21T13:18:36Z" uid="115477" user="wowik" changeset="4486364">
    <nd ref="428147005"/>
    <nd ref="428146951"/>
    <nd ref="428147044"/>
    <nd ref="428146928"/>
    <nd ref="428147023"/>
    <nd ref="428146972"/>
    <nd ref="428147084"/>
    <nd ref="428146834"/>
    <nd ref="428146938"/>
    <nd ref="428146968"/>
    <nd ref="428147021"/>
    <nd ref="428146990"/>
    <nd ref="428147005"/>
    <tag k="addr:city" v="Зеленоград"/>
    <tag k="addr:housenumber" v="7А"/>
    <tag k="addr:street" v="Берёзовая аллея"/>
    <tag k="amenity" v="school"/>
    <tag k="building" v="yes"/>
    <tag k="cladr:code" v="77000002000084500"/>
    <tag k="is_in" v="Russia"/>
    <tag k="name" v="школа №617"/>
    <tag k="website" v="http://s617.zouo.ru"/>
  </way>
  <way id="36830615" version="6" timestamp="2010-04-21T13:19:51Z" uid="115477" user="wowik" changeset="4486364">
    <nd ref="428147005"/>
    <nd ref="428146951"/>
    <nd ref="428147044"/>
    <nd ref="428146928"/>
    <nd ref="428147023"/>
    <nd ref="428146972"/>
    <nd ref="428147084"/>
    <nd ref="428146834"/>
    <nd ref="428146938"/>
    <nd ref="428146968"/>
    <nd ref="428147021"/>
    <nd ref="428146990"/>
    <nd ref="428147005"/>
    <tag k="addr:city" v="Зеленоград"/>
    <tag k="addr:housenumber" v="7А"/>
    <tag k="addr:street" v="Берёзовая аллея"/>
    <tag k="amenity" v="school"/>
    <tag k="building" v="yes"/>
    <tag k="cladr:code" v="77000002000084500"/>
    <tag k="is_in" v="Russia"/>
    <tag k="name" v="школа №617"/>
  </way>
  <way id="36830615" version="7" timestamp="2010-04-25T17:51:54Z" uid="115477" user="wowik" changeset="4524343">
    <nd ref="428147005"/>
    <nd ref="428146951"/>
    <nd ref="428147044"/>
    <nd ref="428146928"/>
    <nd ref="428147023"/>
    <nd ref="428146972"/>
    <nd ref="428147084"/>
    <nd ref="428146834"/>
    <nd ref="428146938"/>
    <nd ref="428146968"/>
    <nd ref="428147021"/>
    <nd ref="428146990"/>
    <nd ref="428147005"/>
    <tag k="addr:city" v="Зеленоград"/>
    <tag k="addr:housenumber" v="7А"/>
    <tag k="addr:street" v="Берёзовая аллея"/>
    <tag k="amenity" v="school"/>
    <tag k="building" v="yes"/>
    <tag k="building:levels" v="3"/>
    <tag k="cladr:code" v="77000002000084500"/>
    <tag k="is_in" v="Russia"/>
    <tag k="name" v="школа №617"/>
  </way>
  <way id="36830615" version="9" timestamp="2010-11-08T17:16:07Z" uid="115477" user="wowik" changeset="6322246">
    <nd ref="428147005"/>
    <nd ref="428146951"/>
    <nd ref="428147044"/>
    <nd ref="428146928"/>
    <nd ref="428147023"/>
    <nd ref="982632194"/>
    <nd ref="982632272"/>
    <nd ref="428146972"/>
    <nd ref="428147084"/>
    <nd ref="428146834"/>
    <nd ref="428146938"/>
    <nd ref="428146968"/>
    <nd ref="428147021"/>
    <nd ref="982632307"/>
    <nd ref="982632140"/>
    <nd ref="428146990"/>
    <nd ref="428147005"/>
    <tag k="addr:city" v="Зеленоград"/>
    <tag k="addr:housenumber" v="7А"/>
    <tag k="addr:street" v="Берёзовая аллея"/>
    <tag k="amenity" v="school"/>
    <tag k="building" v="yes"/>
    <tag k="building:levels" v="3"/>
    <tag k="cladr:code" v="77000002000084500"/>
    <tag k="is_in" v="Russia"/>
    <tag k="name" v="Школа №617"/>
  </way>
  <way id="36830615" version="10" timestamp="2010-12-20T14:06:38Z" uid="115477" user="wowik" changeset="6716276">
    <nd ref="428146990"/>
    <nd ref="1051657095"/>
    <nd ref="1051657096"/>
    <nd ref="1051657098"/>
    <nd ref="1051657099"/>
    <nd ref="428147005"/>
    <nd ref="428146951"/>
    <nd ref="428147044"/>
    <nd ref="428146928"/>
    <nd ref="1051657100"/>
    <nd ref="1051657102"/>
    <nd ref="1051657103"/>
    <nd ref="1051657104"/>
    <nd ref="428147023"/>
    <nd ref="428146990"/>
    <tag k="addr:city" v="Зеленоград"/>
    <tag k="addr:housenumber" v="7А"/>
    <tag k="addr:street" v="Берёзовая аллея"/>
    <tag k="amenity" v="school"/>
    <tag k="building" v="yes"/>
    <tag k="building:levels" v="3"/>
    <tag k="cladr:code" v="77000002000084500"/>
    <tag k="is_in" v="Russia"/>
    <tag k="name" v="Школа №617"/>
  </way>
  <way id="36830615" version="11" timestamp="2011-01-12T10:37:11Z" uid="115477" user="wowik" changeset="6945760">
    <nd ref="428146990"/>
    <nd ref="1051657095"/>
    <nd ref="1051657096"/>
    <nd ref="1051657098"/>
    <nd ref="1051657099"/>
    <nd ref="428147005"/>
    <nd ref="428146951"/>
    <nd ref="1099564131"/>
    <nd ref="428147044"/>
    <nd ref="428146928"/>
    <nd ref="1051657100"/>
    <nd ref="1051657102"/>
    <nd ref="1051657103"/>
    <nd ref="1051657104"/>
    <nd ref="428147023"/>
    <nd ref="428146990"/>
    <tag k="addr:city" v="Зеленоград"/>
    <tag k="addr:housenumber" v="7А"/>
    <tag k="addr:street" v="Берёзовая аллея"/>
    <tag k="amenity" v="school"/>
    <tag k="building" v="yes"/>
    <tag k="building:levels" v="3"/>
    <tag k="cladr:code" v="77000002000084500"/>
    <tag k="is_in" v="Russia"/>
    <tag k="name" v="Школа №617"/>
  </way>
  <way id="36830616" version="6" timestamp="2010-01-26T12:33:04Z" uid="115477" user="wowik" changeset="3719010">
    <nd ref="428146945"/>
    <nd ref="620529796"/>
    <nd ref="428146850"/>
    <nd ref="428146795"/>
    <nd ref="428147033"/>
    <nd ref="428146821"/>
    <nd ref="428146812"/>
    <nd ref="428146947"/>
    <nd ref="428146825"/>
    <nd ref="428147032"/>
    <nd ref="428146865"/>
    <nd ref="428146883"/>
    <nd ref="428147121"/>
    <nd ref="428146945"/>
    <tag k="addr:city" v="Зеленоград"/>
    <tag k="addr:housenumber" v="426А"/>
    <tag k="addr:street" v="4-й Микрорайон"/>
    <tag k="building" v="yes"/>
    <tag k="is_in" v="Russia"/>
    <tag k="shop" v="mall"/>
  </way>
  <way id="36830616" version="7" timestamp="2010-04-25T17:51:56Z" uid="115477" user="wowik" changeset="4524343">
    <nd ref="428146945"/>
    <nd ref="620529796"/>
    <nd ref="428146850"/>
    <nd ref="428146795"/>
    <nd ref="428147033"/>
    <nd ref="428146821"/>
    <nd ref="428146812"/>
    <nd ref="428146947"/>
    <nd ref="428146825"/>
    <nd ref="428147032"/>
    <nd ref="428146865"/>
    <nd ref="428146883"/>
    <nd ref="428147121"/>
    <nd ref="428146945"/>
    <tag k="addr:city" v="Зеленоград"/>
    <tag k="addr:housenumber" v="426А"/>
    <tag k="addr:street" v="4-й Микрорайон"/>
    <tag k="building" v="yes"/>
    <tag k="building:levels" v="1"/>
    <tag k="is_in" v="Russia"/>
    <tag k="shop" v="mall"/>
  </way>
  <way id="36830616" version="8" timestamp="2010-05-06T12:31:49Z" uid="115477" user="wowik" changeset="4621215">
    <nd ref="724169801"/>
    <nd ref="428146795"/>
    <nd ref="428147033"/>
    <nd ref="428146821"/>
    <nd ref="724169801"/>
    <tag k="addr:city" v="Зеленоград"/>
    <tag k="addr:housenumber" v="426А"/>
    <tag k="addr:street" v="4-й Микрорайон"/>
    <tag k="building" v="yes"/>
    <tag k="building:levels" v="1"/>
    <tag k="is_in" v="Russia"/>
    <tag k="shop" v="mall"/>
  </way>
  <way id="36830616" version="9" timestamp="2010-05-06T12:36:21Z" uid="115477" user="wowik" changeset="4621215"/>
  <way id="36830617" version="5" timestamp="2010-04-25T18:00:39Z" uid="115477" user="wowik" changeset="4524343">
    <nd ref="428146584"/>
    <nd ref="428146528"/>
    <nd ref="428147142"/>
    <nd ref="428146674"/>
    <nd ref="428146258"/>
    <nd ref="428146320"/>
    <nd ref="428146654"/>
    <nd ref="428146729"/>
    <nd ref="428146255"/>
    <nd ref="428146584"/>
    <tag k="addr:city" v="Зеленоград"/>
    <tag k="addr:housenumber" v="435А"/>
    <tag k="addr:street" v="4-й Микрорайон"/>
    <tag k="building" v="yes"/>
    <tag k="building:levels" v="3"/>
    <tag k="is_in" v="Russia"/>
    <tag k="shop" v="mall"/>
  </way>
  <way id="36830617" version="6" timestamp="2010-11-08T17:16:59Z" uid="115477" user="wowik" changeset="6322246">
    <nd ref="428146584"/>
    <nd ref="428146528"/>
    <nd ref="428147142"/>
    <nd ref="982632254"/>
    <nd ref="428146674"/>
    <nd ref="428146258"/>
    <nd ref="428146320"/>
    <nd ref="428146654"/>
    <nd ref="428146729"/>
    <nd ref="428146255"/>
    <nd ref="428146584"/>
    <tag k="addr:city" v="Зеленоград"/>
    <tag k="addr:housenumber" v="435А"/>
    <tag k="addr:street" v="4-й Микрорайон"/>
    <tag k="building" v="yes"/>
    <tag k="building:levels" v="3"/>
    <tag k="is_in" v="Russia"/>
    <tag k="shop" v="mall"/>
  </way>
  <way id="36830618" version="4" timestamp="2010-04-21T10:39:26Z" uid="115477" user="wowik" changeset="4485166">
    <nd ref="428147104"/>
    <nd ref="428146966"/>
    <nd ref="428146840"/>
    <nd ref="428146789"/>
    <nd ref="428147104"/>
    <tag k="addr:city" v="Зеленоград"/>
    <tag k="addr:housenumber" v="448А"/>
    <tag k="addr:street" v="4-й Микрорайон"/>
    <tag k="amenity" v="kindergarten"/>
    <tag k="building" v="yes"/>
    <tag k="description" v="№ 607 Детский сад (с ясельными группами)"/>
    <tag k="is_in" v="Russia"/>
    <tag k="name" v="д/с №607"/>
  </way>
  <way id="36830618" version="5" timestamp="2010-04-21T13:16:03Z" uid="115477" user="wowik" changeset="4486364">
    <nd ref="428147104"/>
    <nd ref="428146966"/>
    <nd ref="428146840"/>
    <nd ref="428146789"/>
    <nd ref="428147104"/>
    <tag k="addr:city" v="Зеленоград"/>
    <tag k="addr:housenumber" v="448А"/>
    <tag k="addr:street" v="4-й Микрорайон"/>
    <tag k="amenity" v="kindergarten"/>
    <tag k="building" v="yes"/>
    <tag k="description" v="с яслями"/>
    <tag k="is_in" v="Russia"/>
    <tag k="name" v="д/с №607"/>
  </way>
  <way id="36830618" version="6" timestamp="2010-04-25T17:51:45Z" uid="115477" user="wowik" changeset="4524343">
    <nd ref="428147104"/>
    <nd ref="428146966"/>
    <nd ref="428146840"/>
    <nd ref="428146789"/>
    <nd ref="428147104"/>
    <tag k="addr:city" v="Зеленоград"/>
    <tag k="addr:housenumber" v="448А"/>
    <tag k="addr:street" v="4-й Микрорайон"/>
    <tag k="amenity" v="kindergarten"/>
    <tag k="building" v="yes"/>
    <tag k="building:levels" v="3"/>
    <tag k="description" v="с яслями"/>
    <tag k="is_in" v="Russia"/>
    <tag k="name" v="д/с №607"/>
  </way>
  <way id="36830618" version="8" timestamp="2010-11-08T17:16:51Z" uid="115477" user="wowik" changeset="6322246">
    <nd ref="428147104"/>
    <nd ref="428146966"/>
    <nd ref="428146840"/>
    <nd ref="428146789"/>
    <nd ref="982632341"/>
    <nd ref="982632178"/>
    <nd ref="982632447"/>
    <nd ref="982632138"/>
    <nd ref="428147104"/>
    <tag k="addr:city" v="Зеленоград"/>
    <tag k="addr:housenumber" v="448А"/>
    <tag k="addr:street" v="4-й Микрорайон"/>
    <tag k="amenity" v="kindergarten"/>
    <tag k="building" v="yes"/>
    <tag k="building:levels" v="3"/>
    <tag k="description" v="с яслями"/>
    <tag k="is_in" v="Russia"/>
    <tag k="name" v="Детский сад №607"/>
  </way>
  <way id="36830619" version="4" timestamp="2010-04-25T17:57:15Z" uid="115477" user="wowik" changeset="4524343">
    <nd ref="428146842"/>
    <nd ref="428147006"/>
    <nd ref="428147124"/>
    <nd ref="428146791"/>
    <nd ref="428146842"/>
    <tag k="addr:city" v="Зеленоград"/>
    <tag k="addr:housenumber" v="451"/>
    <tag k="addr:street" v="4-й Микрорайон"/>
    <tag k="building" v="yes"/>
    <tag k="building:levels" v="12"/>
    <tag k="is_in" v="Russia"/>
  </way>
  <way id="36830620" version="4" timestamp="2010-10-13T17:32:42Z" uid="115477" user="wowik" changeset="6031203">
    <nd ref="428146856"/>
    <nd ref="428147016"/>
    <nd ref="428146786"/>
    <nd ref="428147130"/>
    <nd ref="428146856"/>
    <tag k="addr:city" v="Зеленоград"/>
    <tag k="addr:housenumber" v="452"/>
    <tag k="addr:street" v="4-й Микрорайон"/>
    <tag k="building" v="yes"/>
    <tag k="building:levels" v="10"/>
    <tag k="is_in" v="Russia"/>
  </way>
  <way id="36830620" version="5" timestamp="2010-11-09T16:05:13Z" uid="115477" user="wowik" changeset="6327211"/>
  <way id="36830621" version="3" timestamp="2009-08-02T19:34:04Z" uid="115477" user="wowik" changeset="2018727">
    <nd ref="454609315"/>
    <nd ref="428146638"/>
    <nd ref="428146419"/>
    <nd ref="428146436"/>
    <nd ref="428146482"/>
    <nd ref="428146317"/>
    <nd ref="454609315"/>
    <tag k="addr:city" v="Зеленоград"/>
    <tag k="addr:housenumber" v="438"/>
    <tag k="addr:street" v="4-й микрорайон"/>
    <tag k="building" v="yes"/>
    <tag k="is_in" v="Russia"/>
  </way>
  <way id="36830621" version="5" timestamp="2010-04-25T18:00:35Z" uid="115477" user="wowik" changeset="4524343">
    <nd ref="454609315"/>
    <nd ref="428146638"/>
    <nd ref="428146419"/>
    <nd ref="428146436"/>
    <nd ref="428146482"/>
    <nd ref="428146317"/>
    <nd ref="454609315"/>
    <tag k="addr:city" v="Зеленоград"/>
    <tag k="addr:housenumber" v="438"/>
    <tag k="addr:street" v="4-й Микрорайон"/>
    <tag k="building" v="yes"/>
    <tag k="building:levels" v="17"/>
    <tag k="is_in" v="Russia"/>
  </way>
  <way id="36830621" version="6" timestamp="2010-11-08T17:34:39Z" uid="115477" user="wowik" changeset="6322246">
    <nd ref="454609315"/>
    <nd ref="982642964"/>
    <nd ref="428146638"/>
    <nd ref="428146419"/>
    <nd ref="982642955"/>
    <nd ref="982642949"/>
    <nd ref="982642969"/>
    <nd ref="428146436"/>
    <nd ref="428146482"/>
    <nd ref="982642945"/>
    <nd ref="982642950"/>
    <nd ref="428146317"/>
    <nd ref="454609315"/>
    <tag k="addr:city" v="Зеленоград"/>
    <tag k="addr:housenumber" v="438"/>
    <tag k="addr:street" v="4-й Микрорайон"/>
    <tag k="building" v="yes"/>
    <tag k="building:levels" v="17"/>
    <tag k="is_in" v="Russia"/>
  </way>
  <way id="36830621" version="7" timestamp="2011-01-12T10:25:42Z" uid="115477" user="wowik" changeset="6945653">
    <nd ref="454609315"/>
    <nd ref="982642964"/>
    <nd ref="428146638"/>
    <nd ref="428146419"/>
    <nd ref="982642955"/>
    <nd ref="982642949"/>
    <nd ref="982642969"/>
    <nd ref="428146436"/>
    <nd ref="428146482"/>
    <nd ref="982642945"/>
    <nd ref="982642950"/>
    <nd ref="428146317"/>
    <nd ref="454609315"/>
    <tag k="addr:city" v="Зеленоград"/>
    <tag k="addr:housenumber" v="438"/>
    <tag k="addr:street" v="4-й Микрорайон"/>
    <tag k="building" v="yes"/>
    <tag k="building:levels" v="17"/>
    <tag k="building:use" v="residential"/>
    <tag k="is_in" v="Russia"/>
  </way>
  <way id="36830622" version="4" timestamp="2010-04-25T17:52:16Z" uid="115477" user="wowik" changeset="4524343">
    <nd ref="428147051"/>
    <nd ref="428146994"/>
    <nd ref="428146984"/>
    <nd ref="428146953"/>
    <nd ref="428147051"/>
    <tag k="addr:city" v="Зеленоград"/>
    <tag k="addr:housenumber" v="427"/>
    <tag k="addr:street" v="4-й Микрорайон"/>
    <tag k="building" v="yes"/>
    <tag k="building:levels" v="9"/>
    <tag k="is_in" v="Russia"/>
  </way>
  <way id="36830622" version="5" timestamp="2011-01-12T10:25:30Z" uid="115477" user="wowik" changeset="6945653">
    <nd ref="428147051"/>
    <nd ref="428146994"/>
    <nd ref="428146984"/>
    <nd ref="428146953"/>
    <nd ref="428147051"/>
    <tag k="addr:city" v="Зеленоград"/>
    <tag k="addr:housenumber" v="427"/>
    <tag k="addr:street" v="4-й Микрорайон"/>
    <tag k="building" v="yes"/>
    <tag k="building:levels" v="9"/>
    <tag k="building:use" v="residential"/>
    <tag k="is_in" v="Russia"/>
  </way>
  <way id="36830622" version="6" timestamp="2011-01-12T11:08:41Z" uid="115477" user="wowik" changeset="6945967">
    <nd ref="428147051"/>
    <nd ref="428146994"/>
    <nd ref="428146984"/>
    <nd ref="1099603087"/>
    <nd ref="428146953"/>
    <nd ref="428147051"/>
    <tag k="addr:city" v="Зеленоград"/>
    <tag k="addr:housenumber" v="427"/>
    <tag k="addr:street" v="4-й Микрорайон"/>
    <tag k="building" v="yes"/>
    <tag k="building:levels" v="9"/>
    <tag k="building:use" v="residential"/>
    <tag k="is_in" v="Russia"/>
  </way>
  <way id="36830623" version="4" timestamp="2010-10-13T17:38:01Z" uid="115477" user="wowik" changeset="6031283">
    <nd ref="428146764"/>
    <nd ref="428147037"/>
    <nd ref="428146875"/>
    <nd ref="428146870"/>
    <nd ref="428146764"/>
    <tag k="addr:city" v="Зеленоград"/>
    <tag k="addr:housenumber" v="416"/>
    <tag k="addr:street" v="4-й Микрорайон"/>
    <tag k="building" v="yes"/>
    <tag k="building:levels" v="9"/>
    <tag k="is_in" v="Russia"/>
  </way>
  <way id="36830623" version="5" timestamp="2011-01-12T10:25:18Z" uid="115477" user="wowik" changeset="6945653">
    <nd ref="428146764"/>
    <nd ref="428147037"/>
    <nd ref="428146875"/>
    <nd ref="428146870"/>
    <nd ref="428146764"/>
    <tag k="addr:city" v="Зеленоград"/>
    <tag k="addr:housenumber" v="416"/>
    <tag k="addr:street" v="4-й Микрорайон"/>
    <tag k="building" v="yes"/>
    <tag k="building:levels" v="9"/>
    <tag k="building:use" v="residential"/>
    <tag k="is_in" v="Russia"/>
  </way>
  <way id="36830623" version="6" timestamp="2011-01-12T11:08:38Z" uid="115477" user="wowik" changeset="6945967">
    <nd ref="428146764"/>
    <nd ref="428147037"/>
    <nd ref="428146875"/>
    <nd ref="1099603086"/>
    <nd ref="428146870"/>
    <nd ref="428146764"/>
    <tag k="addr:city" v="Зеленоград"/>
    <tag k="addr:housenumber" v="416"/>
    <tag k="addr:street" v="4-й Микрорайон"/>
    <tag k="building" v="yes"/>
    <tag k="building:levels" v="9"/>
    <tag k="building:use" v="residential"/>
    <tag k="is_in" v="Russia"/>
  </way>
  <way id="36830623" version="7" timestamp="2011-01-25T16:21:31Z" uid="115477" user="wowik" changeset="7085120">
    <nd ref="428146764"/>
    <nd ref="1120020571"/>
    <nd ref="428147037"/>
    <nd ref="428146875"/>
    <nd ref="428146870"/>
    <nd ref="428146764"/>
    <tag k="addr:city" v="Зеленоград"/>
    <tag k="addr:housenumber" v="416"/>
    <tag k="addr:street" v="4-й Микрорайон"/>
    <tag k="building" v="yes"/>
    <tag k="building:levels" v="9"/>
    <tag k="building:use" v="residential"/>
    <tag k="is_in" v="Russia"/>
  </way>
  <way id="36830625" version="3" timestamp="2009-08-02T19:31:41Z" uid="115477" user="wowik" changeset="2018727">
    <nd ref="428146267"/>
    <nd ref="428146630"/>
    <nd ref="428146697"/>
    <nd ref="428146372"/>
    <nd ref="428146694"/>
    <nd ref="428146681"/>
    <nd ref="428146708"/>
    <nd ref="454608131"/>
    <nd ref="428146267"/>
    <tag k="addr:city" v="Зеленоград"/>
    <tag k="addr:housenumber" v="407"/>
    <tag k="addr:street" v="4-й микрорайон"/>
    <tag k="building" v="yes"/>
    <tag k="is_in" v="Russia"/>
  </way>
  <way id="36830625" version="4" timestamp="2009-08-02T19:36:25Z" uid="115477" user="wowik" changeset="2018727">
    <nd ref="428146267"/>
    <nd ref="428146694"/>
    <nd ref="428146681"/>
    <nd ref="428146708"/>
    <nd ref="428146267"/>
    <tag k="addr:city" v="Зеленоград"/>
    <tag k="addr:housenumber" v="407"/>
    <tag k="addr:street" v="4-й микрорайон"/>
    <tag k="building" v="yes"/>
    <tag k="is_in" v="Russia"/>
  </way>
  <way id="36830625" version="6" timestamp="2010-04-25T18:00:43Z" uid="115477" user="wowik" changeset="4524343">
    <nd ref="428146267"/>
    <nd ref="428146694"/>
    <nd ref="428146681"/>
    <nd ref="428146708"/>
    <nd ref="428146267"/>
    <tag k="addr:city" v="Зеленоград"/>
    <tag k="addr:housenumber" v="407"/>
    <tag k="addr:street" v="4-й Микрорайон"/>
    <tag k="building" v="yes"/>
    <tag k="building:levels" v="17"/>
    <tag k="is_in" v="Russia"/>
  </way>
  <way id="36830625" version="7" timestamp="2010-11-08T17:16:12Z" uid="115477" user="wowik" changeset="6322246">
    <nd ref="428146267"/>
    <nd ref="982632117"/>
    <nd ref="982632287"/>
    <nd ref="428146694"/>
    <nd ref="982632388"/>
    <nd ref="982632221"/>
    <nd ref="428146681"/>
    <nd ref="428146708"/>
    <nd ref="428146267"/>
    <tag k="addr:city" v="Зеленоград"/>
    <tag k="addr:housenumber" v="407"/>
    <tag k="addr:street" v="4-й Микрорайон"/>
    <tag k="building" v="yes"/>
    <tag k="building:levels" v="17"/>
    <tag k="is_in" v="Russia"/>
  </way>
  <way id="36830625" version="8" timestamp="2010-11-08T17:34:35Z" uid="115477" user="wowik" changeset="6322246">
    <nd ref="428146267"/>
    <nd ref="982632287"/>
    <nd ref="428146694"/>
    <nd ref="428146708"/>
    <nd ref="982642962"/>
    <nd ref="982642947"/>
    <nd ref="428146267"/>
    <tag k="addr:city" v="Зеленоград"/>
    <tag k="addr:housenumber" v="407"/>
    <tag k="addr:street" v="4-й Микрорайон"/>
    <tag k="building" v="yes"/>
    <tag k="building:levels" v="17"/>
    <tag k="is_in" v="Russia"/>
  </way>
  <way id="36830625" version="9" timestamp="2010-11-30T16:56:49Z" uid="115477" user="wowik" changeset="6495856">
    <nd ref="428146267"/>
    <nd ref="982632287"/>
    <nd ref="428146694"/>
    <nd ref="428146708"/>
    <nd ref="982642962"/>
    <nd ref="982642947"/>
    <nd ref="428146267"/>
    <tag k="addr:city" v="Зеленоград"/>
    <tag k="addr:country" v="RU"/>
    <tag k="addr:housenumber" v="407"/>
    <tag k="addr:region" v="Москва"/>
    <tag k="addr:street" v="4-й Микрорайон"/>
    <tag k="building" v="yes"/>
    <tag k="building:levels" v="17"/>
    <tag k="is_in" v="Russia"/>
    <tag k="landuse" v="service"/>
  </way>
  <way id="36830625" version="10" timestamp="2010-12-20T14:28:07Z" uid="115477" user="wowik" changeset="6716494">
    <nd ref="428146267"/>
    <nd ref="982632287"/>
    <nd ref="428146694"/>
    <nd ref="428146708"/>
    <nd ref="982642947"/>
    <nd ref="428146267"/>
    <tag k="addr:city" v="Зеленоград"/>
    <tag k="addr:country" v="RU"/>
    <tag k="addr:housenumber" v="407"/>
    <tag k="addr:region" v="Москва"/>
    <tag k="addr:street" v="4-й Микрорайон"/>
    <tag k="building" v="yes"/>
    <tag k="building:levels" v="17"/>
    <tag k="is_in" v="Russia"/>
    <tag k="landuse" v="service"/>
  </way>
  <way id="36830625" version="11" timestamp="2010-12-20T14:30:41Z" uid="115477" user="wowik" changeset="6716494">
    <nd ref="428146267"/>
    <nd ref="982632287"/>
    <nd ref="428146694"/>
    <nd ref="428146708"/>
    <nd ref="982642947"/>
    <nd ref="428146267"/>
    <tag k="addr:city" v="Зеленоград"/>
    <tag k="addr:country" v="RU"/>
    <tag k="addr:housenumber" v="407"/>
    <tag k="addr:region" v="Москва"/>
    <tag k="addr:street" v="4-й Микрорайон"/>
    <tag k="building" v="yes"/>
    <tag k="building:levels" v="17"/>
    <tag k="is_in" v="Russia"/>
  </way>
  <way id="36830625" version="12" timestamp="2011-01-12T10:25:37Z" uid="115477" user="wowik" changeset="6945653">
    <nd ref="428146267"/>
    <nd ref="982632287"/>
    <nd ref="428146694"/>
    <nd ref="428146708"/>
    <nd ref="982642947"/>
    <nd ref="428146267"/>
    <tag k="addr:city" v="Зеленоград"/>
    <tag k="addr:country" v="RU"/>
    <tag k="addr:housenumber" v="407"/>
    <tag k="addr:region" v="Москва"/>
    <tag k="addr:street" v="4-й Микрорайон"/>
    <tag k="building" v="yes"/>
    <tag k="building:levels" v="17"/>
    <tag k="building:use" v="residential"/>
    <tag k="is_in" v="Russia"/>
  </way>
  <way id="36830626" version="4" timestamp="2010-04-25T17:57:04Z" uid="115477" user="wowik" changeset="4524343">
    <nd ref="428146787"/>
    <nd ref="428147026"/>
    <nd ref="428147056"/>
    <nd ref="428146798"/>
    <nd ref="428146787"/>
    <tag k="addr:city" v="Зеленоград"/>
    <tag k="addr:housenumber" v="448"/>
    <tag k="addr:street" v="4-й Микрорайон"/>
    <tag k="building" v="yes"/>
    <tag k="building:levels" v="12"/>
    <tag k="is_in" v="Russia"/>
  </way>
  <way id="36830627" version="4" timestamp="2010-11-08T15:24:15Z" uid="115477" user="wowik" changeset="6321309">
    <nd ref="428147103"/>
    <nd ref="982535364"/>
    <nd ref="982535313"/>
    <nd ref="428146828"/>
    <nd ref="982535346"/>
    <nd ref="982535314"/>
    <nd ref="428146978"/>
    <nd ref="982535368"/>
    <nd ref="982535335"/>
    <nd ref="428147058"/>
    <nd ref="982535372"/>
    <nd ref="982535345"/>
    <nd ref="428147103"/>
    <tag k="addr:city" v="Зеленоград"/>
    <tag k="addr:housenumber" v="8"/>
    <tag k="addr:street" v="Берёзовая аллея"/>
    <tag k="building" v="yes"/>
    <tag k="cladr:code" v="77000002000084500"/>
    <tag k="is_in" v="Russia"/>
  </way>
  <way id="36830627" version="5" timestamp="2011-01-12T10:25:13Z" uid="115477" user="wowik" changeset="6945653">
    <nd ref="428147103"/>
    <nd ref="982535364"/>
    <nd ref="982535313"/>
    <nd ref="428146828"/>
    <nd ref="982535346"/>
    <nd ref="982535314"/>
    <nd ref="428146978"/>
    <nd ref="982535368"/>
    <nd ref="982535335"/>
    <nd ref="428147058"/>
    <nd ref="982535372"/>
    <nd ref="982535345"/>
    <nd ref="428147103"/>
    <tag k="addr:city" v="Зеленоград"/>
    <tag k="addr:housenumber" v="8"/>
    <tag k="addr:street" v="Берёзовая аллея"/>
    <tag k="building" v="yes"/>
    <tag k="building:use" v="residential"/>
    <tag k="cladr:code" v="77000002000084500"/>
    <tag k="is_in" v="Russia"/>
  </way>
  <way id="36830627" version="6" timestamp="2011-01-18T13:46:58Z" uid="115477" user="wowik" changeset="7010580">
    <nd ref="428147103"/>
    <nd ref="982535364"/>
    <nd ref="982535313"/>
    <nd ref="428146828"/>
    <nd ref="982535346"/>
    <nd ref="982535314"/>
    <nd ref="428146978"/>
    <nd ref="982535368"/>
    <nd ref="982535335"/>
    <nd ref="428147058"/>
    <nd ref="982535372"/>
    <nd ref="982535345"/>
    <nd ref="428147103"/>
    <tag k="addr:city" v="Зеленоград"/>
    <tag k="addr:housenumber" v="8"/>
    <tag k="addr:street" v="Берёзовая аллея"/>
    <tag k="building" v="yes"/>
    <tag k="building:levels" v="10"/>
    <tag k="building:use" v="residential"/>
    <tag k="cladr:code" v="77000002000084500"/>
    <tag k="is_in" v="Russia"/>
  </way>
  <way id="36830628" version="3" timestamp="2009-08-02T19:31:42Z" uid="115477" user="wowik" changeset="2018727">
    <nd ref="454608133"/>
    <nd ref="428146243"/>
    <nd ref="428146724"/>
    <nd ref="428146535"/>
    <nd ref="454608133"/>
    <tag k="addr:city" v="Зеленоград"/>
    <tag k="addr:housenumber" v="436"/>
    <tag k="addr:street" v="4-й микрорайон"/>
    <tag k="building" v="yes"/>
    <tag k="is_in" v="Russia"/>
  </way>
  <way id="36830628" version="5" timestamp="2010-04-25T18:00:44Z" uid="115477" user="wowik" changeset="4524343">
    <nd ref="454608133"/>
    <nd ref="428146243"/>
    <nd ref="428146724"/>
    <nd ref="428146535"/>
    <nd ref="454608133"/>
    <tag k="addr:city" v="Зеленоград"/>
    <tag k="addr:housenumber" v="436"/>
    <tag k="addr:street" v="4-й Микрорайон"/>
    <tag k="building" v="yes"/>
    <tag k="building:levels" v="17"/>
    <tag k="is_in" v="Russia"/>
  </way>
  <way id="36830628" version="6" timestamp="2010-11-08T17:16:57Z" uid="115477" user="wowik" changeset="6322246">
    <nd ref="454608133"/>
    <nd ref="982632196"/>
    <nd ref="982632361"/>
    <nd ref="428146243"/>
    <nd ref="428146724"/>
    <nd ref="982632354"/>
    <nd ref="982632522"/>
    <nd ref="428146535"/>
    <nd ref="454608133"/>
    <tag k="addr:city" v="Зеленоград"/>
    <tag k="addr:housenumber" v="436"/>
    <tag k="addr:street" v="4-й Микрорайон"/>
    <tag k="building" v="yes"/>
    <tag k="building:levels" v="17"/>
    <tag k="is_in" v="Russia"/>
  </way>
  <way id="36830628" version="7" timestamp="2010-11-08T17:34:38Z" uid="115477" user="wowik" changeset="6322246">
    <nd ref="454608133"/>
    <nd ref="982632361"/>
    <nd ref="428146243"/>
    <nd ref="428146724"/>
    <nd ref="428146535"/>
    <nd ref="454608133"/>
    <tag k="addr:city" v="Зеленоград"/>
    <tag k="addr:housenumber" v="436"/>
    <tag k="addr:street" v="4-й Микрорайон"/>
    <tag k="building" v="yes"/>
    <tag k="building:levels" v="17"/>
    <tag k="is_in" v="Russia"/>
  </way>
  <way id="36830628" version="8" timestamp="2011-01-12T10:25:03Z" uid="115477" user="wowik" changeset="6945653">
    <nd ref="454608133"/>
    <nd ref="982632361"/>
    <nd ref="428146243"/>
    <nd ref="428146724"/>
    <nd ref="428146535"/>
    <nd ref="454608133"/>
    <tag k="addr:city" v="Зеленоград"/>
    <tag k="addr:housenumber" v="436"/>
    <tag k="addr:street" v="4-й Микрорайон"/>
    <tag k="building" v="yes"/>
    <tag k="building:levels" v="17"/>
    <tag k="building:use" v="residential"/>
    <tag k="is_in" v="Russia"/>
  </way>
  <way id="36830629" version="4" timestamp="2010-04-25T17:52:18Z" uid="115477" user="wowik" changeset="4524343">
    <nd ref="428146904"/>
    <nd ref="428147073"/>
    <nd ref="428147064"/>
    <nd ref="428147086"/>
    <nd ref="428146904"/>
    <tag k="addr:city" v="Зеленоград"/>
    <tag k="addr:housenumber" v="425"/>
    <tag k="addr:street" v="4-й Микрорайон"/>
    <tag k="building" v="yes"/>
    <tag k="building:levels" v="undefined"/>
    <tag k="is_in" v="Russia"/>
  </way>
  <way id="36830629" version="5" timestamp="2010-11-13T11:09:44Z" uid="115477" user="wowik" changeset="6356871">
    <nd ref="428146904"/>
    <nd ref="428147073"/>
    <nd ref="428147064"/>
    <nd ref="428147086"/>
    <nd ref="428146904"/>
    <tag k="addr:city" v="Зеленоград"/>
    <tag k="addr:housenumber" v="425"/>
    <tag k="addr:street" v="4-й Микрорайон"/>
    <tag k="building" v="yes"/>
    <tag k="building:levels" v="9"/>
    <tag k="is_in" v="Russia"/>
  </way>
  <way id="36830629" version="6" timestamp="2011-01-12T10:24:55Z" uid="115477" user="wowik" changeset="6945653">
    <nd ref="428146904"/>
    <nd ref="428147073"/>
    <nd ref="428147064"/>
    <nd ref="428147086"/>
    <nd ref="428146904"/>
    <tag k="addr:city" v="Зеленоград"/>
    <tag k="addr:housenumber" v="425"/>
    <tag k="addr:street" v="4-й Микрорайон"/>
    <tag k="building" v="yes"/>
    <tag k="building:levels" v="9"/>
    <tag k="building:use" v="residential"/>
    <tag k="is_in" v="Russia"/>
  </way>
  <way id="36830629" version="7" timestamp="2011-01-12T11:08:35Z" uid="115477" user="wowik" changeset="6945967">
    <nd ref="428146904"/>
    <nd ref="428147073"/>
    <nd ref="428147064"/>
    <nd ref="1099602946"/>
    <nd ref="428147086"/>
    <nd ref="428146904"/>
    <tag k="addr:city" v="Зеленоград"/>
    <tag k="addr:housenumber" v="425"/>
    <tag k="addr:street" v="4-й Микрорайон"/>
    <tag k="building" v="yes"/>
    <tag k="building:levels" v="9"/>
    <tag k="building:use" v="residential"/>
    <tag k="is_in" v="Russia"/>
  </way>
  <way id="36830630" version="4" timestamp="2010-04-25T17:52:20Z" uid="115477" user="wowik" changeset="4524343">
    <nd ref="428147047"/>
    <nd ref="428147000"/>
    <nd ref="428146799"/>
    <nd ref="428147158"/>
    <nd ref="428147047"/>
    <tag k="addr:city" v="Зеленоград"/>
    <tag k="addr:housenumber" v="6"/>
    <tag k="addr:street" v="Берёзовая аллея"/>
    <tag k="building" v="yes"/>
    <tag k="building:levels" v="10"/>
    <tag k="cladr:code" v="77000002000084500"/>
    <tag k="is_in" v="Russia"/>
  </way>
  <way id="36830630" version="5" timestamp="2011-01-12T10:24:43Z" uid="115477" user="wowik" changeset="6945653">
    <nd ref="428147047"/>
    <nd ref="428147000"/>
    <nd ref="428146799"/>
    <nd ref="428147158"/>
    <nd ref="428147047"/>
    <tag k="addr:city" v="Зеленоград"/>
    <tag k="addr:housenumber" v="6"/>
    <tag k="addr:street" v="Берёзовая аллея"/>
    <tag k="building" v="yes"/>
    <tag k="building:levels" v="10"/>
    <tag k="building:use" v="residential"/>
    <tag k="cladr:code" v="77000002000084500"/>
    <tag k="is_in" v="Russia"/>
  </way>
  <way id="36830630" version="6" timestamp="2011-01-12T10:37:10Z" uid="115477" user="wowik" changeset="6945760">
    <nd ref="428147047"/>
    <nd ref="428147000"/>
    <nd ref="428146799"/>
    <nd ref="428147158"/>
    <nd ref="1099564133"/>
    <nd ref="1099564110"/>
    <nd ref="1099564118"/>
    <nd ref="1099564103"/>
    <nd ref="1099564140"/>
    <nd ref="428147047"/>
    <tag k="addr:city" v="Зеленоград"/>
    <tag k="addr:housenumber" v="6"/>
    <tag k="addr:street" v="Берёзовая аллея"/>
    <tag k="building" v="yes"/>
    <tag k="building:levels" v="10"/>
    <tag k="building:use" v="residential"/>
    <tag k="cladr:code" v="77000002000084500"/>
    <tag k="is_in" v="Russia"/>
  </way>
  <way id="36830631" version="4" timestamp="2010-04-25T17:57:35Z" uid="115477" user="wowik" changeset="4524343">
    <nd ref="428146452"/>
    <nd ref="428146225"/>
    <nd ref="428146280"/>
    <nd ref="428146691"/>
    <nd ref="428146452"/>
    <tag k="addr:city" v="Зеленоград"/>
    <tag k="addr:housenumber" v="432"/>
    <tag k="addr:street" v="4-й Микрорайон"/>
    <tag k="building" v="yes"/>
    <tag k="building:levels" v="3"/>
    <tag k="is_in" v="Russia"/>
  </way>
  <way id="36830631" version="5" timestamp="2011-01-12T10:25:44Z" uid="115477" user="wowik" changeset="6945653">
    <nd ref="428146452"/>
    <nd ref="428146225"/>
    <nd ref="428146280"/>
    <nd ref="428146691"/>
    <nd ref="428146452"/>
    <tag k="addr:city" v="Зеленоград"/>
    <tag k="addr:housenumber" v="432"/>
    <tag k="addr:street" v="4-й Микрорайон"/>
    <tag k="building" v="yes"/>
    <tag k="building:levels" v="3"/>
    <tag k="building:use" v="residential"/>
    <tag k="is_in" v="Russia"/>
  </way>
  <way id="36830632" version="4" timestamp="2010-04-25T17:51:50Z" uid="115477" user="wowik" changeset="4524343">
    <nd ref="428146954"/>
    <nd ref="428147118"/>
    <nd ref="428147045"/>
    <nd ref="428147105"/>
    <nd ref="428146954"/>
    <tag k="addr:city" v="Зеленоград"/>
    <tag k="addr:housenumber" v="429"/>
    <tag k="addr:street" v="4-й Микрорайон"/>
    <tag k="building" v="yes"/>
    <tag k="building:levels" v="9"/>
    <tag k="is_in" v="Russia"/>
  </way>
  <way id="36830632" version="5" timestamp="2011-01-12T10:24:54Z" uid="115477" user="wowik" changeset="6945653">
    <nd ref="428146954"/>
    <nd ref="428147118"/>
    <nd ref="428147045"/>
    <nd ref="428147105"/>
    <nd ref="428146954"/>
    <tag k="addr:city" v="Зеленоград"/>
    <tag k="addr:housenumber" v="429"/>
    <tag k="addr:street" v="4-й Микрорайон"/>
    <tag k="building" v="yes"/>
    <tag k="building:levels" v="9"/>
    <tag k="building:use" v="residential"/>
    <tag k="is_in" v="Russia"/>
  </way>
  <way id="36830632" version="6" timestamp="2011-01-12T11:08:34Z" uid="115477" user="wowik" changeset="6945967">
    <nd ref="428146954"/>
    <nd ref="428147118"/>
    <nd ref="428147045"/>
    <nd ref="1099602954"/>
    <nd ref="428147105"/>
    <nd ref="428146954"/>
    <tag k="addr:city" v="Зеленоград"/>
    <tag k="addr:housenumber" v="429"/>
    <tag k="addr:street" v="4-й Микрорайон"/>
    <tag k="building" v="yes"/>
    <tag k="building:levels" v="9"/>
    <tag k="building:use" v="residential"/>
    <tag k="is_in" v="Russia"/>
  </way>
  <way id="36830633" version="4" timestamp="2009-09-30T12:11:40Z" uid="115477" user="wowik" changeset="2687647">
    <nd ref="428146869"/>
    <nd ref="428146944"/>
    <nd ref="428146737"/>
    <nd ref="428147108"/>
    <nd ref="428146869"/>
    <tag k="addr:city" v="Зеленоград"/>
    <tag k="addr:housenumber" v="1А"/>
    <tag k="addr:street" v="Березовая аллея"/>
    <tag k="amenity" v="kindergarten"/>
    <tag k="building" v="yes"/>
    <tag k="is_in" v="Russia"/>
  </way>
  <way id="36830633" version="7" timestamp="2010-04-21T10:47:27Z" uid="115477" user="wowik" changeset="4485166">
    <nd ref="428146869"/>
    <nd ref="428146944"/>
    <nd ref="428146737"/>
    <nd ref="428147108"/>
    <nd ref="428146869"/>
    <tag k="addr:city" v="Зеленоград"/>
    <tag k="addr:housenumber" v="1А"/>
    <tag k="addr:street" v="Берёзовая аллея"/>
    <tag k="amenity" v="kindergarten"/>
    <tag k="building" v="yes"/>
    <tag k="cladr:code" v="77000002000084500"/>
    <tag k="is_in" v="Russia"/>
    <tag k="name" v="д/с №2547"/>
  </way>
  <way id="36830633" version="8" timestamp="2010-04-25T17:52:46Z" uid="115477" user="wowik" changeset="4524343">
    <nd ref="428146869"/>
    <nd ref="428146944"/>
    <nd ref="428146737"/>
    <nd ref="428147108"/>
    <nd ref="428146869"/>
    <tag k="addr:city" v="Зеленоград"/>
    <tag k="addr:housenumber" v="1А"/>
    <tag k="addr:street" v="Берёзовая аллея"/>
    <tag k="amenity" v="kindergarten"/>
    <tag k="building" v="yes"/>
    <tag k="building:levels" v="3"/>
    <tag k="cladr:code" v="77000002000084500"/>
    <tag k="is_in" v="Russia"/>
    <tag k="name" v="д/с №2547"/>
  </way>
  <way id="36830633" version="10" timestamp="2010-11-08T15:24:13Z" uid="115477" user="wowik" changeset="6321309">
    <nd ref="428146869"/>
    <nd ref="428146944"/>
    <nd ref="428146737"/>
    <nd ref="428147108"/>
    <nd ref="982535339"/>
    <nd ref="982535312"/>
    <nd ref="982535360"/>
    <nd ref="982535332"/>
    <nd ref="428146869"/>
    <tag k="addr:city" v="Зеленоград"/>
    <tag k="addr:housenumber" v="1А"/>
    <tag k="addr:street" v="Берёзовая аллея"/>
    <tag k="amenity" v="kindergarten"/>
    <tag k="building" v="yes"/>
    <tag k="building:levels" v="3"/>
    <tag k="cladr:code" v="77000002000084500"/>
    <tag k="is_in" v="Russia"/>
    <tag k="name" v="Детский сад №2547"/>
  </way>
  <way id="36830633" version="11" timestamp="2011-01-12T11:08:32Z" uid="115477" user="wowik" changeset="6945967">
    <nd ref="428146869"/>
    <nd ref="428146944"/>
    <nd ref="1099602953"/>
    <nd ref="1099603027"/>
    <nd ref="1099603060"/>
    <nd ref="428146737"/>
    <nd ref="428147108"/>
    <nd ref="982535339"/>
    <nd ref="982535312"/>
    <nd ref="982535360"/>
    <nd ref="982535332"/>
    <nd ref="428146869"/>
    <tag k="addr:city" v="Зеленоград"/>
    <tag k="addr:housenumber" v="1А"/>
    <tag k="addr:street" v="Берёзовая аллея"/>
    <tag k="amenity" v="kindergarten"/>
    <tag k="building" v="yes"/>
    <tag k="building:levels" v="3"/>
    <tag k="cladr:code" v="77000002000084500"/>
    <tag k="is_in" v="Russia"/>
    <tag k="name" v="Детский сад №2547"/>
  </way>
  <way id="36830633" version="12" timestamp="2011-01-18T13:46:59Z" uid="115477" user="wowik" changeset="7010580">
    <nd ref="428146944"/>
    <nd ref="1099602953"/>
    <nd ref="1099603027"/>
    <nd ref="1099603060"/>
    <nd ref="428146737"/>
    <nd ref="982535312"/>
    <nd ref="1109017081"/>
    <nd ref="1109017076"/>
    <nd ref="982535360"/>
    <nd ref="428146944"/>
    <tag k="addr:city" v="Зеленоград"/>
    <tag k="addr:housenumber" v="1А"/>
    <tag k="addr:street" v="Берёзовая аллея"/>
    <tag k="amenity" v="kindergarten"/>
    <tag k="building" v="yes"/>
    <tag k="building:levels" v="3"/>
    <tag k="cladr:code" v="77000002000084500"/>
    <tag k="is_in" v="Russia"/>
    <tag k="name" v="Детский сад №2547"/>
  </way>
  <way id="36830633" version="13" timestamp="2011-02-02T12:15:26Z" uid="115477" user="wowik" changeset="7164005"/>
  <way id="36830634" version="4" timestamp="2010-04-25T17:52:42Z" uid="115477" user="wowik" changeset="4524343">
    <nd ref="428146782"/>
    <nd ref="428147119"/>
    <nd ref="428146955"/>
    <nd ref="428146993"/>
    <nd ref="428146782"/>
    <tag k="addr:city" v="Зеленоград"/>
    <tag k="addr:housenumber" v="426"/>
    <tag k="addr:street" v="4-й Микрорайон"/>
    <tag k="building" v="yes"/>
    <tag k="building:levels" v="9"/>
    <tag k="is_in" v="Russia"/>
  </way>
  <way id="36830634" version="5" timestamp="2011-01-12T10:25:43Z" uid="115477" user="wowik" changeset="6945653">
    <nd ref="428146782"/>
    <nd ref="428147119"/>
    <nd ref="428146955"/>
    <nd ref="428146993"/>
    <nd ref="428146782"/>
    <tag k="addr:city" v="Зеленоград"/>
    <tag k="addr:housenumber" v="426"/>
    <tag k="addr:street" v="4-й Микрорайон"/>
    <tag k="building" v="yes"/>
    <tag k="building:levels" v="9"/>
    <tag k="building:use" v="residential"/>
    <tag k="is_in" v="Russia"/>
  </way>
  <way id="36830634" version="6" timestamp="2011-01-12T11:08:42Z" uid="115477" user="wowik" changeset="6945967">
    <nd ref="428146782"/>
    <nd ref="428147119"/>
    <nd ref="428146955"/>
    <nd ref="1099602969"/>
    <nd ref="428146993"/>
    <nd ref="428146782"/>
    <tag k="addr:city" v="Зеленоград"/>
    <tag k="addr:housenumber" v="426"/>
    <tag k="addr:street" v="4-й Микрорайон"/>
    <tag k="building" v="yes"/>
    <tag k="building:levels" v="9"/>
    <tag k="building:use" v="residential"/>
    <tag k="is_in" v="Russia"/>
  </way>
  <way id="36830635" version="4" timestamp="2010-04-25T17:57:18Z" uid="115477" user="wowik" changeset="4524343">
    <nd ref="428146699"/>
    <nd ref="428146713"/>
    <nd ref="428146471"/>
    <nd ref="428146496"/>
    <nd ref="428146341"/>
    <nd ref="428146552"/>
    <nd ref="428146583"/>
    <nd ref="428146490"/>
    <nd ref="428146678"/>
    <nd ref="428146415"/>
    <nd ref="428146272"/>
    <nd ref="428146328"/>
    <nd ref="428146384"/>
    <nd ref="428146233"/>
    <nd ref="428146557"/>
    <nd ref="428146476"/>
    <nd ref="428146699"/>
    <tag k="addr:city" v="Зеленоград"/>
    <tag k="addr:housenumber" v="457"/>
    <tag k="addr:street" v="4-й Микрорайон"/>
    <tag k="building" v="yes"/>
    <tag k="building:levels" v="9"/>
    <tag k="is_in" v="Russia"/>
  </way>
  <way id="36830635" version="5" timestamp="2011-01-12T10:25:31Z" uid="115477" user="wowik" changeset="6945653">
    <nd ref="428146699"/>
    <nd ref="428146713"/>
    <nd ref="428146471"/>
    <nd ref="428146496"/>
    <nd ref="428146341"/>
    <nd ref="428146552"/>
    <nd ref="428146583"/>
    <nd ref="428146490"/>
    <nd ref="428146678"/>
    <nd ref="428146415"/>
    <nd ref="428146272"/>
    <nd ref="428146328"/>
    <nd ref="428146384"/>
    <nd ref="428146233"/>
    <nd ref="428146557"/>
    <nd ref="428146476"/>
    <nd ref="428146699"/>
    <tag k="addr:city" v="Зеленоград"/>
    <tag k="addr:housenumber" v="457"/>
    <tag k="addr:street" v="4-й Микрорайон"/>
    <tag k="building" v="yes"/>
    <tag k="building:levels" v="9"/>
    <tag k="building:use" v="residential"/>
    <tag k="is_in" v="Russia"/>
  </way>
  <way id="36830636" version="4" timestamp="2010-04-25T18:11:22Z" uid="115477" user="wowik" changeset="4524343">
    <nd ref="428146899"/>
    <nd ref="428147165"/>
    <nd ref="428146940"/>
    <nd ref="428146981"/>
    <nd ref="428146899"/>
    <tag k="addr:city" v="Зеленоград"/>
    <tag k="addr:housenumber" v="469"/>
    <tag k="addr:street" v="4-й Микрорайон"/>
    <tag k="building" v="yes"/>
    <tag k="building:levels" v="10"/>
    <tag k="is_in" v="Russia"/>
  </way>
  <way id="36830636" version="5" timestamp="2011-01-12T10:25:19Z" uid="115477" user="wowik" changeset="6945653">
    <nd ref="428146899"/>
    <nd ref="428147165"/>
    <nd ref="428146940"/>
    <nd ref="428146981"/>
    <nd ref="428146899"/>
    <tag k="addr:city" v="Зеленоград"/>
    <tag k="addr:housenumber" v="469"/>
    <tag k="addr:street" v="4-й Микрорайон"/>
    <tag k="building" v="yes"/>
    <tag k="building:levels" v="10"/>
    <tag k="building:use" v="residential"/>
    <tag k="is_in" v="Russia"/>
  </way>
  <way id="36830636" version="6" timestamp="2011-01-12T11:08:39Z" uid="115477" user="wowik" changeset="6945967">
    <nd ref="428146899"/>
    <nd ref="428147165"/>
    <nd ref="428146940"/>
    <nd ref="1099603047"/>
    <nd ref="1099603048"/>
    <nd ref="1099602935"/>
    <nd ref="1099603068"/>
    <nd ref="1099603040"/>
    <nd ref="428146981"/>
    <nd ref="428146899"/>
    <tag k="addr:city" v="Зеленоград"/>
    <tag k="addr:housenumber" v="469"/>
    <tag k="addr:street" v="4-й Микрорайон"/>
    <tag k="building" v="yes"/>
    <tag k="building:levels" v="10"/>
    <tag k="building:use" v="residential"/>
    <tag k="is_in" v="Russia"/>
  </way>
  <way id="36830637" version="4" timestamp="2010-04-25T17:52:24Z" uid="115477" user="wowik" changeset="4524343">
    <nd ref="428146854"/>
    <nd ref="428146824"/>
    <nd ref="428146846"/>
    <nd ref="428146833"/>
    <nd ref="428146854"/>
    <tag k="addr:city" v="Зеленоград"/>
    <tag k="addr:housenumber" v="424Б"/>
    <tag k="addr:street" v="4-й Микрорайон"/>
    <tag k="building" v="yes"/>
    <tag k="building:levels" v="9"/>
    <tag k="is_in" v="Russia"/>
  </way>
  <way id="36830637" version="5" timestamp="2011-01-12T10:25:08Z" uid="115477" user="wowik" changeset="6945653">
    <nd ref="428146854"/>
    <nd ref="428146824"/>
    <nd ref="428146846"/>
    <nd ref="428146833"/>
    <nd ref="428146854"/>
    <tag k="addr:city" v="Зеленоград"/>
    <tag k="addr:housenumber" v="424Б"/>
    <tag k="addr:street" v="4-й Микрорайон"/>
    <tag k="building" v="yes"/>
    <tag k="building:levels" v="9"/>
    <tag k="building:use" v="residential"/>
    <tag k="is_in" v="Russia"/>
  </way>
  <way id="36830637" version="6" timestamp="2011-01-12T11:08:37Z" uid="115477" user="wowik" changeset="6945967">
    <nd ref="428146854"/>
    <nd ref="428146824"/>
    <nd ref="428146846"/>
    <nd ref="428146833"/>
    <nd ref="1099603001"/>
    <nd ref="1099603031"/>
    <nd ref="1099602966"/>
    <nd ref="1099603072"/>
    <nd ref="428146854"/>
    <tag k="addr:city" v="Зеленоград"/>
    <tag k="addr:housenumber" v="424Б"/>
    <tag k="addr:street" v="4-й Микрорайон"/>
    <tag k="building" v="yes"/>
    <tag k="building:levels" v="9"/>
    <tag k="building:use" v="residential"/>
    <tag k="is_in" v="Russia"/>
  </way>
  <way id="36830638" version="4" timestamp="2010-04-25T17:56:53Z" uid="115477" user="wowik" changeset="4524343">
    <nd ref="428146635"/>
    <nd ref="428146696"/>
    <nd ref="428146521"/>
    <nd ref="428146659"/>
    <nd ref="428146692"/>
    <nd ref="428146572"/>
    <nd ref="428146497"/>
    <nd ref="428146269"/>
    <nd ref="428146485"/>
    <nd ref="428146348"/>
    <nd ref="428146672"/>
    <nd ref="428146731"/>
    <nd ref="428146442"/>
    <nd ref="428146679"/>
    <nd ref="428146565"/>
    <nd ref="428146456"/>
    <nd ref="428146635"/>
    <tag k="addr:city" v="Зеленоград"/>
    <tag k="addr:housenumber" v="454"/>
    <tag k="addr:street" v="4-й Микрорайон"/>
    <tag k="building" v="yes"/>
    <tag k="building:levels" v="9"/>
    <tag k="is_in" v="Russia"/>
  </way>
  <way id="36830638" version="5" timestamp="2010-11-08T17:17:03Z" uid="115477" user="wowik" changeset="6322246">
    <nd ref="428146635"/>
    <nd ref="428146696"/>
    <nd ref="428146521"/>
    <nd ref="428146659"/>
    <nd ref="428146692"/>
    <nd ref="428146572"/>
    <nd ref="428146497"/>
    <nd ref="428146269"/>
    <nd ref="428146485"/>
    <nd ref="428146348"/>
    <nd ref="428146672"/>
    <nd ref="428146731"/>
    <nd ref="428146442"/>
    <nd ref="428146679"/>
    <nd ref="428146565"/>
    <nd ref="428146456"/>
    <nd ref="428146635"/>
    <tag k="addr:city" v="Зеленоград"/>
    <tag k="addr:housenumber" v="454"/>
    <tag k="addr:street" v="4-й Микрорайон"/>
    <tag k="building" v="yes"/>
    <tag k="building:levels" v="9"/>
    <tag k="is_in" v="Russia"/>
  </way>
  <way id="36830638" version="6" timestamp="2010-11-30T16:56:52Z" uid="115477" user="wowik" changeset="6495856">
    <nd ref="428146635"/>
    <nd ref="428146696"/>
    <nd ref="428146521"/>
    <nd ref="428146659"/>
    <nd ref="428146692"/>
    <nd ref="428146572"/>
    <nd ref="428146497"/>
    <nd ref="428146269"/>
    <nd ref="428146485"/>
    <nd ref="428146348"/>
    <nd ref="428146672"/>
    <nd ref="428146731"/>
    <nd ref="428146442"/>
    <nd ref="428146679"/>
    <nd ref="428146565"/>
    <nd ref="428146456"/>
    <nd ref="428146635"/>
    <tag k="addr:city" v="Зеленоград"/>
    <tag k="addr:country" v="RU"/>
    <tag k="addr:housenumber" v="454"/>
    <tag k="addr:region" v="Москва"/>
    <tag k="addr:street" v="4-й Микрорайон"/>
    <tag k="building" v="yes"/>
    <tag k="building:levels" v="9"/>
    <tag k="is_in" v="Russia"/>
  </way>
  <way id="36830638" version="7" timestamp="2011-01-12T10:24:59Z" uid="115477" user="wowik" changeset="6945653">
    <nd ref="428146635"/>
    <nd ref="428146696"/>
    <nd ref="428146521"/>
    <nd ref="428146659"/>
    <nd ref="428146692"/>
    <nd ref="428146572"/>
    <nd ref="428146497"/>
    <nd ref="428146269"/>
    <nd ref="428146485"/>
    <nd ref="428146348"/>
    <nd ref="428146672"/>
    <nd ref="428146731"/>
    <nd ref="428146442"/>
    <nd ref="428146679"/>
    <nd ref="428146565"/>
    <nd ref="428146456"/>
    <nd ref="428146635"/>
    <tag k="addr:city" v="Зеленоград"/>
    <tag k="addr:country" v="RU"/>
    <tag k="addr:housenumber" v="454"/>
    <tag k="addr:region" v="Москва"/>
    <tag k="addr:street" v="4-й Микрорайон"/>
    <tag k="building" v="yes"/>
    <tag k="building:levels" v="9"/>
    <tag k="building:use" v="residential"/>
    <tag k="is_in" v="Russia"/>
  </way>
  <way id="36830638" version="8" timestamp="2011-01-12T11:08:35Z" uid="115477" user="wowik" changeset="6945967">
    <nd ref="428146635"/>
    <nd ref="428146696"/>
    <nd ref="1099603028"/>
    <nd ref="428146521"/>
    <nd ref="428146659"/>
    <nd ref="1099603085"/>
    <nd ref="428146692"/>
    <nd ref="428146572"/>
    <nd ref="1099603054"/>
    <nd ref="428146497"/>
    <nd ref="428146269"/>
    <nd ref="428146485"/>
    <nd ref="428146348"/>
    <nd ref="428146672"/>
    <nd ref="428146731"/>
    <nd ref="428146442"/>
    <nd ref="428146679"/>
    <nd ref="428146565"/>
    <nd ref="428146456"/>
    <nd ref="428146635"/>
    <tag k="addr:city" v="Зеленоград"/>
    <tag k="addr:country" v="RU"/>
    <tag k="addr:housenumber" v="454"/>
    <tag k="addr:region" v="Москва"/>
    <tag k="addr:street" v="4-й Микрорайон"/>
    <tag k="building" v="yes"/>
    <tag k="building:levels" v="9"/>
    <tag k="building:use" v="residential"/>
    <tag k="is_in" v="Russia"/>
  </way>
  <way id="36830639" version="4" timestamp="2010-10-13T17:32:41Z" uid="115477" user="wowik" changeset="6031203">
    <nd ref="428146813"/>
    <nd ref="428146920"/>
    <nd ref="428147137"/>
    <nd ref="428147098"/>
    <nd ref="428146813"/>
    <tag k="addr:city" v="Зеленоград"/>
    <tag k="addr:housenumber" v="453"/>
    <tag k="addr:street" v="4-й Микрорайон"/>
    <tag k="building" v="yes"/>
    <tag k="building:levels" v="10"/>
    <tag k="is_in" v="Russia"/>
  </way>
  <way id="36830639" version="5" timestamp="2010-11-09T16:05:04Z" uid="115477" user="wowik" changeset="6327211">
    <nd ref="428146813"/>
    <nd ref="983494238"/>
    <nd ref="983494258"/>
    <nd ref="983494215"/>
    <nd ref="983494214"/>
    <nd ref="983494249"/>
    <nd ref="983494271"/>
    <nd ref="983494222"/>
    <nd ref="983494243"/>
    <nd ref="983494265"/>
    <nd ref="983494221"/>
    <nd ref="428146920"/>
    <nd ref="983494269"/>
    <nd ref="428147137"/>
    <nd ref="983494248"/>
    <nd ref="983494253"/>
    <nd ref="983494227"/>
    <nd ref="983494277"/>
    <nd ref="983494233"/>
    <nd ref="983494204"/>
    <nd ref="983494207"/>
    <nd ref="983494252"/>
    <nd ref="983494232"/>
    <nd ref="428147098"/>
    <nd ref="983494212"/>
    <nd ref="983494264"/>
    <nd ref="983494237"/>
    <nd ref="983494257"/>
    <nd ref="428146813"/>
    <tag k="addr:city" v="Зеленоград"/>
    <tag k="addr:housenumber" v="453"/>
    <tag k="addr:street" v="4-й Микрорайон"/>
    <tag k="building" v="yes"/>
    <tag k="building:levels" v="10"/>
    <tag k="is_in" v="Russia"/>
  </way>
  <way id="36830639" version="6" timestamp="2011-01-12T11:08:33Z" uid="115477" user="wowik" changeset="6945967">
    <nd ref="428146813"/>
    <nd ref="983494238"/>
    <nd ref="983494258"/>
    <nd ref="983494215"/>
    <nd ref="983494214"/>
    <nd ref="983494249"/>
    <nd ref="983494271"/>
    <nd ref="983494222"/>
    <nd ref="983494243"/>
    <nd ref="983494265"/>
    <nd ref="983494221"/>
    <nd ref="428146920"/>
    <nd ref="983494269"/>
    <nd ref="428147137"/>
    <nd ref="983494248"/>
    <nd ref="1099603083"/>
    <nd ref="983494253"/>
    <nd ref="983494227"/>
    <nd ref="983494277"/>
    <nd ref="983494233"/>
    <nd ref="1099603015"/>
    <nd ref="983494204"/>
    <nd ref="983494207"/>
    <nd ref="983494252"/>
    <nd ref="983494232"/>
    <nd ref="1099603035"/>
    <nd ref="428147098"/>
    <nd ref="983494212"/>
    <nd ref="983494264"/>
    <nd ref="983494237"/>
    <nd ref="983494257"/>
    <nd ref="428146813"/>
    <tag k="addr:city" v="Зеленоград"/>
    <tag k="addr:housenumber" v="453"/>
    <tag k="addr:street" v="4-й Микрорайон"/>
    <tag k="building" v="yes"/>
    <tag k="building:levels" v="10"/>
    <tag k="is_in" v="Russia"/>
  </way>
  <way id="36830640" version="4" timestamp="2010-04-25T17:52:07Z" uid="115477" user="wowik" changeset="4524343">
    <nd ref="428146853"/>
    <nd ref="428147088"/>
    <nd ref="428146878"/>
    <nd ref="428146851"/>
    <nd ref="428146853"/>
    <tag k="addr:city" v="Зеленоград"/>
    <tag k="addr:housenumber" v="1"/>
    <tag k="addr:street" v="Берёзовая аллея"/>
    <tag k="building" v="yes"/>
    <tag k="building:levels" v="9"/>
    <tag k="cladr:code" v="77000002000084500"/>
    <tag k="is_in" v="Russia"/>
  </way>
  <way id="36830640" version="5" timestamp="2011-01-12T10:25:13Z" uid="115477" user="wowik" changeset="6945653">
    <nd ref="428146853"/>
    <nd ref="428147088"/>
    <nd ref="428146878"/>
    <nd ref="428146851"/>
    <nd ref="428146853"/>
    <tag k="addr:city" v="Зеленоград"/>
    <tag k="addr:housenumber" v="1"/>
    <tag k="addr:street" v="Берёзовая аллея"/>
    <tag k="building" v="yes"/>
    <tag k="building:levels" v="9"/>
    <tag k="building:use" v="residential"/>
    <tag k="cladr:code" v="77000002000084500"/>
    <tag k="is_in" v="Russia"/>
  </way>
  <way id="36830640" version="6" timestamp="2011-01-12T11:08:38Z" uid="115477" user="wowik" changeset="6945967">
    <nd ref="428146853"/>
    <nd ref="428147088"/>
    <nd ref="428146878"/>
    <nd ref="1099603029"/>
    <nd ref="428146851"/>
    <nd ref="428146853"/>
    <tag k="addr:city" v="Зеленоград"/>
    <tag k="addr:housenumber" v="1"/>
    <tag k="addr:street" v="Берёзовая аллея"/>
    <tag k="building" v="yes"/>
    <tag k="building:levels" v="9"/>
    <tag k="building:use" v="residential"/>
    <tag k="cladr:code" v="77000002000084500"/>
    <tag k="is_in" v="Russia"/>
  </way>
  <way id="36830642" version="4" timestamp="2010-04-25T17:57:29Z" uid="115477" user="wowik" changeset="4524343">
    <nd ref="428146567"/>
    <nd ref="428146656"/>
    <nd ref="428146735"/>
    <nd ref="428146640"/>
    <nd ref="428146567"/>
    <tag k="addr:city" v="Зеленоград"/>
    <tag k="addr:housenumber" v="441"/>
    <tag k="addr:street" v="4-й Микрорайон"/>
    <tag k="building" v="yes"/>
    <tag k="building:levels" v="9"/>
    <tag k="is_in" v="Russia"/>
  </way>
  <way id="36830642" version="5" timestamp="2011-01-12T10:24:56Z" uid="115477" user="wowik" changeset="6945653">
    <nd ref="428146567"/>
    <nd ref="428146656"/>
    <nd ref="428146735"/>
    <nd ref="428146640"/>
    <nd ref="428146567"/>
    <tag k="addr:city" v="Зеленоград"/>
    <tag k="addr:housenumber" v="441"/>
    <tag k="addr:street" v="4-й Микрорайон"/>
    <tag k="building" v="yes"/>
    <tag k="building:levels" v="9"/>
    <tag k="building:use" v="residential"/>
    <tag k="is_in" v="Russia"/>
  </way>
  <way id="36830644" version="4" timestamp="2010-04-25T17:52:36Z" uid="115477" user="wowik" changeset="4524343">
    <nd ref="428146762"/>
    <nd ref="428146779"/>
    <nd ref="428147132"/>
    <nd ref="428147039"/>
    <nd ref="428146762"/>
    <tag k="addr:city" v="Зеленоград"/>
    <tag k="addr:housenumber" v="2"/>
    <tag k="addr:street" v="Берёзовая аллея"/>
    <tag k="building" v="yes"/>
    <tag k="building:levels" v="9"/>
    <tag k="cladr:code" v="77000002000084500"/>
    <tag k="is_in" v="Russia"/>
  </way>
  <way id="36830644" version="5" timestamp="2011-01-12T10:25:45Z" uid="115477" user="wowik" changeset="6945653">
    <nd ref="428146762"/>
    <nd ref="428146779"/>
    <nd ref="428147132"/>
    <nd ref="428147039"/>
    <nd ref="428146762"/>
    <tag k="addr:city" v="Зеленоград"/>
    <tag k="addr:housenumber" v="2"/>
    <tag k="addr:street" v="Берёзовая аллея"/>
    <tag k="building" v="yes"/>
    <tag k="building:levels" v="9"/>
    <tag k="building:use" v="residential"/>
    <tag k="cladr:code" v="77000002000084500"/>
    <tag k="is_in" v="Russia"/>
  </way>
  <way id="36830644" version="6" timestamp="2011-01-12T11:08:42Z" uid="115477" user="wowik" changeset="6945967">
    <nd ref="428146762"/>
    <nd ref="428146779"/>
    <nd ref="428147132"/>
    <nd ref="1099603076"/>
    <nd ref="428147039"/>
    <nd ref="428146762"/>
    <tag k="addr:city" v="Зеленоград"/>
    <tag k="addr:housenumber" v="2"/>
    <tag k="addr:street" v="Берёзовая аллея"/>
    <tag k="building" v="yes"/>
    <tag k="building:levels" v="9"/>
    <tag k="building:use" v="residential"/>
    <tag k="cladr:code" v="77000002000084500"/>
    <tag k="is_in" v="Russia"/>
  </way>
  <way id="36830645" version="4" timestamp="2010-04-21T10:24:58Z" uid="115477" user="wowik" changeset="4485137">
    <nd ref="428147113"/>
    <nd ref="428146873"/>
    <nd ref="428146788"/>
    <nd ref="428147008"/>
    <nd ref="428146986"/>
    <nd ref="428146970"/>
    <nd ref="428147035"/>
    <nd ref="428146783"/>
    <nd ref="428147071"/>
    <nd ref="428146948"/>
    <nd ref="428147116"/>
    <nd ref="428147082"/>
    <nd ref="428147113"/>
    <tag k="addr:city" v="Зеленоград"/>
    <tag k="addr:housenumber" v="428А"/>
    <tag k="addr:street" v="4-й Микрорайон"/>
    <tag k="amenity" v="school"/>
    <tag k="building" v="yes"/>
    <tag k="is_in" v="Russia"/>
    <tag k="name" v="школа № 1710"/>
  </way>
  <way id="36830645" version="5" timestamp="2010-04-21T13:16:01Z" uid="115477" user="wowik" changeset="4486364">
    <nd ref="428147113"/>
    <nd ref="428146873"/>
    <nd ref="428146788"/>
    <nd ref="428147008"/>
    <nd ref="428146986"/>
    <nd ref="428146970"/>
    <nd ref="428147035"/>
    <nd ref="428146783"/>
    <nd ref="428147071"/>
    <nd ref="428146948"/>
    <nd ref="428147116"/>
    <nd ref="428147082"/>
    <nd ref="428147113"/>
    <tag k="addr:city" v="Зеленоград"/>
    <tag k="addr:housenumber" v="428А"/>
    <tag k="addr:street" v="4-й Микрорайон"/>
    <tag k="amenity" v="school"/>
    <tag k="building" v="yes"/>
    <tag k="is_in" v="Russia"/>
    <tag k="name" v="школа №1710"/>
  </way>
  <way id="36830645" version="6" timestamp="2010-04-25T17:51:41Z" uid="115477" user="wowik" changeset="4524343">
    <nd ref="428147113"/>
    <nd ref="428146873"/>
    <nd ref="428146788"/>
    <nd ref="428147008"/>
    <nd ref="428146986"/>
    <nd ref="428146970"/>
    <nd ref="428147035"/>
    <nd ref="428146783"/>
    <nd ref="428147071"/>
    <nd ref="428146948"/>
    <nd ref="428147116"/>
    <nd ref="428147082"/>
    <nd ref="428147113"/>
    <tag k="addr:city" v="Зеленоград"/>
    <tag k="addr:housenumber" v="428А"/>
    <tag k="addr:street" v="4-й Микрорайон"/>
    <tag k="amenity" v="school"/>
    <tag k="building" v="yes"/>
    <tag k="building:levels" v="3"/>
    <tag k="is_in" v="Russia"/>
    <tag k="name" v="школа №1710"/>
  </way>
  <way id="36830645" version="8" timestamp="2010-11-08T17:16:23Z" uid="115477" user="wowik" changeset="6322246">
    <nd ref="428147113"/>
    <nd ref="428146873"/>
    <nd ref="428146788"/>
    <nd ref="428147008"/>
    <nd ref="982632265"/>
    <nd ref="982632437"/>
    <nd ref="982632168"/>
    <nd ref="982632334"/>
    <nd ref="428146986"/>
    <nd ref="982632503"/>
    <nd ref="982632151"/>
    <nd ref="428146970"/>
    <nd ref="428147035"/>
    <nd ref="428146783"/>
    <nd ref="428147071"/>
    <nd ref="428146948"/>
    <nd ref="428147116"/>
    <nd ref="982632291"/>
    <nd ref="982632121"/>
    <nd ref="428147082"/>
    <nd ref="982632393"/>
    <nd ref="982632226"/>
    <nd ref="982632491"/>
    <nd ref="982632322"/>
    <nd ref="428147113"/>
    <tag k="addr:city" v="Зеленоград"/>
    <tag k="addr:housenumber" v="428А"/>
    <tag k="addr:street" v="4-й Микрорайон"/>
    <tag k="amenity" v="school"/>
    <tag k="building" v="yes"/>
    <tag k="building:levels" v="3"/>
    <tag k="is_in" v="Russia"/>
    <tag k="name" v="Школа №1710"/>
  </way>
  <way id="36830646" version="4" timestamp="2010-11-08T17:16:16Z" uid="115477" user="wowik" changeset="6322246">
    <nd ref="428146760"/>
    <nd ref="982632418"/>
    <nd ref="982632332"/>
    <nd ref="428146736"/>
    <nd ref="982632429"/>
    <nd ref="982632162"/>
    <nd ref="982632527"/>
    <nd ref="982632259"/>
    <nd ref="982632148"/>
    <nd ref="982632358"/>
    <nd ref="982632192"/>
    <nd ref="428146669"/>
    <nd ref="982632316"/>
    <nd ref="428146309"/>
    <nd ref="428146647"/>
    <nd ref="428146686"/>
    <nd ref="428146263"/>
    <nd ref="428146561"/>
    <nd ref="428146438"/>
    <nd ref="428146512"/>
    <nd ref="428146760"/>
    <tag k="addr:city" v="Зеленоград"/>
    <tag k="addr:housenumber" v="456"/>
    <tag k="addr:street" v="4-й Микрорайон"/>
    <tag k="building" v="yes"/>
    <tag k="is_in" v="Russia"/>
  </way>
  <way id="36830646" version="6" timestamp="2010-12-20T14:47:50Z" uid="115477" user="wowik" changeset="6716627">
    <nd ref="987770692"/>
    <nd ref="428146438"/>
    <nd ref="428146512"/>
    <nd ref="428146760"/>
    <nd ref="982632418"/>
    <nd ref="982632332"/>
    <nd ref="428146736"/>
    <nd ref="982632429"/>
    <nd ref="982632162"/>
    <nd ref="982632527"/>
    <nd ref="982632259"/>
    <nd ref="987770694"/>
    <nd ref="987770692"/>
    <tag k="addr:city" v="Зеленоград"/>
    <tag k="addr:housenumber" v="456"/>
    <tag k="addr:street" v="4-й Микрорайон"/>
    <tag k="building" v="yes"/>
    <tag k="building:levels" v="7"/>
    <tag k="is_in" v="Russia"/>
  </way>
  <way id="36830647" version="4" timestamp="2010-10-13T17:36:40Z" uid="115477" user="wowik" changeset="6031283">
    <nd ref="428146902"/>
    <nd ref="428146826"/>
    <nd ref="428147003"/>
    <nd ref="428146913"/>
    <nd ref="428146902"/>
    <tag k="addr:city" v="Зеленоград"/>
    <tag k="addr:housenumber" v="414"/>
    <tag k="addr:street" v="4-й Микрорайон"/>
    <tag k="building" v="yes"/>
    <tag k="building:levels" v="10"/>
    <tag k="is_in" v="Russia"/>
  </way>
  <way id="36830647" version="5" timestamp="2011-01-12T10:25:10Z" uid="115477" user="wowik" changeset="6945653">
    <nd ref="428146902"/>
    <nd ref="428146826"/>
    <nd ref="428147003"/>
    <nd ref="428146913"/>
    <nd ref="428146902"/>
    <tag k="addr:city" v="Зеленоград"/>
    <tag k="addr:housenumber" v="414"/>
    <tag k="addr:street" v="4-й Микрорайон"/>
    <tag k="building" v="yes"/>
    <tag k="building:levels" v="10"/>
    <tag k="building:use" v="residential"/>
    <tag k="is_in" v="Russia"/>
  </way>
  <way id="36830648" version="3" timestamp="2009-08-02T19:09:57Z" uid="115477" user="wowik" changeset="2018495">
    <nd ref="428146504"/>
    <nd ref="454597800"/>
    <nd ref="428146394"/>
    <nd ref="428146401"/>
    <nd ref="454597777"/>
    <nd ref="428146715"/>
    <nd ref="428146504"/>
    <tag k="addr:city" v="Зеленоград"/>
    <tag k="addr:housenumber" v="405"/>
    <tag k="addr:street" v="4-й микрорайон"/>
    <tag k="building" v="yes"/>
    <tag k="is_in" v="Russia"/>
  </way>
  <way id="36830648" version="6" timestamp="2010-11-30T16:56:53Z" uid="115477" user="wowik" changeset="6495856">
    <nd ref="428146504"/>
    <nd ref="454597800"/>
    <nd ref="428146394"/>
    <nd ref="428146401"/>
    <nd ref="454597777"/>
    <nd ref="428146715"/>
    <nd ref="428146504"/>
    <tag k="addr:city" v="Зеленоград"/>
    <tag k="addr:country" v="RU"/>
    <tag k="addr:housenumber" v="405"/>
    <tag k="addr:region" v="Москва"/>
    <tag k="addr:street" v="4-й Микрорайон"/>
    <tag k="building" v="yes"/>
    <tag k="building:levels" v="9"/>
    <tag k="is_in" v="Russia"/>
  </way>
  <way id="36830648" version="7" timestamp="2011-01-12T10:25:33Z" uid="115477" user="wowik" changeset="6945653">
    <nd ref="428146504"/>
    <nd ref="454597800"/>
    <nd ref="428146394"/>
    <nd ref="428146401"/>
    <nd ref="454597777"/>
    <nd ref="428146715"/>
    <nd ref="428146504"/>
    <tag k="addr:city" v="Зеленоград"/>
    <tag k="addr:country" v="RU"/>
    <tag k="addr:housenumber" v="405"/>
    <tag k="addr:region" v="Москва"/>
    <tag k="addr:street" v="4-й Микрорайон"/>
    <tag k="building" v="yes"/>
    <tag k="building:levels" v="9"/>
    <tag k="building:use" v="residential"/>
    <tag k="is_in" v="Russia"/>
  </way>
  <way id="36830648" version="8" timestamp="2011-01-12T11:08:41Z" uid="115477" user="wowik" changeset="6945967">
    <nd ref="428146504"/>
    <nd ref="454597800"/>
    <nd ref="428146394"/>
    <nd ref="428146401"/>
    <nd ref="1099603064"/>
    <nd ref="1099603033"/>
    <nd ref="1099602999"/>
    <nd ref="1099602970"/>
    <nd ref="454597777"/>
    <nd ref="1099603057"/>
    <nd ref="1099603023"/>
    <nd ref="1099603069"/>
    <nd ref="1099603041"/>
    <nd ref="1099602980"/>
    <nd ref="1099603079"/>
    <nd ref="1099602940"/>
    <nd ref="428146715"/>
    <nd ref="428146504"/>
    <tag k="addr:city" v="Зеленоград"/>
    <tag k="addr:country" v="RU"/>
    <tag k="addr:housenumber" v="405"/>
    <tag k="addr:region" v="Москва"/>
    <tag k="addr:street" v="4-й Микрорайон"/>
    <tag k="building" v="yes"/>
    <tag k="building:levels" v="9"/>
    <tag k="building:use" v="residential"/>
    <tag k="is_in" v="Russia"/>
  </way>
  <way id="36830649" version="5" timestamp="2010-01-14T13:47:44Z" uid="115477" user="wowik" changeset="3617052">
    <nd ref="428146796"/>
    <nd ref="428146963"/>
    <nd ref="428146811"/>
    <nd ref="428146933"/>
    <nd ref="428146796"/>
    <tag k="addr:city" v="Зеленоград"/>
    <tag k="addr:housenumber" v="419А"/>
    <tag k="addr:street" v="4-й Микрорайон"/>
    <tag k="amenity" v="kindergarten"/>
    <tag k="building" v="yes"/>
    <tag k="is_in" v="Russia"/>
    <tag k="name" v="детский сад № 455"/>
  </way>
  <way id="36830649" version="6" timestamp="2010-01-14T13:48:24Z" uid="115477" user="wowik" changeset="3617052">
    <nd ref="428146796"/>
    <nd ref="428146963"/>
    <nd ref="428146811"/>
    <nd ref="428146933"/>
    <nd ref="428146796"/>
    <tag k="addr:city" v="Зеленоград"/>
    <tag k="addr:housenumber" v="419А"/>
    <tag k="addr:street" v="4-й Микрорайон"/>
    <tag k="amenity" v="kindergarten"/>
    <tag k="building" v="yes"/>
    <tag k="is_in" v="Russia"/>
    <tag k="name" v="д/с № 455"/>
  </way>
  <way id="36830649" version="7" timestamp="2010-01-14T13:52:24Z" uid="115477" user="wowik" changeset="3617092">
    <nd ref="428146796"/>
    <nd ref="428146963"/>
    <nd ref="428146811"/>
    <nd ref="428146933"/>
    <nd ref="428146796"/>
    <tag k="addr:city" v="Зеленоград"/>
    <tag k="addr:housenumber" v="419А"/>
    <tag k="addr:street" v="4-й Микрорайон"/>
    <tag k="amenity" v="kindergarten"/>
    <tag k="building" v="yes"/>
    <tag k="is_in" v="Russia"/>
    <tag k="name" v="Д/с № 455"/>
  </way>
  <way id="36830649" version="8" timestamp="2010-01-14T16:40:26Z" uid="115477" user="wowik" changeset="3618117">
    <nd ref="428146796"/>
    <nd ref="428146963"/>
    <nd ref="428146811"/>
    <nd ref="428146933"/>
    <nd ref="428146796"/>
    <tag k="addr:city" v="Зеленоград"/>
    <tag k="addr:housenumber" v="419А"/>
    <tag k="addr:street" v="4-й Микрорайон"/>
    <tag k="amenity" v="kindergarten"/>
    <tag k="building" v="yes"/>
    <tag k="is_in" v="Russia"/>
    <tag k="name" v="Д/с №455"/>
  </way>
  <way id="36830649" version="9" timestamp="2010-04-15T17:40:54Z" uid="115477" user="wowik" changeset="4432733">
    <nd ref="428146796"/>
    <nd ref="428146963"/>
    <nd ref="428146811"/>
    <nd ref="428146933"/>
    <nd ref="697576279"/>
    <nd ref="697576280"/>
    <nd ref="697576293"/>
    <nd ref="697576295"/>
    <nd ref="428146796"/>
    <tag k="addr:city" v="Зеленоград"/>
    <tag k="addr:housenumber" v="419А"/>
    <tag k="addr:street" v="4-й Микрорайон"/>
    <tag k="amenity" v="kindergarten"/>
    <tag k="building" v="yes"/>
    <tag k="is_in" v="Russia"/>
    <tag k="name" v="Д/с №455"/>
  </way>
  <way id="36830649" version="10" timestamp="2010-04-21T10:36:30Z" uid="115477" user="wowik" changeset="4485166">
    <nd ref="428146796"/>
    <nd ref="428146963"/>
    <nd ref="428146811"/>
    <nd ref="428146933"/>
    <nd ref="697576279"/>
    <nd ref="697576280"/>
    <nd ref="697576293"/>
    <nd ref="697576295"/>
    <nd ref="428146796"/>
    <tag k="addr:city" v="Зеленоград"/>
    <tag k="addr:housenumber" v="419А"/>
    <tag k="addr:street" v="4-й Микрорайон"/>
    <tag k="amenity" v="kindergarten"/>
    <tag k="building" v="yes"/>
    <tag k="is_in" v="Russia"/>
    <tag k="name" v="д/с №455"/>
  </way>
  <way id="36830649" version="11" timestamp="2010-04-21T10:39:26Z" uid="115477" user="wowik" changeset="4485166">
    <nd ref="428146796"/>
    <nd ref="428146963"/>
    <nd ref="428146811"/>
    <nd ref="428146933"/>
    <nd ref="697576279"/>
    <nd ref="697576280"/>
    <nd ref="697576293"/>
    <nd ref="697576295"/>
    <nd ref="428146796"/>
    <tag k="addr:city" v="Зеленоград"/>
    <tag k="addr:housenumber" v="419А"/>
    <tag k="addr:street" v="4-й Микрорайон"/>
    <tag k="amenity" v="kindergarten"/>
    <tag k="building" v="yes"/>
    <tag k="description" v="Логопедический"/>
    <tag k="is_in" v="Russia"/>
    <tag k="name" v="д/с №455"/>
  </way>
  <way id="36830649" version="13" timestamp="2010-12-20T14:45:33Z" uid="115477" user="wowik" changeset="6716627">
    <nd ref="428146796"/>
    <nd ref="428146963"/>
    <nd ref="428146811"/>
    <nd ref="428146933"/>
    <nd ref="697576279"/>
    <nd ref="697576280"/>
    <nd ref="697576293"/>
    <nd ref="697576295"/>
    <nd ref="428146796"/>
    <tag k="addr:city" v="Зеленоград"/>
    <tag k="addr:housenumber" v="419А"/>
    <tag k="addr:street" v="4-й Микрорайон"/>
    <tag k="amenity" v="kindergarten"/>
    <tag k="building" v="yes"/>
    <tag k="building:levels" v="3"/>
    <tag k="description" v="Логопедический"/>
    <tag k="is_in" v="Russia"/>
    <tag k="name" v="Детский сад №455"/>
  </way>
  <way id="36830649" version="14" timestamp="2011-01-12T11:08:39Z" uid="115477" user="wowik" changeset="6945967">
    <nd ref="428146796"/>
    <nd ref="428146963"/>
    <nd ref="1099603051"/>
    <nd ref="1099603032"/>
    <nd ref="1099602968"/>
    <nd ref="428146811"/>
    <nd ref="428146933"/>
    <nd ref="697576279"/>
    <nd ref="697576280"/>
    <nd ref="697576293"/>
    <nd ref="697576295"/>
    <nd ref="428146796"/>
    <tag k="addr:city" v="Зеленоград"/>
    <tag k="addr:housenumber" v="419А"/>
    <tag k="addr:street" v="4-й Микрорайон"/>
    <tag k="amenity" v="kindergarten"/>
    <tag k="building" v="yes"/>
    <tag k="building:levels" v="3"/>
    <tag k="description" v="Логопедический"/>
    <tag k="is_in" v="Russia"/>
    <tag k="name" v="Детский сад №455"/>
  </way>
  <way id="36830650" version="4" timestamp="2010-04-25T17:57:05Z" uid="115477" user="wowik" changeset="4524343">
    <nd ref="428146843"/>
    <nd ref="428146889"/>
    <nd ref="428146836"/>
    <nd ref="428146801"/>
    <nd ref="428146843"/>
    <tag k="addr:city" v="Зеленоград"/>
    <tag k="addr:housenumber" v="450"/>
    <tag k="addr:street" v="4-й Микрорайон"/>
    <tag k="building" v="yes"/>
    <tag k="building:levels" v="12"/>
    <tag k="is_in" v="Russia"/>
  </way>
  <way id="36830651" version="4" timestamp="2010-04-21T10:48:19Z" uid="115477" user="wowik" changeset="4485166">
    <nd ref="428146684"/>
    <nd ref="428146712"/>
    <nd ref="428146722"/>
    <nd ref="428146282"/>
    <nd ref="428146684"/>
    <tag k="addr:city" v="Зеленоград"/>
    <tag k="addr:housenumber" v="404А"/>
    <tag k="addr:street" v="4-й Микрорайон"/>
    <tag k="amenity" v="kindergarten"/>
    <tag k="building" v="yes"/>
    <tag k="depth" v="с яслями"/>
    <tag k="is_in" v="Russia"/>
    <tag k="name" v="д/с №524"/>
  </way>
  <way id="36830651" version="5" timestamp="2010-04-25T17:57:06Z" uid="115477" user="wowik" changeset="4524343">
    <nd ref="428146684"/>
    <nd ref="428146712"/>
    <nd ref="428146722"/>
    <nd ref="428146282"/>
    <nd ref="428146684"/>
    <tag k="addr:city" v="Зеленоград"/>
    <tag k="addr:housenumber" v="404А"/>
    <tag k="addr:street" v="4-й Микрорайон"/>
    <tag k="amenity" v="kindergarten"/>
    <tag k="building" v="yes"/>
    <tag k="building:levels" v="3"/>
    <tag k="depth" v="с яслями"/>
    <tag k="is_in" v="Russia"/>
    <tag k="name" v="д/с №524"/>
  </way>
  <way id="36830651" version="7" timestamp="2010-11-08T14:56:41Z" uid="115477" user="wowik" changeset="6321309">
    <nd ref="428146684"/>
    <nd ref="428146712"/>
    <nd ref="428146722"/>
    <nd ref="428146282"/>
    <nd ref="982476783"/>
    <nd ref="982476753"/>
    <nd ref="982476746"/>
    <nd ref="982476756"/>
    <nd ref="428146684"/>
    <tag k="addr:city" v="Зеленоград"/>
    <tag k="addr:housenumber" v="404А"/>
    <tag k="addr:street" v="4-й Микрорайон"/>
    <tag k="amenity" v="kindergarten"/>
    <tag k="building" v="yes"/>
    <tag k="building:levels" v="3"/>
    <tag k="depth" v="с яслями"/>
    <tag k="is_in" v="Russia"/>
    <tag k="name" v="Детский сад №524"/>
  </way>
  <way id="36830652" version="4" timestamp="2010-10-13T17:38:02Z" uid="115477" user="wowik" changeset="6031283">
    <nd ref="428147094"/>
    <nd ref="428146817"/>
    <nd ref="428146983"/>
    <nd ref="428147018"/>
    <nd ref="428147094"/>
    <tag k="addr:city" v="Зеленоград"/>
    <tag k="addr:housenumber" v="415"/>
    <tag k="addr:street" v="4-й Микрорайон"/>
    <tag k="building" v="yes"/>
    <tag k="building:levels" v="9"/>
    <tag k="is_in" v="Russia"/>
  </way>
  <way id="36830652" version="5" timestamp="2011-01-12T10:24:50Z" uid="115477" user="wowik" changeset="6945653">
    <nd ref="428147094"/>
    <nd ref="428146817"/>
    <nd ref="428146983"/>
    <nd ref="428147018"/>
    <nd ref="428147094"/>
    <tag k="addr:city" v="Зеленоград"/>
    <tag k="addr:housenumber" v="415"/>
    <tag k="addr:street" v="4-й Микрорайон"/>
    <tag k="building" v="yes"/>
    <tag k="building:levels" v="9"/>
    <tag k="building:use" v="residential"/>
    <tag k="is_in" v="Russia"/>
  </way>
  <way id="36830652" version="6" timestamp="2011-01-12T11:08:34Z" uid="115477" user="wowik" changeset="6945967">
    <nd ref="428147094"/>
    <nd ref="428146817"/>
    <nd ref="428146983"/>
    <nd ref="1099603019"/>
    <nd ref="428147018"/>
    <nd ref="428147094"/>
    <tag k="addr:city" v="Зеленоград"/>
    <tag k="addr:housenumber" v="415"/>
    <tag k="addr:street" v="4-й Микрорайон"/>
    <tag k="building" v="yes"/>
    <tag k="building:levels" v="9"/>
    <tag k="building:use" v="residential"/>
    <tag k="is_in" v="Russia"/>
  </way>
  <way id="36830653" version="6" timestamp="2010-04-25T17:56:56Z" uid="115477" user="wowik" changeset="4524343">
    <nd ref="428146690"/>
    <nd ref="428146642"/>
    <nd ref="428146751"/>
    <nd ref="428146445"/>
    <nd ref="428146234"/>
    <nd ref="428146260"/>
    <nd ref="428146668"/>
    <nd ref="428146505"/>
    <nd ref="428146533"/>
    <nd ref="428146460"/>
    <nd ref="428146690"/>
    <tag k="addr:city" v="Зеленоград"/>
    <tag k="addr:housenumber" v="403А"/>
    <tag k="addr:street" v="4-й Микрорайон"/>
    <tag k="building" v="yes"/>
    <tag k="building:levels" v="2"/>
    <tag k="is_in" v="Russia"/>
    <tag k="name" v="4-й ТЦ"/>
    <tag k="shop" v="mall"/>
  </way>
  <way id="36830653" version="7" timestamp="2010-11-08T15:19:00Z" uid="115477" user="wowik" changeset="6321309">
    <nd ref="428146690"/>
    <nd ref="428146642"/>
    <nd ref="428146751"/>
    <nd ref="428146445"/>
    <nd ref="428146234"/>
    <nd ref="428146260"/>
    <nd ref="428146668"/>
    <nd ref="428146460"/>
    <nd ref="428146690"/>
    <tag k="addr:city" v="Зеленоград"/>
    <tag k="addr:housenumber" v="403А"/>
    <tag k="addr:street" v="4-й Микрорайон"/>
    <tag k="building" v="yes"/>
    <tag k="building:levels" v="2"/>
    <tag k="is_in" v="Russia"/>
    <tag k="name" v="4-й ТЦ"/>
    <tag k="shop" v="mall"/>
  </way>
  <way id="36830653" version="8" timestamp="2010-11-08T17:17:01Z" uid="115477" user="wowik" changeset="6322246">
    <nd ref="428146690"/>
    <nd ref="428146642"/>
    <nd ref="982632386"/>
    <nd ref="428146751"/>
    <nd ref="982632116"/>
    <nd ref="428146445"/>
    <nd ref="428146234"/>
    <nd ref="428146260"/>
    <nd ref="428146668"/>
    <nd ref="428146460"/>
    <nd ref="428146690"/>
    <tag k="addr:city" v="Зеленоград"/>
    <tag k="addr:housenumber" v="403А"/>
    <tag k="addr:street" v="4-й Микрорайон"/>
    <tag k="building" v="yes"/>
    <tag k="building:levels" v="2"/>
    <tag k="is_in" v="Russia"/>
    <tag k="name" v="4-й ТЦ"/>
    <tag k="shop" v="mall"/>
  </way>
  <way id="36830653" version="9" timestamp="2011-01-12T11:20:20Z" uid="115477" user="wowik" changeset="6946036">
    <nd ref="428146690"/>
    <nd ref="428146642"/>
    <nd ref="982632386"/>
    <nd ref="428146751"/>
    <nd ref="982632116"/>
    <nd ref="428146445"/>
    <nd ref="428146234"/>
    <nd ref="428146260"/>
    <nd ref="428146668"/>
    <nd ref="428146460"/>
    <nd ref="1099613479"/>
    <nd ref="428146690"/>
    <tag k="addr:city" v="Зеленоград"/>
    <tag k="addr:housenumber" v="403А"/>
    <tag k="addr:street" v="4-й Микрорайон"/>
    <tag k="building" v="yes"/>
    <tag k="building:levels" v="2"/>
    <tag k="is_in" v="Russia"/>
    <tag k="name" v="4-й ТЦ"/>
    <tag k="shop" v="mall"/>
  </way>
  <way id="36830653" version="10" timestamp="2011-01-25T18:03:27Z" uid="115477" user="wowik" changeset="7086022">
    <nd ref="1120099400"/>
    <nd ref="1120099375"/>
    <nd ref="1120099413"/>
    <nd ref="1120099376"/>
    <nd ref="1120099389"/>
    <nd ref="1120099397"/>
    <nd ref="1120099395"/>
    <nd ref="1120099411"/>
    <nd ref="1120099380"/>
    <nd ref="1120099387"/>
    <nd ref="1120099381"/>
    <nd ref="1120099377"/>
    <nd ref="428146260"/>
    <nd ref="428146668"/>
    <nd ref="428146460"/>
    <nd ref="1099613479"/>
    <nd ref="428146690"/>
    <nd ref="1120099400"/>
    <tag k="addr:city" v="Зеленоград"/>
    <tag k="addr:housenumber" v="403А"/>
    <tag k="addr:street" v="4-й Микрорайон"/>
    <tag k="building" v="yes"/>
    <tag k="building:levels" v="2"/>
    <tag k="is_in" v="Russia"/>
    <tag k="name" v="4-й ТЦ"/>
    <tag k="shop" v="mall"/>
  </way>
  <way id="36830654" version="4" timestamp="2010-04-25T17:57:25Z" uid="115477" user="wowik" changeset="4524343">
    <nd ref="428146413"/>
    <nd ref="428146645"/>
    <nd ref="428146249"/>
    <nd ref="428146757"/>
    <nd ref="428146657"/>
    <nd ref="428146404"/>
    <nd ref="428146467"/>
    <nd ref="428146449"/>
    <nd ref="428146606"/>
    <nd ref="428146513"/>
    <nd ref="428146747"/>
    <nd ref="428146287"/>
    <nd ref="428146683"/>
    <nd ref="428146680"/>
    <nd ref="428146711"/>
    <nd ref="428146369"/>
    <nd ref="428146413"/>
    <tag k="addr:city" v="Зеленоград"/>
    <tag k="addr:housenumber" v="455"/>
    <tag k="addr:street" v="4-й Микрорайон"/>
    <tag k="building" v="yes"/>
    <tag k="building:levels" v="3"/>
    <tag k="is_in" v="Russia"/>
  </way>
  <way id="36830654" version="5" timestamp="2011-01-12T10:25:39Z" uid="115477" user="wowik" changeset="6945653">
    <nd ref="428146413"/>
    <nd ref="428146645"/>
    <nd ref="428146249"/>
    <nd ref="428146757"/>
    <nd ref="428146657"/>
    <nd ref="428146404"/>
    <nd ref="428146467"/>
    <nd ref="428146449"/>
    <nd ref="428146606"/>
    <nd ref="428146513"/>
    <nd ref="428146747"/>
    <nd ref="428146287"/>
    <nd ref="428146683"/>
    <nd ref="428146680"/>
    <nd ref="428146711"/>
    <nd ref="428146369"/>
    <nd ref="428146413"/>
    <tag k="addr:city" v="Зеленоград"/>
    <tag k="addr:housenumber" v="455"/>
    <tag k="addr:street" v="4-й Микрорайон"/>
    <tag k="building" v="yes"/>
    <tag k="building:levels" v="3"/>
    <tag k="building:use" v="residential"/>
    <tag k="is_in" v="Russia"/>
  </way>
  <way id="36830655" version="3" timestamp="2009-08-02T19:09:59Z" uid="115477" user="wowik" changeset="2018495">
    <nd ref="428146758"/>
    <nd ref="454597810"/>
    <nd ref="428146612"/>
    <nd ref="428146515"/>
    <nd ref="454597813"/>
    <nd ref="428146395"/>
    <nd ref="428146758"/>
    <tag k="addr:city" v="Зеленоград"/>
    <tag k="addr:housenumber" v="433"/>
    <tag k="addr:street" v="4-й микрорайон"/>
    <tag k="building" v="yes"/>
    <tag k="is_in" v="Russia"/>
  </way>
  <way id="36830655" version="5" timestamp="2010-04-25T17:57:28Z" uid="115477" user="wowik" changeset="4524343">
    <nd ref="428146758"/>
    <nd ref="454597810"/>
    <nd ref="428146612"/>
    <nd ref="428146515"/>
    <nd ref="454597813"/>
    <nd ref="428146395"/>
    <nd ref="428146758"/>
    <tag k="addr:city" v="Зеленоград"/>
    <tag k="addr:housenumber" v="433"/>
    <tag k="addr:street" v="4-й Микрорайон"/>
    <tag k="building" v="yes"/>
    <tag k="building:levels" v="9"/>
    <tag k="is_in" v="Russia"/>
  </way>
  <way id="36830655" version="6" timestamp="2010-11-30T16:56:46Z" uid="115477" user="wowik" changeset="6495856">
    <nd ref="428146758"/>
    <nd ref="454597810"/>
    <nd ref="428146612"/>
    <nd ref="428146515"/>
    <nd ref="454597813"/>
    <nd ref="428146395"/>
    <nd ref="428146758"/>
    <tag k="addr:city" v="Зеленоград"/>
    <tag k="addr:country" v="RU"/>
    <tag k="addr:housenumber" v="433"/>
    <tag k="addr:region" v="Москва"/>
    <tag k="addr:street" v="4-й Микрорайон"/>
    <tag k="building" v="yes"/>
    <tag k="building:levels" v="9"/>
    <tag k="is_in" v="Russia"/>
    <tag k="landuse" v="service"/>
  </way>
  <way id="36830655" version="7" timestamp="2011-01-12T10:25:26Z" uid="115477" user="wowik" changeset="6945653">
    <nd ref="428146758"/>
    <nd ref="454597810"/>
    <nd ref="428146612"/>
    <nd ref="428146515"/>
    <nd ref="454597813"/>
    <nd ref="428146395"/>
    <nd ref="428146758"/>
    <tag k="addr:city" v="Зеленоград"/>
    <tag k="addr:country" v="RU"/>
    <tag k="addr:housenumber" v="433"/>
    <tag k="addr:region" v="Москва"/>
    <tag k="addr:street" v="4-й Микрорайон"/>
    <tag k="building" v="yes"/>
    <tag k="building:levels" v="9"/>
    <tag k="building:use" v="residential"/>
    <tag k="is_in" v="Russia"/>
    <tag k="landuse" v="service"/>
  </way>
  <way id="36830656" version="4" timestamp="2010-04-25T17:57:20Z" uid="115477" user="wowik" changeset="4524343">
    <nd ref="428146421"/>
    <nd ref="428146307"/>
    <nd ref="428146230"/>
    <nd ref="428146520"/>
    <nd ref="428146474"/>
    <nd ref="428146615"/>
    <nd ref="428146706"/>
    <nd ref="428146290"/>
    <nd ref="428146303"/>
    <nd ref="428146286"/>
    <nd ref="428146313"/>
    <nd ref="428146716"/>
    <nd ref="428146695"/>
    <nd ref="428146253"/>
    <nd ref="428146733"/>
    <nd ref="428146719"/>
    <nd ref="428146421"/>
    <tag k="addr:city" v="Зеленоград"/>
    <tag k="addr:housenumber" v="458"/>
    <tag k="addr:street" v="4-й Микрорайон"/>
    <tag k="building" v="yes"/>
    <tag k="building:levels" v="9"/>
    <tag k="is_in" v="Russia"/>
  </way>
  <way id="36830656" version="5" timestamp="2011-01-12T10:24:45Z" uid="115477" user="wowik" changeset="6945653">
    <nd ref="428146421"/>
    <nd ref="428146307"/>
    <nd ref="428146230"/>
    <nd ref="428146520"/>
    <nd ref="428146474"/>
    <nd ref="428146615"/>
    <nd ref="428146706"/>
    <nd ref="428146290"/>
    <nd ref="428146303"/>
    <nd ref="428146286"/>
    <nd ref="428146313"/>
    <nd ref="428146716"/>
    <nd ref="428146695"/>
    <nd ref="428146253"/>
    <nd ref="428146733"/>
    <nd ref="428146719"/>
    <nd ref="428146421"/>
    <tag k="addr:city" v="Зеленоград"/>
    <tag k="addr:housenumber" v="458"/>
    <tag k="addr:street" v="4-й Микрорайон"/>
    <tag k="building" v="yes"/>
    <tag k="building:levels" v="9"/>
    <tag k="building:use" v="residential"/>
    <tag k="is_in" v="Russia"/>
  </way>
  <way id="36830657" version="3" timestamp="2009-08-02T19:13:33Z" uid="115477" user="wowik" changeset="2018495">
    <nd ref="428146518"/>
    <nd ref="454599889"/>
    <nd ref="428146345"/>
    <nd ref="428146326"/>
    <nd ref="454599894"/>
    <nd ref="428146595"/>
    <nd ref="428146518"/>
    <tag k="addr:city" v="Зеленоград"/>
    <tag k="addr:housenumber" v="445"/>
    <tag k="addr:street" v="4-й микрорайон"/>
    <tag k="building" v="yes"/>
    <tag k="is_in" v="Russia"/>
  </way>
  <way id="36830657" version="5" timestamp="2010-04-25T17:57:16Z" uid="115477" user="wowik" changeset="4524343">
    <nd ref="428146518"/>
    <nd ref="454599889"/>
    <nd ref="428146345"/>
    <nd ref="428146326"/>
    <nd ref="454599894"/>
    <nd ref="428146595"/>
    <nd ref="428146518"/>
    <tag k="addr:city" v="Зеленоград"/>
    <tag k="addr:housenumber" v="445"/>
    <tag k="addr:street" v="4-й Микрорайон"/>
    <tag k="building" v="yes"/>
    <tag k="building:levels" v="9"/>
    <tag k="is_in" v="Russia"/>
  </way>
  <way id="36830657" version="6" timestamp="2010-11-08T12:47:28Z" uid="115477" user="wowik" changeset="6319974">
    <nd ref="428146518"/>
    <nd ref="454599889"/>
    <nd ref="982322646"/>
    <nd ref="428146345"/>
    <nd ref="428146326"/>
    <nd ref="454599894"/>
    <nd ref="428146595"/>
    <nd ref="428146518"/>
    <tag k="addr:city" v="Зеленоград"/>
    <tag k="addr:housenumber" v="445"/>
    <tag k="addr:street" v="4-й Микрорайон"/>
    <tag k="building" v="yes"/>
    <tag k="building:levels" v="9"/>
    <tag k="is_in" v="Russia"/>
  </way>
  <way id="36830657" version="7" timestamp="2010-11-08T13:31:21Z" uid="115477" user="wowik" changeset="6319974">
    <nd ref="428146518"/>
    <nd ref="982348429"/>
    <nd ref="454599889"/>
    <nd ref="982322646"/>
    <nd ref="428146326"/>
    <nd ref="454599894"/>
    <nd ref="428146595"/>
    <nd ref="428146518"/>
    <tag k="addr:city" v="Зеленоград"/>
    <tag k="addr:housenumber" v="445"/>
    <tag k="addr:street" v="4-й Микрорайон"/>
    <tag k="building" v="yes"/>
    <tag k="building:levels" v="9"/>
    <tag k="is_in" v="Russia"/>
  </way>
  <way id="36830657" version="8" timestamp="2011-01-12T10:25:46Z" uid="115477" user="wowik" changeset="6945653">
    <nd ref="428146518"/>
    <nd ref="982348429"/>
    <nd ref="454599889"/>
    <nd ref="982322646"/>
    <nd ref="428146326"/>
    <nd ref="454599894"/>
    <nd ref="428146595"/>
    <nd ref="428146518"/>
    <tag k="addr:city" v="Зеленоград"/>
    <tag k="addr:housenumber" v="445"/>
    <tag k="addr:street" v="4-й Микрорайон"/>
    <tag k="building" v="yes"/>
    <tag k="building:levels" v="9"/>
    <tag k="building:use" v="residential"/>
    <tag k="is_in" v="Russia"/>
  </way>
  <way id="36830658" version="4" timestamp="2010-04-25T17:57:38Z" uid="115477" user="wowik" changeset="4524343">
    <nd ref="428146325"/>
    <nd ref="428146296"/>
    <nd ref="428146502"/>
    <nd ref="428146228"/>
    <nd ref="428146325"/>
    <tag k="addr:city" v="Зеленоград"/>
    <tag k="addr:housenumber" v="431"/>
    <tag k="addr:street" v="4-й Микрорайон"/>
    <tag k="building" v="yes"/>
    <tag k="building:levels" v="3"/>
    <tag k="is_in" v="Russia"/>
  </way>
  <way id="36830658" version="5" timestamp="2011-01-12T10:25:35Z" uid="115477" user="wowik" changeset="6945653">
    <nd ref="428146325"/>
    <nd ref="428146296"/>
    <nd ref="428146502"/>
    <nd ref="428146228"/>
    <nd ref="428146325"/>
    <tag k="addr:city" v="Зеленоград"/>
    <tag k="addr:housenumber" v="431"/>
    <tag k="addr:street" v="4-й Микрорайон"/>
    <tag k="building" v="yes"/>
    <tag k="building:levels" v="3"/>
    <tag k="building:use" v="residential"/>
    <tag k="is_in" v="Russia"/>
  </way>
  <way id="36830659" version="4" timestamp="2010-04-25T17:52:37Z" uid="115477" user="wowik" changeset="4524343">
    <nd ref="428146803"/>
    <nd ref="428146917"/>
    <nd ref="428146770"/>
    <nd ref="428147140"/>
    <nd ref="428146803"/>
    <tag k="addr:city" v="Зеленоград"/>
    <tag k="addr:housenumber" v="423"/>
    <tag k="addr:street" v="4-й Микрорайон"/>
    <tag k="building" v="yes"/>
    <tag k="building:levels" v="9"/>
    <tag k="is_in" v="Russia"/>
  </way>
  <way id="36830659" version="5" timestamp="2011-01-12T10:25:21Z" uid="115477" user="wowik" changeset="6945653">
    <nd ref="428146803"/>
    <nd ref="428146917"/>
    <nd ref="428146770"/>
    <nd ref="428147140"/>
    <nd ref="428146803"/>
    <tag k="addr:city" v="Зеленоград"/>
    <tag k="addr:housenumber" v="423"/>
    <tag k="addr:street" v="4-й Микрорайон"/>
    <tag k="building" v="yes"/>
    <tag k="building:levels" v="9"/>
    <tag k="building:use" v="residential"/>
    <tag k="is_in" v="Russia"/>
  </way>
  <way id="36830659" version="6" timestamp="2011-01-12T11:08:40Z" uid="115477" user="wowik" changeset="6945967">
    <nd ref="428146803"/>
    <nd ref="428146917"/>
    <nd ref="428146770"/>
    <nd ref="1099603018"/>
    <nd ref="428147140"/>
    <nd ref="428146803"/>
    <tag k="addr:city" v="Зеленоград"/>
    <tag k="addr:housenumber" v="423"/>
    <tag k="addr:street" v="4-й Микрорайон"/>
    <tag k="building" v="yes"/>
    <tag k="building:levels" v="9"/>
    <tag k="building:use" v="residential"/>
    <tag k="is_in" v="Russia"/>
  </way>
  <way id="36830660" version="3" timestamp="2009-08-02T19:27:20Z" uid="115477" user="wowik" changeset="2018727"/>
  <way id="36830661" version="4" timestamp="2010-04-21T10:50:14Z" uid="115477" user="wowik" changeset="4485166">
    <nd ref="428146330"/>
    <nd ref="428146274"/>
    <nd ref="428146720"/>
    <nd ref="428146704"/>
    <nd ref="428146330"/>
    <tag k="addr:city" v="Зеленоград"/>
    <tag k="addr:housenumber" v="411А"/>
    <tag k="addr:street" v="4-й Микрорайон"/>
    <tag k="building" v="yes"/>
    <tag k="description" v="Зеленоградское окружное управление образования (ЗелОУО) Департамента образования г.Москвы"/>
    <tag k="is_in" v="Russia"/>
    <tag k="name" v="РОНО"/>
    <tag k="website" v="http://www.zou.ru"/>
  </way>
  <way id="36830661" version="5" timestamp="2010-04-25T17:57:33Z" uid="115477" user="wowik" changeset="4524343">
    <nd ref="428146330"/>
    <nd ref="428146274"/>
    <nd ref="428146720"/>
    <nd ref="428146704"/>
    <nd ref="428146330"/>
    <tag k="addr:city" v="Зеленоград"/>
    <tag k="addr:housenumber" v="411А"/>
    <tag k="addr:street" v="4-й Микрорайон"/>
    <tag k="building" v="yes"/>
    <tag k="building:levels" v="3"/>
    <tag k="description" v="Зеленоградское окружное управление образования (ЗелОУО) Департамента образования г.Москвы"/>
    <tag k="is_in" v="Russia"/>
    <tag k="name" v="РОНО"/>
    <tag k="website" v="http://www.zou.ru"/>
  </way>
  <way id="36830661" version="6" timestamp="2010-11-08T14:56:46Z" uid="115477" user="wowik" changeset="6321309">
    <nd ref="428146330"/>
    <nd ref="428146274"/>
    <nd ref="428146720"/>
    <nd ref="428146704"/>
    <nd ref="982476788"/>
    <nd ref="982476760"/>
    <nd ref="982476755"/>
    <nd ref="982476789"/>
    <nd ref="428146330"/>
    <tag k="addr:city" v="Зеленоград"/>
    <tag k="addr:housenumber" v="411А"/>
    <tag k="addr:street" v="4-й Микрорайон"/>
    <tag k="building" v="yes"/>
    <tag k="building:levels" v="3"/>
    <tag k="description" v="Зеленоградское окружное управление образования (ЗелОУО) Департамента образования г.Москвы"/>
    <tag k="is_in" v="Russia"/>
    <tag k="name" v="РОНО"/>
    <tag k="website" v="http://www.zou.ru"/>
  </way>
  <way id="36830661" version="7" timestamp="2010-11-30T16:56:47Z" uid="115477" user="wowik" changeset="6495856">
    <nd ref="428146330"/>
    <nd ref="428146274"/>
    <nd ref="428146720"/>
    <nd ref="428146704"/>
    <nd ref="982476788"/>
    <nd ref="982476760"/>
    <nd ref="982476755"/>
    <nd ref="982476789"/>
    <nd ref="428146330"/>
    <tag k="addr:city" v="Зеленоград"/>
    <tag k="addr:country" v="RU"/>
    <tag k="addr:housenumber" v="411А"/>
    <tag k="addr:region" v="Москва"/>
    <tag k="addr:street" v="4-й Микрорайон"/>
    <tag k="building" v="yes"/>
    <tag k="building:levels" v="3"/>
    <tag k="description" v="Зеленоградское окружное управление образования (ЗелОУО) Департамента образования г.Москвы"/>
    <tag k="is_in" v="Russia"/>
    <tag k="name" v="РОНО"/>
    <tag k="website" v="http://www.zou.ru"/>
  </way>
  <way id="36830762" version="2" timestamp="2009-07-17T07:17:00Z" uid="27600" user="Islanit" changeset="1851315">
    <nd ref="442870148"/>
    <nd ref="428149764"/>
    <nd ref="428149765"/>
    <nd ref="428149767"/>
    <nd ref="428149768"/>
    <nd ref="428149769"/>
    <nd ref="428149770"/>
    <nd ref="428149765"/>
    <tag k="highway" v="living_street"/>
    <tag k="name" v="Fanny-Lewald-Ring"/>
    <tag k="postal_code" v="21035"/>
  </way>
  <way id="36830764" version="2" timestamp="2009-07-17T07:17:35Z" uid="27600" user="Islanit" changeset="1851315">
    <nd ref="442870431"/>
    <nd ref="428149772"/>
    <nd ref="428149773"/>
    <nd ref="428149775"/>
    <nd ref="428149776"/>
    <nd ref="428149777"/>
    <nd ref="428149780"/>
    <nd ref="428149773"/>
    <tag k="highway" v="living_street"/>
    <tag k="name" v="Fanny-Lewald-Ring"/>
    <tag k="postal_code" v="21035"/>
  </way>
  <way id="36830766" version="2" timestamp="2009-07-17T07:16:55Z" uid="27600" user="Islanit" changeset="1851315">
    <nd ref="442870135"/>
    <nd ref="428149783"/>
    <nd ref="428149784"/>
    <nd ref="428149785"/>
    <nd ref="428149788"/>
    <nd ref="428149790"/>
    <nd ref="428149804"/>
    <nd ref="428149784"/>
    <tag k="highway" v="living_street"/>
    <tag k="name" v="Fanny-Lewald-Ring"/>
    <tag k="postal_code" v="21035"/>
  </way>
  <way id="36830975" version="2" timestamp="2010-09-17T19:13:22Z" uid="57673" user="Olaf Jan Schmidt" changeset="5806407">
    <nd ref="428154315"/>
    <nd ref="428154317"/>
    <nd ref="428154318"/>
    <nd ref="428154319"/>
    <nd ref="428154320"/>
    <nd ref="428154321"/>
    <nd ref="428154322"/>
    <nd ref="428154324"/>
    <nd ref="428154325"/>
    <nd ref="428154326"/>
    <nd ref="428154327"/>
    <nd ref="428154328"/>
    <nd ref="428154330"/>
    <nd ref="428154331"/>
    <nd ref="428154332"/>
    <nd ref="428154333"/>
    <nd ref="428154334"/>
    <nd ref="428154335"/>
    <nd ref="428154337"/>
    <nd ref="428154338"/>
    <nd ref="428154340"/>
    <nd ref="428154341"/>
    <nd ref="428154342"/>
    <nd ref="428154343"/>
    <nd ref="428154344"/>
    <nd ref="428154345"/>
    <nd ref="428154347"/>
    <nd ref="428154348"/>
    <nd ref="428154349"/>
    <nd ref="428154350"/>
    <nd ref="428154351"/>
    <nd ref="915817230"/>
    <nd ref="915817306"/>
    <nd ref="915817210"/>
    <nd ref="915817282"/>
    <nd ref="915817287"/>
    <nd ref="915817179"/>
    <nd ref="915817258"/>
    <nd ref="915817156"/>
    <nd ref="915817224"/>
    <nd ref="915817301"/>
    <nd ref="915817194"/>
    <nd ref="915817274"/>
    <nd ref="915817278"/>
    <nd ref="915817176"/>
    <nd ref="915817249"/>
    <nd ref="915817147"/>
    <nd ref="915817289"/>
    <nd ref="915817186"/>
    <nd ref="915817261"/>
    <nd ref="915817160"/>
    <nd ref="915817172"/>
    <nd ref="915817239"/>
    <nd ref="915817138"/>
    <nd ref="915817214"/>
    <nd ref="915817260"/>
    <nd ref="915817157"/>
    <nd ref="915817231"/>
    <nd ref="915817308"/>
    <nd ref="915817136"/>
    <nd ref="428175748"/>
    <tag k="highway" v="track"/>
  </way>
</osm>
