<?xml version='1.0' encoding='UTF-8'?>
<osm version="0.6" generator="libosmium/2.20.0">
  <way id="36873256" version="2" timestamp="2009-10-29T19:18:29Z" uid="36809" user="pfoten_weg_!_" changeset="2983809"/>
  <way id="36873350" version="4" timestamp="2011-03-17T14:16:28Z" uid="115477" user="wowik" changeset="7585805">
    <nd ref="428737093"/>
    <nd ref="428737094"/>
    <nd ref="428737095"/>
    <nd ref="1205686786"/>
    <nd ref="1205687185"/>
    <nd ref="1205687083"/>
    <nd ref="1205687023"/>
    <nd ref="1205687215"/>
    <nd ref="1205686645"/>
    <nd ref="428737093"/>
    <tag k="addr:housenumber" v="7"/>
    <tag k="addr:street" v="Смоленская улица"/>
    <tag k="building" v="yes"/>
    <tag k="cladr:code" v="77000000000267600"/>
  </way>
  <way id="36873351" version="4" timestamp="2011-03-17T14:16:46Z" uid="115477" user="wowik" changeset="7585805">
    <nd ref="428737097"/>
    <nd ref="428737098"/>
    <nd ref="428737099"/>
    <nd ref="428737100"/>
    <nd ref="428737101"/>
    <nd ref="428737103"/>
    <nd ref="1205687323"/>
    <nd ref="1205687300"/>
    <nd ref="1205686879"/>
    <nd ref="1205686900"/>
    <nd ref="428737104"/>
    <nd ref="428737097"/>
    <tag k="addr:city" v="Москва"/>
    <tag k="addr:housenumber" v="10"/>
    <tag k="addr:postcode" v="119121"/>
    <tag k="addr:street" v="улица Плющиха"/>
    <tag k="building" v="yes"/>
    <tag k="cladr:code" v="77000000000229800"/>
  </way>
  <way id="36873355" version="3" timestamp="2011-03-17T12:02:52Z" uid="115477" user="wowik" changeset="7584637">
    <nd ref="428737130"/>
    <nd ref="1205585645"/>
    <nd ref="1205585859"/>
    <nd ref="428737131"/>
    <nd ref="428737132"/>
    <nd ref="428737133"/>
    <nd ref="428737130"/>
    <tag k="building" v="yes"/>
    <tag k="cladr:code" v="77000000000197900"/>
  </way>
  <way id="36873803" version="3" timestamp="2010-04-03T13:50:15Z" uid="20587" user="balrog-kun" changeset="4312927">
    <nd ref="82998350"/>
    <nd ref="82995191"/>
    <nd ref="522041028"/>
    <nd ref="82998352"/>
    <nd ref="82998354"/>
    <nd ref="82998357"/>
    <tag k="highway" v="residential"/>
    <tag k="name" v="North 100  East"/>
    <tag k="tiger:cfcc" v="A41"/>
    <tag k="tiger:county" v="Davis, UT"/>
    <tag k="tiger:name_base" v="100"/>
    <tag k="tiger:name_direction_prefix" v="N"/>
    <tag k="tiger:name_direction_suffix" v="E"/>
    <tag k="tiger:reviewed" v="no"/>
    <tag k="tiger:separated" v="no"/>
    <tag k="tiger:source" v="tiger_import_dch_v0.6_20070830"/>
    <tag k="tiger:tlid" v="155310913:229352816:229352817"/>
    <tag k="tiger:zip_left" v="84014"/>
    <tag k="tiger:zip_right" v="84014"/>
  </way>
  <way id="36873805" version="3" timestamp="2010-04-03T13:50:16Z" uid="20587" user="balrog-kun" changeset="4312927">
    <nd ref="428740866"/>
    <nd ref="428740880"/>
    <tag k="highway" v="residential"/>
    <tag k="name" v="North 100  East"/>
    <tag k="tiger:cfcc" v="A41"/>
    <tag k="tiger:county" v="Davis, UT"/>
    <tag k="tiger:name_base" v="100"/>
    <tag k="tiger:name_direction_prefix" v="N"/>
    <tag k="tiger:name_direction_suffix" v="E"/>
    <tag k="tiger:reviewed" v="no"/>
    <tag k="tiger:separated" v="no"/>
    <tag k="tiger:source" v="tiger_import_dch_v0.6_20070830"/>
    <tag k="tiger:tlid" v="155310913:229352816:229352817"/>
    <tag k="tiger:zip_left" v="84014"/>
    <tag k="tiger:zip_right" v="84014"/>
  </way>
  <way id="36873892" version="3" timestamp="2010-07-09T03:49:48Z" uid="74617" user="JohnSmith" changeset="5170825">
    <nd ref="355277570"/>
    <nd ref="355277574"/>
    <nd ref="355277575"/>
    <nd ref="355277578"/>
    <tag k="highway" v="residential"/>
    <tag k="maxspeed" v="50"/>
    <tag k="maxspeed:source" v="default residential speed limit in Australia"/>
    <tag k="name" v="Leslie Street"/>
  </way>
  <way id="36873896" version="3" timestamp="2010-07-09T03:45:44Z" uid="74617" user="JohnSmith" changeset="5170825">
    <nd ref="355277681"/>
    <nd ref="355277693"/>
    <nd ref="355277696"/>
    <nd ref="355277698"/>
    <tag k="highway" v="residential"/>
    <tag k="maxspeed" v="50"/>
    <tag k="maxspeed:source" v="default residential speed limit in Australia"/>
    <tag k="name" v="Creek View"/>
  </way>
  <way id="36873902" version="3" timestamp="2010-07-09T03:51:58Z" uid="74617" user="JohnSmith" changeset="5170825">
    <nd ref="355277731"/>
    <nd ref="355277735"/>
    <nd ref="355276072"/>
    <nd ref="355276074"/>
    <nd ref="355276135"/>
    <nd ref="355275894"/>
    <nd ref="355275892"/>
    <nd ref="355276081"/>
    <nd ref="355276077"/>
    <tag k="highway" v="residential"/>
    <tag k="maxspeed" v="50"/>
    <tag k="maxspeed:source" v="default residential speed limit in Australia"/>
    <tag k="name" v="Rochester Drive"/>
  </way>
  <way id="36873956" version="4" timestamp="2010-07-09T03:44:56Z" uid="74617" user="JohnSmith" changeset="5170825">
    <nd ref="355277514"/>
    <nd ref="355277636"/>
    <nd ref="355277638"/>
    <nd ref="355277641"/>
    <nd ref="355277668"/>
    <nd ref="355277644"/>
    <nd ref="355277649"/>
    <nd ref="691198683"/>
    <nd ref="355277651"/>
    <nd ref="355277657"/>
    <nd ref="355277660"/>
    <tag k="highway" v="residential"/>
    <tag k="maxspeed" v="50"/>
    <tag k="maxspeed:source" v="default residential speed limit in Australia"/>
    <tag k="name" v="Murchison Way"/>
  </way>
  <way id="36873972" version="3" timestamp="2010-07-09T03:50:21Z" uid="74617" user="JohnSmith" changeset="5170825">
    <nd ref="428743423"/>
    <nd ref="355277607"/>
    <nd ref="355277629"/>
    <nd ref="355277631"/>
    <nd ref="355277715"/>
    <nd ref="355277514"/>
    <tag k="highway" v="residential"/>
    <tag k="maxspeed" v="50"/>
    <tag k="maxspeed:source" v="default residential speed limit in Australia"/>
    <tag k="name" v="Bridgewater Grove"/>
  </way>
</osm>
