<?xml version='1.0' encoding='UTF-8'?>
<osm version="0.6" generator="libosmium/2.20.0">
  <way id="36899697" version="2" timestamp="2010-03-28T02:25:19Z" uid="20587" user="balrog-kun" changeset="4250871">
    <nd ref="429119855"/>
    <nd ref="429119854"/>
    <tag k="bridge" v="yes"/>
    <tag k="created_by" v="Potlatch 0.10f"/>
    <tag k="highway" v="primary"/>
    <tag k="layer" v="1"/>
    <tag k="name" v="West Empire Street"/>
    <tag k="name_1" v="State Highway 20"/>
    <tag k="ref" v="20"/>
    <tag k="tiger:cfcc" v="A11"/>
    <tag k="tiger:county" v="Nevada, CA"/>
    <tag k="tiger:name_base" v="Empire"/>
    <tag k="tiger:name_base_1" v="State Highway 20"/>
    <tag k="tiger:name_direction_prefix" v="W"/>
    <tag k="tiger:name_type" v="St"/>
    <tag k="tiger:reviewed" v="no"/>
    <tag k="tiger:separated" v="no"/>
    <tag k="tiger:source" v="tiger_import_dch_v0.6_20070809"/>
    <tag k="tiger:tlid" v="106534166:106534171:106534180:106535662"/>
  </way>
  <way id="36899700" version="4" timestamp="2010-03-28T02:25:20Z" uid="20587" user="balrog-kun" changeset="4250871">
    <nd ref="429119863"/>
    <nd ref="89940257"/>
    <tag k="highway" v="motorway"/>
    <tag k="layer" v="1"/>
    <tag k="name" v="Golden Center Freeway"/>
    <tag k="name_1" v="State Highway 49"/>
    <tag k="ref" v="CA 20; CA 49"/>
    <tag k="tiger:cfcc" v="A11"/>
    <tag k="tiger:county" v="Nevada, CA"/>
    <tag k="tiger:name_base" v="Golden Center"/>
    <tag k="tiger:name_base_1" v="State Highway 49"/>
    <tag k="tiger:name_type" v="Fwy"/>
    <tag k="tiger:reviewed" v="no"/>
    <tag k="tiger:separated" v="no"/>
    <tag k="tiger:source" v="tiger_import_dch_v0.6_20070809"/>
    <tag k="tiger:tlid" v="106534256:106534317:106534327:106535668"/>
  </way>
  <way id="36899701" version="4" timestamp="2010-03-28T02:25:20Z" uid="20587" user="balrog-kun" changeset="4250871">
    <nd ref="429119862"/>
    <nd ref="298974359"/>
    <tag k="bridge" v="yes"/>
    <tag k="highway" v="motorway"/>
    <tag k="layer" v="1"/>
    <tag k="name" v="Golden Center Freeway"/>
    <tag k="name_1" v="State Highway 49"/>
    <tag k="ref" v="CA 20; CA 49"/>
  </way>
  <way id="36899702" version="4" timestamp="2010-03-28T02:25:20Z" uid="20587" user="balrog-kun" changeset="4250871">
    <nd ref="356335053"/>
    <nd ref="356335054"/>
    <nd ref="356335055"/>
    <tag k="bridge" v="yes"/>
    <tag k="highway" v="motorway"/>
    <tag k="layer" v="1"/>
    <tag k="name" v="Golden Center Freeway"/>
    <tag k="name_1" v="State Highway 49"/>
    <tag k="ref" v="CA 20; CA 49"/>
  </way>
  <way id="36899704" version="3" timestamp="2010-03-28T02:25:20Z" uid="20587" user="balrog-kun" changeset="4250871">
    <nd ref="429119866"/>
    <nd ref="429119864"/>
    <nd ref="429119865"/>
    <tag k="bridge" v="yes"/>
    <tag k="highway" v="motorway"/>
    <tag k="layer" v="1"/>
    <tag k="name" v="Golden Center Freeway"/>
    <tag k="name_1" v="State Highway 49"/>
    <tag k="ref" v="CA 20; CA 49"/>
    <tag k="tiger:cfcc" v="A11"/>
    <tag k="tiger:county" v="Nevada, CA"/>
    <tag k="tiger:name_base" v="Golden Center"/>
    <tag k="tiger:name_base_1" v="State Highway 49"/>
    <tag k="tiger:name_type" v="Fwy"/>
    <tag k="tiger:reviewed" v="no"/>
    <tag k="tiger:separated" v="no"/>
    <tag k="tiger:source" v="tiger_import_dch_v0.6_20070809"/>
    <tag k="tiger:tlid" v="106534256:106534317:106534327:106535668"/>
  </way>
  <way id="36899705" version="3" timestamp="2010-03-28T02:25:20Z" uid="20587" user="balrog-kun" changeset="4250871">
    <nd ref="429119865"/>
    <nd ref="429119859"/>
    <nd ref="298972184"/>
    <nd ref="298972181"/>
    <tag k="highway" v="motorway"/>
    <tag k="name" v="Golden Center Freeway"/>
    <tag k="name_1" v="State Highway 49"/>
    <tag k="ref" v="CA 20; CA 49"/>
    <tag k="tiger:cfcc" v="A11"/>
    <tag k="tiger:county" v="Nevada, CA"/>
    <tag k="tiger:name_base" v="Golden Center"/>
    <tag k="tiger:name_base_1" v="State Highway 49"/>
    <tag k="tiger:name_type" v="Fwy"/>
    <tag k="tiger:reviewed" v="no"/>
    <tag k="tiger:separated" v="no"/>
    <tag k="tiger:source" v="tiger_import_dch_v0.6_20070809"/>
    <tag k="tiger:tlid" v="106534256:106534317:106534327:106535668"/>
  </way>
  <way id="36899706" version="4" timestamp="2010-03-28T02:25:21Z" uid="20587" user="balrog-kun" changeset="4250871">
    <nd ref="89940257"/>
    <nd ref="89940259"/>
    <tag k="bridge" v="yes"/>
    <tag k="highway" v="motorway"/>
    <tag k="layer" v="1"/>
    <tag k="name" v="Golden Center Freeway"/>
    <tag k="name_1" v="State Highway 49"/>
    <tag k="ref" v="CA 20; CA 49"/>
    <tag k="tiger:cfcc" v="A11"/>
    <tag k="tiger:county" v="Nevada, CA"/>
    <tag k="tiger:name_base" v="Golden Center"/>
    <tag k="tiger:name_base_1" v="State Highway 49"/>
    <tag k="tiger:name_type" v="Fwy"/>
    <tag k="tiger:reviewed" v="no"/>
    <tag k="tiger:separated" v="no"/>
    <tag k="tiger:source" v="tiger_import_dch_v0.6_20070809"/>
    <tag k="tiger:tlid" v="106534256:106534317:106534327:106535668"/>
  </way>
  <way id="36899707" version="4" timestamp="2010-03-28T02:25:21Z" uid="20587" user="balrog-kun" changeset="4250871">
    <nd ref="429119858"/>
    <nd ref="298974356"/>
    <tag k="bridge" v="yes"/>
    <tag k="highway" v="motorway"/>
    <tag k="layer" v="1"/>
    <tag k="name" v="Golden Center Freeway"/>
    <tag k="name_1" v="State Highway 49"/>
    <tag k="ref" v="CA 20; CA 49"/>
  </way>
  <way id="36899708" version="4" timestamp="2010-03-28T02:25:21Z" uid="20587" user="balrog-kun" changeset="4250871">
    <nd ref="298974356"/>
    <nd ref="429119862"/>
    <tag k="highway" v="motorway"/>
    <tag k="layer" v="1"/>
    <tag k="name" v="Golden Center Freeway"/>
    <tag k="name_1" v="State Highway 49"/>
    <tag k="ref" v="CA 20; CA 49"/>
  </way>
  <way id="36899901" version="3" timestamp="2010-03-28T02:25:21Z" uid="20587" user="balrog-kun" changeset="4250871">
    <nd ref="429122351"/>
    <nd ref="87484914"/>
    <nd ref="429419578"/>
    <tag k="created_by" v="Potlatch 0.10f"/>
    <tag k="highway" v="residential"/>
    <tag k="name" v="Harvard Avenue"/>
    <tag k="tiger:cfcc" v="A41"/>
    <tag k="tiger:county" v="Fresno, CA"/>
    <tag k="tiger:name_base" v="Harvard"/>
    <tag k="tiger:name_type" v="Ave"/>
    <tag k="tiger:reviewed" v="no"/>
    <tag k="tiger:separated" v="no"/>
    <tag k="tiger:source" v="tiger_import_dch_v0.6_20070809"/>
    <tag k="tiger:tlid" v="197645811:197643205:197584866:197584869:197584324"/>
    <tag k="tiger:zip_left" v="93612"/>
    <tag k="tiger:zip_right" v="93612"/>
  </way>
</osm>
