<?xml version='1.0' encoding='UTF-8'?>
<osm version="0.6" generator="libosmium/2.20.0">
  <way id="36968274" version="4" timestamp="2011-01-18T13:30:46Z" uid="115477" user="wowik" changeset="7010451">
    <nd ref="429855171"/>
    <nd ref="1109000998"/>
    <nd ref="429855199"/>
    <nd ref="429855294"/>
    <nd ref="429855248"/>
    <nd ref="429855225"/>
    <nd ref="1109001027"/>
    <nd ref="429855194"/>
    <nd ref="429855239"/>
    <nd ref="429855172"/>
    <nd ref="429855171"/>
    <tag k="addr:city" v="Зеленоград"/>
    <tag k="addr:housenumber" v="1210"/>
    <tag k="addr:street" v="12-й Микрорайон"/>
    <tag k="building" v="yes"/>
    <tag k="building:levels" v="22"/>
    <tag k="is_in" v="Russia"/>
  </way>
  <way id="36968274" version="5" timestamp="2011-01-20T12:04:35Z" uid="115477" user="wowik" changeset="7029760">
    <nd ref="429855171"/>
    <nd ref="1109000998"/>
    <nd ref="1111527552"/>
    <nd ref="1111527424"/>
    <nd ref="1111527603"/>
    <nd ref="1111527485"/>
    <nd ref="1111527290"/>
    <nd ref="429855199"/>
    <nd ref="429855294"/>
    <nd ref="429855248"/>
    <nd ref="429855225"/>
    <nd ref="1109001027"/>
    <nd ref="1111527251"/>
    <nd ref="1111527641"/>
    <nd ref="1111527573"/>
    <nd ref="1111527379"/>
    <nd ref="1111527518"/>
    <nd ref="429855194"/>
    <nd ref="429855239"/>
    <nd ref="429855172"/>
    <nd ref="429855171"/>
    <tag k="addr:city" v="Зеленоград"/>
    <tag k="addr:housenumber" v="1210"/>
    <tag k="addr:street" v="12-й Микрорайон"/>
    <tag k="building" v="yes"/>
    <tag k="building:levels" v="22"/>
    <tag k="is_in" v="Russia"/>
  </way>
  <way id="36968275" version="3" timestamp="2011-01-18T13:30:53Z" uid="115477" user="wowik" changeset="7010451">
    <nd ref="429855215"/>
    <nd ref="429855146"/>
    <nd ref="429855290"/>
    <nd ref="429855285"/>
    <nd ref="429855215"/>
    <tag k="addr:city" v="Зеленоград"/>
    <tag k="addr:housenumber" v="1206c1"/>
    <tag k="addr:street" v="12-й Микрорайон"/>
    <tag k="building" v="yes"/>
    <tag k="building:levels" v="2"/>
    <tag k="is_in" v="Russia"/>
    <tag k="landuse" v="service"/>
  </way>
  <way id="36968276" version="2" timestamp="2009-10-07T16:07:15Z" uid="115477" user="wowik" changeset="2773205">
    <nd ref="429855151"/>
    <nd ref="429855303"/>
    <nd ref="524367652"/>
    <nd ref="429855180"/>
    <nd ref="429855270"/>
    <nd ref="429855151"/>
    <tag k="addr:city" v="Зеленоград"/>
    <tag k="addr:housenumber" v="1201А"/>
    <tag k="addr:street" v="12-й микрорайон"/>
    <tag k="is_in" v="Russia"/>
    <tag k="shop" v="car_repair"/>
  </way>
  <way id="36968276" version="3" timestamp="2011-03-14T11:07:02Z" uid="115477" user="wowik" changeset="7555126">
    <nd ref="429855151"/>
    <nd ref="429855303"/>
    <nd ref="524367652"/>
    <nd ref="429855180"/>
    <nd ref="429855270"/>
    <nd ref="429855151"/>
    <tag k="addr:city" v="Зеленоград"/>
    <tag k="addr:housenumber" v="1201А"/>
    <tag k="addr:street" v="12-й Микрорайон"/>
    <tag k="is_in" v="Russia"/>
    <tag k="shop" v="car_repair"/>
  </way>
  <way id="36968277" version="4" timestamp="2011-01-18T13:30:45Z" uid="115477" user="wowik" changeset="7010451">
    <nd ref="429855174"/>
    <nd ref="429855253"/>
    <nd ref="429855198"/>
    <nd ref="429855302"/>
    <nd ref="1109000943"/>
    <nd ref="1109000988"/>
    <nd ref="1109000923"/>
    <nd ref="1109000889"/>
    <nd ref="429855245"/>
    <nd ref="429855244"/>
    <nd ref="429855315"/>
    <nd ref="429855189"/>
    <nd ref="429855148"/>
    <nd ref="429855249"/>
    <nd ref="1109000826"/>
    <nd ref="1109000864"/>
    <nd ref="1109001029"/>
    <nd ref="1109000972"/>
    <nd ref="1109001065"/>
    <nd ref="1109000835"/>
    <nd ref="1109000919"/>
    <nd ref="1109001088"/>
    <nd ref="429855208"/>
    <nd ref="429855276"/>
    <nd ref="429855221"/>
    <nd ref="429855273"/>
    <nd ref="1109001109"/>
    <nd ref="1109000947"/>
    <nd ref="1109000890"/>
    <nd ref="1109001032"/>
    <nd ref="429855159"/>
    <nd ref="429855144"/>
    <nd ref="429855307"/>
    <nd ref="429855168"/>
    <nd ref="429855297"/>
    <nd ref="429855283"/>
    <nd ref="1109000924"/>
    <nd ref="1109000950"/>
    <nd ref="1109001110"/>
    <nd ref="1109001034"/>
    <nd ref="1109000992"/>
    <nd ref="1109000841"/>
    <nd ref="1109001001"/>
    <nd ref="1109001056"/>
    <nd ref="429855174"/>
    <tag k="addr:city" v="Зеленоград"/>
    <tag k="addr:housenumber" v="1217"/>
    <tag k="addr:street" v="12-й Микрорайон"/>
    <tag k="amenity" v="kindergarten"/>
    <tag k="building" v="yes"/>
    <tag k="comment" v="Детский сад №1405"/>
    <tag k="is_in" v="Russia"/>
    <tag k="name" v="д/с №1405"/>
  </way>
  <way id="36968279" version="3" timestamp="2011-04-01T17:48:09Z" uid="115477" user="wowik" changeset="7737524">
    <nd ref="429855214"/>
    <nd ref="429855213"/>
    <nd ref="429855155"/>
    <nd ref="429855257"/>
    <nd ref="429855169"/>
    <nd ref="429855272"/>
    <nd ref="429855195"/>
    <nd ref="429855268"/>
    <nd ref="429855214"/>
    <tag k="addr:city" v="Зеленоград"/>
    <tag k="addr:housenumber" v="1206"/>
    <tag k="addr:street" v="12-й Микрорайон"/>
    <tag k="building" v="yes"/>
    <tag k="building:use" v="residential"/>
    <tag k="is_in" v="Russia"/>
  </way>
  <way id="36968280" version="4" timestamp="2011-04-01T17:47:50Z" uid="115477" user="wowik" changeset="7737524">
    <nd ref="429855196"/>
    <nd ref="429855263"/>
    <nd ref="429855233"/>
    <nd ref="429855255"/>
    <nd ref="429855196"/>
    <tag k="addr:city" v="Зеленоград"/>
    <tag k="addr:housenumber" v="1215"/>
    <tag k="addr:street" v="12-й Микрорайон"/>
    <tag k="building" v="yes"/>
    <tag k="building:use" v="residential"/>
    <tag k="is_in" v="Russia"/>
  </way>
  <way id="36968282" version="4" timestamp="2011-01-20T12:04:31Z" uid="115477" user="wowik" changeset="7029760">
    <nd ref="429855261"/>
    <nd ref="1111527655"/>
    <nd ref="1111527590"/>
    <nd ref="1111527281"/>
    <nd ref="1111527448"/>
    <nd ref="1111527566"/>
    <nd ref="1111527515"/>
    <nd ref="429855280"/>
    <nd ref="429855311"/>
    <nd ref="429855301"/>
    <nd ref="429855153"/>
    <nd ref="1111527375"/>
    <nd ref="1111527634"/>
    <nd ref="1111527339"/>
    <nd ref="1111527478"/>
    <nd ref="1111527421"/>
    <nd ref="1111527546"/>
    <nd ref="1111527662"/>
    <nd ref="429855250"/>
    <nd ref="429855229"/>
    <nd ref="429855149"/>
    <nd ref="429855261"/>
    <tag k="addr:city" v="Зеленоград"/>
    <tag k="addr:housenumber" v="1211"/>
    <tag k="addr:street" v="12-й Микрорайон"/>
    <tag k="building" v="yes"/>
    <tag k="building:levels" v="22"/>
    <tag k="is_in" v="Russia"/>
  </way>
  <way id="36968283" version="5" timestamp="2011-01-18T13:30:43Z" uid="115477" user="wowik" changeset="7010451">
    <nd ref="429855152"/>
    <nd ref="1109000891"/>
    <nd ref="429855230"/>
    <nd ref="429855220"/>
    <nd ref="429855251"/>
    <nd ref="429855157"/>
    <nd ref="1109001112"/>
    <nd ref="429855299"/>
    <nd ref="429855306"/>
    <nd ref="429855288"/>
    <nd ref="429855152"/>
    <tag k="addr:city" v="Зеленоград"/>
    <tag k="addr:housenumber" v="1203"/>
    <tag k="addr:street" v="12-й Микрорайон"/>
    <tag k="building" v="yes"/>
    <tag k="building:levels" v="22"/>
    <tag k="is_in" v="Russia"/>
  </way>
  <way id="36968283" version="6" timestamp="2011-01-20T12:04:49Z" uid="115477" user="wowik" changeset="7029760">
    <nd ref="429855152"/>
    <nd ref="1109000891"/>
    <nd ref="1111527374"/>
    <nd ref="1111527512"/>
    <nd ref="1111527632"/>
    <nd ref="1111527569"/>
    <nd ref="1111527245"/>
    <nd ref="429855230"/>
    <nd ref="429855220"/>
    <nd ref="429855251"/>
    <nd ref="429855157"/>
    <nd ref="1109001112"/>
    <nd ref="1111527410"/>
    <nd ref="1111527540"/>
    <nd ref="1111527481"/>
    <nd ref="1111527600"/>
    <nd ref="1111527287"/>
    <nd ref="429855299"/>
    <nd ref="429855306"/>
    <nd ref="429855288"/>
    <nd ref="429855152"/>
    <tag k="addr:city" v="Зеленоград"/>
    <tag k="addr:housenumber" v="1203"/>
    <tag k="addr:street" v="12-й Микрорайон"/>
    <tag k="building" v="yes"/>
    <tag k="building:levels" v="22"/>
    <tag k="is_in" v="Russia"/>
  </way>
  <way id="36968284" version="5" timestamp="2011-01-18T13:30:59Z" uid="115477" user="wowik" changeset="7010451">
    <nd ref="429855161"/>
    <nd ref="1109000858"/>
    <nd ref="429855291"/>
    <nd ref="429855241"/>
    <nd ref="429855316"/>
    <nd ref="429855232"/>
    <nd ref="1109000965"/>
    <nd ref="429855246"/>
    <nd ref="429855158"/>
    <nd ref="429855176"/>
    <nd ref="429855161"/>
    <tag k="addr:city" v="Зеленоград"/>
    <tag k="addr:housenumber" v="1202"/>
    <tag k="addr:street" v="12-й Микрорайон"/>
    <tag k="building" v="yes"/>
    <tag k="building:levels" v="22"/>
    <tag k="is_in" v="Russia"/>
  </way>
  <way id="36968284" version="6" timestamp="2011-01-20T12:04:51Z" uid="115477" user="wowik" changeset="7029760">
    <nd ref="429855161"/>
    <nd ref="1109000858"/>
    <nd ref="1111527254"/>
    <nd ref="1111527425"/>
    <nd ref="1111527554"/>
    <nd ref="1111527666"/>
    <nd ref="1111527605"/>
    <nd ref="429855291"/>
    <nd ref="429855241"/>
    <nd ref="429855316"/>
    <nd ref="429855232"/>
    <nd ref="1109000965"/>
    <nd ref="1111527344"/>
    <nd ref="1111527520"/>
    <nd ref="1111527643"/>
    <nd ref="1111527452"/>
    <nd ref="1111527381"/>
    <nd ref="429855246"/>
    <nd ref="429855158"/>
    <nd ref="429855176"/>
    <nd ref="429855161"/>
    <tag k="addr:city" v="Зеленоград"/>
    <tag k="addr:housenumber" v="1202"/>
    <tag k="addr:street" v="12-й Микрорайон"/>
    <tag k="building" v="yes"/>
    <tag k="building:levels" v="22"/>
    <tag k="is_in" v="Russia"/>
  </way>
  <way id="36968285" version="2" timestamp="2009-10-07T16:05:12Z" uid="115477" user="wowik" changeset="2773182">
    <nd ref="429855260"/>
    <nd ref="429855279"/>
    <nd ref="429855210"/>
    <nd ref="429855203"/>
    <nd ref="429855201"/>
    <nd ref="429855237"/>
    <nd ref="429855269"/>
    <nd ref="429855209"/>
    <nd ref="429855309"/>
    <nd ref="429855222"/>
    <nd ref="429855219"/>
    <nd ref="429855260"/>
    <tag k="addr:city" v="Зеленоград"/>
    <tag k="addr:street" v="12-й микрорайон"/>
    <tag k="amenity" v="parking"/>
    <tag k="comment" v="Гаражный комплекс"/>
    <tag k="is_in" v="Russia"/>
    <tag k="landuse" v="private"/>
  </way>
  <way id="36968285" version="3" timestamp="2009-10-07T16:05:32Z" uid="115477" user="wowik" changeset="2773182">
    <nd ref="429855260"/>
    <nd ref="429855279"/>
    <nd ref="429855210"/>
    <nd ref="429855203"/>
    <nd ref="429855201"/>
    <nd ref="429855237"/>
    <nd ref="429855269"/>
    <nd ref="429855209"/>
    <nd ref="429855309"/>
    <nd ref="429855222"/>
    <nd ref="429855219"/>
    <nd ref="429855260"/>
    <tag k="access" v="private"/>
    <tag k="addr:city" v="Зеленоград"/>
    <tag k="addr:street" v="12-й микрорайон"/>
    <tag k="amenity" v="parking"/>
    <tag k="comment" v="Гаражный комплекс"/>
    <tag k="is_in" v="Russia"/>
    <tag k="landuse" v="private"/>
  </way>
  <way id="36968285" version="4" timestamp="2009-10-07T16:34:44Z" uid="115477" user="wowik" changeset="2773513">
    <nd ref="429855260"/>
    <nd ref="429855279"/>
    <nd ref="429855210"/>
    <nd ref="429855203"/>
    <nd ref="429855201"/>
    <nd ref="429855237"/>
    <nd ref="429855269"/>
    <nd ref="429855209"/>
    <nd ref="429855309"/>
    <nd ref="429855222"/>
    <nd ref="429855219"/>
    <nd ref="429855260"/>
    <tag k="access" v="private"/>
    <tag k="addr:city" v="Зеленоград"/>
    <tag k="addr:street" v="12-й микрорайон"/>
    <tag k="amenity" v="parking"/>
    <tag k="comment" v="Гаражный комплекс"/>
    <tag k="is_in" v="Russia"/>
    <tag k="landuse" v="private"/>
    <tag k="parking" v="garages"/>
  </way>
  <way id="36968285" version="6" timestamp="2011-03-14T11:07:02Z" uid="115477" user="wowik" changeset="7555126">
    <nd ref="429855260"/>
    <nd ref="429855279"/>
    <nd ref="429855210"/>
    <nd ref="429855203"/>
    <nd ref="429855201"/>
    <nd ref="429855237"/>
    <nd ref="429855269"/>
    <nd ref="429855209"/>
    <nd ref="429855309"/>
    <nd ref="429855222"/>
    <nd ref="913115962"/>
    <nd ref="913115964"/>
    <nd ref="429855219"/>
    <nd ref="429855260"/>
    <tag k="access" v="private"/>
    <tag k="addr:city" v="Зеленоград"/>
    <tag k="addr:street" v="12-й Микрорайон"/>
    <tag k="amenity" v="parking"/>
    <tag k="comment" v="Гаражный комплекс"/>
    <tag k="is_in" v="Russia"/>
    <tag k="landuse" v="private"/>
    <tag k="parking" v="garages"/>
  </way>
  <way id="36968287" version="3" timestamp="2010-04-21T10:36:33Z" uid="115477" user="wowik" changeset="4485166">
    <nd ref="429855205"/>
    <nd ref="429855224"/>
    <nd ref="429855206"/>
    <nd ref="429855235"/>
    <nd ref="429855207"/>
    <nd ref="429855181"/>
    <nd ref="429855247"/>
    <nd ref="429855184"/>
    <nd ref="429855185"/>
    <nd ref="429855160"/>
    <nd ref="429855314"/>
    <nd ref="429855170"/>
    <nd ref="429855281"/>
    <nd ref="429855267"/>
    <nd ref="429855212"/>
    <nd ref="429855145"/>
    <nd ref="429855205"/>
    <tag k="addr:city" v="Зеленоград"/>
    <tag k="addr:housenumber" v="1218"/>
    <tag k="addr:street" v="12-й Микрорайон"/>
    <tag k="amenity" v="kindergarten"/>
    <tag k="building" v="yes"/>
    <tag k="comment" v="д/с №1329"/>
    <tag k="is_in" v="Russia"/>
    <tag k="name" v="Д/с №1329"/>
  </way>
  <way id="36968287" version="4" timestamp="2011-01-18T13:30:49Z" uid="115477" user="wowik" changeset="7010451">
    <nd ref="429855205"/>
    <nd ref="429855224"/>
    <nd ref="429855206"/>
    <nd ref="1109000895"/>
    <nd ref="1109000967"/>
    <nd ref="429855235"/>
    <nd ref="1109000940"/>
    <nd ref="1109000860"/>
    <nd ref="429855207"/>
    <nd ref="429855181"/>
    <nd ref="429855247"/>
    <nd ref="429855184"/>
    <nd ref="429855185"/>
    <nd ref="429855160"/>
    <nd ref="429855314"/>
    <nd ref="429855170"/>
    <nd ref="429855281"/>
    <nd ref="429855267"/>
    <nd ref="429855212"/>
    <nd ref="429855145"/>
    <nd ref="429855205"/>
    <tag k="addr:city" v="Зеленоград"/>
    <tag k="addr:housenumber" v="1218"/>
    <tag k="addr:street" v="12-й Микрорайон"/>
    <tag k="amenity" v="kindergarten"/>
    <tag k="building" v="yes"/>
    <tag k="comment" v="д/с №1329"/>
    <tag k="is_in" v="Russia"/>
    <tag k="name" v="Д/с №1329"/>
  </way>
  <way id="36968288" version="3" timestamp="2011-04-01T17:48:17Z" uid="115477" user="wowik" changeset="7737524">
    <nd ref="429855216"/>
    <nd ref="429855271"/>
    <nd ref="429855228"/>
    <nd ref="429855262"/>
    <nd ref="429855216"/>
    <tag k="addr:city" v="Зеленоград"/>
    <tag k="addr:housenumber" v="1205"/>
    <tag k="addr:street" v="12-й Микрорайон"/>
    <tag k="building" v="yes"/>
    <tag k="building:use" v="residential"/>
    <tag k="is_in" v="Russia"/>
  </way>
  <way id="36968290" version="5" timestamp="2011-01-18T13:30:35Z" uid="115477" user="wowik" changeset="7010451">
    <nd ref="429855275"/>
    <nd ref="1109000867"/>
    <nd ref="429855256"/>
    <nd ref="429855175"/>
    <nd ref="429855264"/>
    <nd ref="429855166"/>
    <nd ref="1109000808"/>
    <nd ref="429855162"/>
    <nd ref="429855179"/>
    <nd ref="429855277"/>
    <nd ref="429855275"/>
    <tag k="addr:city" v="Зеленоград"/>
    <tag k="addr:housenumber" v="1201"/>
    <tag k="addr:street" v="12-й Микрорайон"/>
    <tag k="building" v="yes"/>
    <tag k="building:levels" v="22"/>
    <tag k="is_in" v="Russia"/>
  </way>
  <way id="36968290" version="6" timestamp="2011-01-20T12:04:45Z" uid="115477" user="wowik" changeset="7029760">
    <nd ref="429855275"/>
    <nd ref="1109000867"/>
    <nd ref="1111527486"/>
    <nd ref="1111527351"/>
    <nd ref="1111527490"/>
    <nd ref="1111527432"/>
    <nd ref="1111527608"/>
    <nd ref="429855256"/>
    <nd ref="429855175"/>
    <nd ref="429855264"/>
    <nd ref="429855166"/>
    <nd ref="1109000808"/>
    <nd ref="1111527647"/>
    <nd ref="1111527574"/>
    <nd ref="1111527528"/>
    <nd ref="1111527303"/>
    <nd ref="1111527457"/>
    <nd ref="429855162"/>
    <nd ref="429855179"/>
    <nd ref="429855277"/>
    <nd ref="429855275"/>
    <tag k="addr:city" v="Зеленоград"/>
    <tag k="addr:housenumber" v="1201"/>
    <tag k="addr:street" v="12-й Микрорайон"/>
    <tag k="building" v="yes"/>
    <tag k="building:levels" v="22"/>
    <tag k="is_in" v="Russia"/>
  </way>
  <way id="36968291" version="4" timestamp="2011-01-18T13:30:41Z" uid="115477" user="wowik" changeset="7010451">
    <nd ref="429855188"/>
    <nd ref="1109001030"/>
    <nd ref="1109001098"/>
    <nd ref="429855243"/>
    <nd ref="429855274"/>
    <nd ref="429855238"/>
    <nd ref="429855231"/>
    <nd ref="1109000866"/>
    <nd ref="429855265"/>
    <nd ref="429855218"/>
    <nd ref="429855305"/>
    <nd ref="429855188"/>
    <tag k="addr:city" v="Зеленоград"/>
    <tag k="addr:housenumber" v="1212"/>
    <tag k="addr:street" v="12-й Микрорайон"/>
    <tag k="building" v="yes"/>
    <tag k="building:levels" v="22"/>
    <tag k="is_in" v="Russia"/>
  </way>
  <way id="36968291" version="5" timestamp="2011-01-20T12:04:42Z" uid="115477" user="wowik" changeset="7029760">
    <nd ref="429855188"/>
    <nd ref="1109001030"/>
    <nd ref="1109001098"/>
    <nd ref="1111527327"/>
    <nd ref="1111527234"/>
    <nd ref="1111527403"/>
    <nd ref="1111527538"/>
    <nd ref="429855243"/>
    <nd ref="429855274"/>
    <nd ref="429855238"/>
    <nd ref="429855231"/>
    <nd ref="1109000866"/>
    <nd ref="1111527447"/>
    <nd ref="1111527278"/>
    <nd ref="1111527505"/>
    <nd ref="1111527370"/>
    <nd ref="1111527628"/>
    <nd ref="429855265"/>
    <nd ref="429855218"/>
    <nd ref="429855305"/>
    <nd ref="429855188"/>
    <tag k="addr:city" v="Зеленоград"/>
    <tag k="addr:housenumber" v="1212"/>
    <tag k="addr:street" v="12-й Микрорайон"/>
    <tag k="building" v="yes"/>
    <tag k="building:levels" v="22"/>
    <tag k="is_in" v="Russia"/>
  </way>
  <way id="36968292" version="5" timestamp="2011-01-18T13:30:57Z" uid="115477" user="wowik" changeset="7010451">
    <nd ref="429855167"/>
    <nd ref="987501210"/>
    <nd ref="1109000798"/>
    <nd ref="1109001007"/>
    <nd ref="429855154"/>
    <nd ref="429855202"/>
    <nd ref="429855167"/>
    <tag k="addr:city" v="Зеленоград"/>
    <tag k="addr:housenumber" v="1204"/>
    <tag k="addr:street" v="12-й Микрорайон"/>
    <tag k="building" v="yes"/>
    <tag k="is_in" v="Russia"/>
  </way>
  <way id="36968292" version="6" timestamp="2011-04-01T17:48:33Z" uid="115477" user="wowik" changeset="7737524">
    <nd ref="429855167"/>
    <nd ref="987501210"/>
    <nd ref="1109000798"/>
    <nd ref="1109001007"/>
    <nd ref="429855154"/>
    <nd ref="429855202"/>
    <nd ref="429855167"/>
    <tag k="addr:city" v="Зеленоград"/>
    <tag k="addr:housenumber" v="1204"/>
    <tag k="addr:street" v="12-й Микрорайон"/>
    <tag k="building" v="yes"/>
    <tag k="building:use" v="residential"/>
    <tag k="is_in" v="Russia"/>
  </way>
  <way id="36968293" version="4" timestamp="2011-01-20T12:04:39Z" uid="115477" user="wowik" changeset="7029760">
    <nd ref="429855300"/>
    <nd ref="1111527613"/>
    <nd ref="1111527312"/>
    <nd ref="1111527321"/>
    <nd ref="1111527622"/>
    <nd ref="1111527496"/>
    <nd ref="1111527476"/>
    <nd ref="1111527587"/>
    <nd ref="429855227"/>
    <nd ref="429855293"/>
    <nd ref="429855190"/>
    <nd ref="429855186"/>
    <nd ref="1111527223"/>
    <nd ref="1111527396"/>
    <nd ref="1111527532"/>
    <nd ref="1111527650"/>
    <nd ref="1111527584"/>
    <nd ref="1111527270"/>
    <nd ref="429855178"/>
    <nd ref="429855163"/>
    <nd ref="429855200"/>
    <nd ref="429855300"/>
    <tag k="addr:city" v="Зеленоград"/>
    <tag k="addr:housenumber" v="1213"/>
    <tag k="addr:street" v="12-й Микрорайон"/>
    <tag k="building" v="yes"/>
    <tag k="building:levels" v="22"/>
    <tag k="is_in" v="Russia"/>
  </way>
  <way id="36968415" version="2" timestamp="2010-04-02T17:36:40Z" uid="20587" user="balrog-kun" changeset="4304500">
    <nd ref="47506233"/>
    <nd ref="429856078"/>
    <nd ref="429856079"/>
    <nd ref="429856080"/>
    <nd ref="429856081"/>
    <nd ref="429856084"/>
    <nd ref="429856087"/>
    <nd ref="429856092"/>
    <nd ref="429856095"/>
    <nd ref="429856099"/>
    <nd ref="429856103"/>
    <nd ref="429856107"/>
    <nd ref="429856110"/>
    <nd ref="429856111"/>
    <nd ref="47566364"/>
    <tag k="highway" v="residential"/>
    <tag k="name" v="Fancher Boulevard"/>
    <tag k="oneway" v="yes"/>
    <tag k="source" v="survey"/>
  </way>
  <way id="36968451" version="1" timestamp="2009-06-27T15:51:45Z" uid="33382" user="de_muur" changeset="1651101">
    <nd ref="335581564"/>
    <nd ref="335581565"/>
    <nd ref="335581566"/>
    <tag k="created_by" v="Potlatch 0.10f"/>
    <tag k="highway" v="path"/>
  </way>
  <way id="36968469" version="2" timestamp="2010-02-10T09:47:58Z" uid="115477" user="wowik" changeset="3838647">
    <nd ref="429856596"/>
    <nd ref="634844938"/>
    <nd ref="424344799"/>
    <nd ref="429856590"/>
    <tag k="bicycle" v="yes"/>
    <tag k="foot" v="yes"/>
    <tag k="highway" v="path"/>
    <tag k="motorcar" v="no"/>
    <tag k="surface" v="paved"/>
  </way>
  <way id="36968684" version="2" timestamp="2010-12-31T20:36:36Z" uid="20587" user="balrog-kun" changeset="6823385">
    <nd ref="252339416"/>
    <nd ref="34554489"/>
    <nd ref="1075952267"/>
    <nd ref="52807988"/>
    <tag k="highway" v="primary"/>
    <tag k="int_ref" v="E67"/>
    <tag k="name" v="Toruńska"/>
    <tag k="oneway" v="yes"/>
    <tag k="ref" v="8"/>
  </way>
  <way id="36968708" version="4" timestamp="2009-09-29T00:31:50Z" uid="36809" user="pfoten_weg_!_" changeset="2671824">
    <nd ref="429860676"/>
    <nd ref="429860680"/>
    <nd ref="429860683"/>
    <nd ref="429860685"/>
    <nd ref="429860689"/>
    <nd ref="429860704"/>
    <nd ref="429860706"/>
    <nd ref="429860709"/>
    <nd ref="429860715"/>
    <nd ref="429860718"/>
    <nd ref="429860721"/>
    <nd ref="429860726"/>
    <nd ref="429860729"/>
    <nd ref="429860734"/>
    <nd ref="429860736"/>
    <nd ref="429860742"/>
    <nd ref="429860747"/>
    <nd ref="429860762"/>
    <nd ref="429860766"/>
    <nd ref="429860770"/>
    <nd ref="429860771"/>
    <nd ref="429860788"/>
    <nd ref="429860792"/>
    <nd ref="429860796"/>
    <nd ref="429860800"/>
    <tag k="highway" v="path"/>
    <tag k="name" v="1"/>
    <tag k="ref" v="1"/>
    <tag k="sac_scale" v="mountain_hiking"/>
  </way>
  <way id="36968708" version="5" timestamp="2009-09-29T01:01:41Z" uid="36809" user="pfoten_weg_!_" changeset="2671929">
    <nd ref="429860676"/>
    <nd ref="429860680"/>
    <nd ref="429860683"/>
    <nd ref="429860685"/>
    <nd ref="429860689"/>
    <nd ref="429860704"/>
    <nd ref="429860706"/>
    <nd ref="429860709"/>
    <nd ref="429860715"/>
    <nd ref="429860718"/>
    <nd ref="429860721"/>
    <nd ref="429860726"/>
    <nd ref="429860729"/>
    <nd ref="429860734"/>
    <nd ref="429860736"/>
    <nd ref="429860742"/>
    <nd ref="429860747"/>
    <nd ref="429860762"/>
    <nd ref="429860766"/>
    <nd ref="429860770"/>
    <nd ref="429860771"/>
    <nd ref="429860788"/>
    <nd ref="429860792"/>
    <nd ref="429860796"/>
    <nd ref="429860800"/>
    <tag k="highway" v="path"/>
    <tag k="name" v="1"/>
    <tag k="ref" v="1"/>
    <tag k="sac_scale" v="mountain_hiking"/>
  </way>
  <way id="36968708" version="6" timestamp="2009-09-29T01:27:29Z" uid="36809" user="pfoten_weg_!_" changeset="2671929">
    <nd ref="429860676"/>
    <nd ref="429860680"/>
    <nd ref="429860683"/>
    <nd ref="429860685"/>
    <nd ref="429860689"/>
    <nd ref="429860704"/>
    <nd ref="429860706"/>
    <nd ref="429860709"/>
    <nd ref="429860715"/>
    <nd ref="429860718"/>
    <nd ref="429860721"/>
    <nd ref="429860726"/>
    <nd ref="429860729"/>
    <nd ref="429860734"/>
    <nd ref="429860736"/>
    <nd ref="429860742"/>
    <nd ref="429860747"/>
    <nd ref="429860762"/>
    <nd ref="429860766"/>
    <nd ref="429860770"/>
    <nd ref="429860771"/>
    <nd ref="429860788"/>
    <nd ref="429860792"/>
    <nd ref="429860796"/>
    <nd ref="429860800"/>
    <tag k="highway" v="path"/>
    <tag k="name" v="1"/>
    <tag k="ref" v="1"/>
    <tag k="sac_scale" v="mountain_hiking"/>
  </way>
  <way id="36968708" version="7" timestamp="2009-09-29T01:57:40Z" uid="36809" user="pfoten_weg_!_" changeset="2672141">
    <nd ref="429860676"/>
    <nd ref="429860680"/>
    <nd ref="429860683"/>
    <nd ref="429860685"/>
    <nd ref="429860689"/>
    <nd ref="429860704"/>
    <nd ref="429860706"/>
    <nd ref="429860709"/>
    <nd ref="429860715"/>
    <nd ref="429860718"/>
    <nd ref="429860721"/>
    <nd ref="429860726"/>
    <nd ref="429860729"/>
    <nd ref="429860734"/>
    <nd ref="429860736"/>
    <nd ref="429860742"/>
    <nd ref="429860747"/>
    <nd ref="429860762"/>
    <nd ref="429860766"/>
    <nd ref="429860770"/>
    <nd ref="429860771"/>
    <nd ref="429860788"/>
    <nd ref="429860792"/>
    <nd ref="429860796"/>
    <nd ref="429860800"/>
    <tag k="highway" v="path"/>
    <tag k="name" v="1"/>
    <tag k="ref" v="1"/>
    <tag k="sac_scale" v="mountain_hiking"/>
  </way>
  <way id="36968708" version="8" timestamp="2009-09-29T02:31:58Z" uid="36809" user="pfoten_weg_!_" changeset="2672254">
    <nd ref="429860676"/>
    <nd ref="429860680"/>
    <nd ref="429860683"/>
    <nd ref="429860685"/>
    <nd ref="429860689"/>
    <nd ref="429860704"/>
    <nd ref="429860706"/>
    <nd ref="429860709"/>
    <nd ref="429860715"/>
    <nd ref="429860718"/>
    <nd ref="429860721"/>
    <nd ref="429860726"/>
    <nd ref="429860729"/>
    <nd ref="429860734"/>
    <nd ref="429860736"/>
    <nd ref="429860742"/>
    <nd ref="429860747"/>
    <nd ref="429860762"/>
    <nd ref="429860766"/>
    <nd ref="429860770"/>
    <nd ref="429860771"/>
    <nd ref="429860788"/>
    <nd ref="429860792"/>
    <nd ref="429860796"/>
    <nd ref="429860800"/>
    <tag k="highway" v="path"/>
    <tag k="name" v="1"/>
    <tag k="ref" v="1"/>
    <tag k="sac_scale" v="mountain_hiking"/>
  </way>
  <way id="36968809" version="2" timestamp="2010-12-31T20:37:04Z" uid="20587" user="balrog-kun" changeset="6823385">
    <nd ref="34554492"/>
    <nd ref="1075952475"/>
    <nd ref="34554490"/>
    <tag k="highway" v="primary"/>
    <tag k="int_ref" v="E67"/>
    <tag k="name" v="Toruńska"/>
    <tag k="oneway" v="yes"/>
    <tag k="ref" v="8"/>
  </way>
</osm>
