<?xml version='1.0' encoding='UTF-8'?>
<osm version="0.6" generator="libosmium/2.20.0">
  <way id="37030088" version="3" timestamp="2010-12-05T18:02:14Z" uid="9581" user="Lobelt" changeset="6554270">
    <nd ref="322559254"/>
    <nd ref="1023240333"/>
    <nd ref="1023239766"/>
    <nd ref="430646041"/>
    <nd ref="1023239833"/>
    <tag k="bicycle" v="yes"/>
    <tag k="foot" v="yes"/>
    <tag k="highway" v="path"/>
    <tag k="motorcar" v="no"/>
    <tag k="surface" v="unpaved"/>
  </way>
  <way id="37030138" version="10" timestamp="2010-03-22T06:32:49Z" uid="20587" user="balrog-kun" changeset="4199043">
    <nd ref="39064464"/>
    <nd ref="36217508"/>
    <tag k="highway" v="motorway"/>
    <tag k="name" v="Columbia River Freeway"/>
    <tag k="name_1" v="Columbia River Highway"/>
    <tag k="oneway" v="yes"/>
    <tag k="ref" v="I 84"/>
    <tag k="tiger:cfcc" v="A15"/>
    <tag k="tiger:name_base" v="I-84"/>
    <tag k="tiger:name_base_1" v="Columbia River"/>
    <tag k="tiger:name_base_2" v="United States Highway 30"/>
    <tag k="tiger:name_type_1" v="Hwy"/>
    <tag k="tiger:separated" v="yes"/>
    <tag k="tiger:source" v="tiger_import_dch_v0.6_20070825"/>
    <tag k="tiger:tlid" v="175531529:175531498:175554855"/>
  </way>
  <way id="37030397" version="2" timestamp="2010-07-06T18:35:22Z" uid="74617" user="JohnSmith" changeset="5152225">
    <nd ref="430650100"/>
    <nd ref="430650031"/>
    <tag k="highway" v="residential"/>
    <tag k="maxspeed" v="50"/>
    <tag k="maxspeed:source" v="default residential speed limit in Australia"/>
    <tag k="name" v="McCarthy Street"/>
  </way>
  <way id="37030399" version="2" timestamp="2009-07-12T07:28:02Z" uid="74617" user="JohnSmith" changeset="1803853">
    <nd ref="430650121"/>
    <nd ref="440615874"/>
    <nd ref="440615873"/>
    <nd ref="430650127"/>
    <nd ref="430650164"/>
    <nd ref="430650100"/>
    <tag k="highway" v="residential"/>
    <tag k="name" v="Charlotte Street"/>
  </way>
  <way id="37030399" version="3" timestamp="2010-07-06T18:40:32Z" uid="74617" user="JohnSmith" changeset="5152225">
    <nd ref="430650121"/>
    <nd ref="440615874"/>
    <nd ref="440615873"/>
    <nd ref="430650127"/>
    <nd ref="430650164"/>
    <nd ref="430650100"/>
    <tag k="highway" v="residential"/>
    <tag k="maxspeed" v="50"/>
    <tag k="maxspeed:source" v="default residential speed limit in Australia"/>
    <tag k="name" v="Charlotte Street"/>
  </way>
  <way id="37030401" version="2" timestamp="2010-07-06T18:35:14Z" uid="74617" user="JohnSmith" changeset="5152225">
    <nd ref="430650136"/>
    <nd ref="430650127"/>
    <tag k="highway" v="residential"/>
    <tag k="maxspeed" v="50"/>
    <tag k="maxspeed:source" v="default residential speed limit in Australia"/>
    <tag k="name" v="Northland Street"/>
  </way>
  <way id="37030403" version="2" timestamp="2009-07-12T06:22:56Z" uid="74617" user="JohnSmith" changeset="1803444">
    <nd ref="430650164"/>
    <nd ref="430650169"/>
    <tag k="highway" v="residential"/>
    <tag k="name" v="Edmund Street"/>
  </way>
  <way id="37030403" version="3" timestamp="2010-07-06T18:40:26Z" uid="74617" user="JohnSmith" changeset="5152225">
    <nd ref="430650164"/>
    <nd ref="430650169"/>
    <tag k="highway" v="residential"/>
    <tag k="maxspeed" v="50"/>
    <tag k="maxspeed:source" v="default residential speed limit in Australia"/>
    <tag k="name" v="Edmund Street"/>
  </way>
  <way id="37030406" version="2" timestamp="2009-07-12T06:22:57Z" uid="74617" user="JohnSmith" changeset="1803444">
    <nd ref="430650169"/>
    <nd ref="430650173"/>
    <nd ref="430650182"/>
    <tag k="highway" v="residential"/>
    <tag k="name" v="Edmund Street"/>
  </way>
  <way id="37030406" version="6" timestamp="2010-07-06T18:34:42Z" uid="74617" user="JohnSmith" changeset="5152225">
    <nd ref="430650169"/>
    <nd ref="430650173"/>
    <nd ref="430650182"/>
    <tag k="highway" v="residential"/>
    <tag k="maxspeed" v="50"/>
    <tag k="maxspeed:source" v="default residential speed limit in Australia"/>
    <tag k="name" v="Vera Street"/>
  </way>
  <way id="37030423" version="2" timestamp="2009-07-12T06:23:54Z" uid="74617" user="JohnSmith" changeset="1803445">
    <nd ref="430650240"/>
    <nd ref="430650220"/>
    <tag k="highway" v="residential"/>
    <tag k="name" v="Suzanne Street"/>
  </way>
  <way id="37030423" version="3" timestamp="2010-07-06T18:40:06Z" uid="74617" user="JohnSmith" changeset="5152225">
    <nd ref="430650240"/>
    <nd ref="430650220"/>
    <tag k="highway" v="residential"/>
    <tag k="maxspeed" v="50"/>
    <tag k="maxspeed:source" v="default residential speed limit in Australia"/>
    <tag k="name" v="Suzanne Street"/>
  </way>
  <way id="37030431" version="4" timestamp="2010-07-06T18:41:23Z" uid="74617" user="JohnSmith" changeset="5152225">
    <nd ref="430650264"/>
    <nd ref="527841650"/>
    <nd ref="430650267"/>
    <nd ref="527841647"/>
    <nd ref="430650193"/>
    <nd ref="527841651"/>
    <nd ref="430650278"/>
    <nd ref="527841652"/>
    <nd ref="527841653"/>
    <nd ref="430650284"/>
    <nd ref="527841654"/>
    <nd ref="430650287"/>
    <tag k="highway" v="residential"/>
    <tag k="maxspeed" v="50"/>
    <tag k="maxspeed:source" v="default residential speed limit in Australia"/>
    <tag k="name" v="Hennenlotter Court"/>
  </way>
  <way id="37030795" version="3" timestamp="2009-11-09T04:03:31Z" uid="4467" user="Rosscoe" changeset="3070603">
    <nd ref="430652294"/>
    <nd ref="430652297"/>
    <nd ref="519676073"/>
    <nd ref="430652299"/>
    <nd ref="430652300"/>
    <nd ref="430646447"/>
    <nd ref="430652306"/>
    <tag k="highway" v="tertiary"/>
    <tag k="name" v="Agnes Street"/>
    <tag k="ref" v="C620"/>
  </way>
  <way id="37030812" version="2" timestamp="2009-11-09T04:03:32Z" uid="4467" user="Rosscoe" changeset="3070603">
    <nd ref="430652348"/>
    <nd ref="430652349"/>
    <nd ref="430652351"/>
    <nd ref="430652352"/>
    <nd ref="430652353"/>
    <nd ref="430652355"/>
    <nd ref="430652356"/>
    <nd ref="430652357"/>
    <nd ref="430652359"/>
    <nd ref="430652360"/>
    <nd ref="430652361"/>
    <nd ref="430652362"/>
    <nd ref="259414546"/>
    <nd ref="259414588"/>
    <tag k="highway" v="tertiary"/>
    <tag k="name" v="Ranelagh Road"/>
    <tag k="ref" v="C620"/>
    <tag k="source" v="survey"/>
  </way>
  <way id="37030812" version="4" timestamp="2011-02-26T23:42:21Z" uid="4467" user="Rosscoe" changeset="7405786">
    <nd ref="430652348"/>
    <nd ref="430652349"/>
    <nd ref="430652351"/>
    <nd ref="430652352"/>
    <nd ref="430652353"/>
    <nd ref="430652355"/>
    <tag k="highway" v="secondary"/>
    <tag k="name" v="Ranelagh Road"/>
    <tag k="ref" v="C620"/>
    <tag k="source" v="survey"/>
  </way>
</osm>
