<?xml version='1.0' encoding='UTF-8'?>
<osm version="0.6" generator="libosmium/2.20.0">
  <way id="3704113" version="2" timestamp="2008-07-05T20:06:15Z" uid="6975" user="ulfl" changeset="398437">
    <nd ref="14558392"/>
    <nd ref="14558405"/>
    <nd ref="14558391"/>
    <nd ref="14558390"/>
    <tag k="highway" v="service"/>
    <tag k="surface" v="cobblestone"/>
  </way>
  <way id="3704494" version="2" timestamp="2010-03-27T07:39:43Z" uid="20587" user="balrog-kun" changeset="4244079">
    <nd ref="18361069"/>
    <nd ref="18361070"/>
    <nd ref="18361071"/>
    <nd ref="18361072"/>
    <nd ref="18361073"/>
    <tag k="created_by" v="JOSM"/>
    <tag k="highway" v="residential"/>
    <tag k="name" v="Lotus Street"/>
  </way>
  <way id="3704495" version="3" timestamp="2010-03-27T07:39:43Z" uid="20587" user="balrog-kun" changeset="4244079">
    <nd ref="18361074"/>
    <nd ref="139097070"/>
    <nd ref="18361075"/>
    <tag k="created_by" v="JOSM"/>
    <tag k="highway" v="residential"/>
    <tag k="name" v="Del Norte Street"/>
  </way>
  <way id="3704496" version="2" timestamp="2010-03-27T07:39:43Z" uid="20587" user="balrog-kun" changeset="4244079">
    <nd ref="18361077"/>
    <nd ref="18361078"/>
    <nd ref="18361079"/>
    <tag k="created_by" v="JOSM"/>
    <tag k="highway" v="residential"/>
    <tag k="name" v="Anabel Street"/>
  </way>
  <way id="3704497" version="3" timestamp="2010-03-27T07:39:43Z" uid="20587" user="balrog-kun" changeset="4244079">
    <nd ref="18193189"/>
    <nd ref="18361079"/>
    <nd ref="18361080"/>
    <nd ref="18453035"/>
    <nd ref="27292002"/>
    <nd ref="18361081"/>
    <tag k="created_by" v="JOSM"/>
    <tag k="highway" v="residential"/>
    <tag k="name" v="Arroyo Seco Avenue"/>
  </way>
</osm>
