<?xml version='1.0' encoding='UTF-8'?>
<osm version="0.6" generator="libosmium/2.20.0">
  <way id="37053016" version="15" timestamp="2010-04-04T01:12:52Z" uid="20587" user="balrog-kun" changeset="4318136">
    <nd ref="428459999"/>
    <nd ref="521691368"/>
    <nd ref="428459981"/>
    <nd ref="428459978"/>
    <nd ref="521691422"/>
    <nd ref="432101337"/>
    <nd ref="432095135"/>
    <nd ref="521690713"/>
    <nd ref="428459951"/>
    <nd ref="432089901"/>
    <nd ref="432091339"/>
    <nd ref="428614028"/>
    <tag k="highway" v="primary"/>
    <tag k="name" v="South Academy Boulevard"/>
    <tag k="oneway" v="yes"/>
    <tag k="ref" v="CO 83"/>
    <tag k="tiger:cfcc" v="A31"/>
  </way>
  <way id="37053058" version="2" timestamp="2009-10-27T20:56:45Z" uid="9581" user="Lobelt" changeset="2968953"/>
  <way id="37053059" version="2" timestamp="2009-10-27T20:56:38Z" uid="9581" user="Lobelt" changeset="2968953">
    <nd ref="430757566"/>
    <nd ref="430757567"/>
    <nd ref="430929664"/>
    <nd ref="430929667"/>
    <nd ref="430757568"/>
    <nd ref="430757569"/>
    <nd ref="430757570"/>
    <nd ref="430757571"/>
    <tag k="highway" v="track"/>
    <tag k="tracktype" v="grade2"/>
  </way>
  <way id="37053302" version="5" timestamp="2010-04-04T01:12:53Z" uid="20587" user="balrog-kun" changeset="4318136">
    <nd ref="430931717"/>
    <nd ref="430931719"/>
    <tag k="bridge" v="yes"/>
    <tag k="highway" v="primary"/>
    <tag k="layer" v="1"/>
    <tag k="name" v="North Academy Boulevard"/>
    <tag k="oneway" v="yes"/>
    <tag k="ref" v="CO 83"/>
  </way>
  <way id="37053304" version="5" timestamp="2010-04-04T01:12:53Z" uid="20587" user="balrog-kun" changeset="4318136">
    <nd ref="430931718"/>
    <nd ref="430931720"/>
    <tag k="bridge" v="yes"/>
    <tag k="highway" v="primary"/>
    <tag k="layer" v="1"/>
    <tag k="name" v="North Academy Boulevard"/>
    <tag k="oneway" v="yes"/>
    <tag k="ref" v="CO 83"/>
  </way>
  <way id="37053345" version="2" timestamp="2009-10-20T00:56:47Z" uid="36809" user="pfoten_weg_!_" changeset="2899059">
    <nd ref="430921406"/>
    <nd ref="430932370"/>
    <tag k="highway" v="residential"/>
  </way>
  <way id="37053346" version="2" timestamp="2009-10-20T00:56:48Z" uid="36809" user="pfoten_weg_!_" changeset="2899059">
    <nd ref="430932371"/>
    <nd ref="430932376"/>
    <nd ref="430932373"/>
    <nd ref="430932372"/>
    <tag k="highway" v="residential"/>
  </way>
  <way id="37053348" version="2" timestamp="2009-10-20T00:56:49Z" uid="36809" user="pfoten_weg_!_" changeset="2899059">
    <nd ref="430932373"/>
    <nd ref="430932374"/>
    <nd ref="430932375"/>
    <tag k="highway" v="residential"/>
  </way>
  <way id="37053349" version="2" timestamp="2009-10-20T00:56:49Z" uid="36809" user="pfoten_weg_!_" changeset="2899059">
    <nd ref="430932376"/>
    <nd ref="430932377"/>
    <tag k="highway" v="residential"/>
  </way>
  <way id="37053350" version="4" timestamp="2009-10-01T16:34:14Z" uid="86259" user="hasse_osm_korinthenkacker" changeset="2702067">
    <nd ref="408870878"/>
    <nd ref="430932378"/>
    <nd ref="430932379"/>
    <nd ref="430932381"/>
    <nd ref="430932380"/>
    <tag k="highway" v="residential"/>
    <tag k="name" v="RottmannstraÃŸe"/>
  </way>
  <way id="37053351" version="2" timestamp="2009-10-20T00:55:10Z" uid="36809" user="pfoten_weg_!_" changeset="2899059">
    <nd ref="430925883"/>
    <nd ref="430932382"/>
    <tag k="highway" v="residential"/>
  </way>
  <way id="37053768" version="2" timestamp="2009-10-07T16:56:59Z" uid="86259" user="hasse_osm_korinthenkacker" changeset="2773624">
    <nd ref="84300458"/>
    <nd ref="84300443"/>
    <tag k="highway" v="primary_link"/>
    <tag k="oneway" v="yes"/>
    <tag k="ref" v="B 56"/>
  </way>
</osm>
