<?xml version='1.0' encoding='UTF-8'?>
<osm version="0.6" generator="libosmium/2.20.0">
  <way id="37098061" version="2" timestamp="2010-07-25T23:14:37Z" uid="4467" user="Rosscoe" changeset="5317477">
    <nd ref="431413405"/>
    <nd ref="431413406"/>
    <tag k="bridge" v="yes"/>
    <tag k="highway" v="footway"/>
    <tag k="layer" v="1"/>
  </way>
  <way id="37098287" version="3" timestamp="2010-03-28T02:26:57Z" uid="20587" user="balrog-kun" changeset="4250871">
    <nd ref="431416646"/>
    <nd ref="431416649"/>
    <nd ref="431416653"/>
    <nd ref="87493991"/>
    <nd ref="87513138"/>
    <nd ref="87590047"/>
    <nd ref="87588332"/>
    <nd ref="431386532"/>
    <nd ref="87586067"/>
    <nd ref="87487546"/>
    <nd ref="87595804"/>
    <nd ref="87613035"/>
    <nd ref="87575905"/>
    <nd ref="87546311"/>
    <nd ref="87493691"/>
    <nd ref="87619458"/>
    <nd ref="87619461"/>
    <nd ref="87509287"/>
    <nd ref="87572210"/>
    <nd ref="428716094"/>
    <nd ref="276464861"/>
    <nd ref="428716095"/>
    <nd ref="87577549"/>
    <tag k="highway" v="secondary"/>
    <tag k="name" v="Peach Avenue"/>
    <tag k="name_1" v="North Peach Avenue"/>
    <tag k="tiger:cfcc" v="A41"/>
    <tag k="tiger:county" v="Fresno, CA"/>
    <tag k="tiger:name_base" v="Peach"/>
    <tag k="tiger:name_base_1" v="Peach"/>
    <tag k="tiger:name_direction_prefix_1" v="N"/>
    <tag k="tiger:name_type" v="Ave"/>
    <tag k="tiger:name_type_1" v="Ave"/>
    <tag k="tiger:reviewed" v="no"/>
    <tag k="tiger:separated" v="no"/>
    <tag k="tiger:source" v="tiger_import_dch_v0.6_20070809"/>
    <tag k="tiger:tlid" v="197578262"/>
  </way>
  <way id="37098373" version="5" timestamp="2010-02-08T15:35:31Z" uid="23543" user="jkjk" changeset="3824204">
    <nd ref="431416921"/>
    <nd ref="431416922"/>
    <nd ref="431416923"/>
    <nd ref="431416924"/>
    <nd ref="431416925"/>
    <nd ref="633378621"/>
    <nd ref="431416838"/>
    <nd ref="431416774"/>
    <nd ref="431416775"/>
    <nd ref="431416776"/>
    <nd ref="431415646"/>
    <tag k="highway" v="primary"/>
    <tag k="oneway" v="yes"/>
  </way>
  <way id="37098388" version="3" timestamp="2010-02-08T15:35:31Z" uid="23543" user="jkjk" changeset="3824204">
    <nd ref="431415657"/>
    <nd ref="431416884"/>
    <nd ref="431416888"/>
    <nd ref="431416889"/>
    <nd ref="633378623"/>
    <nd ref="431416890"/>
    <nd ref="431416891"/>
    <nd ref="431416954"/>
    <nd ref="431416956"/>
    <nd ref="431416958"/>
    <nd ref="431416962"/>
    <tag k="highway" v="primary"/>
    <tag k="oneway" v="yes"/>
  </way>
  <way id="37098446" version="2" timestamp="2009-07-29T13:56:22Z" uid="115477" user="wowik" changeset="1976042">
    <nd ref="431417475"/>
    <nd ref="431417476"/>
    <nd ref="431417477"/>
    <nd ref="431417478"/>
    <nd ref="431417475"/>
    <tag k="leisure" v="pitch"/>
    <tag k="name" v="воллейбольная площадка"/>
    <tag k="sport" v="volleyball"/>
  </way>
  <way id="37098450" version="2" timestamp="2010-03-28T02:26:57Z" uid="20587" user="balrog-kun" changeset="4250871">
    <nd ref="87570042"/>
    <nd ref="431417482"/>
    <tag k="highway" v="residential"/>
    <tag k="name" v="North Arthur Avenue"/>
    <tag k="tiger:cfcc" v="A41"/>
    <tag k="tiger:county" v="Fresno, CA"/>
    <tag k="tiger:name_base" v="Arthur"/>
    <tag k="tiger:name_direction_prefix" v="N"/>
    <tag k="tiger:name_type" v="Ave"/>
    <tag k="tiger:reviewed" v="no"/>
    <tag k="tiger:separated" v="no"/>
    <tag k="tiger:source" v="tiger_import_dch_v0.6_20070809"/>
    <tag k="tiger:tlid" v="197568970:197569066:197599706:197569070:197569012:197569180:197569183:197569137:197569176"/>
    <tag k="tiger:zip_left" v="93705"/>
    <tag k="tiger:zip_right" v="93705"/>
  </way>
  <way id="37098472" version="6" timestamp="2010-02-08T15:35:25Z" uid="23543" user="jkjk" changeset="3824204">
    <nd ref="286622603"/>
    <nd ref="431417525"/>
    <nd ref="431417526"/>
    <nd ref="431417527"/>
    <nd ref="431417528"/>
    <nd ref="431417529"/>
    <nd ref="431417530"/>
    <nd ref="431417531"/>
    <nd ref="431417532"/>
    <nd ref="431417533"/>
    <nd ref="431417534"/>
    <nd ref="431417535"/>
    <nd ref="431417536"/>
    <nd ref="431417537"/>
    <nd ref="431417538"/>
    <nd ref="526999741"/>
    <nd ref="431417539"/>
    <nd ref="431417540"/>
    <nd ref="431417541"/>
    <tag k="highway" v="trunk"/>
    <tag k="lanes" v="2"/>
    <tag k="note" v="FIXME: new road from gpx-file"/>
    <tag k="oneway" v="yes"/>
    <tag k="source" v="GPS"/>
  </way>
  <way id="37098590" version="1" timestamp="2009-07-01T07:43:31Z" uid="74617" user="JohnSmith" changeset="1698302">
    <nd ref="431418218"/>
    <nd ref="431418225"/>
    <nd ref="431418224"/>
    <nd ref="431418219"/>
    <tag k="highway" v="residential"/>
    <tag k="oneway" v="yes"/>
    <tag k="source" v="survey"/>
    <tag k="surface" v="paved"/>
  </way>
  <way id="37098591" version="1" timestamp="2009-07-01T07:43:31Z" uid="74617" user="JohnSmith" changeset="1698302">
    <nd ref="431418220"/>
    <nd ref="431418221"/>
    <nd ref="431418222"/>
    <nd ref="431418223"/>
    <tag k="highway" v="residential"/>
    <tag k="oneway" v="yes"/>
    <tag k="source" v="survey"/>
    <tag k="surface" v="paved"/>
  </way>
  <way id="37098777" version="2" timestamp="2009-08-15T14:18:36Z" uid="4467" user="Rosscoe" changeset="2154534">
    <nd ref="431420137"/>
    <nd ref="431420148"/>
    <tag k="bridge" v="yes"/>
    <tag k="highway" v="footway"/>
    <tag k="layer" v="1"/>
  </way>
  <way id="37098892" version="2" timestamp="2010-07-07T07:20:15Z" uid="74617" user="JohnSmith" changeset="5156250">
    <nd ref="431422974"/>
    <nd ref="431422981"/>
    <tag k="highway" v="residential"/>
    <tag k="maxspeed" v="50"/>
    <tag k="maxspeed:source" v="default residential speed limit in Australia"/>
    <tag k="name" v="Shelly Avenue"/>
  </way>
  <way id="37098893" version="2" timestamp="2010-07-07T07:19:05Z" uid="74617" user="JohnSmith" changeset="5156250">
    <nd ref="431423264"/>
    <nd ref="431423265"/>
    <tag k="highway" v="residential"/>
    <tag k="maxspeed" v="50"/>
    <tag k="maxspeed:source" v="default residential speed limit in Australia"/>
    <tag k="name" v="Dawson Street"/>
  </way>
  <way id="37098894" version="2" timestamp="2010-07-07T07:18:04Z" uid="74617" user="JohnSmith" changeset="5156250">
    <nd ref="431423233"/>
    <nd ref="431423232"/>
    <tag k="highway" v="residential"/>
    <tag k="maxspeed" v="50"/>
    <tag k="maxspeed:source" v="default residential speed limit in Australia"/>
    <tag k="name" v="Anstey Street"/>
  </way>
  <way id="37098895" version="2" timestamp="2010-07-07T07:16:56Z" uid="74617" user="JohnSmith" changeset="5156250">
    <nd ref="431423024"/>
    <nd ref="431423023"/>
    <tag k="highway" v="residential"/>
    <tag k="maxspeed" v="50"/>
    <tag k="maxspeed:source" v="default residential speed limit in Australia"/>
    <tag k="name" v="Gordon Street"/>
  </way>
  <way id="37098897" version="2" timestamp="2010-07-07T07:19:26Z" uid="74617" user="JohnSmith" changeset="5156250">
    <nd ref="431423119"/>
    <nd ref="431423130"/>
    <nd ref="431423120"/>
    <nd ref="431423122"/>
    <nd ref="431423123"/>
    <nd ref="431423125"/>
    <nd ref="431423083"/>
    <tag k="highway" v="residential"/>
    <tag k="maxspeed" v="50"/>
    <tag k="maxspeed:source" v="default residential speed limit in Australia"/>
    <tag k="name" v="Eden Street"/>
  </way>
  <way id="37098898" version="2" timestamp="2010-07-07T07:18:26Z" uid="74617" user="JohnSmith" changeset="5156250">
    <nd ref="431423104"/>
    <nd ref="431423052"/>
    <nd ref="431423048"/>
    <nd ref="431423029"/>
    <nd ref="431423028"/>
    <nd ref="431423022"/>
    <nd ref="431423026"/>
    <tag k="highway" v="residential"/>
    <tag k="maxspeed" v="50"/>
    <tag k="maxspeed:source" v="default residential speed limit in Australia"/>
    <tag k="name" v="First Avenue"/>
  </way>
  <way id="37098899" version="2" timestamp="2010-07-07T07:17:21Z" uid="74617" user="JohnSmith" changeset="5156250">
    <nd ref="431422956"/>
    <nd ref="431422962"/>
    <nd ref="431422963"/>
    <nd ref="431422959"/>
    <nd ref="431422961"/>
    <nd ref="431422966"/>
    <nd ref="431422967"/>
    <nd ref="431422964"/>
    <nd ref="431422957"/>
    <tag k="highway" v="residential"/>
    <tag k="maxspeed" v="50"/>
    <tag k="maxspeed:source" v="default residential speed limit in Australia"/>
    <tag k="name" v="Crescent Street"/>
  </way>
  <way id="37098900" version="2" timestamp="2010-07-07T07:19:44Z" uid="74617" user="JohnSmith" changeset="5156250">
    <nd ref="431423016"/>
    <nd ref="431423011"/>
    <nd ref="431423010"/>
    <tag k="highway" v="residential"/>
    <tag k="maxspeed" v="50"/>
    <tag k="maxspeed:source" v="default residential speed limit in Australia"/>
    <tag k="name" v="Spring Street"/>
  </way>
  <way id="37098901" version="2" timestamp="2010-07-07T07:18:43Z" uid="74617" user="JohnSmith" changeset="5156250">
    <nd ref="431423086"/>
    <nd ref="431423084"/>
    <tag k="highway" v="residential"/>
    <tag k="maxspeed" v="50"/>
    <tag k="maxspeed:source" v="default residential speed limit in Australia"/>
    <tag k="name" v="Garden Street"/>
  </way>
  <way id="37098904" version="2" timestamp="2010-07-07T07:18:58Z" uid="74617" user="JohnSmith" changeset="5156250">
    <nd ref="431423230"/>
    <nd ref="431423264"/>
    <nd ref="431423245"/>
    <tag k="highway" v="residential"/>
    <tag k="maxspeed" v="50"/>
    <tag k="maxspeed:source" v="default residential speed limit in Australia"/>
    <tag k="name" v="James Street"/>
  </way>
  <way id="37098907" version="2" timestamp="2010-07-07T07:15:51Z" uid="74617" user="JohnSmith" changeset="5156250">
    <nd ref="431423101"/>
    <nd ref="431423103"/>
    <nd ref="431423098"/>
    <tag k="highway" v="residential"/>
    <tag k="maxspeed" v="50"/>
    <tag k="maxspeed:source" v="default residential speed limit in Australia"/>
    <tag k="name" v="Stocks Street"/>
  </way>
  <way id="37098908" version="3" timestamp="2010-04-27T05:54:28Z" uid="244897" user="M526244" changeset="4537955">
    <nd ref="279442192"/>
    <nd ref="431423010"/>
    <nd ref="431423013"/>
    <nd ref="431422987"/>
    <nd ref="431422999"/>
    <nd ref="431043829"/>
    <nd ref="431422992"/>
    <nd ref="432409650"/>
    <tag k="highway" v="residential"/>
  </way>
  <way id="37098908" version="4" timestamp="2010-07-07T07:18:16Z" uid="74617" user="JohnSmith" changeset="5156250">
    <nd ref="279442192"/>
    <nd ref="431423010"/>
    <nd ref="431423013"/>
    <nd ref="431422987"/>
    <nd ref="431422999"/>
    <nd ref="431043829"/>
    <nd ref="431422992"/>
    <nd ref="432409650"/>
    <tag k="highway" v="residential"/>
    <tag k="maxspeed" v="50"/>
    <tag k="maxspeed:source" v="default residential speed limit in Australia"/>
  </way>
  <way id="37098909" version="2" timestamp="2010-07-07T07:17:08Z" uid="74617" user="JohnSmith" changeset="5156250">
    <nd ref="431423005"/>
    <nd ref="431423006"/>
    <tag k="highway" v="residential"/>
    <tag k="maxspeed" v="50"/>
    <tag k="maxspeed:source" v="default residential speed limit in Australia"/>
    <tag k="name" v="Somerville Avenue"/>
    <tag k="source" v="extrapolation"/>
  </way>
  <way id="37098911" version="2" timestamp="2009-08-05T04:16:33Z" uid="74617" user="JohnSmith" changeset="2041556">
    <nd ref="431043825"/>
    <nd ref="156184717"/>
    <tag k="highway" v="primary"/>
    <tag k="lanes" v="4"/>
    <tag k="name" v="Bruxner Highway/Ballina Road"/>
    <tag k="ref" v="NR44"/>
    <tag k="source" v="survey"/>
    <tag k="surface" v="paved"/>
  </way>
  <way id="37098911" version="3" timestamp="2009-08-06T13:11:41Z" uid="4467" user="Rosscoe" changeset="2056003">
    <nd ref="431043825"/>
    <nd ref="156184717"/>
    <tag k="highway" v="primary"/>
    <tag k="lanes" v="4"/>
    <tag k="name" v="Bruxner Highway; Ballina Road"/>
    <tag k="ref" v="NR44"/>
    <tag k="source" v="survey"/>
    <tag k="surface" v="paved"/>
  </way>
  <way id="37098913" version="2" timestamp="2010-07-07T07:20:22Z" uid="74617" user="JohnSmith" changeset="5156250">
    <nd ref="431423237"/>
    <nd ref="431423236"/>
    <nd ref="431423234"/>
    <tag k="highway" v="residential"/>
    <tag k="maxspeed" v="50"/>
    <tag k="maxspeed:source" v="default residential speed limit in Australia"/>
    <tag k="name" v="Panorama Road"/>
  </way>
  <way id="37098914" version="2" timestamp="2010-07-07T07:19:11Z" uid="74617" user="JohnSmith" changeset="5156250">
    <nd ref="431422989"/>
    <nd ref="431422988"/>
    <nd ref="431423023"/>
    <nd ref="431422987"/>
    <nd ref="431422996"/>
    <nd ref="431423043"/>
    <tag k="highway" v="residential"/>
    <tag k="maxspeed" v="50"/>
    <tag k="maxspeed:source" v="default residential speed limit in Australia"/>
    <tag k="name" v="Bright Street"/>
  </way>
  <way id="37098915" version="2" timestamp="2010-07-07T07:18:11Z" uid="74617" user="JohnSmith" changeset="5156250">
    <nd ref="431422949"/>
    <nd ref="431422946"/>
    <nd ref="431422956"/>
    <nd ref="431043747"/>
    <nd ref="431043751"/>
    <nd ref="431043757"/>
    <nd ref="431043748"/>
    <nd ref="431044872"/>
    <tag k="highway" v="residential"/>
    <tag k="maxspeed" v="50"/>
    <tag k="maxspeed:source" v="default residential speed limit in Australia"/>
    <tag k="name" v="McKenzie Street"/>
  </way>
  <way id="37098915" version="3" timestamp="2011-02-24T07:46:23Z" uid="4467" user="Rosscoe" changeset="7379210">
    <nd ref="431422949"/>
    <nd ref="431422946"/>
    <nd ref="431422956"/>
    <nd ref="431043747"/>
    <nd ref="431043751"/>
    <nd ref="431043757"/>
    <nd ref="431043748"/>
    <nd ref="431044872"/>
    <nd ref="249531432"/>
    <tag k="highway" v="residential"/>
    <tag k="maxspeed" v="50"/>
    <tag k="maxspeed:source" v="default residential speed limit in Australia"/>
    <tag k="name" v="McKenzie Street"/>
  </way>
  <way id="37098918" version="2" timestamp="2009-08-06T13:27:00Z" uid="4467" user="Rosscoe" changeset="2056126">
    <nd ref="431423149"/>
    <nd ref="457459160"/>
    <nd ref="431423148"/>
    <nd ref="431423146"/>
    <tag k="highway" v="residential"/>
    <tag k="name" v="Elton Street"/>
  </way>
  <way id="37098918" version="3" timestamp="2010-07-07T07:18:30Z" uid="74617" user="JohnSmith" changeset="5156250">
    <nd ref="431423149"/>
    <nd ref="457459160"/>
    <nd ref="431423148"/>
    <nd ref="431423146"/>
    <tag k="highway" v="residential"/>
    <tag k="maxspeed" v="50"/>
    <tag k="maxspeed:source" v="default residential speed limit in Australia"/>
    <tag k="name" v="Elton Street"/>
  </way>
  <way id="37098919" version="2" timestamp="2010-07-07T07:17:24Z" uid="74617" user="JohnSmith" changeset="5156250">
    <nd ref="431423044"/>
    <nd ref="431423042"/>
    <nd ref="431423041"/>
    <tag k="highway" v="residential"/>
    <tag k="maxspeed" v="50"/>
    <tag k="maxspeed:source" v="default residential speed limit in Australia"/>
    <tag k="name" v="Clarice Street"/>
  </way>
  <way id="37098920" version="2" timestamp="2009-08-05T04:16:32Z" uid="74617" user="JohnSmith" changeset="2041556">
    <nd ref="279442192"/>
    <nd ref="431043706"/>
    <tag k="highway" v="primary"/>
    <tag k="name" v="Bruxner Highway/Ballina Road"/>
    <tag k="ref" v="NR44"/>
    <tag k="source" v="survey"/>
    <tag k="surface" v="paved"/>
  </way>
  <way id="37098920" version="3" timestamp="2009-08-06T13:40:07Z" uid="4467" user="Rosscoe" changeset="2056258">
    <nd ref="279442192"/>
    <nd ref="431043706"/>
    <tag k="highway" v="primary"/>
    <tag k="name" v="Bruxner Highway; Ballina Road"/>
    <tag k="ref" v="NR44"/>
    <tag k="source" v="survey"/>
    <tag k="surface" v="paved"/>
  </way>
  <way id="37098920" version="4" timestamp="2009-08-19T07:45:20Z" uid="74617" user="JohnSmith" changeset="2198096">
    <nd ref="279442192"/>
    <nd ref="431043706"/>
    <tag k="highway" v="primary"/>
    <tag k="name" v="Ballina Road"/>
    <tag k="source" v="survey"/>
  </way>
  <way id="37098921" version="2" timestamp="2010-07-07T07:18:46Z" uid="74617" user="JohnSmith" changeset="5156250">
    <nd ref="431423278"/>
    <nd ref="431423276"/>
    <tag k="highway" v="residential"/>
    <tag k="maxspeed" v="50"/>
    <tag k="maxspeed:source" v="default residential speed limit in Australia"/>
    <tag k="name" v="Darsham Avenue"/>
  </way>
  <way id="37098922" version="2" timestamp="2010-07-07T07:17:39Z" uid="74617" user="JohnSmith" changeset="5156250">
    <nd ref="431423046"/>
    <nd ref="431423048"/>
    <tag k="highway" v="residential"/>
    <tag k="maxspeed" v="50"/>
    <tag k="maxspeed:source" v="default residential speed limit in Australia"/>
    <tag k="name" v="Bright Street"/>
  </way>
  <way id="37098924" version="2" timestamp="2010-07-07T07:19:01Z" uid="74617" user="JohnSmith" changeset="5156250">
    <nd ref="431423275"/>
    <nd ref="431423282"/>
    <nd ref="431423283"/>
    <tag k="highway" v="residential"/>
    <tag k="maxspeed" v="50"/>
    <tag k="maxspeed:source" v="default residential speed limit in Australia"/>
    <tag k="name" v="Parkes Street"/>
  </way>
  <way id="37098926" version="2" timestamp="2010-07-07T07:16:52Z" uid="74617" user="JohnSmith" changeset="5156250">
    <nd ref="430634014"/>
    <nd ref="431423254"/>
    <nd ref="431423285"/>
    <nd ref="431423250"/>
    <tag k="highway" v="residential"/>
    <tag k="maxspeed" v="50"/>
    <tag k="maxspeed:source" v="default residential speed limit in Australia"/>
    <tag k="name" v="John Street"/>
  </way>
  <way id="37098927" version="2" timestamp="2009-08-05T04:16:34Z" uid="74617" user="JohnSmith" changeset="2041556"/>
  <way id="37098933" version="2" timestamp="2010-07-07T07:17:31Z" uid="74617" user="JohnSmith" changeset="5156250">
    <nd ref="431423155"/>
    <nd ref="431423153"/>
    <nd ref="431423136"/>
    <nd ref="431423135"/>
    <nd ref="431423134"/>
    <nd ref="431423133"/>
    <nd ref="431423142"/>
    <nd ref="431423141"/>
    <nd ref="431423139"/>
    <nd ref="431423137"/>
    <nd ref="431423175"/>
    <nd ref="431423179"/>
    <nd ref="431423172"/>
    <nd ref="431423174"/>
    <nd ref="431423184"/>
    <nd ref="431423185"/>
    <nd ref="431423180"/>
    <nd ref="431423182"/>
    <tag k="highway" v="residential"/>
    <tag k="maxspeed" v="50"/>
    <tag k="maxspeed:source" v="default residential speed limit in Australia"/>
    <tag k="name" v="Robinson Avenue"/>
  </way>
  <way id="37098938" version="2" timestamp="2010-07-07T07:15:47Z" uid="74617" user="JohnSmith" changeset="5156250">
    <nd ref="431422957"/>
    <nd ref="431422970"/>
    <nd ref="431422972"/>
    <nd ref="431422968"/>
    <tag k="highway" v="residential"/>
    <tag k="maxspeed" v="50"/>
    <tag k="maxspeed:source" v="default residential speed limit in Australia"/>
    <tag k="name" v="Huntingdale Road"/>
  </way>
  <way id="37098940" version="2" timestamp="2010-07-07T07:17:02Z" uid="74617" user="JohnSmith" changeset="5156250">
    <nd ref="431422977"/>
    <nd ref="279441973"/>
    <tag k="addr:street" v="Nielson Street"/>
    <tag k="highway" v="residential"/>
    <tag k="maxspeed" v="50"/>
    <tag k="maxspeed:source" v="default residential speed limit in Australia"/>
    <tag k="name" v="Nielson Street"/>
    <tag k="oneway" v="yes"/>
  </way>
  <way id="37098941" version="2" timestamp="2009-12-30T22:58:28Z" uid="74617" user="JohnSmith" changeset="3494707">
    <nd ref="431422920"/>
    <nd ref="431422921"/>
    <nd ref="431422925"/>
    <nd ref="431422924"/>
    <nd ref="431422926"/>
    <nd ref="601683064"/>
    <tag k="highway" v="service"/>
  </way>
  <way id="37098942" version="2" timestamp="2010-07-07T07:20:04Z" uid="74617" user="JohnSmith" changeset="5156250">
    <nd ref="431423158"/>
    <nd ref="431423156"/>
    <tag k="highway" v="residential"/>
    <tag k="maxspeed" v="50"/>
    <tag k="maxspeed:source" v="default residential speed limit in Australia"/>
    <tag k="name" v="Daphne Street"/>
  </way>
  <way id="37098943" version="2" timestamp="2010-07-07T07:18:55Z" uid="74617" user="JohnSmith" changeset="5156250">
    <nd ref="431423089"/>
    <nd ref="431423088"/>
    <tag k="highway" v="residential"/>
    <tag k="maxspeed" v="50"/>
    <tag k="maxspeed:source" v="default residential speed limit in Australia"/>
    <tag k="name" v="Eden Place"/>
  </way>
  <way id="37098944" version="2" timestamp="2010-07-07T07:19:41Z" uid="74617" user="JohnSmith" changeset="5156250">
    <nd ref="431423265"/>
    <nd ref="431423261"/>
    <nd ref="431423263"/>
    <nd ref="431423259"/>
    <nd ref="431423260"/>
    <nd ref="431423257"/>
    <nd ref="431423258"/>
    <nd ref="431423255"/>
    <nd ref="431423256"/>
    <nd ref="431423253"/>
    <nd ref="431423254"/>
    <tag k="highway" v="residential"/>
    <tag k="maxspeed" v="50"/>
    <tag k="maxspeed:source" v="default residential speed limit in Australia"/>
    <tag k="name" v="Virtue Street"/>
  </way>
  <way id="37098946" version="2" timestamp="2010-07-07T07:17:32Z" uid="74617" user="JohnSmith" changeset="5156250">
    <nd ref="431423075"/>
    <nd ref="431043827"/>
    <nd ref="431043829"/>
    <tag k="highway" v="residential"/>
    <tag k="maxspeed" v="50"/>
    <tag k="maxspeed:source" v="default residential speed limit in Australia"/>
    <tag k="name" v="Avondale Avenue"/>
    <tag k="source" v="survey, extrapolation"/>
  </way>
  <way id="37098947" version="2" timestamp="2010-07-07T07:16:30Z" uid="74617" user="JohnSmith" changeset="5156250">
    <nd ref="431422994"/>
    <nd ref="431423005"/>
    <nd ref="431422995"/>
    <tag k="highway" v="residential"/>
    <tag k="maxspeed" v="50"/>
    <tag k="maxspeed:source" v="default residential speed limit in Australia"/>
    <tag k="name" v="Gorton Avenue"/>
  </way>
  <way id="37098948" version="2" timestamp="2009-08-06T12:36:34Z" uid="4467" user="Rosscoe" changeset="2055707">
    <nd ref="279442192"/>
    <nd ref="431043706"/>
    <tag k="highway" v="primary"/>
    <tag k="lanes" v="4"/>
    <tag k="name" v="Bruxner Highway/Ballina Road"/>
    <tag k="ref" v="44"/>
    <tag k="source" v="survey"/>
    <tag k="surface" v="paved"/>
  </way>
  <way id="37098948" version="3" timestamp="2009-08-06T13:40:06Z" uid="4467" user="Rosscoe" changeset="2056258">
    <nd ref="279442192"/>
    <nd ref="431043706"/>
    <tag k="highway" v="primary"/>
    <tag k="lanes" v="4"/>
    <tag k="name" v="Bruxner Highway; Ballina Road"/>
    <tag k="ref" v="44"/>
    <tag k="source" v="survey"/>
    <tag k="surface" v="paved"/>
  </way>
  <way id="37098948" version="4" timestamp="2009-08-10T02:12:56Z" uid="4467" user="Rosscoe" changeset="2092346"/>
  <way id="37098951" version="2" timestamp="2010-07-07T07:15:48Z" uid="74617" user="JohnSmith" changeset="5156250">
    <nd ref="431422980"/>
    <nd ref="431422981"/>
    <nd ref="431422979"/>
    <tag k="highway" v="residential"/>
    <tag k="maxspeed" v="50"/>
    <tag k="maxspeed:source" v="default residential speed limit in Australia"/>
    <tag k="name" v="Sherwood Drive"/>
  </way>
  <way id="37098952" version="2" timestamp="2010-07-07T07:18:13Z" uid="74617" user="JohnSmith" changeset="5156250">
    <nd ref="431423287"/>
    <nd ref="431423288"/>
    <nd ref="431423285"/>
    <tag k="highway" v="residential"/>
    <tag k="maxspeed" v="50"/>
    <tag k="maxspeed:source" v="default residential speed limit in Australia"/>
    <tag k="name" v="Keith Street"/>
  </way>
  <way id="37098954" version="2" timestamp="2009-08-06T13:27:01Z" uid="4467" user="Rosscoe" changeset="2056126">
    <nd ref="431422918"/>
    <nd ref="431422920"/>
    <nd ref="457459161"/>
    <nd ref="431422919"/>
    <tag k="highway" v="residential"/>
    <tag k="name" v="Laurel Avenue"/>
  </way>
  <way id="37098954" version="3" timestamp="2010-07-07T07:16:07Z" uid="74617" user="JohnSmith" changeset="5156250">
    <nd ref="431422918"/>
    <nd ref="431422920"/>
    <nd ref="457459161"/>
    <nd ref="431422919"/>
    <tag k="highway" v="residential"/>
    <tag k="maxspeed" v="50"/>
    <tag k="maxspeed:source" v="default residential speed limit in Australia"/>
    <tag k="name" v="Laurel Avenue"/>
  </way>
  <way id="37098955" version="2" timestamp="2010-07-07T07:20:06Z" uid="74617" user="JohnSmith" changeset="5156250">
    <nd ref="431422991"/>
    <nd ref="431422994"/>
    <nd ref="431422992"/>
    <tag k="highway" v="residential"/>
    <tag k="maxspeed" v="50"/>
    <tag k="maxspeed:source" v="default residential speed limit in Australia"/>
    <tag k="name" v="Jacaranda Avenue"/>
    <tag k="source" v="survey, extrapolation"/>
  </way>
  <way id="37098956" version="3" timestamp="2010-04-27T04:50:32Z" uid="244897" user="M526244" changeset="4537955">
    <nd ref="249626752"/>
    <nd ref="432408997"/>
    <nd ref="708325373"/>
    <tag k="highway" v="tertiary"/>
  </way>
  <way id="37098957" version="2" timestamp="2010-07-07T07:16:22Z" uid="74617" user="JohnSmith" changeset="5156250">
    <nd ref="431423130"/>
    <nd ref="431423132"/>
    <nd ref="431423105"/>
    <nd ref="431423106"/>
    <nd ref="431423107"/>
    <nd ref="431423108"/>
    <nd ref="431423110"/>
    <nd ref="431423114"/>
    <nd ref="431423115"/>
    <nd ref="431423084"/>
    <nd ref="431423117"/>
    <tag k="highway" v="residential"/>
    <tag k="maxspeed" v="50"/>
    <tag k="maxspeed:source" v="default residential speed limit in Australia"/>
    <tag k="name" v="Showview Street"/>
  </way>
  <way id="37098958" version="2" timestamp="2010-07-07T07:20:24Z" uid="74617" user="JohnSmith" changeset="5156250">
    <nd ref="431423072"/>
    <nd ref="431423018"/>
    <nd ref="431423073"/>
    <nd ref="431423041"/>
    <nd ref="431423014"/>
    <nd ref="431423052"/>
    <nd ref="431423076"/>
    <tag k="highway" v="residential"/>
    <tag k="maxspeed" v="50"/>
    <tag k="maxspeed:source" v="default residential speed limit in Australia"/>
    <tag k="name" v="Avondale Avenue"/>
    <tag k="source" v="survey, extrapolation"/>
  </way>
  <way id="37098959" version="2" timestamp="2010-07-07T07:19:13Z" uid="74617" user="JohnSmith" changeset="5156250">
    <nd ref="431423245"/>
    <nd ref="431423244"/>
    <nd ref="431423243"/>
    <nd ref="431423241"/>
    <nd ref="431423155"/>
    <tag k="highway" v="residential"/>
    <tag k="maxspeed" v="50"/>
    <tag k="maxspeed:source" v="default residential speed limit in Australia"/>
    <tag k="name" v="Esmonde Street"/>
  </way>
  <way id="37098960" version="2" timestamp="2010-07-07T07:17:45Z" uid="74617" user="JohnSmith" changeset="5156250">
    <nd ref="431422998"/>
    <nd ref="279441971"/>
    <nd ref="431422999"/>
    <tag k="highway" v="residential"/>
    <tag k="maxspeed" v="50"/>
    <tag k="maxspeed:source" v="default residential speed limit in Australia"/>
    <tag k="name" v="Music Street"/>
    <tag k="source" v="extrapolation"/>
  </way>
  <way id="37098961" version="2" timestamp="2010-07-07T07:16:40Z" uid="74617" user="JohnSmith" changeset="5156250">
    <nd ref="431422997"/>
    <nd ref="431422998"/>
    <nd ref="431422989"/>
    <tag k="highway" v="residential"/>
    <tag k="maxspeed" v="50"/>
    <tag k="maxspeed:source" v="default residential speed limit in Australia"/>
    <tag k="name" v="College Road"/>
  </way>
  <way id="37098962" version="3" timestamp="2010-07-07T07:20:50Z" uid="74617" user="JohnSmith" changeset="5156250">
    <nd ref="431423238"/>
    <nd ref="431423233"/>
    <nd ref="431423283"/>
    <nd ref="431423237"/>
    <nd ref="432408618"/>
    <nd ref="431423245"/>
    <nd ref="431423239"/>
    <nd ref="431423240"/>
    <tag k="highway" v="residential"/>
    <tag k="maxspeed" v="50"/>
    <tag k="maxspeed:source" v="default residential speed limit in Australia"/>
    <tag k="name" v="Cathcart Street"/>
  </way>
  <way id="37098963" version="2" timestamp="2010-07-07T07:19:35Z" uid="74617" user="JohnSmith" changeset="5156250">
    <nd ref="431423043"/>
    <nd ref="431423046"/>
    <tag k="bridge" v="yes"/>
    <tag k="highway" v="residential"/>
    <tag k="layer" v="1"/>
    <tag k="maxspeed" v="50"/>
    <tag k="maxspeed:source" v="default residential speed limit in Australia"/>
    <tag k="name" v="Bright Street"/>
  </way>
  <way id="37098964" version="2" timestamp="2010-07-07T07:16:57Z" uid="74617" user="JohnSmith" changeset="5156250">
    <nd ref="431422972"/>
    <nd ref="431422969"/>
    <nd ref="431422976"/>
    <nd ref="431422975"/>
    <tag k="highway" v="residential"/>
    <tag k="maxspeed" v="50"/>
    <tag k="maxspeed:source" v="default residential speed limit in Australia"/>
    <tag k="name" v="Greenwood Crescent"/>
  </way>
  <way id="37098966" version="2" timestamp="2010-07-07T07:19:57Z" uid="74617" user="JohnSmith" changeset="5156250">
    <nd ref="431423122"/>
    <nd ref="431423126"/>
    <tag k="highway" v="residential"/>
    <tag k="maxspeed" v="50"/>
    <tag k="maxspeed:source" v="default residential speed limit in Australia"/>
    <tag k="name" v="Garden Street"/>
  </way>
  <way id="37098968" version="2" timestamp="2010-03-19T20:52:10Z" uid="244897" user="M526244" changeset="4174173">
    <nd ref="431423291"/>
    <nd ref="431423292"/>
    <nd ref="431423289"/>
    <nd ref="431423269"/>
    <nd ref="431423299"/>
    <nd ref="431423290"/>
    <nd ref="431423296"/>
    <nd ref="431423298"/>
    <nd ref="431423301"/>
    <nd ref="431423300"/>
    <nd ref="431423297"/>
    <nd ref="431423293"/>
    <nd ref="431423295"/>
    <nd ref="431423291"/>
    <tag k="leisure" v="park"/>
    <tag k="name" v="Albert Park"/>
  </way>
  <way id="37098969" version="2" timestamp="2010-07-07T07:20:17Z" uid="74617" user="JohnSmith" changeset="5156250">
    <nd ref="431423076"/>
    <nd ref="431423075"/>
    <tag k="bridge" v="yes"/>
    <tag k="highway" v="residential"/>
    <tag k="layer" v="1"/>
    <tag k="maxspeed" v="50"/>
    <tag k="maxspeed:source" v="default residential speed limit in Australia"/>
    <tag k="name" v="Avondale Avenue"/>
    <tag k="source" v="survey, extrapolation"/>
  </way>
  <way id="37098970" version="2" timestamp="2010-07-07T07:19:07Z" uid="74617" user="JohnSmith" changeset="5156250">
    <nd ref="431423013"/>
    <nd ref="431423024"/>
    <nd ref="431423012"/>
    <tag k="highway" v="residential"/>
    <tag k="maxspeed" v="50"/>
    <tag k="maxspeed:source" v="default residential speed limit in Australia"/>
    <tag k="name" v="Aurora Street"/>
  </way>
  <way id="37098972" version="2" timestamp="2010-07-07T07:20:36Z" uid="74617" user="JohnSmith" changeset="5156250">
    <nd ref="431423282"/>
    <nd ref="431423281"/>
    <nd ref="431423280"/>
    <nd ref="431423308"/>
    <nd ref="431423309"/>
    <nd ref="431423310"/>
    <nd ref="431423312"/>
    <nd ref="431423313"/>
    <nd ref="431423314"/>
    <tag k="highway" v="residential"/>
    <tag k="maxspeed" v="50"/>
    <tag k="maxspeed:source" v="default residential speed limit in Australia"/>
    <tag k="name" v="Allen Street"/>
  </way>
  <way id="37098973" version="2" timestamp="2010-04-27T04:50:32Z" uid="244897" user="M526244" changeset="4537955">
    <nd ref="708325377"/>
    <nd ref="431043965"/>
    <tag k="highway" v="residential"/>
  </way>
  <way id="37098973" version="3" timestamp="2010-07-07T07:19:23Z" uid="74617" user="JohnSmith" changeset="5156250">
    <nd ref="708325377"/>
    <nd ref="431043965"/>
    <tag k="highway" v="residential"/>
    <tag k="maxspeed" v="50"/>
    <tag k="maxspeed:source" v="default residential speed limit in Australia"/>
  </way>
  <way id="37098976" version="3" timestamp="2010-07-07T07:18:38Z" uid="74617" user="JohnSmith" changeset="5156250">
    <nd ref="431422986"/>
    <nd ref="431422985"/>
    <nd ref="431422983"/>
    <nd ref="431422982"/>
    <nd ref="431422990"/>
    <nd ref="441533657"/>
    <nd ref="441533656"/>
    <nd ref="441533658"/>
    <tag k="highway" v="residential"/>
    <tag k="maxspeed" v="50"/>
    <tag k="maxspeed:source" v="default residential speed limit in Australia"/>
    <tag k="name" v="Eastwood Crescent"/>
  </way>
</osm>
