<?xml version='1.0' encoding='UTF-8'?>
<osm version="0.6" generator="libosmium/2.20.0">
  <way id="37107058" version="5" timestamp="2010-07-08T03:49:50Z" uid="74617" user="JohnSmith" changeset="5163091">
    <nd ref="431530306"/>
    <nd ref="766506719"/>
    <nd ref="431530315"/>
    <nd ref="766506718"/>
    <nd ref="431530331"/>
    <nd ref="766506717"/>
    <nd ref="431530335"/>
    <nd ref="367053901"/>
    <tag k="highway" v="residential"/>
    <tag k="maxspeed" v="50"/>
    <tag k="maxspeed:source" v="default residential speed limit in Australia"/>
    <tag k="name" v="Winterlake Road"/>
  </way>
  <way id="37107059" version="4" timestamp="2010-07-08T03:50:24Z" uid="74617" user="JohnSmith" changeset="5163091">
    <nd ref="431530336"/>
    <nd ref="431530337"/>
    <nd ref="431530338"/>
    <nd ref="431530331"/>
    <tag k="highway" v="residential"/>
    <tag k="maxspeed" v="50"/>
    <tag k="maxspeed:source" v="default residential speed limit in Australia"/>
    <tag k="name" v="Chelston Street"/>
  </way>
  <way id="37107211" version="6" timestamp="2009-11-28T00:52:43Z" uid="9581" user="Lobelt" changeset="3233037">
    <nd ref="431531805"/>
    <nd ref="390416163"/>
    <nd ref="287841162"/>
    <nd ref="257705278"/>
    <nd ref="273216542"/>
    <nd ref="273216543"/>
    <nd ref="257705279"/>
    <nd ref="295986816"/>
    <nd ref="257705280"/>
    <tag k="cycleway" v="track"/>
    <tag k="highway" v="unclassified"/>
    <tag k="name" v="Prüssingstraße"/>
  </way>
  <way id="37107319" version="6" timestamp="2009-09-18T11:45:51Z" uid="20587" user="balrog-kun" changeset="2523165"/>
  <way id="37107612" version="3" timestamp="2010-05-23T01:25:33Z" uid="99207" user="Lar Kiesel" changeset="4779559">
    <nd ref="431531869"/>
    <nd ref="738233366"/>
    <nd ref="746005162"/>
    <nd ref="746005163"/>
    <nd ref="746005164"/>
    <nd ref="738233367"/>
    <nd ref="738233368"/>
    <nd ref="746005165"/>
    <nd ref="738233369"/>
    <nd ref="746005166"/>
    <nd ref="746005167"/>
    <nd ref="738233370"/>
    <nd ref="746005168"/>
    <nd ref="431535598"/>
    <tag k="highway" v="motorway_link"/>
    <tag k="oneway" v="yes"/>
    <tag k="source" v="Yahoo"/>
  </way>
  <way id="37107650" version="5" timestamp="2010-05-23T01:25:28Z" uid="99207" user="Lar Kiesel" changeset="4779559">
    <nd ref="431536151"/>
    <nd ref="431536405"/>
    <nd ref="746005154"/>
    <nd ref="746005155"/>
    <nd ref="738236006"/>
    <nd ref="746005156"/>
    <nd ref="738236009"/>
    <nd ref="746005157"/>
    <nd ref="738236012"/>
    <nd ref="106974940"/>
    <tag k="highway" v="motorway_link"/>
    <tag k="oneway" v="yes"/>
    <tag k="source" v="Yahoo"/>
  </way>
  <way id="37107827" version="3" timestamp="2011-02-13T11:11:25Z" uid="4467" user="Rosscoe" changeset="7273968">
    <nd ref="431545085"/>
    <nd ref="431545088"/>
    <nd ref="431545090"/>
    <nd ref="431545092"/>
    <nd ref="431545094"/>
    <nd ref="431545098"/>
    <nd ref="431545085"/>
    <tag k="addr:city" v="Banyo"/>
    <tag k="addr:country" v="AU"/>
    <tag k="addr:housenumber" v="16"/>
    <tag k="addr:postcode" v="4014"/>
    <tag k="addr:street" v="Frodue Street"/>
    <tag k="source" v="nearmap"/>
    <tag k="sport" v="bowls"/>
  </way>
</osm>
