<?xml version='1.0' encoding='UTF-8'?>
<osm version="0.6" generator="libosmium/2.20.0">
  <way id="3726270" version="2" timestamp="2009-06-28T07:11:22Z" uid="7617" user="Franc" changeset="1659366"/>
  <way id="3726271" version="2" timestamp="2009-06-28T07:11:22Z" uid="7617" user="Franc" changeset="1659366"/>
  <way id="3726273" version="3" timestamp="2011-05-28T12:51:48Z" uid="7617" user="Franc" changeset="8271467">
    <nd ref="18460296"/>
    <nd ref="18460291"/>
    <nd ref="1303491914"/>
    <nd ref="1303492487"/>
    <nd ref="18460287"/>
    <tag k="highway" v="pedestrian"/>
  </way>
  <way id="3726274" version="4" timestamp="2010-06-30T12:17:47Z" uid="61114" user="Trav" changeset="5113090">
    <nd ref="18458381"/>
    <nd ref="796908216"/>
    <nd ref="18460303"/>
    <tag k="highway" v="pedestrian"/>
  </way>
  <way id="3726274" version="5" timestamp="2011-05-28T12:52:13Z" uid="7617" user="Franc" changeset="8271467"/>
  <way id="3726324" version="4" timestamp="2011-05-28T12:51:39Z" uid="7617" user="Franc" changeset="8271467">
    <nd ref="18460295"/>
    <nd ref="1303492268"/>
    <nd ref="18460614"/>
    <nd ref="18460617"/>
    <nd ref="18460606"/>
    <nd ref="1303492328"/>
    <nd ref="18460609"/>
    <nd ref="1303492002"/>
    <nd ref="18460610"/>
    <nd ref="1303492557"/>
    <nd ref="18460295"/>
    <tag k="area" v="yes"/>
    <tag k="highway" v="pedestrian"/>
    <tag k="name" v="Amphitheatre"/>
  </way>
  <way id="3726326" version="3" timestamp="2011-05-28T12:52:03Z" uid="7617" user="Franc" changeset="8271467">
    <nd ref="18460599"/>
    <nd ref="18460628"/>
    <nd ref="1303492588"/>
    <nd ref="18460627"/>
    <tag k="highway" v="service"/>
  </way>
  <way id="3726327" version="3" timestamp="2009-12-03T09:58:53Z" uid="7617" user="Franc" changeset="3279233">
    <nd ref="18458227"/>
    <nd ref="579402662"/>
    <nd ref="18460600"/>
    <nd ref="579402663"/>
    <nd ref="18458089"/>
    <tag k="highway" v="unclassified"/>
    <tag k="name" v="Boundary Street"/>
  </way>
  <way id="3726328" version="1" timestamp="2007-09-27T07:49:49Z" uid="7617" user="Franc" changeset="523631">
    <nd ref="18460297"/>
    <nd ref="18460296"/>
    <nd ref="18460599"/>
    <nd ref="18460600"/>
    <tag k="created_by" v="JOSM"/>
    <tag k="highway" v="unclassified"/>
    <tag k="name" v="Cornwallis Street"/>
    <tag k="oneway" v="yes"/>
  </way>
  <way id="3726331" version="2" timestamp="2007-10-16T08:50:05Z" uid="7617" user="Franc" changeset="200414">
    <nd ref="18460271"/>
    <nd ref="74965541"/>
    <nd ref="18460272"/>
    <nd ref="18460273"/>
    <nd ref="18460275"/>
    <tag k="created_by" v="JOSM"/>
    <tag k="highway" v="unclassified"/>
    <tag k="name" v="Rosehill Street"/>
    <tag k="oneway" v="yes"/>
  </way>
  <way id="3726332" version="3" timestamp="2009-12-03T09:58:53Z" uid="7617" user="Franc" changeset="3279233">
    <nd ref="18460599"/>
    <nd ref="579402672"/>
    <nd ref="18460272"/>
    <tag k="highway" v="unclassified"/>
    <tag k="name" v="Margaret Lane"/>
  </way>
  <way id="3726332" version="4" timestamp="2011-05-28T12:51:57Z" uid="7617" user="Franc" changeset="8271467">
    <nd ref="18460599"/>
    <nd ref="579402672"/>
    <nd ref="18460272"/>
    <tag k="highway" v="service"/>
    <tag k="name" v="Margaret Lane"/>
  </way>
  <way id="3726333" version="1" timestamp="2007-09-17T14:27:33Z" uid="7617" user="Franc" changeset="454190">
    <nd ref="18460275"/>
    <nd ref="18460279"/>
    <nd ref="18460280"/>
    <nd ref="18460284"/>
    <nd ref="18460297"/>
    <tag k="created_by" v="JOSM"/>
    <tag k="highway" v="unclassified"/>
    <tag k="name" v="Marian Street"/>
    <tag k="oneway" v="yes"/>
  </way>
  <way id="3726333" version="3" timestamp="2009-12-03T09:58:51Z" uid="7617" user="Franc" changeset="3279233">
    <nd ref="18460275"/>
    <nd ref="18460279"/>
    <nd ref="18460284"/>
    <nd ref="18460297"/>
    <tag k="highway" v="unclassified"/>
    <tag k="name" v="Marian Street"/>
    <tag k="oneway" v="yes"/>
  </way>
  <way id="3726333" version="5" timestamp="2011-05-28T12:51:46Z" uid="7617" user="Franc" changeset="8271467">
    <nd ref="18460275"/>
    <nd ref="18460279"/>
    <nd ref="18460284"/>
    <nd ref="18460297"/>
    <tag k="highway" v="unclassified"/>
    <tag k="name" v="Marian Street"/>
    <tag k="oneway" v="yes"/>
  </way>
  <way id="3726782" version="2" timestamp="2008-02-29T11:59:44Z" uid="7617" user="Franc" changeset="231874">
    <nd ref="18462861"/>
    <nd ref="18462860"/>
    <nd ref="18462875"/>
    <nd ref="18462883"/>
    <nd ref="18462871"/>
    <nd ref="18462870"/>
    <nd ref="18462869"/>
    <nd ref="15157043"/>
    <tag k="created_by" v="JOSM"/>
    <tag k="highway" v="tertiary"/>
    <tag k="name" v="Lawson Street"/>
  </way>
  <way id="3726782" version="6" timestamp="2009-09-22T05:18:13Z" uid="4467" user="Rosscoe" changeset="2564637">
    <nd ref="18462861"/>
    <nd ref="18462860"/>
    <nd ref="18462875"/>
    <nd ref="18462871"/>
    <tag k="bicycle" v="yes"/>
    <tag k="bridge" v="yes"/>
    <tag k="highway" v="tertiary"/>
    <tag k="layer" v="1"/>
    <tag k="lcn" v="yes"/>
    <tag k="name" v="Lawson Street"/>
  </way>
  <way id="3726782" version="8" timestamp="2009-12-03T10:48:45Z" uid="7617" user="Franc" changeset="3279510">
    <nd ref="18462861"/>
    <nd ref="18462860"/>
    <tag k="bicycle" v="yes"/>
    <tag k="highway" v="tertiary"/>
    <tag k="lcn" v="yes"/>
    <tag k="name" v="Lawson Street"/>
  </way>
  <way id="3726783" version="5" timestamp="2009-06-04T06:31:28Z" uid="7617" user="Franc" changeset="1418864">
    <nd ref="18462871"/>
    <nd ref="18462876"/>
    <nd ref="415550626"/>
    <nd ref="15157054"/>
    <tag k="bicycle" v="yes"/>
    <tag k="created_by" v="Potlatch 0.10f"/>
    <tag k="cycleway" v="opposite_lane"/>
    <tag k="highway" v="unclassified"/>
    <tag k="lcn" v="yes"/>
    <tag k="name" v="Little Everleigh Street"/>
    <tag k="oneway" v="yes"/>
  </way>
  <way id="3726783" version="7" timestamp="2009-12-25T01:01:14Z" uid="30201" user="rrankin" changeset="3445791">
    <nd ref="18462871"/>
    <nd ref="18462876"/>
    <nd ref="415550626"/>
    <tag k="bicycle" v="yes"/>
    <tag k="cycleway" v="opposite_lane"/>
    <tag k="highway" v="unclassified"/>
    <tag k="lcn" v="yes"/>
    <tag k="name" v="Little Everleigh Street"/>
    <tag k="oneway" v="yes"/>
  </way>
  <way id="3726783" version="9" timestamp="2011-04-09T02:30:53Z" uid="7617" user="Franc" changeset="7809509"/>
  <way id="3726784" version="1" timestamp="2007-09-15T13:08:03Z" uid="7617" user="Franc" changeset="437118">
    <nd ref="18462883"/>
    <nd ref="52058494"/>
    <nd ref="18462879"/>
    <tag k="created_by" v="JOSM"/>
    <tag k="highway" v="unclassified"/>
    <tag k="name" v="Everleigh Street"/>
    <tag k="source" v="interpolation"/>
  </way>
  <way id="3726784" version="2" timestamp="2008-03-21T04:23:34Z" uid="7617" user="Franc" changeset="361294">
    <nd ref="18462883"/>
    <nd ref="253119632"/>
    <nd ref="253119634"/>
    <nd ref="52058494"/>
    <nd ref="18462879"/>
    <tag k="created_by" v="JOSM"/>
    <tag k="highway" v="unclassified"/>
    <tag k="name" v="Everleigh Street"/>
    <tag k="source" v="interpolation"/>
  </way>
  <way id="3726784" version="7" timestamp="2010-07-07T22:11:20Z" uid="74617" user="JohnSmith" changeset="5161069">
    <nd ref="18462871"/>
    <nd ref="253119632"/>
    <nd ref="253119634"/>
    <nd ref="52058494"/>
    <nd ref="18462879"/>
    <tag k="highway" v="residential"/>
    <tag k="maxspeed" v="50"/>
    <tag k="maxspeed:source" v="default residential speed limit in Australia"/>
    <tag k="name" v="Eveleigh Street"/>
    <tag k="source" v="interpolation"/>
  </way>
  <way id="3726921" version="3" timestamp="2008-08-20T12:40:59Z" uid="7617" user="Franc" changeset="337935">
    <nd ref="31481543"/>
    <nd ref="31481544"/>
    <nd ref="18463487"/>
    <nd ref="18463501"/>
    <nd ref="15157049"/>
    <tag k="created_by" v="JOSM"/>
    <tag k="highway" v="service"/>
    <tag k="name" v="Wilson Lane"/>
  </way>
  <way id="3726921" version="4" timestamp="2008-10-31T10:00:46Z" uid="7617" user="Franc" changeset="638517">
    <nd ref="31481543"/>
    <nd ref="31481544"/>
    <nd ref="18463487"/>
    <nd ref="18463501"/>
    <tag k="created_by" v="JOSM"/>
    <tag k="highway" v="service"/>
    <tag k="name" v="Wilson Lane"/>
  </way>
  <way id="3726924" version="3" timestamp="2008-08-20T12:41:01Z" uid="7617" user="Franc" changeset="337935"/>
  <way id="3726926" version="2" timestamp="2008-02-27T12:28:27Z" uid="7617" user="Franc" changeset="216849">
    <nd ref="15157049"/>
    <nd ref="18463506"/>
    <nd ref="249454648"/>
    <nd ref="18463521"/>
    <nd ref="18463534"/>
    <tag k="abutters" v="residential"/>
    <tag k="created_by" v="JOSM"/>
    <tag k="highway" v="alley"/>
    <tag k="name" v="Shepherd Lane"/>
  </way>
  <way id="3726926" version="4" timestamp="2008-10-31T10:00:48Z" uid="7617" user="Franc" changeset="638517">
    <nd ref="18463501"/>
    <nd ref="15157049"/>
    <nd ref="18463506"/>
    <nd ref="249454648"/>
    <nd ref="18463521"/>
    <nd ref="18463534"/>
    <tag k="abutters" v="residential"/>
    <tag k="created_by" v="JOSM"/>
    <tag k="highway" v="service"/>
    <tag k="name" v="Shepherd Lane"/>
    <tag k="source:name" v="survey"/>
  </way>
  <way id="3726926" version="5" timestamp="2009-08-16T07:12:35Z" uid="7617" user="Franc" changeset="2160817">
    <nd ref="18463501"/>
    <nd ref="15157049"/>
    <nd ref="18463506"/>
    <nd ref="249454648"/>
    <nd ref="18463521"/>
    <nd ref="469089296"/>
    <nd ref="18463534"/>
    <tag k="abutters" v="residential"/>
    <tag k="created_by" v="JOSM"/>
    <tag k="highway" v="service"/>
    <tag k="name" v="Shepherd Lane"/>
    <tag k="source:name" v="survey"/>
  </way>
  <way id="3726926" version="7" timestamp="2009-12-24T10:27:49Z" uid="30201" user="rrankin" changeset="3440994">
    <nd ref="18463501"/>
    <nd ref="15157049"/>
    <nd ref="18463506"/>
    <nd ref="249454648"/>
    <nd ref="18463521"/>
    <nd ref="469089296"/>
    <nd ref="18463534"/>
    <tag k="highway" v="service"/>
    <tag k="name" v="Shepherd Lane"/>
    <tag k="source:name" v="survey"/>
  </way>
</osm>
