<?xml version='1.0' encoding='UTF-8'?>
<osm version="0.6" generator="libosmium/2.20.0">
  <way id="37265000" version="6" timestamp="2010-04-03T16:50:55Z" uid="20587" user="balrog-kun" changeset="4312936">
    <nd ref="434168775"/>
    <nd ref="434168765"/>
    <nd ref="434168777"/>
    <nd ref="434168779"/>
    <nd ref="128598303"/>
    <tag k="highway" v="motorway"/>
    <tag k="is_in" v="Beaverhead, MT"/>
    <tag k="name" v="Interstate 15"/>
    <tag k="name_1" v="Veteran&apos;s Memorial Highway"/>
    <tag k="oneway" v="yes"/>
    <tag k="ref" v="I 15"/>
    <tag k="source" v="Yahoo,TIGER"/>
  </way>
  <way id="37265001" version="4" timestamp="2010-04-03T16:50:55Z" uid="20587" user="balrog-kun" changeset="4312936">
    <nd ref="434168794"/>
    <nd ref="434168775"/>
    <tag k="bridge" v="yes"/>
    <tag k="highway" v="motorway"/>
    <tag k="is_in" v="Beaverhead, MT"/>
    <tag k="layer" v="1"/>
    <tag k="name" v="Interstate 15"/>
    <tag k="name_1" v="Veteran&apos;s Memorial Highway"/>
    <tag k="oneway" v="yes"/>
    <tag k="ref" v="I 15"/>
    <tag k="source" v="Yahoo,TIGER"/>
  </way>
  <way id="37265002" version="4" timestamp="2010-04-03T16:50:55Z" uid="20587" user="balrog-kun" changeset="4312936">
    <nd ref="434168799"/>
    <nd ref="434168801"/>
    <tag k="bridge" v="yes"/>
    <tag k="highway" v="motorway"/>
    <tag k="is_in" v="Beaverhead, MT"/>
    <tag k="layer" v="1"/>
    <tag k="name" v="Interstate 15"/>
    <tag k="name_1" v="Veteran&apos;s Memorial Highway"/>
    <tag k="oneway" v="yes"/>
    <tag k="ref" v="I 15"/>
  </way>
  <way id="37265003" version="5" timestamp="2010-04-03T16:50:56Z" uid="20587" user="balrog-kun" changeset="4312936">
    <nd ref="434168801"/>
    <nd ref="434168753"/>
    <nd ref="434168794"/>
    <tag k="highway" v="motorway"/>
    <tag k="is_in" v="Beaverhead, MT"/>
    <tag k="name" v="Interstate 15"/>
    <tag k="name_1" v="Veteran&apos;s Memorial Highway"/>
    <tag k="oneway" v="yes"/>
    <tag k="ref" v="I 15"/>
    <tag k="source" v="Yahoo,TIGER"/>
  </way>
  <way id="37265004" version="4" timestamp="2010-04-03T16:50:56Z" uid="20587" user="balrog-kun" changeset="4312936">
    <nd ref="434168718"/>
    <nd ref="434168811"/>
    <tag k="bridge" v="yes"/>
    <tag k="highway" v="motorway"/>
    <tag k="is_in" v="Beaverhead, MT"/>
    <tag k="layer" v="1"/>
    <tag k="name" v="Interstate 15"/>
    <tag k="name_1" v="Veteran&apos;s Memorial Highway"/>
    <tag k="oneway" v="yes"/>
    <tag k="ref" v="I 15"/>
    <tag k="source" v="Yahoo,TIGER"/>
  </way>
  <way id="37265005" version="4" timestamp="2010-04-03T16:50:56Z" uid="20587" user="balrog-kun" changeset="4312936">
    <nd ref="434168811"/>
    <nd ref="434168823"/>
    <nd ref="434168825"/>
    <nd ref="434168827"/>
    <nd ref="434168829"/>
    <nd ref="434168830"/>
    <nd ref="434168799"/>
    <tag k="highway" v="motorway"/>
    <tag k="is_in" v="Beaverhead, MT"/>
    <tag k="name" v="Interstate 15"/>
    <tag k="name_1" v="Veteran&apos;s Memorial Highway"/>
    <tag k="oneway" v="yes"/>
    <tag k="ref" v="I 15"/>
    <tag k="source" v="Yahoo,TIGER"/>
  </way>
  <way id="37265056" version="4" timestamp="2010-04-03T16:50:56Z" uid="20587" user="balrog-kun" changeset="4312936">
    <nd ref="434171458"/>
    <nd ref="434171461"/>
    <tag k="bridge" v="yes"/>
    <tag k="highway" v="motorway"/>
    <tag k="is_in" v="Beaverhead, MT"/>
    <tag k="layer" v="1"/>
    <tag k="name" v="Interstate 15"/>
    <tag k="name_1" v="Veteran&apos;s Memorial Highway"/>
    <tag k="oneway" v="yes"/>
    <tag k="ref" v="I 15"/>
    <tag k="source" v="Yahoo,TIGER"/>
  </way>
  <way id="37265057" version="4" timestamp="2010-04-03T16:50:56Z" uid="20587" user="balrog-kun" changeset="4312936">
    <nd ref="434171461"/>
    <nd ref="434171449"/>
    <nd ref="434171466"/>
    <nd ref="434171468"/>
    <nd ref="434171470"/>
    <nd ref="434171472"/>
    <nd ref="434171475"/>
    <nd ref="434171477"/>
    <nd ref="434171485"/>
    <nd ref="434171487"/>
    <nd ref="434168712"/>
    <nd ref="434168714"/>
    <nd ref="434168716"/>
    <nd ref="434168718"/>
    <tag k="highway" v="motorway"/>
    <tag k="is_in" v="Beaverhead, MT"/>
    <tag k="name" v="Interstate 15"/>
    <tag k="name_1" v="Veteran&apos;s Memorial Highway"/>
    <tag k="oneway" v="yes"/>
    <tag k="ref" v="I 15"/>
    <tag k="source" v="Yahoo,TIGER"/>
  </way>
  <way id="37265058" version="4" timestamp="2010-04-03T16:50:56Z" uid="20587" user="balrog-kun" changeset="4312936">
    <nd ref="434171498"/>
    <nd ref="434171500"/>
    <nd ref="434171502"/>
    <nd ref="434171505"/>
    <nd ref="434171506"/>
    <nd ref="434171511"/>
    <nd ref="434171513"/>
    <nd ref="434171515"/>
    <nd ref="434171448"/>
    <nd ref="434171458"/>
    <tag k="highway" v="motorway"/>
    <tag k="is_in" v="Beaverhead, MT"/>
    <tag k="name" v="Interstate 15"/>
    <tag k="name_1" v="Veteran&apos;s Memorial Highway"/>
    <tag k="oneway" v="yes"/>
    <tag k="ref" v="I 15"/>
    <tag k="source" v="Yahoo,TIGER"/>
  </way>
  <way id="37265059" version="4" timestamp="2010-04-03T16:50:56Z" uid="20587" user="balrog-kun" changeset="4312936">
    <nd ref="434171437"/>
    <nd ref="434171498"/>
    <tag k="bridge" v="yes"/>
    <tag k="highway" v="motorway"/>
    <tag k="is_in" v="Beaverhead, MT"/>
    <tag k="layer" v="1"/>
    <tag k="name" v="Interstate 15"/>
    <tag k="name_1" v="Veteran&apos;s Memorial Highway"/>
    <tag k="oneway" v="yes"/>
    <tag k="ref" v="I 15"/>
    <tag k="source" v="Yahoo,TIGER"/>
  </way>
  <way id="37265127" version="4" timestamp="2010-04-03T16:50:56Z" uid="20587" user="balrog-kun" changeset="4312936">
    <nd ref="434174464"/>
    <nd ref="434174481"/>
    <tag k="bridge" v="yes"/>
    <tag k="highway" v="motorway"/>
    <tag k="is_in" v="Beaverhead, MT"/>
    <tag k="layer" v="1"/>
    <tag k="name" v="Interstate 15"/>
    <tag k="name_1" v="Veteran&apos;s Memorial Highway"/>
    <tag k="oneway" v="yes"/>
    <tag k="ref" v="I 15"/>
    <tag k="source" v="Yahoo,TIGER"/>
  </way>
  <way id="37265128" version="5" timestamp="2010-04-03T16:50:57Z" uid="20587" user="balrog-kun" changeset="4312936">
    <nd ref="434174481"/>
    <nd ref="434174489"/>
    <nd ref="434174474"/>
    <nd ref="434174491"/>
    <nd ref="434174492"/>
    <nd ref="434174493"/>
    <nd ref="434174494"/>
    <nd ref="434174497"/>
    <nd ref="434174499"/>
    <nd ref="434174500"/>
    <nd ref="434174502"/>
    <nd ref="434174504"/>
    <nd ref="434174509"/>
    <nd ref="434174511"/>
    <nd ref="434174513"/>
    <nd ref="434174515"/>
    <nd ref="434171435"/>
    <nd ref="434171437"/>
    <tag k="highway" v="motorway"/>
    <tag k="is_in" v="Beaverhead, MT"/>
    <tag k="name" v="Interstate 15"/>
    <tag k="name_1" v="Veteran&apos;s Memorial Highway"/>
    <tag k="oneway" v="yes"/>
    <tag k="ref" v="I 15"/>
    <tag k="source" v="Yahoo,TIGER"/>
  </way>
  <way id="37265132" version="1" timestamp="2009-07-04T23:07:36Z" uid="23543" user="jkjk" changeset="1734388">
    <nd ref="434175070"/>
    <nd ref="434175072"/>
    <nd ref="434175075"/>
    <nd ref="434175076"/>
    <nd ref="434175078"/>
    <nd ref="434175080"/>
    <nd ref="434175081"/>
    <nd ref="434174964"/>
    <nd ref="434174966"/>
    <nd ref="434174968"/>
    <nd ref="434174969"/>
    <nd ref="434174971"/>
    <nd ref="434174972"/>
    <nd ref="434174975"/>
    <nd ref="434174976"/>
    <nd ref="434174977"/>
    <nd ref="434174979"/>
    <nd ref="434174980"/>
    <nd ref="434174982"/>
    <nd ref="434174983"/>
    <nd ref="434174985"/>
    <nd ref="434174986"/>
    <nd ref="434174988"/>
    <nd ref="434174992"/>
    <nd ref="434174993"/>
    <nd ref="434174995"/>
    <nd ref="434174996"/>
    <nd ref="434174998"/>
    <nd ref="434174999"/>
    <nd ref="434175001"/>
    <nd ref="434175002"/>
    <nd ref="434175004"/>
    <nd ref="434175005"/>
    <nd ref="434175009"/>
    <nd ref="434175010"/>
    <nd ref="434175011"/>
    <nd ref="434175012"/>
    <nd ref="434175013"/>
    <nd ref="434175014"/>
    <nd ref="434175016"/>
    <nd ref="434175018"/>
    <nd ref="434175019"/>
    <nd ref="434175021"/>
    <nd ref="434175025"/>
    <nd ref="434175026"/>
    <nd ref="434175028"/>
    <nd ref="434175029"/>
    <nd ref="434175031"/>
    <nd ref="434175032"/>
    <nd ref="434175034"/>
    <nd ref="434175035"/>
    <nd ref="434175037"/>
    <nd ref="434175038"/>
    <nd ref="434175042"/>
    <nd ref="434175044"/>
    <nd ref="434175045"/>
    <nd ref="434175046"/>
    <nd ref="434175047"/>
    <nd ref="434175048"/>
    <nd ref="434175050"/>
    <nd ref="434175051"/>
    <nd ref="434175053"/>
    <nd ref="434175054"/>
    <nd ref="434175058"/>
    <nd ref="434175060"/>
    <nd ref="434175061"/>
    <nd ref="434175063"/>
    <nd ref="434175064"/>
    <nd ref="434175066"/>
    <nd ref="434175067"/>
    <nd ref="434175069"/>
    <tag k="name" v="Světlá"/>
    <tag k="name:de" v="Zwettlbach"/>
    <tag k="source" v="cuzk:km"/>
    <tag k="waterway" v="stream"/>
  </way>
  <way id="37265132" version="2" timestamp="2009-07-04T23:30:50Z" uid="23543" user="jkjk" changeset="1734452">
    <nd ref="434175070"/>
    <nd ref="434175072"/>
    <nd ref="434175075"/>
    <nd ref="434175076"/>
    <nd ref="434175078"/>
    <nd ref="434175080"/>
    <nd ref="434175081"/>
    <nd ref="434174964"/>
    <nd ref="434174966"/>
    <nd ref="434174968"/>
    <nd ref="434174969"/>
    <nd ref="434174971"/>
    <nd ref="434174972"/>
    <nd ref="434174975"/>
    <nd ref="434174976"/>
    <nd ref="434174977"/>
    <nd ref="434174979"/>
    <nd ref="434174980"/>
    <nd ref="434174982"/>
    <nd ref="434174983"/>
    <nd ref="434174985"/>
    <nd ref="434174986"/>
    <nd ref="434174988"/>
    <nd ref="434174992"/>
    <nd ref="434174993"/>
    <nd ref="434174995"/>
    <nd ref="434174996"/>
    <nd ref="434174998"/>
    <nd ref="434174999"/>
    <nd ref="434175001"/>
    <nd ref="434175002"/>
    <nd ref="434175004"/>
    <nd ref="434175005"/>
    <nd ref="434175009"/>
    <nd ref="434175010"/>
    <nd ref="434175011"/>
    <nd ref="434175012"/>
    <nd ref="434175013"/>
    <nd ref="434175014"/>
    <nd ref="434175016"/>
    <nd ref="434175018"/>
    <nd ref="434175019"/>
    <nd ref="434175021"/>
    <nd ref="434175025"/>
    <nd ref="434175026"/>
    <nd ref="434175028"/>
    <nd ref="434175029"/>
    <nd ref="434175031"/>
    <nd ref="434175032"/>
    <nd ref="434175034"/>
    <nd ref="434175035"/>
    <nd ref="434175037"/>
    <nd ref="434175038"/>
    <nd ref="434175042"/>
    <nd ref="434175044"/>
    <nd ref="434175045"/>
    <nd ref="434175046"/>
    <nd ref="434175047"/>
    <nd ref="434175048"/>
    <nd ref="434175050"/>
    <nd ref="434175051"/>
    <nd ref="434175053"/>
    <nd ref="434175054"/>
    <nd ref="434175058"/>
    <nd ref="434175060"/>
    <nd ref="434175061"/>
    <nd ref="434175063"/>
    <nd ref="434175064"/>
    <nd ref="434175066"/>
    <nd ref="434175067"/>
    <nd ref="434175069"/>
    <nd ref="434193162"/>
    <nd ref="434193163"/>
    <nd ref="434193164"/>
    <nd ref="434193166"/>
    <nd ref="434193168"/>
    <nd ref="434193169"/>
    <nd ref="434193171"/>
    <nd ref="434193172"/>
    <nd ref="434193174"/>
    <nd ref="434193175"/>
    <nd ref="434193176"/>
    <nd ref="434193179"/>
    <nd ref="434193180"/>
    <nd ref="434193181"/>
    <nd ref="434193183"/>
    <nd ref="434193184"/>
    <nd ref="434193186"/>
    <nd ref="434193187"/>
    <nd ref="434193189"/>
    <nd ref="434193191"/>
    <nd ref="434193192"/>
    <nd ref="434193193"/>
    <nd ref="434193195"/>
    <nd ref="434193196"/>
    <nd ref="434193198"/>
    <nd ref="434193199"/>
    <nd ref="434193200"/>
    <nd ref="434193201"/>
    <nd ref="434193202"/>
    <nd ref="434193203"/>
    <nd ref="434193204"/>
    <nd ref="434193205"/>
    <nd ref="434193207"/>
    <nd ref="434193208"/>
    <nd ref="434193210"/>
    <nd ref="434193212"/>
    <nd ref="434193213"/>
    <nd ref="434193215"/>
    <nd ref="434193216"/>
    <nd ref="434193217"/>
    <nd ref="434193219"/>
    <nd ref="434193220"/>
    <nd ref="434193222"/>
    <nd ref="434193224"/>
    <nd ref="434193225"/>
    <nd ref="434193227"/>
    <nd ref="434193228"/>
    <nd ref="434193234"/>
    <nd ref="434193235"/>
    <nd ref="434193237"/>
    <nd ref="434193238"/>
    <nd ref="434193239"/>
    <nd ref="434193241"/>
    <nd ref="434193242"/>
    <tag k="name" v="Světlá"/>
    <tag k="name:de" v="Zwettlbach"/>
    <tag k="source" v="cuzk:km"/>
    <tag k="waterway" v="stream"/>
  </way>
  <way id="37265220" version="5" timestamp="2010-04-03T16:50:57Z" uid="20587" user="balrog-kun" changeset="4312936">
    <nd ref="434179642"/>
    <nd ref="434179643"/>
    <nd ref="434174412"/>
    <nd ref="434174414"/>
    <nd ref="434174416"/>
    <nd ref="434174418"/>
    <nd ref="434174420"/>
    <nd ref="434174422"/>
    <nd ref="434174424"/>
    <nd ref="434174426"/>
    <nd ref="434174427"/>
    <nd ref="434174428"/>
    <nd ref="434174429"/>
    <nd ref="434174433"/>
    <nd ref="434174435"/>
    <nd ref="434174437"/>
    <nd ref="434174440"/>
    <nd ref="434174442"/>
    <nd ref="434174444"/>
    <nd ref="434174446"/>
    <nd ref="434174448"/>
    <nd ref="434174450"/>
    <nd ref="434174452"/>
    <nd ref="434174454"/>
    <nd ref="434174456"/>
    <nd ref="434174458"/>
    <nd ref="434174460"/>
    <nd ref="434174462"/>
    <nd ref="434174464"/>
    <tag k="highway" v="motorway"/>
    <tag k="is_in" v="Beaverhead, MT"/>
    <tag k="name" v="Interstate 15"/>
    <tag k="name_1" v="Veteran&apos;s Memorial Highway"/>
    <tag k="oneway" v="yes"/>
    <tag k="ref" v="I 15"/>
    <tag k="source" v="Yahoo,TIGER"/>
  </way>
  <way id="37265221" version="3" timestamp="2010-04-03T16:50:57Z" uid="20587" user="balrog-kun" changeset="4312936">
    <nd ref="434179649"/>
    <nd ref="434179642"/>
    <tag k="bridge" v="yes"/>
    <tag k="highway" v="motorway"/>
    <tag k="layer" v="1"/>
    <tag k="name" v="I-15"/>
    <tag k="name_1" v="Veteran&apos;s Memorial Highway"/>
    <tag k="oneway" v="yes"/>
    <tag k="ref" v="I 15"/>
    <tag k="tiger:cfcc" v="A17"/>
    <tag k="tiger:county" v="Clark, ID"/>
    <tag k="tiger:name_base" v="I-15"/>
    <tag k="tiger:name_base_1" v="Veteran&apos;s Memorial"/>
    <tag k="tiger:name_type_1" v="Hwy"/>
    <tag k="tiger:reviewed" v="no"/>
    <tag k="tiger:separated" v="yes"/>
    <tag k="tiger:source" v="tiger_import_dch_v0.6_20070809"/>
    <tag k="tiger:tlid" v="135461635"/>
  </way>
  <way id="37265222" version="3" timestamp="2010-04-03T16:50:57Z" uid="20587" user="balrog-kun" changeset="4312936">
    <nd ref="434179656"/>
    <nd ref="434179659"/>
    <nd ref="434179663"/>
    <nd ref="434179666"/>
    <nd ref="434179669"/>
    <nd ref="434179678"/>
    <nd ref="434179680"/>
    <nd ref="434179682"/>
    <nd ref="434179685"/>
    <nd ref="434179688"/>
    <nd ref="434179691"/>
    <nd ref="434179649"/>
    <tag k="highway" v="motorway"/>
    <tag k="name" v="I-15"/>
    <tag k="name_1" v="Veteran&apos;s Memorial Highway"/>
    <tag k="oneway" v="yes"/>
    <tag k="ref" v="I 15"/>
    <tag k="tiger:cfcc" v="A17"/>
    <tag k="tiger:county" v="Clark, ID"/>
    <tag k="tiger:name_base" v="I-15"/>
    <tag k="tiger:name_base_1" v="Veteran&apos;s Memorial"/>
    <tag k="tiger:name_type_1" v="Hwy"/>
    <tag k="tiger:reviewed" v="no"/>
    <tag k="tiger:separated" v="yes"/>
    <tag k="tiger:source" v="tiger_import_dch_v0.6_20070809"/>
    <tag k="tiger:tlid" v="135461635"/>
  </way>
  <way id="37265223" version="3" timestamp="2010-04-03T16:50:57Z" uid="20587" user="balrog-kun" changeset="4312936">
    <nd ref="434179702"/>
    <nd ref="434179656"/>
    <tag k="bridge" v="yes"/>
    <tag k="highway" v="motorway"/>
    <tag k="layer" v="1"/>
    <tag k="name" v="I-15"/>
    <tag k="name_1" v="Veteran&apos;s Memorial Highway"/>
    <tag k="oneway" v="yes"/>
    <tag k="ref" v="I 15"/>
    <tag k="tiger:cfcc" v="A17"/>
    <tag k="tiger:county" v="Clark, ID"/>
    <tag k="tiger:name_base" v="I-15"/>
    <tag k="tiger:name_base_1" v="Veteran&apos;s Memorial"/>
    <tag k="tiger:name_type_1" v="Hwy"/>
    <tag k="tiger:reviewed" v="no"/>
    <tag k="tiger:separated" v="yes"/>
    <tag k="tiger:source" v="tiger_import_dch_v0.6_20070809"/>
    <tag k="tiger:tlid" v="135461635"/>
  </way>
  <way id="37265225" version="3" timestamp="2010-04-03T16:50:58Z" uid="20587" user="balrog-kun" changeset="4312936">
    <nd ref="434179727"/>
    <nd ref="434179714"/>
    <nd ref="434179728"/>
    <nd ref="434179702"/>
    <tag k="highway" v="motorway"/>
    <tag k="name" v="I-15"/>
    <tag k="name_1" v="Veteran&apos;s Memorial Highway"/>
    <tag k="oneway" v="yes"/>
    <tag k="ref" v="I 15"/>
    <tag k="tiger:cfcc" v="A17"/>
    <tag k="tiger:county" v="Clark, ID"/>
    <tag k="tiger:name_base" v="I-15"/>
    <tag k="tiger:name_base_1" v="Veteran&apos;s Memorial"/>
    <tag k="tiger:name_type_1" v="Hwy"/>
    <tag k="tiger:reviewed" v="no"/>
    <tag k="tiger:separated" v="yes"/>
    <tag k="tiger:source" v="tiger_import_dch_v0.6_20070809"/>
    <tag k="tiger:tlid" v="135461635"/>
  </way>
  <way id="37265226" version="3" timestamp="2010-04-03T16:50:58Z" uid="20587" user="balrog-kun" changeset="4312936">
    <nd ref="434179732"/>
    <nd ref="434179727"/>
    <tag k="bridge" v="yes"/>
    <tag k="highway" v="motorway"/>
    <tag k="layer" v="1"/>
    <tag k="name" v="I-15"/>
    <tag k="name_1" v="Veteran&apos;s Memorial Highway"/>
    <tag k="oneway" v="yes"/>
    <tag k="ref" v="I 15"/>
    <tag k="tiger:cfcc" v="A17"/>
    <tag k="tiger:county" v="Clark, ID"/>
    <tag k="tiger:name_base" v="I-15"/>
    <tag k="tiger:name_base_1" v="Veteran&apos;s Memorial"/>
    <tag k="tiger:name_type_1" v="Hwy"/>
    <tag k="tiger:reviewed" v="no"/>
    <tag k="tiger:separated" v="yes"/>
    <tag k="tiger:source" v="tiger_import_dch_v0.6_20070809"/>
    <tag k="tiger:tlid" v="135461635"/>
  </way>
  <way id="37265227" version="3" timestamp="2010-07-06T11:20:09Z" uid="74617" user="JohnSmith" changeset="5147679">
    <nd ref="257711311"/>
    <nd ref="434179736"/>
    <tag k="highway" v="residential"/>
    <tag k="maxspeed" v="50"/>
    <tag k="maxspeed:source" v="default residential speed limit in Australia"/>
    <tag k="name" v="Punter Street"/>
    <tag k="source" v="survey"/>
  </way>
  <way id="37265228" version="3" timestamp="2010-04-03T16:50:58Z" uid="20587" user="balrog-kun" changeset="4312936">
    <nd ref="434179751"/>
    <nd ref="434179744"/>
    <nd ref="434179753"/>
    <nd ref="434179755"/>
    <nd ref="434179756"/>
    <nd ref="434179758"/>
    <nd ref="434179760"/>
    <nd ref="434179762"/>
    <nd ref="434179765"/>
    <nd ref="434179767"/>
    <nd ref="434179769"/>
    <nd ref="434179771"/>
    <nd ref="434179772"/>
    <nd ref="434179710"/>
    <nd ref="434179732"/>
    <tag k="highway" v="motorway"/>
    <tag k="name" v="I-15"/>
    <tag k="name_1" v="Veteran&apos;s Memorial Highway"/>
    <tag k="oneway" v="yes"/>
    <tag k="ref" v="I 15"/>
    <tag k="tiger:cfcc" v="A17"/>
    <tag k="tiger:county" v="Clark, ID"/>
    <tag k="tiger:name_base" v="I-15"/>
    <tag k="tiger:name_base_1" v="Veteran&apos;s Memorial"/>
    <tag k="tiger:name_type_1" v="Hwy"/>
    <tag k="tiger:reviewed" v="no"/>
    <tag k="tiger:separated" v="yes"/>
    <tag k="tiger:source" v="tiger_import_dch_v0.6_20070809"/>
    <tag k="tiger:tlid" v="135461635"/>
  </way>
  <way id="37265229" version="3" timestamp="2010-04-03T16:50:58Z" uid="20587" user="balrog-kun" changeset="4312936">
    <nd ref="434179801"/>
    <nd ref="434179751"/>
    <tag k="bridge" v="yes"/>
    <tag k="highway" v="motorway"/>
    <tag k="layer" v="1"/>
    <tag k="name" v="I-15"/>
    <tag k="name_1" v="Veteran&apos;s Memorial Highway"/>
    <tag k="oneway" v="yes"/>
    <tag k="ref" v="I 15"/>
    <tag k="tiger:cfcc" v="A17"/>
    <tag k="tiger:county" v="Clark, ID"/>
    <tag k="tiger:name_base" v="I-15"/>
    <tag k="tiger:name_base_1" v="Veteran&apos;s Memorial"/>
    <tag k="tiger:name_type_1" v="Hwy"/>
    <tag k="tiger:reviewed" v="no"/>
    <tag k="tiger:separated" v="yes"/>
    <tag k="tiger:source" v="tiger_import_dch_v0.6_20070809"/>
    <tag k="tiger:tlid" v="135461635"/>
  </way>
  <way id="37265230" version="3" timestamp="2010-04-03T16:50:59Z" uid="20587" user="balrog-kun" changeset="4312936">
    <nd ref="434179633"/>
    <nd ref="434179810"/>
    <tag k="bridge" v="yes"/>
    <tag k="highway" v="motorway"/>
    <tag k="layer" v="1"/>
    <tag k="name" v="I-15"/>
    <tag k="name_1" v="Veteran&apos;s Memorial Highway"/>
    <tag k="oneway" v="yes"/>
    <tag k="ref" v="I 15"/>
    <tag k="tiger:cfcc" v="A17"/>
    <tag k="tiger:county" v="Clark, ID"/>
    <tag k="tiger:name_base" v="I-15"/>
    <tag k="tiger:name_base_1" v="Veteran&apos;s Memorial"/>
    <tag k="tiger:name_type_1" v="Hwy"/>
    <tag k="tiger:reviewed" v="no"/>
    <tag k="tiger:separated" v="yes"/>
    <tag k="tiger:source" v="tiger_import_dch_v0.6_20070809"/>
    <tag k="tiger:tlid" v="135461635"/>
  </way>
  <way id="37265231" version="3" timestamp="2010-04-03T16:50:59Z" uid="20587" user="balrog-kun" changeset="4312936">
    <nd ref="434179810"/>
    <nd ref="434179805"/>
    <nd ref="434179816"/>
    <nd ref="434179818"/>
    <nd ref="434179820"/>
    <nd ref="434179822"/>
    <nd ref="434179824"/>
    <nd ref="434179827"/>
    <nd ref="434179828"/>
    <nd ref="434179830"/>
    <nd ref="434179832"/>
    <nd ref="434179834"/>
    <nd ref="434179836"/>
    <nd ref="434179838"/>
    <nd ref="434179840"/>
    <nd ref="434179842"/>
    <nd ref="434179844"/>
    <nd ref="434179846"/>
    <nd ref="434179847"/>
    <nd ref="434179849"/>
    <nd ref="434179851"/>
    <nd ref="434179742"/>
    <nd ref="434179801"/>
    <tag k="highway" v="motorway"/>
    <tag k="name" v="I-15"/>
    <tag k="name_1" v="Veteran&apos;s Memorial Highway"/>
    <tag k="oneway" v="yes"/>
    <tag k="ref" v="I 15"/>
    <tag k="tiger:cfcc" v="A17"/>
    <tag k="tiger:county" v="Clark, ID"/>
    <tag k="tiger:name_base" v="I-15"/>
    <tag k="tiger:name_base_1" v="Veteran&apos;s Memorial"/>
    <tag k="tiger:name_type_1" v="Hwy"/>
    <tag k="tiger:reviewed" v="no"/>
    <tag k="tiger:separated" v="yes"/>
    <tag k="tiger:source" v="tiger_import_dch_v0.6_20070809"/>
    <tag k="tiger:tlid" v="135461635"/>
  </way>
  <way id="37265303" version="3" timestamp="2010-04-03T16:51:00Z" uid="20587" user="balrog-kun" changeset="4312936">
    <nd ref="434184251"/>
    <nd ref="434184253"/>
    <nd ref="434184255"/>
    <tag k="highway" v="motorway"/>
    <tag k="name" v="I-15"/>
    <tag k="name_1" v="Veteran&apos;s Memorial Highway"/>
    <tag k="oneway" v="yes"/>
    <tag k="ref" v="I 15"/>
    <tag k="tiger:cfcc" v="A17"/>
    <tag k="tiger:county" v="Clark, ID"/>
    <tag k="tiger:name_base" v="I-15"/>
    <tag k="tiger:name_base_1" v="Veteran&apos;s Memorial"/>
    <tag k="tiger:name_type_1" v="Hwy"/>
    <tag k="tiger:reviewed" v="no"/>
    <tag k="tiger:separated" v="yes"/>
    <tag k="tiger:source" v="tiger_import_dch_v0.6_20070809"/>
    <tag k="tiger:tlid" v="135461635"/>
  </way>
  <way id="37265304" version="3" timestamp="2010-04-03T16:51:00Z" uid="20587" user="balrog-kun" changeset="4312936">
    <nd ref="434184255"/>
    <nd ref="434184259"/>
    <tag k="bridge" v="yes"/>
    <tag k="highway" v="motorway"/>
    <tag k="layer" v="1"/>
    <tag k="name" v="I-15"/>
    <tag k="name_1" v="Veteran&apos;s Memorial Highway"/>
    <tag k="oneway" v="yes"/>
    <tag k="ref" v="I 15"/>
    <tag k="tiger:cfcc" v="A17"/>
    <tag k="tiger:county" v="Clark, ID"/>
    <tag k="tiger:name_base" v="I-15"/>
    <tag k="tiger:name_base_1" v="Veteran&apos;s Memorial"/>
    <tag k="tiger:name_type_1" v="Hwy"/>
    <tag k="tiger:reviewed" v="no"/>
    <tag k="tiger:separated" v="yes"/>
    <tag k="tiger:source" v="tiger_import_dch_v0.6_20070809"/>
    <tag k="tiger:tlid" v="135461635"/>
  </way>
  <way id="37265305" version="3" timestamp="2010-04-03T16:51:00Z" uid="20587" user="balrog-kun" changeset="4312936">
    <nd ref="434184259"/>
    <nd ref="434184264"/>
    <nd ref="434184265"/>
    <nd ref="434184267"/>
    <nd ref="434184268"/>
    <nd ref="434179631"/>
    <nd ref="434179632"/>
    <nd ref="434179633"/>
    <tag k="highway" v="motorway"/>
    <tag k="name" v="I-15"/>
    <tag k="name_1" v="Veteran&apos;s Memorial Highway"/>
    <tag k="oneway" v="yes"/>
    <tag k="ref" v="I 15"/>
    <tag k="tiger:cfcc" v="A17"/>
    <tag k="tiger:county" v="Clark, ID"/>
    <tag k="tiger:name_base" v="I-15"/>
    <tag k="tiger:name_base_1" v="Veteran&apos;s Memorial"/>
    <tag k="tiger:name_type_1" v="Hwy"/>
    <tag k="tiger:reviewed" v="no"/>
    <tag k="tiger:separated" v="yes"/>
    <tag k="tiger:source" v="tiger_import_dch_v0.6_20070809"/>
    <tag k="tiger:tlid" v="135461635"/>
  </way>
  <way id="37265306" version="3" timestamp="2010-04-03T16:51:00Z" uid="20587" user="balrog-kun" changeset="4312936">
    <nd ref="434184274"/>
    <nd ref="434184251"/>
    <tag k="bridge" v="yes"/>
    <tag k="highway" v="motorway"/>
    <tag k="layer" v="1"/>
    <tag k="name" v="I-15"/>
    <tag k="name_1" v="Veteran&apos;s Memorial Highway"/>
    <tag k="oneway" v="yes"/>
    <tag k="ref" v="I 15"/>
    <tag k="tiger:cfcc" v="A17"/>
    <tag k="tiger:county" v="Clark, ID"/>
    <tag k="tiger:name_base" v="I-15"/>
    <tag k="tiger:name_base_1" v="Veteran&apos;s Memorial"/>
    <tag k="tiger:name_type_1" v="Hwy"/>
    <tag k="tiger:reviewed" v="no"/>
    <tag k="tiger:separated" v="yes"/>
    <tag k="tiger:source" v="tiger_import_dch_v0.6_20070809"/>
    <tag k="tiger:tlid" v="135461635"/>
  </way>
  <way id="37265307" version="3" timestamp="2010-04-03T21:08:16Z" uid="20587" user="balrog-kun" changeset="4315899">
    <nd ref="434184293"/>
    <nd ref="434184295"/>
    <tag k="bridge" v="yes"/>
    <tag k="highway" v="motorway"/>
    <tag k="layer" v="1"/>
    <tag k="name" v="I-15"/>
    <tag k="name_1" v="Veteran&apos;s Memorial Highway"/>
    <tag k="oneway" v="yes"/>
    <tag k="ref" v="I 15"/>
    <tag k="tiger:cfcc" v="A17"/>
    <tag k="tiger:county" v="Clark, ID"/>
    <tag k="tiger:name_base" v="I-15"/>
    <tag k="tiger:name_base_1" v="Veteran&apos;s Memorial"/>
    <tag k="tiger:name_type_1" v="Hwy"/>
    <tag k="tiger:reviewed" v="no"/>
    <tag k="tiger:separated" v="yes"/>
    <tag k="tiger:source" v="tiger_import_dch_v0.6_20070809"/>
    <tag k="tiger:tlid" v="135461635"/>
  </way>
  <way id="37265308" version="3" timestamp="2010-04-03T16:51:00Z" uid="20587" user="balrog-kun" changeset="4312936">
    <nd ref="434184295"/>
    <nd ref="434184288"/>
    <nd ref="434184302"/>
    <nd ref="434184304"/>
    <nd ref="434184305"/>
    <nd ref="434184306"/>
    <nd ref="434184307"/>
    <nd ref="434184309"/>
    <nd ref="434184311"/>
    <nd ref="434184312"/>
    <nd ref="434184285"/>
    <nd ref="434184315"/>
    <nd ref="434184317"/>
    <nd ref="434184319"/>
    <nd ref="434184323"/>
    <nd ref="434184325"/>
    <nd ref="434184327"/>
    <nd ref="434184328"/>
    <nd ref="434184330"/>
    <nd ref="434184333"/>
    <nd ref="434184334"/>
    <nd ref="434184337"/>
    <nd ref="434184339"/>
    <nd ref="434184341"/>
    <nd ref="434184343"/>
    <nd ref="434184344"/>
    <nd ref="434184346"/>
    <nd ref="434184347"/>
    <nd ref="434184349"/>
    <nd ref="434184351"/>
    <nd ref="434184356"/>
    <nd ref="434184359"/>
    <nd ref="434184361"/>
    <nd ref="434184363"/>
    <nd ref="434184364"/>
    <nd ref="434184366"/>
    <nd ref="434184368"/>
    <nd ref="434184370"/>
    <nd ref="434184371"/>
    <nd ref="434184373"/>
    <nd ref="434184376"/>
    <nd ref="434184378"/>
    <nd ref="434184380"/>
    <nd ref="434184382"/>
    <nd ref="434184385"/>
    <nd ref="434184396"/>
    <nd ref="434184398"/>
    <nd ref="434184401"/>
    <nd ref="434184404"/>
    <nd ref="434184274"/>
    <tag k="highway" v="motorway"/>
    <tag k="name" v="I-15"/>
    <tag k="name_1" v="Veteran&apos;s Memorial Highway"/>
    <tag k="oneway" v="yes"/>
    <tag k="ref" v="I 15"/>
    <tag k="tiger:cfcc" v="A17"/>
    <tag k="tiger:county" v="Clark, ID"/>
    <tag k="tiger:name_base" v="I-15"/>
    <tag k="tiger:name_base_1" v="Veteran&apos;s Memorial"/>
    <tag k="tiger:name_type_1" v="Hwy"/>
    <tag k="tiger:reviewed" v="no"/>
    <tag k="tiger:separated" v="yes"/>
    <tag k="tiger:source" v="tiger_import_dch_v0.6_20070809"/>
    <tag k="tiger:tlid" v="135461635"/>
  </way>
  <way id="37265309" version="3" timestamp="2010-04-03T21:08:17Z" uid="20587" user="balrog-kun" changeset="4315899">
    <nd ref="434184245"/>
    <nd ref="434184429"/>
    <tag k="bridge" v="yes"/>
    <tag k="highway" v="motorway"/>
    <tag k="layer" v="1"/>
    <tag k="name" v="I-15"/>
    <tag k="name_1" v="Veteran&apos;s Memorial Highway"/>
    <tag k="oneway" v="yes"/>
    <tag k="ref" v="I 15"/>
    <tag k="tiger:cfcc" v="A17"/>
    <tag k="tiger:county" v="Clark, ID"/>
    <tag k="tiger:name_base" v="I-15"/>
    <tag k="tiger:name_base_1" v="Veteran&apos;s Memorial"/>
    <tag k="tiger:name_type_1" v="Hwy"/>
    <tag k="tiger:reviewed" v="no"/>
    <tag k="tiger:separated" v="yes"/>
    <tag k="tiger:source" v="tiger_import_dch_v0.6_20070809"/>
    <tag k="tiger:tlid" v="135461635"/>
  </way>
  <way id="37265310" version="3" timestamp="2010-04-03T21:08:17Z" uid="20587" user="balrog-kun" changeset="4315899">
    <nd ref="434184429"/>
    <nd ref="434184439"/>
    <nd ref="434184441"/>
    <nd ref="434184443"/>
    <nd ref="434184445"/>
    <nd ref="434184447"/>
    <nd ref="434184450"/>
    <nd ref="434184293"/>
    <tag k="highway" v="motorway"/>
    <tag k="name" v="I-15"/>
    <tag k="name_1" v="Veteran&apos;s Memorial Highway"/>
    <tag k="oneway" v="yes"/>
    <tag k="ref" v="I 15"/>
    <tag k="tiger:cfcc" v="A17"/>
    <tag k="tiger:county" v="Clark, ID"/>
    <tag k="tiger:name_base" v="I-15"/>
    <tag k="tiger:name_base_1" v="Veteran&apos;s Memorial"/>
    <tag k="tiger:name_type_1" v="Hwy"/>
    <tag k="tiger:reviewed" v="no"/>
    <tag k="tiger:separated" v="yes"/>
    <tag k="tiger:source" v="tiger_import_dch_v0.6_20070809"/>
    <tag k="tiger:tlid" v="135461635"/>
  </way>
  <way id="37265329" version="3" timestamp="2010-04-03T21:08:17Z" uid="20587" user="balrog-kun" changeset="4315899">
    <nd ref="434185706"/>
    <nd ref="434185707"/>
    <nd ref="434185708"/>
    <nd ref="434185710"/>
    <nd ref="434185714"/>
    <nd ref="434185716"/>
    <nd ref="434185717"/>
    <nd ref="434185719"/>
    <nd ref="434185721"/>
    <nd ref="434185722"/>
    <nd ref="434185725"/>
    <nd ref="434185727"/>
    <nd ref="434185729"/>
    <nd ref="434184229"/>
    <nd ref="434184230"/>
    <nd ref="434184232"/>
    <nd ref="434184234"/>
    <nd ref="434184235"/>
    <nd ref="434184237"/>
    <nd ref="434184239"/>
    <nd ref="434184241"/>
    <nd ref="434184242"/>
    <nd ref="434184245"/>
    <tag k="highway" v="motorway"/>
    <tag k="name" v="I-15"/>
    <tag k="name_1" v="Veteran&apos;s Memorial Highway"/>
    <tag k="oneway" v="yes"/>
    <tag k="ref" v="I 15"/>
    <tag k="tiger:cfcc" v="A17"/>
    <tag k="tiger:county" v="Clark, ID"/>
    <tag k="tiger:name_base" v="I-15"/>
    <tag k="tiger:name_base_1" v="Veteran&apos;s Memorial"/>
    <tag k="tiger:name_type_1" v="Hwy"/>
    <tag k="tiger:reviewed" v="no"/>
    <tag k="tiger:separated" v="yes"/>
    <tag k="tiger:source" v="tiger_import_dch_v0.6_20070809"/>
    <tag k="tiger:tlid" v="135461635"/>
  </way>
  <way id="37265330" version="3" timestamp="2010-04-03T21:08:17Z" uid="20587" user="balrog-kun" changeset="4315899">
    <nd ref="434185737"/>
    <nd ref="434185706"/>
    <tag k="bridge" v="yes"/>
    <tag k="highway" v="motorway"/>
    <tag k="layer" v="1"/>
    <tag k="name" v="I-15"/>
    <tag k="name_1" v="Veteran&apos;s Memorial Highway"/>
    <tag k="oneway" v="yes"/>
    <tag k="ref" v="I 15"/>
    <tag k="tiger:cfcc" v="A17"/>
    <tag k="tiger:county" v="Clark, ID"/>
    <tag k="tiger:name_base" v="I-15"/>
    <tag k="tiger:name_base_1" v="Veteran&apos;s Memorial"/>
    <tag k="tiger:name_type_1" v="Hwy"/>
    <tag k="tiger:reviewed" v="no"/>
    <tag k="tiger:separated" v="yes"/>
    <tag k="tiger:source" v="tiger_import_dch_v0.6_20070809"/>
    <tag k="tiger:tlid" v="135461635"/>
  </way>
  <way id="37265331" version="3" timestamp="2010-04-03T21:08:18Z" uid="20587" user="balrog-kun" changeset="4315899">
    <nd ref="434185702"/>
    <nd ref="434185741"/>
    <tag k="bridge" v="yes"/>
    <tag k="highway" v="motorway"/>
    <tag k="layer" v="1"/>
    <tag k="name" v="I-15"/>
    <tag k="name_1" v="Veteran&apos;s Memorial Highway"/>
    <tag k="oneway" v="yes"/>
    <tag k="ref" v="I 15"/>
    <tag k="tiger:cfcc" v="A17"/>
    <tag k="tiger:county" v="Clark, ID"/>
    <tag k="tiger:name_base" v="I-15"/>
    <tag k="tiger:name_base_1" v="Veteran&apos;s Memorial"/>
    <tag k="tiger:name_type_1" v="Hwy"/>
    <tag k="tiger:reviewed" v="no"/>
    <tag k="tiger:separated" v="yes"/>
    <tag k="tiger:source" v="tiger_import_dch_v0.6_20070809"/>
    <tag k="tiger:tlid" v="135461635"/>
  </way>
  <way id="37265332" version="3" timestamp="2010-04-03T21:08:18Z" uid="20587" user="balrog-kun" changeset="4315899">
    <nd ref="434185741"/>
    <nd ref="434185749"/>
    <nd ref="434185750"/>
    <nd ref="434185751"/>
    <nd ref="434185753"/>
    <nd ref="434185755"/>
    <nd ref="434185757"/>
    <nd ref="434185758"/>
    <nd ref="434185760"/>
    <nd ref="434185762"/>
    <nd ref="434185763"/>
    <nd ref="434185765"/>
    <nd ref="434185767"/>
    <nd ref="434185771"/>
    <nd ref="434185772"/>
    <nd ref="434185737"/>
    <tag k="highway" v="motorway"/>
    <tag k="name" v="I-15"/>
    <tag k="name_1" v="Veteran&apos;s Memorial Highway"/>
    <tag k="oneway" v="yes"/>
    <tag k="ref" v="I 15"/>
    <tag k="tiger:cfcc" v="A17"/>
    <tag k="tiger:county" v="Clark, ID"/>
    <tag k="tiger:name_base" v="I-15"/>
    <tag k="tiger:name_base_1" v="Veteran&apos;s Memorial"/>
    <tag k="tiger:name_type_1" v="Hwy"/>
    <tag k="tiger:reviewed" v="no"/>
    <tag k="tiger:separated" v="yes"/>
    <tag k="tiger:source" v="tiger_import_dch_v0.6_20070809"/>
    <tag k="tiger:tlid" v="135461635"/>
  </way>
  <way id="37265409" version="3" timestamp="2010-04-03T21:08:18Z" uid="20587" user="balrog-kun" changeset="4315899">
    <nd ref="434190286"/>
    <nd ref="434190287"/>
    <tag k="bridge" v="yes"/>
    <tag k="highway" v="motorway"/>
    <tag k="layer" v="1"/>
    <tag k="name" v="I-15"/>
    <tag k="name_1" v="Veteran&apos;s Memorial Highway"/>
    <tag k="oneway" v="yes"/>
    <tag k="ref" v="I 15"/>
    <tag k="tiger:cfcc" v="A17"/>
    <tag k="tiger:county" v="Clark, ID"/>
    <tag k="tiger:name_base" v="I-15"/>
    <tag k="tiger:name_base_1" v="Veteran&apos;s Memorial"/>
    <tag k="tiger:name_type_1" v="Hwy"/>
    <tag k="tiger:reviewed" v="no"/>
    <tag k="tiger:separated" v="yes"/>
    <tag k="tiger:source" v="tiger_import_dch_v0.6_20070809"/>
    <tag k="tiger:tlid" v="135461635"/>
  </way>
  <way id="37265410" version="3" timestamp="2010-04-03T21:08:18Z" uid="20587" user="balrog-kun" changeset="4315899">
    <nd ref="434190287"/>
    <nd ref="434190292"/>
    <nd ref="434190294"/>
    <nd ref="434190295"/>
    <nd ref="434190297"/>
    <nd ref="434190299"/>
    <nd ref="434190300"/>
    <nd ref="434190302"/>
    <nd ref="434190304"/>
    <nd ref="434190305"/>
    <nd ref="434190307"/>
    <nd ref="434190308"/>
    <nd ref="434185700"/>
    <nd ref="434185702"/>
    <tag k="highway" v="motorway"/>
    <tag k="name" v="I-15"/>
    <tag k="name_1" v="Veteran&apos;s Memorial Highway"/>
    <tag k="oneway" v="yes"/>
    <tag k="ref" v="I 15"/>
    <tag k="tiger:cfcc" v="A17"/>
    <tag k="tiger:county" v="Clark, ID"/>
    <tag k="tiger:name_base" v="I-15"/>
    <tag k="tiger:name_base_1" v="Veteran&apos;s Memorial"/>
    <tag k="tiger:name_type_1" v="Hwy"/>
    <tag k="tiger:reviewed" v="no"/>
    <tag k="tiger:separated" v="yes"/>
    <tag k="tiger:source" v="tiger_import_dch_v0.6_20070809"/>
    <tag k="tiger:tlid" v="135461635"/>
  </way>
  <way id="37265413" version="3" timestamp="2010-04-03T21:08:18Z" uid="20587" user="balrog-kun" changeset="4315899">
    <nd ref="434190244"/>
    <nd ref="434190351"/>
    <tag k="bridge" v="yes"/>
    <tag k="highway" v="motorway"/>
    <tag k="layer" v="1"/>
    <tag k="name" v="I-15"/>
    <tag k="name_1" v="Veteran&apos;s Memorial Highway"/>
    <tag k="oneway" v="yes"/>
    <tag k="ref" v="I 15"/>
    <tag k="tiger:cfcc" v="A17"/>
    <tag k="tiger:county" v="Clark, ID"/>
    <tag k="tiger:name_base" v="I-15"/>
    <tag k="tiger:name_base_1" v="Veteran&apos;s Memorial"/>
    <tag k="tiger:name_type_1" v="Hwy"/>
    <tag k="tiger:reviewed" v="no"/>
    <tag k="tiger:separated" v="yes"/>
    <tag k="tiger:source" v="tiger_import_dch_v0.6_20070809"/>
    <tag k="tiger:tlid" v="135461635"/>
  </way>
  <way id="37265414" version="3" timestamp="2010-04-03T21:08:19Z" uid="20587" user="balrog-kun" changeset="4315899">
    <nd ref="434190351"/>
    <nd ref="434190354"/>
    <nd ref="434190355"/>
    <nd ref="434190357"/>
    <tag k="highway" v="motorway"/>
    <tag k="name" v="I-15"/>
    <tag k="name_1" v="Veteran&apos;s Memorial Highway"/>
    <tag k="oneway" v="yes"/>
    <tag k="ref" v="I 15"/>
    <tag k="tiger:cfcc" v="A17"/>
    <tag k="tiger:county" v="Clark, ID"/>
    <tag k="tiger:name_base" v="I-15"/>
    <tag k="tiger:name_base_1" v="Veteran&apos;s Memorial"/>
    <tag k="tiger:name_type_1" v="Hwy"/>
    <tag k="tiger:reviewed" v="no"/>
    <tag k="tiger:separated" v="yes"/>
    <tag k="tiger:source" v="tiger_import_dch_v0.6_20070809"/>
    <tag k="tiger:tlid" v="135461635"/>
  </way>
  <way id="37265415" version="3" timestamp="2010-04-03T21:08:19Z" uid="20587" user="balrog-kun" changeset="4315899">
    <nd ref="434190361"/>
    <nd ref="434190363"/>
    <nd ref="434190367"/>
    <nd ref="434190369"/>
    <nd ref="434190371"/>
    <nd ref="434190373"/>
    <nd ref="434190375"/>
    <nd ref="434190376"/>
    <nd ref="434190377"/>
    <nd ref="434190378"/>
    <nd ref="434190380"/>
    <nd ref="434190381"/>
    <nd ref="434190383"/>
    <nd ref="434190385"/>
    <nd ref="434190386"/>
    <nd ref="434190388"/>
    <nd ref="434190390"/>
    <nd ref="434190392"/>
    <nd ref="434190396"/>
    <nd ref="434190397"/>
    <nd ref="434190322"/>
    <nd ref="434190286"/>
    <tag k="highway" v="motorway"/>
    <tag k="name" v="I-15"/>
    <tag k="name_1" v="Veteran&apos;s Memorial Highway"/>
    <tag k="oneway" v="yes"/>
    <tag k="ref" v="I 15"/>
    <tag k="tiger:cfcc" v="A17"/>
    <tag k="tiger:county" v="Clark, ID"/>
    <tag k="tiger:name_base" v="I-15"/>
    <tag k="tiger:name_base_1" v="Veteran&apos;s Memorial"/>
    <tag k="tiger:name_type_1" v="Hwy"/>
    <tag k="tiger:reviewed" v="no"/>
    <tag k="tiger:separated" v="yes"/>
    <tag k="tiger:source" v="tiger_import_dch_v0.6_20070809"/>
    <tag k="tiger:tlid" v="135461635"/>
  </way>
  <way id="37265416" version="3" timestamp="2010-04-03T21:08:19Z" uid="20587" user="balrog-kun" changeset="4315899">
    <nd ref="434190357"/>
    <nd ref="434190361"/>
    <tag k="bridge" v="yes"/>
    <tag k="highway" v="motorway"/>
    <tag k="layer" v="1"/>
    <tag k="name" v="I-15"/>
    <tag k="name_1" v="Veteran&apos;s Memorial Highway"/>
    <tag k="oneway" v="yes"/>
    <tag k="ref" v="I 15"/>
    <tag k="tiger:cfcc" v="A17"/>
    <tag k="tiger:county" v="Clark, ID"/>
    <tag k="tiger:name_base" v="I-15"/>
    <tag k="tiger:name_base_1" v="Veteran&apos;s Memorial"/>
    <tag k="tiger:name_type_1" v="Hwy"/>
    <tag k="tiger:reviewed" v="no"/>
    <tag k="tiger:separated" v="yes"/>
    <tag k="tiger:source" v="tiger_import_dch_v0.6_20070809"/>
    <tag k="tiger:tlid" v="135461635"/>
  </way>
  <way id="37265427" version="3" timestamp="2010-04-03T21:08:19Z" uid="20587" user="balrog-kun" changeset="4315899">
    <nd ref="434190243"/>
    <nd ref="434190244"/>
    <tag k="highway" v="motorway"/>
    <tag k="name" v="I-15"/>
    <tag k="name_1" v="Veteran&apos;s Memorial Highway"/>
    <tag k="oneway" v="yes"/>
    <tag k="ref" v="I 15"/>
    <tag k="tiger:cfcc" v="A17"/>
    <tag k="tiger:county" v="Clark, ID"/>
    <tag k="tiger:name_base" v="I-15"/>
    <tag k="tiger:name_base_1" v="Veteran&apos;s Memorial"/>
    <tag k="tiger:name_type_1" v="Hwy"/>
    <tag k="tiger:reviewed" v="no"/>
    <tag k="tiger:separated" v="yes"/>
    <tag k="tiger:source" v="tiger_import_dch_v0.6_20070809"/>
    <tag k="tiger:tlid" v="135461635"/>
  </way>
  <way id="37265428" version="3" timestamp="2010-04-03T21:08:19Z" uid="20587" user="balrog-kun" changeset="4315899">
    <nd ref="434192295"/>
    <nd ref="434190243"/>
    <tag k="bridge" v="yes"/>
    <tag k="highway" v="motorway"/>
    <tag k="layer" v="1"/>
    <tag k="name" v="I-15"/>
    <tag k="name_1" v="Veteran&apos;s Memorial Highway"/>
    <tag k="oneway" v="yes"/>
    <tag k="ref" v="I 15"/>
    <tag k="tiger:cfcc" v="A17"/>
    <tag k="tiger:county" v="Clark, ID"/>
    <tag k="tiger:name_base" v="I-15"/>
    <tag k="tiger:name_base_1" v="Veteran&apos;s Memorial"/>
    <tag k="tiger:name_type_1" v="Hwy"/>
    <tag k="tiger:reviewed" v="no"/>
    <tag k="tiger:separated" v="yes"/>
    <tag k="tiger:source" v="tiger_import_dch_v0.6_20070809"/>
    <tag k="tiger:tlid" v="135461635"/>
  </way>
  <way id="37265464" version="3" timestamp="2010-04-03T21:08:20Z" uid="20587" user="balrog-kun" changeset="4315899">
    <nd ref="434195342"/>
    <nd ref="434195334"/>
    <nd ref="434195344"/>
    <nd ref="434195345"/>
    <nd ref="434195347"/>
    <nd ref="434195348"/>
    <nd ref="434195350"/>
    <nd ref="434195352"/>
    <nd ref="434195353"/>
    <nd ref="434195355"/>
    <nd ref="434195356"/>
    <nd ref="434195358"/>
    <nd ref="434195359"/>
    <nd ref="434195363"/>
    <nd ref="434195364"/>
    <nd ref="434195315"/>
    <nd ref="434195365"/>
    <nd ref="434195367"/>
    <nd ref="434195369"/>
    <nd ref="434195370"/>
    <nd ref="434195372"/>
    <nd ref="434195321"/>
    <nd ref="434195373"/>
    <nd ref="434195375"/>
    <nd ref="434195377"/>
    <nd ref="434192271"/>
    <nd ref="434192273"/>
    <nd ref="434192276"/>
    <nd ref="434192277"/>
    <nd ref="434192279"/>
    <nd ref="434192281"/>
    <nd ref="434192282"/>
    <nd ref="434192284"/>
    <nd ref="434192285"/>
    <nd ref="434192287"/>
    <nd ref="434192288"/>
    <nd ref="434192290"/>
    <nd ref="434192292"/>
    <nd ref="434192293"/>
    <nd ref="434192295"/>
    <tag k="highway" v="motorway"/>
    <tag k="name" v="I-15"/>
    <tag k="name_1" v="Veteran&apos;s Memorial Highway"/>
    <tag k="oneway" v="yes"/>
    <tag k="ref" v="I 15"/>
    <tag k="tiger:cfcc" v="A17"/>
    <tag k="tiger:county" v="Clark, ID"/>
    <tag k="tiger:name_base" v="I-15"/>
    <tag k="tiger:name_base_1" v="Veteran&apos;s Memorial"/>
    <tag k="tiger:name_type_1" v="Hwy"/>
    <tag k="tiger:reviewed" v="no"/>
    <tag k="tiger:separated" v="yes"/>
    <tag k="tiger:source" v="tiger_import_dch_v0.6_20070809"/>
    <tag k="tiger:tlid" v="135461635"/>
  </way>
  <way id="37265465" version="3" timestamp="2010-04-03T21:08:20Z" uid="20587" user="balrog-kun" changeset="4315899">
    <nd ref="434195386"/>
    <nd ref="434195342"/>
    <tag k="bridge" v="yes"/>
    <tag k="highway" v="motorway"/>
    <tag k="layer" v="1"/>
    <tag k="name" v="I-15"/>
    <tag k="name_1" v="Veteran&apos;s Memorial Highway"/>
    <tag k="oneway" v="yes"/>
    <tag k="ref" v="I 15"/>
    <tag k="tiger:cfcc" v="A17"/>
    <tag k="tiger:county" v="Clark, ID"/>
    <tag k="tiger:name_base" v="I-15"/>
    <tag k="tiger:name_base_1" v="Veteran&apos;s Memorial"/>
    <tag k="tiger:name_type_1" v="Hwy"/>
    <tag k="tiger:reviewed" v="no"/>
    <tag k="tiger:separated" v="yes"/>
    <tag k="tiger:source" v="tiger_import_dch_v0.6_20070809"/>
    <tag k="tiger:tlid" v="135461635"/>
  </way>
  <way id="37265466" version="3" timestamp="2010-04-03T21:08:20Z" uid="20587" user="balrog-kun" changeset="4315899">
    <nd ref="434195389"/>
    <nd ref="434195391"/>
    <tag k="bridge" v="yes"/>
    <tag k="highway" v="motorway"/>
    <tag k="layer" v="1"/>
    <tag k="name" v="I-15"/>
    <tag k="name_1" v="Veteran&apos;s Memorial Highway"/>
    <tag k="oneway" v="yes"/>
    <tag k="ref" v="I 15"/>
    <tag k="tiger:cfcc" v="A17"/>
    <tag k="tiger:county" v="Clark, ID"/>
    <tag k="tiger:name_base" v="I-15"/>
    <tag k="tiger:name_base_1" v="Veteran&apos;s Memorial"/>
    <tag k="tiger:name_type_1" v="Hwy"/>
    <tag k="tiger:reviewed" v="no"/>
    <tag k="tiger:separated" v="yes"/>
    <tag k="tiger:source" v="tiger_import_dch_v0.6_20070809"/>
    <tag k="tiger:tlid" v="135461635"/>
  </way>
  <way id="37265467" version="3" timestamp="2010-04-03T21:08:21Z" uid="20587" user="balrog-kun" changeset="4315899">
    <nd ref="434195391"/>
    <nd ref="434195397"/>
    <nd ref="434195401"/>
    <nd ref="434195403"/>
    <nd ref="434195336"/>
    <nd ref="434195386"/>
    <tag k="highway" v="motorway"/>
    <tag k="name" v="I-15"/>
    <tag k="name_1" v="Veteran&apos;s Memorial Highway"/>
    <tag k="oneway" v="yes"/>
    <tag k="ref" v="I 15"/>
    <tag k="tiger:cfcc" v="A17"/>
    <tag k="tiger:county" v="Clark, ID"/>
    <tag k="tiger:name_base" v="I-15"/>
    <tag k="tiger:name_base_1" v="Veteran&apos;s Memorial"/>
    <tag k="tiger:name_type_1" v="Hwy"/>
    <tag k="tiger:reviewed" v="no"/>
    <tag k="tiger:separated" v="yes"/>
    <tag k="tiger:source" v="tiger_import_dch_v0.6_20070809"/>
    <tag k="tiger:tlid" v="135461635"/>
  </way>
  <way id="37265468" version="3" timestamp="2010-04-03T21:08:21Z" uid="20587" user="balrog-kun" changeset="4315899">
    <nd ref="434195310"/>
    <nd ref="434195407"/>
    <tag k="bridge" v="yes"/>
    <tag k="highway" v="motorway"/>
    <tag k="layer" v="1"/>
    <tag k="name" v="I-15"/>
    <tag k="name_1" v="Veteran&apos;s Memorial Highway"/>
    <tag k="oneway" v="yes"/>
    <tag k="ref" v="I 15"/>
    <tag k="tiger:cfcc" v="A17"/>
    <tag k="tiger:county" v="Clark, ID"/>
    <tag k="tiger:name_base" v="I-15"/>
    <tag k="tiger:name_base_1" v="Veteran&apos;s Memorial"/>
    <tag k="tiger:name_type_1" v="Hwy"/>
    <tag k="tiger:reviewed" v="no"/>
    <tag k="tiger:separated" v="yes"/>
    <tag k="tiger:source" v="tiger_import_dch_v0.6_20070809"/>
    <tag k="tiger:tlid" v="135461635"/>
  </way>
  <way id="37265469" version="3" timestamp="2010-04-03T21:08:21Z" uid="20587" user="balrog-kun" changeset="4315899">
    <nd ref="434195407"/>
    <nd ref="434195410"/>
    <tag k="highway" v="motorway"/>
    <tag k="name" v="I-15"/>
    <tag k="name_1" v="Veteran&apos;s Memorial Highway"/>
    <tag k="oneway" v="yes"/>
    <tag k="ref" v="I 15"/>
    <tag k="tiger:cfcc" v="A17"/>
    <tag k="tiger:county" v="Clark, ID"/>
    <tag k="tiger:name_base" v="I-15"/>
    <tag k="tiger:name_base_1" v="Veteran&apos;s Memorial"/>
    <tag k="tiger:name_type_1" v="Hwy"/>
    <tag k="tiger:reviewed" v="no"/>
    <tag k="tiger:separated" v="yes"/>
    <tag k="tiger:source" v="tiger_import_dch_v0.6_20070809"/>
    <tag k="tiger:tlid" v="135461635"/>
  </way>
  <way id="37265470" version="3" timestamp="2010-04-03T21:08:21Z" uid="20587" user="balrog-kun" changeset="4315899">
    <nd ref="434195410"/>
    <nd ref="434195416"/>
    <tag k="bridge" v="yes"/>
    <tag k="highway" v="motorway"/>
    <tag k="layer" v="1"/>
    <tag k="name" v="I-15"/>
    <tag k="name_1" v="Veteran&apos;s Memorial Highway"/>
    <tag k="oneway" v="yes"/>
    <tag k="ref" v="I 15"/>
    <tag k="tiger:cfcc" v="A17"/>
    <tag k="tiger:county" v="Clark, ID"/>
    <tag k="tiger:name_base" v="I-15"/>
    <tag k="tiger:name_base_1" v="Veteran&apos;s Memorial"/>
    <tag k="tiger:name_type_1" v="Hwy"/>
    <tag k="tiger:reviewed" v="no"/>
    <tag k="tiger:separated" v="yes"/>
    <tag k="tiger:source" v="tiger_import_dch_v0.6_20070809"/>
    <tag k="tiger:tlid" v="135461635"/>
  </way>
  <way id="37265471" version="3" timestamp="2010-04-03T21:08:21Z" uid="20587" user="balrog-kun" changeset="4315899">
    <nd ref="434195416"/>
    <nd ref="434195420"/>
    <nd ref="434195422"/>
    <nd ref="434195389"/>
    <tag k="highway" v="motorway"/>
    <tag k="name" v="I-15"/>
    <tag k="name_1" v="Veteran&apos;s Memorial Highway"/>
    <tag k="oneway" v="yes"/>
    <tag k="ref" v="I 15"/>
    <tag k="tiger:cfcc" v="A17"/>
    <tag k="tiger:county" v="Clark, ID"/>
    <tag k="tiger:name_base" v="I-15"/>
    <tag k="tiger:name_base_1" v="Veteran&apos;s Memorial"/>
    <tag k="tiger:name_type_1" v="Hwy"/>
    <tag k="tiger:reviewed" v="no"/>
    <tag k="tiger:separated" v="yes"/>
    <tag k="tiger:source" v="tiger_import_dch_v0.6_20070809"/>
    <tag k="tiger:tlid" v="135461635"/>
  </way>
  <way id="37265554" version="4" timestamp="2010-04-03T21:08:22Z" uid="20587" user="balrog-kun" changeset="4315899">
    <nd ref="434198348"/>
    <nd ref="434198349"/>
    <tag k="bridge" v="yes"/>
    <tag k="highway" v="motorway"/>
    <tag k="is_in" v="Beaverhead, MT"/>
    <tag k="layer" v="1"/>
    <tag k="name" v="Interstate Highway 15"/>
    <tag k="name_1" v="Veteran&apos;s Memorial Highway"/>
    <tag k="oneway" v="yes"/>
    <tag k="ref" v="I 15"/>
  </way>
  <way id="37265555" version="5" timestamp="2010-04-03T21:08:22Z" uid="20587" user="balrog-kun" changeset="4315899">
    <nd ref="434198349"/>
    <nd ref="434198353"/>
    <nd ref="434198357"/>
    <nd ref="434198358"/>
    <nd ref="434198334"/>
    <nd ref="434198343"/>
    <nd ref="434198360"/>
    <nd ref="434198361"/>
    <nd ref="434198363"/>
    <nd ref="434198365"/>
    <nd ref="434198366"/>
    <nd ref="434198368"/>
    <nd ref="434198369"/>
    <nd ref="434198370"/>
    <nd ref="434195308"/>
    <nd ref="434195310"/>
    <tag k="highway" v="motorway"/>
    <tag k="is_in" v="Beaverhead, MT"/>
    <tag k="name" v="Interstate Highway 15"/>
    <tag k="name_1" v="Veteran&apos;s Memorial Highway"/>
    <tag k="oneway" v="yes"/>
    <tag k="ref" v="I 15"/>
  </way>
  <way id="37265558" version="4" timestamp="2010-04-03T21:08:22Z" uid="20587" user="balrog-kun" changeset="4315899">
    <nd ref="434198328"/>
    <nd ref="434198377"/>
    <tag k="bridge" v="yes"/>
    <tag k="highway" v="motorway"/>
    <tag k="is_in" v="Beaverhead, MT"/>
    <tag k="layer" v="1"/>
    <tag k="name" v="Interstate Highway 15"/>
    <tag k="name_1" v="Veteran&apos;s Memorial Highway"/>
    <tag k="oneway" v="yes"/>
    <tag k="ref" v="I 15"/>
  </way>
  <way id="37265559" version="4" timestamp="2010-04-03T21:08:22Z" uid="20587" user="balrog-kun" changeset="4315899">
    <nd ref="434198377"/>
    <nd ref="434198394"/>
    <nd ref="434198396"/>
    <nd ref="434198384"/>
    <nd ref="434198397"/>
    <nd ref="434198399"/>
    <nd ref="434198400"/>
    <nd ref="434198402"/>
    <nd ref="434198348"/>
    <tag k="highway" v="motorway"/>
    <tag k="is_in" v="Beaverhead, MT"/>
    <tag k="name" v="Interstate Highway 15"/>
    <tag k="name_1" v="Veteran&apos;s Memorial Highway"/>
    <tag k="oneway" v="yes"/>
    <tag k="ref" v="I 15"/>
  </way>
  <way id="37265566" version="3" timestamp="2010-04-03T21:08:22Z" uid="20587" user="balrog-kun" changeset="4315899">
    <nd ref="434200723"/>
    <nd ref="434200724"/>
    <tag k="bridge" v="yes"/>
    <tag k="highway" v="motorway"/>
    <tag k="layer" v="1"/>
    <tag k="name" v="I-15"/>
    <tag k="name_1" v="Veteran&apos;s Memorial Highway"/>
    <tag k="oneway" v="yes"/>
    <tag k="ref" v="I 15"/>
    <tag k="tiger:cfcc" v="A17"/>
    <tag k="tiger:county" v="Clark, ID"/>
    <tag k="tiger:name_base" v="I-15"/>
    <tag k="tiger:name_base_1" v="Veteran&apos;s Memorial"/>
    <tag k="tiger:name_type_1" v="Hwy"/>
    <tag k="tiger:reviewed" v="no"/>
    <tag k="tiger:separated" v="yes"/>
    <tag k="tiger:source" v="tiger_import_dch_v0.6_20070809"/>
    <tag k="tiger:tlid" v="135461635"/>
  </way>
  <way id="37265567" version="5" timestamp="2010-04-03T21:08:23Z" uid="20587" user="balrog-kun" changeset="4315899">
    <nd ref="434200724"/>
    <nd ref="434200728"/>
    <nd ref="434200719"/>
    <nd ref="434200730"/>
    <nd ref="434200732"/>
    <nd ref="434200733"/>
    <nd ref="434200735"/>
    <nd ref="434200738"/>
    <nd ref="434200740"/>
    <nd ref="434200741"/>
    <nd ref="434200743"/>
    <nd ref="434200744"/>
    <nd ref="434200746"/>
    <nd ref="434200748"/>
    <nd ref="434200749"/>
    <nd ref="434200751"/>
    <nd ref="434200752"/>
    <nd ref="434200754"/>
    <nd ref="434200755"/>
    <nd ref="434200756"/>
    <nd ref="434198325"/>
    <nd ref="434198326"/>
    <nd ref="434198328"/>
    <tag k="highway" v="motorway"/>
    <tag k="is_in" v="Beaverhead, MT"/>
    <tag k="name" v="Interstate Highway 15"/>
    <tag k="name_1" v="Veteran&apos;s Memorial Highway"/>
    <tag k="oneway" v="yes"/>
    <tag k="ref" v="I 15"/>
  </way>
  <way id="37265568" version="3" timestamp="2010-04-03T21:08:23Z" uid="20587" user="balrog-kun" changeset="4315899">
    <nd ref="434200713"/>
    <nd ref="434200762"/>
    <tag k="bridge" v="yes"/>
    <tag k="highway" v="motorway"/>
    <tag k="layer" v="1"/>
    <tag k="name" v="I-15"/>
    <tag k="name_1" v="Veteran&apos;s Memorial Highway"/>
    <tag k="oneway" v="yes"/>
    <tag k="ref" v="I 15"/>
    <tag k="tiger:cfcc" v="A17"/>
    <tag k="tiger:county" v="Clark, ID"/>
    <tag k="tiger:name_base" v="I-15"/>
    <tag k="tiger:name_base_1" v="Veteran&apos;s Memorial"/>
    <tag k="tiger:name_type_1" v="Hwy"/>
    <tag k="tiger:reviewed" v="no"/>
    <tag k="tiger:separated" v="yes"/>
    <tag k="tiger:source" v="tiger_import_dch_v0.6_20070809"/>
    <tag k="tiger:tlid" v="135461635"/>
  </way>
  <way id="37265569" version="3" timestamp="2010-04-03T21:08:24Z" uid="20587" user="balrog-kun" changeset="4315899">
    <nd ref="434200762"/>
    <nd ref="434200766"/>
    <nd ref="434200768"/>
    <nd ref="434200771"/>
    <nd ref="434200773"/>
    <nd ref="434200774"/>
    <nd ref="434200776"/>
    <nd ref="434200778"/>
    <nd ref="434200717"/>
    <nd ref="434200779"/>
    <nd ref="434200780"/>
    <nd ref="434200723"/>
    <tag k="highway" v="motorway"/>
    <tag k="name" v="I-15"/>
    <tag k="name_1" v="Veteran&apos;s Memorial Highway"/>
    <tag k="oneway" v="yes"/>
    <tag k="ref" v="I 15"/>
    <tag k="tiger:cfcc" v="A17"/>
    <tag k="tiger:county" v="Clark, ID"/>
    <tag k="tiger:name_base" v="I-15"/>
    <tag k="tiger:name_base_1" v="Veteran&apos;s Memorial"/>
    <tag k="tiger:name_type_1" v="Hwy"/>
    <tag k="tiger:reviewed" v="no"/>
    <tag k="tiger:separated" v="yes"/>
    <tag k="tiger:source" v="tiger_import_dch_v0.6_20070809"/>
    <tag k="tiger:tlid" v="135461635"/>
  </way>
  <way id="37265681" version="3" timestamp="2010-04-03T21:08:24Z" uid="20587" user="balrog-kun" changeset="4315899">
    <nd ref="434206810"/>
    <nd ref="434206811"/>
    <tag k="bridge" v="yes"/>
    <tag k="highway" v="motorway"/>
    <tag k="layer" v="1"/>
    <tag k="name" v="I-15"/>
    <tag k="name_1" v="Veteran&apos;s Memorial Highway"/>
    <tag k="oneway" v="yes"/>
    <tag k="ref" v="I 15"/>
    <tag k="tiger:cfcc" v="A17"/>
    <tag k="tiger:county" v="Clark, ID"/>
    <tag k="tiger:name_base" v="I-15"/>
    <tag k="tiger:name_base_1" v="Veteran&apos;s Memorial"/>
    <tag k="tiger:name_type_1" v="Hwy"/>
    <tag k="tiger:reviewed" v="no"/>
    <tag k="tiger:separated" v="yes"/>
    <tag k="tiger:source" v="tiger_import_dch_v0.6_20070809"/>
    <tag k="tiger:tlid" v="135461635"/>
  </way>
  <way id="37265682" version="3" timestamp="2010-04-03T21:08:24Z" uid="20587" user="balrog-kun" changeset="4315899">
    <nd ref="434206811"/>
    <nd ref="434206806"/>
    <nd ref="434206815"/>
    <nd ref="434206816"/>
    <nd ref="434206818"/>
    <nd ref="434206820"/>
    <nd ref="434206821"/>
    <nd ref="434206824"/>
    <nd ref="434206826"/>
    <nd ref="434206827"/>
    <nd ref="434206828"/>
    <nd ref="434206829"/>
    <nd ref="434206830"/>
    <nd ref="434206833"/>
    <nd ref="434206835"/>
    <nd ref="434206837"/>
    <nd ref="434206838"/>
    <nd ref="434206840"/>
    <nd ref="434206841"/>
    <nd ref="434206843"/>
    <nd ref="434206844"/>
    <nd ref="434206846"/>
    <nd ref="434206847"/>
    <nd ref="434206849"/>
    <nd ref="434206852"/>
    <nd ref="434206853"/>
    <nd ref="434200711"/>
    <nd ref="434200713"/>
    <tag k="highway" v="motorway"/>
    <tag k="name" v="I-15"/>
    <tag k="name_1" v="Veteran&apos;s Memorial Highway"/>
    <tag k="oneway" v="yes"/>
    <tag k="ref" v="I 15"/>
    <tag k="tiger:cfcc" v="A17"/>
    <tag k="tiger:county" v="Clark, ID"/>
    <tag k="tiger:name_base" v="I-15"/>
    <tag k="tiger:name_base_1" v="Veteran&apos;s Memorial"/>
    <tag k="tiger:name_type_1" v="Hwy"/>
    <tag k="tiger:reviewed" v="no"/>
    <tag k="tiger:separated" v="yes"/>
    <tag k="tiger:source" v="tiger_import_dch_v0.6_20070809"/>
    <tag k="tiger:tlid" v="135461635"/>
  </way>
  <way id="37265683" version="3" timestamp="2010-04-03T21:08:24Z" uid="20587" user="balrog-kun" changeset="4315899">
    <nd ref="434206866"/>
    <nd ref="434206869"/>
    <tag k="bridge" v="yes"/>
    <tag k="highway" v="motorway"/>
    <tag k="layer" v="1"/>
    <tag k="name" v="I-15"/>
    <tag k="name_1" v="Veteran&apos;s Memorial Highway"/>
    <tag k="oneway" v="yes"/>
    <tag k="ref" v="I 15"/>
    <tag k="tiger:cfcc" v="A17"/>
    <tag k="tiger:county" v="Clark, ID"/>
    <tag k="tiger:name_base" v="I-15"/>
    <tag k="tiger:name_base_1" v="Veteran&apos;s Memorial"/>
    <tag k="tiger:name_type_1" v="Hwy"/>
    <tag k="tiger:reviewed" v="no"/>
    <tag k="tiger:separated" v="yes"/>
    <tag k="tiger:source" v="tiger_import_dch_v0.6_20070809"/>
    <tag k="tiger:tlid" v="135461635"/>
  </way>
  <way id="37265684" version="3" timestamp="2010-04-03T21:08:25Z" uid="20587" user="balrog-kun" changeset="4315899">
    <nd ref="434206869"/>
    <nd ref="434206803"/>
    <nd ref="434206810"/>
    <tag k="highway" v="motorway"/>
    <tag k="name" v="I-15"/>
    <tag k="name_1" v="Veteran&apos;s Memorial Highway"/>
    <tag k="oneway" v="yes"/>
    <tag k="ref" v="I 15"/>
    <tag k="tiger:cfcc" v="A17"/>
    <tag k="tiger:county" v="Clark, ID"/>
    <tag k="tiger:name_base" v="I-15"/>
    <tag k="tiger:name_base_1" v="Veteran&apos;s Memorial"/>
    <tag k="tiger:name_type_1" v="Hwy"/>
    <tag k="tiger:reviewed" v="no"/>
    <tag k="tiger:separated" v="yes"/>
    <tag k="tiger:source" v="tiger_import_dch_v0.6_20070809"/>
    <tag k="tiger:tlid" v="135461635"/>
  </way>
  <way id="37265690" version="3" timestamp="2010-04-03T21:08:25Z" uid="20587" user="balrog-kun" changeset="4315899">
    <nd ref="434206882"/>
    <nd ref="434206884"/>
    <nd ref="434206885"/>
    <tag k="bridge" v="yes"/>
    <tag k="highway" v="motorway"/>
    <tag k="layer" v="1"/>
    <tag k="name" v="I-15"/>
    <tag k="name_1" v="Veteran&apos;s Memorial Highway"/>
    <tag k="oneway" v="yes"/>
    <tag k="ref" v="I 15"/>
    <tag k="tiger:cfcc" v="A17"/>
    <tag k="tiger:county" v="Clark, ID"/>
    <tag k="tiger:name_base" v="I-15"/>
    <tag k="tiger:name_base_1" v="Veteran&apos;s Memorial"/>
    <tag k="tiger:name_type_1" v="Hwy"/>
    <tag k="tiger:reviewed" v="no"/>
    <tag k="tiger:separated" v="yes"/>
    <tag k="tiger:source" v="tiger_import_dch_v0.6_20070809"/>
    <tag k="tiger:tlid" v="135461635"/>
  </way>
  <way id="37265692" version="3" timestamp="2010-04-03T21:08:25Z" uid="20587" user="balrog-kun" changeset="4315899">
    <nd ref="434206885"/>
    <nd ref="434206889"/>
    <nd ref="434206891"/>
    <nd ref="434206892"/>
    <nd ref="434206866"/>
    <tag k="highway" v="motorway"/>
    <tag k="name" v="I-15"/>
    <tag k="name_1" v="Veteran&apos;s Memorial Highway"/>
    <tag k="oneway" v="yes"/>
    <tag k="ref" v="I 15"/>
    <tag k="tiger:cfcc" v="A17"/>
    <tag k="tiger:county" v="Clark, ID"/>
    <tag k="tiger:name_base" v="I-15"/>
    <tag k="tiger:name_base_1" v="Veteran&apos;s Memorial"/>
    <tag k="tiger:name_type_1" v="Hwy"/>
    <tag k="tiger:reviewed" v="no"/>
    <tag k="tiger:separated" v="yes"/>
    <tag k="tiger:source" v="tiger_import_dch_v0.6_20070809"/>
    <tag k="tiger:tlid" v="135461635"/>
  </way>
  <way id="37265693" version="3" timestamp="2010-04-03T21:08:25Z" uid="20587" user="balrog-kun" changeset="4315899">
    <nd ref="434206896"/>
    <nd ref="434206899"/>
    <nd ref="434206900"/>
    <nd ref="434206901"/>
    <nd ref="434206902"/>
    <nd ref="434206904"/>
    <nd ref="434206905"/>
    <nd ref="434206907"/>
    <nd ref="434206908"/>
    <nd ref="434206910"/>
    <nd ref="434206911"/>
    <nd ref="434206913"/>
    <nd ref="434206915"/>
    <nd ref="434206917"/>
    <nd ref="434206918"/>
    <nd ref="434206920"/>
    <nd ref="434206921"/>
    <nd ref="434206923"/>
    <nd ref="434206926"/>
    <nd ref="434206927"/>
    <nd ref="434206929"/>
    <nd ref="434206930"/>
    <nd ref="434206932"/>
    <nd ref="434206934"/>
    <nd ref="434206935"/>
    <nd ref="434206937"/>
    <nd ref="434206938"/>
    <nd ref="434206940"/>
    <nd ref="434206941"/>
    <nd ref="434206942"/>
    <nd ref="434206943"/>
    <nd ref="434206945"/>
    <nd ref="434206946"/>
    <nd ref="434206948"/>
    <nd ref="434206949"/>
    <nd ref="434206953"/>
    <nd ref="434206954"/>
    <nd ref="434206956"/>
    <nd ref="434206957"/>
    <nd ref="434206959"/>
    <nd ref="434206960"/>
    <nd ref="434206962"/>
    <nd ref="434206964"/>
    <nd ref="434206882"/>
    <tag k="highway" v="motorway"/>
    <tag k="name" v="I-15"/>
    <tag k="name_1" v="Veteran&apos;s Memorial Highway"/>
    <tag k="oneway" v="yes"/>
    <tag k="ref" v="I 15"/>
    <tag k="tiger:cfcc" v="A17"/>
    <tag k="tiger:county" v="Clark, ID"/>
    <tag k="tiger:name_base" v="I-15"/>
    <tag k="tiger:name_base_1" v="Veteran&apos;s Memorial"/>
    <tag k="tiger:name_type_1" v="Hwy"/>
    <tag k="tiger:reviewed" v="no"/>
    <tag k="tiger:separated" v="yes"/>
    <tag k="tiger:source" v="tiger_import_dch_v0.6_20070809"/>
    <tag k="tiger:tlid" v="135461635"/>
  </way>
  <way id="37265694" version="3" timestamp="2010-04-03T21:08:26Z" uid="20587" user="balrog-kun" changeset="4315899">
    <nd ref="434206970"/>
    <nd ref="434206896"/>
    <tag k="bridge" v="yes"/>
    <tag k="highway" v="motorway"/>
    <tag k="layer" v="1"/>
    <tag k="name" v="I-15"/>
    <tag k="name_1" v="Veteran&apos;s Memorial Highway"/>
    <tag k="oneway" v="yes"/>
    <tag k="ref" v="I 15"/>
    <tag k="tiger:cfcc" v="A17"/>
    <tag k="tiger:county" v="Clark, ID"/>
    <tag k="tiger:name_base" v="I-15"/>
    <tag k="tiger:name_base_1" v="Veteran&apos;s Memorial"/>
    <tag k="tiger:name_type_1" v="Hwy"/>
    <tag k="tiger:reviewed" v="no"/>
    <tag k="tiger:separated" v="yes"/>
    <tag k="tiger:source" v="tiger_import_dch_v0.6_20070809"/>
    <tag k="tiger:tlid" v="135461635"/>
  </way>
  <way id="37265695" version="3" timestamp="2010-04-03T21:08:26Z" uid="20587" user="balrog-kun" changeset="4315899">
    <nd ref="434206983"/>
    <nd ref="434206986"/>
    <tag k="bridge" v="yes"/>
    <tag k="highway" v="motorway"/>
    <tag k="layer" v="1"/>
    <tag k="name" v="I-15"/>
    <tag k="name_1" v="Veteran&apos;s Memorial Highway"/>
    <tag k="oneway" v="yes"/>
    <tag k="ref" v="I 15"/>
    <tag k="tiger:cfcc" v="A17"/>
    <tag k="tiger:county" v="Clark, ID"/>
    <tag k="tiger:name_base" v="I-15"/>
    <tag k="tiger:name_base_1" v="Veteran&apos;s Memorial"/>
    <tag k="tiger:name_type_1" v="Hwy"/>
    <tag k="tiger:reviewed" v="no"/>
    <tag k="tiger:separated" v="yes"/>
    <tag k="tiger:source" v="tiger_import_dch_v0.6_20070809"/>
    <tag k="tiger:tlid" v="135461635"/>
  </way>
  <way id="37265696" version="3" timestamp="2010-04-03T21:08:26Z" uid="20587" user="balrog-kun" changeset="4315899">
    <nd ref="434206986"/>
    <nd ref="434206990"/>
    <nd ref="434206991"/>
    <nd ref="434206992"/>
    <nd ref="434206994"/>
    <nd ref="434206976"/>
    <nd ref="434206995"/>
    <nd ref="434206997"/>
    <nd ref="434206998"/>
    <nd ref="434206999"/>
    <nd ref="434207001"/>
    <nd ref="434207002"/>
    <nd ref="434206970"/>
    <tag k="highway" v="motorway"/>
    <tag k="name" v="I-15"/>
    <tag k="name_1" v="Veteran&apos;s Memorial Highway"/>
    <tag k="oneway" v="yes"/>
    <tag k="ref" v="I 15"/>
    <tag k="tiger:cfcc" v="A17"/>
    <tag k="tiger:county" v="Clark, ID"/>
    <tag k="tiger:name_base" v="I-15"/>
    <tag k="tiger:name_base_1" v="Veteran&apos;s Memorial"/>
    <tag k="tiger:name_type_1" v="Hwy"/>
    <tag k="tiger:reviewed" v="no"/>
    <tag k="tiger:separated" v="yes"/>
    <tag k="tiger:source" v="tiger_import_dch_v0.6_20070809"/>
    <tag k="tiger:tlid" v="135461635"/>
  </way>
  <way id="37265697" version="3" timestamp="2010-04-03T21:08:26Z" uid="20587" user="balrog-kun" changeset="4315899">
    <nd ref="434207012"/>
    <nd ref="434207013"/>
    <nd ref="434207015"/>
    <nd ref="434207016"/>
    <nd ref="434207018"/>
    <nd ref="434207019"/>
    <nd ref="434207021"/>
    <nd ref="434207022"/>
    <nd ref="434207024"/>
    <nd ref="434207025"/>
    <nd ref="434207027"/>
    <nd ref="434207029"/>
    <nd ref="434207030"/>
    <nd ref="434207031"/>
    <nd ref="434207033"/>
    <nd ref="434207034"/>
    <nd ref="434207036"/>
    <nd ref="434207038"/>
    <nd ref="434207039"/>
    <nd ref="434207040"/>
    <nd ref="434207042"/>
    <nd ref="434207043"/>
    <nd ref="434207045"/>
    <nd ref="434207046"/>
    <nd ref="434207048"/>
    <nd ref="434207049"/>
    <nd ref="434207051"/>
    <nd ref="434207054"/>
    <nd ref="434207056"/>
    <nd ref="434207057"/>
    <nd ref="434207059"/>
    <nd ref="434207060"/>
    <nd ref="434207062"/>
    <nd ref="434207063"/>
    <nd ref="434207064"/>
    <nd ref="434207065"/>
    <nd ref="434207066"/>
    <nd ref="434207068"/>
    <nd ref="434207069"/>
    <nd ref="434207071"/>
    <nd ref="434207072"/>
    <nd ref="434207073"/>
    <nd ref="434207075"/>
    <nd ref="434207076"/>
    <nd ref="434207080"/>
    <nd ref="434207081"/>
    <nd ref="434207083"/>
    <nd ref="434207084"/>
    <nd ref="434207086"/>
    <nd ref="434207087"/>
    <nd ref="434207089"/>
    <nd ref="434207090"/>
    <nd ref="434207092"/>
    <nd ref="434207093"/>
    <nd ref="434207095"/>
    <nd ref="434207096"/>
    <nd ref="434207098"/>
    <nd ref="434207099"/>
    <nd ref="434207101"/>
    <nd ref="434207102"/>
    <nd ref="434207103"/>
    <nd ref="434207105"/>
    <nd ref="434207107"/>
    <nd ref="434206980"/>
    <nd ref="434207108"/>
    <nd ref="434207110"/>
    <nd ref="434207111"/>
    <nd ref="434206983"/>
    <tag k="highway" v="motorway"/>
    <tag k="name" v="I-15"/>
    <tag k="name_1" v="Veteran&apos;s Memorial Highway"/>
    <tag k="oneway" v="yes"/>
    <tag k="ref" v="I 15"/>
    <tag k="tiger:cfcc" v="A17"/>
    <tag k="tiger:county" v="Clark, ID"/>
    <tag k="tiger:name_base" v="I-15"/>
    <tag k="tiger:name_base_1" v="Veteran&apos;s Memorial"/>
    <tag k="tiger:name_type_1" v="Hwy"/>
    <tag k="tiger:reviewed" v="no"/>
    <tag k="tiger:separated" v="yes"/>
    <tag k="tiger:source" v="tiger_import_dch_v0.6_20070809"/>
    <tag k="tiger:tlid" v="135461635"/>
  </way>
  <way id="37265698" version="3" timestamp="2010-04-03T21:08:27Z" uid="20587" user="balrog-kun" changeset="4315899">
    <nd ref="434206795"/>
    <nd ref="434207012"/>
    <tag k="bridge" v="yes"/>
    <tag k="highway" v="motorway"/>
    <tag k="layer" v="1"/>
    <tag k="name" v="I-15"/>
    <tag k="name_1" v="Veteran&apos;s Memorial Highway"/>
    <tag k="oneway" v="yes"/>
    <tag k="ref" v="I 15"/>
    <tag k="tiger:cfcc" v="A17"/>
    <tag k="tiger:county" v="Clark, ID"/>
    <tag k="tiger:name_base" v="I-15"/>
    <tag k="tiger:name_base_1" v="Veteran&apos;s Memorial"/>
    <tag k="tiger:name_type_1" v="Hwy"/>
    <tag k="tiger:reviewed" v="no"/>
    <tag k="tiger:separated" v="yes"/>
    <tag k="tiger:source" v="tiger_import_dch_v0.6_20070809"/>
    <tag k="tiger:tlid" v="135461635"/>
  </way>
</osm>
