<?xml version='1.0' encoding='UTF-8'?>
<osm version="0.6" generator="libosmium/2.20.0">
  <way id="3733687" version="2" timestamp="2008-02-07T08:00:13Z" uid="7617" user="Franc" changeset="62333">
    <nd ref="18493294"/>
    <nd ref="18496850"/>
    <nd ref="18493362"/>
    <tag k="created_by" v="JOSM"/>
    <tag k="highway" v="unclassified"/>
    <tag k="name" v="McKeon Street"/>
  </way>
  <way id="3733687" version="3" timestamp="2009-11-25T10:57:20Z" uid="7617" user="Franc" changeset="3211095">
    <nd ref="18493294"/>
    <nd ref="570712582"/>
    <nd ref="18496850"/>
    <nd ref="18493362"/>
    <tag k="highway" v="unclassified"/>
    <tag k="name" v="McKeon Street"/>
  </way>
  <way id="3733687" version="5" timestamp="2010-02-24T08:01:54Z" uid="7617" user="Franc" changeset="3960663">
    <nd ref="18493294"/>
    <nd ref="18496850"/>
    <nd ref="18493362"/>
    <tag k="highway" v="unclassified"/>
    <tag k="maxspeed" v="50"/>
    <tag k="name" v="McKeon Street"/>
    <tag k="source:maxspeed" v="state_limit"/>
  </way>
  <way id="3733700" version="3" timestamp="2010-01-22T13:02:32Z" uid="7617" user="Franc" changeset="3682933">
    <nd ref="618040825"/>
    <nd ref="618040822"/>
    <nd ref="618040819"/>
    <nd ref="618040796"/>
    <nd ref="618040794"/>
    <nd ref="618040792"/>
    <nd ref="618040783"/>
    <nd ref="618040785"/>
    <nd ref="18497444"/>
    <tag k="highway" v="service"/>
    <tag k="source" v="nearmap"/>
  </way>
  <way id="3733705" version="2" timestamp="2010-01-22T13:02:32Z" uid="7617" user="Franc" changeset="3682933">
    <nd ref="18492912"/>
    <nd ref="18497340"/>
    <nd ref="18497352"/>
    <nd ref="18497375"/>
    <nd ref="18497385"/>
    <nd ref="18497392"/>
    <nd ref="18497402"/>
    <nd ref="18497409"/>
    <nd ref="18497420"/>
    <nd ref="18497432"/>
    <nd ref="18497444"/>
    <nd ref="618040777"/>
    <nd ref="18497457"/>
    <nd ref="618040778"/>
    <nd ref="618040779"/>
    <nd ref="618040781"/>
    <nd ref="18497469"/>
    <tag k="abutters" v="park"/>
    <tag k="highway" v="service"/>
    <tag k="name" v="Bernie Kelly Drive"/>
  </way>
  <way id="3733709" version="1" timestamp="2007-07-10T11:30:50Z" uid="7617" user="Franc" changeset="137813">
    <nd ref="18497469"/>
    <nd ref="18497523"/>
    <nd ref="18497538"/>
    <nd ref="18497553"/>
    <nd ref="18497570"/>
    <nd ref="18497444"/>
    <tag k="created_by" v="Potlatch alpha"/>
    <tag k="highway" v="service"/>
  </way>
  <way id="3733709" version="2" timestamp="2010-01-22T13:02:33Z" uid="7617" user="Franc" changeset="3682933"/>
  <way id="3733713" version="1" timestamp="2007-07-10T11:30:16Z" uid="7617" user="Franc" changeset="137813">
    <nd ref="18497585"/>
    <nd ref="18497601"/>
    <tag k="created_by" v="Potlatch alpha"/>
    <tag k="highway" v="footway"/>
    <tag k="name" v="beach access"/>
  </way>
  <way id="3733718" version="1" timestamp="2007-07-10T11:29:54Z" uid="7617" user="Franc" changeset="137813">
    <nd ref="18497616"/>
    <nd ref="18497631"/>
    <tag k="created_by" v="Potlatch alpha"/>
    <tag k="highway" v="footway"/>
    <tag k="name" v="beach access"/>
  </way>
  <way id="3733722" version="1" timestamp="2007-07-10T11:29:57Z" uid="7617" user="Franc" changeset="137813">
    <nd ref="18497647"/>
    <nd ref="31562053"/>
    <tag k="created_by" v="Potlatch alpha"/>
    <tag k="highway" v="footway"/>
    <tag k="name" v="beach access"/>
  </way>
</osm>
