<?xml version='1.0' encoding='UTF-8'?>
<osm version="0.6" generator="libosmium/2.20.0">
  <way id="37359168" version="5" timestamp="2010-04-03T21:08:35Z" uid="20587" user="balrog-kun" changeset="4315899">
    <nd ref="45110138"/>
    <nd ref="436108871"/>
    <nd ref="45110145"/>
    <nd ref="45110148"/>
    <nd ref="45110153"/>
    <nd ref="436108872"/>
    <nd ref="45110160"/>
    <nd ref="45110165"/>
    <nd ref="45075419"/>
    <nd ref="45075445"/>
    <nd ref="45110213"/>
    <tag k="highway" v="motorway"/>
    <tag k="is_in" v="Pondera, MT"/>
    <tag k="name" v="Interstate Highway 15"/>
    <tag k="name_1" v="Veterans Memorial Highway"/>
    <tag k="name_2" v="Lewis and Clark Trail"/>
    <tag k="oneway" v="yes"/>
    <tag k="ref" v="I 15"/>
  </way>
  <way id="37359169" version="3" timestamp="2010-04-03T21:08:35Z" uid="20587" user="balrog-kun" changeset="4315899">
    <nd ref="45110135"/>
    <nd ref="45110138"/>
    <tag k="bridge" v="yes"/>
    <tag k="highway" v="motorway"/>
    <tag k="layer" v="1"/>
    <tag k="name" v="I-15"/>
    <tag k="name_1" v="Veterans Memorial Highway"/>
    <tag k="name_2" v="Lewis and Clark Trail"/>
    <tag k="oneway" v="yes"/>
    <tag k="ref" v="I 15"/>
    <tag k="tiger:cfcc" v="A11"/>
    <tag k="tiger:county" v="Pondera, MT"/>
    <tag k="tiger:name_base" v="I-15"/>
    <tag k="tiger:name_base_1" v="Veterans Memorial"/>
    <tag k="tiger:name_base_2" v="Lewis and Clark"/>
    <tag k="tiger:name_type_1" v="Hwy"/>
    <tag k="tiger:name_type_2" v="Trl"/>
    <tag k="tiger:reviewed" v="no"/>
    <tag k="tiger:separated" v="no"/>
    <tag k="tiger:source" v="tiger_import_dch_v0.6_20070813"/>
    <tag k="tiger:tlid" v="204239823:204239825:204239827:204239808:204250203:204239905:204239917:204239924:204240095:204240081:204240108:204239895:204240236:204240119:204239955:204239946:204240701:204241320:204241170:204240728:204241155:204241281:204240766:204240794:204241235:20424"/>
  </way>
  <way id="37359170" version="3" timestamp="2010-04-03T21:08:35Z" uid="20587" user="balrog-kun" changeset="4315899">
    <nd ref="45110125"/>
    <nd ref="45110129"/>
    <tag k="bridge" v="yes"/>
    <tag k="highway" v="motorway"/>
    <tag k="layer" v="1"/>
    <tag k="name" v="I-15"/>
    <tag k="name_1" v="Veterans Memorial Highway"/>
    <tag k="name_2" v="Lewis and Clark Trail"/>
    <tag k="oneway" v="yes"/>
    <tag k="ref" v="I 15"/>
    <tag k="tiger:cfcc" v="A11"/>
    <tag k="tiger:county" v="Pondera, MT"/>
    <tag k="tiger:name_base" v="I-15"/>
    <tag k="tiger:name_base_1" v="Veterans Memorial"/>
    <tag k="tiger:name_base_2" v="Lewis and Clark"/>
    <tag k="tiger:name_type_1" v="Hwy"/>
    <tag k="tiger:name_type_2" v="Trl"/>
    <tag k="tiger:reviewed" v="no"/>
    <tag k="tiger:separated" v="no"/>
    <tag k="tiger:source" v="tiger_import_dch_v0.6_20070813"/>
    <tag k="tiger:tlid" v="204239823:204239825:204239827:204239808:204250203:204239905:204239917:204239924:204240095:204240081:204240108:204239895:204240236:204240119:204239955:204239946:204240701:204241320:204241170:204240728:204241155:204241281:204240766:204240794:204241235:20424"/>
  </way>
  <way id="37359171" version="3" timestamp="2010-04-03T21:08:35Z" uid="20587" user="balrog-kun" changeset="4315899">
    <nd ref="45110129"/>
    <nd ref="45110135"/>
    <tag k="highway" v="motorway"/>
    <tag k="name" v="I-15"/>
    <tag k="name_1" v="Veterans Memorial Highway"/>
    <tag k="name_2" v="Lewis and Clark Trail"/>
    <tag k="oneway" v="yes"/>
    <tag k="ref" v="I 15"/>
    <tag k="tiger:cfcc" v="A11"/>
    <tag k="tiger:county" v="Pondera, MT"/>
    <tag k="tiger:name_base" v="I-15"/>
    <tag k="tiger:name_base_1" v="Veterans Memorial"/>
    <tag k="tiger:name_base_2" v="Lewis and Clark"/>
    <tag k="tiger:name_type_1" v="Hwy"/>
    <tag k="tiger:name_type_2" v="Trl"/>
    <tag k="tiger:reviewed" v="no"/>
    <tag k="tiger:separated" v="no"/>
    <tag k="tiger:source" v="tiger_import_dch_v0.6_20070813"/>
    <tag k="tiger:tlid" v="204239823:204239825:204239827:204239808:204250203:204239905:204239917:204239924:204240095:204240081:204240108:204239895:204240236:204240119:204239955:204239946:204240701:204241320:204241170:204240728:204241155:204241281:204240766:204240794:204241235:20424"/>
  </way>
  <way id="37359465" version="1" timestamp="2009-07-07T05:25:18Z" uid="110593" user="esetzer" changeset="1759246">
    <nd ref="385045960"/>
    <nd ref="385045961"/>
    <nd ref="385045962"/>
    <nd ref="385045963"/>
    <nd ref="385045964"/>
    <nd ref="385045965"/>
    <tag k="barrier" v="fence"/>
    <tag k="created_by" v="Merkaartor 0.11"/>
  </way>
  <way id="37359603" version="6" timestamp="2010-04-03T21:08:36Z" uid="20587" user="balrog-kun" changeset="4315899">
    <nd ref="436108884"/>
    <nd ref="45084163"/>
    <tag k="highway" v="motorway"/>
    <tag k="is_in" v="Pondera, MT"/>
    <tag k="name" v="Interstate Highway 15"/>
    <tag k="name_1" v="Veterans Memorial Highway"/>
    <tag k="name_2" v="Lewis and Clark Trail"/>
    <tag k="oneway" v="yes"/>
    <tag k="ref" v="I 15"/>
  </way>
  <way id="37359604" version="4" timestamp="2010-04-03T21:08:36Z" uid="20587" user="balrog-kun" changeset="4315899">
    <nd ref="45110213"/>
    <nd ref="436108884"/>
    <tag k="bridge" v="yes"/>
    <tag k="highway" v="motorway"/>
    <tag k="is_in" v="Pondera, MT"/>
    <tag k="layer" v="1"/>
    <tag k="name" v="Interstate Highway 15"/>
    <tag k="name_1" v="Veterans Memorial Highway"/>
    <tag k="name_2" v="Lewis and Clark Trail"/>
    <tag k="oneway" v="yes"/>
    <tag k="ref" v="I 15"/>
  </way>
</osm>
