<?xml version='1.0' encoding='UTF-8'?>
<osm version="0.6" generator="libosmium/2.20.0">
  <way id="37374008" version="1" timestamp="2009-07-07T12:16:26Z" uid="19626" user="Swamp" changeset="1761762">
    <nd ref="436213966"/>
    <nd ref="436213967"/>
    <nd ref="436213968"/>
    <nd ref="436213969"/>
    <nd ref="436213970"/>
    <nd ref="436213971"/>
    <nd ref="304465162"/>
    <tag k="highway" v="residential"/>
    <tag k="name" v="Tuppal Street"/>
    <tag k="source" v="survey"/>
  </way>
  <way id="37374008" version="2" timestamp="2009-07-11T02:09:25Z" uid="19626" user="Swamp" changeset="1793680">
    <nd ref="436213966"/>
    <nd ref="436213967"/>
    <nd ref="436213968"/>
    <nd ref="436213969"/>
    <nd ref="436213970"/>
    <nd ref="436213971"/>
    <tag k="highway" v="residential"/>
    <tag k="name" v="Tuppal Street"/>
    <tag k="source" v="survey"/>
  </way>
  <way id="37374008" version="3" timestamp="2010-04-26T03:38:52Z" uid="74617" user="JohnSmith" changeset="4528019">
    <nd ref="436213966"/>
    <nd ref="436213967"/>
    <nd ref="436213968"/>
    <nd ref="436213969"/>
    <nd ref="436213970"/>
    <nd ref="436213971"/>
    <tag k="highway" v="residential"/>
    <tag k="maxspeed" v="50"/>
    <tag k="name" v="Tuppal Street"/>
    <tag k="source" v="survey"/>
  </way>
  <way id="37374009" version="1" timestamp="2009-07-07T12:16:27Z" uid="19626" user="Swamp" changeset="1761762">
    <nd ref="436213970"/>
    <nd ref="436213972"/>
    <nd ref="436213973"/>
    <tag k="highway" v="residential"/>
    <tag k="name" v="Close Street"/>
    <tag k="source" v="survey"/>
  </way>
  <way id="37374009" version="2" timestamp="2010-04-21T11:05:43Z" uid="74617" user="JohnSmith" changeset="4485117">
    <nd ref="436213970"/>
    <nd ref="703146934"/>
    <nd ref="703146933"/>
    <nd ref="436213972"/>
    <nd ref="436213973"/>
    <tag k="highway" v="residential"/>
    <tag k="name" v="Close Street"/>
    <tag k="source" v="survey"/>
  </way>
  <way id="37374009" version="3" timestamp="2010-04-26T03:38:54Z" uid="74617" user="JohnSmith" changeset="4528019">
    <nd ref="436213970"/>
    <nd ref="703146934"/>
    <nd ref="703146933"/>
    <nd ref="436213972"/>
    <nd ref="436213973"/>
    <tag k="highway" v="residential"/>
    <tag k="maxspeed" v="50"/>
    <tag k="name" v="Close Street"/>
    <tag k="source" v="survey"/>
  </way>
  <way id="37374010" version="1" timestamp="2009-07-07T12:16:27Z" uid="19626" user="Swamp" changeset="1761762">
    <nd ref="304465162"/>
    <nd ref="436198086"/>
    <nd ref="304465163"/>
    <nd ref="436198100"/>
    <nd ref="304465164"/>
    <tag k="created_by" v="Potlatch 0.5d"/>
    <tag k="highway" v="primary"/>
    <tag k="name" v="Riverina Highway; Tuppal Street"/>
    <tag k="ref" v="B58"/>
    <tag k="source" v="survey"/>
  </way>
  <way id="37374010" version="3" timestamp="2010-04-05T05:31:20Z" uid="4467" user="Rosscoe" changeset="4329320">
    <nd ref="304465162"/>
    <nd ref="436198086"/>
    <nd ref="436198100"/>
    <nd ref="304465164"/>
    <tag k="highway" v="primary"/>
    <tag k="name" v="Tuppal Street"/>
    <tag k="source" v="survey"/>
  </way>
  <way id="37374010" version="4" timestamp="2010-04-21T11:05:43Z" uid="74617" user="JohnSmith" changeset="4485117">
    <nd ref="304465162"/>
    <nd ref="703146935"/>
    <nd ref="436198086"/>
    <nd ref="436198100"/>
    <nd ref="304465164"/>
    <tag k="highway" v="primary"/>
    <tag k="name" v="Tuppal Street"/>
    <tag k="source" v="survey"/>
  </way>
  <way id="37374010" version="5" timestamp="2010-04-26T03:38:40Z" uid="74617" user="JohnSmith" changeset="4528019">
    <nd ref="304465162"/>
    <nd ref="703146935"/>
    <nd ref="436198086"/>
    <nd ref="436198100"/>
    <nd ref="706914126"/>
    <nd ref="304465164"/>
    <tag k="highway" v="primary"/>
    <tag k="name" v="Tuppal Street"/>
    <tag k="source" v="survey"/>
  </way>
  <way id="37374010" version="6" timestamp="2010-05-02T02:57:20Z" uid="115684" user="jVviJ11dNx" changeset="4580894">
    <nd ref="304465162"/>
    <nd ref="703146935"/>
    <nd ref="436198086"/>
    <nd ref="436198100"/>
    <nd ref="706914126"/>
    <nd ref="304465164"/>
    <tag k="highway" v="primary"/>
    <tag k="name" v="Tuppal Street"/>
    <tag k="source" v="survey"/>
  </way>
  <way id="37374010" version="7" timestamp="2010-05-02T03:15:18Z" uid="115684" user="jVviJ11dNx" changeset="4580933">
    <nd ref="304465162"/>
    <nd ref="703146935"/>
    <nd ref="436198086"/>
    <nd ref="436198100"/>
    <nd ref="706914126"/>
    <nd ref="304465164"/>
    <tag k="highway" v="primary"/>
    <tag k="name" v="Tuppal Street"/>
    <tag k="source" v="survey"/>
  </way>
  <way id="37374011" version="1" timestamp="2009-07-07T12:16:27Z" uid="19626" user="Swamp" changeset="1761762">
    <nd ref="436213975"/>
    <nd ref="436213976"/>
    <tag k="highway" v="residential"/>
    <tag k="name" v="Endeavour Street"/>
    <tag k="source" v="survey"/>
  </way>
  <way id="37374011" version="2" timestamp="2010-04-21T11:01:19Z" uid="74617" user="JohnSmith" changeset="4485117">
    <nd ref="436213975"/>
    <nd ref="703144148"/>
    <nd ref="436213976"/>
    <nd ref="703144135"/>
    <nd ref="703144136"/>
    <nd ref="703144137"/>
    <nd ref="703144139"/>
    <nd ref="703144140"/>
    <nd ref="703144141"/>
    <nd ref="703144142"/>
    <tag k="highway" v="residential"/>
    <tag k="maxspeed" v="50"/>
    <tag k="name" v="Endeavour Street"/>
    <tag k="source" v="nearmap"/>
  </way>
  <way id="37374012" version="1" timestamp="2009-07-07T12:16:27Z" uid="19626" user="Swamp" changeset="1761762">
    <nd ref="436213977"/>
    <nd ref="436213978"/>
    <nd ref="436213976"/>
    <tag k="highway" v="residential"/>
    <tag k="name" v="Burton Street"/>
    <tag k="source" v="survey"/>
  </way>
  <way id="37374012" version="2" timestamp="2010-04-26T03:38:51Z" uid="74617" user="JohnSmith" changeset="4528019">
    <nd ref="436213977"/>
    <nd ref="436213978"/>
    <nd ref="436213976"/>
    <tag k="highway" v="residential"/>
    <tag k="maxspeed" v="50"/>
    <tag k="name" v="Burton Street"/>
    <tag k="source" v="survey"/>
  </way>
  <way id="37374013" version="1" timestamp="2009-07-07T12:16:27Z" uid="19626" user="Swamp" changeset="1761762">
    <nd ref="436213980"/>
    <nd ref="436213981"/>
    <nd ref="436213982"/>
    <nd ref="436213983"/>
    <nd ref="436213984"/>
    <nd ref="436213985"/>
    <tag k="highway" v="residential"/>
    <tag k="name" v="Finley Street"/>
    <tag k="source" v="survey"/>
  </way>
  <way id="37374013" version="2" timestamp="2009-07-07T12:22:07Z" uid="19626" user="Swamp" changeset="1761797">
    <nd ref="436213980"/>
    <nd ref="436213981"/>
    <nd ref="436213982"/>
    <nd ref="436213983"/>
    <nd ref="436217382"/>
    <nd ref="436213984"/>
    <nd ref="436213985"/>
    <tag k="highway" v="residential"/>
    <tag k="name" v="Finley Street"/>
    <tag k="source" v="survey"/>
  </way>
  <way id="37374013" version="3" timestamp="2010-04-26T02:55:01Z" uid="74617" user="JohnSmith" changeset="4528019">
    <nd ref="436213980"/>
    <nd ref="436213981"/>
    <nd ref="436213982"/>
    <nd ref="436213983"/>
    <nd ref="436217382"/>
    <nd ref="706908608"/>
    <nd ref="436213984"/>
    <nd ref="436213985"/>
    <tag k="highway" v="residential"/>
    <tag k="name" v="Finley Street"/>
    <tag k="source" v="survey"/>
  </way>
  <way id="37374013" version="4" timestamp="2010-04-26T03:38:53Z" uid="74617" user="JohnSmith" changeset="4528019">
    <nd ref="436213980"/>
    <nd ref="436213981"/>
    <nd ref="436213982"/>
    <nd ref="436213983"/>
    <nd ref="436217382"/>
    <nd ref="706908608"/>
    <nd ref="436213984"/>
    <nd ref="436213985"/>
    <tag k="highway" v="residential"/>
    <tag k="maxspeed" v="50"/>
    <tag k="name" v="Finley Street"/>
    <tag k="source" v="survey"/>
  </way>
  <way id="37374014" version="1" timestamp="2009-07-07T12:16:27Z" uid="19626" user="Swamp" changeset="1761762">
    <nd ref="436213982"/>
    <nd ref="436213989"/>
    <nd ref="436213987"/>
    <tag k="highway" v="residential"/>
    <tag k="name" v="Townsend Street"/>
    <tag k="source" v="survey"/>
  </way>
  <way id="37374014" version="2" timestamp="2010-04-26T03:38:38Z" uid="74617" user="JohnSmith" changeset="4528019">
    <nd ref="436213982"/>
    <nd ref="436213989"/>
    <nd ref="436213987"/>
    <tag k="highway" v="residential"/>
    <tag k="maxspeed" v="50"/>
    <tag k="name" v="Townsend Street"/>
    <tag k="source" v="survey"/>
  </way>
  <way id="37374015" version="1" timestamp="2009-07-07T12:16:27Z" uid="19626" user="Swamp" changeset="1761762">
    <nd ref="436213988"/>
    <nd ref="436213990"/>
    <nd ref="436213983"/>
    <tag k="highway" v="residential"/>
    <tag k="name" v="Osborne Street"/>
  </way>
  <way id="37374015" version="2" timestamp="2009-07-07T12:36:21Z" uid="19626" user="Swamp" changeset="1761912">
    <nd ref="436213988"/>
    <nd ref="436213990"/>
    <nd ref="436232243"/>
    <nd ref="436213983"/>
    <tag k="highway" v="residential"/>
    <tag k="name" v="Osborne Street"/>
    <tag k="source" v="survey"/>
  </way>
  <way id="37374015" version="3" timestamp="2010-04-26T03:38:49Z" uid="74617" user="JohnSmith" changeset="4528019">
    <nd ref="436213988"/>
    <nd ref="706913996"/>
    <nd ref="436213990"/>
    <nd ref="436232243"/>
    <nd ref="436213983"/>
    <tag k="highway" v="residential"/>
    <tag k="maxspeed" v="50"/>
    <tag k="name" v="Osborne Street"/>
    <tag k="source" v="survey"/>
  </way>
  <way id="37374016" version="1" timestamp="2009-07-07T12:16:27Z" uid="19626" user="Swamp" changeset="1761762">
    <nd ref="436213989"/>
    <nd ref="436213990"/>
    <nd ref="436213991"/>
    <nd ref="436213992"/>
    <nd ref="436213993"/>
    <tag k="highway" v="residential"/>
    <tag k="name" v="McAllister Street"/>
    <tag k="source" v="survey"/>
  </way>
  <way id="37374016" version="2" timestamp="2010-04-26T03:38:40Z" uid="74617" user="JohnSmith" changeset="4528019">
    <nd ref="436213989"/>
    <nd ref="436213990"/>
    <nd ref="436213991"/>
    <nd ref="436213992"/>
    <nd ref="436213993"/>
    <tag k="highway" v="residential"/>
    <tag k="maxspeed" v="50"/>
    <tag k="name" v="McAllister Street"/>
    <tag k="source" v="survey"/>
  </way>
  <way id="37374115" version="1" timestamp="2009-07-07T12:22:07Z" uid="19626" user="Swamp" changeset="1761797">
    <nd ref="436217380"/>
    <nd ref="436213991"/>
    <nd ref="436217382"/>
    <tag k="highway" v="residential"/>
    <tag k="name" v="Headford Street"/>
    <tag k="source" v="survey"/>
  </way>
  <way id="37374115" version="2" timestamp="2009-07-07T12:36:21Z" uid="19626" user="Swamp" changeset="1761912">
    <nd ref="436217380"/>
    <nd ref="436213991"/>
    <nd ref="436232247"/>
    <nd ref="436217382"/>
    <tag k="highway" v="residential"/>
    <tag k="name" v="Headford Street"/>
    <tag k="source" v="survey"/>
  </way>
  <way id="37374115" version="3" timestamp="2010-04-26T03:38:56Z" uid="74617" user="JohnSmith" changeset="4528019">
    <nd ref="436217380"/>
    <nd ref="706914120"/>
    <nd ref="436213991"/>
    <nd ref="436232247"/>
    <nd ref="436217382"/>
    <tag k="highway" v="residential"/>
    <tag k="maxspeed" v="50"/>
    <tag k="name" v="Headford Street"/>
    <tag k="source" v="survey"/>
  </way>
  <way id="37374116" version="1" timestamp="2009-07-07T12:22:07Z" uid="19626" user="Swamp" changeset="1761797">
    <nd ref="436213984"/>
    <nd ref="436213992"/>
    <nd ref="436217384"/>
    <tag k="highway" v="residential"/>
    <tag k="name" v="Warmatta Street"/>
  </way>
  <way id="37374116" version="2" timestamp="2009-07-07T12:36:22Z" uid="19626" user="Swamp" changeset="1761912">
    <nd ref="436213984"/>
    <nd ref="436232250"/>
    <nd ref="436213992"/>
    <nd ref="436217384"/>
    <tag k="highway" v="residential"/>
    <tag k="name" v="Warmatta Street"/>
  </way>
  <way id="37374116" version="3" timestamp="2010-04-26T03:38:38Z" uid="74617" user="JohnSmith" changeset="4528019">
    <nd ref="436213984"/>
    <nd ref="436232250"/>
    <nd ref="436213992"/>
    <nd ref="436217384"/>
    <tag k="highway" v="residential"/>
    <tag k="maxspeed" v="50"/>
    <tag k="name" v="Warmatta Street"/>
  </way>
  <way id="37374490" version="3" timestamp="2009-08-21T13:09:31Z" uid="27600" user="Islanit" changeset="2223898">
    <nd ref="436227575"/>
    <nd ref="436227576"/>
    <nd ref="436227578"/>
    <nd ref="437367118"/>
    <nd ref="436227580"/>
    <nd ref="436227581"/>
    <nd ref="436227576"/>
    <nd ref="436227575"/>
    <nd ref="344731053"/>
    <tag k="highway" v="service"/>
  </way>
  <way id="37374515" version="2" timestamp="2009-11-08T15:48:25Z" uid="171838" user="argrath" changeset="3064968">
    <nd ref="258765144"/>
    <nd ref="436228244"/>
    <nd ref="436228245"/>
    <nd ref="436228243"/>
    <nd ref="418979074"/>
    <tag k="highway" v="tertiary"/>
    <tag k="oneway" v="yes"/>
    <tag k="source" v="MLIT Japan"/>
    <tag k="source:ja" v="国土画像情報（オルソ化空中写真）国土交通省"/>
  </way>
  <way id="37374516" version="4" timestamp="2009-11-08T12:16:00Z" uid="171838" user="argrath" changeset="3063096">
    <nd ref="412489543"/>
    <nd ref="559454474"/>
    <nd ref="415259194"/>
    <nd ref="415259193"/>
    <nd ref="415259192"/>
    <nd ref="447585187"/>
    <nd ref="418979075"/>
    <nd ref="418979074"/>
    <tag k="highway" v="tertiary"/>
    <tag k="name" v="なんさん通り (Nansan-dori Street)"/>
  </way>
  <way id="37374516" version="5" timestamp="2009-11-08T15:48:26Z" uid="171838" user="argrath" changeset="3064968">
    <nd ref="412489543"/>
    <nd ref="559454474"/>
    <nd ref="415259194"/>
    <nd ref="415259193"/>
    <nd ref="415259192"/>
    <nd ref="447585187"/>
    <nd ref="418979075"/>
    <nd ref="418979074"/>
    <tag k="highway" v="tertiary"/>
    <tag k="name" v="なんさん通り (Nansan-dori Street)"/>
    <tag k="source" v="MLIT Japan"/>
    <tag k="source:ja" v="国土画像情報（オルソ化空中写真）国土交通省"/>
  </way>
  <way id="37374612" version="1" timestamp="2009-07-07T12:36:18Z" uid="19626" user="Swamp" changeset="1761912">
    <nd ref="436232243"/>
    <nd ref="436232247"/>
    <nd ref="436232250"/>
    <nd ref="436232254"/>
    <tag k="highway" v="service"/>
    <tag k="surface" v="unpaved"/>
  </way>
  <way id="37374612" version="2" timestamp="2010-04-26T02:55:01Z" uid="74617" user="JohnSmith" changeset="4528019">
    <nd ref="436232243"/>
    <nd ref="436232247"/>
    <nd ref="436232250"/>
    <nd ref="706908660"/>
    <nd ref="436232254"/>
    <tag k="highway" v="service"/>
    <tag k="surface" v="unpaved"/>
  </way>
  <way id="37374613" version="1" timestamp="2009-07-07T12:36:18Z" uid="19626" user="Swamp" changeset="1761912">
    <nd ref="436232257"/>
    <nd ref="436232260"/>
    <nd ref="436232264"/>
    <nd ref="436232267"/>
    <nd ref="436232276"/>
    <nd ref="436232269"/>
    <tag k="highway" v="residential"/>
    <tag k="name" v="Osborne Street"/>
    <tag k="source" v="survey"/>
  </way>
  <way id="37374613" version="2" timestamp="2009-07-11T02:09:25Z" uid="19626" user="Swamp" changeset="1793680">
    <nd ref="436232257"/>
    <nd ref="436232260"/>
    <nd ref="439959191"/>
    <nd ref="436232264"/>
    <nd ref="436232267"/>
    <nd ref="436232276"/>
    <nd ref="436232269"/>
    <tag k="highway" v="residential"/>
    <tag k="name" v="Osborne Street"/>
    <tag k="source" v="survey"/>
  </way>
  <way id="37374613" version="3" timestamp="2010-04-21T11:01:19Z" uid="74617" user="JohnSmith" changeset="4485117">
    <nd ref="436232257"/>
    <nd ref="436232260"/>
    <nd ref="439959191"/>
    <nd ref="436232264"/>
    <nd ref="436232267"/>
    <nd ref="703144144"/>
    <nd ref="436232276"/>
    <nd ref="703144091"/>
    <tag k="highway" v="residential"/>
    <tag k="name" v="Osborne Street"/>
    <tag k="source" v="survey"/>
  </way>
  <way id="37374613" version="4" timestamp="2010-04-26T03:38:55Z" uid="74617" user="JohnSmith" changeset="4528019">
    <nd ref="436232257"/>
    <nd ref="706914021"/>
    <nd ref="706914071"/>
    <nd ref="436232260"/>
    <nd ref="439959191"/>
    <nd ref="436232264"/>
    <nd ref="706913961"/>
    <nd ref="436232267"/>
    <nd ref="703144144"/>
    <nd ref="436232276"/>
    <nd ref="706914069"/>
    <nd ref="703144091"/>
    <tag k="highway" v="residential"/>
    <tag k="maxspeed" v="50"/>
    <tag k="name" v="Osborne Street"/>
    <tag k="source" v="survey"/>
  </way>
  <way id="37374614" version="1" timestamp="2009-07-07T12:36:19Z" uid="19626" user="Swamp" changeset="1761912">
    <nd ref="436232273"/>
    <nd ref="436232276"/>
    <tag k="highway" v="residential"/>
    <tag k="name" v="Donaldson Street"/>
    <tag k="source" v="survey"/>
  </way>
  <way id="37374614" version="2" timestamp="2010-04-26T03:38:40Z" uid="74617" user="JohnSmith" changeset="4528019">
    <nd ref="436232273"/>
    <nd ref="436232276"/>
    <tag k="highway" v="residential"/>
    <tag k="maxspeed" v="50"/>
    <tag k="name" v="Donaldson Street"/>
    <tag k="source" v="survey"/>
  </way>
  <way id="37374615" version="1" timestamp="2009-07-07T12:36:19Z" uid="19626" user="Swamp" changeset="1761912">
    <nd ref="436232279"/>
    <nd ref="436232282"/>
    <tag k="highway" v="residential"/>
    <tag k="name" v="Norman Lee Street"/>
    <tag k="source" v="survey"/>
  </way>
  <way id="37374615" version="2" timestamp="2010-04-21T11:01:19Z" uid="74617" user="JohnSmith" changeset="4485117">
    <nd ref="436232279"/>
    <nd ref="436232282"/>
    <nd ref="703144152"/>
    <tag k="highway" v="residential"/>
    <tag k="maxspeed" v="50"/>
    <tag k="name" v="Norman Lee Street"/>
    <tag k="source" v="nearmap"/>
  </way>
  <way id="37374797" version="1" timestamp="2009-07-07T12:43:26Z" uid="19626" user="Swamp" changeset="1761988">
    <nd ref="436241555"/>
    <nd ref="436241558"/>
    <nd ref="436241562"/>
    <nd ref="436241566"/>
    <tag k="highway" v="residential"/>
    <tag k="name" v="Burke Street"/>
    <tag k="source" v="survey"/>
  </way>
  <way id="37374797" version="2" timestamp="2010-04-21T11:01:19Z" uid="74617" user="JohnSmith" changeset="4485117">
    <nd ref="436241555"/>
    <nd ref="436241558"/>
    <nd ref="703144084"/>
    <nd ref="436241562"/>
    <nd ref="436241566"/>
    <tag k="highway" v="residential"/>
    <tag k="name" v="Burke Street"/>
    <tag k="source" v="survey"/>
  </way>
  <way id="37374797" version="3" timestamp="2010-04-26T03:38:53Z" uid="74617" user="JohnSmith" changeset="4528019">
    <nd ref="436241555"/>
    <nd ref="436241558"/>
    <nd ref="703144084"/>
    <nd ref="436241562"/>
    <nd ref="436241566"/>
    <tag k="highway" v="residential"/>
    <tag k="maxspeed" v="50"/>
    <tag k="name" v="Burke Street"/>
    <tag k="source" v="survey"/>
  </way>
  <way id="37374798" version="1" timestamp="2009-07-07T12:43:26Z" uid="19626" user="Swamp" changeset="1761988">
    <nd ref="436241567"/>
    <nd ref="436241570"/>
    <tag k="highway" v="residential"/>
    <tag k="name" v="Forrest Court"/>
  </way>
  <way id="37374798" version="2" timestamp="2010-04-26T03:38:56Z" uid="74617" user="JohnSmith" changeset="4528019">
    <nd ref="436241567"/>
    <nd ref="436241570"/>
    <tag k="highway" v="residential"/>
    <tag k="maxspeed" v="50"/>
    <tag k="name" v="Forrest Court"/>
  </way>
  <way id="37374905" version="3" timestamp="2011-05-17T20:07:22Z" uid="66036" user="h4v" changeset="8175553">
    <nd ref="434024086"/>
    <nd ref="436248000"/>
    <nd ref="1272658688"/>
    <tag k="highway" v="residential"/>
  </way>
</osm>
