<?xml version='1.0' encoding='UTF-8'?>
<osm version="0.6" generator="libosmium/2.20.0">
  <way id="37412073" version="2" timestamp="2009-07-11T19:02:14Z" uid="43863" user="Rundling" changeset="1800529"/>
  <way id="37412104" version="3" timestamp="2010-08-04T17:44:33Z" uid="9581" user="Lobelt" changeset="5401263">
    <nd ref="254930796"/>
    <nd ref="316250316"/>
    <nd ref="316250442"/>
    <tag k="cables" v="3"/>
    <tag k="frequency" v="50"/>
    <tag k="operator" v="Stadtwerke_Hannover_AG"/>
    <tag k="power" v="line"/>
    <tag k="source" v="survey"/>
    <tag k="voltage" v="110000"/>
    <tag k="wires" v="double"/>
  </way>
  <way id="37412294" version="2" timestamp="2010-01-16T14:05:13Z" uid="58091" user="Andreas M" changeset="3631788">
    <nd ref="30882763"/>
    <nd ref="613425455"/>
    <nd ref="614650411"/>
    <nd ref="27375752"/>
    <tag k="highway" v="residential"/>
    <tag k="name" v="Siebenbrunnenfeldgasse"/>
    <tag k="oneway" v="yes"/>
  </way>
  <way id="37412298" version="2" timestamp="2010-01-16T14:05:07Z" uid="58091" user="Andreas M" changeset="3631788">
    <nd ref="437209168"/>
    <nd ref="437209165"/>
    <nd ref="437209164"/>
    <nd ref="437209163"/>
    <nd ref="437209160"/>
    <nd ref="614650409"/>
    <nd ref="309444575"/>
    <tag k="cycleway" v="lane"/>
    <tag k="highway" v="cycleway"/>
    <tag k="lcn" v="yes"/>
  </way>
  <way id="37412505" version="6" timestamp="2010-04-06T14:37:46Z" uid="20587" user="balrog-kun" changeset="4342997">
    <nd ref="437219804"/>
    <nd ref="437219806"/>
    <nd ref="437219807"/>
    <nd ref="437219808"/>
    <nd ref="437219809"/>
    <nd ref="437219813"/>
    <nd ref="438098206"/>
    <nd ref="437219814"/>
    <tag k="highway" v="residential"/>
    <tag k="name" v="3rd Infantry Road"/>
  </way>
  <way id="37412509" version="5" timestamp="2011-02-09T15:04:05Z" uid="4467" user="Rosscoe" changeset="7236829">
    <nd ref="437219815"/>
    <nd ref="437219816"/>
    <nd ref="437219817"/>
    <nd ref="1143912773"/>
    <nd ref="833789128"/>
    <nd ref="833789208"/>
    <nd ref="437219818"/>
    <nd ref="437219819"/>
    <nd ref="437219820"/>
    <nd ref="437219821"/>
    <nd ref="437219822"/>
    <nd ref="437219823"/>
    <nd ref="437219824"/>
    <nd ref="437219825"/>
    <nd ref="437219826"/>
    <nd ref="437219827"/>
    <nd ref="437219828"/>
    <nd ref="437219829"/>
    <nd ref="437219815"/>
    <tag k="leisure" v="park"/>
    <tag k="name" v="Southwell Park"/>
    <tag k="sport" v="rugby; soccer; cricket; hockey"/>
  </way>
  <way id="37412815" version="1" timestamp="2009-07-08T12:19:29Z" uid="20587" user="balrog-kun" changeset="1771999">
    <nd ref="437228703"/>
    <nd ref="437228701"/>
    <nd ref="437074117"/>
    <nd ref="437074119"/>
    <nd ref="437228703"/>
    <tag k="building" v="hall"/>
    <tag k="building:levels" v="3"/>
    <tag k="name" v="Edificio de Inform치tica y Matem치ticas"/>
    <tag k="note" v="GUADEC venue!"/>
    <tag k="opening_hours" v="Universidad de Las Palmas de Gran Canaria"/>
  </way>
  <way id="37412815" version="2" timestamp="2009-07-26T14:09:39Z" uid="20587" user="balrog-kun" changeset="1945141">
    <nd ref="437228703"/>
    <nd ref="437228701"/>
    <nd ref="437074117"/>
    <nd ref="437074119"/>
    <nd ref="437228703"/>
    <tag k="building" v="hall"/>
    <tag k="building:levels" v="3"/>
    <tag k="name" v="Inform치tica y Matem치ticas"/>
    <tag k="note" v="GUADEC venue!"/>
    <tag k="opening_hours" v="Universidad de Las Palmas de Gran Canaria"/>
  </way>
  <way id="37412816" version="1" timestamp="2009-07-08T12:19:30Z" uid="20587" user="balrog-kun" changeset="1771999">
    <nd ref="437228703"/>
    <nd ref="437228704"/>
    <nd ref="437228702"/>
    <nd ref="437228701"/>
    <nd ref="437228703"/>
    <tag k="area" v="yes"/>
    <tag k="highway" v="pedestrian"/>
  </way>
  <way id="37412817" version="1" timestamp="2009-07-08T12:19:30Z" uid="20587" user="balrog-kun" changeset="1771999">
    <nd ref="437228705"/>
    <nd ref="437228707"/>
    <nd ref="437228708"/>
    <nd ref="437228706"/>
    <nd ref="437228705"/>
    <tag k="amenity" v="parking"/>
    <tag k="surface" v="unpaved"/>
  </way>
  <way id="37412868" version="1" timestamp="2009-07-08T12:25:09Z" uid="74617" user="JohnSmith" changeset="1772053">
    <nd ref="200164441"/>
    <nd ref="186366059"/>
    <nd ref="186366062"/>
    <nd ref="186366063"/>
    <nd ref="238888393"/>
    <nd ref="186366067"/>
    <nd ref="186366068"/>
    <nd ref="186366069"/>
    <nd ref="186366070"/>
    <tag k="highway" v="secondary"/>
    <tag k="name" v="Excelsior Road"/>
  </way>
  <way id="37412868" version="2" timestamp="2009-07-08T12:31:26Z" uid="74617" user="JohnSmith" changeset="1772121">
    <nd ref="437237004"/>
    <nd ref="437237008"/>
    <nd ref="186366059"/>
    <nd ref="437237006"/>
    <nd ref="200164441"/>
    <tag k="highway" v="secondary"/>
    <tag k="lanes" v="2"/>
    <tag k="name" v="Excelsior Road"/>
    <tag k="oneway" v="yes"/>
  </way>
  <way id="37412868" version="3" timestamp="2011-04-10T06:43:10Z" uid="4467" user="Rosscoe" changeset="7819615">
    <nd ref="437237004"/>
    <nd ref="437237008"/>
    <nd ref="186366059"/>
    <nd ref="200164441"/>
    <tag k="highway" v="secondary"/>
    <tag k="lanes" v="2"/>
    <tag k="name" v="Excelsior Road"/>
    <tag k="oneway" v="yes"/>
  </way>
  <way id="37412963" version="1" timestamp="2009-07-08T12:31:24Z" uid="74617" user="JohnSmith" changeset="1772121">
    <nd ref="437236990"/>
    <nd ref="437237020"/>
    <nd ref="437236993"/>
    <nd ref="437237022"/>
    <nd ref="437236995"/>
    <tag k="highway" v="trunk_link"/>
    <tag k="maxspeed" v="60"/>
    <tag k="oneway" v="yes"/>
  </way>
  <way id="37412963" version="2" timestamp="2011-04-10T06:43:15Z" uid="4467" user="Rosscoe" changeset="7819615">
    <nd ref="437236990"/>
    <nd ref="437237020"/>
    <nd ref="437236995"/>
    <tag k="highway" v="trunk_link"/>
    <tag k="maxspeed" v="60"/>
    <tag k="oneway" v="yes"/>
  </way>
  <way id="37412965" version="1" timestamp="2009-07-08T12:31:25Z" uid="74617" user="JohnSmith" changeset="1772121">
    <nd ref="200164441"/>
    <nd ref="437236997"/>
    <nd ref="437236998"/>
    <nd ref="437236995"/>
    <nd ref="437237000"/>
    <nd ref="437237002"/>
    <nd ref="437237004"/>
    <tag k="highway" v="secondary"/>
    <tag k="lanes" v="2"/>
    <tag k="name" v="Excelsior Road"/>
    <tag k="oneway" v="yes"/>
  </way>
  <way id="37412965" version="2" timestamp="2011-04-10T06:43:11Z" uid="4467" user="Rosscoe" changeset="7819615">
    <nd ref="200164441"/>
    <nd ref="437236998"/>
    <nd ref="437236995"/>
    <nd ref="1239481195"/>
    <nd ref="437237004"/>
    <tag k="highway" v="secondary"/>
    <tag k="lanes" v="2"/>
    <tag k="name" v="Excelsior Road"/>
    <tag k="oneway" v="yes"/>
  </way>
  <way id="37412966" version="1" timestamp="2009-07-08T12:31:25Z" uid="74617" user="JohnSmith" changeset="1772121">
    <nd ref="437237004"/>
    <nd ref="186366062"/>
    <nd ref="186366063"/>
    <nd ref="238888393"/>
    <nd ref="186366067"/>
    <nd ref="186366068"/>
    <nd ref="186366069"/>
    <nd ref="186366070"/>
    <tag k="highway" v="secondary"/>
    <tag k="name" v="Excelsior Road"/>
  </way>
  <way id="37412966" version="2" timestamp="2009-07-09T06:09:43Z" uid="74617" user="JohnSmith" changeset="1778109">
    <nd ref="437237004"/>
    <nd ref="186366062"/>
    <nd ref="186366063"/>
    <nd ref="238888393"/>
    <nd ref="186366067"/>
    <nd ref="186366068"/>
    <nd ref="186366070"/>
    <tag k="highway" v="secondary"/>
    <tag k="name" v="Excelsior Road"/>
  </way>
  <way id="37412966" version="3" timestamp="2009-08-12T04:33:51Z" uid="74617" user="JohnSmith" changeset="2114560">
    <nd ref="437237004"/>
    <nd ref="186366062"/>
    <nd ref="186366063"/>
    <nd ref="238888393"/>
    <nd ref="186366067"/>
    <nd ref="186366068"/>
    <nd ref="186366070"/>
    <tag k="highway" v="secondary"/>
    <tag k="maxspeed" v="60"/>
    <tag k="name" v="Excelsior Road"/>
  </way>
  <way id="37412966" version="4" timestamp="2010-01-01T11:40:45Z" uid="74617" user="JohnSmith" changeset="3506727">
    <nd ref="437237004"/>
    <nd ref="186366062"/>
    <nd ref="238888393"/>
    <nd ref="186366068"/>
    <nd ref="186366070"/>
    <tag k="highway" v="secondary"/>
    <tag k="maxspeed" v="60"/>
    <tag k="name" v="Excelsior Road"/>
  </way>
</osm>
