<?xml version='1.0' encoding='UTF-8'?>
<osm version="0.6" generator="libosmium/2.20.0">
  <way id="3742685" version="2" timestamp="2007-10-23T08:35:45Z" uid="7617" user="Franc" changeset="296276">
    <nd ref="18544636"/>
    <nd ref="18544678"/>
    <nd ref="18521184"/>
    <nd ref="43297690"/>
    <nd ref="18521203"/>
    <nd ref="84351344"/>
    <nd ref="84351328"/>
    <tag k="created_by" v="Potlatch alpha"/>
    <tag k="highway" v="residential"/>
    <tag k="name" v="Canberra Street"/>
    <tag k="source" v="survey"/>
  </way>
  <way id="3742685" version="3" timestamp="2008-01-01T00:41:23Z" uid="7617" user="Franc" changeset="498172">
    <nd ref="18544636"/>
    <nd ref="18544678"/>
    <nd ref="18521184"/>
    <nd ref="43297690"/>
    <nd ref="199991365"/>
    <nd ref="18521203"/>
    <nd ref="84351344"/>
    <nd ref="84351328"/>
    <tag k="created_by" v="Potlatch alpha"/>
    <tag k="highway" v="residential"/>
    <tag k="name" v="Canberra Street"/>
    <tag k="source" v="survey"/>
  </way>
  <way id="3742685" version="5" timestamp="2010-01-04T12:01:50Z" uid="7617" user="Franc" changeset="3536528">
    <nd ref="604319242"/>
    <nd ref="604319235"/>
    <nd ref="18544678"/>
    <nd ref="18521184"/>
    <nd ref="43297690"/>
    <nd ref="199991365"/>
    <nd ref="604319215"/>
    <tag k="highway" v="residential"/>
    <tag k="maxspeed" v="50"/>
    <tag k="name" v="Canberra Street"/>
    <tag k="source" v="survey"/>
    <tag k="source:maxspeed" v="state_limit"/>
  </way>
  <way id="3742688" version="2" timestamp="2008-02-09T04:49:10Z" uid="7617" user="Franc" changeset="82122">
    <nd ref="18544702"/>
    <nd ref="246723674"/>
    <nd ref="18544744"/>
    <nd ref="46171409"/>
    <nd ref="18544768"/>
    <tag k="created_by" v="Potlatch alpha"/>
    <tag k="highway" v="secondary"/>
    <tag k="name" v="Barker Street"/>
  </way>
  <way id="3742688" version="6" timestamp="2010-01-04T12:01:53Z" uid="7617" user="Franc" changeset="3536528">
    <nd ref="604319233"/>
    <nd ref="246723674"/>
    <nd ref="18544744"/>
    <nd ref="46171409"/>
    <nd ref="600901143"/>
    <nd ref="18544768"/>
    <tag k="highway" v="tertiary"/>
    <tag k="maxspeed" v="50"/>
    <tag k="name" v="Barker Street"/>
  </way>
  <way id="3742688" version="7" timestamp="2010-11-07T10:59:19Z" uid="7617" user="Franc" changeset="6310020">
    <nd ref="604319233"/>
    <nd ref="246723674"/>
    <nd ref="18544744"/>
    <nd ref="46171409"/>
    <nd ref="600901143"/>
    <tag k="highway" v="tertiary"/>
    <tag k="maxspeed" v="50"/>
    <tag k="name" v="Barker Street"/>
  </way>
  <way id="3742688" version="8" timestamp="2011-03-26T07:37:52Z" uid="7617" user="Franc" changeset="7672617">
    <nd ref="604319233"/>
    <nd ref="246723674"/>
    <nd ref="18544744"/>
    <nd ref="46171409"/>
    <nd ref="1218606506"/>
    <nd ref="600901143"/>
    <tag k="highway" v="tertiary"/>
    <tag k="maxspeed" v="50"/>
    <tag k="name" v="Barker Street"/>
  </way>
  <way id="3742691" version="2" timestamp="2008-02-09T02:38:15Z" uid="7617" user="Franc" changeset="82122">
    <nd ref="18544836"/>
    <nd ref="18544850"/>
    <nd ref="43267835"/>
    <tag k="created_by" v="Potlatch alpha"/>
    <tag k="highway" v="service"/>
    <tag k="name" v="Nancye Street"/>
  </way>
  <way id="3742696" version="1" timestamp="2007-10-06T03:00:02Z" uid="7617" user="Franc" changeset="43642">
    <nd ref="18544822"/>
    <nd ref="18544836"/>
    <nd ref="29663510"/>
    <nd ref="60795851"/>
    <nd ref="29663522"/>
    <tag k="abutters" v="retail"/>
    <tag k="created_by" v="JOSM"/>
    <tag k="highway" v="unclassified"/>
    <tag k="name" v="St Pauls Street"/>
  </way>
  <way id="3742696" version="2" timestamp="2008-02-09T02:38:20Z" uid="7617" user="Franc" changeset="82122">
    <nd ref="18544822"/>
    <nd ref="18544836"/>
    <nd ref="246712689"/>
    <nd ref="29663510"/>
    <nd ref="246712723"/>
    <nd ref="246712714"/>
    <nd ref="60795851"/>
    <nd ref="29663522"/>
    <tag k="abutters" v="retail"/>
    <tag k="created_by" v="JOSM"/>
    <tag k="highway" v="unclassified"/>
    <tag k="name" v="St Pauls Street"/>
  </way>
  <way id="3742696" version="3" timestamp="2008-02-17T06:30:05Z" uid="7617" user="Franc" changeset="137276"/>
  <way id="3742698" version="2" timestamp="2008-02-09T02:38:27Z" uid="7617" user="Franc" changeset="82122"/>
  <way id="3742699" version="1" timestamp="2007-07-21T06:11:37Z" uid="7617" user="Franc" changeset="158749">
    <nd ref="18544664"/>
    <nd ref="18544620"/>
    <nd ref="18544636"/>
    <nd ref="18544651"/>
    <nd ref="18544664"/>
    <tag k="created_by" v="Potlatch alpha"/>
    <tag k="highway" v="secondary"/>
    <tag k="roundabout" v="yes"/>
  </way>
  <way id="3742699" version="3" timestamp="2008-02-09T22:56:27Z" uid="7617" user="Franc" changeset="94525"/>
  <way id="3742701" version="2" timestamp="2008-02-09T02:38:17Z" uid="7617" user="Franc" changeset="82122">
    <nd ref="18544876"/>
    <nd ref="18544891"/>
    <nd ref="246712890"/>
    <nd ref="18544913"/>
    <tag k="created_by" v="Potlatch alpha"/>
    <tag k="highway" v="unclassified"/>
    <tag k="name" v="Soudan Street"/>
  </way>
</osm>
