<?xml version='1.0' encoding='UTF-8'?>
<osm version="0.6" generator="libosmium/2.20.0">
  <way id="37428035" version="2" timestamp="2009-11-23T07:03:02Z" uid="1066" user="pavel" changeset="3193166">
    <nd ref="437521566"/>
    <nd ref="437521568"/>
    <nd ref="437521569"/>
    <nd ref="437521570"/>
    <nd ref="437521571"/>
    <nd ref="437521573"/>
    <nd ref="437521574"/>
    <nd ref="437521576"/>
    <nd ref="568994638"/>
    <nd ref="568994640"/>
    <nd ref="568994642"/>
    <nd ref="568994646"/>
    <nd ref="568994648"/>
    <nd ref="568994650"/>
    <nd ref="568994652"/>
    <nd ref="568994656"/>
    <nd ref="568994658"/>
    <nd ref="568994660"/>
    <tag k="highway" v="footway"/>
  </way>
  <way id="37428045" version="1" timestamp="2009-07-08T19:44:43Z" uid="23543" user="jkjk" changeset="1775961">
    <nd ref="91338792"/>
    <nd ref="437521757"/>
    <nd ref="437521758"/>
    <nd ref="437521759"/>
    <nd ref="437521760"/>
    <nd ref="437521761"/>
    <nd ref="437521762"/>
    <nd ref="437521763"/>
    <nd ref="437521764"/>
    <nd ref="437521765"/>
    <nd ref="437521766"/>
    <nd ref="437521767"/>
    <nd ref="437521768"/>
    <nd ref="437521769"/>
    <nd ref="437521770"/>
    <nd ref="437521771"/>
    <nd ref="437521772"/>
    <nd ref="437521773"/>
    <nd ref="437521774"/>
    <nd ref="437521775"/>
    <nd ref="437521776"/>
    <nd ref="437521777"/>
    <nd ref="437521778"/>
    <nd ref="437521779"/>
    <nd ref="437521780"/>
    <nd ref="437521781"/>
    <nd ref="437521782"/>
    <nd ref="437521783"/>
    <nd ref="437521784"/>
    <nd ref="437521785"/>
    <nd ref="437521786"/>
    <nd ref="437521787"/>
    <nd ref="437521788"/>
    <nd ref="437521789"/>
    <nd ref="437521790"/>
    <nd ref="437521791"/>
    <nd ref="437521792"/>
    <nd ref="437521793"/>
    <nd ref="437521795"/>
    <nd ref="437521796"/>
    <nd ref="437521797"/>
    <nd ref="437521799"/>
    <nd ref="437521801"/>
    <nd ref="437521802"/>
    <nd ref="437521803"/>
    <nd ref="437521804"/>
    <nd ref="437521806"/>
    <nd ref="437521807"/>
    <nd ref="437521808"/>
    <nd ref="437521810"/>
    <nd ref="437521811"/>
    <nd ref="437521812"/>
    <nd ref="437521814"/>
    <nd ref="437521815"/>
    <nd ref="437521817"/>
    <nd ref="437521818"/>
    <nd ref="437521819"/>
    <nd ref="32466193"/>
    <nd ref="437521821"/>
    <nd ref="437521822"/>
    <nd ref="437521823"/>
    <nd ref="437521824"/>
    <nd ref="437521826"/>
    <nd ref="437521827"/>
    <nd ref="437521829"/>
    <nd ref="437521830"/>
    <nd ref="437521831"/>
    <nd ref="437521832"/>
    <nd ref="437521833"/>
    <nd ref="437521834"/>
    <nd ref="437521835"/>
    <nd ref="437521836"/>
    <nd ref="437521837"/>
    <nd ref="437521838"/>
    <nd ref="437521839"/>
    <nd ref="437521840"/>
    <nd ref="437521841"/>
    <nd ref="437521842"/>
    <nd ref="437521843"/>
    <nd ref="437521844"/>
    <nd ref="437521845"/>
    <nd ref="437521846"/>
    <nd ref="437521847"/>
    <nd ref="437509830"/>
    <tag k="highway" v="unclassified"/>
  </way>
  <way id="37428046" version="1" timestamp="2009-07-08T19:44:43Z" uid="23543" user="jkjk" changeset="1775961">
    <nd ref="437521839"/>
    <nd ref="437521848"/>
    <nd ref="437521849"/>
    <nd ref="437521850"/>
    <nd ref="437521851"/>
    <nd ref="437521853"/>
    <nd ref="437521854"/>
    <nd ref="437521855"/>
    <nd ref="437521856"/>
    <nd ref="437521857"/>
    <nd ref="437521858"/>
    <nd ref="437521859"/>
    <nd ref="437521860"/>
    <nd ref="437521861"/>
    <nd ref="437521862"/>
    <nd ref="437521863"/>
    <tag k="highway" v="unclassified"/>
  </way>
  <way id="37428046" version="2" timestamp="2009-07-08T20:16:01Z" uid="23543" user="jkjk" changeset="1776273">
    <nd ref="437521839"/>
    <nd ref="437521848"/>
    <nd ref="437521849"/>
    <nd ref="437521850"/>
    <nd ref="437521851"/>
    <nd ref="437521853"/>
    <nd ref="437521854"/>
    <nd ref="437521855"/>
    <nd ref="437521856"/>
    <nd ref="437521857"/>
    <nd ref="437521858"/>
    <nd ref="437521859"/>
    <nd ref="437521860"/>
    <nd ref="437521861"/>
    <nd ref="437521862"/>
    <nd ref="437521863"/>
    <tag k="highway" v="unclassified"/>
    <tag k="kct_yellow" v="yes"/>
  </way>
  <way id="37428072" version="2" timestamp="2011-05-07T13:21:09Z" uid="9581" user="Lobelt" changeset="8073417">
    <nd ref="437522735"/>
    <nd ref="168637113"/>
    <tag k="highway" v="secondary"/>
    <tag k="name" v="Dammstraße"/>
    <tag k="ref" v="L 1060"/>
  </way>
  <way id="37428148" version="2" timestamp="2010-04-04T01:15:03Z" uid="20587" user="balrog-kun" changeset="4318136">
    <nd ref="177574865"/>
    <nd ref="177574872"/>
    <nd ref="177574873"/>
    <nd ref="177574870"/>
    <tag k="highway" v="residential"/>
    <tag k="name" v="South Broadway"/>
    <tag k="name_1" v="Highway 160-666"/>
    <tag k="name_2" v="United States Highway 160-666"/>
    <tag k="name_3" v="State Highway 789"/>
    <tag k="tiger:cfcc" v="A21"/>
    <tag k="tiger:county" v="Montezuma, CO"/>
    <tag k="tiger:name_base" v="Broadway"/>
    <tag k="tiger:name_base_1" v="Highway 160-666"/>
    <tag k="tiger:name_base_2" v="United States Highway 160-666"/>
    <tag k="tiger:name_base_3" v="State Highway 789"/>
    <tag k="tiger:name_direction_prefix" v="S"/>
    <tag k="tiger:reviewed" v="no"/>
    <tag k="tiger:separated" v="no"/>
    <tag k="tiger:source" v="tiger_import_dch_v0.6_20070809"/>
    <tag k="tiger:tlid" v="91766006"/>
    <tag k="tiger:zip_left" v="81321"/>
    <tag k="tiger:zip_right" v="81321"/>
  </way>
  <way id="37428197" version="1" timestamp="2009-07-08T19:52:31Z" uid="43863" user="Rundling" changeset="1776045">
    <nd ref="437526173"/>
    <nd ref="437526181"/>
    <nd ref="437526183"/>
    <nd ref="437526179"/>
    <nd ref="437526173"/>
    <tag k="addr:city" v="Uelzen"/>
    <tag k="addr:country" v="DE"/>
    <tag k="addr:housenumber" v="36"/>
    <tag k="addr:postcode" v="29525"/>
    <tag k="addr:street" v="Heinz-Lücke-Straße"/>
    <tag k="building" v="yes"/>
  </way>
  <way id="37428197" version="2" timestamp="2009-07-10T13:31:53Z" uid="43863" user="Rundling" changeset="1789067">
    <nd ref="437526173"/>
    <nd ref="437526181"/>
    <nd ref="437526183"/>
    <nd ref="437526179"/>
    <nd ref="437526173"/>
    <tag k="addr:city" v="Uelzen"/>
    <tag k="addr:country" v="DE"/>
    <tag k="addr:housenumber" v="38"/>
    <tag k="addr:postcode" v="29525"/>
    <tag k="addr:street" v="Heinz-Lücke-Straße"/>
    <tag k="building" v="yes"/>
  </way>
  <way id="37428198" version="1" timestamp="2009-07-08T19:52:31Z" uid="43863" user="Rundling" changeset="1776045">
    <nd ref="437526186"/>
    <nd ref="437526189"/>
    <nd ref="437526192"/>
    <nd ref="437526195"/>
    <nd ref="437526186"/>
    <tag k="addr:city" v="Uelzen"/>
    <tag k="addr:country" v="DE"/>
    <tag k="addr:housenumber" v="38"/>
    <tag k="addr:postcode" v="29525"/>
    <tag k="addr:street" v="Heinz-Lücke-Straße"/>
    <tag k="building" v="yes"/>
  </way>
  <way id="37428198" version="2" timestamp="2009-07-10T13:31:53Z" uid="43863" user="Rundling" changeset="1789067">
    <nd ref="437526186"/>
    <nd ref="437526189"/>
    <nd ref="437526192"/>
    <nd ref="437526195"/>
    <nd ref="437526186"/>
    <tag k="addr:city" v="Uelzen"/>
    <tag k="addr:country" v="DE"/>
    <tag k="addr:housenumber" v="36"/>
    <tag k="addr:postcode" v="29525"/>
    <tag k="addr:street" v="Heinz-Lücke-Straße"/>
    <tag k="building" v="yes"/>
  </way>
  <way id="37428199" version="1" timestamp="2009-07-08T19:52:32Z" uid="43863" user="Rundling" changeset="1776045">
    <nd ref="437526198"/>
    <nd ref="437526200"/>
    <nd ref="437526205"/>
    <nd ref="437526208"/>
    <nd ref="437526198"/>
    <tag k="addr:city" v="Uelzen"/>
    <tag k="addr:country" v="DE"/>
    <tag k="addr:housenumber" v="10"/>
    <tag k="addr:postcode" v="29525"/>
    <tag k="addr:street" v="Margarete-Wolf-Schlomm-Straße"/>
    <tag k="building" v="yes"/>
  </way>
  <way id="37428200" version="1" timestamp="2009-07-08T19:52:32Z" uid="43863" user="Rundling" changeset="1776045">
    <nd ref="437526216"/>
    <nd ref="437526220"/>
    <nd ref="437526223"/>
    <nd ref="437526212"/>
    <nd ref="437526216"/>
    <tag k="addr:city" v="Uelzen"/>
    <tag k="addr:country" v="DE"/>
    <tag k="addr:housenumber" v="8"/>
    <tag k="addr:postcode" v="29525"/>
    <tag k="addr:street" v="Margarete-Wolf-Schlomm-Straße"/>
    <tag k="building" v="yes"/>
  </way>
  <way id="37428201" version="1" timestamp="2009-07-08T19:52:32Z" uid="43863" user="Rundling" changeset="1776045">
    <nd ref="437526250"/>
    <nd ref="437526253"/>
    <nd ref="437526256"/>
    <nd ref="437526227"/>
    <nd ref="437526250"/>
    <tag k="addr:city" v="Uelzen"/>
    <tag k="addr:country" v="DE"/>
    <tag k="addr:housenumber" v="6"/>
    <tag k="addr:postcode" v="29525"/>
    <tag k="addr:street" v="Margarete-Wolf-Schlomm-Straße"/>
    <tag k="building" v="yes"/>
  </way>
  <way id="37428202" version="1" timestamp="2009-07-08T19:52:32Z" uid="43863" user="Rundling" changeset="1776045">
    <nd ref="437526263"/>
    <nd ref="437526267"/>
    <nd ref="437526270"/>
    <nd ref="437526260"/>
    <nd ref="437526263"/>
    <tag k="addr:housenumber" v="15"/>
    <tag k="addr:street" v="Margarete-Wolf-Schlomm-Straße"/>
    <tag k="building" v="yes"/>
  </way>
  <way id="37428203" version="1" timestamp="2009-07-08T19:52:32Z" uid="43863" user="Rundling" changeset="1776045">
    <nd ref="437526277"/>
    <nd ref="437526282"/>
    <nd ref="437526285"/>
    <nd ref="437526273"/>
    <nd ref="437526277"/>
    <tag k="addr:housenumber" v="13"/>
    <tag k="addr:street" v="Margarete-Wolf-Schlomm-Straße"/>
    <tag k="building" v="yes"/>
  </way>
  <way id="37428204" version="1" timestamp="2009-07-08T19:52:32Z" uid="43863" user="Rundling" changeset="1776045">
    <nd ref="437526291"/>
    <nd ref="437526296"/>
    <nd ref="437526298"/>
    <nd ref="437526287"/>
    <nd ref="437526291"/>
    <tag k="addr:housenumber" v="11"/>
    <tag k="addr:street" v="Margarete-Wolf-Schlomm-Straße"/>
    <tag k="building" v="yes"/>
  </way>
  <way id="37428205" version="1" timestamp="2009-07-08T19:52:32Z" uid="43863" user="Rundling" changeset="1776045">
    <nd ref="437526303"/>
    <nd ref="437526307"/>
    <nd ref="437526316"/>
    <nd ref="437526311"/>
    <nd ref="437526303"/>
    <tag k="addr:city" v="Uelzen"/>
    <tag k="addr:country" v="DE"/>
    <tag k="addr:housenumber" v="40"/>
    <tag k="addr:postcode" v="29525"/>
    <tag k="addr:street" v="Heinz-Lücke-Straße"/>
    <tag k="building" v="yes"/>
  </way>
  <way id="37428205" version="2" timestamp="2009-07-10T13:31:54Z" uid="43863" user="Rundling" changeset="1789067">
    <nd ref="437526303"/>
    <nd ref="437526307"/>
    <nd ref="437526316"/>
    <nd ref="437526311"/>
    <nd ref="437526303"/>
    <tag k="addr:city" v="Uelzen"/>
    <tag k="addr:country" v="DE"/>
    <tag k="addr:housenumber" v="34"/>
    <tag k="addr:postcode" v="29525"/>
    <tag k="addr:street" v="Heinz-Lücke-Straße"/>
    <tag k="building" v="yes"/>
  </way>
  <way id="37428610" version="5" timestamp="2010-03-28T02:28:36Z" uid="20587" user="balrog-kun" changeset="4250871">
    <nd ref="437533171"/>
    <nd ref="437533269"/>
    <tag k="highway" v="residential"/>
    <tag k="name" v="Almer Road"/>
  </way>
  <way id="37428721" version="1" timestamp="2009-07-08T20:03:02Z" uid="20587" user="balrog-kun" changeset="1776148">
    <nd ref="437534280"/>
    <nd ref="437534282"/>
    <nd ref="437534288"/>
    <nd ref="437534284"/>
    <nd ref="437534280"/>
    <tag k="building" v="residential"/>
    <tag k="name" v="Morote Playa"/>
  </way>
  <way id="37428722" version="1" timestamp="2009-07-08T20:03:02Z" uid="20587" user="balrog-kun" changeset="1776148">
    <nd ref="437534297"/>
    <nd ref="437534298"/>
    <nd ref="437534299"/>
    <nd ref="437534297"/>
    <tag k="building" v="restaurant"/>
  </way>
  <way id="37428724" version="1" timestamp="2009-07-08T20:03:02Z" uid="20587" user="balrog-kun" changeset="1776148">
    <nd ref="335685962"/>
    <nd ref="437534301"/>
    <nd ref="319674703"/>
    <tag k="highway" v="pedestrian"/>
    <tag k="name" v="Calle de Luís Morote Greus"/>
    <tag k="oneway" v="yes"/>
  </way>
  <way id="37428724" version="2" timestamp="2009-07-25T01:50:35Z" uid="20587" user="balrog-kun" changeset="1930352">
    <nd ref="335685962"/>
    <nd ref="437534301"/>
    <nd ref="319674703"/>
    <tag k="highway" v="pedestrian"/>
    <tag k="name" v="Plaza de Luís Morote Greus"/>
    <tag k="oneway" v="yes"/>
  </way>
  <way id="37428725" version="1" timestamp="2009-07-08T20:03:02Z" uid="20587" user="balrog-kun" changeset="1776148">
    <nd ref="335685962"/>
    <nd ref="335685963"/>
    <nd ref="335685964"/>
    <nd ref="335685884"/>
    <nd ref="335685965"/>
    <nd ref="335685966"/>
    <nd ref="335678709"/>
    <tag k="highway" v="residential"/>
    <tag k="name" v="Bernando de la Torre"/>
  </way>
  <way id="37428725" version="2" timestamp="2009-07-16T02:04:36Z" uid="20587" user="balrog-kun" changeset="1841246">
    <nd ref="335685962"/>
    <nd ref="335685963"/>
    <nd ref="335685964"/>
    <nd ref="335685884"/>
    <nd ref="335685965"/>
    <nd ref="335685966"/>
    <nd ref="335678709"/>
    <tag k="highway" v="residential"/>
    <tag k="name" v="Bernando de la Torre"/>
    <tag k="oneway" v="yes"/>
  </way>
  <way id="37428833" version="2" timestamp="2009-07-25T04:40:09Z" uid="74617" user="JohnSmith" changeset="1930701">
    <nd ref="257510787"/>
    <nd ref="257513434"/>
    <nd ref="257512278"/>
    <nd ref="257512500"/>
    <nd ref="257513366"/>
    <nd ref="257511319"/>
    <tag k="highway" v="residential"/>
    <tag k="name" v="Brewster Street"/>
    <tag k="source" v="survey"/>
    <tag k="source:name" v="Physical_Roadsign"/>
  </way>
  <way id="37428833" version="3" timestamp="2010-07-07T10:38:55Z" uid="74617" user="JohnSmith" changeset="5157498">
    <nd ref="257510787"/>
    <nd ref="257513434"/>
    <nd ref="257512278"/>
    <nd ref="257512500"/>
    <nd ref="257513366"/>
    <nd ref="257511319"/>
    <tag k="highway" v="residential"/>
    <tag k="maxspeed" v="50"/>
    <tag k="maxspeed:source" v="default residential speed limit in Australia"/>
    <tag k="name" v="Brewster Street"/>
    <tag k="source" v="survey"/>
    <tag k="source:name" v="Physical_Roadsign"/>
  </way>
  <way id="37428846" version="1" timestamp="2009-07-08T20:07:15Z" uid="43863" user="Rundling" changeset="1776185">
    <nd ref="437535819"/>
    <nd ref="437535821"/>
    <nd ref="437535824"/>
    <nd ref="437535827"/>
    <nd ref="437535829"/>
    <nd ref="437535832"/>
    <nd ref="437535835"/>
    <nd ref="437535838"/>
    <nd ref="437535839"/>
    <nd ref="437535840"/>
    <nd ref="437535912"/>
    <nd ref="437535910"/>
    <nd ref="437535914"/>
    <nd ref="437535841"/>
    <nd ref="437535819"/>
    <tag k="leisure" v="garden"/>
  </way>
  <way id="37428846" version="2" timestamp="2010-02-27T13:21:35Z" uid="43863" user="Rundling" changeset="3988453">
    <nd ref="437535819"/>
    <nd ref="437535821"/>
    <nd ref="437535824"/>
    <nd ref="437535827"/>
    <nd ref="437535829"/>
    <nd ref="437535832"/>
    <nd ref="437535835"/>
    <nd ref="437535838"/>
    <nd ref="437535839"/>
    <nd ref="437535840"/>
    <nd ref="437535912"/>
    <nd ref="437535914"/>
    <nd ref="437535841"/>
    <nd ref="437535819"/>
    <tag k="leisure" v="garden"/>
  </way>
  <way id="37428847" version="1" timestamp="2009-07-08T20:07:15Z" uid="43863" user="Rundling" changeset="1776185">
    <nd ref="437535843"/>
    <nd ref="437535845"/>
    <nd ref="437535847"/>
    <nd ref="437535849"/>
    <nd ref="437535852"/>
    <nd ref="437535855"/>
    <nd ref="437535858"/>
    <nd ref="437535862"/>
    <nd ref="437535843"/>
    <tag k="building" v="yes"/>
  </way>
  <way id="37428847" version="2" timestamp="2009-07-08T20:07:46Z" uid="43863" user="Rundling" changeset="1776196">
    <nd ref="437535843"/>
    <nd ref="437535847"/>
    <nd ref="437535852"/>
    <nd ref="437535855"/>
    <nd ref="437535858"/>
    <nd ref="437535862"/>
    <nd ref="437535843"/>
    <tag k="building" v="yes"/>
  </way>
  <way id="37428848" version="1" timestamp="2009-07-08T20:07:15Z" uid="43863" user="Rundling" changeset="1776185">
    <nd ref="437535867"/>
    <nd ref="437535874"/>
    <nd ref="437535880"/>
    <nd ref="437535886"/>
    <nd ref="437535895"/>
    <nd ref="437535898"/>
    <nd ref="437535892"/>
    <nd ref="437535889"/>
    <nd ref="437535883"/>
    <nd ref="437535870"/>
    <nd ref="437535867"/>
    <tag k="building" v="yes"/>
  </way>
  <way id="37428848" version="2" timestamp="2009-07-08T20:07:46Z" uid="43863" user="Rundling" changeset="1776196">
    <nd ref="437535867"/>
    <nd ref="437535874"/>
    <nd ref="437535895"/>
    <nd ref="437535898"/>
    <nd ref="437535892"/>
    <nd ref="437535889"/>
    <nd ref="437535883"/>
    <nd ref="437535870"/>
    <nd ref="437535867"/>
    <tag k="building" v="yes"/>
  </way>
  <way id="37428848" version="3" timestamp="2009-07-09T03:52:23Z" uid="43863" user="Rundling" changeset="1777615">
    <nd ref="437535867"/>
    <nd ref="437735891"/>
    <nd ref="437735894"/>
    <nd ref="437535898"/>
    <nd ref="437535892"/>
    <nd ref="437535889"/>
    <nd ref="437535883"/>
    <nd ref="437535870"/>
    <nd ref="437535867"/>
    <tag k="building" v="yes"/>
  </way>
  <way id="37428849" version="1" timestamp="2009-07-08T20:07:15Z" uid="43863" user="Rundling" changeset="1776185">
    <nd ref="437535900"/>
    <nd ref="437535905"/>
    <nd ref="437535907"/>
    <nd ref="437535903"/>
    <nd ref="437535900"/>
    <tag k="building" v="yes"/>
  </way>
  <way id="37428966" version="2" timestamp="2009-08-10T02:00:46Z" uid="36809" user="pfoten_weg_!_" changeset="2092317">
    <nd ref="426124138"/>
    <nd ref="426124139"/>
    <nd ref="426124140"/>
    <nd ref="426124141"/>
    <nd ref="426124142"/>
    <nd ref="426124143"/>
    <nd ref="426124144"/>
    <tag k="discovered_by" v="RambaZamba"/>
    <tag k="highway" v="secondary"/>
    <tag k="name" v="Aidenbachstraße"/>
    <tag k="oneway" v="yes"/>
    <tag k="source" v="survey"/>
  </way>
  <way id="37428966" version="4" timestamp="2009-08-19T01:17:12Z" uid="36809" user="pfoten_weg_!_" changeset="2196346">
    <nd ref="426124138"/>
    <nd ref="426124139"/>
    <nd ref="426124140"/>
    <nd ref="426124141"/>
    <nd ref="426124142"/>
    <nd ref="426124143"/>
    <nd ref="426124144"/>
    <tag k="discovered_by" v="RambaZamba"/>
    <tag k="highway" v="secondary"/>
    <tag k="name" v="Aidenbachstraße"/>
    <tag k="oneway" v="yes"/>
    <tag k="source" v="survey"/>
  </way>
  <way id="37428966" version="6" timestamp="2009-09-01T10:34:11Z" uid="36809" user="pfoten_weg_!_" changeset="2335754">
    <nd ref="426124138"/>
    <nd ref="426124139"/>
    <nd ref="426124140"/>
    <nd ref="426124141"/>
    <nd ref="426124142"/>
    <nd ref="426124143"/>
    <nd ref="426124144"/>
    <tag k="highway" v="secondary"/>
    <tag k="name" v="Aidenbachstraße"/>
    <tag k="oneway" v="yes"/>
    <tag k="source" v="survey"/>
  </way>
  <way id="37428966" version="7" timestamp="2009-10-03T17:41:21Z" uid="179968" user="Ich_hasse_doitsche_OSM-Korinthenkacker" changeset="2727120">
    <nd ref="426124138"/>
    <nd ref="426124139"/>
    <nd ref="426124140"/>
    <nd ref="426124141"/>
    <nd ref="426124142"/>
    <nd ref="426124143"/>
    <nd ref="426124144"/>
    <tag k="highway" v="secondary"/>
    <tag k="name" v="Aidenbachstraße"/>
    <tag k="oneway" v="yes"/>
  </way>
  <way id="37428967" version="2" timestamp="2009-07-26T03:11:41Z" uid="36809" user="pfoten_weg_!_" changeset="1940201">
    <nd ref="290033669"/>
    <nd ref="289786702"/>
    <nd ref="289786693"/>
    <nd ref="289786733"/>
    <nd ref="289786696"/>
    <nd ref="289786687"/>
    <nd ref="287332271"/>
    <nd ref="289786679"/>
    <nd ref="289786685"/>
    <nd ref="289786668"/>
    <nd ref="289786673"/>
    <nd ref="289786745"/>
    <nd ref="289786723"/>
    <nd ref="289786725"/>
    <nd ref="290038537"/>
    <nd ref="289786704"/>
    <nd ref="289786715"/>
    <nd ref="289786659"/>
    <nd ref="289786707"/>
    <nd ref="289786677"/>
    <nd ref="289786695"/>
    <nd ref="289786691"/>
    <nd ref="289786743"/>
    <nd ref="289786737"/>
    <nd ref="314310601"/>
    <nd ref="289786719"/>
    <tag k="discovered_by" v="RambaZamba"/>
    <tag k="highway" v="residential"/>
    <tag k="name" v="Weltistraße"/>
    <tag k="source" v="survey"/>
    <tag k="width" v="7"/>
  </way>
  <way id="37428967" version="4" timestamp="2009-09-01T10:51:03Z" uid="36809" user="pfoten_weg_!_" changeset="2335754">
    <nd ref="290033669"/>
    <nd ref="289786702"/>
    <nd ref="289786693"/>
    <nd ref="289786733"/>
    <nd ref="289786696"/>
    <nd ref="289786687"/>
    <nd ref="287332271"/>
    <nd ref="289786679"/>
    <nd ref="289786685"/>
    <nd ref="289786668"/>
    <nd ref="289786673"/>
    <nd ref="289786745"/>
    <nd ref="289786723"/>
    <nd ref="289786725"/>
    <nd ref="290038537"/>
    <nd ref="289786704"/>
    <nd ref="289786715"/>
    <nd ref="289786659"/>
    <nd ref="289786707"/>
    <nd ref="289786677"/>
    <nd ref="289786695"/>
    <nd ref="289786691"/>
    <nd ref="289786743"/>
    <nd ref="289786737"/>
    <nd ref="314310601"/>
    <nd ref="289786719"/>
    <tag k="highway" v="residential"/>
    <tag k="name" v="Weltistraße"/>
    <tag k="source" v="survey"/>
    <tag k="width" v="7"/>
  </way>
  <way id="37428967" version="5" timestamp="2009-10-12T22:07:22Z" uid="36809" user="pfoten_weg_!_" changeset="2831291">
    <nd ref="290033669"/>
    <nd ref="289786702"/>
    <nd ref="289786693"/>
    <nd ref="289786733"/>
    <nd ref="289786696"/>
    <nd ref="289786687"/>
    <nd ref="287332271"/>
    <nd ref="289786679"/>
    <nd ref="289786685"/>
    <nd ref="289786668"/>
    <nd ref="289786673"/>
    <nd ref="289786745"/>
    <nd ref="289786723"/>
    <nd ref="289786725"/>
    <nd ref="290038537"/>
    <nd ref="289786704"/>
    <nd ref="289786715"/>
    <nd ref="289786659"/>
    <nd ref="289786707"/>
    <nd ref="289786677"/>
    <nd ref="289786695"/>
    <nd ref="289786691"/>
    <nd ref="289786743"/>
    <nd ref="289786737"/>
    <nd ref="314310601"/>
    <nd ref="289786719"/>
    <tag k="highway" v="residential"/>
    <tag k="name" v="Weltistraße"/>
    <tag k="width" v="7"/>
  </way>
  <way id="37428968" version="2" timestamp="2009-08-19T01:15:45Z" uid="36809" user="pfoten_weg_!_" changeset="2196346">
    <nd ref="21584144"/>
    <nd ref="290033671"/>
    <tag k="discovered_by" v="RambaZamba"/>
    <tag k="highway" v="residential"/>
    <tag k="maxspeed" v="30"/>
    <tag k="name" v="Gulbranssonstraße"/>
    <tag k="shelter" v="yes"/>
    <tag k="source" v="survey"/>
    <tag k="width" v="6"/>
  </way>
  <way id="37428968" version="4" timestamp="2009-09-01T11:04:43Z" uid="36809" user="pfoten_weg_!_" changeset="2335754">
    <nd ref="21584144"/>
    <nd ref="290033671"/>
    <tag k="highway" v="residential"/>
    <tag k="maxspeed" v="30"/>
    <tag k="name" v="Gulbranssonstraße"/>
    <tag k="shelter" v="yes"/>
    <tag k="source" v="survey"/>
    <tag k="width" v="6"/>
  </way>
  <way id="37428968" version="5" timestamp="2009-10-12T22:09:22Z" uid="36809" user="pfoten_weg_!_" changeset="2831291">
    <nd ref="21584144"/>
    <nd ref="290033671"/>
    <tag k="highway" v="residential"/>
    <tag k="maxspeed" v="30"/>
    <tag k="name" v="Gulbranssonstraße"/>
    <tag k="shelter" v="yes"/>
    <tag k="width" v="6"/>
  </way>
  <way id="37428970" version="2" timestamp="2009-07-26T03:11:41Z" uid="36809" user="pfoten_weg_!_" changeset="1940201"/>
  <way id="37428971" version="2" timestamp="2009-07-26T01:16:43Z" uid="36809" user="pfoten_weg_!_" changeset="1939885">
    <nd ref="32562874"/>
    <nd ref="264544289"/>
    <nd ref="32562771"/>
    <tag k="discovered_by" v="RambaZamba"/>
    <tag k="highway" v="residential"/>
    <tag k="maxspeed" v="30"/>
    <tag k="name" v="Munckerstraße"/>
    <tag k="source" v="survey"/>
  </way>
  <way id="37428971" version="3" timestamp="2009-07-26T01:27:31Z" uid="36809" user="pfoten_weg_!_" changeset="1939910"/>
  <way id="37428973" version="2" timestamp="2009-07-26T01:16:45Z" uid="36809" user="pfoten_weg_!_" changeset="1939885"/>
  <way id="37428974" version="2" timestamp="2009-07-26T01:16:43Z" uid="36809" user="pfoten_weg_!_" changeset="1939885">
    <nd ref="32562873"/>
    <nd ref="299617383"/>
    <nd ref="299617385"/>
    <nd ref="299617390"/>
    <nd ref="279276959"/>
    <tag k="discovered_by" v="RambaZamba"/>
    <tag k="highway" v="secondary"/>
    <tag k="name" v="Drygalski-Allee"/>
    <tag k="oneway" v="yes"/>
    <tag k="osmarender:renderName" v="no"/>
    <tag k="source" v="survey"/>
  </way>
  <way id="37428974" version="4" timestamp="2009-09-01T10:36:44Z" uid="36809" user="pfoten_weg_!_" changeset="2335754">
    <nd ref="32562873"/>
    <nd ref="299617383"/>
    <nd ref="299617385"/>
    <nd ref="299617390"/>
    <nd ref="279276959"/>
    <tag k="highway" v="secondary"/>
    <tag k="name" v="Drygalski-Allee"/>
    <tag k="oneway" v="yes"/>
    <tag k="osmarender:renderName" v="no"/>
    <tag k="source" v="survey"/>
  </way>
  <way id="37428974" version="5" timestamp="2009-10-13T23:14:22Z" uid="36809" user="pfoten_weg_!_" changeset="2841175">
    <nd ref="32562873"/>
    <nd ref="299617383"/>
    <nd ref="299617385"/>
    <nd ref="299617390"/>
    <nd ref="279276959"/>
    <tag k="highway" v="secondary"/>
    <tag k="name" v="Drygalski-Allee"/>
    <tag k="oneway" v="yes"/>
    <tag k="osmarender:renderName" v="no"/>
  </way>
  <way id="37428975" version="3" timestamp="2009-09-04T21:19:25Z" uid="36809" user="pfoten_weg_!_" changeset="2374562">
    <nd ref="32562771"/>
    <nd ref="417803695"/>
    <nd ref="417803711"/>
    <nd ref="417811176"/>
    <nd ref="196090750"/>
    <nd ref="196090756"/>
    <nd ref="417808139"/>
    <nd ref="32562519"/>
    <nd ref="69231024"/>
    <nd ref="319797290"/>
    <nd ref="277475902"/>
    <nd ref="32562776"/>
    <tag k="highway" v="residential"/>
    <tag k="maxspeed" v="30"/>
    <tag k="name" v="Meglingerstraße"/>
    <tag k="source" v="survey"/>
  </way>
  <way id="37428975" version="4" timestamp="2009-10-13T23:12:07Z" uid="36809" user="pfoten_weg_!_" changeset="2841175">
    <nd ref="32562771"/>
    <nd ref="417803695"/>
    <nd ref="417803711"/>
    <nd ref="417811176"/>
    <nd ref="196090750"/>
    <nd ref="196090756"/>
    <nd ref="417808139"/>
    <nd ref="32562519"/>
    <nd ref="69231024"/>
    <nd ref="319797290"/>
    <nd ref="277475902"/>
    <nd ref="32562776"/>
    <tag k="highway" v="residential"/>
    <tag k="maxspeed" v="30"/>
    <tag k="name" v="Meglingerstraße"/>
  </way>
  <way id="37428976" version="3" timestamp="2009-09-04T21:14:03Z" uid="36809" user="pfoten_weg_!_" changeset="2374562">
    <nd ref="32562776"/>
    <nd ref="21133528"/>
    <tag k="highway" v="tertiary"/>
    <tag k="maxspeed" v="50"/>
    <tag k="name" v="Kistlerhofstraße"/>
    <tag k="source" v="survey"/>
  </way>
  <way id="37428976" version="4" timestamp="2009-10-13T23:15:18Z" uid="36809" user="pfoten_weg_!_" changeset="2841175">
    <nd ref="32562776"/>
    <nd ref="21133528"/>
    <tag k="highway" v="tertiary"/>
    <tag k="maxspeed" v="50"/>
    <tag k="name" v="Kistlerhofstraße"/>
  </way>
  <way id="37428977" version="2" timestamp="2009-07-25T07:55:49Z" uid="36809" user="pfoten_weg_!_" changeset="1931584"/>
  <way id="37428978" version="2" timestamp="2009-07-25T07:55:45Z" uid="36809" user="pfoten_weg_!_" changeset="1931584">
    <nd ref="285485450"/>
    <nd ref="299612330"/>
    <nd ref="299612334"/>
    <nd ref="299612331"/>
    <nd ref="299614388"/>
    <nd ref="299612332"/>
    <nd ref="299612333"/>
    <nd ref="286302523"/>
    <tag k="discovered_by" v="RambaZamba"/>
    <tag k="highway" v="service"/>
    <tag k="oneway" v="yes"/>
    <tag k="psv" v="yes"/>
    <tag k="source" v="survey"/>
  </way>
  <way id="37428978" version="4" timestamp="2009-09-01T11:11:01Z" uid="36809" user="pfoten_weg_!_" changeset="2335754">
    <nd ref="285485450"/>
    <nd ref="299612330"/>
    <nd ref="299612334"/>
    <nd ref="299612331"/>
    <nd ref="299614388"/>
    <nd ref="299612332"/>
    <nd ref="299612333"/>
    <nd ref="286302523"/>
    <tag k="highway" v="service"/>
    <tag k="oneway" v="yes"/>
    <tag k="psv" v="yes"/>
    <tag k="source" v="survey"/>
  </way>
  <way id="37428978" version="5" timestamp="2009-10-02T18:05:05Z" uid="86259" user="hasse_osm_korinthenkacker" changeset="2715119">
    <nd ref="285485450"/>
    <nd ref="299612330"/>
    <nd ref="299612334"/>
    <nd ref="299612331"/>
    <nd ref="299614388"/>
    <nd ref="299612332"/>
    <nd ref="299612333"/>
    <nd ref="286302523"/>
    <tag k="highway" v="service"/>
    <tag k="oneway" v="yes"/>
    <tag k="psv" v="yes"/>
  </way>
  <way id="37428979" version="2" timestamp="2009-07-13T22:46:43Z" uid="36809" user="pfoten_weg_!_" changeset="1822511"/>
  <way id="37428980" version="2" timestamp="2009-07-25T07:55:49Z" uid="36809" user="pfoten_weg_!_" changeset="1931584"/>
</osm>
