<?xml version='1.0' encoding='UTF-8'?>
<osm version="0.6" generator="libosmium/2.20.0">
  <way id="37454066" version="1" timestamp="2009-07-09T14:54:22Z" uid="43863" user="Rundling" changeset="1781605">
    <nd ref="438140641"/>
    <nd ref="438140643"/>
    <nd ref="438140646"/>
    <tag k="highway" v="residential"/>
    <tag k="oneway" v="yes"/>
    <tag k="surface" v="paved"/>
  </way>
  <way id="37454066" version="2" timestamp="2009-07-09T18:03:33Z" uid="43863" user="Rundling" changeset="1782974"/>
  <way id="37454067" version="1" timestamp="2009-07-09T14:54:22Z" uid="43863" user="Rundling" changeset="1781605">
    <nd ref="438140646"/>
    <nd ref="438140648"/>
    <nd ref="438140651"/>
    <nd ref="438140653"/>
    <tag k="highway" v="residential"/>
    <tag k="oneway" v="yes"/>
    <tag k="surface" v="paved"/>
  </way>
  <way id="37454067" version="2" timestamp="2009-07-09T18:03:33Z" uid="43863" user="Rundling" changeset="1782974">
    <nd ref="438257061"/>
    <nd ref="438257062"/>
    <nd ref="438140648"/>
    <nd ref="438140651"/>
    <nd ref="438257064"/>
    <nd ref="438257066"/>
    <tag k="highway" v="residential"/>
    <tag k="oneway" v="yes"/>
    <tag k="surface" v="paved"/>
  </way>
  <way id="37454067" version="3" timestamp="2009-07-09T19:27:04Z" uid="43863" user="Rundling" changeset="1783725">
    <nd ref="438257061"/>
    <nd ref="438257062"/>
    <nd ref="438140648"/>
    <nd ref="438140651"/>
    <nd ref="438426294"/>
    <tag k="highway" v="residential"/>
    <tag k="oneway" v="yes"/>
    <tag k="surface" v="paved"/>
  </way>
  <way id="37454091" version="2" timestamp="2010-03-28T02:28:55Z" uid="20587" user="balrog-kun" changeset="4250871">
    <nd ref="302477621"/>
    <nd ref="302477622"/>
    <nd ref="302477625"/>
    <nd ref="302477626"/>
    <nd ref="302477627"/>
    <nd ref="87561579"/>
    <nd ref="438141189"/>
    <nd ref="87561580"/>
    <nd ref="87561581"/>
    <nd ref="438141191"/>
    <tag k="bridge" v="yes"/>
    <tag k="created_by" v="Potlatch 0.10d"/>
    <tag k="highway" v="residential"/>
    <tag k="name" v="Golden State Access Road"/>
    <tag k="tiger:cfcc" v="A41"/>
    <tag k="tiger:county" v="Fresno, CA"/>
    <tag k="tiger:name_base" v="Golden State Acc"/>
    <tag k="tiger:name_type" v="Rd"/>
    <tag k="tiger:reviewed" v="no"/>
    <tag k="tiger:separated" v="no"/>
    <tag k="tiger:source" v="tiger_import_dch_v0.6_20070809"/>
    <tag k="tiger:tlid" v="197579834:197579840:197579846:197579852; 197645769:197606787"/>
  </way>
  <way id="37454093" version="2" timestamp="2010-03-28T02:28:56Z" uid="20587" user="balrog-kun" changeset="4250871">
    <nd ref="438141149"/>
    <nd ref="428239855"/>
    <nd ref="87561586"/>
    <nd ref="428239856"/>
    <nd ref="428239857"/>
    <nd ref="428239858"/>
    <nd ref="87561580"/>
    <tag k="bridge" v="yes"/>
    <tag k="created_by" v="Potlatch 0.10d"/>
    <tag k="highway" v="residential"/>
    <tag k="name" v="Golden State Access Road"/>
    <tag k="tiger:cfcc" v="A41"/>
    <tag k="tiger:county" v="Fresno, CA"/>
    <tag k="tiger:name_base" v="Golden State Acc"/>
    <tag k="tiger:name_type" v="Rd"/>
    <tag k="tiger:reviewed" v="no"/>
    <tag k="tiger:separated" v="no"/>
    <tag k="tiger:source" v="tiger_import_dch_v0.6_20070809"/>
    <tag k="tiger:tlid" v="197579977:197579981:197579841:197579851"/>
  </way>
  <way id="37454094" version="2" timestamp="2010-03-28T02:28:56Z" uid="20587" user="balrog-kun" changeset="4250871">
    <nd ref="438141191"/>
    <nd ref="438141208"/>
    <nd ref="87504956"/>
    <tag k="created_by" v="Potlatch 0.10d"/>
    <tag k="highway" v="residential"/>
    <tag k="name" v="Golden State Access Road"/>
    <tag k="tiger:cfcc" v="A41"/>
    <tag k="tiger:county" v="Fresno, CA"/>
    <tag k="tiger:name_base" v="Golden State Acc"/>
    <tag k="tiger:name_type" v="Rd"/>
    <tag k="tiger:reviewed" v="no"/>
    <tag k="tiger:separated" v="no"/>
    <tag k="tiger:source" v="tiger_import_dch_v0.6_20070809"/>
    <tag k="tiger:tlid" v="197579834:197579840:197579846:197579852; 197645769:197606787"/>
  </way>
  <way id="37454106" version="2" timestamp="2010-03-28T02:28:56Z" uid="20587" user="balrog-kun" changeset="4250871">
    <nd ref="438141164"/>
    <nd ref="302477669"/>
    <nd ref="87522489"/>
    <tag k="created_by" v="Potlatch 0.10d"/>
    <tag k="highway" v="residential"/>
    <tag k="name" v="East California Avenue"/>
    <tag k="tiger:cfcc" v="A41"/>
    <tag k="tiger:county" v="Fresno, CA"/>
    <tag k="tiger:name_base" v="California"/>
    <tag k="tiger:name_direction_prefix" v="E"/>
    <tag k="tiger:name_type" v="Ave"/>
    <tag k="tiger:reviewed" v="no"/>
    <tag k="tiger:separated" v="no"/>
    <tag k="tiger:source" v="tiger_import_dch_v0.6_20070809"/>
    <tag k="tiger:tlid" v="197639529:197579983:197579988"/>
    <tag k="tiger:zip_left" v="93706"/>
    <tag k="tiger:zip_right" v="93706"/>
  </way>
  <way id="37454136" version="2" timestamp="2010-03-28T02:28:56Z" uid="20587" user="balrog-kun" changeset="4250871">
    <nd ref="87504948"/>
    <nd ref="87498906"/>
    <nd ref="87504950"/>
    <nd ref="87422323"/>
    <nd ref="87504956"/>
    <nd ref="428239236"/>
    <nd ref="87504958"/>
    <nd ref="428238627"/>
    <nd ref="87504960"/>
    <nd ref="87341824"/>
    <nd ref="87504962"/>
    <nd ref="87504964"/>
    <tag k="created_by" v="Potlatch 0.10d"/>
    <tag k="highway" v="residential"/>
    <tag k="name" v="Broadway Street"/>
    <tag k="tiger:cfcc" v="A45"/>
    <tag k="tiger:county" v="Fresno, CA"/>
    <tag k="tiger:name_base" v="Broadway"/>
    <tag k="tiger:name_type" v="St"/>
    <tag k="tiger:reviewed" v="no"/>
    <tag k="tiger:separated" v="yes"/>
    <tag k="tiger:source" v="tiger_import_dch_v0.6_20070809"/>
    <tag k="tiger:tlid" v="197579678:197579763:197579825:197579832:197579833:197579838:197579806:197580860:197580863:197579769"/>
    <tag k="tiger:zip_left" v="93721"/>
    <tag k="tiger:zip_right" v="93721"/>
  </way>
  <way id="37454147" version="4" timestamp="2010-03-28T02:28:56Z" uid="20587" user="balrog-kun" changeset="4250871">
    <nd ref="87525482"/>
    <nd ref="87525484"/>
    <nd ref="87525486"/>
    <nd ref="87525487"/>
    <nd ref="87498913"/>
    <nd ref="87525492"/>
    <nd ref="438148267"/>
    <nd ref="428239240"/>
    <nd ref="87415420"/>
    <nd ref="87525495"/>
    <nd ref="87525498"/>
    <nd ref="87341828"/>
    <nd ref="87525499"/>
    <nd ref="87525501"/>
    <nd ref="87525503"/>
    <nd ref="87499857"/>
    <nd ref="87525505"/>
    <nd ref="87525507"/>
    <nd ref="87525509"/>
    <nd ref="424920400"/>
    <nd ref="87525512"/>
    <nd ref="87525514"/>
    <nd ref="87525515"/>
    <nd ref="87525516"/>
    <nd ref="87525518"/>
    <nd ref="87525522"/>
    <nd ref="87492194"/>
    <tag k="highway" v="residential"/>
    <tag k="name" v="Van Ness Avenue"/>
    <tag k="tiger:cfcc" v="A45"/>
    <tag k="tiger:county" v="Fresno, CA"/>
    <tag k="tiger:name_base" v="Van Ness"/>
    <tag k="tiger:name_type" v="Ave"/>
    <tag k="tiger:reviewed" v="no"/>
    <tag k="tiger:separated" v="yes"/>
    <tag k="tiger:source" v="tiger_import_dch_v0.6_20070809"/>
    <tag k="tiger:tlid" v="197578794:197578820:197579124:197579128:197579139:197578797:197645766:197579752:197579761:197579784:197579792:197579794:197580844:197580846:197580854:197579767:197579155"/>
    <tag k="tiger:zip_left" v="93721"/>
    <tag k="tiger:zip_right" v="93721"/>
  </way>
  <way id="37454153" version="1" timestamp="2009-07-09T14:58:05Z" uid="43863" user="Rundling" changeset="1781628">
    <nd ref="438143184"/>
    <nd ref="438143186"/>
    <nd ref="429826566"/>
    <nd ref="429899757"/>
    <nd ref="429899762"/>
    <nd ref="438143183"/>
    <nd ref="438143184"/>
    <tag k="addr:city" v="Uelzen"/>
    <tag k="addr:country" v="DE"/>
    <tag k="addr:housename" v="TOOM Baumarkt"/>
    <tag k="addr:housenumber" v="55"/>
    <tag k="addr:postcode" v="29525"/>
    <tag k="addr:street" v="Hambrocker StraÃŸe"/>
    <tag k="building" v="yes"/>
    <tag k="name" v="TOOM"/>
    <tag k="shop" v="doityourself"/>
  </way>
  <way id="37454165" version="3" timestamp="2010-07-09T18:25:47Z" uid="74617" user="JohnSmith" changeset="5175636">
    <nd ref="438143938"/>
    <nd ref="442956661"/>
    <nd ref="442956662"/>
    <nd ref="442956663"/>
    <nd ref="442956664"/>
    <nd ref="438143939"/>
    <nd ref="442956665"/>
    <nd ref="442956666"/>
    <nd ref="442956667"/>
    <nd ref="438143940"/>
    <nd ref="442956668"/>
    <nd ref="442956669"/>
    <nd ref="442956670"/>
    <nd ref="442956671"/>
    <nd ref="281223491"/>
    <nd ref="442956672"/>
    <nd ref="442956673"/>
    <nd ref="442956674"/>
    <nd ref="438143938"/>
    <tag k="highway" v="residential"/>
    <tag k="junction" v="roundabout"/>
    <tag k="maxspeed" v="50"/>
    <tag k="maxspeed:source" v="default residential speed limit in Australia"/>
    <tag k="name" v="Civic Place"/>
  </way>
  <way id="37454165" version="4" timestamp="2011-02-24T05:56:57Z" uid="4467" user="Rosscoe" changeset="7378842">
    <nd ref="438143938"/>
    <nd ref="442956661"/>
    <nd ref="442956662"/>
    <nd ref="442956663"/>
    <nd ref="442956664"/>
    <nd ref="438143939"/>
    <nd ref="442956665"/>
    <nd ref="442956666"/>
    <nd ref="442956667"/>
    <nd ref="438143940"/>
    <nd ref="442956668"/>
    <nd ref="442956669"/>
    <nd ref="442956670"/>
    <nd ref="442956671"/>
    <nd ref="281223491"/>
    <nd ref="442956672"/>
    <nd ref="442956673"/>
    <nd ref="442956674"/>
    <nd ref="438143938"/>
    <tag k="highway" v="residential"/>
    <tag k="junction" v="roundabout"/>
    <tag k="maxspeed" v="50"/>
    <tag k="maxspeed:source" v="default residential speed limit in Australia"/>
  </way>
  <way id="37454166" version="2" timestamp="2010-07-09T18:19:06Z" uid="74617" user="JohnSmith" changeset="5175636">
    <nd ref="438143939"/>
    <nd ref="281223463"/>
    <nd ref="281223464"/>
    <nd ref="281223465"/>
    <nd ref="432850314"/>
    <nd ref="281223493"/>
    <nd ref="438143943"/>
    <tag k="highway" v="residential"/>
    <tag k="maxspeed" v="50"/>
    <tag k="maxspeed:source" v="default residential speed limit in Australia"/>
    <tag k="name" v="Civic Place"/>
  </way>
  <way id="37454166" version="3" timestamp="2011-02-24T05:57:01Z" uid="4467" user="Rosscoe" changeset="7378842">
    <nd ref="442956663"/>
    <nd ref="281223463"/>
    <nd ref="281223464"/>
    <nd ref="432850314"/>
    <nd ref="1169448366"/>
    <nd ref="281223493"/>
    <nd ref="442956649"/>
    <tag k="highway" v="residential"/>
    <tag k="maxspeed" v="50"/>
    <tag k="maxspeed:source" v="default residential speed limit in Australia"/>
    <tag k="name" v="Civic Place"/>
    <tag k="oneway" v="yes"/>
  </way>
  <way id="37454167" version="2" timestamp="2010-07-09T18:28:39Z" uid="74617" user="JohnSmith" changeset="5175636">
    <nd ref="438143941"/>
    <nd ref="432850223"/>
    <nd ref="281223538"/>
    <tag k="highway" v="residential"/>
    <tag k="maxspeed" v="50"/>
    <tag k="maxspeed:source" v="default residential speed limit in Australia"/>
    <tag k="name" v="Osborne Place"/>
  </way>
  <way id="37454168" version="3" timestamp="2010-07-09T18:17:11Z" uid="74617" user="JohnSmith" changeset="5175636">
    <nd ref="281223548"/>
    <nd ref="442956614"/>
    <nd ref="442956617"/>
    <nd ref="442956620"/>
    <nd ref="438143941"/>
    <nd ref="442956632"/>
    <nd ref="442956633"/>
    <nd ref="442956635"/>
    <nd ref="442956636"/>
    <nd ref="281223557"/>
    <nd ref="442956638"/>
    <nd ref="442956639"/>
    <nd ref="442956640"/>
    <nd ref="281223537"/>
    <nd ref="442956641"/>
    <nd ref="442956642"/>
    <nd ref="442956643"/>
    <nd ref="442956644"/>
    <nd ref="281223548"/>
    <tag k="highway" v="residential"/>
    <tag k="junction" v="roundabout"/>
    <tag k="maxspeed" v="50"/>
    <tag k="maxspeed:source" v="default residential speed limit in Australia"/>
    <tag k="name" v="Osborne Place"/>
  </way>
  <way id="37454168" version="4" timestamp="2011-02-24T05:56:53Z" uid="4467" user="Rosscoe" changeset="7378842">
    <nd ref="281223548"/>
    <nd ref="442956614"/>
    <nd ref="442956617"/>
    <nd ref="442956620"/>
    <nd ref="438143941"/>
    <nd ref="442956632"/>
    <nd ref="442956633"/>
    <nd ref="442956635"/>
    <nd ref="442956636"/>
    <nd ref="281223557"/>
    <nd ref="442956638"/>
    <nd ref="442956639"/>
    <nd ref="442956640"/>
    <nd ref="281223537"/>
    <nd ref="442956641"/>
    <nd ref="442956642"/>
    <nd ref="442956643"/>
    <nd ref="442956644"/>
    <nd ref="281223548"/>
    <tag k="highway" v="residential"/>
    <tag k="junction" v="roundabout"/>
    <tag k="maxspeed" v="50"/>
    <tag k="maxspeed:source" v="default residential speed limit in Australia"/>
    <tag k="source" v="nearmap"/>
  </way>
  <way id="37454169" version="4" timestamp="2010-07-09T18:27:18Z" uid="74617" user="JohnSmith" changeset="5175636">
    <nd ref="438143944"/>
    <nd ref="281223468"/>
    <nd ref="281223494"/>
    <nd ref="281223300"/>
    <tag k="highway" v="residential"/>
    <tag k="maxspeed" v="50"/>
    <tag k="maxspeed:source" v="default residential speed limit in Australia"/>
    <tag k="name" v="Civic Place"/>
  </way>
  <way id="37454170" version="3" timestamp="2010-07-09T18:21:14Z" uid="74617" user="JohnSmith" changeset="5175636">
    <nd ref="438143946"/>
    <nd ref="442956645"/>
    <nd ref="442956647"/>
    <nd ref="442956648"/>
    <nd ref="438143943"/>
    <nd ref="442956649"/>
    <nd ref="442956650"/>
    <nd ref="442956651"/>
    <nd ref="442956652"/>
    <nd ref="438143945"/>
    <nd ref="442956653"/>
    <nd ref="442956654"/>
    <nd ref="442956655"/>
    <nd ref="438143944"/>
    <nd ref="442956656"/>
    <nd ref="442956657"/>
    <nd ref="442956658"/>
    <nd ref="442956660"/>
    <nd ref="438143946"/>
    <tag k="highway" v="residential"/>
    <tag k="junction" v="roundabout"/>
    <tag k="maxspeed" v="50"/>
    <tag k="maxspeed:source" v="default residential speed limit in Australia"/>
    <tag k="name" v="Civic Place"/>
  </way>
  <way id="37454170" version="4" timestamp="2011-02-24T05:56:59Z" uid="4467" user="Rosscoe" changeset="7378842">
    <nd ref="438143946"/>
    <nd ref="442956645"/>
    <nd ref="442956647"/>
    <nd ref="442956648"/>
    <nd ref="438143943"/>
    <nd ref="442956649"/>
    <nd ref="442956650"/>
    <nd ref="442956651"/>
    <nd ref="442956652"/>
    <nd ref="438143945"/>
    <nd ref="442956653"/>
    <nd ref="442956654"/>
    <nd ref="442956655"/>
    <nd ref="438143944"/>
    <nd ref="442956656"/>
    <nd ref="442956657"/>
    <nd ref="442956658"/>
    <nd ref="442956660"/>
    <nd ref="438143946"/>
    <tag k="highway" v="residential"/>
    <tag k="junction" v="roundabout"/>
    <tag k="maxspeed" v="50"/>
    <tag k="maxspeed:source" v="default residential speed limit in Australia"/>
  </way>
  <way id="37454171" version="2" timestamp="2010-07-09T18:30:44Z" uid="74617" user="JohnSmith" changeset="5175636">
    <nd ref="438143946"/>
    <nd ref="281223554"/>
    <nd ref="432850334"/>
    <nd ref="281223555"/>
    <nd ref="432850350"/>
    <nd ref="281223556"/>
    <nd ref="281223557"/>
    <tag k="highway" v="residential"/>
    <tag k="maxspeed" v="50"/>
    <tag k="maxspeed:source" v="default residential speed limit in Australia"/>
    <tag k="name" v="Hugo Street"/>
  </way>
  <way id="37454172" version="2" timestamp="2010-07-09T17:57:35Z" uid="74617" user="JohnSmith" changeset="5175636">
    <nd ref="244018164"/>
    <nd ref="438143948"/>
    <nd ref="244018166"/>
    <nd ref="244018131"/>
    <tag k="highway" v="residential"/>
    <tag k="maxspeed" v="50"/>
    <tag k="maxspeed:source" v="default residential speed limit in Australia"/>
    <tag k="name" v="Pennine Way"/>
  </way>
  <way id="37454173" version="2" timestamp="2010-07-09T18:01:41Z" uid="74617" user="JohnSmith" changeset="5175636">
    <nd ref="264120046"/>
    <nd ref="264120048"/>
    <tag k="highway" v="residential"/>
    <tag k="maxspeed" v="50"/>
    <tag k="maxspeed:source" v="default residential speed limit in Australia"/>
    <tag k="name" v="Sunart Close"/>
  </way>
  <way id="37454176" version="3" timestamp="2010-07-09T17:58:25Z" uid="74617" user="JohnSmith" changeset="5175636">
    <nd ref="438143950"/>
    <nd ref="275314531"/>
    <tag k="highway" v="residential"/>
    <tag k="maxspeed" v="50"/>
    <tag k="maxspeed:source" v="default residential speed limit in Australia"/>
    <tag k="name" v="Cador Court"/>
  </way>
  <way id="37454177" version="2" timestamp="2010-07-09T18:02:22Z" uid="74617" user="JohnSmith" changeset="5175636">
    <nd ref="264118711"/>
    <nd ref="264107441"/>
    <nd ref="264118713"/>
    <tag k="highway" v="residential"/>
    <tag k="maxspeed" v="50"/>
    <tag k="maxspeed:source" v="default residential speed limit in Australia"/>
    <tag k="name" v="Dutton Crescent"/>
  </way>
  <way id="37454178" version="3" timestamp="2010-07-09T18:29:55Z" uid="74617" user="JohnSmith" changeset="5175636">
    <nd ref="281219506"/>
    <nd ref="281219521"/>
    <nd ref="281219520"/>
    <nd ref="281219442"/>
    <nd ref="281219443"/>
    <tag k="highway" v="residential"/>
    <tag k="maxspeed" v="50"/>
    <tag k="maxspeed:source" v="default residential speed limit in Australia"/>
    <tag k="name" v="Settlers Circle"/>
  </way>
  <way id="37454179" version="3" timestamp="2011-04-16T05:37:44Z" uid="4467" user="Rosscoe" changeset="7875392">
    <nd ref="277838610"/>
    <nd ref="1246551026"/>
    <nd ref="1246551001"/>
    <nd ref="1246551048"/>
    <nd ref="1246551059"/>
    <nd ref="1246550956"/>
    <nd ref="1246551025"/>
    <nd ref="1246551087"/>
    <nd ref="1246550915"/>
    <nd ref="1246550981"/>
    <nd ref="1246551051"/>
    <nd ref="442956521"/>
    <tag k="cycleway" v="lane"/>
    <tag k="highway" v="secondary"/>
    <tag k="name" v="Amelia Street"/>
    <tag k="oneway" v="yes"/>
    <tag k="source" v="nearmap"/>
  </way>
  <way id="37454180" version="3" timestamp="2010-05-11T13:44:58Z" uid="4467" user="Rosscoe" changeset="4668740">
    <nd ref="438143954"/>
    <nd ref="442956510"/>
    <nd ref="442956511"/>
    <nd ref="442956514"/>
    <nd ref="442956516"/>
    <nd ref="438143953"/>
    <nd ref="442956519"/>
    <nd ref="442956521"/>
    <nd ref="442956522"/>
    <nd ref="438143952"/>
    <nd ref="442956524"/>
    <nd ref="442956526"/>
    <nd ref="442956527"/>
    <nd ref="442956529"/>
    <nd ref="51165458"/>
    <nd ref="442956531"/>
    <nd ref="442956532"/>
    <nd ref="442956534"/>
    <nd ref="442956535"/>
    <nd ref="438143954"/>
    <tag k="highway" v="secondary"/>
    <tag k="junction" v="roundabout"/>
    <tag k="source" v="nearmap"/>
  </way>
  <way id="37454182" version="2" timestamp="2010-07-09T18:38:16Z" uid="74617" user="JohnSmith" changeset="5175636">
    <nd ref="438143978"/>
    <nd ref="277838309"/>
    <nd ref="277838310"/>
    <tag k="highway" v="residential"/>
    <tag k="maxspeed" v="50"/>
    <tag k="maxspeed:source" v="default residential speed limit in Australia"/>
    <tag k="name" v="Stirling Waters Avenue"/>
  </way>
  <way id="37454182" version="3" timestamp="2011-04-16T05:38:08Z" uid="4467" user="Rosscoe" changeset="7875392">
    <nd ref="438143978"/>
    <nd ref="1246551149"/>
    <nd ref="277838309"/>
    <nd ref="277838310"/>
    <tag k="highway" v="residential"/>
    <tag k="maxspeed" v="50"/>
    <tag k="maxspeed:source" v="default residential speed limit in Australia"/>
    <tag k="name" v="Stirling Waters Avenue"/>
  </way>
  <way id="37454304" version="2" timestamp="2010-03-28T02:28:57Z" uid="20587" user="balrog-kun" changeset="4250871">
    <nd ref="87606492"/>
    <nd ref="87501025"/>
    <nd ref="348033206"/>
    <nd ref="348033138"/>
    <tag k="highway" v="residential"/>
    <tag k="name" v="San Benito Street"/>
    <tag k="oneway" v="yes"/>
    <tag k="tiger:cfcc" v="A41"/>
    <tag k="tiger:county" v="Fresno, CA"/>
    <tag k="tiger:name_base" v="San Benito"/>
    <tag k="tiger:name_type" v="St"/>
    <tag k="tiger:reviewed" v="no"/>
    <tag k="tiger:separated" v="no"/>
    <tag k="tiger:source" v="tiger_import_dch_v0.6_20070809"/>
    <tag k="tiger:tlid" v="197599296"/>
    <tag k="tiger:zip_left" v="93721"/>
  </way>
  <way id="37454360" version="1" timestamp="2009-07-09T15:09:14Z" uid="43863" user="Rundling" changeset="1781719">
    <nd ref="438122164"/>
    <nd ref="438151569"/>
    <nd ref="438151570"/>
    <nd ref="438122168"/>
    <nd ref="438122164"/>
    <tag k="addr:housenumber" v="62"/>
    <tag k="addr:street" v="Hambrocker StraÃŸe"/>
    <tag k="building" v="yes"/>
  </way>
  <way id="37454361" version="1" timestamp="2009-07-09T15:09:14Z" uid="43863" user="Rundling" changeset="1781719">
    <nd ref="438151569"/>
    <nd ref="438151572"/>
    <nd ref="438151573"/>
    <nd ref="438151570"/>
    <nd ref="438151569"/>
    <tag k="addr:housenumber" v="60"/>
    <tag k="addr:street" v="Hambrocker StraÃŸe"/>
    <tag k="building" v="yes"/>
  </way>
  <way id="37454363" version="1" timestamp="2009-07-09T15:09:14Z" uid="43863" user="Rundling" changeset="1781719">
    <nd ref="438151572"/>
    <nd ref="438098656"/>
    <nd ref="438122166"/>
    <nd ref="438151573"/>
    <nd ref="438151572"/>
    <tag k="addr:housenumber" v="58"/>
    <tag k="addr:street" v="Hambrocker StraÃŸe"/>
    <tag k="building" v="yes"/>
  </way>
  <way id="37454364" version="1" timestamp="2009-07-09T15:09:14Z" uid="43863" user="Rundling" changeset="1781719">
    <nd ref="438098650"/>
    <nd ref="438151577"/>
    <nd ref="438151578"/>
    <nd ref="438151579"/>
    <nd ref="438151580"/>
    <nd ref="438151575"/>
    <nd ref="438098650"/>
    <tag k="addr:housenumber" v="66"/>
    <tag k="addr:street" v="Hambrocker StraÃŸe"/>
    <tag k="building" v="yes"/>
  </way>
  <way id="37454364" version="2" timestamp="2009-07-15T18:22:25Z" uid="43863" user="Rundling" changeset="1838812">
    <nd ref="438098650"/>
    <nd ref="438151577"/>
    <nd ref="438151578"/>
    <nd ref="442294675"/>
    <nd ref="442294682"/>
    <nd ref="438151575"/>
    <nd ref="438098650"/>
    <tag k="addr:housenumber" v="66"/>
    <tag k="addr:street" v="Hambrocker StraÃŸe"/>
    <tag k="building" v="yes"/>
  </way>
  <way id="37454364" version="5" timestamp="2009-07-27T12:10:29Z" uid="43863" user="Rundling" changeset="1954852">
    <nd ref="438098650"/>
    <nd ref="438151577"/>
    <nd ref="438151578"/>
    <nd ref="442294692"/>
    <nd ref="438098650"/>
    <tag k="addr:city" v="Uelzen"/>
    <tag k="addr:country" v="DE"/>
    <tag k="addr:housenumber" v="66"/>
    <tag k="addr:postcode" v="29525"/>
    <tag k="addr:street" v="Hambrocker StraÃŸe"/>
    <tag k="building" v="yes"/>
  </way>
  <way id="37454365" version="1" timestamp="2009-07-09T15:09:14Z" uid="43863" user="Rundling" changeset="1781719">
    <nd ref="438151577"/>
    <nd ref="438098654"/>
    <nd ref="438122169"/>
    <nd ref="438151578"/>
    <nd ref="438151577"/>
    <tag k="addr:housenumber" v="64"/>
    <tag k="addr:street" v="Hambrocker StraÃŸe"/>
    <tag k="building" v="yes"/>
  </way>
  <way id="37454365" version="2" timestamp="2009-07-27T12:10:30Z" uid="43863" user="Rundling" changeset="1954852">
    <nd ref="438151577"/>
    <nd ref="438098654"/>
    <nd ref="438122169"/>
    <nd ref="438151578"/>
    <nd ref="438151577"/>
    <tag k="addr:city" v="Uelzen"/>
    <tag k="addr:country" v="DE"/>
    <tag k="addr:housenumber" v="64"/>
    <tag k="addr:postcode" v="29525"/>
    <tag k="addr:street" v="Hambrocker StraÃŸe"/>
    <tag k="building" v="yes"/>
  </way>
  <way id="37454711" version="2" timestamp="2011-03-23T09:46:57Z" uid="4467" user="Rosscoe" changeset="7644795">
    <nd ref="438152348"/>
    <nd ref="438152349"/>
    <nd ref="438152350"/>
    <nd ref="438152351"/>
    <nd ref="1214591819"/>
    <nd ref="438152348"/>
    <tag k="name" v="Shady Glen Tourist Park"/>
    <tag k="tourism" v="camp_site"/>
  </way>
  <way id="37454715" version="2" timestamp="2011-03-23T09:45:43Z" uid="4467" user="Rosscoe" changeset="7644795">
    <nd ref="29381714"/>
    <nd ref="438152359"/>
    <nd ref="438152360"/>
    <tag k="highway" v="unclassified"/>
  </way>
  <way id="37454753" version="3" timestamp="2010-04-16T20:49:38Z" uid="23543" user="jkjk" changeset="4442446">
    <nd ref="102500122"/>
    <nd ref="438152392"/>
    <nd ref="438152393"/>
    <nd ref="438152394"/>
    <nd ref="438152395"/>
    <nd ref="438152396"/>
    <nd ref="438152397"/>
    <nd ref="438152398"/>
    <nd ref="438152399"/>
    <nd ref="438152400"/>
    <nd ref="438152401"/>
    <nd ref="438152402"/>
    <nd ref="699054879"/>
    <nd ref="438152405"/>
    <nd ref="438152407"/>
    <nd ref="438152409"/>
    <nd ref="438152411"/>
    <nd ref="438152414"/>
    <nd ref="438152416"/>
    <nd ref="438152419"/>
    <nd ref="438152421"/>
    <nd ref="438152424"/>
    <nd ref="438152428"/>
    <nd ref="438152431"/>
    <nd ref="438152439"/>
    <nd ref="438152440"/>
    <nd ref="438152441"/>
    <nd ref="438152442"/>
    <nd ref="438152443"/>
    <nd ref="438152444"/>
    <nd ref="438152445"/>
    <nd ref="438152446"/>
    <tag k="highway" v="primary"/>
    <tag k="ref" v="D56"/>
  </way>
  <way id="37454935" version="2" timestamp="2009-11-09T11:24:25Z" uid="23543" user="jkjk" changeset="3072454"/>
  <way id="37454966" version="2" timestamp="2010-03-28T02:28:57Z" uid="20587" user="balrog-kun" changeset="4250871">
    <nd ref="428237943"/>
    <nd ref="428237955"/>
    <nd ref="428237956"/>
    <nd ref="428237957"/>
    <nd ref="428237958"/>
    <nd ref="428237959"/>
    <nd ref="87341834"/>
    <nd ref="87602241"/>
    <nd ref="87595207"/>
    <nd ref="438153143"/>
    <nd ref="87602242"/>
    <nd ref="87499867"/>
    <nd ref="87601625"/>
    <nd ref="87602244"/>
    <nd ref="87540816"/>
    <nd ref="87602246"/>
    <tag k="highway" v="residential"/>
    <tag k="name" v="P Street"/>
    <tag k="tiger:cfcc" v="A45"/>
    <tag k="tiger:county" v="Fresno, CA"/>
    <tag k="tiger:name_base" v="P"/>
    <tag k="tiger:name_type" v="St"/>
    <tag k="tiger:reviewed" v="no"/>
    <tag k="tiger:separated" v="yes"/>
    <tag k="tiger:source" v="tiger_import_dch_v0.6_20070809"/>
    <tag k="tiger:tlid" v="197579228:197579183:197579234:197579251:197579255:197580309:197580784:197580312:197579265:197580807"/>
    <tag k="tiger:zip_left" v="93721"/>
    <tag k="tiger:zip_right" v="93721"/>
  </way>
  <way id="37454967" version="6" timestamp="2010-03-28T02:28:57Z" uid="20587" user="balrog-kun" changeset="4250871">
    <nd ref="87499815"/>
    <nd ref="87499818"/>
    <nd ref="506826040"/>
    <nd ref="87499820"/>
    <nd ref="506825959"/>
    <nd ref="87499823"/>
    <nd ref="506826058"/>
    <nd ref="87499825"/>
    <nd ref="506826064"/>
    <nd ref="87499827"/>
    <nd ref="506825954"/>
    <nd ref="87499829"/>
    <nd ref="87499831"/>
    <nd ref="506827565"/>
    <nd ref="87499833"/>
    <nd ref="506827612"/>
    <nd ref="87499836"/>
    <nd ref="506830095"/>
    <nd ref="87499838"/>
    <nd ref="439176801"/>
    <tag k="highway" v="residential"/>
    <tag k="name" v="Tulare Street"/>
    <tag k="tiger:cfcc" v="A45"/>
    <tag k="tiger:county" v="Fresno, CA"/>
    <tag k="tiger:name_base" v="Tulare"/>
    <tag k="tiger:name_type" v="St"/>
    <tag k="tiger:reviewed" v="no"/>
    <tag k="tiger:separated" v="yes"/>
    <tag k="tiger:source" v="tiger_import_dch_v0.6_20070809"/>
    <tag k="tiger:tlid" v="197580289:197580300:197580302:197580304:197642248:197642249:197580315:197580317:197579260:197579244:197579262:197579264:197579672:197579673:197579655:197579657:197579651:197579649:197579653:197579659:197579480:197579465:197579467:197579470:197579482:19757"/>
    <tag k="tiger:zip_left" v="93706"/>
    <tag k="tiger:zip_right" v="93706"/>
  </way>
</osm>
