<?xml version='1.0' encoding='UTF-8'?>
<osm version="0.6" generator="libosmium/2.20.0">
  <way id="37451070" version="4" timestamp="2009-07-26T02:39:22Z" uid="18775" user="drlizau" changeset="1940131"/>
  <way id="37451196" version="1" timestamp="2009-07-09T13:01:16Z" uid="43863" user="Rundling" changeset="1780836">
    <nd ref="438089861"/>
    <nd ref="438089863"/>
    <nd ref="438089864"/>
    <nd ref="438089862"/>
    <nd ref="438089861"/>
    <tag k="building" v="yes"/>
  </way>
  <way id="37451197" version="1" timestamp="2009-07-09T13:01:16Z" uid="43863" user="Rundling" changeset="1780836">
    <nd ref="438089866"/>
    <nd ref="438089867"/>
    <nd ref="438089868"/>
    <nd ref="438089865"/>
    <nd ref="438089866"/>
    <tag k="building" v="yes"/>
  </way>
  <way id="37451198" version="1" timestamp="2009-07-09T13:01:17Z" uid="43863" user="Rundling" changeset="1780836">
    <nd ref="438089870"/>
    <nd ref="438089872"/>
    <nd ref="438089869"/>
    <nd ref="438089871"/>
    <nd ref="438089870"/>
    <tag k="building" v="yes"/>
  </way>
  <way id="37451199" version="1" timestamp="2009-07-09T13:01:17Z" uid="43863" user="Rundling" changeset="1780836">
    <nd ref="438089874"/>
    <nd ref="438089876"/>
    <nd ref="438089873"/>
    <nd ref="438089875"/>
    <nd ref="438089874"/>
    <tag k="building" v="yes"/>
  </way>
  <way id="37451199" version="2" timestamp="2009-07-09T14:32:17Z" uid="43863" user="Rundling" changeset="1781456">
    <nd ref="438122157"/>
    <nd ref="438122159"/>
    <nd ref="438122154"/>
    <nd ref="438122156"/>
    <nd ref="438122157"/>
    <tag k="addr:city" v="Uelzen"/>
    <tag k="addr:country" v="DE"/>
    <tag k="addr:housenumber" v="5"/>
    <tag k="addr:postcode" v="29525"/>
    <tag k="addr:street" v="Damaschkeweg"/>
    <tag k="building" v="yes"/>
  </way>
  <way id="37451199" version="3" timestamp="2009-07-10T17:18:25Z" uid="43863" user="Rundling" changeset="1790959"/>
  <way id="37451327" version="1" timestamp="2009-07-09T13:03:07Z" uid="43863" user="Rundling" changeset="1780847">
    <nd ref="438090046"/>
    <nd ref="438090049"/>
    <nd ref="438090051"/>
    <nd ref="438090048"/>
    <nd ref="438090046"/>
    <tag k="building" v="yes"/>
  </way>
  <way id="37451327" version="2" timestamp="2009-07-09T13:42:30Z" uid="43863" user="Rundling" changeset="1781107">
    <nd ref="438090046"/>
    <nd ref="438099959"/>
    <nd ref="438099960"/>
    <nd ref="438090048"/>
    <nd ref="438090046"/>
    <tag k="building" v="yes"/>
  </way>
  <way id="37451327" version="3" timestamp="2009-07-09T14:32:16Z" uid="43863" user="Rundling" changeset="1781456">
    <nd ref="438099959"/>
    <nd ref="438099960"/>
    <nd ref="438122174"/>
    <nd ref="438122175"/>
    <nd ref="438099959"/>
    <tag k="addr:city" v="Uelzen"/>
    <tag k="addr:country" v="DE"/>
    <tag k="addr:housenumber" v="2"/>
    <tag k="addr:postcode" v="29525"/>
    <tag k="addr:street" v="Erich-Klabunde-Weg"/>
    <tag k="building" v="yes"/>
  </way>
  <way id="37451328" version="1" timestamp="2009-07-09T13:03:07Z" uid="43863" user="Rundling" changeset="1780847">
    <nd ref="438090053"/>
    <nd ref="438090055"/>
    <nd ref="438090056"/>
    <nd ref="438090052"/>
    <nd ref="438090053"/>
    <tag k="building" v="yes"/>
  </way>
  <way id="37451328" version="2" timestamp="2009-07-09T13:42:29Z" uid="43863" user="Rundling" changeset="1781107">
    <nd ref="438090053"/>
    <nd ref="438099961"/>
    <nd ref="438099962"/>
    <nd ref="438090052"/>
    <nd ref="438090053"/>
    <tag k="building" v="yes"/>
  </way>
  <way id="37451328" version="3" timestamp="2009-07-09T14:32:16Z" uid="43863" user="Rundling" changeset="1781456">
    <nd ref="438090053"/>
    <nd ref="438099961"/>
    <nd ref="438099962"/>
    <nd ref="438090052"/>
    <nd ref="438090053"/>
    <tag k="addr:city" v="Uelzen"/>
    <tag k="addr:country" v="DE"/>
    <tag k="addr:postcode" v="29525"/>
    <tag k="addr:street" v="Erich-Klabunde-Weg"/>
    <tag k="building" v="yes"/>
  </way>
  <way id="37451328" version="4" timestamp="2009-07-09T15:39:20Z" uid="43863" user="Rundling" changeset="1781957">
    <nd ref="438099961"/>
    <nd ref="438099962"/>
    <nd ref="438157789"/>
    <nd ref="438157790"/>
    <nd ref="438099961"/>
    <tag k="addr:city" v="Uelzen"/>
    <tag k="addr:country" v="DE"/>
    <tag k="addr:postcode" v="29525"/>
    <tag k="addr:street" v="Erich-Klabunde-Weg"/>
    <tag k="building" v="yes"/>
  </way>
  <way id="37451328" version="5" timestamp="2009-07-09T15:40:56Z" uid="43863" user="Rundling" changeset="1781973">
    <nd ref="438099961"/>
    <nd ref="438099962"/>
    <nd ref="438157789"/>
    <nd ref="438157790"/>
    <nd ref="438099961"/>
    <tag k="addr:city" v="Uelzen"/>
    <tag k="addr:country" v="DE"/>
    <tag k="addr:housenumber" v="4"/>
    <tag k="addr:postcode" v="29525"/>
    <tag k="addr:street" v="Erich-Klabunde-Weg"/>
    <tag k="building" v="yes"/>
  </way>
  <way id="37451329" version="1" timestamp="2009-07-09T13:03:07Z" uid="43863" user="Rundling" changeset="1780847">
    <nd ref="438090059"/>
    <nd ref="438090061"/>
    <nd ref="438090062"/>
    <nd ref="438090057"/>
    <nd ref="438090059"/>
    <tag k="building" v="yes"/>
  </way>
  <way id="37451329" version="2" timestamp="2009-07-09T13:42:30Z" uid="43863" user="Rundling" changeset="1781107">
    <nd ref="438090059"/>
    <nd ref="438099963"/>
    <nd ref="438099964"/>
    <nd ref="438090057"/>
    <nd ref="438090059"/>
    <tag k="building" v="yes"/>
  </way>
  <way id="37451329" version="3" timestamp="2009-07-09T14:32:17Z" uid="43863" user="Rundling" changeset="1781456">
    <nd ref="438090059"/>
    <nd ref="438099963"/>
    <nd ref="438099964"/>
    <nd ref="438090057"/>
    <nd ref="438090059"/>
    <tag k="addr:city" v="Uelzen"/>
    <tag k="addr:country" v="DE"/>
    <tag k="addr:postcode" v="29525"/>
    <tag k="addr:street" v="Erich-Klabunde-Weg"/>
    <tag k="building" v="yes"/>
  </way>
  <way id="37451329" version="4" timestamp="2009-07-09T15:39:20Z" uid="43863" user="Rundling" changeset="1781957">
    <nd ref="438099963"/>
    <nd ref="438099964"/>
    <nd ref="438157787"/>
    <nd ref="438157788"/>
    <nd ref="438099963"/>
    <tag k="addr:city" v="Uelzen"/>
    <tag k="addr:country" v="DE"/>
    <tag k="addr:postcode" v="29525"/>
    <tag k="addr:street" v="Erich-Klabunde-Weg"/>
    <tag k="building" v="yes"/>
  </way>
  <way id="37451329" version="5" timestamp="2009-07-09T15:40:56Z" uid="43863" user="Rundling" changeset="1781973">
    <nd ref="438099963"/>
    <nd ref="438099964"/>
    <nd ref="438157787"/>
    <nd ref="438157788"/>
    <nd ref="438099963"/>
    <tag k="addr:city" v="Uelzen"/>
    <tag k="addr:country" v="DE"/>
    <tag k="addr:housenumber" v="6"/>
    <tag k="addr:postcode" v="29525"/>
    <tag k="addr:street" v="Erich-Klabunde-Weg"/>
    <tag k="building" v="yes"/>
  </way>
  <way id="37451330" version="1" timestamp="2009-07-09T13:03:07Z" uid="43863" user="Rundling" changeset="1780847">
    <nd ref="438090065"/>
    <nd ref="438090066"/>
    <nd ref="438090067"/>
    <nd ref="438090063"/>
    <nd ref="438090065"/>
    <tag k="building" v="yes"/>
  </way>
  <way id="37451330" version="2" timestamp="2009-07-09T13:42:29Z" uid="43863" user="Rundling" changeset="1781107">
    <nd ref="438090065"/>
    <nd ref="438099965"/>
    <nd ref="438099966"/>
    <nd ref="438090063"/>
    <nd ref="438090065"/>
    <tag k="building" v="yes"/>
  </way>
  <way id="37451330" version="3" timestamp="2009-07-09T14:32:16Z" uid="43863" user="Rundling" changeset="1781456">
    <nd ref="438099965"/>
    <nd ref="438099966"/>
    <nd ref="438122176"/>
    <nd ref="438122177"/>
    <nd ref="438099965"/>
    <tag k="addr:city" v="Uelzen"/>
    <tag k="addr:country" v="DE"/>
    <tag k="addr:housenumber" v="1"/>
    <tag k="addr:postcode" v="29525"/>
    <tag k="addr:street" v="Erich-Klabunde-Weg"/>
    <tag k="building" v="yes"/>
  </way>
  <way id="37451331" version="1" timestamp="2009-07-09T13:03:07Z" uid="43863" user="Rundling" changeset="1780847">
    <nd ref="438090070"/>
    <nd ref="438090071"/>
    <nd ref="438090073"/>
    <nd ref="438090069"/>
    <nd ref="438090070"/>
    <tag k="building" v="yes"/>
  </way>
  <way id="37451331" version="2" timestamp="2009-07-09T13:42:30Z" uid="43863" user="Rundling" changeset="1781107">
    <nd ref="438090070"/>
    <nd ref="438099967"/>
    <nd ref="438099968"/>
    <nd ref="438090069"/>
    <nd ref="438090070"/>
    <tag k="building" v="yes"/>
  </way>
  <way id="37451331" version="3" timestamp="2009-07-09T14:32:17Z" uid="43863" user="Rundling" changeset="1781456">
    <nd ref="438090070"/>
    <nd ref="438099967"/>
    <nd ref="438099968"/>
    <nd ref="438090069"/>
    <nd ref="438090070"/>
    <tag k="addr:city" v="Uelzen"/>
    <tag k="addr:country" v="DE"/>
    <tag k="addr:housenumber" v="3"/>
    <tag k="addr:postcode" v="29525"/>
    <tag k="addr:street" v="Erich-Klabunde-Weg"/>
    <tag k="building" v="yes"/>
  </way>
  <way id="37451331" version="4" timestamp="2009-07-09T15:39:20Z" uid="43863" user="Rundling" changeset="1781957">
    <nd ref="438090070"/>
    <nd ref="438157783"/>
    <nd ref="438157784"/>
    <nd ref="438090069"/>
    <nd ref="438090070"/>
    <tag k="addr:city" v="Uelzen"/>
    <tag k="addr:country" v="DE"/>
    <tag k="addr:housenumber" v="3"/>
    <tag k="addr:postcode" v="29525"/>
    <tag k="addr:street" v="Erich-Klabunde-Weg"/>
    <tag k="building" v="yes"/>
  </way>
  <way id="37451332" version="1" timestamp="2009-07-09T13:03:07Z" uid="43863" user="Rundling" changeset="1780847">
    <nd ref="438090076"/>
    <nd ref="438090077"/>
    <nd ref="438090079"/>
    <nd ref="438090075"/>
    <nd ref="438090076"/>
    <tag k="building" v="yes"/>
  </way>
  <way id="37451332" version="2" timestamp="2009-07-09T13:42:29Z" uid="43863" user="Rundling" changeset="1781107">
    <nd ref="438090076"/>
    <nd ref="438099969"/>
    <nd ref="438099974"/>
    <nd ref="438090075"/>
    <nd ref="438090076"/>
    <tag k="building" v="yes"/>
  </way>
  <way id="37451332" version="3" timestamp="2009-07-09T14:32:17Z" uid="43863" user="Rundling" changeset="1781456">
    <nd ref="438090076"/>
    <nd ref="438099969"/>
    <nd ref="438099974"/>
    <nd ref="438090075"/>
    <nd ref="438090076"/>
    <tag k="addr:city" v="Uelzen"/>
    <tag k="addr:country" v="DE"/>
    <tag k="addr:postcode" v="29525"/>
    <tag k="addr:street" v="Erich-Klabunde-Weg"/>
    <tag k="building" v="yes"/>
  </way>
  <way id="37451332" version="4" timestamp="2009-07-09T15:39:20Z" uid="43863" user="Rundling" changeset="1781957">
    <nd ref="438090076"/>
    <nd ref="438157785"/>
    <nd ref="438157786"/>
    <nd ref="438090075"/>
    <nd ref="438090076"/>
    <tag k="addr:city" v="Uelzen"/>
    <tag k="addr:country" v="DE"/>
    <tag k="addr:postcode" v="29525"/>
    <tag k="addr:street" v="Erich-Klabunde-Weg"/>
    <tag k="building" v="yes"/>
  </way>
  <way id="37451332" version="5" timestamp="2009-07-09T15:40:56Z" uid="43863" user="Rundling" changeset="1781973">
    <nd ref="438090076"/>
    <nd ref="438157785"/>
    <nd ref="438157786"/>
    <nd ref="438090075"/>
    <nd ref="438090076"/>
    <tag k="addr:city" v="Uelzen"/>
    <tag k="addr:country" v="DE"/>
    <tag k="addr:housenumber" v="5"/>
    <tag k="addr:postcode" v="29525"/>
    <tag k="addr:street" v="Erich-Klabunde-Weg"/>
    <tag k="building" v="yes"/>
  </way>
  <way id="37451333" version="1" timestamp="2009-07-09T13:03:07Z" uid="43863" user="Rundling" changeset="1780847">
    <nd ref="438090081"/>
    <nd ref="438090083"/>
    <nd ref="438090084"/>
    <nd ref="438090080"/>
    <nd ref="438090081"/>
    <tag k="building" v="yes"/>
  </way>
  <way id="37451333" version="2" timestamp="2009-07-09T13:42:29Z" uid="43863" user="Rundling" changeset="1781107">
    <nd ref="438090081"/>
    <nd ref="438099957"/>
    <nd ref="438099958"/>
    <nd ref="438090080"/>
    <nd ref="438090081"/>
    <tag k="building" v="yes"/>
  </way>
  <way id="37451333" version="3" timestamp="2009-07-09T14:32:17Z" uid="43863" user="Rundling" changeset="1781456">
    <nd ref="438090081"/>
    <nd ref="438122161"/>
    <nd ref="438122163"/>
    <nd ref="438090080"/>
    <nd ref="438090081"/>
    <tag k="addr:city" v="Uelzen"/>
    <tag k="addr:country" v="DE"/>
    <tag k="addr:postcode" v="29525"/>
    <tag k="addr:street" v="Erich-Klabunde-Weg"/>
    <tag k="building" v="yes"/>
  </way>
  <way id="37451333" version="4" timestamp="2009-07-10T17:18:25Z" uid="43863" user="Rundling" changeset="1790959"/>
  <way id="37451418" version="2" timestamp="2009-12-09T21:17:16Z" uid="200463" user="harmagedon" changeset="3336909">
    <nd ref="339010727"/>
    <nd ref="339009941"/>
    <nd ref="339010224"/>
    <nd ref="339009940"/>
    <tag k="highway" v="service"/>
    <tag k="service" v="driveway"/>
  </way>
  <way id="37451474" version="5" timestamp="2010-07-09T21:42:38Z" uid="74617" user="JohnSmith" changeset="5176956">
    <nd ref="106276667"/>
    <nd ref="669249296"/>
    <nd ref="438090332"/>
    <nd ref="438090333"/>
    <nd ref="438090334"/>
    <nd ref="438090335"/>
    <nd ref="440514434"/>
    <nd ref="438090329"/>
    <tag k="highway" v="unclassified"/>
    <tag k="maxspeed" v="50"/>
    <tag k="maxspeed:source" v="default residential speed limit in Australia"/>
  </way>
  <way id="37451475" version="5" timestamp="2010-07-09T21:43:29Z" uid="74617" user="JohnSmith" changeset="5176956">
    <nd ref="438090337"/>
    <nd ref="438090338"/>
    <nd ref="438090340"/>
    <nd ref="438090341"/>
    <nd ref="438090342"/>
    <nd ref="457500991"/>
    <nd ref="440514403"/>
    <nd ref="438090344"/>
    <nd ref="438090345"/>
    <nd ref="438090346"/>
    <nd ref="438090347"/>
    <tag k="highway" v="residential"/>
    <tag k="maxspeed" v="50"/>
    <tag k="maxspeed:source" v="default residential speed limit in Australia"/>
  </way>
  <way id="37451477" version="7" timestamp="2010-07-09T18:31:19Z" uid="74617" user="JohnSmith" changeset="5175636">
    <nd ref="438090348"/>
    <nd ref="438090324"/>
    <nd ref="667931214"/>
    <nd ref="438090338"/>
    <nd ref="564631480"/>
    <nd ref="438090350"/>
    <tag k="highway" v="residential"/>
    <tag k="maxspeed" v="50"/>
    <tag k="maxspeed:source" v="default residential speed limit in Australia"/>
    <tag k="name" v="Victoria Road"/>
  </way>
  <way id="37451478" version="6" timestamp="2010-07-09T21:43:15Z" uid="74617" user="JohnSmith" changeset="5176956">
    <nd ref="438090351"/>
    <nd ref="438090348"/>
    <nd ref="438090352"/>
    <nd ref="438090353"/>
    <tag k="highway" v="residential"/>
    <tag k="maxspeed" v="50"/>
    <tag k="maxspeed:source" v="default residential speed limit in Australia"/>
    <tag k="name" v="Tomlin Street"/>
  </way>
  <way id="37451479" version="5" timestamp="2010-07-09T18:35:47Z" uid="74617" user="JohnSmith" changeset="5175636">
    <nd ref="438090357"/>
    <nd ref="438090325"/>
    <nd ref="667931213"/>
    <nd ref="438090342"/>
    <nd ref="438090361"/>
    <tag k="highway" v="unclassified"/>
    <tag k="maxspeed" v="50"/>
    <tag k="maxspeed:source" v="default residential speed limit in Australia"/>
  </way>
  <way id="37451483" version="5" timestamp="2010-07-09T22:21:01Z" uid="74617" user="JohnSmith" changeset="5176956">
    <nd ref="438090363"/>
    <nd ref="438090364"/>
    <nd ref="438090365"/>
    <nd ref="440514393"/>
    <nd ref="438090366"/>
    <nd ref="438090367"/>
    <nd ref="438090368"/>
    <nd ref="438090369"/>
    <nd ref="438090370"/>
    <nd ref="438090371"/>
    <nd ref="667931212"/>
    <nd ref="438090326"/>
    <tag k="highway" v="unclassified"/>
    <tag k="maxspeed" v="50"/>
    <tag k="maxspeed:source" v="default residential speed limit in Australia"/>
  </way>
  <way id="37451484" version="3" timestamp="2010-07-09T22:20:56Z" uid="74617" user="JohnSmith" changeset="5176956">
    <nd ref="438090371"/>
    <nd ref="438090372"/>
    <tag k="highway" v="unclassified"/>
    <tag k="maxspeed" v="50"/>
    <tag k="maxspeed:source" v="default residential speed limit in Australia"/>
  </way>
  <way id="37451514" version="1" timestamp="2009-07-09T13:05:53Z" uid="43863" user="Rundling" changeset="1780876">
    <nd ref="438090715"/>
    <nd ref="438090716"/>
    <nd ref="438090717"/>
    <nd ref="438090718"/>
    <nd ref="438090715"/>
    <tag k="leisure" v="track"/>
    <tag k="sport" v="soccer"/>
  </way>
  <way id="37451514" version="2" timestamp="2009-07-09T13:53:41Z" uid="43863" user="Rundling" changeset="1781188">
    <nd ref="438090715"/>
    <nd ref="438090716"/>
    <nd ref="438090717"/>
    <nd ref="438090718"/>
    <nd ref="438090715"/>
    <tag k="leisure" v="pitch"/>
    <tag k="sport" v="soccer"/>
  </way>
  <way id="37451514" version="3" timestamp="2009-07-09T15:14:35Z" uid="43863" user="Rundling" changeset="1781766"/>
  <way id="37451987" version="2" timestamp="2010-03-16T22:34:18Z" uid="163746" user="anti_bot-nonsense" changeset="4147654">
    <nd ref="353108671"/>
    <nd ref="259447963"/>
    <tag k="highway" v="tertiary"/>
    <tag k="name" v="Murawa"/>
    <tag k="oneway" v="no"/>
  </way>
</osm>
