<?xml version='1.0' encoding='UTF-8'?>
<osm version="0.6" generator="libosmium/2.20.0">
  <way id="37593070" version="2" timestamp="2010-08-08T14:02:37Z" uid="33382" user="de_muur" changeset="5433443">
    <nd ref="440687452"/>
    <nd ref="252846410"/>
    <nd ref="252846411"/>
    <nd ref="252846412"/>
    <nd ref="252846413"/>
    <nd ref="252846414"/>
    <nd ref="252846415"/>
    <nd ref="252846416"/>
    <nd ref="252846417"/>
    <nd ref="252846418"/>
    <tag k="highway" v="tertiary"/>
    <tag k="name" v="Radelsweg"/>
    <tag k="surface" v="paved"/>
  </way>
  <way id="37593070" version="3" timestamp="2010-08-08T19:00:39Z" uid="33382" user="de_muur" changeset="5436511">
    <nd ref="440687452"/>
    <nd ref="252846410"/>
    <nd ref="252846411"/>
    <nd ref="252846412"/>
    <nd ref="252846413"/>
    <nd ref="252846414"/>
    <nd ref="252846415"/>
    <nd ref="252846416"/>
    <nd ref="252846417"/>
    <nd ref="252846418"/>
    <tag k="highway" v="tertiary"/>
    <tag k="maxspeed" v="50"/>
    <tag k="name" v="Radelsweg"/>
    <tag k="surface" v="paved"/>
  </way>
  <way id="37593073" version="2" timestamp="2010-08-08T14:02:04Z" uid="33382" user="de_muur" changeset="5433443">
    <nd ref="316285237"/>
    <nd ref="440687458"/>
    <nd ref="440687456"/>
    <nd ref="440687457"/>
    <tag k="foot" v="yes"/>
    <tag k="highway" v="cycleway"/>
  </way>
  <way id="37593074" version="2" timestamp="2010-07-24T05:45:24Z" uid="33382" user="de_muur" changeset="5300911">
    <nd ref="440687454"/>
    <nd ref="292048940"/>
    <nd ref="292048943"/>
    <nd ref="21573277"/>
    <nd ref="21573278"/>
    <nd ref="252846418"/>
    <tag k="cycleway" v="track"/>
    <tag k="highway" v="secondary"/>
    <tag k="maxspeed" v="50"/>
    <tag k="name" v="Alte Landstraße"/>
    <tag k="postal_code" v="21039"/>
    <tag k="ref" v="K 80"/>
    <tag k="surface" v="paved"/>
  </way>
  <way id="37593074" version="9" timestamp="2010-10-19T14:26:28Z" uid="33382" user="de_muur" changeset="6099755">
    <nd ref="440687454"/>
    <nd ref="292048940"/>
    <nd ref="292048943"/>
    <nd ref="21573277"/>
    <nd ref="21573278"/>
    <nd ref="252846418"/>
    <tag k="cycleway" v="track"/>
    <tag k="highway" v="secondary"/>
    <tag k="maxspeed" v="50"/>
    <tag k="name" v="Alte Landstraße"/>
    <tag k="old_ref" v="B 5"/>
    <tag k="postal_code" v="21039"/>
    <tag k="ref" v="L 208"/>
    <tag k="surface" v="paved"/>
  </way>
  <way id="37593076" version="2" timestamp="2010-07-24T05:46:12Z" uid="33382" user="de_muur" changeset="5300911"/>
  <way id="37593355" version="1" timestamp="2009-07-12T11:48:51Z" uid="74617" user="JohnSmith" changeset="1806216">
    <nd ref="416344193"/>
    <nd ref="416344194"/>
    <nd ref="416344195"/>
    <nd ref="416344196"/>
    <nd ref="416345325"/>
    <nd ref="416345327"/>
    <nd ref="416345329"/>
    <nd ref="416345332"/>
    <nd ref="416345334"/>
    <nd ref="416345336"/>
    <nd ref="416345338"/>
    <nd ref="416345340"/>
    <nd ref="416345342"/>
    <nd ref="416345344"/>
    <nd ref="416345347"/>
    <nd ref="416345349"/>
    <nd ref="416345352"/>
    <nd ref="416345354"/>
    <nd ref="416345356"/>
    <nd ref="416345359"/>
    <nd ref="416345361"/>
    <nd ref="416345363"/>
    <nd ref="416345365"/>
    <nd ref="416345367"/>
    <nd ref="416345369"/>
    <nd ref="416345371"/>
    <nd ref="416345374"/>
    <nd ref="416345376"/>
    <nd ref="254517683"/>
    <tag k="highway" v="track"/>
    <tag k="source" v="survey"/>
    <tag k="surface" v="unpaved"/>
  </way>
  <way id="37593357" version="4" timestamp="2009-07-19T02:25:56Z" uid="4467" user="Rosscoe" changeset="1868918">
    <nd ref="443545438"/>
    <nd ref="440690179"/>
    <nd ref="440690251"/>
    <nd ref="440690180"/>
    <tag k="highway" v="residential"/>
  </way>
  <way id="37593357" version="5" timestamp="2009-07-19T02:26:14Z" uid="4467" user="Rosscoe" changeset="1868918">
    <nd ref="443545438"/>
    <nd ref="440690179"/>
    <nd ref="440690251"/>
    <nd ref="440690180"/>
    <tag k="highway" v="residential"/>
    <tag k="source" v="survey"/>
  </way>
  <way id="37593361" version="3" timestamp="2009-07-19T02:26:49Z" uid="4467" user="Rosscoe" changeset="1868918">
    <nd ref="440690250"/>
    <nd ref="440690251"/>
    <tag k="highway" v="residential"/>
    <tag k="name" v="Oak Street"/>
    <tag k="source" v="survey"/>
  </way>
  <way id="37593434" version="1" timestamp="2009-07-12T11:51:36Z" uid="43863" user="Rundling" changeset="1806245">
    <nd ref="440691016"/>
    <nd ref="440691017"/>
    <nd ref="440691018"/>
    <nd ref="440691028"/>
    <nd ref="440691021"/>
    <tag k="highway" v="residential"/>
    <tag k="name" v="Wullhop"/>
    <tag k="surface" v="cobblestone"/>
  </way>
  <way id="37593435" version="1" timestamp="2009-07-12T11:51:37Z" uid="43863" user="Rundling" changeset="1806245">
    <nd ref="440691021"/>
    <nd ref="440691025"/>
    <nd ref="440691022"/>
    <nd ref="440691024"/>
    <tag k="highway" v="footway"/>
    <tag k="surface" v="cobblestone"/>
  </way>
  <way id="37593436" version="1" timestamp="2009-07-12T11:51:37Z" uid="43863" user="Rundling" changeset="1806245">
    <nd ref="440691027"/>
    <nd ref="440691028"/>
    <tag k="addr:city" v="Uelzen"/>
    <tag k="addr:country" v="DE"/>
    <tag k="addr:housenumber" v="4"/>
    <tag k="addr:postcode" v="29525"/>
    <tag k="addr:street" v="Wullhop"/>
    <tag k="building" v="yes"/>
    <tag k="highway" v="footway"/>
    <tag k="surface" v="cobblestone"/>
  </way>
  <way id="37593436" version="3" timestamp="2009-07-19T05:15:45Z" uid="43863" user="Rundling" changeset="1869451"/>
  <way id="37593437" version="1" timestamp="2009-07-12T11:51:37Z" uid="43863" user="Rundling" changeset="1806245">
    <nd ref="440691021"/>
    <nd ref="440691030"/>
    <nd ref="440691031"/>
    <nd ref="313298007"/>
    <tag k="highway" v="footway"/>
    <tag k="surface" v="cobblestone"/>
  </way>
  <way id="37593438" version="1" timestamp="2009-07-12T11:51:37Z" uid="43863" user="Rundling" changeset="1806245">
    <nd ref="440691053"/>
    <nd ref="440691050"/>
    <nd ref="440691036"/>
    <nd ref="440691038"/>
    <nd ref="440691040"/>
    <nd ref="440691041"/>
    <nd ref="440691042"/>
    <nd ref="440691043"/>
    <nd ref="440691045"/>
    <tag k="bicycle" v="yes"/>
    <tag k="foot" v="yes"/>
    <tag k="highway" v="footway"/>
  </way>
  <way id="37593439" version="1" timestamp="2009-07-12T11:51:37Z" uid="43863" user="Rundling" changeset="1806245">
    <nd ref="440691038"/>
    <nd ref="440691060"/>
    <nd ref="440691058"/>
    <nd ref="440691059"/>
    <tag k="bicycle" v="yes"/>
    <tag k="foot" v="yes"/>
    <tag k="highway" v="footway"/>
  </way>
  <way id="37593448" version="4" timestamp="2009-07-19T02:30:16Z" uid="4467" user="Rosscoe" changeset="1868918"/>
  <way id="37593642" version="4" timestamp="2009-07-19T02:27:37Z" uid="4467" user="Rosscoe" changeset="1868918">
    <nd ref="300227513"/>
    <nd ref="300227512"/>
    <nd ref="443545414"/>
    <nd ref="300227511"/>
    <nd ref="440693255"/>
    <nd ref="440692302"/>
    <nd ref="440693256"/>
    <nd ref="441075447"/>
    <tag k="created_by" v="Potlatch 0.10c"/>
    <tag k="highway" v="residential"/>
    <tag k="name" v="Oak Street"/>
  </way>
  <way id="37593642" version="5" timestamp="2009-07-19T02:30:36Z" uid="4467" user="Rosscoe" changeset="1868918">
    <nd ref="300227513"/>
    <nd ref="300227512"/>
    <nd ref="443545414"/>
    <nd ref="300227511"/>
    <nd ref="440693255"/>
    <nd ref="443545582"/>
    <nd ref="440692302"/>
    <nd ref="443545583"/>
    <nd ref="440693256"/>
    <nd ref="441075447"/>
    <tag k="created_by" v="Potlatch 0.10c"/>
    <tag k="highway" v="residential"/>
    <tag k="name" v="Oak Street"/>
  </way>
  <way id="37593642" version="6" timestamp="2009-07-19T02:30:54Z" uid="4467" user="Rosscoe" changeset="1868918">
    <nd ref="300227513"/>
    <nd ref="300227512"/>
    <nd ref="443545414"/>
    <nd ref="300227511"/>
    <nd ref="440693255"/>
    <nd ref="443545582"/>
    <tag k="created_by" v="Potlatch 0.10c"/>
    <tag k="highway" v="residential"/>
    <tag k="name" v="Oak Street"/>
  </way>
  <way id="37593642" version="7" timestamp="2011-02-27T01:56:06Z" uid="4467" user="Rosscoe" changeset="7406463">
    <nd ref="300227513"/>
    <nd ref="443545414"/>
    <nd ref="443545582"/>
    <tag k="highway" v="residential"/>
    <tag k="name" v="Oak Street"/>
  </way>
  <way id="37593828" version="3" timestamp="2009-09-22T05:59:40Z" uid="4467" user="Rosscoe" changeset="2565302">
    <nd ref="440697140"/>
    <nd ref="440697144"/>
    <nd ref="440697146"/>
    <nd ref="440697147"/>
    <nd ref="440697148"/>
    <nd ref="440709588"/>
    <tag k="access" v="private"/>
    <tag k="highway" v="service"/>
    <tag k="source" v="survey"/>
  </way>
  <way id="37593873" version="1" timestamp="2009-07-12T12:03:05Z" uid="43863" user="Rundling" changeset="1806349">
    <nd ref="440071381"/>
    <nd ref="440697556"/>
    <nd ref="440697557"/>
    <nd ref="440071382"/>
    <nd ref="440071381"/>
    <tag k="addr:housenumber" v="103"/>
    <tag k="addr:street" v="Hauenriede"/>
    <tag k="building" v="yes"/>
  </way>
  <way id="37593874" version="1" timestamp="2009-07-12T12:03:05Z" uid="43863" user="Rundling" changeset="1806349">
    <nd ref="440697556"/>
    <nd ref="440164754"/>
    <nd ref="440164756"/>
    <nd ref="440697557"/>
    <nd ref="440697556"/>
    <tag k="addr:housenumber" v="101"/>
    <tag k="addr:street" v="Hauenriede"/>
    <tag k="building" v="yes"/>
  </way>
  <way id="37593875" version="1" timestamp="2009-07-12T12:03:05Z" uid="43863" user="Rundling" changeset="1806349">
    <nd ref="440071396"/>
    <nd ref="440697559"/>
    <nd ref="440697560"/>
    <nd ref="440071395"/>
    <nd ref="440071396"/>
    <tag k="addr:housenumber" v="97"/>
    <tag k="addr:street" v="Hauenriede"/>
    <tag k="building" v="yes"/>
  </way>
  <way id="37593877" version="1" timestamp="2009-07-12T12:03:05Z" uid="43863" user="Rundling" changeset="1806349">
    <nd ref="440697559"/>
    <nd ref="440071389"/>
    <nd ref="440071394"/>
    <nd ref="440697560"/>
    <nd ref="440697559"/>
    <tag k="addr:housenumber" v="99"/>
    <tag k="addr:street" v="Hauenriede"/>
    <tag k="building" v="yes"/>
  </way>
  <way id="37593878" version="1" timestamp="2009-07-12T12:03:05Z" uid="43863" user="Rundling" changeset="1806349">
    <nd ref="440071385"/>
    <nd ref="440697562"/>
    <nd ref="440697564"/>
    <nd ref="440071386"/>
    <nd ref="440071385"/>
    <tag k="addr:housenumber" v="93"/>
    <tag k="addr:street" v="Hauenriede"/>
    <tag k="building" v="yes"/>
  </way>
  <way id="37593879" version="1" timestamp="2009-07-12T12:03:05Z" uid="43863" user="Rundling" changeset="1806349">
    <nd ref="440697562"/>
    <nd ref="440164759"/>
    <nd ref="440164761"/>
    <nd ref="440697564"/>
    <nd ref="440697562"/>
    <tag k="addr:housenumber" v="95"/>
    <tag k="addr:street" v="Hauenriede"/>
    <tag k="building" v="yes"/>
  </way>
  <way id="37593880" version="1" timestamp="2009-07-12T12:03:05Z" uid="43863" user="Rundling" changeset="1806349">
    <nd ref="440071400"/>
    <nd ref="440697565"/>
    <nd ref="440697566"/>
    <nd ref="440071398"/>
    <nd ref="440071400"/>
    <tag k="addr:housenumber" v="89"/>
    <tag k="addr:street" v="Hauenriede"/>
    <tag k="building" v="yes"/>
  </way>
  <way id="37593881" version="1" timestamp="2009-07-12T12:03:05Z" uid="43863" user="Rundling" changeset="1806349">
    <nd ref="440697565"/>
    <nd ref="440164765"/>
    <nd ref="440164769"/>
    <nd ref="440697566"/>
    <nd ref="440697565"/>
    <tag k="addr:housenumber" v="87"/>
    <tag k="addr:street" v="Hauenriede"/>
    <tag k="building" v="yes"/>
  </way>
  <way id="37593882" version="1" timestamp="2009-07-12T12:03:06Z" uid="43863" user="Rundling" changeset="1806349">
    <nd ref="440164786"/>
    <nd ref="440697569"/>
    <nd ref="440697570"/>
    <nd ref="440164788"/>
    <nd ref="440164786"/>
    <tag k="addr:housenumber" v="85"/>
    <tag k="addr:street" v="Hauenriede"/>
    <tag k="building" v="yes"/>
  </way>
  <way id="37593883" version="1" timestamp="2009-07-12T12:03:06Z" uid="43863" user="Rundling" changeset="1806349">
    <nd ref="440697569"/>
    <nd ref="440179679"/>
    <nd ref="440179681"/>
    <nd ref="440697570"/>
    <nd ref="440697569"/>
    <tag k="addr:housenumber" v="83"/>
    <tag k="addr:street" v="Hauenriede"/>
    <tag k="building" v="yes"/>
  </way>
  <way id="37593884" version="1" timestamp="2009-07-12T12:03:06Z" uid="43863" user="Rundling" changeset="1806349">
    <nd ref="440164784"/>
    <nd ref="440697571"/>
    <nd ref="440697572"/>
    <nd ref="440164777"/>
    <nd ref="440164784"/>
    <tag k="addr:housenumber" v="79"/>
    <tag k="addr:street" v="Hauenriede"/>
    <tag k="building" v="yes"/>
  </way>
  <way id="37593885" version="1" timestamp="2009-07-12T12:03:06Z" uid="43863" user="Rundling" changeset="1806349">
    <nd ref="440697571"/>
    <nd ref="440164774"/>
    <nd ref="440164782"/>
    <nd ref="440697572"/>
    <nd ref="440697571"/>
    <tag k="addr:housenumber" v="81"/>
    <tag k="addr:street" v="Hauenriede"/>
    <tag k="building" v="yes"/>
  </way>
  <way id="37593924" version="4" timestamp="2009-09-17T06:19:30Z" uid="4467" user="Rosscoe" changeset="2508990"/>
  <way id="37593931" version="9" timestamp="2010-12-05T11:49:19Z" uid="171838" user="argrath" changeset="6549561">
    <nd ref="440698124"/>
    <nd ref="450636283"/>
    <nd ref="450639902"/>
    <nd ref="528612294"/>
    <nd ref="447810911"/>
    <nd ref="440551541"/>
    <nd ref="448957132"/>
    <nd ref="448957134"/>
    <nd ref="448957136"/>
    <nd ref="528612289"/>
    <nd ref="1022502625"/>
    <nd ref="1022502498"/>
    <nd ref="448961308"/>
    <tag k="highway" v="primary"/>
    <tag k="lanes" v="2"/>
    <tag k="name" v="谷町筋 (Tanimachi-suji Street)"/>
    <tag k="name:ja" v="谷町筋"/>
    <tag k="oneway" v="yes"/>
    <tag k="ref" v="30"/>
  </way>
  <way id="37593933" version="5" timestamp="2009-11-14T11:36:24Z" uid="171838" user="argrath" changeset="3112328">
    <nd ref="421565805"/>
    <nd ref="421565807"/>
    <nd ref="440551544"/>
    <nd ref="440698129"/>
    <nd ref="440698128"/>
    <nd ref="421565809"/>
    <nd ref="421565838"/>
    <nd ref="401613884"/>
    <nd ref="401565777"/>
    <nd ref="563715527"/>
    <nd ref="563713516"/>
    <nd ref="563714603"/>
    <nd ref="563714439"/>
    <nd ref="401565779"/>
    <nd ref="563714185"/>
    <nd ref="563713457"/>
    <nd ref="563714014"/>
    <nd ref="563713837"/>
    <nd ref="428748769"/>
    <nd ref="428745361"/>
    <tag k="highway" v="primary"/>
    <tag k="name:ja" v="谷町筋"/>
    <tag k="oneway" v="yes"/>
    <tag k="ref" v="30"/>
  </way>
  <way id="37593933" version="6" timestamp="2009-11-14T14:24:11Z" uid="171838" user="argrath" changeset="3113534">
    <nd ref="421565805"/>
    <nd ref="421565807"/>
    <nd ref="563838682"/>
    <nd ref="440551544"/>
    <nd ref="563838717"/>
    <nd ref="563838751"/>
    <nd ref="440698129"/>
    <nd ref="440698128"/>
    <nd ref="421565809"/>
    <nd ref="421565838"/>
    <nd ref="401613884"/>
    <nd ref="401565777"/>
    <nd ref="563715527"/>
    <nd ref="563713516"/>
    <nd ref="563714603"/>
    <nd ref="563714439"/>
    <nd ref="401565779"/>
    <nd ref="563714185"/>
    <nd ref="563713457"/>
    <nd ref="563714014"/>
    <nd ref="563713837"/>
    <nd ref="428748769"/>
    <nd ref="428745361"/>
    <tag k="highway" v="primary"/>
    <tag k="name:ja" v="谷町筋"/>
    <tag k="oneway" v="yes"/>
    <tag k="ref" v="30"/>
  </way>
  <way id="37593959" version="4" timestamp="2009-07-19T03:29:26Z" uid="4467" user="Rosscoe" changeset="1869176">
    <nd ref="440698471"/>
    <nd ref="440698273"/>
    <nd ref="440698467"/>
    <nd ref="440698278"/>
    <nd ref="440698279"/>
    <nd ref="440698281"/>
    <nd ref="440698283"/>
    <nd ref="440698286"/>
    <nd ref="440698288"/>
    <nd ref="440698289"/>
    <tag k="highway" v="residential"/>
    <tag k="name" v="Neilsens Street"/>
    <tag k="source" v="survey"/>
  </way>
  <way id="37593959" version="5" timestamp="2009-07-19T03:39:28Z" uid="4467" user="Rosscoe" changeset="1869176">
    <nd ref="440698471"/>
    <nd ref="440698467"/>
    <nd ref="440698278"/>
    <nd ref="440698279"/>
    <nd ref="440698281"/>
    <nd ref="440698283"/>
    <nd ref="440698286"/>
    <nd ref="440698288"/>
    <nd ref="440698289"/>
    <tag k="highway" v="residential"/>
    <tag k="name" v="Neilsens Street"/>
    <tag k="source" v="survey"/>
  </way>
  <way id="37593969" version="2" timestamp="2009-07-19T03:29:35Z" uid="4467" user="Rosscoe" changeset="1869176">
    <nd ref="440698466"/>
    <nd ref="440698467"/>
    <tag k="highway" v="residential"/>
    <tag k="name" v="Bahnish Street"/>
    <tag k="source" v="survey"/>
  </way>
</osm>
