<?xml version='1.0' encoding='UTF-8'?>
<osm version="0.6" generator="libosmium/2.20.0">
  <way id="37638084" version="2" timestamp="2009-11-12T02:43:24Z" uid="36809" user="pfoten_weg_!_" changeset="3095231">
    <nd ref="441229833"/>
    <nd ref="441229834"/>
    <nd ref="441229835"/>
    <nd ref="441229837"/>
    <nd ref="441229833"/>
    <tag k="building" v="yes"/>
  </way>
  <way id="37638152" version="2" timestamp="2010-03-28T10:10:49Z" uid="20587" user="balrog-kun" changeset="4254597">
    <nd ref="53035091"/>
    <nd ref="53035096"/>
    <nd ref="441231534"/>
    <nd ref="53035097"/>
    <nd ref="441231535"/>
    <nd ref="441231458"/>
    <tag k="highway" v="residential"/>
    <tag k="name" v="Morse Court"/>
    <tag k="tiger:cfcc" v="A41"/>
    <tag k="tiger:county" v="Alameda, CA"/>
    <tag k="tiger:name_base" v="Morse"/>
    <tag k="tiger:name_type" v="Ct"/>
    <tag k="tiger:reviewed" v="no"/>
    <tag k="tiger:separated" v="no"/>
    <tag k="tiger:source" v="tiger_import_dch_v0.6_20070809"/>
    <tag k="tiger:tlid" v="125036484"/>
    <tag k="tiger:zip_left" v="94542"/>
    <tag k="tiger:zip_right" v="94542"/>
  </way>
  <way id="37638228" version="2" timestamp="2010-04-03T04:15:51Z" uid="20587" user="balrog-kun" changeset="4309442">
    <nd ref="441233205"/>
    <nd ref="441233188"/>
    <tag k="highway" v="residential"/>
    <tag k="name" v="West Martingale Road"/>
  </way>
  <way id="37638229" version="2" timestamp="2010-04-03T04:15:51Z" uid="20587" user="balrog-kun" changeset="4309442">
    <nd ref="441233201"/>
    <nd ref="441233200"/>
    <tag k="highway" v="residential"/>
    <tag k="name" v="South Joshua Tree Lane"/>
  </way>
  <way id="37638230" version="2" timestamp="2010-04-03T04:15:51Z" uid="20587" user="balrog-kun" changeset="4309442">
    <nd ref="441233292"/>
    <nd ref="441233210"/>
    <tag k="highway" v="residential"/>
    <tag k="name" v="South Arroyo Lane"/>
  </way>
  <way id="37638231" version="2" timestamp="2010-04-03T04:15:51Z" uid="20587" user="balrog-kun" changeset="4309442">
    <nd ref="441233197"/>
    <nd ref="441233199"/>
    <tag k="highway" v="residential"/>
    <tag k="name" v="South Kennith Lane"/>
  </way>
  <way id="37638232" version="2" timestamp="2010-04-03T04:15:51Z" uid="20587" user="balrog-kun" changeset="4309442">
    <nd ref="441233289"/>
    <nd ref="441233219"/>
    <tag k="highway" v="residential"/>
    <tag k="name" v="East Palo Verde Street"/>
  </way>
  <way id="37638233" version="3" timestamp="2010-04-03T04:15:51Z" uid="20587" user="balrog-kun" changeset="4309442">
    <nd ref="441233196"/>
    <nd ref="441239764"/>
    <nd ref="441233197"/>
    <tag k="highway" v="residential"/>
    <tag k="name" v="South Kennith Lane"/>
  </way>
  <way id="37638234" version="2" timestamp="2010-04-03T04:15:51Z" uid="20587" user="balrog-kun" changeset="4309442">
    <nd ref="441233220"/>
    <nd ref="441233254"/>
    <tag k="highway" v="residential"/>
    <tag k="name" v="South Highland Glen Lane"/>
  </way>
  <way id="37638235" version="2" timestamp="2010-04-03T04:15:52Z" uid="20587" user="balrog-kun" changeset="4309442">
    <nd ref="441233194"/>
    <nd ref="441233195"/>
    <tag k="highway" v="residential"/>
    <tag k="name" v="East Cornstock Drive"/>
  </way>
  <way id="37638236" version="2" timestamp="2010-04-03T04:15:52Z" uid="20587" user="balrog-kun" changeset="4309442">
    <nd ref="441233242"/>
    <nd ref="441233288"/>
    <tag k="highway" v="residential"/>
    <tag k="name" v="East Mesquite Street"/>
  </way>
  <way id="37638237" version="2" timestamp="2010-04-03T04:15:52Z" uid="20587" user="balrog-kun" changeset="4309442">
    <nd ref="441233190"/>
    <nd ref="441233191"/>
    <nd ref="441233192"/>
    <nd ref="441233193"/>
    <tag k="highway" v="residential"/>
    <tag k="name" v="South Cole Drive"/>
  </way>
  <way id="37638238" version="2" timestamp="2010-04-03T04:15:52Z" uid="20587" user="balrog-kun" changeset="4309442">
    <nd ref="441233248"/>
    <nd ref="441233297"/>
    <nd ref="441233296"/>
    <nd ref="441233298"/>
    <nd ref="441233183"/>
    <tag k="highway" v="residential"/>
    <tag k="name" v="South Highland Glen Lane"/>
  </way>
  <way id="37638239" version="2" timestamp="2010-04-03T04:15:52Z" uid="20587" user="balrog-kun" changeset="4309442">
    <nd ref="441233188"/>
    <nd ref="441233189"/>
    <tag k="highway" v="residential"/>
    <tag k="name" v="East Amber Lane"/>
  </way>
  <way id="37638240" version="2" timestamp="2010-04-03T04:15:52Z" uid="20587" user="balrog-kun" changeset="4309442">
    <nd ref="441233230"/>
    <nd ref="441233236"/>
    <tag k="highway" v="residential"/>
    <tag k="name" v="South Wade Drive"/>
  </way>
  <way id="37638241" version="2" timestamp="2010-04-03T04:15:52Z" uid="20587" user="balrog-kun" changeset="4309442">
    <nd ref="441233183"/>
    <nd ref="441233184"/>
    <nd ref="441233185"/>
    <nd ref="441233186"/>
    <tag k="highway" v="residential"/>
    <tag k="name" v="South Highland Glen Lane"/>
  </way>
  <way id="37638242" version="2" timestamp="2010-04-03T04:15:52Z" uid="20587" user="balrog-kun" changeset="4309442">
    <nd ref="441233199"/>
    <nd ref="441233255"/>
    <tag k="highway" v="residential"/>
    <tag k="name" v="East Sierra Madre Avenue"/>
  </way>
  <way id="37638243" version="2" timestamp="2010-04-03T04:15:52Z" uid="20587" user="balrog-kun" changeset="4309442">
    <nd ref="441233193"/>
    <nd ref="441233269"/>
    <tag k="highway" v="residential"/>
    <tag k="name" v="East Robin Lane"/>
  </way>
  <way id="37638244" version="2" timestamp="2010-04-03T04:15:52Z" uid="20587" user="balrog-kun" changeset="4309442">
    <nd ref="441233207"/>
    <nd ref="441233194"/>
    <tag k="highway" v="residential"/>
    <tag k="name" v="East Cornstock Drive"/>
  </way>
  <way id="37638245" version="2" timestamp="2010-04-03T04:15:52Z" uid="20587" user="balrog-kun" changeset="4309442">
    <nd ref="441233309"/>
    <nd ref="441233223"/>
    <tag k="highway" v="residential"/>
    <tag k="name" v="South Wade Drive"/>
  </way>
  <way id="37638246" version="2" timestamp="2010-04-03T04:15:52Z" uid="20587" user="balrog-kun" changeset="4309442">
    <nd ref="441233216"/>
    <nd ref="441233217"/>
    <nd ref="441233214"/>
    <nd ref="441233215"/>
    <tag k="highway" v="residential"/>
    <tag k="name" v="South Kennith Lane"/>
  </way>
  <way id="37638247" version="2" timestamp="2010-04-03T04:15:52Z" uid="20587" user="balrog-kun" changeset="4309442">
    <nd ref="441233308"/>
    <nd ref="441233216"/>
    <tag k="highway" v="residential"/>
    <tag k="name" v="East Robin Lane"/>
  </way>
  <way id="37638248" version="2" timestamp="2010-04-03T04:15:52Z" uid="20587" user="balrog-kun" changeset="4309442">
    <nd ref="441233213"/>
    <nd ref="441233212"/>
    <tag k="highway" v="residential"/>
    <tag k="name" v="South Cole Drive"/>
  </way>
  <way id="37638249" version="2" timestamp="2010-04-03T04:15:52Z" uid="20587" user="balrog-kun" changeset="4309442">
    <nd ref="441233197"/>
    <nd ref="441233247"/>
    <tag k="highway" v="residential"/>
    <tag k="name" v="East Marlene Drive"/>
  </way>
  <way id="37638250" version="2" timestamp="2010-04-03T04:15:52Z" uid="20587" user="balrog-kun" changeset="4309442">
    <nd ref="441233210"/>
    <nd ref="441233209"/>
    <tag k="highway" v="residential"/>
    <tag k="name" v="South Arroyo Lane"/>
  </way>
  <way id="37638251" version="2" timestamp="2010-04-03T04:15:52Z" uid="20587" user="balrog-kun" changeset="4309442">
    <nd ref="441233254"/>
    <nd ref="441233315"/>
    <tag k="highway" v="residential"/>
    <tag k="name" v="East Sierra Madre Avenue"/>
  </way>
  <way id="37638252" version="2" timestamp="2010-04-03T04:15:53Z" uid="20587" user="balrog-kun" changeset="4309442">
    <nd ref="441233208"/>
    <nd ref="441233207"/>
    <tag k="highway" v="residential"/>
    <tag k="name" v="South Loback Lane"/>
  </way>
  <way id="37638253" version="2" timestamp="2010-04-03T04:15:53Z" uid="20587" user="balrog-kun" changeset="4309442">
    <nd ref="441233291"/>
    <nd ref="441233316"/>
    <tag k="highway" v="residential"/>
    <tag k="name" v="East Cornstock Drive"/>
  </way>
  <way id="37638254" version="2" timestamp="2010-04-03T04:15:53Z" uid="20587" user="balrog-kun" changeset="4309442">
    <nd ref="441233206"/>
    <nd ref="441233205"/>
    <tag k="highway" v="residential"/>
    <tag k="name" v="East Amber Lane"/>
  </way>
  <way id="37638255" version="2" timestamp="2010-04-03T04:15:53Z" uid="20587" user="balrog-kun" changeset="4309442">
    <nd ref="441233299"/>
    <nd ref="441233300"/>
    <nd ref="441233306"/>
    <nd ref="441233307"/>
    <nd ref="441233304"/>
    <nd ref="441233305"/>
    <nd ref="441233190"/>
    <tag k="highway" v="residential"/>
    <tag k="name" v="South Cole Drive"/>
  </way>
  <way id="37638256" version="2" timestamp="2010-04-03T04:15:53Z" uid="20587" user="balrog-kun" changeset="4309442">
    <nd ref="441233188"/>
    <nd ref="441233204"/>
    <tag k="highway" v="residential"/>
    <tag k="name" v="West Martingale Road"/>
  </way>
  <way id="37638257" version="3" timestamp="2010-04-03T04:15:53Z" uid="20587" user="balrog-kun" changeset="4309442">
    <nd ref="441233302"/>
    <nd ref="441240285"/>
    <tag k="highway" v="residential"/>
    <tag k="name" v="East Cheyenne Street"/>
  </way>
  <way id="37638258" version="2" timestamp="2010-04-03T04:15:53Z" uid="20587" user="balrog-kun" changeset="4309442">
    <nd ref="441233186"/>
    <nd ref="441233203"/>
    <tag k="highway" v="residential"/>
    <tag k="name" v="East Amber Lane"/>
  </way>
  <way id="37638259" version="2" timestamp="2010-04-03T04:15:53Z" uid="20587" user="balrog-kun" changeset="4309442">
    <nd ref="441233228"/>
    <nd ref="441233227"/>
    <tag k="highway" v="residential"/>
    <tag k="name" v="South Bridlegate Drive"/>
  </way>
  <way id="37638260" version="2" timestamp="2010-04-03T04:15:53Z" uid="20587" user="balrog-kun" changeset="4309442">
    <nd ref="441233314"/>
    <nd ref="441233287"/>
    <tag k="highway" v="residential"/>
    <tag k="name" v="South Kennith Lane"/>
  </way>
  <way id="37638261" version="2" timestamp="2010-04-03T04:15:54Z" uid="20587" user="balrog-kun" changeset="4309442">
    <nd ref="441233233"/>
    <nd ref="441233231"/>
    <tag k="highway" v="residential"/>
    <tag k="name" v="East Palo Verde Street"/>
  </way>
  <way id="37638262" version="2" timestamp="2010-04-03T04:15:54Z" uid="20587" user="balrog-kun" changeset="4309442">
    <nd ref="441233194"/>
    <nd ref="441233310"/>
    <tag k="highway" v="residential"/>
    <tag k="name" v="South Highland Glen Lane"/>
  </way>
  <way id="37638263" version="2" timestamp="2010-04-03T04:15:54Z" uid="20587" user="balrog-kun" changeset="4309442">
    <nd ref="441233224"/>
    <nd ref="441233225"/>
    <tag k="highway" v="residential"/>
    <tag k="name" v="South Loback Lane"/>
  </way>
  <way id="37638264" version="2" timestamp="2010-04-03T04:15:54Z" uid="20587" user="balrog-kun" changeset="4309442">
    <nd ref="441233265"/>
    <nd ref="441233227"/>
    <tag k="highway" v="residential"/>
    <tag k="name" v="East Sierra Madre Avenue"/>
  </way>
  <way id="37638265" version="2" timestamp="2010-04-03T04:15:54Z" uid="20587" user="balrog-kun" changeset="4309442">
    <nd ref="441233213"/>
    <nd ref="441233229"/>
    <tag k="highway" v="residential"/>
    <tag k="name" v="East Cornstock Drive"/>
  </way>
  <way id="37638266" version="2" timestamp="2010-04-03T04:15:54Z" uid="20587" user="balrog-kun" changeset="4309442">
    <nd ref="441233315"/>
    <nd ref="441233195"/>
    <tag k="highway" v="residential"/>
    <tag k="name" v="South Farmer Lane"/>
  </way>
  <way id="37638267" version="3" timestamp="2010-04-03T04:15:54Z" uid="20587" user="balrog-kun" changeset="4309442">
    <nd ref="441233220"/>
    <nd ref="441241286"/>
    <nd ref="441241276"/>
    <tag k="highway" v="residential"/>
    <tag k="name" v="East Marlene Drive"/>
  </way>
  <way id="37638268" version="2" timestamp="2010-04-03T04:15:54Z" uid="20587" user="balrog-kun" changeset="4309442">
    <nd ref="441233271"/>
    <nd ref="441233302"/>
    <tag k="highway" v="residential"/>
    <tag k="name" v="South Colt Road"/>
  </way>
  <way id="37638269" version="3" timestamp="2010-04-03T04:15:54Z" uid="20587" user="balrog-kun" changeset="4309442">
    <nd ref="441233218"/>
    <nd ref="441233226"/>
    <nd ref="441241317"/>
    <tag k="highway" v="residential"/>
    <tag k="name" v="East Amber Lane"/>
  </way>
  <way id="37638270" version="2" timestamp="2010-04-03T04:15:54Z" uid="20587" user="balrog-kun" changeset="4309442">
    <nd ref="441233209"/>
    <nd ref="441233213"/>
    <tag k="highway" v="residential"/>
    <tag k="name" v="East Cornstock Drive"/>
  </way>
  <way id="37638271" version="2" timestamp="2010-04-03T04:15:54Z" uid="20587" user="balrog-kun" changeset="4309442">
    <nd ref="441233218"/>
    <nd ref="441233219"/>
    <tag k="highway" v="residential"/>
    <tag k="name" v="South Joshua Tree Lane"/>
  </way>
  <way id="37638273" version="2" timestamp="2010-04-03T04:15:54Z" uid="20587" user="balrog-kun" changeset="4309442">
    <nd ref="441233223"/>
    <nd ref="441233190"/>
    <tag k="highway" v="residential"/>
    <tag k="name" v="East Mesquite Street"/>
  </way>
  <way id="37638274" version="2" timestamp="2010-04-03T04:15:54Z" uid="20587" user="balrog-kun" changeset="4309442">
    <nd ref="441233284"/>
    <nd ref="441233308"/>
    <tag k="highway" v="residential"/>
    <tag k="name" v="South Colt Road"/>
  </way>
  <way id="37638275" version="2" timestamp="2010-04-03T04:15:54Z" uid="20587" user="balrog-kun" changeset="4309442">
    <nd ref="441233212"/>
    <nd ref="441233310"/>
    <tag k="highway" v="residential"/>
    <tag k="name" v="East Weather Vane Road"/>
  </way>
  <way id="37638276" version="2" timestamp="2010-04-03T04:15:54Z" uid="20587" user="balrog-kun" changeset="4309442">
    <nd ref="441233242"/>
    <nd ref="441233243"/>
    <nd ref="441233244"/>
    <nd ref="441233216"/>
    <tag k="highway" v="residential"/>
    <tag k="name" v="South Kennith Lane"/>
  </way>
  <way id="37638277" version="2" timestamp="2010-04-03T04:15:55Z" uid="20587" user="balrog-kun" changeset="4309442">
    <nd ref="441233189"/>
    <nd ref="441233237"/>
    <tag k="highway" v="residential"/>
    <tag k="name" v="South Kennith Lane"/>
  </way>
  <way id="37638278" version="2" timestamp="2010-04-03T04:15:55Z" uid="20587" user="balrog-kun" changeset="4309442">
    <nd ref="441233248"/>
    <nd ref="441233201"/>
    <tag k="highway" v="residential"/>
    <tag k="name" v="East Rawhide Street"/>
  </way>
  <way id="37638279" version="2" timestamp="2010-04-03T04:15:55Z" uid="20587" user="balrog-kun" changeset="4309442">
    <nd ref="441233279"/>
    <nd ref="441233263"/>
    <tag k="highway" v="residential"/>
    <tag k="name" v="East Weather Vane Road"/>
  </way>
  <way id="37638280" version="3" timestamp="2010-04-03T04:15:57Z" uid="20587" user="balrog-kun" changeset="4309442">
    <nd ref="441233200"/>
    <nd ref="441241371"/>
    <nd ref="441241367"/>
    <tag k="highway" v="residential"/>
    <tag k="name" v="East Mesquite Street"/>
  </way>
  <way id="37638281" version="2" timestamp="2010-04-03T04:15:57Z" uid="20587" user="balrog-kun" changeset="4309442">
    <nd ref="441233317"/>
    <nd ref="441233322"/>
    <nd ref="441233323"/>
    <tag k="highway" v="residential"/>
    <tag k="name" v="South Highland Glen Lane"/>
  </way>
  <way id="37638282" version="3" timestamp="2010-04-03T04:15:57Z" uid="20587" user="balrog-kun" changeset="4309442">
    <nd ref="332099869"/>
    <nd ref="441240505"/>
    <nd ref="441233241"/>
    <tag k="highway" v="residential"/>
    <tag k="name" v="East Sierra Madre Avenue"/>
  </way>
  <way id="37638283" version="3" timestamp="2010-04-03T04:15:58Z" uid="20587" user="balrog-kun" changeset="4309442">
    <nd ref="441233212"/>
    <nd ref="441241065"/>
    <nd ref="41191490"/>
    <tag k="highway" v="residential"/>
    <tag k="name" v="South Cole Drive"/>
  </way>
  <way id="37638285" version="3" timestamp="2010-04-03T04:15:58Z" uid="20587" user="balrog-kun" changeset="4309442">
    <nd ref="441233235"/>
    <nd ref="441239545"/>
    <nd ref="441233234"/>
    <tag k="highway" v="residential"/>
    <tag k="name" v="South Cole Drive"/>
  </way>
  <way id="37638286" version="3" timestamp="2010-04-03T04:15:58Z" uid="20587" user="balrog-kun" changeset="4309442">
    <nd ref="332099872"/>
    <nd ref="441233330"/>
    <nd ref="441233329"/>
    <tag k="highway" v="residential"/>
    <tag k="name" v="East Cornstock Drive"/>
  </way>
  <way id="37638287" version="2" timestamp="2010-04-03T04:15:58Z" uid="20587" user="balrog-kun" changeset="4309442">
    <nd ref="441233193"/>
    <nd ref="441233240"/>
    <nd ref="441233239"/>
    <nd ref="441233238"/>
    <nd ref="441233235"/>
    <tag k="highway" v="residential"/>
    <tag k="name" v="South Cole Drive"/>
  </way>
  <way id="37638288" version="2" timestamp="2010-04-03T04:15:58Z" uid="20587" user="balrog-kun" changeset="4309442">
    <nd ref="441233241"/>
    <nd ref="441233329"/>
    <tag k="highway" v="residential"/>
    <tag k="name" v="South Colt Road"/>
  </way>
  <way id="37638289" version="2" timestamp="2010-04-03T04:15:58Z" uid="20587" user="balrog-kun" changeset="4309442">
    <nd ref="441233215"/>
    <nd ref="441233230"/>
    <tag k="highway" v="residential"/>
    <tag k="name" v="East Amber Lane"/>
  </way>
  <way id="37638290" version="2" timestamp="2010-04-03T04:15:58Z" uid="20587" user="balrog-kun" changeset="4309442">
    <nd ref="441233282"/>
    <nd ref="441233290"/>
    <tag k="highway" v="residential"/>
    <tag k="name" v="South Sunnyvale Avenue"/>
  </way>
  <way id="37638291" version="2" timestamp="2010-04-03T04:15:58Z" uid="20587" user="balrog-kun" changeset="4309442">
    <nd ref="441233237"/>
    <nd ref="441233236"/>
    <tag k="highway" v="residential"/>
    <tag k="name" v="East Palo Verde Street"/>
  </way>
  <way id="37638292" version="2" timestamp="2010-04-03T04:15:58Z" uid="20587" user="balrog-kun" changeset="4309442">
    <nd ref="441233210"/>
    <nd ref="441233265"/>
    <tag k="highway" v="residential"/>
    <tag k="name" v="East Sierra Madre Avenue"/>
  </way>
  <way id="37638293" version="3" timestamp="2010-04-03T04:15:58Z" uid="20587" user="balrog-kun" changeset="4309442">
    <nd ref="441233289"/>
    <nd ref="441239547"/>
    <nd ref="441233264"/>
    <tag k="highway" v="residential"/>
    <tag k="name" v="South Highland Glen Lane"/>
  </way>
  <way id="37638294" version="3" timestamp="2010-04-03T04:15:58Z" uid="20587" user="balrog-kun" changeset="4309442">
    <nd ref="441233263"/>
    <nd ref="441233262"/>
    <nd ref="441233259"/>
    <nd ref="441240720"/>
    <tag k="highway" v="residential"/>
    <tag k="name" v="South Kennith Lane"/>
  </way>
  <way id="37638295" version="2" timestamp="2010-04-03T04:15:59Z" uid="20587" user="balrog-kun" changeset="4309442">
    <nd ref="441233316"/>
    <nd ref="441233342"/>
    <tag k="highway" v="residential"/>
    <tag k="name" v="East Cornstock Drive"/>
  </way>
  <way id="37638296" version="3" timestamp="2010-04-03T04:15:59Z" uid="20587" user="balrog-kun" changeset="4309442">
    <nd ref="441233264"/>
    <nd ref="441239766"/>
    <nd ref="441233220"/>
    <tag k="highway" v="residential"/>
    <tag k="name" v="South Highland Glen Lane"/>
  </way>
  <way id="37638297" version="2" timestamp="2010-04-03T04:15:59Z" uid="20587" user="balrog-kun" changeset="4309442">
    <nd ref="441233186"/>
    <nd ref="441233333"/>
    <nd ref="441233334"/>
    <nd ref="441233332"/>
    <nd ref="441233289"/>
    <tag k="highway" v="residential"/>
    <tag k="name" v="South Highland Glen Lane"/>
  </way>
  <way id="37638298" version="2" timestamp="2010-04-03T04:15:59Z" uid="20587" user="balrog-kun" changeset="4309442">
    <nd ref="441233263"/>
    <nd ref="441233212"/>
    <tag k="highway" v="residential"/>
    <tag k="name" v="East Weather Vane Road"/>
  </way>
  <way id="37638300" version="2" timestamp="2010-04-03T04:15:59Z" uid="20587" user="balrog-kun" changeset="4309442">
    <nd ref="441233227"/>
    <nd ref="441233229"/>
    <tag k="highway" v="residential"/>
    <tag k="name" v="South Bridlegate Drive"/>
  </way>
  <way id="37638301" version="2" timestamp="2010-04-03T04:15:59Z" uid="20587" user="balrog-kun" changeset="4309442">
    <nd ref="441233290"/>
    <nd ref="441233199"/>
    <tag k="highway" v="residential"/>
    <tag k="name" v="East Sierra Madre Avenue"/>
  </way>
  <way id="37638302" version="2" timestamp="2010-04-03T04:15:59Z" uid="20587" user="balrog-kun" changeset="4309442">
    <nd ref="441233231"/>
    <nd ref="441233204"/>
    <tag k="highway" v="residential"/>
    <tag k="name" v="East Palo Verde Street"/>
  </way>
  <way id="37638303" version="2" timestamp="2010-04-03T04:15:59Z" uid="20587" user="balrog-kun" changeset="4309442">
    <nd ref="441233278"/>
    <nd ref="441233220"/>
    <tag k="highway" v="residential"/>
    <tag k="name" v="East Marlene Drive"/>
  </way>
  <way id="37638304" version="2" timestamp="2010-04-03T04:15:59Z" uid="20587" user="balrog-kun" changeset="4309442">
    <nd ref="441233254"/>
    <nd ref="441233257"/>
    <nd ref="441233256"/>
    <nd ref="441233250"/>
    <nd ref="441233249"/>
    <nd ref="441233253"/>
    <nd ref="441233252"/>
    <nd ref="441233260"/>
    <nd ref="441233194"/>
    <tag k="highway" v="residential"/>
    <tag k="name" v="South Highland Glen Lane"/>
  </way>
  <way id="37638305" version="2" timestamp="2010-04-03T04:16:00Z" uid="20587" user="balrog-kun" changeset="4309442">
    <nd ref="441233265"/>
    <nd ref="441233353"/>
    <nd ref="441233356"/>
    <nd ref="441233357"/>
    <nd ref="441233354"/>
    <nd ref="441233355"/>
    <nd ref="441233358"/>
    <nd ref="441233360"/>
    <nd ref="441233213"/>
    <tag k="highway" v="residential"/>
    <tag k="name" v="South Cole Drive"/>
  </way>
  <way id="37638306" version="2" timestamp="2010-04-03T04:16:00Z" uid="20587" user="balrog-kun" changeset="4309442">
    <nd ref="441233247"/>
    <nd ref="441233255"/>
    <tag k="highway" v="residential"/>
    <tag k="name" v="South Wade Drive"/>
  </way>
  <way id="37638307" version="2" timestamp="2010-04-03T04:16:00Z" uid="20587" user="balrog-kun" changeset="4309442">
    <nd ref="441233225"/>
    <nd ref="441233289"/>
    <tag k="highway" v="residential"/>
    <tag k="name" v="East Palo Verde Street"/>
  </way>
  <way id="37638308" version="2" timestamp="2010-04-03T04:16:00Z" uid="20587" user="balrog-kun" changeset="4309442">
    <nd ref="441233343"/>
    <nd ref="441233309"/>
    <tag k="highway" v="residential"/>
    <tag k="name" v="East Rawhide Street"/>
  </way>
  <way id="37638309" version="2" timestamp="2010-04-03T04:16:00Z" uid="20587" user="balrog-kun" changeset="4309442">
    <nd ref="441233183"/>
    <nd ref="441233266"/>
    <tag k="highway" v="residential"/>
    <tag k="name" v="East Mesquite Street"/>
  </way>
  <way id="37638310" version="2" timestamp="2010-04-03T04:16:00Z" uid="20587" user="balrog-kun" changeset="4309442">
    <nd ref="441233352"/>
    <nd ref="441233235"/>
    <tag k="highway" v="residential"/>
    <tag k="name" v="East Palo Verde Street"/>
  </way>
  <way id="37638311" version="2" timestamp="2010-04-03T04:16:00Z" uid="20587" user="balrog-kun" changeset="4309442">
    <nd ref="441233200"/>
    <nd ref="441233266"/>
    <tag k="highway" v="residential"/>
    <tag k="name" v="South Joshua Tree Lane"/>
  </way>
  <way id="37638312" version="2" timestamp="2010-04-03T04:16:00Z" uid="20587" user="balrog-kun" changeset="4309442">
    <nd ref="441233295"/>
    <nd ref="441233352"/>
    <tag k="highway" v="residential"/>
    <tag k="name" v="South Arroyo Lane"/>
  </way>
  <way id="37638313" version="3" timestamp="2010-04-03T04:16:00Z" uid="20587" user="balrog-kun" changeset="4309442">
    <nd ref="332099864"/>
    <nd ref="441240193"/>
    <nd ref="441233271"/>
    <tag k="highway" v="residential"/>
    <tag k="name" v="East Marlene Drive"/>
  </way>
  <way id="37638314" version="2" timestamp="2010-04-03T04:16:00Z" uid="20587" user="balrog-kun" changeset="4309442">
    <nd ref="441233199"/>
    <nd ref="441233347"/>
    <nd ref="441233346"/>
    <nd ref="441233345"/>
    <nd ref="441233344"/>
    <nd ref="441233351"/>
    <nd ref="441233350"/>
    <nd ref="441233348"/>
    <nd ref="441233316"/>
    <tag k="highway" v="residential"/>
    <tag k="name" v="South Kennith Lane"/>
  </way>
  <way id="37638315" version="3" timestamp="2010-04-03T04:16:00Z" uid="20587" user="balrog-kun" changeset="4309442">
    <nd ref="441233237"/>
    <nd ref="441239542"/>
    <nd ref="441233196"/>
    <tag k="highway" v="residential"/>
    <tag k="name" v="South Kennith Lane"/>
  </way>
  <way id="37638316" version="3" timestamp="2010-04-03T04:16:01Z" uid="20587" user="balrog-kun" changeset="4309442">
    <nd ref="441233310"/>
    <nd ref="441233361"/>
    <nd ref="441233362"/>
    <nd ref="441241199"/>
    <tag k="highway" v="residential"/>
    <tag k="name" v="South Highland Glen Lane"/>
  </way>
  <way id="37638318" version="2" timestamp="2010-04-03T04:16:01Z" uid="20587" user="balrog-kun" changeset="4309442">
    <nd ref="441233316"/>
    <nd ref="441233263"/>
    <tag k="highway" v="residential"/>
    <tag k="name" v="South Kennith Lane"/>
  </way>
  <way id="37638319" version="2" timestamp="2010-04-03T04:16:01Z" uid="20587" user="balrog-kun" changeset="4309442">
    <nd ref="441233206"/>
    <nd ref="441233233"/>
    <tag k="highway" v="residential"/>
    <tag k="name" v="South Colt Road"/>
  </way>
  <way id="37638320" version="2" timestamp="2010-04-03T04:16:01Z" uid="20587" user="balrog-kun" changeset="4309442">
    <nd ref="441233215"/>
    <nd ref="441233189"/>
    <tag k="highway" v="residential"/>
    <tag k="name" v="South Kennith Lane"/>
  </way>
  <way id="37638321" version="2" timestamp="2010-04-03T04:16:01Z" uid="20587" user="balrog-kun" changeset="4309442">
    <nd ref="441233235"/>
    <nd ref="441233267"/>
    <tag k="highway" v="residential"/>
    <tag k="name" v="East Palo Verde Street"/>
  </way>
  <way id="37638322" version="3" timestamp="2010-04-03T04:16:01Z" uid="20587" user="balrog-kun" changeset="4309442">
    <nd ref="441233234"/>
    <nd ref="441239769"/>
    <nd ref="441233270"/>
    <tag k="highway" v="residential"/>
    <tag k="name" v="South Cole Drive"/>
  </way>
  <way id="37638323" version="2" timestamp="2010-04-03T04:16:01Z" uid="20587" user="balrog-kun" changeset="4309442">
    <nd ref="441233269"/>
    <nd ref="441233267"/>
    <tag k="highway" v="residential"/>
    <tag k="name" v="South Bridlegate Drive"/>
  </way>
  <way id="37638324" version="2" timestamp="2010-04-03T04:16:01Z" uid="20587" user="balrog-kun" changeset="4309442">
    <nd ref="441233274"/>
    <nd ref="441233183"/>
    <tag k="highway" v="residential"/>
    <tag k="name" v="East Mesquite Street"/>
  </way>
  <way id="37638325" version="2" timestamp="2010-04-03T04:16:01Z" uid="20587" user="balrog-kun" changeset="4309442">
    <nd ref="441233287"/>
    <nd ref="441233364"/>
    <nd ref="441233242"/>
    <tag k="highway" v="residential"/>
    <tag k="name" v="South Kennith Lane"/>
  </way>
  <way id="37638326" version="2" timestamp="2010-04-03T04:16:01Z" uid="20587" user="balrog-kun" changeset="4309442">
    <nd ref="441233282"/>
    <nd ref="441233197"/>
    <tag k="highway" v="residential"/>
    <tag k="name" v="East Marlene Drive"/>
  </way>
  <way id="37638327" version="2" timestamp="2010-04-03T04:16:01Z" uid="20587" user="balrog-kun" changeset="4309442">
    <nd ref="441233255"/>
    <nd ref="441233342"/>
    <tag k="highway" v="residential"/>
    <tag k="name" v="South Wade Drive"/>
  </way>
  <way id="37638328" version="2" timestamp="2010-04-03T04:16:02Z" uid="20587" user="balrog-kun" changeset="4309442">
    <nd ref="441233284"/>
    <nd ref="441233286"/>
    <nd ref="441233285"/>
    <nd ref="441233287"/>
    <tag k="highway" v="residential"/>
    <tag k="name" v="East Mesquite Street"/>
  </way>
  <way id="37638329" version="2" timestamp="2010-04-03T04:16:02Z" uid="20587" user="balrog-kun" changeset="4309442">
    <nd ref="441233365"/>
    <nd ref="441233366"/>
    <nd ref="441233314"/>
    <tag k="highway" v="residential"/>
    <tag k="name" v="South Kennith Lane"/>
  </way>
  <way id="37638330" version="2" timestamp="2010-04-03T04:16:02Z" uid="20587" user="balrog-kun" changeset="4309442">
    <nd ref="441233208"/>
    <nd ref="441233254"/>
    <tag k="highway" v="residential"/>
    <tag k="name" v="East Sierra Madre Avenue"/>
  </way>
  <way id="37638331" version="2" timestamp="2010-04-03T04:16:02Z" uid="20587" user="balrog-kun" changeset="4309442">
    <nd ref="441233270"/>
    <nd ref="441233228"/>
    <tag k="highway" v="residential"/>
    <tag k="name" v="East Marlene Drive"/>
  </way>
  <way id="37638332" version="2" timestamp="2010-04-03T04:16:02Z" uid="20587" user="balrog-kun" changeset="4309442">
    <nd ref="441233203"/>
    <nd ref="441233218"/>
    <tag k="highway" v="residential"/>
    <tag k="name" v="South Joshua Tree Lane"/>
  </way>
  <way id="37638333" version="2" timestamp="2010-04-03T04:16:02Z" uid="20587" user="balrog-kun" changeset="4309442">
    <nd ref="441233278"/>
    <nd ref="441233208"/>
    <tag k="highway" v="residential"/>
    <tag k="name" v="South Loback Lane"/>
  </way>
  <way id="37638335" version="5" timestamp="2010-04-03T04:16:02Z" uid="20587" user="balrog-kun" changeset="4309442">
    <nd ref="441233231"/>
    <nd ref="441239544"/>
    <nd ref="441233294"/>
    <nd ref="441239976"/>
    <tag k="highway" v="residential"/>
    <tag k="name" v="South Sunnyvale Avenue"/>
  </way>
  <way id="37638336" version="2" timestamp="2010-04-03T04:16:02Z" uid="20587" user="balrog-kun" changeset="4309442">
    <nd ref="441233295"/>
    <nd ref="441233193"/>
    <tag k="highway" v="residential"/>
    <tag k="name" v="East Robin Lane"/>
  </way>
  <way id="37638337" version="2" timestamp="2010-04-03T04:16:02Z" uid="20587" user="balrog-kun" changeset="4309442">
    <nd ref="441233224"/>
    <nd ref="441233186"/>
    <tag k="highway" v="residential"/>
    <tag k="name" v="East Amber Lane"/>
  </way>
  <way id="37638338" version="2" timestamp="2010-04-03T04:16:02Z" uid="20587" user="balrog-kun" changeset="4309442">
    <nd ref="441233223"/>
    <nd ref="441233288"/>
    <tag k="highway" v="residential"/>
    <tag k="name" v="South Wade Drive"/>
  </way>
  <way id="37638339" version="3" timestamp="2010-04-03T04:16:02Z" uid="20587" user="balrog-kun" changeset="4309442">
    <nd ref="441233279"/>
    <nd ref="441240602"/>
    <tag k="highway" v="residential"/>
    <tag k="name" v="South Colt Road"/>
  </way>
  <way id="37638340" version="2" timestamp="2010-04-03T04:16:02Z" uid="20587" user="balrog-kun" changeset="4309442">
    <nd ref="441233270"/>
    <nd ref="441233265"/>
    <tag k="highway" v="residential"/>
    <tag k="name" v="South Cole Drive"/>
  </way>
  <way id="37638341" version="2" timestamp="2010-04-03T04:16:02Z" uid="20587" user="balrog-kun" changeset="4309442">
    <nd ref="441233290"/>
    <nd ref="441233291"/>
    <tag k="highway" v="residential"/>
    <tag k="name" v="South Sunnyvale Avenue"/>
  </way>
  <way id="37638342" version="2" timestamp="2010-04-03T04:16:02Z" uid="20587" user="balrog-kun" changeset="4309442">
    <nd ref="441233292"/>
    <nd ref="441233270"/>
    <tag k="highway" v="residential"/>
    <tag k="name" v="East Marlene Drive"/>
  </way>
  <way id="37638537" version="2" timestamp="2010-04-03T04:16:02Z" uid="20587" user="balrog-kun" changeset="4309442">
    <nd ref="441237951"/>
    <nd ref="441237999"/>
    <nd ref="441237997"/>
    <nd ref="441237998"/>
    <nd ref="441237995"/>
    <nd ref="441237870"/>
    <tag k="highway" v="residential"/>
    <tag k="name" v="North Beebe Street"/>
  </way>
  <way id="37638538" version="3" timestamp="2010-04-03T04:16:03Z" uid="20587" user="balrog-kun" changeset="4309442">
    <nd ref="441237714"/>
    <nd ref="441237715"/>
    <nd ref="441237709"/>
    <nd ref="441237712"/>
    <nd ref="441237718"/>
    <nd ref="441237721"/>
    <nd ref="441237716"/>
    <nd ref="441237717"/>
    <nd ref="441237724"/>
    <nd ref="441237725"/>
    <nd ref="441237723"/>
    <nd ref="598329809"/>
    <nd ref="441237662"/>
    <tag k="highway" v="residential"/>
    <tag k="name" v="East Vaughn Avenue"/>
  </way>
  <way id="37638539" version="2" timestamp="2010-04-03T04:16:03Z" uid="20587" user="balrog-kun" changeset="4309442">
    <nd ref="441237972"/>
    <nd ref="441238000"/>
    <nd ref="441238001"/>
    <tag k="highway" v="residential"/>
    <tag k="name" v="East Washington Avenue"/>
  </way>
  <way id="37638540" version="2" timestamp="2010-04-03T04:16:03Z" uid="20587" user="balrog-kun" changeset="4309442">
    <nd ref="441237691"/>
    <nd ref="441237696"/>
    <nd ref="441237694"/>
    <nd ref="441237698"/>
    <nd ref="441237697"/>
    <nd ref="441237700"/>
    <nd ref="441237699"/>
    <nd ref="441237705"/>
    <nd ref="441237707"/>
    <nd ref="441237702"/>
    <nd ref="441237703"/>
    <tag k="highway" v="residential"/>
    <tag k="name" v="North Hawk Lane"/>
  </way>
  <way id="37638541" version="3" timestamp="2010-04-03T04:16:03Z" uid="20587" user="balrog-kun" changeset="4309442">
    <nd ref="441241870"/>
    <nd ref="441238141"/>
    <nd ref="441238142"/>
    <nd ref="441237821"/>
    <tag k="highway" v="residential"/>
    <tag k="name" v="East Linda Lane"/>
  </way>
  <way id="37638542" version="3" timestamp="2010-04-03T04:16:03Z" uid="20587" user="balrog-kun" changeset="4309442">
    <nd ref="441241642"/>
    <nd ref="441237989"/>
    <nd ref="441237991"/>
    <tag k="highway" v="residential"/>
    <tag k="name" v="North Beebe Street"/>
  </way>
  <way id="37638543" version="2" timestamp="2010-04-03T04:16:03Z" uid="20587" user="balrog-kun" changeset="4309442">
    <nd ref="441237689"/>
    <nd ref="441237693"/>
    <tag k="highway" v="residential"/>
    <tag k="name" v="North Sabino Drive"/>
  </way>
  <way id="37638544" version="2" timestamp="2010-04-03T04:16:03Z" uid="20587" user="balrog-kun" changeset="4309442">
    <nd ref="441238146"/>
    <nd ref="441238147"/>
    <nd ref="441238144"/>
    <nd ref="441238145"/>
    <nd ref="441237953"/>
    <tag k="highway" v="residential"/>
    <tag k="name" v="East Page Avenue"/>
  </way>
  <way id="37638545" version="2" timestamp="2010-04-03T04:16:03Z" uid="20587" user="balrog-kun" changeset="4309442">
    <nd ref="441237993"/>
    <nd ref="441237994"/>
    <nd ref="441237991"/>
    <tag k="highway" v="residential"/>
    <tag k="name" v="East Cotton Lane"/>
  </way>
  <way id="37638546" version="2" timestamp="2010-04-03T04:16:04Z" uid="20587" user="balrog-kun" changeset="4309442">
    <nd ref="441237661"/>
    <nd ref="441237687"/>
    <nd ref="441237686"/>
    <nd ref="441237690"/>
    <tag k="highway" v="residential"/>
    <tag k="name" v="East Page Avenue"/>
  </way>
  <way id="37638547" version="3" timestamp="2010-04-03T04:16:04Z" uid="20587" user="balrog-kun" changeset="4309442">
    <nd ref="441238153"/>
    <nd ref="441238158"/>
    <nd ref="441238157"/>
    <nd ref="441237855"/>
    <tag k="highway" v="residential"/>
    <tag k="name" v="East Cullumber Street"/>
  </way>
  <way id="37638548" version="2" timestamp="2010-04-03T04:16:04Z" uid="20587" user="balrog-kun" changeset="4309442">
    <nd ref="441237670"/>
    <nd ref="441237672"/>
    <nd ref="441237673"/>
    <nd ref="441237674"/>
    <nd ref="441237675"/>
    <nd ref="441237676"/>
    <nd ref="441237677"/>
    <nd ref="441237678"/>
    <nd ref="441237679"/>
    <nd ref="441237683"/>
    <nd ref="441237682"/>
    <nd ref="441237684"/>
    <tag k="highway" v="residential"/>
    <tag k="name" v="East Page Avenue"/>
  </way>
  <way id="37638549" version="2" timestamp="2010-04-03T04:16:04Z" uid="20587" user="balrog-kun" changeset="4309442">
    <nd ref="441237956"/>
    <nd ref="441237957"/>
    <nd ref="441237986"/>
    <nd ref="441237984"/>
    <nd ref="441237983"/>
    <nd ref="441237982"/>
    <nd ref="441237981"/>
    <nd ref="441237979"/>
    <nd ref="441237977"/>
    <nd ref="441237976"/>
    <nd ref="441237975"/>
    <nd ref="441237974"/>
    <nd ref="441237760"/>
    <tag k="highway" v="residential"/>
    <tag k="name" v="East Linda Lane"/>
  </way>
  <way id="37638550" version="2" timestamp="2010-04-03T04:16:04Z" uid="20587" user="balrog-kun" changeset="4309442">
    <nd ref="441237667"/>
    <nd ref="441237668"/>
    <tag k="highway" v="residential"/>
    <tag k="name" v="North Sabino Drive"/>
  </way>
  <way id="37638551" version="2" timestamp="2010-04-03T04:16:04Z" uid="20587" user="balrog-kun" changeset="4309442">
    <nd ref="441237970"/>
    <nd ref="441237971"/>
    <nd ref="441237963"/>
    <nd ref="441237964"/>
    <nd ref="441237966"/>
    <nd ref="441237969"/>
    <nd ref="441237958"/>
    <nd ref="441237959"/>
    <nd ref="441237960"/>
    <nd ref="441237962"/>
    <nd ref="441237952"/>
    <nd ref="441237953"/>
    <tag k="highway" v="residential"/>
    <tag k="name" v="North Olympic Drive"/>
  </way>
  <way id="37638552" version="2" timestamp="2010-04-03T04:16:04Z" uid="20587" user="balrog-kun" changeset="4309442">
    <nd ref="441237663"/>
    <nd ref="441237665"/>
    <nd ref="441237666"/>
    <tag k="highway" v="residential"/>
    <tag k="name" v="East Cullumber Street"/>
  </way>
  <way id="37638553" version="2" timestamp="2010-04-03T04:16:05Z" uid="20587" user="balrog-kun" changeset="4309442">
    <nd ref="441237666"/>
    <nd ref="441237903"/>
    <tag k="highway" v="residential"/>
    <tag k="name" v="North Beebe Street"/>
  </way>
  <way id="37638554" version="2" timestamp="2010-04-03T04:16:05Z" uid="20587" user="balrog-kun" changeset="4309442">
    <nd ref="441237661"/>
    <nd ref="441237662"/>
    <tag k="highway" v="residential"/>
    <tag k="name" v="North Sabino Drive"/>
  </way>
  <way id="37638555" version="2" timestamp="2010-04-03T04:16:05Z" uid="20587" user="balrog-kun" changeset="4309442">
    <nd ref="441237782"/>
    <nd ref="441237865"/>
    <tag k="highway" v="residential"/>
    <tag k="name" v="East Cullumber Street"/>
  </way>
  <way id="37638556" version="2" timestamp="2010-04-03T04:16:05Z" uid="20587" user="balrog-kun" changeset="4309442">
    <nd ref="441237863"/>
    <nd ref="441237907"/>
    <tag k="highway" v="residential"/>
    <tag k="name" v="East Lexington Avenue"/>
  </way>
  <way id="37638557" version="2" timestamp="2010-04-03T04:16:05Z" uid="20587" user="balrog-kun" changeset="4309442">
    <nd ref="441237690"/>
    <nd ref="441237670"/>
    <tag k="highway" v="residential"/>
    <tag k="name" v="North Beebe Street"/>
  </way>
  <way id="37638558" version="2" timestamp="2010-04-03T04:16:05Z" uid="20587" user="balrog-kun" changeset="4309442">
    <nd ref="441237991"/>
    <nd ref="441237934"/>
    <tag k="highway" v="residential"/>
    <tag k="name" v="North Beebe Street"/>
  </way>
  <way id="37638559" version="2" timestamp="2010-04-03T04:16:05Z" uid="20587" user="balrog-kun" changeset="4309442">
    <nd ref="441237667"/>
    <nd ref="441237777"/>
    <nd ref="441237774"/>
    <tag k="highway" v="residential"/>
    <tag k="name" v="East Bruce Avenue"/>
  </way>
  <way id="37638560" version="2" timestamp="2010-04-03T04:16:05Z" uid="20587" user="balrog-kun" changeset="4309442">
    <nd ref="441237865"/>
    <nd ref="441238008"/>
    <nd ref="441238006"/>
    <nd ref="441238005"/>
    <nd ref="441238004"/>
    <nd ref="441238014"/>
    <nd ref="441238012"/>
    <nd ref="441238010"/>
    <nd ref="441238009"/>
    <nd ref="441238019"/>
    <nd ref="441238018"/>
    <nd ref="441238017"/>
    <nd ref="441238016"/>
    <nd ref="441237949"/>
    <tag k="highway" v="residential"/>
    <tag k="name" v="East Cullumber Street"/>
  </way>
  <way id="37638561" version="2" timestamp="2010-04-03T04:16:05Z" uid="20587" user="balrog-kun" changeset="4309442">
    <nd ref="441237782"/>
    <nd ref="441237666"/>
    <tag k="highway" v="residential"/>
    <tag k="name" v="North Beebe Street"/>
  </way>
  <way id="37638562" version="2" timestamp="2010-04-03T04:16:05Z" uid="20587" user="balrog-kun" changeset="4309442">
    <nd ref="441237755"/>
    <nd ref="441238003"/>
    <tag k="highway" v="residential"/>
    <tag k="name" v="East Park Avenue"/>
  </way>
  <way id="37638563" version="2" timestamp="2010-04-03T04:16:05Z" uid="20587" user="balrog-kun" changeset="4309442">
    <nd ref="441237668"/>
    <nd ref="441237689"/>
    <tag k="highway" v="residential"/>
    <tag k="name" v="North Sabino Drive"/>
  </way>
  <way id="37638564" version="2" timestamp="2010-04-03T04:16:06Z" uid="20587" user="balrog-kun" changeset="4309442">
    <nd ref="441237760"/>
    <nd ref="441237763"/>
    <nd ref="441237765"/>
    <nd ref="441237779"/>
    <tag k="highway" v="residential"/>
    <tag k="name" v="East Linda Lane"/>
  </way>
  <way id="37638565" version="2" timestamp="2010-04-03T04:16:06Z" uid="20587" user="balrog-kun" changeset="4309442">
    <nd ref="441237759"/>
    <nd ref="441237972"/>
    <tag k="highway" v="residential"/>
    <tag k="name" v="North Sabino Drive"/>
  </way>
  <way id="37638566" version="2" timestamp="2010-04-03T04:16:06Z" uid="20587" user="balrog-kun" changeset="4309442">
    <nd ref="441237691"/>
    <nd ref="441237756"/>
    <nd ref="441237758"/>
    <nd ref="441237751"/>
    <nd ref="441237752"/>
    <nd ref="441237753"/>
    <nd ref="441237754"/>
    <nd ref="441237767"/>
    <nd ref="441237768"/>
    <nd ref="441237770"/>
    <nd ref="441237773"/>
    <nd ref="441237759"/>
    <tag k="highway" v="residential"/>
    <tag k="name" v="East Cotton Lane"/>
  </way>
  <way id="37638567" version="2" timestamp="2010-04-03T04:16:06Z" uid="20587" user="balrog-kun" changeset="4309442">
    <nd ref="441237987"/>
    <nd ref="441237988"/>
    <nd ref="441238023"/>
    <nd ref="441238024"/>
    <nd ref="441238021"/>
    <nd ref="441238022"/>
    <nd ref="441238031"/>
    <nd ref="441238033"/>
    <nd ref="441237689"/>
    <tag k="highway" v="residential"/>
    <tag k="name" v="East Cullumber Street"/>
  </way>
  <way id="37638568" version="2" timestamp="2010-04-03T04:16:06Z" uid="20587" user="balrog-kun" changeset="4309442">
    <nd ref="441237668"/>
    <nd ref="441237749"/>
    <nd ref="441237748"/>
    <nd ref="441237755"/>
    <tag k="highway" v="residential"/>
    <tag k="name" v="East Park Avenue"/>
  </way>
  <way id="37638569" version="2" timestamp="2010-04-03T04:16:06Z" uid="20587" user="balrog-kun" changeset="4309442">
    <nd ref="441237755"/>
    <nd ref="441237782"/>
    <tag k="highway" v="residential"/>
    <tag k="name" v="North Beebe Street"/>
  </way>
  <way id="37638570" version="2" timestamp="2010-04-03T04:16:06Z" uid="20587" user="balrog-kun" changeset="4309442">
    <nd ref="441237730"/>
    <nd ref="441237729"/>
    <nd ref="441237727"/>
    <nd ref="441237726"/>
    <nd ref="441237741"/>
    <nd ref="441237738"/>
    <nd ref="441237735"/>
    <nd ref="441237731"/>
    <nd ref="441237746"/>
    <nd ref="441237745"/>
    <nd ref="441237744"/>
    <nd ref="441237742"/>
    <nd ref="441237667"/>
    <tag k="highway" v="residential"/>
    <tag k="name" v="East Bruce Avenue"/>
  </way>
  <way id="37638571" version="2" timestamp="2010-04-03T04:16:06Z" uid="20587" user="balrog-kun" changeset="4309442">
    <nd ref="441237903"/>
    <nd ref="441237951"/>
    <tag k="highway" v="residential"/>
    <tag k="name" v="North Beebe Street"/>
  </way>
  <way id="37638572" version="2" timestamp="2010-04-03T04:16:06Z" uid="20587" user="balrog-kun" changeset="4309442">
    <nd ref="441237866"/>
    <nd ref="441238045"/>
    <nd ref="441238048"/>
    <nd ref="441238047"/>
    <nd ref="441238050"/>
    <nd ref="441238049"/>
    <nd ref="441238095"/>
    <nd ref="441238097"/>
    <nd ref="441238093"/>
    <nd ref="441238094"/>
    <nd ref="441238090"/>
    <nd ref="441238092"/>
    <nd ref="441237693"/>
    <tag k="highway" v="residential"/>
    <tag k="name" v="East Lexington Avenue"/>
  </way>
  <way id="37638574" version="2" timestamp="2010-04-03T04:16:07Z" uid="20587" user="balrog-kun" changeset="4309442">
    <nd ref="441237870"/>
    <nd ref="441237881"/>
    <nd ref="441237883"/>
    <nd ref="441237884"/>
    <nd ref="441237910"/>
    <nd ref="441237908"/>
    <nd ref="441237690"/>
    <tag k="highway" v="residential"/>
    <tag k="name" v="North Beebe Street"/>
  </way>
  <way id="37638575" version="2" timestamp="2010-04-03T04:16:07Z" uid="20587" user="balrog-kun" changeset="4309442">
    <nd ref="441237703"/>
    <nd ref="441237972"/>
    <tag k="highway" v="residential"/>
    <tag k="name" v="East Washington Avenue"/>
  </way>
  <way id="37638576" version="2" timestamp="2010-04-03T04:16:07Z" uid="20587" user="balrog-kun" changeset="4309442">
    <nd ref="441237907"/>
    <nd ref="441237915"/>
    <nd ref="441237914"/>
    <nd ref="441237912"/>
    <nd ref="441237911"/>
    <nd ref="441237902"/>
    <nd ref="441237900"/>
    <nd ref="441237899"/>
    <nd ref="441237898"/>
    <nd ref="441237906"/>
    <nd ref="441237861"/>
    <tag k="highway" v="residential"/>
    <tag k="name" v="North Owl Drive"/>
  </way>
  <way id="37638579" version="2" timestamp="2010-04-03T04:16:07Z" uid="20587" user="balrog-kun" changeset="4309442">
    <nd ref="441237689"/>
    <nd ref="441238099"/>
    <nd ref="441238102"/>
    <tag k="highway" v="residential"/>
    <tag k="name" v="East Cullumber Street"/>
  </way>
  <way id="37638580" version="2" timestamp="2010-04-03T04:16:07Z" uid="20587" user="balrog-kun" changeset="4309442">
    <nd ref="441237865"/>
    <nd ref="441237863"/>
    <tag k="highway" v="residential"/>
    <tag k="name" v="North Heron Lane"/>
  </way>
  <way id="37638581" version="2" timestamp="2010-04-03T04:16:07Z" uid="20587" user="balrog-kun" changeset="4309442">
    <nd ref="441237931"/>
    <nd ref="441237755"/>
    <tag k="highway" v="residential"/>
    <tag k="name" v="North Beebe Street"/>
  </way>
  <way id="37638582" version="2" timestamp="2010-04-03T04:16:07Z" uid="20587" user="balrog-kun" changeset="4309442">
    <nd ref="441237693"/>
    <nd ref="441237886"/>
    <nd ref="441237889"/>
    <nd ref="441237890"/>
    <nd ref="441237892"/>
    <nd ref="441237894"/>
    <nd ref="441237895"/>
    <nd ref="441237897"/>
    <nd ref="441237877"/>
    <nd ref="441237879"/>
    <nd ref="441237880"/>
    <nd ref="441237661"/>
    <tag k="highway" v="residential"/>
    <tag k="name" v="North Sabino Drive"/>
  </way>
  <way id="37638583" version="2" timestamp="2010-04-03T04:16:07Z" uid="20587" user="balrog-kun" changeset="4309442">
    <nd ref="441237855"/>
    <nd ref="441237854"/>
    <nd ref="441237852"/>
    <nd ref="441237851"/>
    <nd ref="441237849"/>
    <nd ref="441237848"/>
    <nd ref="441237847"/>
    <nd ref="441237846"/>
    <nd ref="441237868"/>
    <nd ref="441237866"/>
    <tag k="highway" v="residential"/>
    <tag k="name" v="North Olympic Drive"/>
  </way>
  <way id="37638584" version="2" timestamp="2010-04-03T04:16:07Z" uid="20587" user="balrog-kun" changeset="4309442">
    <nd ref="441237987"/>
    <nd ref="441238052"/>
    <nd ref="441238053"/>
    <nd ref="441238060"/>
    <nd ref="441238062"/>
    <nd ref="441238064"/>
    <nd ref="441238066"/>
    <nd ref="441238068"/>
    <nd ref="441237855"/>
    <tag k="highway" v="residential"/>
    <tag k="name" v="North Olympic Drive"/>
  </way>
  <way id="37638585" version="2" timestamp="2010-04-03T04:16:07Z" uid="20587" user="balrog-kun" changeset="4309442">
    <nd ref="441237870"/>
    <nd ref="441237869"/>
    <nd ref="441237873"/>
    <nd ref="441237871"/>
    <nd ref="441237875"/>
    <nd ref="441237874"/>
    <nd ref="441237857"/>
    <nd ref="441237856"/>
    <nd ref="441237860"/>
    <nd ref="441237858"/>
    <nd ref="441237862"/>
    <nd ref="441237861"/>
    <tag k="highway" v="residential"/>
    <tag k="name" v="East Foundation Street"/>
  </way>
  <way id="37638586" version="2" timestamp="2010-04-03T04:16:07Z" uid="20587" user="balrog-kun" changeset="4309442">
    <nd ref="441237662"/>
    <nd ref="441237936"/>
    <tag k="highway" v="residential"/>
    <tag k="name" v="East Vaughn Avenue"/>
  </way>
  <way id="37638587" version="2" timestamp="2010-04-03T04:16:07Z" uid="20587" user="balrog-kun" changeset="4309442">
    <nd ref="441237684"/>
    <nd ref="441237790"/>
    <nd ref="441237784"/>
    <nd ref="441237783"/>
    <nd ref="441237788"/>
    <nd ref="441237785"/>
    <nd ref="441237818"/>
    <nd ref="441237820"/>
    <nd ref="441237812"/>
    <nd ref="441237815"/>
    <nd ref="441237798"/>
    <nd ref="441237807"/>
    <nd ref="441237792"/>
    <nd ref="441237795"/>
    <nd ref="441237834"/>
    <nd ref="441237835"/>
    <nd ref="441237831"/>
    <nd ref="441237832"/>
    <nd ref="441237824"/>
    <nd ref="441237827"/>
    <tag k="highway" v="residential"/>
    <tag k="name" v="North Owl Drive"/>
  </way>
  <way id="37638588" version="2" timestamp="2010-04-03T04:16:08Z" uid="20587" user="balrog-kun" changeset="4309442">
    <nd ref="441238069"/>
    <nd ref="441238071"/>
    <nd ref="441237931"/>
    <tag k="highway" v="residential"/>
    <tag k="name" v="East Bruce Avenue"/>
  </way>
  <way id="37638589" version="2" timestamp="2010-04-03T04:16:08Z" uid="20587" user="balrog-kun" changeset="4309442">
    <nd ref="441237821"/>
    <nd ref="441237823"/>
    <nd ref="441237845"/>
    <nd ref="441237843"/>
    <nd ref="441237842"/>
    <nd ref="441237840"/>
    <nd ref="441237839"/>
    <nd ref="441237838"/>
    <nd ref="441237837"/>
    <nd ref="441237730"/>
    <tag k="highway" v="residential"/>
    <tag k="name" v="North Olympic Drive"/>
  </way>
  <way id="37638591" version="2" timestamp="2010-04-03T04:16:08Z" uid="20587" user="balrog-kun" changeset="4309442">
    <nd ref="441237953"/>
    <nd ref="441238035"/>
    <nd ref="441238034"/>
    <nd ref="441238037"/>
    <nd ref="441238036"/>
    <nd ref="441238040"/>
    <nd ref="441238039"/>
    <nd ref="441238043"/>
    <nd ref="441238041"/>
    <nd ref="441238044"/>
    <nd ref="441237714"/>
    <tag k="highway" v="residential"/>
    <tag k="name" v="North Olympic Drive"/>
  </way>
  <way id="37638592" version="3" timestamp="2010-04-03T04:16:08Z" uid="20587" user="balrog-kun" changeset="4309442">
    <nd ref="441241667"/>
    <nd ref="441238140"/>
    <nd ref="441237759"/>
    <tag k="highway" v="residential"/>
    <tag k="name" v="North Sabino Drive"/>
  </way>
  <way id="37638593" version="2" timestamp="2010-04-03T04:16:08Z" uid="20587" user="balrog-kun" changeset="4309442">
    <nd ref="441237949"/>
    <nd ref="441237943"/>
    <nd ref="441237941"/>
    <nd ref="441237946"/>
    <nd ref="441237944"/>
    <nd ref="441237938"/>
    <nd ref="441237937"/>
    <nd ref="441237939"/>
    <nd ref="441237907"/>
    <tag k="highway" v="residential"/>
    <tag k="name" v="North Owl Drive"/>
  </way>
  <way id="37638594" version="2" timestamp="2010-04-03T04:16:08Z" uid="20587" user="balrog-kun" changeset="4309442">
    <nd ref="441237956"/>
    <nd ref="441238135"/>
    <nd ref="441238136"/>
    <nd ref="441238107"/>
    <nd ref="441238106"/>
    <nd ref="441238110"/>
    <nd ref="441238109"/>
    <nd ref="441238104"/>
    <nd ref="441238103"/>
    <nd ref="441237821"/>
    <tag k="highway" v="residential"/>
    <tag k="name" v="North Olympic Drive"/>
  </way>
  <way id="37638595" version="2" timestamp="2010-04-03T04:16:08Z" uid="20587" user="balrog-kun" changeset="4309442">
    <nd ref="441237670"/>
    <nd ref="441237936"/>
    <tag k="highway" v="residential"/>
    <tag k="name" v="North Beebe Street"/>
  </way>
  <way id="37638596" version="2" timestamp="2010-04-03T04:16:08Z" uid="20587" user="balrog-kun" changeset="4309442">
    <nd ref="441237972"/>
    <nd ref="441238119"/>
    <nd ref="441238117"/>
    <nd ref="441238122"/>
    <nd ref="441238120"/>
    <nd ref="441238113"/>
    <nd ref="441238112"/>
    <nd ref="441238116"/>
    <nd ref="441238115"/>
    <nd ref="441238163"/>
    <nd ref="441238160"/>
    <nd ref="441237760"/>
    <tag k="highway" v="residential"/>
    <tag k="name" v="North Sabino Drive"/>
  </way>
  <way id="37638597" version="2" timestamp="2010-04-03T04:16:09Z" uid="20587" user="balrog-kun" changeset="4309442">
    <nd ref="441237760"/>
    <nd ref="441237667"/>
    <tag k="highway" v="residential"/>
    <tag k="name" v="North Sabino Drive"/>
  </way>
  <way id="37638598" version="3" timestamp="2010-04-03T04:16:09Z" uid="20587" user="balrog-kun" changeset="4309442">
    <nd ref="441241912"/>
    <nd ref="441238165"/>
    <nd ref="441238164"/>
    <nd ref="441237668"/>
    <tag k="highway" v="residential"/>
    <tag k="name" v="East Park Avenue"/>
  </way>
  <way id="37638599" version="2" timestamp="2010-04-03T04:16:09Z" uid="20587" user="balrog-kun" changeset="4309442">
    <nd ref="441237693"/>
    <nd ref="441237948"/>
    <nd ref="441237947"/>
    <nd ref="441237951"/>
    <tag k="highway" v="residential"/>
    <tag k="name" v="East Lexington Avenue"/>
  </way>
  <way id="37638600" version="2" timestamp="2010-04-03T04:16:09Z" uid="20587" user="balrog-kun" changeset="4309442">
    <nd ref="441237927"/>
    <nd ref="441237928"/>
    <nd ref="441237934"/>
    <tag k="highway" v="residential"/>
    <tag k="name" v="East Washington Avenue"/>
  </way>
  <way id="37638601" version="2" timestamp="2010-04-03T04:16:09Z" uid="20587" user="balrog-kun" changeset="4309442">
    <nd ref="441237934"/>
    <nd ref="441238098"/>
    <nd ref="441238080"/>
    <nd ref="441238079"/>
    <nd ref="441238077"/>
    <nd ref="441238076"/>
    <nd ref="441238073"/>
    <nd ref="441237779"/>
    <tag k="highway" v="residential"/>
    <tag k="name" v="North Beebe Street"/>
  </way>
  <way id="37638602" version="2" timestamp="2010-04-03T04:16:09Z" uid="20587" user="balrog-kun" changeset="4309442">
    <nd ref="441237936"/>
    <nd ref="441237932"/>
    <nd ref="441237933"/>
    <nd ref="441237920"/>
    <nd ref="441237921"/>
    <nd ref="441237916"/>
    <nd ref="441237918"/>
    <nd ref="441237925"/>
    <nd ref="441237926"/>
    <nd ref="441237922"/>
    <nd ref="441237923"/>
    <nd ref="441237827"/>
    <tag k="highway" v="residential"/>
    <tag k="name" v="East Vaughn Avenue"/>
  </way>
  <way id="37638603" version="2" timestamp="2010-04-03T04:16:09Z" uid="20587" user="balrog-kun" changeset="4309442">
    <nd ref="441237759"/>
    <nd ref="441238072"/>
    <nd ref="441238089"/>
    <tag k="highway" v="residential"/>
    <tag k="name" v="East Cotton Lane"/>
  </way>
  <way id="37638604" version="2" timestamp="2010-04-03T04:16:10Z" uid="20587" user="balrog-kun" changeset="4309442">
    <nd ref="441237903"/>
    <nd ref="441237863"/>
    <tag k="highway" v="residential"/>
    <tag k="name" v="East Lexington Avenue"/>
  </way>
  <way id="37638605" version="3" timestamp="2010-04-03T04:16:10Z" uid="20587" user="balrog-kun" changeset="4309442">
    <nd ref="441241753"/>
    <nd ref="441238083"/>
    <nd ref="441238082"/>
    <nd ref="441238081"/>
    <nd ref="441237703"/>
    <tag k="highway" v="residential"/>
    <tag k="name" v="East Washington Avenue"/>
  </way>
  <way id="37638606" version="2" timestamp="2010-04-03T04:16:10Z" uid="20587" user="balrog-kun" changeset="4309442">
    <nd ref="441237779"/>
    <nd ref="441237931"/>
    <tag k="highway" v="residential"/>
    <tag k="name" v="North Beebe Street"/>
  </way>
  <way id="37638607" version="2" timestamp="2010-04-03T04:16:10Z" uid="20587" user="balrog-kun" changeset="4309442">
    <nd ref="441237970"/>
    <nd ref="441238129"/>
    <nd ref="441238131"/>
    <nd ref="441238132"/>
    <nd ref="441238133"/>
    <nd ref="441238123"/>
    <nd ref="441238124"/>
    <nd ref="441238126"/>
    <nd ref="441238128"/>
    <nd ref="441238137"/>
    <nd ref="441237661"/>
    <tag k="highway" v="residential"/>
    <tag k="name" v="East Page Avenue"/>
  </way>
  <way id="37638851" version="4" timestamp="2010-04-03T04:16:10Z" uid="20587" user="balrog-kun" changeset="4309442">
    <nd ref="441242972"/>
    <nd ref="441243330"/>
    <nd ref="441243332"/>
    <nd ref="441243333"/>
    <nd ref="441243649"/>
    <nd ref="441243334"/>
    <nd ref="441243336"/>
    <nd ref="441243337"/>
    <nd ref="441243338"/>
    <nd ref="441243339"/>
    <nd ref="441243341"/>
    <nd ref="441243342"/>
    <nd ref="441243350"/>
    <nd ref="441243343"/>
    <nd ref="441243344"/>
    <nd ref="441243346"/>
    <tag k="highway" v="residential"/>
    <tag k="name" v="South Sagewood"/>
  </way>
  <way id="37638863" version="2" timestamp="2010-04-03T04:16:10Z" uid="20587" user="balrog-kun" changeset="4309442">
    <nd ref="441243541"/>
    <nd ref="441243643"/>
    <nd ref="441243644"/>
    <nd ref="441243645"/>
    <nd ref="441243646"/>
    <nd ref="441243647"/>
    <nd ref="441243648"/>
    <nd ref="441243649"/>
    <tag k="highway" v="residential"/>
    <tag k="name" v="El Porton Avenue"/>
  </way>
  <way id="37638945" version="2" timestamp="2010-04-03T04:16:10Z" uid="20587" user="balrog-kun" changeset="4309442">
    <nd ref="41617411"/>
    <nd ref="441244368"/>
    <nd ref="41890962"/>
    <tag k="created_by" v="Potlatch 0.10f"/>
    <tag k="highway" v="track"/>
    <tag k="name" v="East Mesquite Street"/>
    <tag k="tiger:cfcc" v="A41"/>
    <tag k="tiger:county" v="Maricopa, AZ"/>
    <tag k="tiger:name_base" v="Mesquite"/>
    <tag k="tiger:name_direction_prefix" v="E"/>
    <tag k="tiger:name_type" v="St"/>
    <tag k="tiger:reviewed" v="no"/>
    <tag k="tiger:separated" v="no"/>
    <tag k="tiger:source" v="tiger_import_dch_v0.6_20070809"/>
    <tag k="tiger:tlid" v="128823531:128815837"/>
  </way>
  <way id="37638983" version="2" timestamp="2010-04-03T04:16:10Z" uid="20587" user="balrog-kun" changeset="4309442">
    <nd ref="441245354"/>
    <nd ref="441245426"/>
    <tag k="highway" v="residential"/>
    <tag k="name" v="East Estrella Court"/>
  </way>
</osm>
