<?xml version='1.0' encoding='UTF-8'?>
<osm version="0.6" generator="libosmium/2.20.0">
  <way id="37672750" version="5" timestamp="2010-05-11T14:43:23Z" uid="49111" user="Markus B" changeset="4669130">
    <nd ref="441671659"/>
    <nd ref="441672122"/>
    <nd ref="442882354"/>
    <tag k="highway" v="path"/>
    <tag k="name" v="Talwieshof"/>
    <tag k="trackgrade" v="2"/>
  </way>
  <way id="37672750" version="6" timestamp="2010-05-11T14:44:05Z" uid="49111" user="Markus B" changeset="4669130">
    <nd ref="441671659"/>
    <nd ref="441672122"/>
    <nd ref="442882354"/>
    <tag k="highway" v="track"/>
    <tag k="name" v="Talwieshof"/>
    <tag k="trackgrade" v="grade1"/>
  </way>
  <way id="37672750" version="7" timestamp="2010-05-12T21:40:25Z" uid="49111" user="Markus B" changeset="4681388">
    <nd ref="441671659"/>
    <nd ref="731476283"/>
    <nd ref="441672122"/>
    <nd ref="442882354"/>
    <tag k="highway" v="track"/>
    <tag k="name" v="Talwieshof"/>
    <tag k="trackgrade" v="grade1"/>
  </way>
  <way id="37672793" version="3" timestamp="2010-09-22T21:32:20Z" uid="49111" user="Markus B" changeset="5849507">
    <nd ref="301364294"/>
    <nd ref="301364298"/>
    <nd ref="921929148"/>
    <nd ref="301181671"/>
    <tag k="highway" v="residential"/>
    <tag k="name" v="Dorfwisen"/>
  </way>
  <way id="37672793" version="4" timestamp="2010-09-22T21:57:34Z" uid="49111" user="Markus B" changeset="5849760">
    <nd ref="301364294"/>
    <nd ref="301364298"/>
    <nd ref="921929148"/>
    <nd ref="921994882"/>
    <nd ref="301181671"/>
    <tag k="highway" v="residential"/>
    <tag k="name" v="Dorfwisen"/>
  </way>
</osm>
