<?xml version='1.0' encoding='UTF-8'?>
<osm version="0.6" generator="libosmium/2.20.0">
  <way id="37680150" version="3" timestamp="2010-03-28T10:11:11Z" uid="20587" user="balrog-kun" changeset="4254597">
    <nd ref="441790563"/>
    <nd ref="441790631"/>
    <nd ref="65401276"/>
    <tag k="highway" v="residential"/>
    <tag k="name" v="Mission Drive"/>
  </way>
  <way id="37680178" version="3" timestamp="2010-03-28T10:11:11Z" uid="20587" user="balrog-kun" changeset="4254597">
    <nd ref="65514958"/>
    <nd ref="441790915"/>
    <tag k="highway" v="residential"/>
    <tag k="name" v="Mission Drive"/>
  </way>
  <way id="37680194" version="3" timestamp="2010-01-17T19:46:19Z" uid="33382" user="de_muur" changeset="3644929">
    <nd ref="441790936"/>
    <nd ref="441790992"/>
    <nd ref="615873410"/>
    <nd ref="441790993"/>
    <tag k="highway" v="service"/>
    <tag k="service" v="parking_aisle"/>
  </way>
  <way id="37680195" version="2" timestamp="2010-08-15T13:13:23Z" uid="9581" user="Lobelt" changeset="5499596"/>
  <way id="37680231" version="2" timestamp="2010-08-15T13:13:23Z" uid="9581" user="Lobelt" changeset="5499596"/>
  <way id="37680233" version="2" timestamp="2010-08-15T13:13:23Z" uid="9581" user="Lobelt" changeset="5499596"/>
  <way id="37680236" version="3" timestamp="2010-03-28T10:11:11Z" uid="20587" user="balrog-kun" changeset="4254597">
    <nd ref="91049892"/>
    <nd ref="91049789"/>
    <nd ref="91049895"/>
    <nd ref="91049897"/>
    <nd ref="91049899"/>
    <nd ref="91049901"/>
    <nd ref="91049903"/>
    <nd ref="452153948"/>
    <nd ref="91040026"/>
    <nd ref="452153951"/>
    <nd ref="91049904"/>
    <nd ref="452153942"/>
    <nd ref="91049906"/>
    <nd ref="91049909"/>
    <nd ref="91049910"/>
    <nd ref="91034221"/>
    <nd ref="91033889"/>
    <nd ref="306093389"/>
    <nd ref="367793398"/>
    <nd ref="91034224"/>
    <tag k="cycleway" v="lane"/>
    <tag k="highway" v="primary"/>
    <tag k="name" v="41st Avenue"/>
    <tag k="tiger:cfcc" v="A41"/>
    <tag k="tiger:county" v="Santa Cruz, CA"/>
    <tag k="tiger:name_base" v="41st"/>
    <tag k="tiger:name_type" v="Ave"/>
    <tag k="tiger:reviewed" v="no"/>
    <tag k="tiger:separated" v="no"/>
    <tag k="tiger:source" v="tiger_import_dch_v0.6_20070809"/>
    <tag k="tiger:tlid" v="125507880:125507882"/>
    <tag k="tiger:zip_left" v="95073"/>
    <tag k="tiger:zip_right" v="95073"/>
  </way>
  <way id="37680237" version="5" timestamp="2010-04-03T04:16:34Z" uid="20587" user="balrog-kun" changeset="4309442">
    <nd ref="441791249"/>
    <nd ref="441791256"/>
    <nd ref="441791257"/>
    <nd ref="441791258"/>
    <nd ref="441791259"/>
    <nd ref="441791260"/>
    <nd ref="441791261"/>
    <nd ref="441791262"/>
    <nd ref="441791263"/>
    <tag k="highway" v="residential"/>
    <tag k="name" v="East Waterman Drive"/>
  </way>
  <way id="37680251" version="7" timestamp="2010-04-03T04:16:34Z" uid="20587" user="balrog-kun" changeset="4309442">
    <nd ref="441792307"/>
    <nd ref="441792308"/>
    <nd ref="441792309"/>
    <nd ref="441792310"/>
    <nd ref="441792311"/>
    <nd ref="441792312"/>
    <nd ref="441792313"/>
    <nd ref="441792314"/>
    <nd ref="441792315"/>
    <nd ref="441791393"/>
    <nd ref="441791394"/>
    <nd ref="441791395"/>
    <nd ref="441791396"/>
    <nd ref="441791397"/>
    <nd ref="441791398"/>
    <nd ref="441791399"/>
    <nd ref="441791400"/>
    <nd ref="441791449"/>
    <tag k="highway" v="residential"/>
    <tag k="name" v="East Portola Valley Drive"/>
  </way>
  <way id="37680253" version="4" timestamp="2010-04-03T04:16:34Z" uid="20587" user="balrog-kun" changeset="4309442">
    <nd ref="441791509"/>
    <nd ref="441791402"/>
    <nd ref="441791404"/>
    <nd ref="441791406"/>
    <nd ref="441791408"/>
    <nd ref="441791410"/>
    <nd ref="441791412"/>
    <nd ref="441791413"/>
    <nd ref="441791414"/>
    <nd ref="441792277"/>
    <nd ref="441792278"/>
    <nd ref="441792279"/>
    <nd ref="441792280"/>
    <nd ref="441792281"/>
    <nd ref="441792282"/>
    <nd ref="441792283"/>
    <tag k="highway" v="residential"/>
    <tag k="name" v="East Waterman Drive"/>
  </way>
  <way id="37680254" version="4" timestamp="2010-04-03T04:16:35Z" uid="20587" user="balrog-kun" changeset="4309442">
    <nd ref="441791400"/>
    <nd ref="441791402"/>
    <nd ref="441791536"/>
    <nd ref="441791515"/>
    <tag k="highway" v="residential"/>
    <tag k="name" v="South Clairborne Avenue"/>
  </way>
  <way id="37680261" version="7" timestamp="2010-03-28T10:11:12Z" uid="20587" user="balrog-kun" changeset="4254597">
    <nd ref="65460110"/>
    <nd ref="441791513"/>
    <nd ref="441791512"/>
    <nd ref="441791511"/>
    <tag k="highway" v="secondary"/>
    <tag k="name" v="Donohoe Street"/>
    <tag k="oneway" v="yes"/>
  </way>
  <way id="37680280" version="4" timestamp="2010-03-28T10:11:12Z" uid="20587" user="balrog-kun" changeset="4254597">
    <nd ref="65445218"/>
    <nd ref="65501809"/>
    <nd ref="441791484"/>
    <nd ref="65460110"/>
    <tag k="highway" v="secondary"/>
    <tag k="name" v="Donohoe Street"/>
    <tag k="oneway" v="yes"/>
    <tag k="tiger:cfcc" v="A41"/>
    <tag k="tiger:county" v="San Mateo, CA"/>
    <tag k="tiger:name_base" v="Donohoe"/>
    <tag k="tiger:name_type" v="St"/>
    <tag k="tiger:separated" v="no"/>
    <tag k="tiger:source" v="tiger_import_dch_v0.6_20070809"/>
    <tag k="tiger:tlid" v="192366564:192366565:192412094:192407478:192366548"/>
    <tag k="tiger:zip_left" v="94303"/>
    <tag k="tiger:zip_right" v="94303"/>
  </way>
  <way id="37680288" version="3" timestamp="2010-04-03T04:16:35Z" uid="20587" user="balrog-kun" changeset="4309442">
    <nd ref="441791536"/>
    <nd ref="441791563"/>
    <tag k="highway" v="residential"/>
    <tag k="name" v="East Sandy Court"/>
  </way>
  <way id="37680308" version="4" timestamp="2010-04-03T04:16:35Z" uid="20587" user="balrog-kun" changeset="4309442">
    <nd ref="441791516"/>
    <nd ref="441791515"/>
    <nd ref="441791913"/>
    <nd ref="441791915"/>
    <nd ref="441791918"/>
    <nd ref="441791920"/>
    <nd ref="441791922"/>
    <nd ref="441791925"/>
    <nd ref="441791927"/>
    <nd ref="441791930"/>
    <nd ref="441791932"/>
    <nd ref="441791934"/>
    <nd ref="441791941"/>
    <nd ref="441791813"/>
    <nd ref="441791817"/>
    <nd ref="441791820"/>
    <nd ref="441791822"/>
    <nd ref="441791825"/>
    <nd ref="441791835"/>
    <nd ref="441791838"/>
    <tag k="highway" v="residential"/>
    <tag k="name" v="East Bonanza Drive"/>
  </way>
  <way id="37680345" version="8" timestamp="2010-03-28T10:11:12Z" uid="20587" user="balrog-kun" changeset="4254597">
    <nd ref="441791511"/>
    <nd ref="441792295"/>
    <nd ref="441792296"/>
    <nd ref="441792297"/>
    <nd ref="441792298"/>
    <nd ref="441792299"/>
    <nd ref="441793317"/>
    <nd ref="441792301"/>
    <nd ref="441792302"/>
    <nd ref="441792303"/>
    <nd ref="441792304"/>
    <tag k="highway" v="secondary"/>
    <tag k="name" v="Cooley Avenue"/>
    <tag k="oneway" v="yes"/>
  </way>
  <way id="37680347" version="2" timestamp="2010-03-28T10:11:13Z" uid="20587" user="balrog-kun" changeset="4254597">
    <nd ref="91061980"/>
    <nd ref="316087424"/>
    <nd ref="91061982"/>
    <tag k="cycleway" v="lane"/>
    <tag k="highway" v="primary"/>
    <tag k="name" v="Capitola Road"/>
    <tag k="tiger:cfcc" v="A41"/>
    <tag k="tiger:county" v="Santa Cruz, CA"/>
    <tag k="tiger:name_base" v="Capitola"/>
    <tag k="tiger:name_type" v="Rd"/>
    <tag k="tiger:reviewed" v="no"/>
    <tag k="tiger:separated" v="no"/>
    <tag k="tiger:source" v="tiger_import_dch_v0.6_20070809"/>
    <tag k="tiger:tlid" v="125509444:125509445:125509469:125508102:125508098:125526091:125509437:125509438:125507262"/>
    <tag k="tiger:zip_left" v="95010"/>
    <tag k="tiger:zip_right" v="95010"/>
  </way>
  <way id="37680348" version="3" timestamp="2010-03-28T10:11:13Z" uid="20587" user="balrog-kun" changeset="4254597">
    <nd ref="91056972"/>
    <nd ref="367795700"/>
    <nd ref="367795733"/>
    <nd ref="91027759"/>
    <nd ref="91061948"/>
    <nd ref="91061949"/>
    <nd ref="91061950"/>
    <nd ref="367795701"/>
    <nd ref="91046894"/>
    <nd ref="91061951"/>
    <nd ref="91061952"/>
    <nd ref="367795713"/>
    <nd ref="367795714"/>
    <nd ref="316088267"/>
    <nd ref="91061940"/>
    <nd ref="91061953"/>
    <nd ref="447142016"/>
    <tag k="cycleway" v="lane"/>
    <tag k="highway" v="primary"/>
    <tag k="name" v="Capitola Road"/>
    <tag k="tiger:cfcc" v="A41"/>
    <tag k="tiger:county" v="Santa Cruz, CA"/>
    <tag k="tiger:name_base" v="Capitola"/>
    <tag k="tiger:name_type" v="Rd"/>
    <tag k="tiger:reviewed" v="no"/>
    <tag k="tiger:separated" v="no"/>
    <tag k="tiger:source" v="tiger_import_dch_v0.6_20070809"/>
    <tag k="tiger:tlid" v="125507262:125508098:125508102:125509437:125509438:125509444:125509445:125509469:125526091"/>
    <tag k="tiger:zip_left" v="95010"/>
    <tag k="tiger:zip_right" v="95010"/>
  </way>
  <way id="37680363" version="3" timestamp="2010-03-28T10:11:13Z" uid="20587" user="balrog-kun" changeset="4254597">
    <nd ref="441792304"/>
    <nd ref="441792305"/>
    <nd ref="612595718"/>
    <nd ref="441792306"/>
    <nd ref="65401287"/>
    <tag k="highway" v="secondary"/>
    <tag k="name" v="East Bayshore Road"/>
    <tag k="oneway" v="yes"/>
  </way>
  <way id="37680406" version="3" timestamp="2010-04-03T04:16:35Z" uid="20587" user="balrog-kun" changeset="4309442">
    <nd ref="441793273"/>
    <nd ref="41638219"/>
    <tag k="highway" v="residential"/>
    <tag k="name" v="South Los Gatos Lane"/>
  </way>
  <way id="37680408" version="7" timestamp="2010-04-03T04:16:35Z" uid="20587" user="balrog-kun" changeset="4309442">
    <nd ref="441793271"/>
    <nd ref="441796146"/>
    <nd ref="441796093"/>
    <nd ref="441793272"/>
    <tag k="highway" v="residential"/>
    <tag k="name" v="South Ponderosa Drive"/>
  </way>
  <way id="37680411" version="5" timestamp="2010-04-03T04:16:35Z" uid="20587" user="balrog-kun" changeset="4309442">
    <nd ref="441795819"/>
    <nd ref="441795817"/>
    <tag k="highway" v="residential"/>
    <tag k="name" v="East Morelos Court"/>
  </way>
  <way id="37680413" version="3" timestamp="2010-04-03T04:16:35Z" uid="20587" user="balrog-kun" changeset="4309442">
    <nd ref="441793269"/>
    <nd ref="441793270"/>
    <tag k="highway" v="residential"/>
    <tag k="name" v="South Los Gatos Lane"/>
  </way>
  <way id="37680414" version="5" timestamp="2010-04-03T04:16:35Z" uid="20587" user="balrog-kun" changeset="4309442">
    <nd ref="441802543"/>
    <nd ref="441793269"/>
    <nd ref="441793268"/>
    <tag k="highway" v="residential"/>
    <tag k="name" v="East Phelps Street"/>
  </way>
  <way id="37680416" version="4" timestamp="2010-04-03T04:16:35Z" uid="20587" user="balrog-kun" changeset="4309442">
    <nd ref="441793267"/>
    <nd ref="441793268"/>
    <tag k="highway" v="residential"/>
    <tag k="name" v="South Ponderosa Drive"/>
  </way>
  <way id="37680418" version="4" timestamp="2010-04-03T04:16:35Z" uid="20587" user="balrog-kun" changeset="4309442">
    <nd ref="441793265"/>
    <nd ref="441793266"/>
    <nd ref="441793267"/>
    <tag k="highway" v="residential"/>
    <tag k="name" v="East Hopkins Road"/>
  </way>
  <way id="37680425" version="4" timestamp="2010-04-03T04:16:36Z" uid="20587" user="balrog-kun" changeset="4309442">
    <nd ref="441793263"/>
    <nd ref="441793264"/>
    <nd ref="441793931"/>
    <nd ref="441793929"/>
    <tag k="highway" v="residential"/>
    <tag k="name" v="South Sunnyvale Avenue"/>
  </way>
  <way id="37680426" version="4" timestamp="2010-04-03T04:16:36Z" uid="20587" user="balrog-kun" changeset="4309442">
    <nd ref="441793255"/>
    <nd ref="441793256"/>
    <nd ref="441793257"/>
    <nd ref="441793258"/>
    <nd ref="441793259"/>
    <nd ref="441793260"/>
    <nd ref="441793261"/>
    <nd ref="441793262"/>
    <nd ref="441793263"/>
    <tag k="highway" v="residential"/>
    <tag k="name" v="East Hopkins Road"/>
  </way>
  <way id="37680427" version="5" timestamp="2010-04-03T04:16:36Z" uid="20587" user="balrog-kun" changeset="4309442">
    <nd ref="441793248"/>
    <nd ref="441793253"/>
    <nd ref="441793254"/>
    <nd ref="441793255"/>
    <nd ref="441794048"/>
    <nd ref="441794051"/>
    <nd ref="441793993"/>
    <tag k="highway" v="residential"/>
    <tag k="name" v="South Seton Avenue"/>
  </way>
  <way id="37680429" version="5" timestamp="2010-04-03T04:16:36Z" uid="20587" user="balrog-kun" changeset="4309442">
    <nd ref="441996839"/>
    <nd ref="441793248"/>
    <nd ref="441793252"/>
    <tag k="highway" v="residential"/>
    <tag k="name" v="East Elgin Street"/>
  </way>
  <way id="37680430" version="4" timestamp="2010-04-03T04:16:36Z" uid="20587" user="balrog-kun" changeset="4309442">
    <nd ref="441793251"/>
    <nd ref="441793252"/>
    <tag k="highway" v="residential"/>
    <tag k="name" v="South Martingale Road"/>
  </way>
  <way id="37680434" version="2" timestamp="2011-05-31T13:39:22Z" uid="115477" user="wowik" changeset="8301336">
    <nd ref="353139460"/>
    <nd ref="312997402"/>
    <nd ref="312997403"/>
    <nd ref="355114139"/>
    <nd ref="355114136"/>
    <nd ref="312997406"/>
    <nd ref="312997408"/>
    <nd ref="312997411"/>
    <tag k="highway" v="service"/>
    <tag k="living_street" v="yes"/>
  </way>
  <way id="37680442" version="4" timestamp="2010-04-03T04:16:36Z" uid="20587" user="balrog-kun" changeset="4309442">
    <nd ref="441793993"/>
    <nd ref="441793929"/>
    <tag k="highway" v="residential"/>
    <tag k="name" v="East Phelps Street"/>
  </way>
  <way id="37680447" version="3" timestamp="2010-04-03T04:16:36Z" uid="20587" user="balrog-kun" changeset="4309442">
    <nd ref="441794378"/>
    <nd ref="42021695"/>
    <tag k="highway" v="residential"/>
    <tag k="name" v="Geronimo Court"/>
    <tag k="tiger:cfcc" v="A41"/>
    <tag k="tiger:county" v="Maricopa, AZ"/>
    <tag k="tiger:name_base" v="Geronimo"/>
    <tag k="tiger:name_type" v="Ct"/>
    <tag k="tiger:reviewed" v="no"/>
    <tag k="tiger:separated" v="no"/>
    <tag k="tiger:source" v="tiger_import_dch_v0.6_20070809"/>
    <tag k="tiger:tlid" v="128817204:128817207:128817256"/>
  </way>
  <way id="37680453" version="4" timestamp="2010-04-03T04:16:36Z" uid="20587" user="balrog-kun" changeset="4309442">
    <nd ref="441795069"/>
    <nd ref="441795020"/>
    <nd ref="441794378"/>
    <nd ref="441794392"/>
    <nd ref="441794391"/>
    <nd ref="441794386"/>
    <nd ref="441794373"/>
    <tag k="highway" v="residential"/>
    <tag k="name" v="South Seton Avenue"/>
  </way>
  <way id="37680457" version="4" timestamp="2010-04-03T04:16:36Z" uid="20587" user="balrog-kun" changeset="4309442">
    <nd ref="441794359"/>
    <nd ref="441794419"/>
    <tag k="highway" v="residential"/>
    <tag k="name" v="South Martingale Road"/>
  </way>
  <way id="37680458" version="7" timestamp="2010-04-03T04:16:36Z" uid="20587" user="balrog-kun" changeset="4309442">
    <nd ref="441795100"/>
    <nd ref="441794842"/>
    <tag k="highway" v="residential"/>
    <tag k="name" v="East Geronimo Court"/>
  </way>
  <way id="37680464" version="3" timestamp="2010-04-03T04:16:37Z" uid="20587" user="balrog-kun" changeset="4309442">
    <nd ref="441794392"/>
    <nd ref="441794766"/>
    <nd ref="441794771"/>
    <nd ref="441794773"/>
    <nd ref="441794774"/>
    <nd ref="441794775"/>
    <tag k="highway" v="residential"/>
    <tag k="name" v="East Geronimo Court"/>
  </way>
  <way id="37680466" version="5" timestamp="2010-04-03T04:16:37Z" uid="20587" user="balrog-kun" changeset="4309442">
    <nd ref="441795102"/>
    <nd ref="441794897"/>
    <nd ref="441794842"/>
    <nd ref="441794361"/>
    <tag k="highway" v="residential"/>
    <tag k="name" v="South Sunnyvale Avenue"/>
  </way>
  <way id="37680468" version="4" timestamp="2010-04-03T04:16:37Z" uid="20587" user="balrog-kun" changeset="4309442">
    <nd ref="441794898"/>
    <nd ref="441794897"/>
    <tag k="highway" v="residential"/>
    <tag k="name" v="East Morelos Court"/>
  </way>
  <way id="37680473" version="4" timestamp="2010-04-03T04:16:37Z" uid="20587" user="balrog-kun" changeset="4309442">
    <nd ref="441795069"/>
    <nd ref="441795102"/>
    <tag k="highway" v="residential"/>
    <tag k="name" v="East Fairview Street"/>
  </way>
  <way id="37680480" version="4" timestamp="2010-04-03T04:16:37Z" uid="20587" user="balrog-kun" changeset="4309442">
    <nd ref="441795020"/>
    <nd ref="441795023"/>
    <tag k="highway" v="residential"/>
    <tag k="name" v="East Morelos Court"/>
  </way>
  <way id="37680515" version="4" timestamp="2010-04-03T04:16:37Z" uid="20587" user="balrog-kun" changeset="4309442">
    <nd ref="441795791"/>
    <nd ref="441793270"/>
    <nd ref="441793271"/>
    <tag k="highway" v="residential"/>
    <tag k="name" v="East Fairview Street"/>
  </way>
  <way id="37680516" version="4" timestamp="2010-04-03T04:16:37Z" uid="20587" user="balrog-kun" changeset="4309442">
    <nd ref="441795791"/>
    <nd ref="441795819"/>
    <nd ref="441795900"/>
    <nd ref="441796040"/>
    <tag k="highway" v="residential"/>
    <tag k="name" v="South Martingale Road"/>
  </way>
  <way id="37680523" version="4" timestamp="2010-04-03T04:16:37Z" uid="20587" user="balrog-kun" changeset="4309442">
    <nd ref="441795900"/>
    <nd ref="441795903"/>
    <tag k="highway" v="residential"/>
    <tag k="name" v="East Geronimo Court"/>
  </way>
  <way id="37680525" version="5" timestamp="2010-04-03T04:16:37Z" uid="20587" user="balrog-kun" changeset="4309442">
    <nd ref="441796312"/>
    <nd ref="441796093"/>
    <tag k="highway" v="residential"/>
    <tag k="name" v="East Geronimo Court"/>
  </way>
  <way id="37680528" version="4" timestamp="2010-04-03T04:16:37Z" uid="20587" user="balrog-kun" changeset="4309442">
    <nd ref="441796226"/>
    <nd ref="441796146"/>
    <tag k="highway" v="residential"/>
    <tag k="name" v="East Morelos Court"/>
  </way>
  <way id="37680646" version="2" timestamp="2009-08-20T07:51:16Z" uid="1066" user="pavel" changeset="2209016">
    <nd ref="441801034"/>
    <nd ref="441801035"/>
    <nd ref="441801036"/>
    <nd ref="441801037"/>
    <nd ref="441801038"/>
    <nd ref="441801039"/>
    <nd ref="441801040"/>
    <nd ref="441801041"/>
    <nd ref="441801042"/>
    <nd ref="441801043"/>
    <nd ref="441801044"/>
    <nd ref="441801045"/>
    <nd ref="441801046"/>
    <nd ref="441801047"/>
    <nd ref="441801048"/>
    <nd ref="441801049"/>
    <nd ref="441801050"/>
    <nd ref="441801051"/>
    <nd ref="441801052"/>
    <nd ref="441801053"/>
    <nd ref="441801054"/>
    <nd ref="441801055"/>
    <nd ref="441801056"/>
    <nd ref="441801057"/>
    <nd ref="441801058"/>
    <nd ref="441801059"/>
    <nd ref="441801060"/>
    <nd ref="441801061"/>
    <nd ref="441801063"/>
    <nd ref="441801065"/>
    <nd ref="441801066"/>
    <nd ref="441801068"/>
    <nd ref="441801070"/>
    <nd ref="441801071"/>
    <nd ref="441801073"/>
    <nd ref="441801074"/>
    <nd ref="441801076"/>
    <nd ref="441801078"/>
    <nd ref="441801079"/>
    <nd ref="441801081"/>
    <nd ref="441801083"/>
    <nd ref="441801084"/>
    <nd ref="441801086"/>
    <nd ref="441801088"/>
    <nd ref="441801089"/>
    <nd ref="441801091"/>
    <nd ref="441801092"/>
    <nd ref="441801094"/>
    <nd ref="441801096"/>
    <nd ref="441801098"/>
    <nd ref="471321598"/>
    <tag k="highway" v="track"/>
    <tag k="motorcar" v="no"/>
    <tag k="motorcycle" v="no"/>
    <tag k="source" v="uhul:cesty_odvozni"/>
    <tag k="tracktype" v="grade2"/>
  </way>
  <way id="37680650" version="2" timestamp="2009-08-20T07:51:16Z" uid="1066" user="pavel" changeset="2209016">
    <nd ref="441801306"/>
    <nd ref="441801307"/>
    <nd ref="441801309"/>
    <nd ref="441801311"/>
    <nd ref="441801313"/>
    <nd ref="441801315"/>
    <nd ref="441801317"/>
    <nd ref="441801325"/>
    <tag k="highway" v="track"/>
    <tag k="kct_blue" v="major"/>
    <tag k="source" v="uhul:ortofoto"/>
    <tag k="tracktype" v="grade1"/>
  </way>
  <way id="37680675" version="4" timestamp="2010-04-03T04:16:37Z" uid="20587" user="balrog-kun" changeset="4309442">
    <nd ref="441802555"/>
    <nd ref="441802594"/>
    <tag k="highway" v="residential"/>
    <tag k="name" v="East Elgin Street"/>
  </way>
  <way id="37680677" version="5" timestamp="2010-04-03T04:16:37Z" uid="20587" user="balrog-kun" changeset="4309442">
    <nd ref="441802561"/>
    <nd ref="441802558"/>
    <nd ref="441802555"/>
    <nd ref="441802551"/>
    <nd ref="441793265"/>
    <nd ref="441802549"/>
    <nd ref="441802546"/>
    <nd ref="441802543"/>
    <tag k="highway" v="residential"/>
    <tag k="name" v="South Chaparral Boulevard"/>
  </way>
  <way id="37680679" version="6" timestamp="2010-04-03T04:16:38Z" uid="20587" user="balrog-kun" changeset="4309442">
    <nd ref="441802561"/>
    <nd ref="441802564"/>
    <nd ref="441802577"/>
    <nd ref="441802581"/>
    <nd ref="441802585"/>
    <nd ref="441802588"/>
    <nd ref="441996847"/>
    <nd ref="441802591"/>
    <tag k="highway" v="residential"/>
    <tag k="name" v="East Joseph Way"/>
  </way>
  <way id="37680682" version="4" timestamp="2010-04-03T04:16:38Z" uid="20587" user="balrog-kun" changeset="4309442">
    <nd ref="441802591"/>
    <nd ref="441802594"/>
    <tag k="highway" v="residential"/>
    <tag k="name" v="South Ponderosa Drive"/>
  </way>
  <way id="37680713" version="2" timestamp="2009-10-02T20:05:24Z" uid="86259" user="hasse_osm_korinthenkacker" changeset="2717024">
    <nd ref="21030601"/>
    <nd ref="20911581"/>
    <nd ref="21030603"/>
    <nd ref="310641874"/>
    <nd ref="310642175"/>
    <nd ref="21030587"/>
    <nd ref="7985015"/>
    <tag k="highway" v="residential"/>
    <tag k="name" v="Burgstallerstraße"/>
    <tag k="postal_code" v="83607"/>
  </way>
  <way id="37680714" version="2" timestamp="2009-10-02T20:05:24Z" uid="86259" user="hasse_osm_korinthenkacker" changeset="2717024">
    <nd ref="21030604"/>
    <nd ref="440701526"/>
    <nd ref="10847939"/>
    <nd ref="20911582"/>
    <nd ref="21030602"/>
    <nd ref="7985014"/>
    <nd ref="21030601"/>
    <tag k="highway" v="residential"/>
    <tag k="name" v="Burgstallerstraße"/>
    <tag k="postal_code" v="83607"/>
  </way>
</osm>
