<?xml version='1.0' encoding='UTF-8'?>
<osm version="0.6" generator="libosmium/2.20.0">
  <way id="37772654" version="3" timestamp="2010-03-28T10:12:02Z" uid="20587" user="balrog-kun" changeset="4254597">
    <nd ref="536292054"/>
    <nd ref="443102364"/>
    <tag k="bridge" v="yes"/>
    <tag k="highway" v="primary"/>
    <tag k="name" v="Foothill Boulevard"/>
    <tag k="old_ref" v="US 66"/>
  </way>
  <way id="37772864" version="2" timestamp="2010-03-28T10:12:03Z" uid="20587" user="balrog-kun" changeset="4254597">
    <nd ref="353027445"/>
    <nd ref="443104256"/>
    <nd ref="443104257"/>
    <nd ref="443104258"/>
    <nd ref="443104259"/>
    <nd ref="443104260"/>
    <nd ref="442704522"/>
    <tag k="highway" v="primary"/>
    <tag k="name" v="Huntington Drive"/>
    <tag k="old_ref" v="US 66"/>
    <tag k="oneway" v="yes"/>
  </way>
  <way id="37772865" version="2" timestamp="2010-03-28T10:12:03Z" uid="20587" user="balrog-kun" changeset="4254597">
    <nd ref="442704522"/>
    <nd ref="443104261"/>
    <nd ref="443104262"/>
    <nd ref="443104227"/>
    <nd ref="443104263"/>
    <nd ref="443104264"/>
    <nd ref="443104265"/>
    <nd ref="353027445"/>
    <tag k="highway" v="primary"/>
    <tag k="name" v="Huntington Drive"/>
    <tag k="old_ref" v="US 66"/>
    <tag k="oneway" v="yes"/>
  </way>
</osm>
