<?xml version='1.0' encoding='UTF-8'?>
<osm version="0.6" generator="libosmium/2.20.0">
  <way id="37872003" version="3" timestamp="2010-07-09T20:56:09Z" uid="74617" user="JohnSmith" changeset="5176956">
    <nd ref="444403354"/>
    <nd ref="444403229"/>
    <tag k="highway" v="residential"/>
    <tag k="maxspeed" v="50"/>
    <tag k="maxspeed:source" v="default residential speed limit in Australia"/>
    <tag k="name" v="Harriet Place"/>
  </way>
  <way id="37872004" version="3" timestamp="2010-07-09T21:04:42Z" uid="74617" user="JohnSmith" changeset="5176956">
    <nd ref="444403367"/>
    <nd ref="268919216"/>
    <tag k="highway" v="residential"/>
    <tag k="maxspeed" v="50"/>
    <tag k="maxspeed:source" v="default residential speed limit in Australia"/>
    <tag k="name" v="Corang Court"/>
  </way>
  <way id="37872006" version="3" timestamp="2010-07-09T20:54:54Z" uid="74617" user="JohnSmith" changeset="5176956">
    <nd ref="444403373"/>
    <nd ref="444403326"/>
    <tag k="highway" v="residential"/>
    <tag k="maxspeed" v="50"/>
    <tag k="maxspeed:source" v="default residential speed limit in Australia"/>
    <tag k="name" v="Norris Street"/>
  </way>
  <way id="37872016" version="2" timestamp="2010-07-09T18:18:44Z" uid="74617" user="JohnSmith" changeset="5175333">
    <nd ref="268623841"/>
    <nd ref="268623737"/>
    <nd ref="268623738"/>
    <tag k="highway" v="residential"/>
    <tag k="maxspeed" v="50"/>
    <tag k="maxspeed:source" v="default residential speed limit in Australia"/>
    <tag k="name" v="Shaw Place"/>
  </way>
  <way id="37872017" version="2" timestamp="2010-07-09T18:20:07Z" uid="74617" user="JohnSmith" changeset="5175333">
    <nd ref="268622561"/>
    <nd ref="268622562"/>
    <tag k="highway" v="residential"/>
    <tag k="maxspeed" v="50"/>
    <tag k="maxspeed:source" v="default residential speed limit in Australia"/>
    <tag k="name" v="Reibe Avenue"/>
  </way>
  <way id="37872018" version="2" timestamp="2010-07-09T18:13:56Z" uid="74617" user="JohnSmith" changeset="5175333">
    <nd ref="268622454"/>
    <nd ref="268622455"/>
    <nd ref="268622477"/>
    <nd ref="268622456"/>
    <tag k="highway" v="residential"/>
    <tag k="maxspeed" v="50"/>
    <tag k="maxspeed:source" v="default residential speed limit in Australia"/>
    <tag k="name" v="Hampton Street"/>
  </way>
  <way id="37872020" version="2" timestamp="2010-07-09T18:17:43Z" uid="74617" user="JohnSmith" changeset="5175333">
    <nd ref="268916870"/>
    <nd ref="268916871"/>
    <nd ref="268916947"/>
    <nd ref="268916872"/>
    <tag k="highway" v="residential"/>
    <tag k="maxspeed" v="50"/>
    <tag k="maxspeed:source" v="default residential speed limit in Australia"/>
    <tag k="name" v="Fisher Street"/>
  </way>
  <way id="37872233" version="2" timestamp="2010-07-09T18:20:03Z" uid="74617" user="JohnSmith" changeset="5175333">
    <nd ref="268621408"/>
    <nd ref="268621409"/>
    <nd ref="268621410"/>
    <tag k="highway" v="residential"/>
    <tag k="maxspeed" v="50"/>
    <tag k="maxspeed:source" v="default residential speed limit in Australia"/>
    <tag k="name" v="Downsborough Avenue"/>
  </way>
  <way id="37872234" version="2" timestamp="2010-07-09T18:13:51Z" uid="74617" user="JohnSmith" changeset="5175333">
    <nd ref="268621449"/>
    <nd ref="268621450"/>
    <tag k="highway" v="residential"/>
    <tag k="maxspeed" v="50"/>
    <tag k="maxspeed:source" v="default residential speed limit in Australia"/>
    <tag k="name" v="Osbourn Place"/>
  </way>
  <way id="37872420" version="3" timestamp="2010-06-29T19:15:11Z" uid="74617" user="JohnSmith" changeset="5108182">
    <nd ref="444408637"/>
    <nd ref="444408638"/>
    <nd ref="444408639"/>
    <nd ref="444408640"/>
    <nd ref="444408637"/>
    <tag k="fixme" v="sport=football is ambiguous, see http://wiki.osm.org/wiki/Football for more details"/>
    <tag k="leisure" v="stadium"/>
    <tag k="name" v="Estadio de Rapido de Bouzas"/>
    <tag k="sport" v="football"/>
  </way>
  <way id="37872456" version="2" timestamp="2010-01-12T20:04:09Z" uid="9581" user="Lobelt" changeset="3605643">
    <nd ref="500294"/>
    <nd ref="500295"/>
    <nd ref="500296"/>
    <nd ref="500297"/>
    <nd ref="500299"/>
    <nd ref="500300"/>
    <nd ref="500301"/>
    <nd ref="500302"/>
    <nd ref="500306"/>
    <nd ref="500307"/>
    <nd ref="500308"/>
    <nd ref="612516227"/>
    <nd ref="500309"/>
    <nd ref="612516226"/>
    <nd ref="500310"/>
    <nd ref="500314"/>
    <nd ref="500315"/>
    <nd ref="500316"/>
    <nd ref="500317"/>
    <nd ref="500318"/>
    <nd ref="500319"/>
    <nd ref="500320"/>
    <nd ref="500321"/>
    <nd ref="612516134"/>
    <nd ref="500322"/>
    <nd ref="612516108"/>
    <tag k="direction" v="W"/>
    <tag k="highway" v="motorway"/>
    <tag k="int_ref" v="E 50"/>
    <tag k="oneway" v="yes"/>
    <tag k="ref" v="A 6"/>
  </way>
  <way id="37872458" version="2" timestamp="2010-05-17T19:25:34Z" uid="9581" user="Lobelt" changeset="4732070">
    <nd ref="423909593"/>
    <nd ref="423909594"/>
    <nd ref="423909588"/>
    <nd ref="737981672"/>
    <tag k="access" v="agricultural"/>
    <tag k="highway" v="track"/>
    <tag k="motorcar" v="agricultural"/>
    <tag k="motorcycle" v="agricultural"/>
  </way>
  <way id="37872464" version="2" timestamp="2010-01-12T20:04:06Z" uid="9581" user="Lobelt" changeset="3605643">
    <nd ref="502404"/>
    <nd ref="444409437"/>
    <nd ref="502405"/>
    <nd ref="502406"/>
    <nd ref="612515672"/>
    <nd ref="502407"/>
    <nd ref="502408"/>
    <nd ref="612515702"/>
    <nd ref="502409"/>
    <nd ref="612515713"/>
    <nd ref="502410"/>
    <nd ref="501360"/>
    <nd ref="501361"/>
    <nd ref="501362"/>
    <nd ref="612515759"/>
    <nd ref="501364"/>
    <nd ref="501365"/>
    <nd ref="501366"/>
    <nd ref="501367"/>
    <nd ref="501368"/>
    <nd ref="501370"/>
    <nd ref="501371"/>
    <nd ref="501372"/>
    <nd ref="612515805"/>
    <nd ref="501373"/>
    <nd ref="501374"/>
    <nd ref="501377"/>
    <nd ref="501379"/>
    <nd ref="501380"/>
    <nd ref="501381"/>
    <nd ref="501382"/>
    <nd ref="501383"/>
    <nd ref="501384"/>
    <nd ref="54199334"/>
    <nd ref="501385"/>
    <nd ref="501386"/>
    <nd ref="501387"/>
    <nd ref="501388"/>
    <nd ref="501390"/>
    <nd ref="501391"/>
    <nd ref="501392"/>
    <nd ref="501393"/>
    <nd ref="501394"/>
    <nd ref="501395"/>
    <nd ref="612515947"/>
    <nd ref="501396"/>
    <nd ref="501397"/>
    <nd ref="501398"/>
    <nd ref="501402"/>
    <nd ref="612516012"/>
    <nd ref="501404"/>
    <nd ref="501405"/>
    <nd ref="501406"/>
    <nd ref="612516049"/>
    <nd ref="501407"/>
    <nd ref="501408"/>
    <nd ref="501409"/>
    <nd ref="501410"/>
    <nd ref="612516083"/>
    <nd ref="501411"/>
    <nd ref="501412"/>
    <nd ref="501417"/>
    <nd ref="501420"/>
    <nd ref="501421"/>
    <nd ref="501422"/>
    <tag k="direction" v="E"/>
    <tag k="highway" v="motorway"/>
    <tag k="int_ref" v="E 50"/>
    <tag k="oneway" v="yes"/>
    <tag k="ref" v="A 6"/>
  </way>
  <way id="37872476" version="2" timestamp="2010-01-12T20:04:08Z" uid="9581" user="Lobelt" changeset="3605643">
    <nd ref="444409435"/>
    <nd ref="502404"/>
    <tag k="bridge" v="yes"/>
    <tag k="direction" v="E"/>
    <tag k="highway" v="motorway"/>
    <tag k="int_ref" v="E 50"/>
    <tag k="layer" v="1"/>
    <tag k="oneway" v="yes"/>
    <tag k="ref" v="A 6"/>
  </way>
  <way id="37872481" version="2" timestamp="2010-01-12T20:04:08Z" uid="9581" user="Lobelt" changeset="3605643">
    <nd ref="444409409"/>
    <nd ref="500388"/>
    <tag k="bridge" v="yes"/>
    <tag k="direction" v="W"/>
    <tag k="highway" v="motorway"/>
    <tag k="int_ref" v="E 50"/>
    <tag k="layer" v="1"/>
    <tag k="oneway" v="yes"/>
    <tag k="ref" v="A 6"/>
  </way>
  <way id="37872484" version="2" timestamp="2010-01-12T20:04:05Z" uid="9581" user="Lobelt" changeset="3605643">
    <nd ref="500388"/>
    <nd ref="612515621"/>
    <nd ref="500389"/>
    <nd ref="500390"/>
    <nd ref="500391"/>
    <nd ref="500392"/>
    <nd ref="500393"/>
    <nd ref="500394"/>
    <nd ref="500395"/>
    <nd ref="500397"/>
    <nd ref="500398"/>
    <nd ref="500399"/>
    <nd ref="500400"/>
    <nd ref="500401"/>
    <nd ref="500402"/>
    <nd ref="500403"/>
    <nd ref="500404"/>
    <nd ref="500405"/>
    <nd ref="500406"/>
    <nd ref="500407"/>
    <nd ref="500408"/>
    <nd ref="500409"/>
    <nd ref="612515450"/>
    <nd ref="500410"/>
    <nd ref="500411"/>
    <nd ref="267644422"/>
    <tag k="direction" v="W"/>
    <tag k="highway" v="motorway"/>
    <tag k="int_ref" v="E 50"/>
    <tag k="oneway" v="yes"/>
    <tag k="ref" v="A 6"/>
  </way>
  <way id="37872561" version="2" timestamp="2009-12-24T03:30:12Z" uid="6975" user="ulfl" changeset="3439740">
    <nd ref="367909876"/>
    <nd ref="368207527"/>
    <tag k="highway" v="residential"/>
    <tag k="name" v="Vicente Rocafuerte"/>
    <tag k="tunnel" v="yes"/>
  </way>
  <way id="37872703" version="2" timestamp="2010-03-22T06:33:51Z" uid="20587" user="balrog-kun" changeset="4199043">
    <nd ref="36199958"/>
    <nd ref="36171574"/>
    <nd ref="36206840"/>
    <nd ref="36202632"/>
    <nd ref="36227461"/>
    <nd ref="36217255"/>
    <tag k="created_by" v="JOSM"/>
    <tag k="highway" v="primary"/>
    <tag k="name" v="West St; Sherman Highway"/>
    <tag k="ref" v="US 97"/>
    <tag k="source" v="Yahoo image"/>
  </way>
  <way id="37872703" version="3" timestamp="2010-03-26T17:47:56Z" uid="20587" user="balrog-kun" changeset="4238822">
    <nd ref="36199958"/>
    <nd ref="36171574"/>
    <nd ref="36206840"/>
    <nd ref="36202632"/>
    <nd ref="36227461"/>
    <nd ref="36217255"/>
    <tag k="created_by" v="JOSM"/>
    <tag k="highway" v="primary"/>
    <tag k="name" v="East St; Sherman Highway"/>
    <tag k="ref" v="US 97"/>
    <tag k="source" v="Yahoo image"/>
  </way>
  <way id="37872705" version="2" timestamp="2010-03-22T06:33:52Z" uid="20587" user="balrog-kun" changeset="4199043">
    <nd ref="36192508"/>
    <nd ref="36199078"/>
    <nd ref="36204473"/>
    <nd ref="36221848"/>
    <nd ref="36209738"/>
    <nd ref="36192817"/>
    <tag k="created_by" v="JOSM"/>
    <tag k="highway" v="unclassified"/>
    <tag k="name" v="5th Street"/>
    <tag k="source" v="Yahoo image"/>
  </way>
</osm>
