<?xml version='1.0' encoding='UTF-8'?>
<osm version="0.6" generator="libosmium/2.20.0">
  <way id="38003284" version="3" timestamp="2011-05-16T19:52:35Z" uid="88880" user="firsttimelinux" changeset="8165964">
    <nd ref="259973734"/>
    <nd ref="1288177248"/>
    <nd ref="259973735"/>
    <nd ref="1288177238"/>
    <nd ref="259973736"/>
    <nd ref="1288177249"/>
    <nd ref="259973737"/>
    <nd ref="259973738"/>
    <tag k="highway" v="secondary"/>
    <tag k="loc_ref" v="17"/>
    <tag k="name" v="Poststrasse"/>
    <tag k="nat_ref" v="445"/>
    <tag k="note" v="Kantonsstrasse I. Klasse"/>
    <tag k="ref" v="445"/>
  </way>
  <way id="38003286" version="5" timestamp="2011-05-16T19:58:59Z" uid="88880" user="firsttimelinux" changeset="8166025">
    <nd ref="259973730"/>
    <nd ref="970534761"/>
    <nd ref="259973731"/>
    <nd ref="259973732"/>
    <nd ref="259973733"/>
    <nd ref="380338586"/>
    <nd ref="1094535121"/>
    <tag k="highway" v="secondary"/>
    <tag k="loc_ref" v="17"/>
    <tag k="name" v="Gruberstrasse"/>
    <tag k="nat_ref" v="445"/>
    <tag k="note" v="Kantonsstrasse I. Klasse"/>
    <tag k="ref" v="445"/>
  </way>
  <way id="38003286" version="6" timestamp="2011-06-13T18:29:49Z" uid="88880" user="firsttimelinux" changeset="8429730">
    <nd ref="259973730"/>
    <nd ref="970534761"/>
    <nd ref="259973731"/>
    <nd ref="259973732"/>
    <nd ref="259973733"/>
    <nd ref="1324131322"/>
    <nd ref="380338586"/>
    <nd ref="1094535121"/>
    <tag k="highway" v="secondary"/>
    <tag k="loc_ref" v="17"/>
    <tag k="name" v="Gruberstrasse"/>
    <tag k="nat_ref" v="445"/>
    <tag k="note" v="Kantonsstrasse I. Klasse"/>
    <tag k="ref" v="445"/>
  </way>
</osm>
