<?xml version='1.0' encoding='UTF-8'?>
<osm version="0.6" generator="libosmium/2.20.0">
  <way id="38080028" version="2" timestamp="2010-03-28T10:59:09Z" uid="20587" user="balrog-kun" changeset="4254597">
    <nd ref="91043405"/>
    <nd ref="91045928"/>
    <tag k="highway" v="secondary_link"/>
    <tag k="name" v="Washburn Avenue"/>
    <tag k="tiger:cfcc" v="A41"/>
    <tag k="tiger:county" v="Santa Cruz, CA"/>
    <tag k="tiger:name_base" v="Washburn"/>
    <tag k="tiger:name_type" v="Ave"/>
    <tag k="tiger:reviewed" v="no"/>
    <tag k="tiger:separated" v="no"/>
    <tag k="tiger:source" v="tiger_import_dch_v0.6_20070809"/>
    <tag k="tiger:tlid" v="125506321"/>
    <tag k="tiger:zip_left" v="95060"/>
  </way>
  <way id="38080029" version="2" timestamp="2010-03-28T10:59:09Z" uid="20587" user="balrog-kun" changeset="4254597">
    <nd ref="355929799"/>
    <nd ref="447878508"/>
    <nd ref="447878509"/>
    <tag k="highway" v="residential"/>
    <tag k="name" v="Victorian Court"/>
  </way>
  <way id="38080280" version="2" timestamp="2009-09-25T01:34:18Z" uid="103576" user="DiverCTH" changeset="2611211">
    <nd ref="447881126"/>
    <nd ref="447881144"/>
    <nd ref="447881145"/>
    <nd ref="447881146"/>
    <nd ref="447881147"/>
    <nd ref="447881148"/>
    <nd ref="447881149"/>
    <nd ref="506861723"/>
    <nd ref="447881150"/>
    <nd ref="506861724"/>
    <nd ref="506861727"/>
    <nd ref="506861732"/>
    <nd ref="506861733"/>
    <tag k="highway" v="motorway"/>
    <tag k="name" v="I-75"/>
    <tag k="oneway" v="yes"/>
  </way>
  <way id="38080280" version="3" timestamp="2009-09-25T01:37:56Z" uid="103576" user="DiverCTH" changeset="2611211">
    <nd ref="447881126"/>
    <nd ref="447881144"/>
    <nd ref="447881145"/>
    <nd ref="447881146"/>
    <nd ref="447881147"/>
    <nd ref="447881148"/>
    <nd ref="447881149"/>
    <nd ref="506861723"/>
    <nd ref="447881150"/>
    <nd ref="506861724"/>
    <nd ref="506861727"/>
    <nd ref="506861732"/>
    <nd ref="506861733"/>
    <nd ref="506861863"/>
    <nd ref="506861864"/>
    <nd ref="506861865"/>
    <nd ref="98879529"/>
    <tag k="highway" v="motorway"/>
    <tag k="name" v="I-75"/>
    <tag k="oneway" v="yes"/>
  </way>
  <way id="38080280" version="4" timestamp="2009-09-26T00:36:35Z" uid="103576" user="DiverCTH" changeset="2631604">
    <nd ref="447881126"/>
    <nd ref="447881144"/>
    <nd ref="447881145"/>
    <nd ref="447881146"/>
    <nd ref="447881147"/>
    <nd ref="447881148"/>
    <nd ref="447881149"/>
    <nd ref="506861723"/>
    <nd ref="447881150"/>
    <nd ref="506861724"/>
    <nd ref="506861727"/>
    <nd ref="506861732"/>
    <nd ref="506861733"/>
    <nd ref="506861863"/>
    <nd ref="506861864"/>
    <nd ref="506861865"/>
    <nd ref="98767930"/>
    <nd ref="508010200"/>
    <tag k="highway" v="motorway"/>
    <tag k="name" v="I-75"/>
    <tag k="oneway" v="yes"/>
  </way>
  <way id="38080466" version="1" timestamp="2009-07-25T16:28:38Z" uid="74617" user="JohnSmith" changeset="1936016">
    <nd ref="273128620"/>
    <nd ref="273128621"/>
    <nd ref="273128622"/>
    <nd ref="264113987"/>
    <nd ref="31002409"/>
    <nd ref="264113996"/>
    <nd ref="31002501"/>
    <nd ref="31002502"/>
    <nd ref="277839497"/>
    <tag k="highway" v="motorway"/>
    <tag k="name" v="Reid Highway"/>
    <tag k="oneway" v="yes"/>
    <tag k="ref" v="S3"/>
  </way>
  <way id="38080466" version="3" timestamp="2011-04-16T08:56:38Z" uid="4467" user="Rosscoe" changeset="7876403">
    <nd ref="273128620"/>
    <nd ref="273128621"/>
    <nd ref="273128622"/>
    <nd ref="264113987"/>
    <nd ref="31002409"/>
    <nd ref="1246637190"/>
    <nd ref="264113996"/>
    <nd ref="31002501"/>
    <nd ref="31002502"/>
    <nd ref="277839497"/>
    <tag k="highway" v="trunk"/>
    <tag k="name" v="Reid Highway"/>
    <tag k="oneway" v="yes"/>
    <tag k="ref" v="S3"/>
  </way>
  <way id="38080467" version="1" timestamp="2009-07-25T16:28:38Z" uid="74617" user="JohnSmith" changeset="1936016">
    <nd ref="447882672"/>
    <nd ref="273128620"/>
    <tag k="bridge" v="yes"/>
    <tag k="highway" v="motorway"/>
    <tag k="layer" v="1"/>
    <tag k="name" v="Reid Highway"/>
    <tag k="oneway" v="yes"/>
    <tag k="ref" v="S3"/>
  </way>
  <way id="38080468" version="1" timestamp="2009-07-25T16:28:38Z" uid="74617" user="JohnSmith" changeset="1936016">
    <nd ref="447882674"/>
    <nd ref="273127477"/>
    <nd ref="273127478"/>
    <nd ref="273127479"/>
    <nd ref="273127480"/>
    <nd ref="273127481"/>
    <nd ref="273127482"/>
    <nd ref="273127483"/>
    <tag k="highway" v="motorway"/>
    <tag k="name" v="Reid Highway"/>
    <tag k="oneway" v="yes"/>
    <tag k="ref" v="S3"/>
  </way>
  <way id="38080469" version="1" timestamp="2009-07-25T16:28:38Z" uid="74617" user="JohnSmith" changeset="1936016">
    <nd ref="447882673"/>
    <nd ref="447882674"/>
    <tag k="bridge" v="yes"/>
    <tag k="highway" v="motorway"/>
    <tag k="layer" v="1"/>
    <tag k="name" v="Reid Highway"/>
    <tag k="oneway" v="yes"/>
    <tag k="ref" v="S3"/>
  </way>
  <way id="38080494" version="5" timestamp="2010-10-18T04:44:21Z" uid="23543" user="jkjk" changeset="6075804">
    <nd ref="447883527"/>
    <nd ref="447883528"/>
    <nd ref="447883529"/>
    <nd ref="447883530"/>
    <nd ref="447883531"/>
    <nd ref="955602536"/>
    <nd ref="447883532"/>
    <nd ref="447883533"/>
    <nd ref="447883534"/>
    <nd ref="447883535"/>
    <nd ref="447883536"/>
    <nd ref="447883537"/>
    <nd ref="447883538"/>
    <nd ref="447883539"/>
    <nd ref="447883078"/>
    <nd ref="447883079"/>
    <nd ref="447883081"/>
    <nd ref="447883083"/>
    <nd ref="447883085"/>
    <nd ref="447883086"/>
    <nd ref="447883088"/>
    <nd ref="447883094"/>
    <nd ref="447883095"/>
    <nd ref="447883096"/>
    <nd ref="447883098"/>
    <nd ref="447883100"/>
    <nd ref="447883103"/>
    <nd ref="447883105"/>
    <nd ref="447883106"/>
    <nd ref="447882889"/>
    <nd ref="447882890"/>
    <nd ref="447882891"/>
    <nd ref="447882892"/>
    <nd ref="447882893"/>
    <nd ref="447882894"/>
    <nd ref="447882802"/>
    <nd ref="447882831"/>
    <nd ref="447882895"/>
    <nd ref="447882896"/>
    <nd ref="447882897"/>
    <nd ref="447882898"/>
    <nd ref="447882899"/>
    <nd ref="447882900"/>
    <nd ref="447882901"/>
    <nd ref="447882902"/>
    <nd ref="447882903"/>
    <nd ref="447882904"/>
    <nd ref="447883112"/>
    <nd ref="447883113"/>
    <nd ref="447883115"/>
    <nd ref="447883117"/>
    <nd ref="447883120"/>
    <nd ref="447883122"/>
    <nd ref="447883124"/>
    <nd ref="447883125"/>
    <nd ref="447883126"/>
    <nd ref="447883127"/>
    <nd ref="447883131"/>
    <nd ref="447883133"/>
    <nd ref="447883134"/>
    <nd ref="447883136"/>
    <nd ref="447883137"/>
    <nd ref="447883138"/>
    <nd ref="447883139"/>
    <nd ref="447883141"/>
    <nd ref="447883143"/>
    <nd ref="447883540"/>
    <nd ref="447883541"/>
    <nd ref="447883542"/>
    <nd ref="447883543"/>
    <nd ref="447883544"/>
    <nd ref="447883545"/>
    <nd ref="447883546"/>
    <nd ref="447883547"/>
    <nd ref="447883548"/>
    <nd ref="447883549"/>
    <nd ref="447883550"/>
    <nd ref="447883551"/>
    <nd ref="447883552"/>
    <nd ref="447883553"/>
    <nd ref="447883554"/>
    <nd ref="447883555"/>
    <nd ref="447883556"/>
    <nd ref="447883557"/>
    <nd ref="447883558"/>
    <nd ref="447883559"/>
    <nd ref="447883560"/>
    <nd ref="447883561"/>
    <nd ref="447883562"/>
    <nd ref="447883563"/>
    <nd ref="447883564"/>
    <nd ref="447883565"/>
    <nd ref="280103504"/>
    <nd ref="280103503"/>
    <nd ref="447883566"/>
    <nd ref="447883567"/>
    <nd ref="447883568"/>
    <nd ref="447883569"/>
    <nd ref="447883570"/>
    <nd ref="447883571"/>
    <nd ref="447883572"/>
    <nd ref="447883573"/>
    <nd ref="447883574"/>
    <nd ref="447883575"/>
    <nd ref="447883527"/>
    <tag k="source" v="landsat"/>
    <tag k="waterway" v="riverbank"/>
  </way>
  <way id="38080625" version="1" timestamp="2009-07-25T16:38:52Z" uid="74617" user="JohnSmith" changeset="1936092">
    <nd ref="413756344"/>
    <nd ref="413756343"/>
    <tag k="bridge" v="yes"/>
    <tag k="highway" v="trunk"/>
    <tag k="layer" v="1"/>
    <tag k="name" v="Great Eastern Highway"/>
    <tag k="ref" v="NH94"/>
  </way>
  <way id="38080626" version="1" timestamp="2009-07-25T16:38:52Z" uid="74617" user="JohnSmith" changeset="1936092">
    <nd ref="413756343"/>
    <nd ref="413759970"/>
    <nd ref="413756342"/>
    <nd ref="413756341"/>
    <nd ref="413756368"/>
    <nd ref="413756367"/>
    <nd ref="413756366"/>
    <nd ref="413756365"/>
    <tag k="highway" v="trunk"/>
    <tag k="name" v="Great Eastern Highway"/>
    <tag k="ref" v="NH94"/>
  </way>
  <way id="38080754" version="2" timestamp="2009-10-02T19:55:11Z" uid="86259" user="hasse_osm_korinthenkacker" changeset="2716821">
    <nd ref="312139744"/>
    <nd ref="312139746"/>
    <nd ref="447885615"/>
    <nd ref="312139747"/>
    <nd ref="312139748"/>
    <nd ref="312139749"/>
    <nd ref="312139751"/>
    <tag k="highway" v="construction"/>
  </way>
  <way id="38080864" version="2" timestamp="2009-10-02T19:54:42Z" uid="86259" user="hasse_osm_korinthenkacker" changeset="2716821">
    <nd ref="309180460"/>
    <nd ref="309180463"/>
    <nd ref="447883017"/>
    <tag k="highway" v="construction"/>
  </way>
  <way id="38080865" version="3" timestamp="2009-10-02T19:54:42Z" uid="86259" user="hasse_osm_korinthenkacker" changeset="2716821">
    <nd ref="447886791"/>
    <nd ref="306284165"/>
    <nd ref="288078316"/>
    <tag k="electrified" v="contact_line"/>
    <tag k="name" v="Holzkirchen, Kreuzstraße, Rosenheim"/>
    <tag k="railway" v="rail"/>
    <tag k="source" v="landsat"/>
  </way>
  <way id="38080865" version="4" timestamp="2009-10-23T11:38:33Z" uid="36809" user="pfoten_weg_!_" changeset="2928981">
    <nd ref="447886791"/>
    <nd ref="306284165"/>
    <nd ref="288078316"/>
    <tag k="electrified" v="contact_line"/>
    <tag k="name" v="Holzkirchen, Kreuzstraße, Rosenheim"/>
    <tag k="railway" v="rail"/>
  </way>
  <way id="38080866" version="3" timestamp="2009-10-02T19:54:42Z" uid="86259" user="hasse_osm_korinthenkacker" changeset="2716821">
    <nd ref="447886790"/>
    <nd ref="447886791"/>
    <tag k="electrified" v="contact_line"/>
    <tag k="layer" v="1"/>
    <tag k="name" v="Holzkirchen, Kreuzstraße, Rosenheim"/>
    <tag k="railway" v="rail"/>
    <tag k="source" v="landsat"/>
  </way>
  <way id="38080866" version="4" timestamp="2009-10-23T11:38:36Z" uid="36809" user="pfoten_weg_!_" changeset="2928981">
    <nd ref="447886790"/>
    <nd ref="447886791"/>
    <tag k="electrified" v="contact_line"/>
    <tag k="layer" v="1"/>
    <tag k="name" v="Holzkirchen, Kreuzstraße, Rosenheim"/>
    <tag k="railway" v="rail"/>
  </way>
  <way id="38080897" version="1" timestamp="2009-07-25T16:47:55Z" uid="74617" user="JohnSmith" changeset="1936162">
    <nd ref="351091444"/>
    <nd ref="331391226"/>
    <nd ref="331125308"/>
    <nd ref="331125309"/>
    <nd ref="331125310"/>
    <nd ref="331391217"/>
    <nd ref="331125311"/>
    <nd ref="331125312"/>
    <nd ref="331125313"/>
    <nd ref="331125314"/>
    <nd ref="331125315"/>
    <nd ref="331125316"/>
    <nd ref="331125317"/>
    <nd ref="331125318"/>
    <tag k="highway" v="residential"/>
    <tag k="name" v="Tilbury Street"/>
  </way>
  <way id="38080898" version="1" timestamp="2009-07-25T16:47:55Z" uid="74617" user="JohnSmith" changeset="1936162">
    <nd ref="186553751"/>
    <nd ref="351091444"/>
    <tag k="bridge" v="yes"/>
    <tag k="highway" v="residential"/>
    <tag k="layer" v="1"/>
    <tag k="name" v="Tilbury Street"/>
  </way>
  <way id="38080899" version="1" timestamp="2009-07-25T16:47:55Z" uid="74617" user="JohnSmith" changeset="1936162">
    <nd ref="447886984"/>
    <nd ref="447886983"/>
    <tag k="bridge" v="yes"/>
    <tag k="highway" v="residential"/>
    <tag k="layer" v="1"/>
    <tag k="name" v="Norton Park Avenue"/>
  </way>
  <way id="38080900" version="1" timestamp="2009-07-25T16:47:55Z" uid="74617" user="JohnSmith" changeset="1936162">
    <nd ref="447886983"/>
    <nd ref="186553779"/>
    <nd ref="186546038"/>
    <tag k="highway" v="residential"/>
    <tag k="name" v="Norton Park Avenue"/>
  </way>
  <way id="38080901" version="1" timestamp="2009-07-25T16:47:55Z" uid="74617" user="JohnSmith" changeset="1936162">
    <nd ref="447886986"/>
    <nd ref="447886985"/>
    <tag k="bridge" v="yes"/>
    <tag k="highway" v="residential"/>
    <tag k="layer" v="1"/>
    <tag k="name" v="Rossiter Avenue"/>
  </way>
  <way id="38080902" version="1" timestamp="2009-07-25T16:47:55Z" uid="74617" user="JohnSmith" changeset="1936162">
    <nd ref="447886985"/>
    <nd ref="186560964"/>
    <nd ref="331126384"/>
    <nd ref="331126385"/>
    <nd ref="186546998"/>
    <tag k="highway" v="residential"/>
    <tag k="name" v="Rossiter Avenue"/>
  </way>
  <way id="38080903" version="1" timestamp="2009-07-25T16:47:56Z" uid="74617" user="JohnSmith" changeset="1936162">
    <nd ref="447886987"/>
    <nd ref="447886988"/>
    <tag k="bridge" v="yes"/>
    <tag k="highway" v="residential"/>
    <tag k="layer" v="1"/>
  </way>
  <way id="38080904" version="1" timestamp="2009-07-25T16:47:56Z" uid="74617" user="JohnSmith" changeset="1936162">
    <nd ref="447886988"/>
    <nd ref="331349692"/>
    <nd ref="331349693"/>
    <nd ref="331349694"/>
    <nd ref="331349695"/>
    <nd ref="331349696"/>
    <nd ref="331349697"/>
    <nd ref="331349698"/>
    <nd ref="331349699"/>
    <nd ref="331349700"/>
    <nd ref="331349701"/>
    <nd ref="331349702"/>
    <nd ref="331349703"/>
    <nd ref="331349704"/>
    <nd ref="331349705"/>
    <nd ref="331349706"/>
    <nd ref="331349707"/>
    <nd ref="331349708"/>
    <nd ref="331349709"/>
    <nd ref="331349710"/>
    <nd ref="331349711"/>
    <nd ref="331349713"/>
    <nd ref="331349714"/>
    <nd ref="331349715"/>
    <nd ref="331349716"/>
    <tag k="highway" v="residential"/>
  </way>
  <way id="38080910" version="1" timestamp="2009-07-25T16:48:33Z" uid="74617" user="JohnSmith" changeset="1936167">
    <nd ref="447887201"/>
    <nd ref="447887202"/>
    <tag k="bridge" v="yes"/>
    <tag k="highway" v="unclassified"/>
    <tag k="layer" v="1"/>
    <tag k="name" v="Whites Line East"/>
    <tag k="source" v="knowledge"/>
  </way>
  <way id="38080911" version="1" timestamp="2009-07-25T16:48:33Z" uid="74617" user="JohnSmith" changeset="1936167">
    <nd ref="447887202"/>
    <nd ref="330368860"/>
    <nd ref="174817017"/>
    <nd ref="174817018"/>
    <tag k="highway" v="unclassified"/>
    <tag k="name" v="Whites Line East"/>
    <tag k="source" v="knowledge"/>
  </way>
</osm>
