<?xml version='1.0' encoding='UTF-8'?>
<osm version="0.6" generator="libosmium/2.20.0">
  <way id="38267521" version="2" timestamp="2009-07-30T02:42:52Z" uid="38528" user="acrosscanadatrails" changeset="1980834">
    <nd ref="451488763"/>
    <nd ref="451488688"/>
    <tag k="fixme" v="how to tag a public dock/wharf?"/>
    <tag k="highway" v="footway"/>
    <tag k="name" v="Horton Bay Public Dock"/>
  </way>
  <way id="38267599" version="3" timestamp="2010-07-08T19:40:20Z" uid="74617" user="JohnSmith" changeset="5168688">
    <nd ref="363669167"/>
    <nd ref="451489375"/>
    <nd ref="451489376"/>
    <nd ref="451489378"/>
    <nd ref="451489379"/>
    <nd ref="451489380"/>
    <nd ref="451489381"/>
    <nd ref="451489382"/>
    <nd ref="451489383"/>
    <nd ref="451489385"/>
    <nd ref="451489386"/>
    <tag k="highway" v="residential"/>
    <tag k="maxspeed" v="50"/>
    <tag k="maxspeed:source" v="default residential speed limit in Australia"/>
    <tag k="name" v="Evon Avenue"/>
  </way>
  <way id="38267685" version="2" timestamp="2010-07-08T19:45:35Z" uid="74617" user="JohnSmith" changeset="5168688">
    <nd ref="451489501"/>
    <nd ref="451489503"/>
    <nd ref="451489504"/>
    <tag k="highway" v="residential"/>
    <tag k="maxspeed" v="50"/>
    <tag k="maxspeed:source" v="default residential speed limit in Australia"/>
    <tag k="name" v="Woodford Close"/>
  </way>
</osm>
