<?xml version='1.0' encoding='UTF-8'?>
<osm version="0.6" generator="libosmium/2.20.0">
  <way id="38276348" version="3" timestamp="2009-08-17T09:10:30Z" uid="43967" user="railsnail" changeset="2175229">
    <nd ref="450685613"/>
    <nd ref="450685610"/>
    <nd ref="450685608"/>
    <nd ref="450685607"/>
    <nd ref="322921055"/>
    <nd ref="450685600"/>
    <nd ref="450685598"/>
    <nd ref="450685596"/>
    <nd ref="450685595"/>
    <nd ref="450685593"/>
    <nd ref="450595519"/>
    <nd ref="450685582"/>
    <nd ref="450685584"/>
    <nd ref="450685589"/>
    <nd ref="450685591"/>
    <nd ref="450685573"/>
    <nd ref="450685575"/>
    <nd ref="450685577"/>
    <nd ref="450685579"/>
    <nd ref="450685581"/>
    <tag k="highway" v="residential"/>
    <tag k="name" v="Obermauern"/>
    <tag k="surface" v="cobblestone"/>
  </way>
  <way id="38276348" version="4" timestamp="2009-08-17T09:11:43Z" uid="43967" user="railsnail" changeset="2175229">
    <nd ref="450685613"/>
    <nd ref="450685610"/>
    <nd ref="450685608"/>
    <tag k="highway" v="residential"/>
    <tag k="name" v="Obermauern"/>
    <tag k="surface" v="cobblestone"/>
  </way>
  <way id="38276348" version="5" timestamp="2009-08-17T09:12:12Z" uid="43967" user="railsnail" changeset="2175229">
    <nd ref="450685608"/>
    <nd ref="450685610"/>
    <nd ref="450685613"/>
    <tag k="highway" v="residential"/>
    <tag k="name" v="Obermauern"/>
    <tag k="oneway" v="yes"/>
    <tag k="surface" v="cobblestone"/>
  </way>
  <way id="38276348" version="6" timestamp="2009-08-17T09:12:34Z" uid="43967" user="railsnail" changeset="2175229">
    <nd ref="450685608"/>
    <nd ref="450685610"/>
    <nd ref="469713765"/>
    <nd ref="450685613"/>
    <tag k="highway" v="residential"/>
    <tag k="name" v="Obermauern"/>
    <tag k="oneway" v="yes"/>
    <tag k="surface" v="cobblestone"/>
  </way>
  <way id="38276348" version="7" timestamp="2009-08-18T07:24:04Z" uid="43967" user="railsnail" changeset="2186249">
    <nd ref="450685608"/>
    <nd ref="450685610"/>
    <nd ref="469713765"/>
    <nd ref="450685613"/>
    <nd ref="322921051"/>
    <nd ref="450685573"/>
    <tag k="addr:postcode" v="9972"/>
    <tag k="at:maxspeed" v="Ortsgebiet"/>
    <tag k="fixme" v="check import"/>
    <tag k="highway" v="residential"/>
    <tag k="is_in" v="...,Bezirk Lienz,Tirol,Ã–sterreich,Europa"/>
    <tag k="name" v="Obermauern"/>
    <tag k="note" v="imported from plan.at; (C)=CC-by-sa or oDBL; feel free to change if necessary"/>
    <tag k="oneway" v="yes"/>
    <tag k="plan_at:acad_id" v="lzD85"/>
    <tag k="source" v="plan.at 2008"/>
    <tag k="surface" v="cobblestone"/>
    <tag k="uploaded_by" v="Wolfgang W. Wasserburger"/>
  </way>
</osm>
