<?xml version='1.0' encoding='UTF-8'?>
<osm version="0.6" generator="libosmium/2.20.0">
  <way id="38342352" version="2" timestamp="2010-07-08T08:56:16Z" uid="74617" user="JohnSmith" changeset="5164427">
    <nd ref="452862717"/>
    <nd ref="452862719"/>
    <tag k="highway" v="residential"/>
    <tag k="maxspeed" v="50"/>
    <tag k="maxspeed:source" v="default residential speed limit in Australia"/>
    <tag k="name" v="Penda Avenue"/>
    <tag k="source" v="survey"/>
    <tag k="surface" v="paved"/>
  </way>
  <way id="38342353" version="2" timestamp="2009-10-16T16:02:19Z" uid="74617" user="JohnSmith" changeset="2866108">
    <nd ref="452862729"/>
    <nd ref="533772110"/>
    <nd ref="452862730"/>
    <nd ref="452862732"/>
    <tag k="highway" v="residential"/>
    <tag k="name" v="Norma Street"/>
    <tag k="source" v="survey"/>
    <tag k="surface" v="paved"/>
  </way>
  <way id="38342353" version="3" timestamp="2010-07-08T08:56:30Z" uid="74617" user="JohnSmith" changeset="5164427">
    <nd ref="452862729"/>
    <nd ref="533772110"/>
    <nd ref="452862730"/>
    <nd ref="452862732"/>
    <tag k="highway" v="residential"/>
    <tag k="maxspeed" v="50"/>
    <tag k="maxspeed:source" v="default residential speed limit in Australia"/>
    <tag k="name" v="Norma Street"/>
    <tag k="source" v="survey"/>
    <tag k="surface" v="paved"/>
  </way>
  <way id="38342354" version="3" timestamp="2009-10-16T15:49:30Z" uid="74617" user="JohnSmith" changeset="2865998">
    <nd ref="452862725"/>
    <nd ref="452862726"/>
    <nd ref="453005066"/>
    <nd ref="453005068"/>
    <nd ref="453005070"/>
    <nd ref="533765257"/>
    <nd ref="453005072"/>
    <nd ref="453005074"/>
    <nd ref="453005076"/>
    <nd ref="533765244"/>
    <nd ref="453005078"/>
    <tag k="highway" v="residential"/>
    <tag k="name" v="Cockatoo Drive"/>
    <tag k="source" v="survey"/>
    <tag k="surface" v="paved"/>
  </way>
  <way id="38342354" version="4" timestamp="2010-07-08T08:56:21Z" uid="74617" user="JohnSmith" changeset="5164427">
    <nd ref="452862725"/>
    <nd ref="452862726"/>
    <nd ref="453005066"/>
    <nd ref="453005068"/>
    <nd ref="453005070"/>
    <nd ref="533765257"/>
    <nd ref="453005072"/>
    <nd ref="453005074"/>
    <nd ref="453005076"/>
    <nd ref="533765244"/>
    <nd ref="453005078"/>
    <tag k="highway" v="residential"/>
    <tag k="maxspeed" v="50"/>
    <tag k="maxspeed:source" v="default residential speed limit in Australia"/>
    <tag k="name" v="Cockatoo Drive"/>
    <tag k="source" v="survey"/>
    <tag k="surface" v="paved"/>
  </way>
  <way id="38342355" version="3" timestamp="2010-07-08T08:56:34Z" uid="74617" user="JohnSmith" changeset="5164427">
    <nd ref="452862726"/>
    <nd ref="452862729"/>
    <nd ref="452862728"/>
    <tag k="highway" v="residential"/>
    <tag k="maxspeed" v="50"/>
    <tag k="maxspeed:source" v="default residential speed limit in Australia"/>
    <tag k="name" v="Lorikeet Avenue"/>
    <tag k="source" v="survey"/>
    <tag k="surface" v="paved"/>
  </way>
  <way id="38342356" version="2" timestamp="2010-07-08T08:56:04Z" uid="74617" user="JohnSmith" changeset="5164427">
    <nd ref="452862732"/>
    <nd ref="452862733"/>
    <tag k="highway" v="residential"/>
    <tag k="maxspeed" v="50"/>
    <tag k="maxspeed:source" v="default residential speed limit in Australia"/>
    <tag k="name" v="Luscombe Court"/>
    <tag k="source" v="survey"/>
    <tag k="surface" v="paved"/>
  </way>
  <way id="38342357" version="3" timestamp="2009-10-16T15:47:31Z" uid="74617" user="JohnSmith" changeset="2865987">
    <nd ref="452862723"/>
    <nd ref="533764700"/>
    <nd ref="533764690"/>
    <nd ref="533764691"/>
    <nd ref="453005064"/>
    <nd ref="452862733"/>
    <nd ref="452862725"/>
    <tag k="highway" v="residential"/>
    <tag k="name" v="Beak Street"/>
    <tag k="source" v="survey"/>
    <tag k="surface" v="paved"/>
  </way>
  <way id="38342357" version="4" timestamp="2009-10-16T16:02:18Z" uid="74617" user="JohnSmith" changeset="2866108">
    <nd ref="452862723"/>
    <nd ref="533764700"/>
    <nd ref="533764690"/>
    <nd ref="533764691"/>
    <nd ref="453005064"/>
    <nd ref="533772113"/>
    <nd ref="452862733"/>
    <nd ref="452862725"/>
    <tag k="highway" v="residential"/>
    <tag k="name" v="Beak Street"/>
    <tag k="source" v="survey"/>
    <tag k="surface" v="paved"/>
  </way>
  <way id="38342357" version="5" timestamp="2010-07-08T08:56:19Z" uid="74617" user="JohnSmith" changeset="5164427">
    <nd ref="452862723"/>
    <nd ref="533764700"/>
    <nd ref="533764690"/>
    <nd ref="533764691"/>
    <nd ref="453005064"/>
    <nd ref="533772113"/>
    <nd ref="452862733"/>
    <nd ref="452862725"/>
    <tag k="highway" v="residential"/>
    <tag k="maxspeed" v="50"/>
    <tag k="maxspeed:source" v="default residential speed limit in Australia"/>
    <tag k="name" v="Beak Street"/>
    <tag k="source" v="survey"/>
    <tag k="surface" v="paved"/>
  </way>
  <way id="38342358" version="2" timestamp="2009-10-16T15:47:31Z" uid="74617" user="JohnSmith" changeset="2865987">
    <nd ref="452862719"/>
    <nd ref="452862721"/>
    <nd ref="533764699"/>
    <nd ref="452862722"/>
    <nd ref="452862723"/>
    <tag k="highway" v="residential"/>
    <tag k="name" v="Shaw Street"/>
    <tag k="source" v="survey"/>
    <tag k="surface" v="paved"/>
  </way>
  <way id="38342358" version="3" timestamp="2009-10-16T16:02:18Z" uid="74617" user="JohnSmith" changeset="2866108">
    <nd ref="452862719"/>
    <nd ref="533772166"/>
    <nd ref="452862721"/>
    <nd ref="533764699"/>
    <nd ref="452862722"/>
    <nd ref="452862723"/>
    <tag k="highway" v="residential"/>
    <tag k="name" v="Shaw Street"/>
    <tag k="source" v="survey"/>
    <tag k="surface" v="paved"/>
  </way>
  <way id="38342358" version="4" timestamp="2010-07-08T08:56:10Z" uid="74617" user="JohnSmith" changeset="5164427">
    <nd ref="452862719"/>
    <nd ref="533772166"/>
    <nd ref="452862721"/>
    <nd ref="533764699"/>
    <nd ref="452862722"/>
    <nd ref="452862723"/>
    <tag k="highway" v="residential"/>
    <tag k="maxspeed" v="50"/>
    <tag k="maxspeed:source" v="default residential speed limit in Australia"/>
    <tag k="name" v="Shaw Street"/>
    <tag k="source" v="survey"/>
    <tag k="surface" v="paved"/>
  </way>
</osm>
