<?xml version='1.0' encoding='UTF-8'?>
<osm version="0.6" generator="libosmium/2.20.0">
  <way id="38367284" version="3" timestamp="2010-07-08T19:50:11Z" uid="74617" user="JohnSmith" changeset="5168688">
    <nd ref="453392581"/>
    <nd ref="453392583"/>
    <tag k="highway" v="residential"/>
    <tag k="maxspeed" v="50"/>
    <tag k="maxspeed:source" v="default residential speed limit in Australia"/>
    <tag k="name" v="Baringa Avenue"/>
  </way>
  <way id="38367285" version="3" timestamp="2010-07-08T19:52:13Z" uid="74617" user="JohnSmith" changeset="5168688">
    <nd ref="453392601"/>
    <nd ref="453392629"/>
    <nd ref="453392632"/>
    <nd ref="453392634"/>
    <nd ref="453392637"/>
    <nd ref="453392646"/>
    <tag k="highway" v="residential"/>
    <tag k="maxspeed" v="50"/>
    <tag k="maxspeed:source" v="default residential speed limit in Australia"/>
    <tag k="name" v="Royle Avenue"/>
  </way>
  <way id="38367287" version="3" timestamp="2010-07-08T19:59:11Z" uid="74617" user="JohnSmith" changeset="5168688">
    <nd ref="453392594"/>
    <nd ref="453392661"/>
    <nd ref="453392665"/>
    <nd ref="453392669"/>
    <nd ref="453392678"/>
    <nd ref="453392686"/>
    <tag k="highway" v="residential"/>
    <tag k="maxspeed" v="50"/>
    <tag k="maxspeed:source" v="default residential speed limit in Australia"/>
    <tag k="name" v="Norton Road"/>
  </way>
  <way id="38367291" version="4" timestamp="2010-06-02T01:48:37Z" uid="4467" user="Rosscoe" changeset="4880040">
    <nd ref="453392836"/>
    <nd ref="690618634"/>
    <nd ref="453392452"/>
    <tag k="highway" v="residential"/>
    <tag k="name" v="O Connors Road"/>
  </way>
  <way id="38367291" version="5" timestamp="2010-07-08T19:52:33Z" uid="74617" user="JohnSmith" changeset="5168688">
    <nd ref="453392836"/>
    <nd ref="690618634"/>
    <nd ref="453392452"/>
    <tag k="highway" v="residential"/>
    <tag k="maxspeed" v="50"/>
    <tag k="maxspeed:source" v="default residential speed limit in Australia"/>
    <tag k="name" v="O Connors Road"/>
  </way>
  <way id="38367292" version="3" timestamp="2010-06-02T08:00:13Z" uid="4467" user="Rosscoe" changeset="4881676">
    <nd ref="453392560"/>
    <nd ref="453392864"/>
    <nd ref="453392866"/>
    <nd ref="453392870"/>
    <nd ref="453392874"/>
    <nd ref="453392544"/>
    <tag k="highway" v="residential"/>
    <tag k="name" v="View Street"/>
  </way>
  <way id="38367292" version="4" timestamp="2010-07-08T19:53:02Z" uid="74617" user="JohnSmith" changeset="5168688">
    <nd ref="453392560"/>
    <nd ref="453392864"/>
    <nd ref="453392866"/>
    <nd ref="453392870"/>
    <nd ref="453392874"/>
    <nd ref="453392544"/>
    <tag k="highway" v="residential"/>
    <tag k="maxspeed" v="50"/>
    <tag k="maxspeed:source" v="default residential speed limit in Australia"/>
    <tag k="name" v="View Street"/>
  </way>
  <way id="38367293" version="4" timestamp="2010-06-02T00:51:06Z" uid="4467" user="Rosscoe" changeset="4879895">
    <nd ref="453392839"/>
    <nd ref="453392886"/>
    <nd ref="453392894"/>
    <nd ref="453392900"/>
    <nd ref="453392909"/>
    <nd ref="690621216"/>
    <nd ref="690621217"/>
    <nd ref="690621218"/>
    <nd ref="690621219"/>
    <nd ref="690621220"/>
    <tag k="highway" v="residential"/>
    <tag k="name" v="Murray Road"/>
  </way>
  <way id="38367293" version="5" timestamp="2010-07-08T19:54:44Z" uid="74617" user="JohnSmith" changeset="5168688">
    <nd ref="453392839"/>
    <nd ref="453392886"/>
    <nd ref="453392894"/>
    <nd ref="453392900"/>
    <nd ref="453392909"/>
    <nd ref="690621216"/>
    <nd ref="690621217"/>
    <nd ref="690621218"/>
    <nd ref="690621219"/>
    <nd ref="690621220"/>
    <tag k="highway" v="residential"/>
    <tag k="maxspeed" v="50"/>
    <tag k="maxspeed:source" v="default residential speed limit in Australia"/>
    <tag k="name" v="Murray Road"/>
  </way>
  <way id="38367539" version="2" timestamp="2010-04-03T17:14:03Z" uid="20587" user="balrog-kun" changeset="4313610">
    <nd ref="142062804"/>
    <nd ref="453408593"/>
    <tag k="bridge" v="yes"/>
    <tag k="highway" v="residential"/>
    <tag k="layer" v="1"/>
    <tag k="name" v="Fort Selden Road"/>
    <tag k="tiger:cfcc" v="A41"/>
    <tag k="tiger:county" v="Dona Ana, NM"/>
    <tag k="tiger:name_base" v="Fort Selden"/>
    <tag k="tiger:name_type" v="Rd"/>
    <tag k="tiger:reviewed" v="aerial"/>
    <tag k="tiger:separated" v="no"/>
    <tag k="tiger:source" v="tiger_import_dch_v0.6_20070828"/>
    <tag k="tiger:tlid" v="189531505:189531507:189531509"/>
  </way>
  <way id="38367541" version="2" timestamp="2010-04-03T17:14:04Z" uid="20587" user="balrog-kun" changeset="4313610">
    <nd ref="453408593"/>
    <nd ref="141930817"/>
    <nd ref="142062808"/>
    <nd ref="141967662"/>
    <tag k="highway" v="residential"/>
    <tag k="name" v="Fort Selden Road"/>
    <tag k="tiger:cfcc" v="A41"/>
    <tag k="tiger:county" v="Dona Ana, NM"/>
    <tag k="tiger:name_base" v="Fort Selden"/>
    <tag k="tiger:name_type" v="Rd"/>
    <tag k="tiger:reviewed" v="no"/>
    <tag k="tiger:separated" v="no"/>
    <tag k="tiger:source" v="tiger_import_dch_v0.6_20070828"/>
    <tag k="tiger:tlid" v="189531505:189531507:189531509"/>
  </way>
  <way id="38367590" version="3" timestamp="2010-04-03T04:18:03Z" uid="20587" user="balrog-kun" changeset="4309442">
    <nd ref="442593815"/>
    <nd ref="442593816"/>
    <tag k="highway" v="residential"/>
    <tag k="name" v="South Pheasant Drive"/>
  </way>
  <way id="38367591" version="4" timestamp="2010-04-03T04:18:03Z" uid="20587" user="balrog-kun" changeset="4309442">
    <nd ref="442593814"/>
    <nd ref="442593815"/>
    <tag k="highway" v="residential"/>
    <tag k="name" v="East Orchid Lane"/>
  </way>
  <way id="38367684" version="3" timestamp="2010-07-03T21:15:48Z" uid="4467" user="Rosscoe" changeset="5128089">
    <nd ref="313349626"/>
    <nd ref="313348889"/>
    <nd ref="281670811"/>
    <nd ref="453417768"/>
    <nd ref="453417773"/>
    <tag k="highway" v="primary"/>
    <tag k="name" v="Cuei-hua Road"/>
    <tag k="name:zh" v="翠華路"/>
    <tag k="oneway" v="true"/>
    <tag k="ref" v="Hwy 17"/>
  </way>
  <way id="38367695" version="2" timestamp="2009-12-03T17:48:32Z" uid="20587" user="balrog-kun" changeset="3281938"/>
  <way id="38367696" version="2" timestamp="2009-12-03T16:42:28Z" uid="20587" user="balrog-kun" changeset="3281938"/>
  <way id="38367697" version="2" timestamp="2009-12-03T19:15:07Z" uid="20587" user="balrog-kun" changeset="3283210"/>
  <way id="38367698" version="2" timestamp="2009-12-03T19:15:07Z" uid="20587" user="balrog-kun" changeset="3283210"/>
  <way id="38367699" version="2" timestamp="2009-12-03T18:54:16Z" uid="20587" user="balrog-kun" changeset="3281938"/>
  <way id="38367700" version="2" timestamp="2009-12-03T18:46:54Z" uid="20587" user="balrog-kun" changeset="3281938"/>
  <way id="38367744" version="3" timestamp="2010-04-13T17:32:39Z" uid="49111" user="Markus B" changeset="4415898">
    <nd ref="453342726"/>
    <nd ref="453342725"/>
    <nd ref="453342738"/>
    <nd ref="453342739"/>
    <nd ref="453342726"/>
    <tag k="addr:housenumber" v="3"/>
    <tag k="building" v="yes"/>
    <tag k="name" v="Brauerei Wolfshöhe"/>
    <tag k="shop" v="beverages"/>
    <tag k="source" v="Gemeinde Neunkirchen am Sand"/>
  </way>
</osm>
