<?xml version='1.0' encoding='UTF-8'?>
<osm version="0.6" generator="libosmium/2.20.0">
  <way id="38468549" version="1" timestamp="2009-08-03T03:48:38Z" uid="4467" user="Rosscoe" changeset="2021175">
    <nd ref="454831511"/>
    <nd ref="454831517"/>
    <nd ref="454831513"/>
    <nd ref="454831519"/>
    <nd ref="454831516"/>
    <nd ref="454831520"/>
    <nd ref="454831515"/>
    <nd ref="454831522"/>
    <nd ref="454831511"/>
    <tag k="highway" v="residential"/>
    <tag k="junction" v="roundabout"/>
    <tag k="name" v="Pur Pur Avenue"/>
    <tag k="source" v="survey"/>
  </way>
  <way id="38468549" version="2" timestamp="2010-07-07T19:24:56Z" uid="74617" user="JohnSmith" changeset="5161069">
    <nd ref="454831511"/>
    <nd ref="454831517"/>
    <nd ref="454831513"/>
    <nd ref="454831519"/>
    <nd ref="454831516"/>
    <nd ref="454831520"/>
    <nd ref="454831515"/>
    <nd ref="454831522"/>
    <nd ref="454831511"/>
    <tag k="highway" v="residential"/>
    <tag k="junction" v="roundabout"/>
    <tag k="maxspeed" v="50"/>
    <tag k="maxspeed:source" v="default residential speed limit in Australia"/>
    <tag k="name" v="Pur Pur Avenue"/>
    <tag k="source" v="survey"/>
  </way>
  <way id="38468551" version="1" timestamp="2009-08-03T03:48:38Z" uid="4467" user="Rosscoe" changeset="2021175">
    <nd ref="454831513"/>
    <nd ref="454831528"/>
    <tag k="highway" v="residential"/>
    <tag k="name" v="Ocean Street"/>
    <tag k="source" v="survey"/>
  </way>
  <way id="38468551" version="2" timestamp="2010-07-07T19:28:14Z" uid="74617" user="JohnSmith" changeset="5161069">
    <nd ref="454831513"/>
    <nd ref="454831528"/>
    <tag k="highway" v="residential"/>
    <tag k="maxspeed" v="50"/>
    <tag k="maxspeed:source" v="default residential speed limit in Australia"/>
    <tag k="name" v="Ocean Street"/>
    <tag k="source" v="survey"/>
  </way>
  <way id="38468552" version="1" timestamp="2009-08-03T03:48:38Z" uid="4467" user="Rosscoe" changeset="2021175">
    <nd ref="454831511"/>
    <nd ref="454823469"/>
    <nd ref="248836355"/>
    <tag k="highway" v="residential"/>
    <tag k="name" v="Pur Pur Avenue"/>
    <tag k="source" v="survey"/>
  </way>
  <way id="38468552" version="2" timestamp="2010-07-07T19:24:58Z" uid="74617" user="JohnSmith" changeset="5161069">
    <nd ref="454831511"/>
    <nd ref="454823469"/>
    <nd ref="248836355"/>
    <tag k="highway" v="residential"/>
    <tag k="maxspeed" v="50"/>
    <tag k="maxspeed:source" v="default residential speed limit in Australia"/>
    <tag k="name" v="Pur Pur Avenue"/>
    <tag k="source" v="survey"/>
  </way>
  <way id="38468554" version="1" timestamp="2009-08-03T03:48:38Z" uid="4467" user="Rosscoe" changeset="2021175">
    <nd ref="454831525"/>
    <nd ref="250954723"/>
    <tag k="highway" v="residential"/>
    <tag k="name" v="Ocean Street"/>
    <tag k="source" v="survey"/>
  </way>
  <way id="38468555" version="1" timestamp="2009-08-03T03:48:38Z" uid="4467" user="Rosscoe" changeset="2021175">
    <nd ref="454831523"/>
    <nd ref="454831529"/>
    <nd ref="454831525"/>
    <nd ref="454831531"/>
    <nd ref="454831526"/>
    <nd ref="454831537"/>
    <nd ref="454831528"/>
    <nd ref="454831539"/>
    <nd ref="454831523"/>
    <tag k="highway" v="residential"/>
    <tag k="junction" v="roundabout"/>
    <tag k="name" v="Reddall Parade"/>
    <tag k="source" v="survey"/>
  </way>
  <way id="38468555" version="2" timestamp="2010-07-07T19:24:25Z" uid="74617" user="JohnSmith" changeset="5161069">
    <nd ref="454831523"/>
    <nd ref="454831529"/>
    <nd ref="454831525"/>
    <nd ref="454831531"/>
    <nd ref="454831526"/>
    <nd ref="454831537"/>
    <nd ref="454831528"/>
    <nd ref="454831539"/>
    <nd ref="454831523"/>
    <tag k="highway" v="residential"/>
    <tag k="junction" v="roundabout"/>
    <tag k="maxspeed" v="50"/>
    <tag k="maxspeed:source" v="default residential speed limit in Australia"/>
    <tag k="name" v="Reddall Parade"/>
    <tag k="source" v="survey"/>
  </way>
  <way id="38468557" version="1" timestamp="2009-08-03T03:48:39Z" uid="4467" user="Rosscoe" changeset="2021175">
    <nd ref="454831523"/>
    <nd ref="248836579"/>
    <tag k="highway" v="residential"/>
    <tag k="name" v="Reddall Parade"/>
    <tag k="source" v="survey"/>
  </way>
  <way id="38468557" version="3" timestamp="2010-07-07T19:24:03Z" uid="74617" user="JohnSmith" changeset="5161069">
    <nd ref="454831523"/>
    <nd ref="775983973"/>
    <nd ref="775983949"/>
    <nd ref="775984117"/>
    <nd ref="248836579"/>
    <tag k="highway" v="residential"/>
    <tag k="maxspeed" v="50"/>
    <tag k="maxspeed:source" v="default residential speed limit in Australia"/>
    <tag k="name" v="Reddall Parade"/>
    <tag k="source" v="survey"/>
  </way>
</osm>
