<?xml version='1.0' encoding='UTF-8'?>
<osm version="0.6" generator="libosmium/2.20.0">
  <way id="38504358" version="2" timestamp="2009-10-18T12:20:07Z" uid="43967" user="railsnail" changeset="2882720">
    <nd ref="270528462"/>
    <nd ref="270528464"/>
    <nd ref="270528466"/>
    <nd ref="270528467"/>
    <nd ref="270528468"/>
    <nd ref="270528469"/>
    <nd ref="271733987"/>
    <nd ref="270528470"/>
    <tag k="addr:postcode" v="9900"/>
    <tag k="at:maxspeed" v="Ortsgebiet"/>
    <tag k="foot" v="yes"/>
    <tag k="highway" v="cycleway"/>
    <tag k="is_in" v="...,Bezirk Lienz,Tirol,Österreich,Europa"/>
    <tag k="name" v="Lienz"/>
    <tag k="note" v="imported from plan.at; (C)=CC-by-sa or oDBL; feel free to change if necessary"/>
    <tag k="plan_at:acad_id" v="lz1AB"/>
    <tag k="source" v="plan.at 2008"/>
    <tag k="uploaded_by" v="Wolfgang W. Wasserburger"/>
  </way>
  <way id="38504358" version="3" timestamp="2009-10-19T15:24:42Z" uid="43967" user="railsnail" changeset="2895248">
    <nd ref="270528462"/>
    <nd ref="270528464"/>
    <nd ref="270528466"/>
    <nd ref="270528467"/>
    <nd ref="270528468"/>
    <nd ref="270528469"/>
    <nd ref="535389277"/>
    <nd ref="271733987"/>
    <nd ref="270528470"/>
    <tag k="addr:postcode" v="9900"/>
    <tag k="at:maxspeed" v="Ortsgebiet"/>
    <tag k="foot" v="yes"/>
    <tag k="highway" v="cycleway"/>
    <tag k="is_in" v="...,Bezirk Lienz,Tirol,Österreich,Europa"/>
    <tag k="name" v="Lienz"/>
    <tag k="note" v="imported from plan.at; (C)=CC-by-sa or oDBL; feel free to change if necessary"/>
    <tag k="plan_at:acad_id" v="lz1AB"/>
    <tag k="source" v="plan.at 2008"/>
    <tag k="uploaded_by" v="Wolfgang W. Wasserburger"/>
  </way>
  <way id="38504358" version="4" timestamp="2010-05-12T12:48:00Z" uid="43967" user="railsnail" changeset="4676850">
    <nd ref="270528462"/>
    <nd ref="270528464"/>
    <nd ref="270528466"/>
    <nd ref="270528467"/>
    <nd ref="270528468"/>
    <nd ref="270528469"/>
    <nd ref="535389277"/>
    <nd ref="730800197"/>
    <nd ref="271733987"/>
    <nd ref="270528470"/>
    <tag k="addr:postcode" v="9900"/>
    <tag k="at:maxspeed" v="Ortsgebiet"/>
    <tag k="foot" v="yes"/>
    <tag k="highway" v="cycleway"/>
    <tag k="is_in" v="...,Bezirk Lienz,Tirol,Österreich,Europa"/>
    <tag k="name" v="Lienz"/>
    <tag k="note" v="imported from plan.at; (C)=CC-by-sa or oDBL; feel free to change if necessary"/>
    <tag k="plan_at:acad_id" v="lz1AB"/>
    <tag k="source" v="plan.at 2008"/>
    <tag k="uploaded_by" v="Wolfgang W. Wasserburger"/>
  </way>
  <way id="38504404" version="2" timestamp="2010-09-28T21:23:28Z" uid="66036" user="h4v" changeset="5907476">
    <nd ref="455541342"/>
    <nd ref="455541464"/>
    <nd ref="455541466"/>
    <tag k="highway" v="track"/>
    <tag k="name" v="Graniczna"/>
    <tag k="tracktype" v="grade2"/>
  </way>
</osm>
