<?xml version='1.0' encoding='UTF-8'?>
<osm version="0.6" generator="libosmium/2.20.0">
  <way id="38550043" version="4" timestamp="2010-04-06T14:38:44Z" uid="20587" user="balrog-kun" changeset="4342997">
    <nd ref="456358638"/>
    <nd ref="456358813"/>
    <tag k="bridge" v="yes"/>
    <tag k="highway" v="secondary"/>
    <tag k="layer" v="1"/>
    <tag k="name" v="Kansas Avenue"/>
    <tag k="name_1" v="State Highway 32"/>
    <tag k="name_2" v="Old Highway 132"/>
    <tag k="tiger:cfcc" v="A31"/>
    <tag k="tiger:county" v="Wyandotte, KS"/>
    <tag k="tiger:name_base" v="Kansas"/>
    <tag k="tiger:name_base_1" v="State Highway 32"/>
    <tag k="tiger:name_base_2" v="Old Hwy 132"/>
    <tag k="tiger:name_type" v="Ave"/>
    <tag k="tiger:reviewed" v="yes"/>
    <tag k="tiger:separated" v="no"/>
    <tag k="tiger:source" v="tiger_import_dch_v0.6_20070812"/>
    <tag k="tiger:tlid" v="91150380:91150377"/>
    <tag k="tiger:zip_left" v="66105"/>
    <tag k="tiger:zip_right" v="66105"/>
  </way>
  <way id="38550076" version="3" timestamp="2010-04-06T14:38:45Z" uid="20587" user="balrog-kun" changeset="4342997">
    <nd ref="456358813"/>
    <nd ref="123410465"/>
    <nd ref="123410467"/>
    <nd ref="123410469"/>
    <nd ref="123410472"/>
    <nd ref="123410475"/>
    <nd ref="123410477"/>
    <nd ref="123410478"/>
    <nd ref="123323198"/>
    <nd ref="123410479"/>
    <nd ref="123410482"/>
    <nd ref="123410484"/>
    <nd ref="123326839"/>
    <nd ref="123318351"/>
    <nd ref="123325550"/>
    <nd ref="123318289"/>
    <nd ref="123336587"/>
    <nd ref="123318299"/>
    <nd ref="123324306"/>
    <nd ref="123410486"/>
    <nd ref="123410492"/>
    <nd ref="123334715"/>
    <nd ref="123334760"/>
    <nd ref="123336692"/>
    <nd ref="123321609"/>
    <nd ref="123317989"/>
    <nd ref="123364027"/>
    <nd ref="123410495"/>
    <nd ref="123322483"/>
    <nd ref="123410497"/>
    <nd ref="123410499"/>
    <nd ref="123318010"/>
    <nd ref="123410500"/>
    <nd ref="123345357"/>
    <tag k="highway" v="secondary"/>
    <tag k="name" v="Kansas Avenue"/>
    <tag k="name_1" v="State Highway 32"/>
    <tag k="name_2" v="Old Highway 132"/>
    <tag k="tiger:cfcc" v="A31"/>
    <tag k="tiger:county" v="Wyandotte, KS"/>
    <tag k="tiger:name_base" v="Kansas"/>
    <tag k="tiger:name_base_1" v="State Highway 32"/>
    <tag k="tiger:name_base_2" v="Old Hwy 132"/>
    <tag k="tiger:name_type" v="Ave"/>
    <tag k="tiger:reviewed" v="no"/>
    <tag k="tiger:separated" v="no"/>
    <tag k="tiger:source" v="tiger_import_dch_v0.6_20070812"/>
    <tag k="tiger:tlid" v="91150380:91150377"/>
    <tag k="tiger:zip_left" v="66105"/>
    <tag k="tiger:zip_right" v="66105"/>
  </way>
  <way id="38550501" version="7" timestamp="2010-04-06T14:38:45Z" uid="20587" user="balrog-kun" changeset="4342997">
    <nd ref="456361775"/>
    <nd ref="456361816"/>
    <tag k="bridge" v="yes"/>
    <tag k="highway" v="motorway"/>
    <tag k="layer" v="1"/>
    <tag k="name" v="South 18th Street Expressway"/>
    <tag k="oneway" v="yes"/>
    <tag k="ref" v="US 69"/>
    <tag k="tiger:cfcc" v="A45"/>
    <tag k="tiger:county" v="Wyandotte, KS"/>
    <tag k="tiger:name_base" v="18th St"/>
    <tag k="tiger:name_direction_prefix" v="S"/>
    <tag k="tiger:name_type" v="Expy"/>
    <tag k="tiger:reviewed" v="yes"/>
    <tag k="tiger:separated" v="yes"/>
    <tag k="tiger:source" v="tiger_import_dch_v0.6_20070812"/>
    <tag k="tiger:tlid" v="91149691:91149692:91142031:91142026:91149689"/>
  </way>
  <way id="38550505" version="7" timestamp="2010-04-06T14:38:45Z" uid="20587" user="balrog-kun" changeset="4342997">
    <nd ref="456361816"/>
    <nd ref="456362735"/>
    <nd ref="123418487"/>
    <tag k="highway" v="motorway"/>
    <tag k="name" v="South 18th Street Expressway"/>
    <tag k="oneway" v="yes"/>
    <tag k="ref" v="US 69"/>
    <tag k="tiger:cfcc" v="A45"/>
    <tag k="tiger:county" v="Wyandotte, KS"/>
    <tag k="tiger:name_base" v="18th St"/>
    <tag k="tiger:name_direction_prefix" v="S"/>
    <tag k="tiger:name_type" v="Expy"/>
    <tag k="tiger:reviewed" v="no"/>
    <tag k="tiger:separated" v="yes"/>
    <tag k="tiger:source" v="tiger_import_dch_v0.6_20070812"/>
    <tag k="tiger:tlid" v="91149691:91149692:91142031:91142026:91149689"/>
  </way>
  <way id="38550509" version="6" timestamp="2010-04-06T14:38:46Z" uid="20587" user="balrog-kun" changeset="4342997">
    <nd ref="456361818"/>
    <nd ref="456361796"/>
    <tag k="bridge" v="yes"/>
    <tag k="highway" v="motorway"/>
    <tag k="layer" v="1"/>
    <tag k="name" v="South 18th Street Expressway"/>
    <tag k="oneway" v="yes"/>
    <tag k="ref" v="US 69"/>
    <tag k="tiger:cfcc" v="A25"/>
    <tag k="tiger:county" v="Wyandotte, KS"/>
    <tag k="tiger:name_base" v="18th St"/>
    <tag k="tiger:name_direction_prefix" v="S"/>
    <tag k="tiger:name_type" v="Expy"/>
    <tag k="tiger:reviewed" v="yes"/>
    <tag k="tiger:separated" v="yes"/>
    <tag k="tiger:source" v="tiger_import_dch_v0.6_20070812"/>
    <tag k="tiger:tlid" v="91145643:91149997:91140433:91140435:91140404:91140386:91140389:91150525:91144079:91148465"/>
  </way>
  <way id="38550513" version="7" timestamp="2010-04-06T14:38:46Z" uid="20587" user="balrog-kun" changeset="4342997">
    <nd ref="123418577"/>
    <nd ref="456362728"/>
    <nd ref="456361818"/>
    <tag k="highway" v="motorway"/>
    <tag k="name" v="South 18th Street Expressway"/>
    <tag k="oneway" v="yes"/>
    <tag k="ref" v="US 69"/>
    <tag k="tiger:cfcc" v="A25"/>
    <tag k="tiger:county" v="Wyandotte, KS"/>
    <tag k="tiger:name_base" v="18th St"/>
    <tag k="tiger:name_direction_prefix" v="S"/>
    <tag k="tiger:name_type" v="Expy"/>
    <tag k="tiger:reviewed" v="no"/>
    <tag k="tiger:separated" v="yes"/>
    <tag k="tiger:source" v="tiger_import_dch_v0.6_20070812"/>
    <tag k="tiger:tlid" v="91145643:91149997:91140433:91140435:91140404:91140386:91140389:91150525:91144079:91148465"/>
  </way>
  <way id="38550635" version="8" timestamp="2010-04-06T14:38:46Z" uid="20587" user="balrog-kun" changeset="4342997">
    <nd ref="123418487"/>
    <nd ref="456363367"/>
    <nd ref="456363370"/>
    <nd ref="456362955"/>
    <tag k="bridge" v="yes"/>
    <tag k="highway" v="motorway"/>
    <tag k="layer" v="1"/>
    <tag k="name" v="South 18th Street Expressway"/>
    <tag k="oneway" v="yes"/>
    <tag k="ref" v="US 69"/>
    <tag k="tiger:cfcc" v="A45"/>
    <tag k="tiger:county" v="Wyandotte, KS"/>
    <tag k="tiger:name_base" v="18th St"/>
    <tag k="tiger:name_direction_prefix" v="S"/>
    <tag k="tiger:name_type" v="Expy"/>
    <tag k="tiger:reviewed" v="yes"/>
    <tag k="tiger:separated" v="yes"/>
    <tag k="tiger:source" v="tiger_import_dch_v0.6_20070812"/>
    <tag k="tiger:tlid" v="91149691:91149692:91142031:91142026:91149689"/>
  </way>
  <way id="38550637" version="10" timestamp="2010-04-06T14:38:47Z" uid="20587" user="balrog-kun" changeset="4342997">
    <nd ref="123418588"/>
    <nd ref="456363548"/>
    <nd ref="456363240"/>
    <nd ref="123418577"/>
    <tag k="bridge" v="yes"/>
    <tag k="highway" v="motorway"/>
    <tag k="layer" v="1"/>
    <tag k="name" v="South 18th Street Expressway"/>
    <tag k="oneway" v="yes"/>
    <tag k="ref" v="US 69"/>
    <tag k="tiger:cfcc" v="A25"/>
    <tag k="tiger:county" v="Wyandotte, KS"/>
    <tag k="tiger:name_base" v="18th St"/>
    <tag k="tiger:name_direction_prefix" v="S"/>
    <tag k="tiger:name_type" v="Expy"/>
    <tag k="tiger:reviewed" v="yes"/>
    <tag k="tiger:separated" v="yes"/>
    <tag k="tiger:source" v="tiger_import_dch_v0.6_20070812"/>
    <tag k="tiger:tlid" v="91145643:91149997:91140433:91140435:91140404:91140386:91140389:91150525:91144079:91148465"/>
  </way>
  <way id="38550657" version="7" timestamp="2010-04-06T14:38:47Z" uid="20587" user="balrog-kun" changeset="4342997">
    <nd ref="456362955"/>
    <nd ref="123418501"/>
    <tag k="highway" v="motorway"/>
    <tag k="name" v="South 18th Street Expressway"/>
    <tag k="oneway" v="yes"/>
    <tag k="ref" v="US 69"/>
    <tag k="tiger:cfcc" v="A45"/>
    <tag k="tiger:county" v="Wyandotte, KS"/>
    <tag k="tiger:name_base" v="18th St"/>
    <tag k="tiger:name_direction_prefix" v="S"/>
    <tag k="tiger:name_type" v="Expy"/>
    <tag k="tiger:reviewed" v="no"/>
    <tag k="tiger:separated" v="yes"/>
    <tag k="tiger:source" v="tiger_import_dch_v0.6_20070812"/>
    <tag k="tiger:tlid" v="91149691:91149692:91142031:91142026:91149689"/>
  </way>
  <way id="38550665" version="6" timestamp="2010-04-06T14:38:47Z" uid="20587" user="balrog-kun" changeset="4342997">
    <nd ref="123418590"/>
    <nd ref="123418588"/>
    <tag k="highway" v="motorway"/>
    <tag k="name" v="South 18th Street Expressway"/>
    <tag k="oneway" v="yes"/>
    <tag k="ref" v="US 69"/>
    <tag k="tiger:cfcc" v="A25"/>
    <tag k="tiger:county" v="Wyandotte, KS"/>
    <tag k="tiger:name_base" v="18th St"/>
    <tag k="tiger:name_direction_prefix" v="S"/>
    <tag k="tiger:name_type" v="Expy"/>
    <tag k="tiger:reviewed" v="no"/>
    <tag k="tiger:separated" v="yes"/>
    <tag k="tiger:source" v="tiger_import_dch_v0.6_20070812"/>
    <tag k="tiger:tlid" v="91145643:91149997:91140433:91140435:91140404:91140386:91140389:91150525:91144079:91148465"/>
  </way>
  <way id="38550709" version="7" timestamp="2010-04-06T14:38:47Z" uid="20587" user="balrog-kun" changeset="4342997">
    <nd ref="456363697"/>
    <nd ref="123418503"/>
    <tag k="highway" v="motorway"/>
    <tag k="name" v="South 18th Street Expressway"/>
    <tag k="oneway" v="yes"/>
    <tag k="ref" v="US 69"/>
    <tag k="tiger:cfcc" v="A45"/>
    <tag k="tiger:county" v="Wyandotte, KS"/>
    <tag k="tiger:name_base" v="18th St"/>
    <tag k="tiger:name_direction_prefix" v="S"/>
    <tag k="tiger:name_type" v="Expy"/>
    <tag k="tiger:reviewed" v="no"/>
    <tag k="tiger:separated" v="yes"/>
    <tag k="tiger:source" v="tiger_import_dch_v0.6_20070812"/>
    <tag k="tiger:tlid" v="91149691:91149692:91142031:91142026:91149689"/>
  </way>
  <way id="38550710" version="5" timestamp="2010-04-06T14:38:48Z" uid="20587" user="balrog-kun" changeset="4342997">
    <nd ref="440618981"/>
    <nd ref="123312769"/>
    <nd ref="123328187"/>
    <tag k="highway" v="trunk"/>
    <tag k="name" v="South 18th Street Expressway"/>
    <tag k="oneway" v="yes"/>
    <tag k="ref" v="US 69"/>
    <tag k="tiger:cfcc" v="A25"/>
    <tag k="tiger:county" v="Wyandotte, KS"/>
    <tag k="tiger:name_base" v="18th St"/>
    <tag k="tiger:name_direction_prefix" v="S"/>
    <tag k="tiger:name_type" v="Expy"/>
    <tag k="tiger:reviewed" v="no"/>
    <tag k="tiger:separated" v="yes"/>
    <tag k="tiger:source" v="tiger_import_dch_v0.6_20070812"/>
    <tag k="tiger:tlid" v="91145643:91149997:91140433:91140435:91140404:91140386:91140389:91150525:91144079:91148465"/>
  </way>
  <way id="38550711" version="7" timestamp="2010-04-06T14:38:48Z" uid="20587" user="balrog-kun" changeset="4342997">
    <nd ref="456363698"/>
    <nd ref="123418590"/>
    <tag k="bridge" v="yes"/>
    <tag k="highway" v="motorway"/>
    <tag k="layer" v="1"/>
    <tag k="name" v="South 18th Street Expressway"/>
    <tag k="oneway" v="yes"/>
    <tag k="ref" v="US 69"/>
    <tag k="tiger:cfcc" v="A25"/>
    <tag k="tiger:county" v="Wyandotte, KS"/>
    <tag k="tiger:name_base" v="18th St"/>
    <tag k="tiger:name_direction_prefix" v="S"/>
    <tag k="tiger:name_type" v="Expy"/>
    <tag k="tiger:reviewed" v="yes"/>
    <tag k="tiger:separated" v="yes"/>
    <tag k="tiger:source" v="tiger_import_dch_v0.6_20070812"/>
    <tag k="tiger:tlid" v="91145643:91149997:91140433:91140435:91140404:91140386:91140389:91150525:91144079:91148465"/>
  </way>
  <way id="38550713" version="6" timestamp="2010-04-06T14:38:48Z" uid="20587" user="balrog-kun" changeset="4342997">
    <nd ref="123418501"/>
    <nd ref="456363697"/>
    <tag k="bridge" v="yes"/>
    <tag k="highway" v="motorway"/>
    <tag k="layer" v="1"/>
    <tag k="name" v="South 18th Street Expressway"/>
    <tag k="oneway" v="yes"/>
    <tag k="ref" v="US 69"/>
    <tag k="tiger:cfcc" v="A45"/>
    <tag k="tiger:county" v="Wyandotte, KS"/>
    <tag k="tiger:name_base" v="18th St"/>
    <tag k="tiger:name_direction_prefix" v="S"/>
    <tag k="tiger:name_type" v="Expy"/>
    <tag k="tiger:reviewed" v="yes"/>
    <tag k="tiger:separated" v="yes"/>
    <tag k="tiger:source" v="tiger_import_dch_v0.6_20070812"/>
    <tag k="tiger:tlid" v="91149691:91149692:91142031:91142026:91149689"/>
  </way>
  <way id="38550782" version="5" timestamp="2010-04-06T14:38:48Z" uid="20587" user="balrog-kun" changeset="4342997">
    <nd ref="123403644"/>
    <nd ref="123344187"/>
    <tag k="bridge" v="yes"/>
    <tag k="highway" v="residential"/>
    <tag k="layer" v="1"/>
    <tag k="name" v="South 12th Street"/>
    <tag k="tiger:cfcc" v="A41"/>
    <tag k="tiger:county" v="Wyandotte, KS"/>
    <tag k="tiger:name_base" v="12th"/>
    <tag k="tiger:name_direction_prefix" v="S"/>
    <tag k="tiger:name_type" v="St"/>
    <tag k="tiger:reviewed" v="yes"/>
    <tag k="tiger:separated" v="no"/>
    <tag k="tiger:source" v="tiger_import_dch_v0.6_20070812"/>
    <tag k="tiger:tlid" v="91141409:91141408:91141416"/>
    <tag k="tiger:zip_left" v="66103"/>
    <tag k="tiger:zip_right" v="66103"/>
  </way>
  <way id="38550794" version="2" timestamp="2010-04-06T14:38:48Z" uid="20587" user="balrog-kun" changeset="4342997">
    <nd ref="123344187"/>
    <nd ref="123395625"/>
    <tag k="highway" v="residential"/>
    <tag k="name" v="South 12th Street"/>
    <tag k="tiger:cfcc" v="A41"/>
    <tag k="tiger:county" v="Wyandotte, KS"/>
    <tag k="tiger:name_base" v="12th"/>
    <tag k="tiger:name_direction_prefix" v="S"/>
    <tag k="tiger:name_type" v="St"/>
    <tag k="tiger:reviewed" v="no"/>
    <tag k="tiger:separated" v="no"/>
    <tag k="tiger:source" v="tiger_import_dch_v0.6_20070812"/>
    <tag k="tiger:tlid" v="91141409:91141408:91141416"/>
    <tag k="tiger:zip_left" v="66103"/>
    <tag k="tiger:zip_right" v="66103"/>
  </way>
  <way id="38550982" version="8" timestamp="2010-04-06T14:38:49Z" uid="20587" user="balrog-kun" changeset="4342997">
    <nd ref="456365944"/>
    <nd ref="456367474"/>
    <tag k="bridge" v="yes"/>
    <tag k="highway" v="primary"/>
    <tag k="layer" v="1"/>
    <tag k="name" v="South 7th Street Tfwy"/>
    <tag k="ref" v="US 169"/>
    <tag k="tiger:cfcc" v="A21"/>
    <tag k="tiger:county" v="Wyandotte, KS"/>
    <tag k="tiger:name_base" v="7th Street"/>
    <tag k="tiger:name_direction_prefix" v="S"/>
    <tag k="tiger:name_type" v="Tfwy"/>
    <tag k="tiger:separated" v="no"/>
    <tag k="tiger:source" v="tiger_import_dch_v0.6_20070812"/>
    <tag k="tiger:tlid" v="91141715:91141719:91150090:91150600:91144844:91144629:91141701:91150599:91142977:91150091:91150092:91142971:91143980:91150089"/>
  </way>
</osm>
