<?xml version='1.0' encoding='UTF-8'?>
<osm version="0.6" generator="libosmium/2.20.0">
  <way id="38701256" version="1" timestamp="2009-08-08T05:37:22Z" uid="18775" user="drlizau" changeset="2071871">
    <nd ref="458704692"/>
    <nd ref="458704691"/>
    <tag k="highway" v="residential"/>
  </way>
  <way id="38701256" version="2" timestamp="2009-08-08T07:45:26Z" uid="18775" user="drlizau" changeset="2072739">
    <nd ref="458704692"/>
    <nd ref="458719374"/>
    <nd ref="458704691"/>
    <tag k="highway" v="residential"/>
    <tag k="name" v="Railway Terrace North"/>
  </way>
  <way id="38701256" version="3" timestamp="2009-08-08T08:07:56Z" uid="18775" user="drlizau" changeset="2072946">
    <nd ref="206199865"/>
    <nd ref="458723166"/>
    <nd ref="458719374"/>
    <nd ref="458704691"/>
    <tag k="highway" v="residential"/>
    <tag k="name" v="Railway Terrace North"/>
  </way>
  <way id="38701256" version="4" timestamp="2009-08-08T09:44:21Z" uid="18775" user="drlizau" changeset="2073794">
    <nd ref="206199865"/>
    <nd ref="458723166"/>
    <nd ref="458719374"/>
    <nd ref="458704691"/>
    <tag k="highway" v="residential"/>
    <tag k="name" v="Railway Terrace North"/>
    <tag k="source" v="survey"/>
  </way>
  <way id="38701257" version="1" timestamp="2009-08-08T05:37:22Z" uid="18775" user="drlizau" changeset="2071871">
    <nd ref="458704688"/>
    <nd ref="458704690"/>
    <tag k="highway" v="residential"/>
  </way>
  <way id="38701257" version="2" timestamp="2009-08-08T08:07:56Z" uid="18775" user="drlizau" changeset="2072946">
    <nd ref="458704688"/>
    <nd ref="458704690"/>
    <tag k="highway" v="residential"/>
    <tag k="name" v="North Avenue"/>
  </way>
  <way id="38701257" version="3" timestamp="2009-08-08T09:44:21Z" uid="18775" user="drlizau" changeset="2073794">
    <nd ref="458704688"/>
    <nd ref="458704690"/>
    <tag k="highway" v="residential"/>
    <tag k="name" v="North Avenue"/>
    <tag k="source" v="survey"/>
  </way>
  <way id="38701258" version="1" timestamp="2009-08-08T05:37:22Z" uid="18775" user="drlizau" changeset="2071871">
    <nd ref="250028016"/>
    <nd ref="250028018"/>
    <tag k="highway" v="residential"/>
  </way>
  <way id="38701258" version="2" timestamp="2009-08-08T07:45:26Z" uid="18775" user="drlizau" changeset="2072739">
    <nd ref="250028016"/>
    <nd ref="250028018"/>
    <tag k="highway" v="residential"/>
    <tag k="name" v="Railway Terrace South"/>
  </way>
  <way id="38701258" version="3" timestamp="2009-08-08T07:58:39Z" uid="18775" user="drlizau" changeset="2072859">
    <nd ref="250028016"/>
    <nd ref="458721719"/>
    <nd ref="250028018"/>
    <tag k="highway" v="residential"/>
    <tag k="name" v="Railway Terrace South"/>
  </way>
  <way id="38701258" version="4" timestamp="2009-08-08T09:44:21Z" uid="18775" user="drlizau" changeset="2073794">
    <nd ref="250028016"/>
    <nd ref="458721719"/>
    <nd ref="250028018"/>
    <tag k="highway" v="residential"/>
    <tag k="name" v="Railway Terrace South"/>
    <tag k="source" v="survey"/>
  </way>
  <way id="38701259" version="1" timestamp="2009-08-08T05:37:22Z" uid="18775" user="drlizau" changeset="2071871">
    <nd ref="458704691"/>
    <nd ref="458704686"/>
    <tag k="highway" v="residential"/>
  </way>
  <way id="38701259" version="2" timestamp="2009-08-08T07:40:17Z" uid="18775" user="drlizau" changeset="2072703">
    <nd ref="458704691"/>
    <nd ref="458704686"/>
    <tag k="highway" v="residential"/>
    <tag k="name" v="Duffield Terrace"/>
  </way>
  <way id="38701259" version="3" timestamp="2009-08-08T09:44:21Z" uid="18775" user="drlizau" changeset="2073794">
    <nd ref="458704691"/>
    <nd ref="458704686"/>
    <tag k="highway" v="residential"/>
    <tag k="name" v="Duffield Terrace"/>
    <tag k="source" v="survey"/>
  </way>
  <way id="38701260" version="1" timestamp="2009-08-08T05:37:22Z" uid="18775" user="drlizau" changeset="2071871">
    <nd ref="458704686"/>
    <nd ref="458704687"/>
    <nd ref="206199876"/>
    <nd ref="458704688"/>
    <nd ref="458704689"/>
    <tag k="highway" v="residential"/>
  </way>
  <way id="38701260" version="2" timestamp="2009-08-08T07:45:26Z" uid="18775" user="drlizau" changeset="2072739">
    <nd ref="458704686"/>
    <nd ref="458719375"/>
    <nd ref="458704687"/>
    <nd ref="206199876"/>
    <nd ref="458704688"/>
    <nd ref="458704689"/>
    <tag k="highway" v="residential"/>
    <tag k="name" v="Vardon Terrace"/>
  </way>
  <way id="38701260" version="3" timestamp="2009-08-08T09:44:22Z" uid="18775" user="drlizau" changeset="2073794">
    <nd ref="458704686"/>
    <nd ref="458719375"/>
    <nd ref="458704687"/>
    <nd ref="206199876"/>
    <nd ref="458704688"/>
    <nd ref="458704689"/>
    <tag k="highway" v="residential"/>
    <tag k="name" v="Vardon Terrace"/>
    <tag k="source" v="survey"/>
  </way>
  <way id="38701261" version="1" timestamp="2009-08-08T05:37:22Z" uid="18775" user="drlizau" changeset="2071871">
    <nd ref="458704693"/>
    <nd ref="458704694"/>
    <nd ref="458704695"/>
    <tag k="highway" v="residential"/>
  </way>
  <way id="38701261" version="2" timestamp="2009-08-08T07:40:17Z" uid="18775" user="drlizau" changeset="2072703">
    <nd ref="458704710"/>
    <nd ref="458704694"/>
    <nd ref="458704695"/>
    <tag k="highway" v="residential"/>
  </way>
  <way id="38701261" version="3" timestamp="2009-08-08T07:45:26Z" uid="18775" user="drlizau" changeset="2072739">
    <nd ref="458704710"/>
    <nd ref="458704694"/>
    <nd ref="458704695"/>
    <tag k="highway" v="residential"/>
    <tag k="name" v="Railway Terrace South"/>
  </way>
  <way id="38701261" version="4" timestamp="2009-08-08T07:58:39Z" uid="18775" user="drlizau" changeset="2072859">
    <nd ref="458704710"/>
    <nd ref="458704694"/>
    <nd ref="458721717"/>
    <nd ref="458704695"/>
    <tag k="highway" v="residential"/>
    <tag k="name" v="Railway Terrace South"/>
  </way>
  <way id="38701261" version="5" timestamp="2009-08-08T09:44:22Z" uid="18775" user="drlizau" changeset="2073794">
    <nd ref="458704710"/>
    <nd ref="458704694"/>
    <nd ref="458721717"/>
    <nd ref="458704695"/>
    <tag k="highway" v="residential"/>
    <tag k="name" v="Railway Terrace South"/>
    <tag k="source" v="survey"/>
  </way>
  <way id="38701261" version="7" timestamp="2010-02-09T06:09:11Z" uid="18775" user="drlizau" changeset="3829230">
    <nd ref="458704710"/>
    <nd ref="458704694"/>
    <nd ref="610129820"/>
    <nd ref="610129854"/>
    <nd ref="610129855"/>
    <tag k="highway" v="residential"/>
    <tag k="name" v="Railway Terrace South"/>
    <tag k="source" v="gps"/>
    <tag k="surface" v="asphalt"/>
  </way>
  <way id="38701262" version="1" timestamp="2009-08-08T05:37:22Z" uid="18775" user="drlizau" changeset="2071871">
    <nd ref="458704694"/>
    <nd ref="458704696"/>
    <tag k="highway" v="residential"/>
  </way>
  <way id="38701262" version="2" timestamp="2009-08-08T07:40:17Z" uid="18775" user="drlizau" changeset="2072703">
    <nd ref="458704694"/>
    <nd ref="458704696"/>
    <tag k="highway" v="residential"/>
    <tag k="name" v="Spicer Street"/>
  </way>
  <way id="38701262" version="3" timestamp="2009-08-08T09:44:22Z" uid="18775" user="drlizau" changeset="2073794">
    <nd ref="458704694"/>
    <nd ref="458704696"/>
    <tag k="highway" v="residential"/>
    <tag k="name" v="Spicer Street"/>
    <tag k="source" v="survey"/>
  </way>
  <way id="38701263" version="1" timestamp="2009-08-08T05:37:22Z" uid="18775" user="drlizau" changeset="2071871">
    <nd ref="458704697"/>
    <nd ref="458704698"/>
    <tag k="highway" v="residential"/>
  </way>
  <way id="38701263" version="2" timestamp="2009-08-08T07:40:17Z" uid="18775" user="drlizau" changeset="2072703">
    <nd ref="458704697"/>
    <nd ref="458704698"/>
    <tag k="highway" v="residential"/>
    <tag k="name" v="Louisa Street"/>
  </way>
  <way id="38701263" version="3" timestamp="2009-08-08T09:44:22Z" uid="18775" user="drlizau" changeset="2073794">
    <nd ref="458704697"/>
    <nd ref="458704698"/>
    <tag k="highway" v="residential"/>
    <tag k="name" v="Louisa Street"/>
    <tag k="source" v="survey"/>
  </way>
  <way id="38701264" version="1" timestamp="2009-08-08T05:37:22Z" uid="18775" user="drlizau" changeset="2071871">
    <nd ref="458704700"/>
    <nd ref="458704697"/>
    <nd ref="458704699"/>
    <tag k="highway" v="residential"/>
    <tag k="oneway" v="yes"/>
  </way>
  <way id="38701264" version="2" timestamp="2009-08-08T07:40:17Z" uid="18775" user="drlizau" changeset="2072703">
    <nd ref="458704700"/>
    <nd ref="458704697"/>
    <nd ref="458704699"/>
    <nd ref="458718442"/>
    <tag k="highway" v="residential"/>
    <tag k="name" v="Chandos Terrace"/>
    <tag k="oneway" v="yes"/>
  </way>
  <way id="38701264" version="3" timestamp="2009-08-08T09:44:22Z" uid="18775" user="drlizau" changeset="2073794">
    <nd ref="458704700"/>
    <nd ref="458704697"/>
    <nd ref="458704699"/>
    <nd ref="458718442"/>
    <tag k="highway" v="residential"/>
    <tag k="name" v="Chandos Terrace"/>
    <tag k="oneway" v="yes"/>
    <tag k="source" v="survey"/>
  </way>
  <way id="38701265" version="1" timestamp="2009-08-08T05:37:22Z" uid="18775" user="drlizau" changeset="2071871">
    <nd ref="458704701"/>
    <nd ref="458704702"/>
    <nd ref="458704703"/>
    <nd ref="458704700"/>
    <tag k="highway" v="residential"/>
    <tag k="oneway" v="yes"/>
  </way>
  <way id="38701265" version="2" timestamp="2009-08-08T07:40:18Z" uid="18775" user="drlizau" changeset="2072703">
    <nd ref="458718442"/>
    <nd ref="458704701"/>
    <nd ref="458704702"/>
    <nd ref="458704703"/>
    <nd ref="458704700"/>
    <tag k="highway" v="residential"/>
    <tag k="name" v="Chandos Terrace"/>
    <tag k="oneway" v="yes"/>
  </way>
  <way id="38701265" version="3" timestamp="2009-08-08T09:44:22Z" uid="18775" user="drlizau" changeset="2073794">
    <nd ref="458718442"/>
    <nd ref="458704701"/>
    <nd ref="458704702"/>
    <nd ref="458704703"/>
    <nd ref="458704700"/>
    <tag k="highway" v="residential"/>
    <tag k="name" v="Chandos Terrace"/>
    <tag k="oneway" v="yes"/>
    <tag k="source" v="survey"/>
  </way>
  <way id="38701265" version="6" timestamp="2010-02-09T06:09:12Z" uid="18775" user="drlizau" changeset="3829230">
    <nd ref="458718442"/>
    <nd ref="458704701"/>
    <nd ref="610156589"/>
    <nd ref="458704702"/>
    <nd ref="458704703"/>
    <nd ref="610129851"/>
    <nd ref="610129854"/>
    <tag k="highway" v="residential"/>
    <tag k="name" v="Chandos Terrace"/>
    <tag k="oneway" v="yes"/>
    <tag k="source" v="gps"/>
  </way>
  <way id="38701266" version="1" timestamp="2009-08-08T05:37:22Z" uid="18775" user="drlizau" changeset="2071871">
    <nd ref="458704704"/>
    <nd ref="458704696"/>
    <nd ref="458704703"/>
    <tag k="highway" v="residential"/>
  </way>
  <way id="38701266" version="2" timestamp="2009-08-08T07:40:18Z" uid="18775" user="drlizau" changeset="2072703">
    <nd ref="458704704"/>
    <nd ref="458704696"/>
    <nd ref="458704703"/>
    <tag k="highway" v="residential"/>
    <tag k="name" v="Oval Terrace"/>
  </way>
  <way id="38701266" version="3" timestamp="2009-08-08T07:58:39Z" uid="18775" user="drlizau" changeset="2072859">
    <nd ref="458704704"/>
    <nd ref="458704696"/>
    <nd ref="458721716"/>
    <nd ref="458704703"/>
    <tag k="highway" v="residential"/>
    <tag k="name" v="Oval Terrace"/>
  </way>
  <way id="38701266" version="4" timestamp="2009-08-08T09:44:22Z" uid="18775" user="drlizau" changeset="2073794">
    <nd ref="458704704"/>
    <nd ref="458704696"/>
    <nd ref="458721716"/>
    <nd ref="458704703"/>
    <tag k="highway" v="residential"/>
    <tag k="name" v="Oval Terrace"/>
    <tag k="source" v="survey"/>
  </way>
  <way id="38701267" version="1" timestamp="2009-08-08T05:37:22Z" uid="18775" user="drlizau" changeset="2071871">
    <nd ref="250028018"/>
    <nd ref="458704700"/>
    <tag k="highway" v="residential"/>
  </way>
  <way id="38701267" version="2" timestamp="2009-08-08T09:44:22Z" uid="18775" user="drlizau" changeset="2073794">
    <nd ref="250028018"/>
    <nd ref="458704700"/>
    <tag k="highway" v="residential"/>
    <tag k="source" v="survey"/>
  </way>
  <way id="38701268" version="1" timestamp="2009-08-08T05:37:22Z" uid="18775" user="drlizau" changeset="2071871">
    <nd ref="458704705"/>
    <nd ref="458704706"/>
    <nd ref="458704707"/>
    <nd ref="458704708"/>
    <nd ref="458704709"/>
    <tag k="highway" v="residential"/>
  </way>
  <way id="38701268" version="2" timestamp="2009-08-08T07:40:18Z" uid="18775" user="drlizau" changeset="2072703">
    <nd ref="458704705"/>
    <nd ref="458704706"/>
    <nd ref="458704707"/>
    <nd ref="458704708"/>
    <nd ref="458704709"/>
    <tag k="highway" v="residential"/>
    <tag k="name" v="Yappara Road"/>
  </way>
  <way id="38701268" version="3" timestamp="2009-08-08T09:44:22Z" uid="18775" user="drlizau" changeset="2073794">
    <nd ref="458704705"/>
    <nd ref="458704706"/>
    <nd ref="458704707"/>
    <nd ref="458704708"/>
    <nd ref="458704709"/>
    <tag k="highway" v="residential"/>
    <tag k="name" v="Yappara Road"/>
    <tag k="source" v="survey"/>
  </way>
  <way id="38701268" version="4" timestamp="2009-08-08T23:25:46Z" uid="18775" user="drlizau" changeset="2080467">
    <nd ref="458704705"/>
    <nd ref="458704706"/>
    <nd ref="458704707"/>
    <nd ref="458704708"/>
    <nd ref="458704709"/>
    <tag k="highway" v="residential"/>
    <tag k="name" v="Yappara Road"/>
    <tag k="source" v="survey"/>
  </way>
  <way id="38701268" version="6" timestamp="2010-02-09T06:09:12Z" uid="18775" user="drlizau" changeset="3829230">
    <nd ref="458704705"/>
    <nd ref="458704706"/>
    <nd ref="458704707"/>
    <nd ref="458704708"/>
    <nd ref="458704709"/>
    <tag k="highway" v="tertiary"/>
    <tag k="maxspeed" v="50"/>
    <tag k="name" v="Yappara Road"/>
    <tag k="source" v="gps"/>
  </way>
  <way id="38701269" version="1" timestamp="2009-08-08T05:37:22Z" uid="18775" user="drlizau" changeset="2071871">
    <nd ref="458704700"/>
    <nd ref="458704711"/>
    <tag k="highway" v="residential"/>
  </way>
  <way id="38701269" version="2" timestamp="2009-08-08T07:40:18Z" uid="18775" user="drlizau" changeset="2072703">
    <nd ref="458704700"/>
    <nd ref="458704711"/>
    <tag k="highway" v="residential"/>
    <tag k="name" v="Butler Terrace"/>
  </way>
  <way id="38701269" version="3" timestamp="2009-08-08T07:58:39Z" uid="18775" user="drlizau" changeset="2072859">
    <nd ref="458704700"/>
    <nd ref="458721718"/>
    <nd ref="458704711"/>
    <tag k="highway" v="residential"/>
    <tag k="name" v="Butler Terrace"/>
  </way>
  <way id="38701269" version="4" timestamp="2009-08-08T09:44:22Z" uid="18775" user="drlizau" changeset="2073794">
    <nd ref="458704700"/>
    <nd ref="458721718"/>
    <nd ref="458704711"/>
    <tag k="highway" v="residential"/>
    <tag k="name" v="Butler Terrace"/>
    <tag k="source" v="survey"/>
  </way>
  <way id="38701386" version="2" timestamp="2009-09-30T13:08:19Z" uid="36809" user="pfoten_weg_!_" changeset="2687909">
    <nd ref="25269554"/>
    <nd ref="142563307"/>
    <nd ref="30512465"/>
    <nd ref="30512477"/>
    <tag k="highway" v="unclassified"/>
    <tag k="maxspeed" v="30"/>
    <tag k="name" v="Puchermühlstraße"/>
  </way>
  <way id="38701478" version="2" timestamp="2009-08-08T23:40:11Z" uid="4467" user="Rosscoe" changeset="2080516">
    <nd ref="458706530"/>
    <nd ref="458706527"/>
    <nd ref="458706532"/>
    <nd ref="458706534"/>
    <nd ref="324240847"/>
    <nd ref="459387912"/>
    <nd ref="458706530"/>
    <tag k="highway" v="residential"/>
    <tag k="junction" v="roundabout"/>
    <tag k="name" v="Josephine Boulevard"/>
  </way>
  <way id="38701483" version="2" timestamp="2009-08-08T23:40:11Z" uid="4467" user="Rosscoe" changeset="2080516">
    <nd ref="458706533"/>
    <nd ref="458706553"/>
    <tag k="bridge" v="yes"/>
    <tag k="highway" v="residential"/>
    <tag k="layer" v="1"/>
    <tag k="name" v="Baruah Parade"/>
  </way>
  <way id="38701486" version="2" timestamp="2009-08-08T23:40:11Z" uid="4467" user="Rosscoe" changeset="2080516">
    <nd ref="458706494"/>
    <nd ref="458706520"/>
    <nd ref="458706563"/>
    <nd ref="458706511"/>
    <nd ref="324241265"/>
    <tag k="highway" v="residential"/>
    <tag k="name" v="John Gollan Avenue"/>
  </way>
  <way id="38701496" version="2" timestamp="2009-08-08T23:40:10Z" uid="4467" user="Rosscoe" changeset="2080516">
    <nd ref="458706561"/>
    <nd ref="458706562"/>
    <nd ref="458706563"/>
    <tag k="highway" v="footway"/>
  </way>
  <way id="38701720" version="3" timestamp="2010-04-18T08:14:56Z" uid="4467" user="Rosscoe" changeset="4455076">
    <nd ref="458709656"/>
    <nd ref="700738046"/>
    <nd ref="458709690"/>
    <nd ref="700738044"/>
    <nd ref="458709722"/>
    <nd ref="700738040"/>
    <nd ref="458709656"/>
    <tag k="highway" v="residential"/>
    <tag k="junction" v="roundabout"/>
  </way>
  <way id="38701842" version="2" timestamp="2010-04-17T06:55:03Z" uid="30201" user="rrankin" changeset="4444865">
    <nd ref="458710662"/>
    <nd ref="458710664"/>
    <nd ref="458710663"/>
    <nd ref="458710665"/>
    <nd ref="458710667"/>
    <nd ref="699573140"/>
    <nd ref="458710666"/>
    <tag k="highway" v="service"/>
    <tag k="service" v="parking_aisle"/>
    <tag k="source" v="survey"/>
  </way>
  <way id="38701844" version="2" timestamp="2010-04-17T06:55:12Z" uid="30201" user="rrankin" changeset="4444865"/>
</osm>
