<?xml version='1.0' encoding='UTF-8'?>
<osm version="0.6" generator="libosmium/2.20.0">
  <way id="38730219" version="2" timestamp="2009-11-10T02:54:22Z" uid="36809" user="pfoten_weg_!_" changeset="3079509">
    <nd ref="252906084"/>
    <nd ref="459155968"/>
    <nd ref="459155969"/>
    <nd ref="459155970"/>
    <nd ref="459155971"/>
    <nd ref="459155972"/>
    <nd ref="459155973"/>
    <nd ref="459155974"/>
    <nd ref="459155975"/>
    <nd ref="459155976"/>
    <nd ref="459155977"/>
    <nd ref="459155978"/>
    <nd ref="459155979"/>
  </way>
  <way id="38730220" version="2" timestamp="2009-11-10T02:54:22Z" uid="36809" user="pfoten_weg_!_" changeset="3079509">
    <nd ref="459155972"/>
    <nd ref="459155980"/>
    <nd ref="459155981"/>
    <nd ref="459155982"/>
    <nd ref="31524123"/>
  </way>
  <way id="38730611" version="2" timestamp="2009-11-11T11:16:12Z" uid="20587" user="balrog-kun" changeset="3089068">
    <nd ref="454216502"/>
    <nd ref="459149082"/>
    <tag k="layer" v="2"/>
    <tag k="railway" v="rail"/>
  </way>
  <way id="38730625" version="5" timestamp="2009-08-31T17:45:54Z" uid="36809" user="pfoten_weg_!_" changeset="2328905">
    <nd ref="192006224"/>
    <nd ref="97173896"/>
    <tag k="bicycle" v="yes"/>
    <tag k="foot" v="yes"/>
    <tag k="highway" v="track"/>
    <tag k="name" v="Max-Josef-Geräumt"/>
    <tag k="source" v="survey"/>
    <tag k="tracktype" v="grade2"/>
  </way>
  <way id="38730625" version="6" timestamp="2009-10-12T21:51:19Z" uid="36809" user="pfoten_weg_!_" changeset="2831247">
    <nd ref="192006224"/>
    <nd ref="97173896"/>
    <tag k="bicycle" v="yes"/>
    <tag k="foot" v="yes"/>
    <tag k="highway" v="track"/>
    <tag k="name" v="Max-Josef-Geräumt"/>
    <tag k="tracktype" v="grade2"/>
  </way>
  <way id="38730646" version="5" timestamp="2009-09-29T01:17:23Z" uid="36809" user="pfoten_weg_!_" changeset="2671973">
    <nd ref="459158636"/>
    <nd ref="365104566"/>
    <nd ref="389250078"/>
    <nd ref="389250079"/>
    <nd ref="268523401"/>
    <nd ref="389250073"/>
    <nd ref="389250072"/>
    <nd ref="389250081"/>
    <nd ref="287895223"/>
    <tag k="highway" v="secondary"/>
    <tag k="name" v="Olympiastraße"/>
    <tag k="ref" v="St 2065"/>
    <tag k="source" v="survey"/>
  </way>
  <way id="38730646" version="6" timestamp="2009-10-12T21:19:56Z" uid="36809" user="pfoten_weg_!_" changeset="2831084">
    <nd ref="459158636"/>
    <nd ref="365104566"/>
    <nd ref="389250078"/>
    <nd ref="389250079"/>
    <nd ref="268523401"/>
    <nd ref="389250073"/>
    <nd ref="389250072"/>
    <nd ref="389250081"/>
    <nd ref="287895223"/>
    <tag k="highway" v="secondary"/>
    <tag k="name" v="Olympiastraße"/>
    <tag k="ref" v="St 2065"/>
  </way>
</osm>
