<?xml version='1.0' encoding='UTF-8'?>
<osm version="0.6" generator="libosmium/2.20.0">
  <way id="38771059" version="4" timestamp="2011-05-01T21:36:57Z" uid="9581" user="Lobelt" changeset="8026384">
    <nd ref="35303117"/>
    <nd ref="563298744"/>
    <nd ref="459794725"/>
    <nd ref="459794726"/>
    <nd ref="287869611"/>
    <tag k="highway" v="track"/>
  </way>
  <way id="38771300" version="1" timestamp="2009-08-09T15:38:07Z" uid="143719" user="DarkoS" changeset="2087189">
    <nd ref="21775172"/>
    <nd ref="459796851"/>
    <tag k="highway" v="residential"/>
    <tag k="name" v="Kotarnica"/>
    <tag k="surface" v="paved"/>
    <tag k="width" v="20"/>
  </way>
  <way id="38771301" version="1" timestamp="2009-08-09T15:38:08Z" uid="143719" user="DarkoS" changeset="2087189">
    <nd ref="21774663"/>
    <nd ref="21775273"/>
    <tag k="highway" v="residential"/>
    <tag k="surface" v="paved"/>
  </way>
  <way id="38771302" version="1" timestamp="2009-08-09T15:38:08Z" uid="143719" user="DarkoS" changeset="2087189">
    <nd ref="459796860"/>
    <nd ref="459796864"/>
    <nd ref="459796861"/>
    <tag k="highway" v="residential"/>
    <tag k="name" v="Hrnetička II"/>
    <tag k="oneway" v="yes"/>
    <tag k="surface" v="paved"/>
    <tag k="width" v="4"/>
  </way>
  <way id="38771303" version="1" timestamp="2009-08-09T15:38:08Z" uid="143719" user="DarkoS" changeset="2087189">
    <nd ref="459796865"/>
    <nd ref="459796867"/>
    <tag k="highway" v="service"/>
    <tag k="service" v="parking_aisle"/>
    <tag k="surface" v="paved"/>
  </way>
  <way id="38771304" version="1" timestamp="2009-08-09T15:38:08Z" uid="143719" user="DarkoS" changeset="2087189">
    <nd ref="459796868"/>
    <nd ref="459796870"/>
    <tag k="highway" v="service"/>
    <tag k="service" v="parking_aisle"/>
    <tag k="surface" v="paved"/>
  </way>
  <way id="38771325" version="2" timestamp="2010-03-28T10:15:54Z" uid="20587" user="balrog-kun" changeset="4254597">
    <nd ref="459797281"/>
    <nd ref="459797284"/>
    <nd ref="459797273"/>
    <tag k="highway" v="residential"/>
    <tag k="name" v="Nettle Creek Court"/>
  </way>
  <way id="38771327" version="2" timestamp="2010-03-28T10:15:54Z" uid="20587" user="balrog-kun" changeset="4254597">
    <nd ref="459797285"/>
    <nd ref="459797286"/>
    <nd ref="459797287"/>
    <nd ref="459797288"/>
    <nd ref="459797287"/>
    <nd ref="459797271"/>
    <tag k="highway" v="residential"/>
    <tag k="name" v="Lytton Creek Court"/>
  </way>
  <way id="38771333" version="3" timestamp="2010-03-28T10:15:54Z" uid="20587" user="balrog-kun" changeset="4254597">
    <nd ref="459797317"/>
    <nd ref="460207523"/>
    <nd ref="459797320"/>
    <nd ref="459797322"/>
    <nd ref="459797323"/>
    <nd ref="459797325"/>
    <nd ref="459797326"/>
    <nd ref="459797327"/>
    <nd ref="459797328"/>
    <nd ref="459797329"/>
    <nd ref="459797330"/>
    <nd ref="459797331"/>
    <nd ref="459797332"/>
    <nd ref="459797333"/>
    <nd ref="459797335"/>
    <nd ref="459797337"/>
    <nd ref="459797339"/>
    <nd ref="459797341"/>
    <nd ref="459797343"/>
    <nd ref="459797344"/>
    <nd ref="459797346"/>
    <nd ref="459797291"/>
    <nd ref="459797349"/>
    <nd ref="459797351"/>
    <tag k="highway" v="residential"/>
    <tag k="name" v="Old Janal Ranch Road"/>
  </way>
  <way id="38771336" version="2" timestamp="2010-03-28T10:15:55Z" uid="20587" user="balrog-kun" changeset="4254597">
    <nd ref="459797361"/>
    <nd ref="459797362"/>
    <nd ref="459797363"/>
    <nd ref="459797364"/>
    <nd ref="459797365"/>
    <nd ref="459797366"/>
    <nd ref="459797367"/>
    <nd ref="459797368"/>
    <nd ref="459797369"/>
    <nd ref="459797370"/>
    <nd ref="459797371"/>
    <nd ref="459797339"/>
    <tag k="highway" v="residential"/>
    <tag k="name" v="Long View Drive"/>
  </way>
  <way id="38771338" version="2" timestamp="2010-03-28T10:15:55Z" uid="20587" user="balrog-kun" changeset="4254597">
    <nd ref="459797374"/>
    <nd ref="459797376"/>
    <nd ref="459797300"/>
    <nd ref="459797377"/>
    <nd ref="459797379"/>
    <nd ref="459797381"/>
    <nd ref="459797383"/>
    <nd ref="459797386"/>
    <nd ref="459797267"/>
    <nd ref="459797388"/>
    <nd ref="459797277"/>
    <nd ref="459797389"/>
    <nd ref="459378381"/>
    <tag k="highway" v="residential"/>
    <tag k="name" v="Rambling Vista Road"/>
  </way>
  <way id="38771342" version="2" timestamp="2010-03-28T10:15:55Z" uid="20587" user="balrog-kun" changeset="4254597">
    <nd ref="49192081"/>
    <nd ref="49288818"/>
    <nd ref="49288820"/>
    <nd ref="49288822"/>
    <nd ref="49288824"/>
    <nd ref="49288826"/>
    <nd ref="49288828"/>
    <tag k="highway" v="tertiary"/>
    <tag k="name" v="Silver Springs Drive"/>
    <tag k="tiger:cfcc" v="A41"/>
    <tag k="tiger:county" v="San Diego, CA"/>
    <tag k="tiger:name_base" v="Silver Springs"/>
    <tag k="tiger:name_type" v="Dr"/>
    <tag k="tiger:reviewed" v="no"/>
    <tag k="tiger:separated" v="no"/>
    <tag k="tiger:source" v="tiger_import_dch_v0.6_20070809"/>
    <tag k="tiger:tlid" v="195768620:195768546:195768547"/>
  </way>
  <way id="38771343" version="2" timestamp="2010-03-28T10:15:55Z" uid="20587" user="balrog-kun" changeset="4254597">
    <nd ref="459797412"/>
    <nd ref="459797414"/>
    <nd ref="459797416"/>
    <nd ref="459797419"/>
    <nd ref="48884696"/>
    <tag k="highway" v="secondary"/>
    <tag k="name" v="Olympic Vista Road"/>
  </way>
  <way id="38771345" version="2" timestamp="2010-03-28T10:15:55Z" uid="20587" user="balrog-kun" changeset="4254597">
    <nd ref="459797322"/>
    <nd ref="459797427"/>
    <nd ref="459797428"/>
    <nd ref="459797429"/>
    <nd ref="459797430"/>
    <nd ref="459797431"/>
    <nd ref="459797432"/>
    <nd ref="459797433"/>
    <nd ref="459797434"/>
    <nd ref="459797435"/>
    <nd ref="459378385"/>
    <tag k="highway" v="tertiary"/>
    <tag k="name" v="Olympic Vista Road"/>
  </way>
  <way id="38771346" version="2" timestamp="2010-03-28T10:15:56Z" uid="20587" user="balrog-kun" changeset="4254597">
    <nd ref="459797436"/>
    <nd ref="459797437"/>
    <nd ref="459797438"/>
    <nd ref="459797439"/>
    <nd ref="459797416"/>
    <tag k="highway" v="residential"/>
    <tag k="name" v="Lost Creek Road"/>
  </way>
  <way id="38771347" version="2" timestamp="2010-03-28T10:15:56Z" uid="20587" user="balrog-kun" changeset="4254597">
    <nd ref="459797440"/>
    <nd ref="459797441"/>
    <nd ref="459797442"/>
    <tag k="highway" v="residential"/>
    <tag k="name" v="Geiger Creek Court"/>
  </way>
  <way id="38771352" version="2" timestamp="2010-03-28T10:15:56Z" uid="20587" user="balrog-kun" changeset="4254597">
    <nd ref="459797466"/>
    <nd ref="49192081"/>
    <tag k="highway" v="tertiary"/>
    <tag k="name" v="Schoolhouse Road"/>
  </way>
  <way id="38771353" version="2" timestamp="2010-03-28T10:15:56Z" uid="20587" user="balrog-kun" changeset="4254597">
    <nd ref="459797469"/>
    <nd ref="459797471"/>
    <nd ref="459797473"/>
    <nd ref="459797474"/>
    <tag k="highway" v="residential"/>
    <tag k="name" v="Tamarisk Grove Drive"/>
  </way>
  <way id="38771354" version="2" timestamp="2010-03-28T10:15:56Z" uid="20587" user="balrog-kun" changeset="4254597">
    <nd ref="459797475"/>
    <nd ref="459797471"/>
    <tag k="highway" v="residential"/>
    <tag k="name" v="Lone Pine Court"/>
  </way>
  <way id="38771577" version="2" timestamp="2011-03-29T22:51:22Z" uid="16922" user="amai" changeset="7711904"/>
  <way id="38771778" version="2" timestamp="2011-05-01T16:10:04Z" uid="9581" user="Lobelt" changeset="8022707">
    <nd ref="35311693"/>
    <nd ref="1269156139"/>
    <nd ref="306432395"/>
    <nd ref="306432397"/>
    <tag k="highway" v="track"/>
  </way>
  <way id="38771856" version="2" timestamp="2011-05-01T21:54:10Z" uid="9581" user="Lobelt" changeset="8026477">
    <nd ref="121999168"/>
    <nd ref="121999167"/>
    <tag k="highway" v="secondary"/>
    <tag k="name" v="Friedrichstraße"/>
    <tag k="ref" v="L 1060"/>
  </way>
  <way id="38771857" version="2" timestamp="2011-05-01T21:53:05Z" uid="9581" user="Lobelt" changeset="8026477">
    <nd ref="304762499"/>
    <nd ref="304762498"/>
    <nd ref="121999168"/>
    <tag k="highway" v="residential"/>
    <tag k="name" v="Wirthstraße"/>
  </way>
  <way id="38771859" version="2" timestamp="2011-05-01T21:52:42Z" uid="9581" user="Lobelt" changeset="8026477">
    <nd ref="304762483"/>
    <nd ref="304762484"/>
    <tag k="highway" v="residential"/>
  </way>
  <way id="38771861" version="3" timestamp="2011-05-01T21:54:26Z" uid="9581" user="Lobelt" changeset="8026477">
    <nd ref="304762379"/>
    <nd ref="304762237"/>
    <tag k="foot" v="permissive"/>
    <tag k="highway" v="footway"/>
    <tag k="name" v="Brauhausstraße"/>
  </way>
</osm>
