<?xml version='1.0' encoding='UTF-8'?>
<osm version="0.6" generator="libosmium/2.20.0">
  <way id="38812020" version="1" timestamp="2009-08-10T11:52:25Z" uid="99207" user="Lar Kiesel" changeset="2096873">
    <nd ref="113404744"/>
    <nd ref="113404747"/>
    <nd ref="113404750"/>
    <nd ref="113404752"/>
    <nd ref="113404755"/>
    <nd ref="113404758"/>
    <nd ref="113404761"/>
    <nd ref="113404764"/>
    <nd ref="113404766"/>
    <nd ref="113404768"/>
    <nd ref="113404770"/>
    <tag k="highway" v="motorway_link"/>
    <tag k="oneway" v="yes"/>
    <tag k="tiger:cfcc" v="A63"/>
    <tag k="tiger:county" v="Lexington, SC"/>
    <tag k="tiger:reviewed" v="no"/>
    <tag k="tiger:source" v="tiger_import_dch_v0.6_20070829"/>
    <tag k="tiger:tlid" v="70087157:70087158:70085509:70085512"/>
    <tag k="tiger:upload_uuid" v="bulk_upload.pl-fe67c1cb-bcd5-4753-ae32-5a2256c432dc"/>
  </way>
  <way id="38812087" version="3" timestamp="2010-05-13T18:02:50Z" uid="74617" user="JohnSmith" changeset="4687351">
    <nd ref="638319242"/>
    <nd ref="638319627"/>
    <nd ref="638319631"/>
    <nd ref="638319635"/>
    <nd ref="638319639"/>
    <nd ref="638319644"/>
    <nd ref="638319654"/>
    <nd ref="638319657"/>
    <nd ref="638319661"/>
    <nd ref="638319666"/>
    <nd ref="638319668"/>
    <nd ref="638319671"/>
    <nd ref="638319678"/>
    <nd ref="638319683"/>
    <nd ref="638319688"/>
    <nd ref="638319690"/>
    <nd ref="638319692"/>
    <nd ref="638319696"/>
    <nd ref="638319710"/>
    <nd ref="638319717"/>
    <nd ref="638319726"/>
    <nd ref="638319731"/>
    <nd ref="638319738"/>
    <nd ref="638319745"/>
    <nd ref="638319754"/>
    <nd ref="460429703"/>
    <nd ref="638319766"/>
    <nd ref="460429707"/>
    <nd ref="638319779"/>
    <nd ref="638319781"/>
    <nd ref="638319790"/>
    <nd ref="460429711"/>
    <nd ref="638319814"/>
    <nd ref="460429714"/>
    <nd ref="638319822"/>
    <nd ref="460429716"/>
    <nd ref="638319829"/>
    <nd ref="638319832"/>
    <nd ref="460429719"/>
    <nd ref="638319835"/>
    <nd ref="460429724"/>
    <nd ref="638319839"/>
    <nd ref="638319843"/>
    <nd ref="460429727"/>
    <nd ref="638319857"/>
    <nd ref="638319858"/>
    <nd ref="638319860"/>
    <nd ref="638319864"/>
    <nd ref="638319869"/>
    <nd ref="460429730"/>
    <tag k="railway" v="rail"/>
    <tag k="source" v="nearmap"/>
  </way>
  <way id="38812088" version="2" timestamp="2010-02-22T07:34:33Z" uid="30201" user="rrankin" changeset="3941259">
    <nd ref="460429800"/>
    <nd ref="460429786"/>
    <tag k="bridge" v="yes"/>
    <tag k="highway" v="primary"/>
    <tag k="layer" v="1"/>
    <tag k="maxspeed" v="80"/>
    <tag k="name" v="Springhill Road"/>
    <tag k="oneway" v="yes"/>
    <tag k="ref" v="S151"/>
    <tag k="source" v="survey"/>
  </way>
  <way id="38812088" version="3" timestamp="2010-04-04T18:48:21Z" uid="74617" user="JohnSmith" changeset="4325742">
    <nd ref="460429800"/>
    <nd ref="460429786"/>
    <tag k="bridge" v="yes"/>
    <tag k="highway" v="primary"/>
    <tag k="layer" v="1"/>
    <tag k="maxspeed" v="80"/>
    <tag k="name" v="Springhill Road"/>
    <tag k="oneway" v="yes"/>
    <tag k="source" v="survey"/>
  </way>
  <way id="38812089" version="3" timestamp="2010-02-22T07:34:34Z" uid="30201" user="rrankin" changeset="3941259">
    <nd ref="460429786"/>
    <nd ref="460429791"/>
    <nd ref="34230382"/>
    <nd ref="460429815"/>
    <tag k="highway" v="primary"/>
    <tag k="maxspeed" v="80"/>
    <tag k="name" v="Springhill Road"/>
    <tag k="oneway" v="yes"/>
    <tag k="ref" v="S151"/>
    <tag k="source" v="survey"/>
  </way>
  <way id="38812089" version="4" timestamp="2010-04-04T18:48:21Z" uid="74617" user="JohnSmith" changeset="4325742">
    <nd ref="460429786"/>
    <nd ref="460429791"/>
    <nd ref="34230382"/>
    <nd ref="460429815"/>
    <tag k="highway" v="primary"/>
    <tag k="maxspeed" v="80"/>
    <tag k="name" v="Springhill Road"/>
    <tag k="oneway" v="yes"/>
    <tag k="source" v="survey"/>
  </way>
  <way id="38812090" version="2" timestamp="2010-02-22T07:34:33Z" uid="30201" user="rrankin" changeset="3941259">
    <nd ref="460429775"/>
    <nd ref="460429809"/>
    <tag k="bridge" v="yes"/>
    <tag k="highway" v="primary"/>
    <tag k="layer" v="1"/>
    <tag k="maxspeed" v="80"/>
    <tag k="name" v="Springhill Road"/>
    <tag k="oneway" v="yes"/>
    <tag k="ref" v="S151"/>
    <tag k="source" v="survey"/>
  </way>
  <way id="38812090" version="3" timestamp="2010-04-04T18:48:20Z" uid="74617" user="JohnSmith" changeset="4325742">
    <nd ref="460429775"/>
    <nd ref="460429809"/>
    <tag k="bridge" v="yes"/>
    <tag k="highway" v="primary"/>
    <tag k="layer" v="1"/>
    <tag k="maxspeed" v="80"/>
    <tag k="name" v="Springhill Road"/>
    <tag k="oneway" v="yes"/>
    <tag k="source" v="survey"/>
  </way>
  <way id="38812091" version="3" timestamp="2010-02-22T03:44:20Z" uid="30201" user="rrankin" changeset="3940724">
    <nd ref="460429809"/>
    <nd ref="34230466"/>
    <nd ref="637577486"/>
    <nd ref="637577490"/>
    <nd ref="34230470"/>
    <nd ref="637577501"/>
    <nd ref="108292090"/>
    <nd ref="36136308"/>
    <nd ref="34230473"/>
    <nd ref="649992678"/>
    <nd ref="649992684"/>
    <nd ref="34230476"/>
    <nd ref="649992698"/>
    <nd ref="34230479"/>
    <tag k="highway" v="primary"/>
    <tag k="maxspeed" v="80"/>
    <tag k="name" v="Springhill Road"/>
    <tag k="oneway" v="yes"/>
    <tag k="ref" v="S151"/>
    <tag k="source" v="survey"/>
  </way>
  <way id="38812091" version="4" timestamp="2010-02-22T07:34:32Z" uid="30201" user="rrankin" changeset="3941259">
    <nd ref="460429809"/>
    <nd ref="34230466"/>
    <nd ref="650024599"/>
    <nd ref="637577486"/>
    <nd ref="637577490"/>
    <nd ref="34230470"/>
    <nd ref="637577501"/>
    <nd ref="108292090"/>
    <nd ref="36136308"/>
    <nd ref="34230473"/>
    <nd ref="649992678"/>
    <nd ref="649992684"/>
    <nd ref="34230476"/>
    <nd ref="649992698"/>
    <nd ref="34230479"/>
    <tag k="highway" v="primary"/>
    <tag k="maxspeed" v="80"/>
    <tag k="name" v="Springhill Road"/>
    <tag k="oneway" v="yes"/>
    <tag k="ref" v="S151"/>
    <tag k="source" v="survey"/>
  </way>
  <way id="38812091" version="5" timestamp="2010-04-04T18:48:21Z" uid="74617" user="JohnSmith" changeset="4325742">
    <nd ref="460429809"/>
    <nd ref="34230466"/>
    <nd ref="650024599"/>
    <nd ref="637577486"/>
    <nd ref="637577490"/>
    <nd ref="34230470"/>
    <nd ref="637577501"/>
    <nd ref="108292090"/>
    <nd ref="36136308"/>
    <nd ref="34230473"/>
    <nd ref="649992678"/>
    <nd ref="649992684"/>
    <nd ref="34230476"/>
    <nd ref="649992698"/>
    <nd ref="34230479"/>
    <tag k="highway" v="primary"/>
    <tag k="maxspeed" v="80"/>
    <tag k="name" v="Springhill Road"/>
    <tag k="oneway" v="yes"/>
    <tag k="source" v="survey"/>
  </way>
  <way id="38812092" version="2" timestamp="2010-02-22T07:34:33Z" uid="30201" user="rrankin" changeset="3941259">
    <nd ref="460429820"/>
    <nd ref="34230463"/>
    <tag k="bridge" v="yes"/>
    <tag k="highway" v="primary"/>
    <tag k="layer" v="1"/>
    <tag k="maxspeed" v="80"/>
    <tag k="name" v="Springhill Road"/>
    <tag k="oneway" v="yes"/>
    <tag k="ref" v="S151"/>
    <tag k="source" v="survey"/>
  </way>
  <way id="38812092" version="3" timestamp="2010-04-04T18:48:20Z" uid="74617" user="JohnSmith" changeset="4325742">
    <nd ref="460429820"/>
    <nd ref="34230463"/>
    <tag k="bridge" v="yes"/>
    <tag k="highway" v="primary"/>
    <tag k="layer" v="1"/>
    <tag k="maxspeed" v="80"/>
    <tag k="name" v="Springhill Road"/>
    <tag k="oneway" v="yes"/>
    <tag k="source" v="survey"/>
  </way>
  <way id="38812093" version="2" timestamp="2010-02-22T07:34:33Z" uid="30201" user="rrankin" changeset="3941259">
    <nd ref="34230463"/>
    <nd ref="460429781"/>
    <nd ref="460429775"/>
    <tag k="highway" v="primary"/>
    <tag k="maxspeed" v="80"/>
    <tag k="name" v="Springhill Road"/>
    <tag k="oneway" v="yes"/>
    <tag k="ref" v="S151"/>
    <tag k="source" v="survey"/>
  </way>
  <way id="38812093" version="3" timestamp="2010-04-04T18:48:20Z" uid="74617" user="JohnSmith" changeset="4325742">
    <nd ref="34230463"/>
    <nd ref="460429781"/>
    <nd ref="460429775"/>
    <tag k="highway" v="primary"/>
    <tag k="maxspeed" v="80"/>
    <tag k="name" v="Springhill Road"/>
    <tag k="oneway" v="yes"/>
    <tag k="source" v="survey"/>
  </way>
  <way id="38812094" version="2" timestamp="2010-02-22T07:34:34Z" uid="30201" user="rrankin" changeset="3941259">
    <nd ref="460429815"/>
    <nd ref="460429741"/>
    <tag k="bridge" v="yes"/>
    <tag k="highway" v="primary"/>
    <tag k="layer" v="1"/>
    <tag k="maxspeed" v="80"/>
    <tag k="name" v="Springhill Road"/>
    <tag k="oneway" v="yes"/>
    <tag k="ref" v="S151"/>
    <tag k="source" v="survey"/>
  </way>
  <way id="38812094" version="3" timestamp="2010-04-04T18:48:20Z" uid="74617" user="JohnSmith" changeset="4325742">
    <nd ref="460429815"/>
    <nd ref="460429741"/>
    <tag k="bridge" v="yes"/>
    <tag k="highway" v="primary"/>
    <tag k="layer" v="1"/>
    <tag k="maxspeed" v="80"/>
    <tag k="name" v="Springhill Road"/>
    <tag k="oneway" v="yes"/>
    <tag k="source" v="survey"/>
  </way>
  <way id="38812095" version="3" timestamp="2010-02-22T07:34:23Z" uid="30201" user="rrankin" changeset="3941259">
    <nd ref="460429741"/>
    <nd ref="34230383"/>
    <nd ref="460429745"/>
    <nd ref="34230385"/>
    <nd ref="36135838"/>
    <nd ref="36135840"/>
    <nd ref="34230386"/>
    <nd ref="460429747"/>
    <nd ref="650024580"/>
    <nd ref="34230388"/>
    <nd ref="36397630"/>
    <nd ref="650024467"/>
    <tag k="highway" v="primary"/>
    <tag k="maxspeed" v="80"/>
    <tag k="name" v="Springhill Road"/>
    <tag k="oneway" v="yes"/>
    <tag k="ref" v="S151"/>
    <tag k="source" v="survey"/>
  </way>
  <way id="38812095" version="4" timestamp="2010-02-22T10:02:16Z" uid="30201" user="rrankin" changeset="3942033">
    <nd ref="460429741"/>
    <nd ref="34230383"/>
    <nd ref="460429745"/>
    <nd ref="34230385"/>
    <nd ref="36135838"/>
    <nd ref="36135840"/>
    <nd ref="34230386"/>
    <nd ref="460429747"/>
    <nd ref="650024580"/>
    <nd ref="34230388"/>
    <nd ref="36397630"/>
    <nd ref="650083788"/>
    <nd ref="650024467"/>
    <tag k="highway" v="primary"/>
    <tag k="lanes" v="3"/>
    <tag k="maxspeed" v="80"/>
    <tag k="name" v="Springhill Road"/>
    <tag k="oneway" v="yes"/>
    <tag k="ref" v="S151"/>
    <tag k="source" v="survey"/>
  </way>
  <way id="38812095" version="5" timestamp="2010-04-04T18:48:12Z" uid="74617" user="JohnSmith" changeset="4325742">
    <nd ref="460429741"/>
    <nd ref="34230383"/>
    <nd ref="460429745"/>
    <nd ref="34230385"/>
    <nd ref="36135838"/>
    <nd ref="36135840"/>
    <nd ref="34230386"/>
    <nd ref="460429747"/>
    <nd ref="650024580"/>
    <nd ref="34230388"/>
    <nd ref="36397630"/>
    <nd ref="650083788"/>
    <nd ref="650024467"/>
    <tag k="highway" v="primary"/>
    <tag k="lanes" v="3"/>
    <tag k="maxspeed" v="80"/>
    <tag k="name" v="Springhill Road"/>
    <tag k="oneway" v="yes"/>
    <tag k="source" v="survey"/>
  </way>
</osm>
