<?xml version='1.0' encoding='UTF-8'?>
<osm version="0.6" generator="libosmium/2.20.0">
  <way id="39100216" version="1" timestamp="2009-08-15T12:32:44Z" uid="4467" user="Rosscoe" changeset="2153553">
    <nd ref="41657182"/>
    <nd ref="12219383"/>
    <nd ref="12224231"/>
    <nd ref="41657349"/>
    <nd ref="12224236"/>
    <nd ref="171906320"/>
    <nd ref="12224241"/>
    <tag k="highway" v="residential"/>
    <tag k="name" v="Waterview Street"/>
    <tag k="source" v="survey"/>
  </way>
  <way id="39100216" version="2" timestamp="2010-02-26T23:50:30Z" uid="7617" user="Franc" changeset="3984813">
    <nd ref="41657182"/>
    <nd ref="12219383"/>
    <nd ref="12224231"/>
    <nd ref="41657349"/>
    <nd ref="12224236"/>
    <nd ref="171906320"/>
    <nd ref="654564810"/>
    <tag k="highway" v="residential"/>
    <tag k="name" v="Waterview Street"/>
    <tag k="source" v="survey"/>
  </way>
  <way id="39100216" version="3" timestamp="2010-07-08T00:58:06Z" uid="74617" user="JohnSmith" changeset="5162525">
    <nd ref="41657182"/>
    <nd ref="12219383"/>
    <nd ref="12224231"/>
    <nd ref="41657349"/>
    <nd ref="12224236"/>
    <nd ref="171906320"/>
    <nd ref="654564810"/>
    <tag k="highway" v="residential"/>
    <tag k="maxspeed" v="50"/>
    <tag k="maxspeed:source" v="default residential speed limit in Australia"/>
    <tag k="name" v="Waterview Street"/>
    <tag k="source" v="survey"/>
  </way>
  <way id="39100294" version="8" timestamp="2010-07-09T06:38:50Z" uid="74617" user="JohnSmith" changeset="5171134">
    <nd ref="617627772"/>
    <nd ref="617627773"/>
    <nd ref="755605813"/>
    <nd ref="726092565"/>
    <nd ref="726092567"/>
    <nd ref="617627761"/>
    <nd ref="617627769"/>
    <nd ref="467438484"/>
    <nd ref="617627763"/>
    <tag k="highway" v="residential"/>
    <tag k="maxspeed" v="50"/>
    <tag k="maxspeed:source" v="default residential speed limit in Australia"/>
    <tag k="name" v="Monmouth Street"/>
  </way>
  <way id="39100450" version="8" timestamp="2010-07-09T06:36:29Z" uid="74617" user="JohnSmith" changeset="5171134">
    <nd ref="755605587"/>
    <nd ref="755650872"/>
    <nd ref="755605714"/>
    <nd ref="467440867"/>
    <tag k="highway" v="residential"/>
    <tag k="maxspeed" v="50"/>
    <tag k="maxspeed:source" v="default residential speed limit in Australia"/>
    <tag k="name" v="Forster Street"/>
  </way>
  <way id="39100517" version="5" timestamp="2010-07-09T06:37:59Z" uid="74617" user="JohnSmith" changeset="5171134">
    <nd ref="755605742"/>
    <nd ref="755605738"/>
    <nd ref="181323207"/>
    <tag k="highway" v="residential"/>
    <tag k="maxspeed" v="50"/>
    <tag k="maxspeed:source" v="default residential speed limit in Australia"/>
    <tag k="name" v="McInnes Street"/>
    <tag k="oneway" v="yes"/>
  </way>
</osm>
