<?xml version='1.0' encoding='UTF-8'?>
<osm version="0.6" generator="libosmium/2.20.0">
  <way id="39118029" version="2" timestamp="2010-04-03T16:05:33Z" uid="85955" user="Gerd Höweler" changeset="4314575">
    <nd ref="259063249"/>
    <nd ref="359665106"/>
    <nd ref="259063251"/>
    <nd ref="259063252"/>
    <tag k="highway" v="secondary"/>
    <tag k="maxspeed" v="50"/>
    <tag k="name" v="Braker Straße"/>
    <tag k="ref" v="L 804"/>
    <tag k="source" v="survey"/>
  </way>
  <way id="39118410" version="2" timestamp="2010-03-19T22:04:35Z" uid="9581" user="Lobelt" changeset="4174890">
    <nd ref="467775990"/>
    <nd ref="669989477"/>
    <nd ref="10789789"/>
    <tag k="highway" v="residential"/>
    <tag k="name" v="Marienstraße"/>
  </way>
  <way id="39118516" version="2" timestamp="2010-02-22T21:33:14Z" uid="1066" user="pavel" changeset="3947750">
    <nd ref="248100279"/>
    <nd ref="248100280"/>
    <nd ref="248100281"/>
    <nd ref="248100286"/>
    <nd ref="351144851"/>
    <tag k="highway" v="track"/>
    <tag k="name" v="Vodovodní cesta"/>
    <tag k="piste:grooming" v="classic;skating"/>
    <tag k="piste:type" v="nordic"/>
    <tag k="tracktype" v="grade1"/>
  </way>
</osm>
