<?xml version='1.0' encoding='UTF-8'?>
<osm version="0.6" generator="libosmium/2.20.0">
  <way id="39328050" version="2" timestamp="2010-03-28T10:16:35Z" uid="20587" user="balrog-kun" changeset="4254597">
    <nd ref="20842317"/>
    <nd ref="471178986"/>
    <nd ref="471178988"/>
    <nd ref="471178990"/>
    <nd ref="20189445"/>
    <tag k="highway" v="secondary"/>
    <tag k="name" v="Fletcher Drive"/>
    <tag k="oneway" v="yes"/>
  </way>
  <way id="39328051" version="2" timestamp="2010-03-28T10:16:35Z" uid="20587" user="balrog-kun" changeset="4254597">
    <nd ref="20189445"/>
    <nd ref="471178996"/>
    <nd ref="471178997"/>
    <nd ref="471179002"/>
    <nd ref="20842317"/>
    <tag k="created_by" v="JOSM"/>
    <tag k="highway" v="secondary"/>
    <tag k="name" v="Fletcher Drive"/>
    <tag k="oneway" v="yes"/>
  </way>
  <way id="39328071" version="2" timestamp="2010-09-16T12:00:02Z" uid="115477" user="wowik" changeset="5794879">
    <nd ref="254751266"/>
    <nd ref="471179416"/>
    <tag k="highway" v="residential"/>
    <tag k="name" v="Rybacka"/>
    <tag k="name:de" v="FischerstraÃŸe"/>
    <tag k="surface" v="paved"/>
  </way>
  <way id="39328094" version="1" timestamp="2009-08-19T20:09:03Z" uid="23543" user="jkjk" changeset="2205507">
    <nd ref="301507962"/>
    <nd ref="471179531"/>
    <nd ref="471179532"/>
    <nd ref="471179535"/>
    <nd ref="471179536"/>
    <nd ref="471179537"/>
    <nd ref="471179538"/>
    <tag k="highway" v="track"/>
  </way>
  <way id="39328224" version="3" timestamp="2010-07-06T18:39:58Z" uid="74617" user="JohnSmith" changeset="5152225">
    <nd ref="471181640"/>
    <nd ref="471181666"/>
    <tag k="highway" v="residential"/>
    <tag k="maxspeed" v="50"/>
    <tag k="maxspeed:source" v="default residential speed limit in Australia"/>
    <tag k="name" v="Har,ms Street"/>
  </way>
  <way id="39328225" version="3" timestamp="2010-07-06T18:40:50Z" uid="74617" user="JohnSmith" changeset="5152225">
    <nd ref="471181698"/>
    <nd ref="471181719"/>
    <nd ref="471181735"/>
    <nd ref="471181640"/>
    <nd ref="471181748"/>
    <nd ref="471181755"/>
    <tag k="highway" v="residential"/>
    <tag k="maxspeed" v="50"/>
    <tag k="maxspeed:source" v="default residential speed limit in Australia"/>
    <tag k="name" v="Buckland Street"/>
  </way>
  <way id="39328231" version="3" timestamp="2010-07-06T18:41:16Z" uid="74617" user="JohnSmith" changeset="5152225">
    <nd ref="471181831"/>
    <nd ref="471181848"/>
    <nd ref="471181755"/>
    <nd ref="471181864"/>
    <nd ref="471181874"/>
    <nd ref="471181885"/>
    <nd ref="471181889"/>
    <tag k="highway" v="residential"/>
    <tag k="maxspeed" v="50"/>
    <tag k="maxspeed:source" v="default residential speed limit in Australia"/>
    <tag k="name" v="Condamine Street"/>
  </way>
  <way id="39328232" version="3" timestamp="2010-07-06T18:41:13Z" uid="74617" user="JohnSmith" changeset="5152225">
    <nd ref="471181719"/>
    <nd ref="471181931"/>
    <nd ref="471181943"/>
    <tag k="highway" v="residential"/>
    <tag k="maxspeed" v="50"/>
    <tag k="maxspeed:source" v="default residential speed limit in Australia"/>
    <tag k="name" v="Watkins Street"/>
  </way>
  <way id="39328234" version="3" timestamp="2010-07-06T18:39:24Z" uid="74617" user="JohnSmith" changeset="5152225">
    <nd ref="471181931"/>
    <nd ref="471181968"/>
    <tag k="highway" v="residential"/>
    <tag k="maxspeed" v="50"/>
    <tag k="maxspeed:source" v="default residential speed limit in Australia"/>
    <tag k="name" v="Martin Place"/>
  </way>
  <way id="39328237" version="3" timestamp="2010-07-06T18:38:14Z" uid="74617" user="JohnSmith" changeset="5152225">
    <nd ref="471182020"/>
    <nd ref="471182028"/>
    <nd ref="471182033"/>
    <nd ref="471182046"/>
    <nd ref="471182104"/>
    <tag k="highway" v="residential"/>
    <tag k="maxspeed" v="50"/>
    <tag k="maxspeed:source" v="default residential speed limit in Australia"/>
    <tag k="name" v="Croxley Street"/>
  </way>
  <way id="39328238" version="3" timestamp="2010-07-06T18:34:33Z" uid="74617" user="JohnSmith" changeset="5152225">
    <nd ref="471182028"/>
    <nd ref="471182138"/>
    <tag k="highway" v="residential"/>
    <tag k="maxspeed" v="50"/>
    <tag k="maxspeed:source" v="default residential speed limit in Australia"/>
    <tag k="name" v="Walker Street"/>
  </way>
  <way id="39328241" version="3" timestamp="2010-07-06T18:37:46Z" uid="74617" user="JohnSmith" changeset="5152225">
    <nd ref="471182181"/>
    <nd ref="471182203"/>
    <tag k="highway" v="residential"/>
    <tag k="maxspeed" v="50"/>
    <tag k="maxspeed:source" v="default residential speed limit in Australia"/>
    <tag k="name" v="Canberra Street"/>
  </way>
  <way id="39328250" version="3" timestamp="2010-07-06T18:35:48Z" uid="74617" user="JohnSmith" changeset="5152225">
    <nd ref="471182250"/>
    <nd ref="471182262"/>
    <tag k="highway" v="residential"/>
    <tag k="maxspeed" v="50"/>
    <tag k="maxspeed:source" v="default residential speed limit in Australia"/>
    <tag k="name" v="Canberra Street"/>
  </way>
  <way id="39328258" version="3" timestamp="2010-07-06T18:38:45Z" uid="74617" user="JohnSmith" changeset="5152225">
    <nd ref="471182338"/>
    <nd ref="471182350"/>
    <tag k="highway" v="residential"/>
    <tag k="maxspeed" v="50"/>
    <tag k="maxspeed:source" v="default residential speed limit in Australia"/>
    <tag k="name" v="Noack Street"/>
  </way>
  <way id="39328260" version="3" timestamp="2010-07-06T18:36:19Z" uid="74617" user="JohnSmith" changeset="5152225">
    <nd ref="471182396"/>
    <nd ref="471182406"/>
    <nd ref="471182415"/>
    <nd ref="471182444"/>
    <nd ref="471182454"/>
    <nd ref="471182463"/>
    <nd ref="471182473"/>
    <tag k="highway" v="residential"/>
    <tag k="maxspeed" v="50"/>
    <tag k="maxspeed:source" v="default residential speed limit in Australia"/>
    <tag k="name" v="Melody Drive"/>
  </way>
  <way id="39328276" version="3" timestamp="2010-07-06T18:40:25Z" uid="74617" user="JohnSmith" changeset="5152225">
    <nd ref="471182454"/>
    <nd ref="471182517"/>
    <nd ref="471182521"/>
    <nd ref="471182524"/>
    <nd ref="471182527"/>
    <tag k="highway" v="residential"/>
    <tag k="maxspeed" v="50"/>
    <tag k="maxspeed:source" v="default residential speed limit in Australia"/>
    <tag k="name" v="Fromalls Street"/>
  </way>
  <way id="39328297" version="3" timestamp="2010-07-06T18:35:31Z" uid="74617" user="JohnSmith" changeset="5152225">
    <nd ref="471182033"/>
    <nd ref="471182538"/>
    <nd ref="471182524"/>
    <nd ref="471182540"/>
    <tag k="highway" v="residential"/>
    <tag k="maxspeed" v="50"/>
    <tag k="maxspeed:source" v="default residential speed limit in Australia"/>
    <tag k="name" v="Talbot Street"/>
  </way>
  <way id="39328318" version="3" timestamp="2010-07-06T18:39:19Z" uid="74617" user="JohnSmith" changeset="5152225">
    <nd ref="471182546"/>
    <nd ref="471182549"/>
    <nd ref="471182552"/>
    <nd ref="471182554"/>
    <tag k="highway" v="residential"/>
    <tag k="maxspeed" v="50"/>
    <tag k="maxspeed:source" v="default residential speed limit in Australia"/>
    <tag k="name" v="June Close"/>
  </way>
  <way id="39328333" version="3" timestamp="2010-07-06T18:40:35Z" uid="74617" user="JohnSmith" changeset="5152225">
    <nd ref="471182567"/>
    <nd ref="471182569"/>
    <tag k="highway" v="residential"/>
    <tag k="maxspeed" v="50"/>
    <tag k="maxspeed:source" v="default residential speed limit in Australia"/>
    <tag k="name" v="Harris Street"/>
  </way>
  <way id="39328396" version="2" timestamp="2010-06-23T06:54:02Z" uid="4467" user="Rosscoe" changeset="5056518">
    <nd ref="471182577"/>
    <nd ref="471182588"/>
    <nd ref="471182596"/>
    <nd ref="471182599"/>
    <nd ref="471182603"/>
    <nd ref="471182605"/>
    <nd ref="471182608"/>
    <nd ref="471182611"/>
    <nd ref="471182577"/>
    <tag k="highway" v="secondary"/>
    <tag k="junction" v="roundabout"/>
  </way>
  <way id="39328407" version="4" timestamp="2010-07-06T18:34:43Z" uid="74617" user="JohnSmith" changeset="5152225">
    <nd ref="471182608"/>
    <nd ref="471182621"/>
    <nd ref="471182624"/>
    <nd ref="471182629"/>
    <nd ref="471182181"/>
    <nd ref="471181748"/>
    <nd ref="471182338"/>
    <nd ref="534131325"/>
    <nd ref="471182632"/>
    <tag k="highway" v="residential"/>
    <tag k="maxspeed" v="50"/>
    <tag k="maxspeed:source" v="default residential speed limit in Australia"/>
    <tag k="name" v="Spencer Street"/>
  </way>
  <way id="39328408" version="3" timestamp="2010-06-23T06:54:08Z" uid="4467" user="Rosscoe" changeset="5056518">
    <nd ref="471182624"/>
    <nd ref="471182643"/>
    <nd ref="471182020"/>
    <nd ref="471182639"/>
    <nd ref="471182621"/>
    <tag k="highway" v="residential"/>
    <tag k="junction" v="roundabout"/>
  </way>
  <way id="39328408" version="4" timestamp="2010-07-06T18:34:39Z" uid="74617" user="JohnSmith" changeset="5152225">
    <nd ref="471182624"/>
    <nd ref="471182643"/>
    <nd ref="471182020"/>
    <nd ref="471182639"/>
    <nd ref="471182621"/>
    <tag k="highway" v="residential"/>
    <tag k="junction" v="roundabout"/>
    <tag k="maxspeed" v="50"/>
    <tag k="maxspeed:source" v="default residential speed limit in Australia"/>
  </way>
  <way id="39328410" version="3" timestamp="2010-07-06T18:40:02Z" uid="74617" user="JohnSmith" changeset="5152225">
    <nd ref="471182020"/>
    <nd ref="471182396"/>
    <nd ref="471182649"/>
    <nd ref="471182650"/>
    <tag k="highway" v="residential"/>
    <tag k="maxspeed" v="50"/>
    <tag k="maxspeed:source" v="default residential speed limit in Australia"/>
    <tag k="name" v="Florence Street"/>
  </way>
  <way id="39328868" version="1" timestamp="2009-08-19T20:28:20Z" uid="9581" user="Lobelt" changeset="2205698">
    <nd ref="369781046"/>
    <nd ref="471189257"/>
    <nd ref="290395423"/>
    <tag k="access" v="no"/>
    <tag k="highway" v="service"/>
    <tag k="motorcar" v="no"/>
    <tag k="motorcycle" v="no"/>
  </way>
  <way id="39328869" version="1" timestamp="2009-08-19T20:28:20Z" uid="9581" user="Lobelt" changeset="2205698">
    <nd ref="471189259"/>
    <nd ref="18223823"/>
    <tag k="highway" v="track"/>
  </way>
</osm>
