<?xml version='1.0' encoding='UTF-8'?>
<osm version="0.6" generator="libosmium/2.20.0">
  <way id="39320276" version="4" timestamp="2009-08-26T07:58:37Z" uid="36809" user="pfoten_weg_!_" changeset="2264635">
    <nd ref="471080737"/>
    <nd ref="471080738"/>
    <nd ref="471080739"/>
    <nd ref="471080740"/>
    <nd ref="471080737"/>
    <tag k="addr:housenumber" v="65"/>
    <tag k="addr:street" v="Herterichstraße"/>
    <tag k="amenity" v="restaurant"/>
    <tag k="building" v="yes"/>
    <tag k="cuisine" v="regional"/>
    <tag k="name" v="Sollner Hof"/>
    <tag k="source" v="Yahoo;survey"/>
    <tag k="url" v="http://www.sollnerhof.de/"/>
  </way>
  <way id="39320276" version="5" timestamp="2009-10-02T20:43:22Z" uid="86259" user="hasse_osm_korinthenkacker" changeset="2717407"/>
  <way id="39320277" version="3" timestamp="2009-08-26T07:58:53Z" uid="36809" user="pfoten_weg_!_" changeset="2264635">
    <nd ref="471080741"/>
    <nd ref="471080742"/>
    <nd ref="471080744"/>
    <nd ref="471080746"/>
    <nd ref="471080741"/>
    <tag k="addr:housenumber" v="63"/>
    <tag k="addr:street" v="Herterichstraße"/>
    <tag k="building" v="yes"/>
    <tag k="name" v="Hotel Sollner Hof"/>
    <tag k="source" v="Yahoo;survey"/>
    <tag k="tourism" v="hotel"/>
    <tag k="url" v="http://www.sollnerhof.de/"/>
  </way>
  <way id="39320277" version="4" timestamp="2009-10-02T20:43:22Z" uid="86259" user="hasse_osm_korinthenkacker" changeset="2717407"/>
  <way id="39320278" version="3" timestamp="2009-08-26T07:58:48Z" uid="36809" user="pfoten_weg_!_" changeset="2264635">
    <nd ref="471080747"/>
    <nd ref="471080748"/>
    <nd ref="471080749"/>
    <nd ref="471080750"/>
    <nd ref="471080747"/>
    <tag k="addr:housenumber" v="15"/>
    <tag k="addr:street" v="Bleibtreustraße"/>
    <tag k="building" v="yes"/>
    <tag k="name" v="Hotel Heigl"/>
    <tag k="source" v="Yahoo;survey"/>
    <tag k="tourism" v="hotel"/>
    <tag k="url" v="http://www.hotelheigl.de/"/>
  </way>
  <way id="39320278" version="4" timestamp="2009-10-02T20:43:22Z" uid="86259" user="hasse_osm_korinthenkacker" changeset="2717407"/>
  <way id="39320399" version="2" timestamp="2010-06-15T18:07:38Z" uid="151899" user="Bikeman2000" changeset="4993818">
    <nd ref="193235620"/>
    <nd ref="773147844"/>
    <nd ref="73581068"/>
    <nd ref="773147840"/>
    <nd ref="253616685"/>
    <tag k="highway" v="residential"/>
    <tag k="maxspeed" v="30"/>
    <tag k="name" v="Kapellstraße"/>
  </way>
  <way id="39320406" version="2" timestamp="2009-08-24T10:28:14Z" uid="36809" user="pfoten_weg_!_" changeset="2242296"/>
  <way id="39320547" version="2" timestamp="2010-08-29T19:41:08Z" uid="9581" user="Lobelt" changeset="5629984">
    <nd ref="471085694"/>
    <nd ref="471085691"/>
    <nd ref="886669171"/>
    <nd ref="471085692"/>
    <nd ref="886668748"/>
    <nd ref="886669011"/>
    <nd ref="886669295"/>
    <nd ref="471085693"/>
    <nd ref="471085694"/>
    <tag k="natural" v="water"/>
  </way>
  <way id="39320575" version="3" timestamp="2010-03-28T10:16:33Z" uid="20587" user="balrog-kun" changeset="4254597">
    <nd ref="471085961"/>
    <nd ref="54751616"/>
    <nd ref="54641147"/>
    <tag k="highway" v="residential"/>
    <tag k="name" v="Gingerwood Road"/>
    <tag k="source" v="survey;image;usgs_imagery"/>
    <tag k="source_ref" v="AM909_DSCP1052"/>
    <tag k="tiger:cfcc" v="A41"/>
    <tag k="tiger:county" v="San Bernardino, CA"/>
    <tag k="tiger:name_base" v="Gingerwood"/>
    <tag k="tiger:name_type" v="Rd"/>
    <tag k="tiger:separated" v="no"/>
    <tag k="tiger:source" v="tiger_import_dch_v0.6_20070809"/>
    <tag k="tiger:tlid" v="144965498:144972771:144972776"/>
    <tag k="tiger:zip_left" v="91761"/>
    <tag k="tiger:zip_left_1" v="91761"/>
    <tag k="tiger:zip_right" v="91761"/>
    <tag k="tiger:zip_right_1" v="91761"/>
  </way>
  <way id="39320588" version="3" timestamp="2010-03-28T10:16:33Z" uid="20587" user="balrog-kun" changeset="4254597">
    <nd ref="471086140"/>
    <nd ref="471086141"/>
    <nd ref="471086142"/>
    <tag k="highway" v="residential"/>
    <tag k="name" v="Yuba River Drive"/>
    <tag k="source" v="survey;image;usgs_imagery"/>
    <tag k="source_ref" v="AM909_DSCP1116"/>
  </way>
  <way id="39320987" version="2" timestamp="2010-05-01T11:26:03Z" uid="151899" user="Bikeman2000" changeset="4573823">
    <nd ref="286478500"/>
    <nd ref="471090175"/>
    <nd ref="715209656"/>
    <nd ref="73583965"/>
    <nd ref="715209657"/>
    <nd ref="28389596"/>
    <tag k="cycleway" v="track"/>
    <tag k="highway" v="secondary"/>
    <tag k="name" v="Fischerstraße"/>
    <tag k="oneway" v="yes"/>
    <tag k="ref" v="L 55"/>
  </way>
</osm>
