<?xml version='1.0' encoding='UTF-8'?>
<osm version="0.6" generator="libosmium/2.20.0">
  <way id="39362072" version="6" timestamp="2009-09-12T02:46:31Z" uid="36809" user="pfoten_weg_!_" changeset="2453290">
    <nd ref="471601171"/>
    <nd ref="471601918"/>
    <nd ref="102559913"/>
    <tag k="highway" v="pedestrian"/>
    <tag k="name" v="Paniderstrasse"/>
    <tag k="name:de" v="Paniderstrasse"/>
    <tag k="name:it" v="Via Panider"/>
  </way>
  <way id="39362503" version="1" timestamp="2009-08-20T19:28:20Z" uid="110593" user="esetzer" changeset="2216229">
    <nd ref="469955391"/>
    <nd ref="365506533"/>
    <tag k="created_by" v="Potlatch 0.10f"/>
    <tag k="electrified" v="contact_line"/>
    <tag k="frequency" v="0"/>
    <tag k="name" v="UTA TRAX Sandy/Salt Lake Line"/>
    <tag k="old_name" v="Union Pacific Railroad"/>
    <tag k="railway" v="light_rail"/>
    <tag k="service" v="yard"/>
    <tag k="tiger:cfcc" v="B11"/>
    <tag k="tiger:county" v="Salt Lake, UT"/>
    <tag k="tiger:name_base" v="Union Pacific Railroad"/>
    <tag k="tiger:reviewed" v="no"/>
    <tag k="tiger:source" v="tiger_import_dch_v0.6_20070830"/>
    <tag k="tiger:tlid" v="176136010:176131210:176131211:176109416:176130144:176149279:176093052:176149280:176149364:176155582:176123598:176092632:176092661:176149367:176155677:176131465:176131466:176131241:176136462:176136463:176110869:176118279:176085251:176118800:176085430:17608"/>
    <tag k="tiger:upload_uuid" v="bulk_upload.pl-a2da7ec1-da05-434f-a535-e5cc3da32f27"/>
    <tag k="tracks" v="2"/>
    <tag k="voltage" v="750"/>
  </way>
  <way id="39362508" version="4" timestamp="2009-08-28T23:26:19Z" uid="36809" user="pfoten_weg_!_" changeset="2296196">
    <nd ref="102559911"/>
    <nd ref="102559912"/>
    <nd ref="476112529"/>
    <nd ref="471599846"/>
    <nd ref="471599844"/>
    <tag k="highway" v="residential"/>
    <tag k="name" v="Dolomitenstraße"/>
    <tag k="oneway" v="no"/>
    <tag k="ref" v="Sp64"/>
  </way>
  <way id="39362508" version="7" timestamp="2009-09-12T02:46:12Z" uid="36809" user="pfoten_weg_!_" changeset="2453290">
    <nd ref="102559911"/>
    <nd ref="102559912"/>
    <nd ref="492838999"/>
    <nd ref="492838994"/>
    <tag k="highway" v="residential"/>
    <tag k="name" v="Dolomitenstraße"/>
    <tag k="name:it" v="Via Dolomiti"/>
    <tag k="ref" v="Sp64"/>
  </way>
  <way id="39362509" version="3" timestamp="2010-04-04T01:22:59Z" uid="20587" user="balrog-kun" changeset="4318136">
    <nd ref="176099052"/>
    <nd ref="560229261"/>
    <nd ref="436769658"/>
    <nd ref="436769659"/>
    <nd ref="176080472"/>
    <nd ref="176099054"/>
    <nd ref="176099057"/>
    <nd ref="392974998"/>
    <nd ref="560229262"/>
    <nd ref="176096268"/>
    <nd ref="176096293"/>
    <nd ref="176088426"/>
    <tag k="highway" v="residential"/>
    <tag k="name" v="South Yosemite Street"/>
    <tag k="tiger:cfcc" v="A41"/>
    <tag k="tiger:county" v="Denver, CO"/>
    <tag k="tiger:name_base" v="Yosemite"/>
    <tag k="tiger:name_direction_prefix" v="S"/>
    <tag k="tiger:name_type" v="St"/>
    <tag k="tiger:reviewed" v="no"/>
    <tag k="tiger:separated" v="no"/>
    <tag k="tiger:source" v="tiger_import_dch_v0.6_20070809"/>
    <tag k="tiger:tlid" v="177343733:177343734:177343735:177515790:177515791:177515792:177515793:177515794:177515795"/>
  </way>
  <way id="39362513" version="7" timestamp="2009-09-12T02:46:11Z" uid="36809" user="pfoten_weg_!_" changeset="2453290">
    <nd ref="471599844"/>
    <nd ref="471600600"/>
    <nd ref="472197280"/>
    <nd ref="102559913"/>
    <nd ref="102559914"/>
    <nd ref="471599698"/>
    <nd ref="262943798"/>
    <nd ref="471615589"/>
    <tag k="highway" v="secondary"/>
    <tag k="name" v="Wegscheid"/>
    <tag k="name:de" v="Wegscheid"/>
    <tag k="name:it" v="Via Wegscheid"/>
    <tag k="ref" v="Sp64"/>
  </way>
  <way id="39362513" version="9" timestamp="2009-09-29T00:31:35Z" uid="36809" user="pfoten_weg_!_" changeset="2671824">
    <nd ref="471599844"/>
    <nd ref="471600600"/>
    <nd ref="472197280"/>
    <nd ref="102559913"/>
    <nd ref="102559914"/>
    <nd ref="471599698"/>
    <nd ref="496087974"/>
    <nd ref="262943798"/>
    <nd ref="471615589"/>
    <tag k="highway" v="secondary"/>
    <tag k="name" v="Wegscheid"/>
    <tag k="name:de" v="Wegscheid"/>
    <tag k="name:it" v="Via Wegscheid"/>
    <tag k="ref" v="Sp64"/>
  </way>
  <way id="39362513" version="10" timestamp="2009-09-29T01:01:29Z" uid="36809" user="pfoten_weg_!_" changeset="2671929">
    <nd ref="471599844"/>
    <nd ref="471600600"/>
    <nd ref="472197280"/>
    <nd ref="102559913"/>
    <nd ref="102559914"/>
    <nd ref="471599698"/>
    <nd ref="496087974"/>
    <nd ref="262943798"/>
    <nd ref="471615589"/>
    <tag k="highway" v="secondary"/>
    <tag k="name" v="Wegscheid"/>
    <tag k="name:de" v="Wegscheid"/>
    <tag k="name:it" v="Via Wegscheid"/>
    <tag k="ref" v="Sp64"/>
  </way>
  <way id="39362513" version="11" timestamp="2009-09-29T01:27:03Z" uid="36809" user="pfoten_weg_!_" changeset="2671929">
    <nd ref="471599844"/>
    <nd ref="471600600"/>
    <nd ref="472197280"/>
    <nd ref="102559913"/>
    <nd ref="102559914"/>
    <nd ref="471599698"/>
    <nd ref="496087974"/>
    <nd ref="262943798"/>
    <nd ref="471615589"/>
    <tag k="highway" v="secondary"/>
    <tag k="name" v="Wegscheid"/>
    <tag k="name:de" v="Wegscheid"/>
    <tag k="name:it" v="Via Wegscheid"/>
    <tag k="ref" v="Sp64"/>
  </way>
  <way id="39362513" version="12" timestamp="2009-09-29T01:57:29Z" uid="36809" user="pfoten_weg_!_" changeset="2672141">
    <nd ref="471599844"/>
    <nd ref="471600600"/>
    <nd ref="472197280"/>
    <nd ref="102559913"/>
    <nd ref="102559914"/>
    <nd ref="471599698"/>
    <nd ref="496087974"/>
    <nd ref="262943798"/>
    <nd ref="471615589"/>
    <tag k="highway" v="secondary"/>
    <tag k="name" v="Wegscheid"/>
    <tag k="name:de" v="Wegscheid"/>
    <tag k="name:it" v="Via Wegscheid"/>
    <tag k="ref" v="Sp64"/>
  </way>
  <way id="39362513" version="13" timestamp="2009-09-29T02:31:47Z" uid="36809" user="pfoten_weg_!_" changeset="2672254">
    <nd ref="471599844"/>
    <nd ref="471600600"/>
    <nd ref="472197280"/>
    <nd ref="102559913"/>
    <nd ref="102559914"/>
    <nd ref="471599698"/>
    <nd ref="496087974"/>
    <nd ref="262943798"/>
    <nd ref="471615589"/>
    <tag k="highway" v="secondary"/>
    <tag k="name" v="Wegscheid"/>
    <tag k="name:de" v="Wegscheid"/>
    <tag k="name:it" v="Via Wegscheid"/>
    <tag k="ref" v="Sp64"/>
  </way>
  <way id="39362568" version="5" timestamp="2009-09-12T02:49:30Z" uid="36809" user="pfoten_weg_!_" changeset="2453290">
    <nd ref="471606913"/>
    <nd ref="471601174"/>
    <nd ref="471601175"/>
    <nd ref="102559911"/>
    <tag k="highway" v="pedestrian"/>
    <tag k="name" v="Plattenstraße"/>
    <tag k="name:it" v="Via Platten"/>
  </way>
  <way id="39362698" version="8" timestamp="2009-09-12T02:49:03Z" uid="36809" user="pfoten_weg_!_" changeset="2453290">
    <nd ref="472134575"/>
    <nd ref="472134576"/>
    <nd ref="102559908"/>
    <nd ref="262972902"/>
    <nd ref="102559909"/>
    <nd ref="102559910"/>
    <nd ref="477519011"/>
    <nd ref="262972894"/>
    <nd ref="472135726"/>
    <nd ref="262972890"/>
    <nd ref="102559911"/>
    <tag k="highway" v="residential"/>
    <tag k="name" v="Plattenstraße"/>
    <tag k="name:it" v="Via Platten"/>
    <tag k="ref" v="Sp64"/>
  </way>
  <way id="39362698" version="10" timestamp="2009-09-29T00:34:22Z" uid="36809" user="pfoten_weg_!_" changeset="2671824">
    <nd ref="472134575"/>
    <nd ref="472134576"/>
    <nd ref="102559908"/>
    <nd ref="262972902"/>
    <nd ref="102559909"/>
    <nd ref="102559910"/>
    <nd ref="477519011"/>
    <nd ref="262972894"/>
    <nd ref="472135726"/>
    <nd ref="262972890"/>
    <nd ref="496087983"/>
    <nd ref="102559911"/>
    <tag k="highway" v="residential"/>
    <tag k="name" v="Plattenstraße"/>
    <tag k="name:it" v="Via Platten"/>
    <tag k="ref" v="Sp64"/>
  </way>
  <way id="39362698" version="11" timestamp="2009-09-29T01:04:17Z" uid="36809" user="pfoten_weg_!_" changeset="2671929">
    <nd ref="472134575"/>
    <nd ref="472134576"/>
    <nd ref="102559908"/>
    <nd ref="262972902"/>
    <nd ref="102559909"/>
    <nd ref="102559910"/>
    <nd ref="477519011"/>
    <nd ref="262972894"/>
    <nd ref="472135726"/>
    <nd ref="262972890"/>
    <nd ref="496087983"/>
    <nd ref="102559911"/>
    <tag k="highway" v="residential"/>
    <tag k="name" v="Plattenstraße"/>
    <tag k="name:it" v="Via Platten"/>
    <tag k="ref" v="Sp64"/>
  </way>
  <way id="39362698" version="12" timestamp="2009-09-29T01:29:58Z" uid="36809" user="pfoten_weg_!_" changeset="2671929">
    <nd ref="472134575"/>
    <nd ref="472134576"/>
    <nd ref="102559908"/>
    <nd ref="262972902"/>
    <nd ref="102559909"/>
    <nd ref="102559910"/>
    <nd ref="477519011"/>
    <nd ref="262972894"/>
    <nd ref="472135726"/>
    <nd ref="262972890"/>
    <nd ref="496087983"/>
    <nd ref="102559911"/>
    <tag k="highway" v="residential"/>
    <tag k="name" v="Plattenstraße"/>
    <tag k="name:it" v="Via Platten"/>
    <tag k="ref" v="Sp64"/>
  </way>
  <way id="39362698" version="13" timestamp="2009-09-29T02:00:26Z" uid="36809" user="pfoten_weg_!_" changeset="2672141">
    <nd ref="472134575"/>
    <nd ref="472134576"/>
    <nd ref="102559908"/>
    <nd ref="262972902"/>
    <nd ref="102559909"/>
    <nd ref="102559910"/>
    <nd ref="477519011"/>
    <nd ref="262972894"/>
    <nd ref="472135726"/>
    <nd ref="262972890"/>
    <nd ref="496087983"/>
    <nd ref="102559911"/>
    <tag k="highway" v="residential"/>
    <tag k="name" v="Plattenstraße"/>
    <tag k="name:it" v="Via Platten"/>
    <tag k="ref" v="Sp64"/>
  </way>
  <way id="39362698" version="14" timestamp="2009-09-29T02:34:18Z" uid="36809" user="pfoten_weg_!_" changeset="2672254">
    <nd ref="472134575"/>
    <nd ref="472134576"/>
    <nd ref="102559908"/>
    <nd ref="262972902"/>
    <nd ref="102559909"/>
    <nd ref="102559910"/>
    <nd ref="477519011"/>
    <nd ref="262972894"/>
    <nd ref="472135726"/>
    <nd ref="262972890"/>
    <nd ref="496087983"/>
    <nd ref="102559911"/>
    <tag k="highway" v="residential"/>
    <tag k="name" v="Plattenstraße"/>
    <tag k="name:it" v="Via Platten"/>
    <tag k="ref" v="Sp64"/>
  </way>
</osm>
