<?xml version='1.0' encoding='UTF-8'?>
<osm version="0.6" generator="libosmium/2.20.0">
  <way id="39365107" version="1" timestamp="2009-08-20T20:41:40Z" uid="61114" user="Trav" changeset="2217054">
    <nd ref="53243904"/>
    <nd ref="471633046"/>
    <tag k="highway" v="residential"/>
    <tag k="name" v="Mitchell Road"/>
    <tag k="source" v="survey"/>
  </way>
  <way id="39365107" version="2" timestamp="2009-08-30T01:19:04Z" uid="61114" user="Trav" changeset="2308204">
    <nd ref="53243904"/>
    <nd ref="471633063"/>
    <nd ref="471633046"/>
    <tag k="highway" v="residential"/>
    <tag k="name" v="Mitchell Road"/>
    <tag k="source" v="survey"/>
  </way>
  <way id="39365107" version="3" timestamp="2010-07-08T03:19:41Z" uid="74617" user="JohnSmith" changeset="5163091">
    <nd ref="53243904"/>
    <nd ref="471633063"/>
    <nd ref="471633046"/>
    <tag k="highway" v="residential"/>
    <tag k="maxspeed" v="50"/>
    <tag k="maxspeed:source" v="default residential speed limit in Australia"/>
    <tag k="name" v="Mitchell Road"/>
    <tag k="source" v="survey"/>
  </way>
  <way id="39365110" version="1" timestamp="2009-08-20T20:41:42Z" uid="61114" user="Trav" changeset="2217054">
    <nd ref="471633063"/>
    <nd ref="471633066"/>
    <nd ref="471633067"/>
    <nd ref="471633068"/>
    <tag k="highway" v="residential"/>
    <tag k="name" v="Redfern Place"/>
    <tag k="source" v="survey"/>
  </way>
  <way id="39365110" version="2" timestamp="2009-08-30T01:19:05Z" uid="61114" user="Trav" changeset="2308204">
    <nd ref="471633063"/>
    <nd ref="471633066"/>
    <nd ref="471633067"/>
    <nd ref="471634465"/>
    <tag k="highway" v="residential"/>
    <tag k="name" v="Redfern Place"/>
    <tag k="source" v="survey"/>
  </way>
  <way id="39365110" version="3" timestamp="2010-07-08T03:20:17Z" uid="74617" user="JohnSmith" changeset="5163091">
    <nd ref="471633063"/>
    <nd ref="471633066"/>
    <nd ref="471633067"/>
    <nd ref="471634465"/>
    <tag k="highway" v="residential"/>
    <tag k="maxspeed" v="50"/>
    <tag k="maxspeed:source" v="default residential speed limit in Australia"/>
    <tag k="name" v="Redfern Place"/>
    <tag k="source" v="survey"/>
  </way>
  <way id="39365112" version="1" timestamp="2009-08-20T20:41:46Z" uid="61114" user="Trav" changeset="2217054">
    <nd ref="471633068"/>
    <nd ref="471633069"/>
    <nd ref="471633070"/>
    <nd ref="471633071"/>
    <nd ref="471633075"/>
    <nd ref="471633077"/>
    <nd ref="471633078"/>
    <nd ref="471633079"/>
    <tag k="highway" v="residential"/>
    <tag k="name" v="Bootles Lane"/>
    <tag k="source" v="survey"/>
  </way>
  <way id="39365112" version="2" timestamp="2009-08-30T01:19:05Z" uid="61114" user="Trav" changeset="2308204">
    <nd ref="471634465"/>
    <nd ref="471633069"/>
    <nd ref="471633070"/>
    <nd ref="471633071"/>
    <nd ref="471633075"/>
    <nd ref="471633077"/>
    <nd ref="471633078"/>
    <nd ref="471633079"/>
    <tag k="highway" v="residential"/>
    <tag k="name" v="Bootles Lane"/>
    <tag k="source" v="survey"/>
  </way>
  <way id="39365112" version="3" timestamp="2010-07-08T03:19:15Z" uid="74617" user="JohnSmith" changeset="5163091">
    <nd ref="471634465"/>
    <nd ref="471633069"/>
    <nd ref="471633070"/>
    <nd ref="471633071"/>
    <nd ref="471633075"/>
    <nd ref="471633077"/>
    <nd ref="471633078"/>
    <nd ref="471633079"/>
    <tag k="highway" v="residential"/>
    <tag k="maxspeed" v="50"/>
    <tag k="maxspeed:source" v="default residential speed limit in Australia"/>
    <tag k="name" v="Bootles Lane"/>
    <tag k="source" v="survey"/>
  </way>
  <way id="39365114" version="1" timestamp="2009-08-20T20:41:51Z" uid="61114" user="Trav" changeset="2217054">
    <nd ref="471633078"/>
    <nd ref="471633091"/>
    <nd ref="471633110"/>
    <nd ref="471633116"/>
    <nd ref="471633122"/>
    <nd ref="471633125"/>
    <nd ref="471633130"/>
    <nd ref="471633136"/>
    <nd ref="471633144"/>
    <nd ref="471633151"/>
    <tag k="highway" v="residential"/>
    <tag k="name" v="Bella Vista Drive"/>
    <tag k="source" v="survey"/>
  </way>
  <way id="39365114" version="2" timestamp="2010-02-20T04:50:36Z" uid="7617" user="Franc" changeset="3920506">
    <nd ref="471633078"/>
    <nd ref="471633091"/>
    <nd ref="471633116"/>
    <nd ref="471633122"/>
    <nd ref="471633125"/>
    <nd ref="471633130"/>
    <nd ref="471633144"/>
    <nd ref="471633151"/>
    <tag k="highway" v="residential"/>
    <tag k="name" v="Bella Vista Drive"/>
    <tag k="source" v="survey"/>
  </way>
  <way id="39365114" version="3" timestamp="2010-07-08T03:19:37Z" uid="74617" user="JohnSmith" changeset="5163091">
    <nd ref="471633078"/>
    <nd ref="471633091"/>
    <nd ref="471633116"/>
    <nd ref="471633122"/>
    <nd ref="471633125"/>
    <nd ref="471633130"/>
    <nd ref="471633144"/>
    <nd ref="471633151"/>
    <tag k="highway" v="residential"/>
    <tag k="maxspeed" v="50"/>
    <tag k="maxspeed:source" v="default residential speed limit in Australia"/>
    <tag k="name" v="Bella Vista Drive"/>
    <tag k="source" v="survey"/>
  </way>
  <way id="39365115" version="1" timestamp="2009-08-20T20:41:52Z" uid="61114" user="Trav" changeset="2217054">
    <nd ref="471633091"/>
    <nd ref="471633169"/>
    <tag k="highway" v="residential"/>
    <tag k="name" v="Holly Place"/>
    <tag k="source" v="survey"/>
  </way>
  <way id="39365115" version="2" timestamp="2010-07-08T03:18:21Z" uid="74617" user="JohnSmith" changeset="5163091">
    <nd ref="471633091"/>
    <nd ref="471633169"/>
    <tag k="highway" v="residential"/>
    <tag k="maxspeed" v="50"/>
    <tag k="maxspeed:source" v="default residential speed limit in Australia"/>
    <tag k="name" v="Holly Place"/>
    <tag k="source" v="survey"/>
  </way>
  <way id="39365116" version="1" timestamp="2009-08-20T20:41:52Z" uid="61114" user="Trav" changeset="2217054">
    <nd ref="471633122"/>
    <nd ref="471633176"/>
    <tag k="highway" v="residential"/>
    <tag k="name" v="Citrus Place"/>
    <tag k="source" v="survey"/>
  </way>
  <way id="39365116" version="2" timestamp="2010-07-08T03:18:35Z" uid="74617" user="JohnSmith" changeset="5163091">
    <nd ref="471633122"/>
    <nd ref="471633176"/>
    <tag k="highway" v="residential"/>
    <tag k="maxspeed" v="50"/>
    <tag k="maxspeed:source" v="default residential speed limit in Australia"/>
    <tag k="name" v="Citrus Place"/>
    <tag k="source" v="survey"/>
  </way>
  <way id="39365117" version="1" timestamp="2009-08-20T20:41:56Z" uid="61114" user="Trav" changeset="2217054">
    <nd ref="471633091"/>
    <nd ref="471633192"/>
    <nd ref="471633199"/>
    <nd ref="471633206"/>
    <nd ref="471633212"/>
    <nd ref="471633223"/>
    <nd ref="471633227"/>
    <tag k="highway" v="residential"/>
    <tag k="name" v="Vermont Avenue"/>
    <tag k="source" v="survey"/>
  </way>
  <way id="39365117" version="2" timestamp="2010-07-08T03:19:33Z" uid="74617" user="JohnSmith" changeset="5163091">
    <nd ref="471633091"/>
    <nd ref="471633192"/>
    <nd ref="471633199"/>
    <nd ref="471633206"/>
    <nd ref="471633212"/>
    <nd ref="471633223"/>
    <nd ref="471633227"/>
    <tag k="highway" v="residential"/>
    <tag k="maxspeed" v="50"/>
    <tag k="maxspeed:source" v="default residential speed limit in Australia"/>
    <tag k="name" v="Vermont Avenue"/>
    <tag k="source" v="survey"/>
  </way>
  <way id="39365118" version="1" timestamp="2009-08-20T20:41:57Z" uid="61114" user="Trav" changeset="2217054">
    <nd ref="471633192"/>
    <nd ref="471633242"/>
    <nd ref="471633077"/>
    <tag k="highway" v="residential"/>
    <tag k="name" v="Pittsmoor Street"/>
    <tag k="source" v="survey"/>
  </way>
  <way id="39365118" version="3" timestamp="2010-07-08T03:18:58Z" uid="74617" user="JohnSmith" changeset="5163091">
    <nd ref="471633192"/>
    <nd ref="471633077"/>
    <tag k="highway" v="residential"/>
    <tag k="maxspeed" v="50"/>
    <tag k="maxspeed:source" v="default residential speed limit in Australia"/>
    <tag k="name" v="Pittsmoor Street"/>
    <tag k="source" v="survey"/>
  </way>
  <way id="39365119" version="1" timestamp="2009-08-20T20:41:59Z" uid="61114" user="Trav" changeset="2217054">
    <nd ref="471633144"/>
    <nd ref="471633255"/>
    <nd ref="471633265"/>
    <nd ref="471633269"/>
    <tag k="highway" v="residential"/>
    <tag k="name" v="Farmhouse Avenue"/>
    <tag k="source" v="survey"/>
  </way>
  <way id="39365119" version="2" timestamp="2010-07-08T03:19:51Z" uid="74617" user="JohnSmith" changeset="5163091">
    <nd ref="471633144"/>
    <nd ref="471633255"/>
    <nd ref="471633265"/>
    <nd ref="471633269"/>
    <tag k="highway" v="residential"/>
    <tag k="maxspeed" v="50"/>
    <tag k="maxspeed:source" v="default residential speed limit in Australia"/>
    <tag k="name" v="Farmhouse Avenue"/>
    <tag k="source" v="survey"/>
  </way>
  <way id="39365120" version="1" timestamp="2009-08-20T20:42:01Z" uid="61114" user="Trav" changeset="2217054">
    <nd ref="471633265"/>
    <nd ref="471633303"/>
    <nd ref="471633212"/>
    <tag k="highway" v="residential"/>
    <tag k="name" v="Casurina Street"/>
    <tag k="source" v="survey"/>
  </way>
  <way id="39365120" version="2" timestamp="2010-02-20T04:50:35Z" uid="7617" user="Franc" changeset="3920506">
    <nd ref="471633265"/>
    <nd ref="471633303"/>
    <nd ref="647601426"/>
    <nd ref="471633212"/>
    <tag k="highway" v="residential"/>
    <tag k="name" v="Casurina Street"/>
    <tag k="source" v="survey"/>
  </way>
  <way id="39365120" version="3" timestamp="2010-07-08T03:18:04Z" uid="74617" user="JohnSmith" changeset="5163091">
    <nd ref="471633265"/>
    <nd ref="471633303"/>
    <nd ref="647601426"/>
    <nd ref="471633212"/>
    <tag k="highway" v="residential"/>
    <tag k="maxspeed" v="50"/>
    <tag k="maxspeed:source" v="default residential speed limit in Australia"/>
    <tag k="name" v="Casurina Street"/>
    <tag k="source" v="survey"/>
  </way>
  <way id="39365125" version="1" timestamp="2009-08-20T20:42:01Z" uid="61114" user="Trav" changeset="2217054">
    <nd ref="471633122"/>
    <nd ref="471633303"/>
    <tag k="highway" v="residential"/>
    <tag k="name" v="Camellia Street"/>
    <tag k="source" v="survey"/>
  </way>
  <way id="39365125" version="2" timestamp="2010-07-08T03:18:22Z" uid="74617" user="JohnSmith" changeset="5163091">
    <nd ref="471633122"/>
    <nd ref="471633303"/>
    <tag k="highway" v="residential"/>
    <tag k="maxspeed" v="50"/>
    <tag k="maxspeed:source" v="default residential speed limit in Australia"/>
    <tag k="name" v="Camellia Street"/>
    <tag k="source" v="survey"/>
  </way>
  <way id="39365129" version="1" timestamp="2009-08-20T20:42:02Z" uid="61114" user="Trav" changeset="2217054">
    <nd ref="471633255"/>
    <nd ref="471633354"/>
    <tag k="highway" v="residential"/>
    <tag k="name" v="Esther Maria Street"/>
    <tag k="source" v="survey"/>
  </way>
  <way id="39365129" version="2" timestamp="2010-07-08T03:19:51Z" uid="74617" user="JohnSmith" changeset="5163091">
    <nd ref="471633255"/>
    <nd ref="471633354"/>
    <tag k="highway" v="residential"/>
    <tag k="maxspeed" v="50"/>
    <tag k="maxspeed:source" v="default residential speed limit in Australia"/>
    <tag k="name" v="Esther Maria Street"/>
    <tag k="source" v="survey"/>
  </way>
  <way id="39365252" version="1" timestamp="2009-08-20T20:44:30Z" uid="61114" user="Trav" changeset="2217093">
    <nd ref="471634465"/>
    <nd ref="471634466"/>
    <tag k="car" v="no"/>
    <tag k="complete" v="no"/>
    <tag k="highway" v="track"/>
    <tag k="name" v="Bootles Lane"/>
    <tag k="source" v="yahoo_imagery;survey;approximation"/>
  </way>
  <way id="39365329" version="1" timestamp="2009-08-20T20:47:43Z" uid="61114" user="Trav" changeset="2217129">
    <nd ref="471635309"/>
    <nd ref="471635310"/>
    <nd ref="471635311"/>
    <nd ref="471635312"/>
    <nd ref="471635313"/>
    <nd ref="471635322"/>
    <nd ref="471635335"/>
    <nd ref="471635339"/>
    <nd ref="471635340"/>
    <nd ref="471635341"/>
    <tag k="highway" v="unclassified"/>
    <tag k="name" v="Dormitory Hill Road"/>
    <tag k="source" v="survey"/>
  </way>
  <way id="39365356" version="1" timestamp="2009-08-20T20:50:11Z" uid="123700" user="Mala" changeset="2217150">
    <nd ref="471635577"/>
    <nd ref="471635578"/>
    <nd ref="471635579"/>
    <nd ref="471635580"/>
    <nd ref="471635577"/>
    <tag k="building" v="museum"/>
  </way>
  <way id="39365357" version="1" timestamp="2009-08-20T20:50:11Z" uid="123700" user="Mala" changeset="2217150">
    <nd ref="471635582"/>
    <nd ref="471635583"/>
    <nd ref="471635584"/>
    <nd ref="471635585"/>
    <nd ref="471635582"/>
    <tag k="building" v="church"/>
  </way>
  <way id="39365358" version="1" timestamp="2009-08-20T20:50:11Z" uid="123700" user="Mala" changeset="2217150">
    <nd ref="471635587"/>
    <nd ref="471635588"/>
    <nd ref="471635589"/>
    <nd ref="471635590"/>
    <nd ref="471635587"/>
    <tag k="building" v="museum"/>
  </way>
  <way id="39365359" version="1" timestamp="2009-08-20T20:50:11Z" uid="123700" user="Mala" changeset="2217150">
    <nd ref="471635592"/>
    <nd ref="471635593"/>
    <nd ref="471635594"/>
    <nd ref="471635595"/>
    <nd ref="471635596"/>
    <nd ref="471635597"/>
    <nd ref="471635592"/>
    <tag k="building" v="church"/>
  </way>
  <way id="39365360" version="1" timestamp="2009-08-20T20:50:11Z" uid="123700" user="Mala" changeset="2217150">
    <nd ref="471635598"/>
    <nd ref="471635599"/>
    <nd ref="471635600"/>
    <nd ref="471635601"/>
    <nd ref="471635602"/>
    <nd ref="471635603"/>
    <nd ref="471635604"/>
    <nd ref="471635605"/>
    <nd ref="471635606"/>
    <nd ref="471635607"/>
    <nd ref="471635608"/>
    <nd ref="471635609"/>
    <nd ref="471635610"/>
    <nd ref="471635598"/>
    <tag k="amenity" v="place_of_worship"/>
    <tag k="building" v="convent"/>
    <tag k="name" v="Klasztor Dominikanów"/>
  </way>
  <way id="39365360" version="2" timestamp="2009-08-21T15:14:27Z" uid="20587" user="balrog-kun" changeset="2225198">
    <nd ref="471635598"/>
    <nd ref="471635610"/>
    <nd ref="471635609"/>
    <nd ref="471635608"/>
    <nd ref="471635607"/>
    <nd ref="471635606"/>
    <nd ref="471635605"/>
    <nd ref="471635604"/>
    <nd ref="471635603"/>
    <nd ref="471635602"/>
    <nd ref="471635601"/>
    <nd ref="471635600"/>
    <nd ref="471635599"/>
    <nd ref="471635598"/>
    <tag k="amenity" v="place_of_worship"/>
    <tag k="building" v="convent"/>
    <tag k="name" v="Klasztor Dominikanów"/>
  </way>
  <way id="39365361" version="1" timestamp="2009-08-20T20:50:11Z" uid="123700" user="Mala" changeset="2217150">
    <nd ref="471635611"/>
    <nd ref="471635612"/>
    <nd ref="471635613"/>
    <nd ref="471635614"/>
    <nd ref="471635611"/>
  </way>
  <way id="39365361" version="2" timestamp="2009-08-21T15:14:27Z" uid="20587" user="balrog-kun" changeset="2225198">
    <nd ref="471635611"/>
    <nd ref="471635614"/>
    <nd ref="471635613"/>
    <nd ref="471635612"/>
    <nd ref="471635611"/>
  </way>
  <way id="39365362" version="1" timestamp="2009-08-20T20:50:11Z" uid="123700" user="Mala" changeset="2217150">
    <nd ref="471635615"/>
    <nd ref="471635616"/>
    <nd ref="471635617"/>
    <nd ref="471635618"/>
    <nd ref="471635615"/>
  </way>
  <way id="39365363" version="1" timestamp="2009-08-20T20:50:11Z" uid="123700" user="Mala" changeset="2217150">
    <nd ref="471635619"/>
    <nd ref="471635620"/>
    <nd ref="471635621"/>
    <nd ref="471635622"/>
    <nd ref="471635619"/>
  </way>
  <way id="39365364" version="1" timestamp="2009-08-20T20:50:11Z" uid="123700" user="Mala" changeset="2217150">
    <nd ref="471635623"/>
    <nd ref="471635624"/>
    <nd ref="471635625"/>
    <nd ref="471635626"/>
    <nd ref="471635623"/>
  </way>
  <way id="39365365" version="1" timestamp="2009-08-20T20:50:11Z" uid="123700" user="Mala" changeset="2217150">
    <nd ref="471635627"/>
    <nd ref="471635628"/>
    <nd ref="471635629"/>
    <nd ref="471635627"/>
  </way>
  <way id="39365365" version="2" timestamp="2009-08-21T15:14:27Z" uid="20587" user="balrog-kun" changeset="2225198">
    <nd ref="471635627"/>
    <nd ref="471635629"/>
    <nd ref="471635628"/>
    <nd ref="471635627"/>
  </way>
  <way id="39365366" version="1" timestamp="2009-08-20T20:50:11Z" uid="123700" user="Mala" changeset="2217150">
    <nd ref="471635630"/>
    <nd ref="471635631"/>
    <nd ref="471635632"/>
    <nd ref="471635633"/>
    <nd ref="471635634"/>
    <nd ref="471635630"/>
  </way>
  <way id="39365366" version="2" timestamp="2009-08-21T15:14:27Z" uid="20587" user="balrog-kun" changeset="2225198">
    <nd ref="471635630"/>
    <nd ref="471635634"/>
    <nd ref="471635633"/>
    <nd ref="471635632"/>
    <nd ref="471635631"/>
    <nd ref="471635630"/>
  </way>
  <way id="39365367" version="1" timestamp="2009-08-20T20:50:11Z" uid="123700" user="Mala" changeset="2217150">
    <nd ref="471635635"/>
    <nd ref="471635689"/>
    <nd ref="471635636"/>
    <tag k="highway" v="pedestrian"/>
    <tag k="name" v="Pasaż Bielaka"/>
    <tag k="tunnel" v="yes"/>
  </way>
  <way id="39365368" version="1" timestamp="2009-08-20T20:50:11Z" uid="123700" user="Mala" changeset="2217150">
    <nd ref="471635637"/>
    <nd ref="471635638"/>
    <nd ref="471635639"/>
    <nd ref="471635640"/>
    <nd ref="471635641"/>
    <nd ref="471635646"/>
    <nd ref="471635642"/>
    <nd ref="471635643"/>
    <nd ref="471635644"/>
    <nd ref="471635645"/>
    <nd ref="471635637"/>
    <tag k="highway" v="pedestrian"/>
    <tag k="motorcar" v="yes"/>
    <tag k="name" v="Plac Wszystkich Świętych"/>
  </way>
  <way id="39365369" version="1" timestamp="2009-08-20T20:50:12Z" uid="123700" user="Mala" changeset="2217150">
    <nd ref="471635647"/>
    <nd ref="471635648"/>
    <nd ref="471635649"/>
    <nd ref="471635650"/>
    <nd ref="471635651"/>
    <nd ref="471635652"/>
    <nd ref="471635653"/>
    <nd ref="471635654"/>
    <nd ref="471635655"/>
    <nd ref="471635656"/>
    <nd ref="471635657"/>
    <nd ref="471635658"/>
    <nd ref="471635647"/>
    <tag k="landuse" v="forest"/>
  </way>
  <way id="39365370" version="1" timestamp="2009-08-20T20:50:12Z" uid="123700" user="Mala" changeset="2217150">
    <nd ref="471635660"/>
    <nd ref="471635661"/>
    <nd ref="471635662"/>
    <nd ref="471635663"/>
    <nd ref="471635660"/>
    <tag k="building" v="museum"/>
    <tag k="name" v="Kamienica Szołayskich"/>
  </way>
  <way id="39365370" version="2" timestamp="2009-08-27T21:48:53Z" uid="123700" user="Mala" changeset="2283903">
    <nd ref="471635660"/>
    <nd ref="471635661"/>
    <nd ref="471635662"/>
    <nd ref="471635663"/>
    <nd ref="471635660"/>
    <tag k="addr:housenumber" v="11"/>
    <tag k="addr:street" v="Szczepańska"/>
    <tag k="building" v="museum"/>
    <tag k="name" v="Kamienica Szołayskich"/>
  </way>
  <way id="39365371" version="1" timestamp="2009-08-20T20:50:12Z" uid="123700" user="Mala" changeset="2217150">
    <nd ref="471635665"/>
    <nd ref="471635666"/>
    <nd ref="471635667"/>
    <nd ref="471635668"/>
    <nd ref="471635665"/>
    <tag k="building" v="church"/>
  </way>
  <way id="39365372" version="1" timestamp="2009-08-20T20:50:12Z" uid="123700" user="Mala" changeset="2217150">
    <nd ref="471635670"/>
    <nd ref="471635671"/>
    <nd ref="471635672"/>
    <nd ref="471635673"/>
    <nd ref="471635670"/>
    <tag k="building" v="church"/>
  </way>
  <way id="39365373" version="1" timestamp="2009-08-20T20:50:12Z" uid="123700" user="Mala" changeset="2217150">
    <nd ref="471635676"/>
    <nd ref="471635677"/>
    <nd ref="471635681"/>
    <nd ref="471635678"/>
    <nd ref="471635676"/>
    <tag k="addr:housenumber" v="4"/>
    <tag k="addr:street" v="Rynek Główny"/>
    <tag k="building" v="yes"/>
    <tag k="name" v="Kamienica Czyncielów"/>
    <tag k="wikipedia" v="pl:Kamienica Czyncielów"/>
  </way>
  <way id="39365374" version="1" timestamp="2009-08-20T20:50:12Z" uid="123700" user="Mala" changeset="2217150">
    <nd ref="471635678"/>
    <nd ref="471635679"/>
    <nd ref="471635680"/>
    <nd ref="471635681"/>
    <nd ref="471635678"/>
    <tag k="addr:housenumber" v="5"/>
    <tag k="addr:street" v="Rynek Główny"/>
    <tag k="building" v="yes"/>
    <tag k="name" v="Kamienica Bidermanowska"/>
    <tag k="wikipedia" v="pl:Kamienica Bidermanowska"/>
  </way>
  <way id="39365375" version="1" timestamp="2009-08-20T20:50:12Z" uid="123700" user="Mala" changeset="2217150">
    <nd ref="471635682"/>
    <nd ref="471635684"/>
    <nd ref="471635709"/>
    <nd ref="471635708"/>
    <nd ref="471635705"/>
    <nd ref="471635707"/>
    <nd ref="471635706"/>
    <nd ref="471635683"/>
    <nd ref="471635682"/>
    <tag k="addr:housenumber" v="6"/>
    <tag k="addr:street" v="Rynek Główny"/>
    <tag k="building" v="yes"/>
    <tag k="name" v="Szara Kamienica"/>
    <tag k="wikipedia" v="pl:Szara Kamienica w Krakowie"/>
  </way>
  <way id="39365376" version="1" timestamp="2009-08-20T20:50:12Z" uid="123700" user="Mala" changeset="2217150">
    <nd ref="471635686"/>
    <nd ref="471635682"/>
    <nd ref="471635684"/>
    <nd ref="471635685"/>
    <nd ref="471635710"/>
    <nd ref="471635711"/>
    <nd ref="471635687"/>
    <nd ref="471635686"/>
    <tag k="addr:housenumber" v="7"/>
    <tag k="addr:street" v="Rynek Główny"/>
    <tag k="building" v="yes"/>
    <tag k="name" v="Dom Włoski"/>
    <tag k="wikipedia" v="pl:Dom Włoski w Krakowie"/>
  </way>
  <way id="39365377" version="1" timestamp="2009-08-20T20:50:13Z" uid="123700" user="Mala" changeset="2217150">
    <nd ref="471635686"/>
    <nd ref="471635687"/>
    <nd ref="471635712"/>
    <nd ref="471635713"/>
    <nd ref="471635691"/>
    <nd ref="471635688"/>
    <nd ref="471635686"/>
    <tag k="addr:housenumber" v="8"/>
    <tag k="addr:street" v="Rynek Główny"/>
    <tag k="building" v="yes"/>
    <tag k="name" v="Kamienica Pod Jaszczurami"/>
    <tag k="wikipedia" v="pl:Kamienica Pod Jaszczurami w Krakowie"/>
  </way>
  <way id="39365378" version="1" timestamp="2009-08-20T20:50:13Z" uid="123700" user="Mala" changeset="2217150">
    <nd ref="471635688"/>
    <nd ref="471635692"/>
    <nd ref="471635693"/>
    <nd ref="471635715"/>
    <nd ref="471635714"/>
    <nd ref="471635691"/>
    <nd ref="471635688"/>
    <tag k="addr:housenumber" v="9"/>
    <tag k="addr:street" v="Rynek Główny"/>
    <tag k="building" v="yes"/>
    <tag k="name" v="Kamienica Bonerowska"/>
    <tag k="wikipedia" v="pl:Kamienica Bonerowska w Krakowie"/>
  </way>
  <way id="39365379" version="1" timestamp="2009-08-20T20:50:13Z" uid="123700" user="Mala" changeset="2217150">
    <nd ref="471635692"/>
    <nd ref="471635693"/>
    <nd ref="471635694"/>
    <nd ref="471635695"/>
    <nd ref="471635692"/>
    <tag k="addr:housenumber" v="10"/>
    <tag k="addr:street" v="Rynek Główny"/>
    <tag k="building" v="yes"/>
    <tag k="name" v="Kamienica Pod Złotym Karpiem"/>
    <tag k="wikipedia" v="pl:Kamienica Pod Złotym Karpiem w Krakowie"/>
  </way>
  <way id="39365380" version="1" timestamp="2009-08-20T20:50:13Z" uid="123700" user="Mala" changeset="2217150">
    <nd ref="471635695"/>
    <nd ref="471635698"/>
    <nd ref="471635700"/>
    <nd ref="471635696"/>
    <nd ref="471635697"/>
    <nd ref="471635694"/>
    <nd ref="471635695"/>
    <tag k="addr:housenumber" v="11"/>
    <tag k="addr:street" v="Rynek Główny"/>
    <tag k="building" v="yes"/>
    <tag k="name" v="Dom Wenecki"/>
    <tag k="wikipedia" v="pl:Dom Wenecki w Krakowie"/>
  </way>
  <way id="39365381" version="1" timestamp="2009-08-20T20:50:13Z" uid="123700" user="Mala" changeset="2217150">
    <nd ref="471635698"/>
    <nd ref="471635701"/>
    <nd ref="471635699"/>
    <nd ref="471635700"/>
    <nd ref="471635698"/>
    <tag k="addr:housenumber" v="12"/>
    <tag k="addr:street" v="Rynek Główny"/>
    <tag k="building" v="yes"/>
    <tag k="name" v="Kamienica Fontanowska"/>
    <tag k="wikipedia" v="pl:Kamienica Fontanowska"/>
  </way>
  <way id="39365382" version="1" timestamp="2009-08-20T20:50:13Z" uid="123700" user="Mala" changeset="2217150">
    <nd ref="471635701"/>
    <nd ref="471635702"/>
    <nd ref="471635703"/>
    <nd ref="471635704"/>
    <nd ref="471635699"/>
    <nd ref="471635701"/>
    <tag k="addr:housenumber" v="13"/>
    <tag k="addr:street" v="Rynek Główny"/>
    <tag k="building" v="yes"/>
    <tag k="name" v="Kamienica Pod Złotą Głową"/>
    <tag k="wikipedia" v="pl:Kamienica Pod Złotą Głową w Krakowie"/>
  </way>
  <way id="39365383" version="1" timestamp="2009-08-20T20:50:13Z" uid="123700" user="Mala" changeset="2217150">
    <nd ref="471635716"/>
    <nd ref="471635676"/>
    <nd ref="471635677"/>
    <nd ref="471635717"/>
    <nd ref="471635593"/>
    <nd ref="471635592"/>
    <nd ref="471635718"/>
    <nd ref="30375869"/>
    <nd ref="272798871"/>
    <nd ref="286835126"/>
    <nd ref="471635716"/>
    <tag k="area" v="yes"/>
    <tag k="highway" v="pedestrian"/>
    <tag k="name" v="Plac Mariacki"/>
  </way>
  <way id="39365385" version="1" timestamp="2009-08-20T20:50:13Z" uid="123700" user="Mala" changeset="2217150">
    <nd ref="471635719"/>
    <nd ref="471635720"/>
    <nd ref="471635721"/>
    <nd ref="471635722"/>
    <nd ref="471635727"/>
    <nd ref="471635723"/>
    <nd ref="471635724"/>
    <nd ref="471635719"/>
    <tag k="addr:housenumber" v="20"/>
    <tag k="building" v="yes"/>
    <tag k="name" v="Pałac Zbaraskich"/>
    <tag k="wikipedia" v="pl:Pałac Zbaraskich"/>
  </way>
  <way id="39365387" version="1" timestamp="2009-08-20T20:50:14Z" uid="123700" user="Mala" changeset="2217150">
    <nd ref="471635724"/>
    <nd ref="471635728"/>
    <nd ref="471635725"/>
    <nd ref="471635726"/>
    <nd ref="471635727"/>
    <nd ref="471635723"/>
    <nd ref="471635724"/>
    <tag k="addr:housenumber" v="19"/>
    <tag k="building" v="yes"/>
    <tag k="name" v="Kamienica Pod Obrazem"/>
    <tag k="wikipedia" v="pl:Kamienica Pod Obrazem w Krakowie"/>
  </way>
  <way id="39365388" version="1" timestamp="2009-08-20T20:50:14Z" uid="123700" user="Mala" changeset="2217150">
    <nd ref="471635728"/>
    <nd ref="471635725"/>
    <nd ref="471635726"/>
    <nd ref="471635729"/>
    <nd ref="471635730"/>
    <nd ref="471635728"/>
    <tag k="addr:housenumber" v="18"/>
    <tag k="building" v="yes"/>
    <tag k="name" v="Kamienica Amadejowska"/>
  </way>
  <way id="39365389" version="1" timestamp="2009-08-20T20:50:14Z" uid="123700" user="Mala" changeset="2217150">
    <nd ref="471635730"/>
    <nd ref="471635729"/>
    <nd ref="471635740"/>
    <nd ref="471635741"/>
    <nd ref="471635742"/>
    <nd ref="471635731"/>
    <nd ref="471635733"/>
    <nd ref="471635732"/>
    <nd ref="471635730"/>
    <tag k="addr:housenumber" v="17"/>
    <tag k="building" v="yes"/>
    <tag k="name" v="Kamienica Hetmańska"/>
    <tag k="wikipedia" v="pl:Kamienica Hetmańska w Krakowie"/>
  </way>
  <way id="39365390" version="1" timestamp="2009-08-20T20:50:14Z" uid="123700" user="Mala" changeset="2217150">
    <nd ref="471635732"/>
    <nd ref="471635733"/>
    <nd ref="471635734"/>
    <nd ref="471635735"/>
    <nd ref="471635732"/>
    <tag k="addr:housenumber" v="16"/>
    <tag k="building" v="yes"/>
    <tag k="name" v="Kamienica Morsztynowska"/>
  </way>
  <way id="39365391" version="1" timestamp="2009-08-20T20:50:14Z" uid="123700" user="Mala" changeset="2217150">
    <nd ref="471635735"/>
    <nd ref="471635734"/>
    <nd ref="471635737"/>
    <nd ref="471635736"/>
    <nd ref="471635735"/>
    <tag k="addr:housenumber" v="15"/>
    <tag k="building" v="yes"/>
    <tag k="name" v="Kamienica Pinocińska"/>
    <tag k="wikipedia" v="pl:Kamienica Pinocińska"/>
  </way>
  <way id="39365392" version="1" timestamp="2009-08-20T20:50:14Z" uid="123700" user="Mala" changeset="2217150">
    <nd ref="471635736"/>
    <nd ref="471635737"/>
    <nd ref="471635738"/>
    <nd ref="471635739"/>
    <nd ref="471635736"/>
    <tag k="addr:housenumber" v="14"/>
    <tag k="building" v="yes"/>
    <tag k="name" v="Kamienica pod Świętą Anną"/>
  </way>
  <way id="39365392" version="2" timestamp="2009-08-28T12:13:30Z" uid="123700" user="Mala" changeset="2289476">
    <nd ref="471635736"/>
    <nd ref="471635737"/>
    <nd ref="471635738"/>
    <nd ref="471635739"/>
    <nd ref="471635736"/>
    <tag k="addr:housenumber" v="14"/>
    <tag k="building" v="yes"/>
    <tag k="name" v="Kamienica Pod Świętą Anną"/>
  </way>
  <way id="39365393" version="1" timestamp="2009-08-20T20:50:14Z" uid="123700" user="Mala" changeset="2217150">
    <nd ref="471635743"/>
    <nd ref="471635744"/>
    <nd ref="471635745"/>
    <nd ref="471635746"/>
    <nd ref="471635743"/>
    <tag k="addr:housenumber" v="21"/>
    <tag k="building" v="yes"/>
    <tag k="name" v="Kamienica Pod Ewangelistami"/>
    <tag k="wikipedia" v="pl:Kamienica Pod Ewangelistami"/>
  </way>
  <way id="39365394" version="1" timestamp="2009-08-20T20:50:14Z" uid="123700" user="Mala" changeset="2217150">
    <nd ref="471635745"/>
    <nd ref="471635747"/>
    <nd ref="471635748"/>
    <nd ref="471635749"/>
    <nd ref="471635744"/>
    <nd ref="471635745"/>
    <tag k="addr:housenumber" v="22"/>
    <tag k="building" v="yes"/>
    <tag k="name" v="Kamienica Straszewska"/>
  </way>
  <way id="39365395" version="1" timestamp="2009-08-20T20:50:15Z" uid="123700" user="Mala" changeset="2217150">
    <nd ref="471635747"/>
    <nd ref="471635752"/>
    <nd ref="471635755"/>
    <nd ref="471635750"/>
    <nd ref="471635751"/>
    <nd ref="471635748"/>
    <nd ref="471635747"/>
    <tag k="addr:housenumber" v="23"/>
    <tag k="building" v="yes"/>
    <tag k="name" v="Kamienica Kromerowska"/>
  </way>
  <way id="39365396" version="1" timestamp="2009-08-20T20:50:15Z" uid="123700" user="Mala" changeset="2217150">
    <nd ref="471635752"/>
    <nd ref="471635753"/>
    <nd ref="471635754"/>
    <nd ref="471635755"/>
    <nd ref="471635752"/>
    <tag k="addr:housenumber" v="24"/>
    <tag k="building" v="yes"/>
    <tag k="name" v="Kamienica Pod Kanarkiem"/>
    <tag k="wikipedia" v="pl:Kamienica Pod Kanarkiem"/>
  </way>
  <way id="39365397" version="1" timestamp="2009-08-20T20:50:15Z" uid="123700" user="Mala" changeset="2217150">
    <nd ref="471635753"/>
    <nd ref="471635757"/>
    <nd ref="471635758"/>
    <nd ref="471635759"/>
    <nd ref="471635756"/>
    <nd ref="471635754"/>
    <nd ref="471635753"/>
    <tag k="addr:housenumber" v="25"/>
    <tag k="building" v="yes"/>
    <tag k="name" v="Kamienica Pod Krukami"/>
  </way>
  <way id="39365398" version="1" timestamp="2009-08-20T20:50:15Z" uid="123700" user="Mala" changeset="2217150">
    <nd ref="471635757"/>
    <nd ref="471635758"/>
    <nd ref="471635759"/>
    <nd ref="471635760"/>
    <nd ref="471635761"/>
    <nd ref="471635762"/>
    <nd ref="471635757"/>
    <tag k="addr:housenumber" v="26"/>
    <tag k="building" v="yes"/>
    <tag k="name" v="Kamienica Pod Świętym Janem Kapistranem"/>
  </way>
  <way id="39365399" version="1" timestamp="2009-08-20T20:50:15Z" uid="123700" user="Mala" changeset="2217150">
    <nd ref="471635763"/>
    <nd ref="471635764"/>
    <nd ref="471635765"/>
    <nd ref="471635771"/>
    <nd ref="471635766"/>
    <nd ref="471635763"/>
    <tag k="addr:housenumber" v="27"/>
    <tag k="building" v="yes"/>
    <tag k="name" v="Pałac pod Baranami"/>
    <tag k="wikipedia" v="pl:Pałac pod Baranami"/>
  </way>
  <way id="39365399" version="2" timestamp="2009-08-28T12:13:31Z" uid="123700" user="Mala" changeset="2289476">
    <nd ref="471635763"/>
    <nd ref="471635764"/>
    <nd ref="471635765"/>
    <nd ref="471635771"/>
    <nd ref="471635766"/>
    <nd ref="471635763"/>
    <tag k="addr:housenumber" v="27"/>
    <tag k="building" v="yes"/>
    <tag k="name" v="Pałac Pod Baranami"/>
    <tag k="wikipedia" v="pl:Pałac pod Baranami"/>
  </way>
  <way id="39365400" version="1" timestamp="2009-08-20T20:50:15Z" uid="123700" user="Mala" changeset="2217150">
    <nd ref="471635767"/>
    <nd ref="471635768"/>
    <nd ref="471635769"/>
    <nd ref="471635770"/>
    <nd ref="471635767"/>
  </way>
  <way id="39365401" version="1" timestamp="2009-08-20T20:50:15Z" uid="123700" user="Mala" changeset="2217150">
    <nd ref="471635765"/>
    <nd ref="471635771"/>
    <nd ref="471635772"/>
    <nd ref="471635775"/>
    <nd ref="471635773"/>
    <nd ref="471635765"/>
    <tag k="addr:housenumber" v="28"/>
    <tag k="building" v="yes"/>
    <tag k="name" v="Kamienica Pod Jagnięciem"/>
    <tag k="wikipedia" v="pl:Kamienica Pod Jagnięciem"/>
  </way>
  <way id="39365402" version="1" timestamp="2009-08-20T20:50:15Z" uid="123700" user="Mala" changeset="2217150">
    <nd ref="471635774"/>
    <nd ref="471635773"/>
    <nd ref="471635775"/>
    <nd ref="471635776"/>
    <nd ref="471635774"/>
    <tag k="addr:housenumber" v="29"/>
    <tag k="building" v="yes"/>
    <tag k="name" v="Kamienica Pod Blachą"/>
    <tag k="wikipedia" v="pl:Kamienica Pod Blachą"/>
  </way>
  <way id="39365403" version="1" timestamp="2009-08-20T20:50:15Z" uid="123700" user="Mala" changeset="2217150">
    <nd ref="471635774"/>
    <nd ref="471635777"/>
    <nd ref="471635778"/>
    <nd ref="471635779"/>
    <nd ref="471635776"/>
    <nd ref="471635774"/>
    <tag k="addr:housenumber" v="30"/>
    <tag k="alt_name" v="Kamienica Cyglarowska"/>
    <tag k="building" v="yes"/>
    <tag k="name" v="Pałac Małachowskich"/>
    <tag k="wikipedia" v="pl:Pałac Małachowskich w Krakowie"/>
  </way>
  <way id="39365404" version="1" timestamp="2009-08-20T20:50:15Z" uid="123700" user="Mala" changeset="2217150">
    <nd ref="471635780"/>
    <nd ref="471635781"/>
    <nd ref="471635782"/>
    <nd ref="471635783"/>
    <nd ref="471635780"/>
    <tag k="addr:housenumber" v="31"/>
    <tag k="building" v="yes"/>
    <tag k="name" v="Budynek Pekao SA"/>
  </way>
  <way id="39365405" version="1" timestamp="2009-08-20T20:50:15Z" uid="123700" user="Mala" changeset="2217150">
    <nd ref="471635781"/>
    <nd ref="471635782"/>
    <nd ref="471635784"/>
    <nd ref="471635785"/>
    <nd ref="471635786"/>
    <nd ref="471635781"/>
    <tag k="addr:housenumber" v="32"/>
    <tag k="building" v="yes"/>
    <tag k="name" v="Kamienica Pod Trzema Gwiazdami"/>
    <tag k="wikipedia" v="pl:Kamienica Pod Trzema Gwiazdami"/>
  </way>
  <way id="39365406" version="1" timestamp="2009-08-20T20:50:16Z" uid="123700" user="Mala" changeset="2217150">
    <nd ref="471635786"/>
    <nd ref="471635789"/>
    <nd ref="471635787"/>
    <nd ref="471635788"/>
    <nd ref="471635785"/>
    <nd ref="471635786"/>
    <tag k="addr:housenumber" v="33"/>
    <tag k="building" v="yes"/>
    <tag k="name" v="Kamienica Ciemowiczowska"/>
    <tag k="wikipedia" v="pl:Kamienica Ciemowiczowska"/>
  </way>
  <way id="39365407" version="1" timestamp="2009-08-20T20:50:16Z" uid="123700" user="Mala" changeset="2217150">
    <nd ref="471635789"/>
    <nd ref="471557833"/>
    <nd ref="471557834"/>
    <nd ref="471635790"/>
    <nd ref="471635791"/>
    <nd ref="471635787"/>
    <nd ref="471635789"/>
    <tag k="addr:housenumber" v="34"/>
    <tag k="building" v="yes"/>
    <tag k="name" v="Pałac Spiski"/>
    <tag k="wikipedia" v="pl:Pałac Spiski"/>
  </way>
  <way id="39365408" version="1" timestamp="2009-08-20T20:50:16Z" uid="123700" user="Mala" changeset="2217150">
    <nd ref="471635792"/>
    <nd ref="471635793"/>
    <nd ref="471635794"/>
    <nd ref="471635795"/>
    <nd ref="471635792"/>
    <tag k="addr:housenumber" v="36"/>
    <tag k="building" v="yes"/>
    <tag k="name" v="Kamienica Pod Jeleniem"/>
    <tag k="wikipedia" v="pl:Kamienica Pod Jeleniem"/>
  </way>
  <way id="39365409" version="1" timestamp="2009-08-20T20:50:17Z" uid="123700" user="Mala" changeset="2217150">
    <nd ref="471635793"/>
    <nd ref="471635796"/>
    <nd ref="471635800"/>
    <nd ref="471635797"/>
    <nd ref="471635798"/>
    <nd ref="471635794"/>
    <nd ref="471635793"/>
    <tag k="addr:housenumber" v="37"/>
    <tag k="building" v="yes"/>
    <tag k="name" v="Kamienica Wosińska"/>
  </way>
  <way id="39365410" version="1" timestamp="2009-08-20T20:50:17Z" uid="123700" user="Mala" changeset="2217150">
    <nd ref="471635796"/>
    <nd ref="471635801"/>
    <nd ref="471635799"/>
    <nd ref="471635800"/>
    <nd ref="471635796"/>
    <tag k="addr:housenumber" v="38"/>
    <tag k="building" v="yes"/>
    <tag k="name" v="Kamienica Kencowska"/>
    <tag k="wikipedia" v="pl:Kamienica Kencowska"/>
  </way>
  <way id="39365411" version="1" timestamp="2009-08-20T20:50:17Z" uid="123700" user="Mala" changeset="2217150">
    <nd ref="471635801"/>
    <nd ref="471635802"/>
    <nd ref="471635806"/>
    <nd ref="471635803"/>
    <nd ref="471635804"/>
    <nd ref="471635799"/>
    <nd ref="471635801"/>
    <tag k="addr:housenumber" v="39"/>
    <tag k="building" v="yes"/>
    <tag k="name" v="Kamienica Pod Konikiem"/>
    <tag k="wikipedia" v="pl:Kamienica Pod Konikiem"/>
  </way>
  <way id="39365412" version="1" timestamp="2009-08-20T20:50:17Z" uid="123700" user="Mala" changeset="2217150">
    <nd ref="471635802"/>
    <nd ref="471635807"/>
    <nd ref="471635810"/>
    <nd ref="471635805"/>
    <nd ref="471635806"/>
    <nd ref="471635802"/>
    <tag k="addr:housenumber" v="40"/>
    <tag k="building" v="yes"/>
    <tag k="name" v="Kamienica Januszowiczowska"/>
    <tag k="wikipedia" v="pl:Kamienica Januszowiczowska"/>
  </way>
  <way id="39365413" version="1" timestamp="2009-08-20T20:50:17Z" uid="123700" user="Mala" changeset="2217150">
    <nd ref="471635807"/>
    <nd ref="471635808"/>
    <nd ref="471635809"/>
    <nd ref="471635810"/>
    <nd ref="471635807"/>
    <tag k="addr:housenumber" v="41"/>
    <tag k="building" v="yes"/>
    <tag k="name" v="Budynek Feniksa"/>
    <tag k="wikipedia" v="pl:Budynek Feniksa"/>
  </way>
  <way id="39365414" version="1" timestamp="2009-08-20T20:50:17Z" uid="123700" user="Mala" changeset="2217150">
    <nd ref="471635811"/>
    <nd ref="471635814"/>
    <nd ref="471635816"/>
    <nd ref="471635812"/>
    <nd ref="471635813"/>
    <nd ref="471635811"/>
    <tag k="addr:housenumber" v="42"/>
    <tag k="building" v="yes"/>
    <tag k="name" v="Kamienica Zacherlowska"/>
    <tag k="wikipedia" v="pl:Kamienica Zacherlowska"/>
  </way>
  <way id="39365415" version="1" timestamp="2009-08-20T20:50:17Z" uid="123700" user="Mala" changeset="2217150">
    <nd ref="471635814"/>
    <nd ref="471635817"/>
    <nd ref="471635819"/>
    <nd ref="471635815"/>
    <nd ref="471635816"/>
    <nd ref="471635814"/>
    <tag k="addr:housenumber" v="43"/>
    <tag k="building" v="yes"/>
    <tag k="name" v="Kamienica Pod Słońcem"/>
    <tag k="wikipedia" v="pl:Kamienica Pod Słońcem"/>
  </way>
  <way id="39365416" version="1" timestamp="2009-08-20T20:50:17Z" uid="123700" user="Mala" changeset="2217150">
    <nd ref="471635817"/>
    <nd ref="471635820"/>
    <nd ref="471635823"/>
    <nd ref="471635818"/>
    <nd ref="471635819"/>
    <nd ref="471635817"/>
    <tag k="addr:housenumber" v="44"/>
    <tag k="building" v="yes"/>
    <tag k="name" v="Kamienica Betmanowska"/>
    <tag k="wikipedia" v="pl:Kamienica Betmanowska"/>
  </way>
  <way id="39365417" version="1" timestamp="2009-08-20T20:50:17Z" uid="123700" user="Mala" changeset="2217150">
    <nd ref="471635820"/>
    <nd ref="471635821"/>
    <nd ref="471635822"/>
    <nd ref="471635823"/>
    <nd ref="471635820"/>
    <tag k="addr:housenumber" v="45"/>
    <tag k="building" v="yes"/>
    <tag k="name" v="Kamienica Pod Orłem"/>
    <tag k="wikipedia" v="pl:Kamienica Pod Orłem w Krakowie"/>
  </way>
  <way id="39365418" version="1" timestamp="2009-08-20T20:50:18Z" uid="123700" user="Mala" changeset="2217150">
    <nd ref="471635821"/>
    <nd ref="471635824"/>
    <nd ref="471635825"/>
    <nd ref="471635822"/>
    <nd ref="471635821"/>
    <tag k="addr:housenumber" v="46"/>
    <tag k="alt_name" v="Dom Brendlarowski"/>
    <tag k="building" v="yes"/>
    <tag k="name" v="Kamienica Czerwona"/>
    <tag k="wikipedia" v="pl:Kamienica Czerwona"/>
  </way>
  <way id="39365419" version="1" timestamp="2009-08-20T20:50:18Z" uid="123700" user="Mala" changeset="2217150">
    <nd ref="471635824"/>
    <nd ref="471635826"/>
    <nd ref="471635827"/>
    <nd ref="471635828"/>
    <nd ref="471635825"/>
    <nd ref="471635824"/>
    <tag k="addr:housenumber" v="47"/>
    <tag k="alt_name" v="Kamienica Margrabska"/>
    <tag k="building" v="yes"/>
    <tag k="name" v="Kamienica Mennica"/>
    <tag k="wikipedia" v="pl:Kamienica Mennica"/>
  </way>
  <way id="39365875" version="1" timestamp="2009-08-20T21:06:35Z" uid="1066" user="pavel" changeset="2217290">
    <nd ref="7296450"/>
    <nd ref="471640194"/>
    <nd ref="471640195"/>
    <nd ref="471640196"/>
    <nd ref="36257814"/>
    <tag k="highway" v="footway"/>
  </way>
  <way id="39365876" version="1" timestamp="2009-08-20T21:06:36Z" uid="1066" user="pavel" changeset="2217290">
    <nd ref="471640197"/>
    <nd ref="471640198"/>
    <nd ref="471640199"/>
    <nd ref="471640200"/>
    <nd ref="471640201"/>
    <nd ref="471640202"/>
    <nd ref="471640203"/>
    <nd ref="471640204"/>
    <nd ref="471640205"/>
    <tag k="highway" v="footway"/>
  </way>
  <way id="39365877" version="1" timestamp="2009-08-20T21:06:36Z" uid="1066" user="pavel" changeset="2217290">
    <nd ref="369023994"/>
    <nd ref="471640208"/>
    <nd ref="471640209"/>
    <nd ref="471640210"/>
    <nd ref="471640211"/>
    <nd ref="471640212"/>
    <nd ref="7296243"/>
    <tag k="highway" v="footway"/>
  </way>
  <way id="39365878" version="1" timestamp="2009-08-20T21:06:36Z" uid="1066" user="pavel" changeset="2217290">
    <nd ref="471640214"/>
    <nd ref="471640216"/>
    <nd ref="471640217"/>
    <nd ref="471640218"/>
    <nd ref="471640219"/>
    <nd ref="471640220"/>
    <nd ref="471640222"/>
    <nd ref="471640223"/>
    <nd ref="471640224"/>
    <nd ref="471640225"/>
    <nd ref="471640226"/>
    <nd ref="471640227"/>
    <nd ref="471640228"/>
    <nd ref="471640229"/>
    <nd ref="471640230"/>
    <tag k="highway" v="footway"/>
    <tag k="note" v="chodnik, misty uplne zarostly"/>
  </way>
  <way id="39365879" version="1" timestamp="2009-08-20T21:06:36Z" uid="1066" user="pavel" changeset="2217290">
    <nd ref="471640231"/>
    <nd ref="471640232"/>
    <nd ref="471640230"/>
    <tag k="highway" v="unclassified"/>
  </way>
  <way id="39365880" version="1" timestamp="2009-08-20T21:06:36Z" uid="1066" user="pavel" changeset="2217290">
    <nd ref="471640232"/>
    <nd ref="471640233"/>
    <tag k="highway" v="service"/>
  </way>
  <way id="39365881" version="1" timestamp="2009-08-20T21:06:36Z" uid="1066" user="pavel" changeset="2217290">
    <nd ref="471640234"/>
    <nd ref="471640235"/>
    <nd ref="471640236"/>
    <nd ref="471640237"/>
    <tag k="highway" v="footway"/>
  </way>
  <way id="39365882" version="1" timestamp="2009-08-20T21:06:36Z" uid="1066" user="pavel" changeset="2217290">
    <nd ref="471640238"/>
    <nd ref="471640241"/>
    <nd ref="471640237"/>
    <nd ref="471640239"/>
    <nd ref="471640240"/>
    <tag k="highway" v="service"/>
  </way>
  <way id="39365883" version="1" timestamp="2009-08-20T21:06:36Z" uid="1066" user="pavel" changeset="2217290">
    <nd ref="471640241"/>
    <nd ref="471640242"/>
    <nd ref="471640243"/>
    <nd ref="471640244"/>
    <nd ref="471640245"/>
    <nd ref="471640246"/>
    <nd ref="471640247"/>
    <nd ref="471640248"/>
    <nd ref="471640249"/>
    <nd ref="471640250"/>
    <tag k="highway" v="footway"/>
  </way>
  <way id="39365884" version="1" timestamp="2009-08-20T21:06:36Z" uid="1066" user="pavel" changeset="2217290">
    <nd ref="471640251"/>
    <nd ref="471640252"/>
    <nd ref="471640253"/>
    <nd ref="471640254"/>
    <nd ref="471640255"/>
    <nd ref="471640256"/>
    <nd ref="471640257"/>
    <tag k="highway" v="footway"/>
  </way>
  <way id="39365885" version="1" timestamp="2009-08-20T21:06:36Z" uid="1066" user="pavel" changeset="2217290">
    <nd ref="471640258"/>
    <nd ref="471640259"/>
    <nd ref="471640260"/>
    <tag k="highway" v="footway"/>
  </way>
  <way id="39365886" version="1" timestamp="2009-08-20T21:06:36Z" uid="1066" user="pavel" changeset="2217290">
    <nd ref="410556213"/>
    <nd ref="313755065"/>
    <tag k="created_by" v="JOSM"/>
    <tag k="highway" v="residential"/>
    <tag k="name" v="Vachkova"/>
  </way>
  <way id="39365886" version="2" timestamp="2009-09-01T00:27:50Z" uid="23543" user="jkjk" changeset="2332611">
    <nd ref="410556213"/>
    <nd ref="313755065"/>
    <tag k="highway" v="residential"/>
    <tag k="kct_blue" v="major"/>
    <tag k="name" v="Vachkova"/>
  </way>
  <way id="39365887" version="1" timestamp="2009-08-20T21:06:36Z" uid="1066" user="pavel" changeset="2217290">
    <nd ref="410556203"/>
    <nd ref="410556169"/>
    <tag k="highway" v="footway"/>
    <tag k="kct_red" v="major"/>
  </way>
  <way id="39365888" version="1" timestamp="2009-08-20T21:06:36Z" uid="1066" user="pavel" changeset="2217290">
    <nd ref="29448585"/>
    <nd ref="471640263"/>
    <nd ref="471640264"/>
    <nd ref="471640265"/>
    <nd ref="471640266"/>
    <nd ref="471640267"/>
  </way>
  <way id="39365889" version="1" timestamp="2009-08-20T21:06:37Z" uid="1066" user="pavel" changeset="2217290">
    <nd ref="140052247"/>
    <nd ref="471640269"/>
    <nd ref="29447616"/>
    <nd ref="140052223"/>
    <nd ref="29447607"/>
    <tag k="created_by" v="JOSM"/>
    <tag k="highway" v="residential"/>
    <tag k="kct_green" v="major"/>
    <tag k="name" v="U starého nádraží"/>
  </way>
  <way id="39365889" version="2" timestamp="2009-09-01T00:27:48Z" uid="23543" user="jkjk" changeset="2332611">
    <nd ref="140052247"/>
    <nd ref="471640269"/>
    <nd ref="29447616"/>
    <nd ref="140052223"/>
    <nd ref="29447607"/>
    <tag k="highway" v="residential"/>
    <tag k="kct_green" v="yes"/>
    <tag k="name" v="U starého nádraží"/>
  </way>
  <way id="39365925" version="1" timestamp="2009-08-20T21:08:01Z" uid="36809" user="pfoten_weg_!_" changeset="2217294">
    <nd ref="470105439"/>
    <nd ref="471640375"/>
    <nd ref="471640379"/>
    <nd ref="471640388"/>
    <nd ref="471640393"/>
    <nd ref="471640399"/>
    <nd ref="471640405"/>
    <nd ref="471640419"/>
    <nd ref="471640734"/>
    <nd ref="471640425"/>
    <nd ref="471640436"/>
    <nd ref="471640445"/>
    <nd ref="471640458"/>
    <nd ref="471640916"/>
    <nd ref="471640914"/>
    <nd ref="471640466"/>
    <nd ref="471640917"/>
    <nd ref="471640483"/>
    <nd ref="471640920"/>
    <nd ref="471640493"/>
    <nd ref="471640501"/>
    <nd ref="471640504"/>
    <nd ref="471640513"/>
    <nd ref="471640519"/>
    <nd ref="471640530"/>
    <nd ref="471640539"/>
    <nd ref="471640544"/>
    <nd ref="471640550"/>
    <nd ref="471640557"/>
    <nd ref="471640564"/>
    <nd ref="471640569"/>
    <nd ref="471640575"/>
    <nd ref="471640953"/>
    <nd ref="471640583"/>
    <nd ref="471640589"/>
    <nd ref="471640596"/>
    <nd ref="471640599"/>
    <nd ref="471640609"/>
    <nd ref="471640611"/>
    <nd ref="471640619"/>
    <nd ref="471640948"/>
    <nd ref="471640622"/>
    <nd ref="471640631"/>
    <nd ref="471640634"/>
    <nd ref="471640944"/>
    <nd ref="471640642"/>
    <nd ref="471640646"/>
    <nd ref="471640653"/>
    <nd ref="471640658"/>
    <nd ref="471640668"/>
    <nd ref="471640673"/>
    <nd ref="471640680"/>
    <nd ref="471640684"/>
    <nd ref="471640691"/>
    <nd ref="471640695"/>
    <nd ref="471640702"/>
    <nd ref="471640706"/>
    <nd ref="471640712"/>
    <nd ref="471640713"/>
    <nd ref="471640714"/>
    <nd ref="471640715"/>
    <nd ref="471640716"/>
    <nd ref="471640717"/>
    <nd ref="471640718"/>
    <nd ref="471640719"/>
    <nd ref="471640720"/>
    <nd ref="471640721"/>
    <nd ref="471640722"/>
    <nd ref="471640723"/>
    <nd ref="471640724"/>
    <nd ref="471640726"/>
    <nd ref="471640727"/>
    <nd ref="471640728"/>
    <nd ref="471640729"/>
    <nd ref="471640730"/>
    <nd ref="471640731"/>
    <nd ref="471640732"/>
    <nd ref="471640733"/>
    <tag k="access" v="designated"/>
    <tag k="discovered_by" v="RambaZamba"/>
    <tag k="highway" v="track"/>
    <tag k="layer" v="0"/>
    <tag k="name" v="Aica di Sotto"/>
    <tag k="source" v="survey"/>
    <tag k="surface" v="gravel"/>
    <tag k="tracktype" v="grade2"/>
    <tag k="width" v="3"/>
  </way>
  <way id="39365925" version="2" timestamp="2009-08-24T20:11:14Z" uid="36809" user="pfoten_weg_!_" changeset="2249708">
    <nd ref="470105439"/>
    <nd ref="471640375"/>
    <nd ref="471640379"/>
    <nd ref="471640388"/>
    <nd ref="471640393"/>
    <nd ref="471640399"/>
    <nd ref="471640405"/>
    <nd ref="471640419"/>
    <nd ref="471640734"/>
    <nd ref="471640425"/>
    <nd ref="471640436"/>
    <nd ref="471640445"/>
    <nd ref="471640458"/>
    <nd ref="471640916"/>
    <nd ref="471640914"/>
    <nd ref="471640466"/>
    <nd ref="471640917"/>
    <nd ref="471640483"/>
    <nd ref="471640920"/>
    <nd ref="471640493"/>
    <nd ref="471640501"/>
    <nd ref="471640504"/>
    <nd ref="471640513"/>
    <nd ref="471640519"/>
    <nd ref="471640530"/>
    <nd ref="471640539"/>
    <nd ref="471640544"/>
    <nd ref="471640550"/>
    <nd ref="471640557"/>
    <nd ref="471640564"/>
    <nd ref="471640569"/>
    <nd ref="471640575"/>
    <nd ref="471640953"/>
    <nd ref="471640583"/>
    <nd ref="471640589"/>
    <nd ref="471640596"/>
    <nd ref="471640599"/>
    <nd ref="471640609"/>
    <nd ref="471640611"/>
    <nd ref="471640619"/>
    <nd ref="471640948"/>
    <nd ref="471640622"/>
    <nd ref="471640631"/>
    <nd ref="471640634"/>
    <nd ref="471640944"/>
    <nd ref="471640642"/>
    <nd ref="471640646"/>
    <nd ref="471640653"/>
    <nd ref="471640658"/>
    <nd ref="471640668"/>
    <nd ref="471640673"/>
    <nd ref="471640680"/>
    <nd ref="471640684"/>
    <nd ref="471640691"/>
    <nd ref="471640695"/>
    <nd ref="471640702"/>
    <nd ref="471640706"/>
    <nd ref="471640712"/>
    <nd ref="471640713"/>
    <nd ref="471640714"/>
    <nd ref="471640715"/>
    <nd ref="471640716"/>
    <nd ref="471640717"/>
    <nd ref="471640718"/>
    <nd ref="471640719"/>
    <nd ref="471640720"/>
    <nd ref="471640721"/>
    <nd ref="471640722"/>
    <nd ref="471640723"/>
    <nd ref="471640724"/>
    <nd ref="471640726"/>
    <nd ref="471640727"/>
    <nd ref="471640728"/>
    <nd ref="471640729"/>
    <nd ref="471640730"/>
    <nd ref="471640731"/>
    <nd ref="471640732"/>
    <nd ref="471640733"/>
    <tag k="access" v="designated"/>
    <tag k="discovered_by" v="RambaZamba"/>
    <tag k="highway" v="residential"/>
    <tag k="layer" v="0"/>
    <tag k="name" v="Aica di Sotto"/>
    <tag k="source" v="survey"/>
    <tag k="surface" v="gravel"/>
    <tag k="tracktype" v="grade2"/>
    <tag k="width" v="3"/>
  </way>
  <way id="39365925" version="3" timestamp="2009-08-28T01:05:00Z" uid="36809" user="pfoten_weg_!_" changeset="2284752">
    <nd ref="470105439"/>
    <nd ref="471640375"/>
    <nd ref="471640379"/>
    <nd ref="471640388"/>
    <nd ref="471640393"/>
    <nd ref="471640399"/>
    <nd ref="471640405"/>
    <nd ref="471640419"/>
    <nd ref="471640734"/>
    <nd ref="471640425"/>
    <nd ref="471640436"/>
    <nd ref="471640445"/>
    <nd ref="471640458"/>
    <nd ref="471640916"/>
    <nd ref="471640914"/>
    <nd ref="471640466"/>
    <nd ref="471640917"/>
    <nd ref="471640483"/>
    <nd ref="471640920"/>
    <nd ref="471640493"/>
    <nd ref="471640501"/>
    <nd ref="471640504"/>
    <nd ref="471640513"/>
    <nd ref="471640519"/>
    <nd ref="471640530"/>
    <nd ref="471640539"/>
    <nd ref="471640544"/>
    <nd ref="471640550"/>
    <nd ref="471640557"/>
    <nd ref="471640564"/>
    <nd ref="471640569"/>
    <nd ref="471640575"/>
    <nd ref="471640953"/>
    <nd ref="471640583"/>
    <nd ref="471640589"/>
    <nd ref="471640596"/>
    <nd ref="471640599"/>
    <nd ref="471640609"/>
    <nd ref="471640611"/>
    <nd ref="471640619"/>
    <nd ref="471640948"/>
    <nd ref="471640622"/>
    <nd ref="471640631"/>
    <nd ref="471640634"/>
    <nd ref="471640944"/>
    <nd ref="471640642"/>
    <nd ref="471640646"/>
    <nd ref="471640653"/>
    <nd ref="471640658"/>
    <nd ref="471640668"/>
    <nd ref="471640673"/>
    <nd ref="471640680"/>
    <nd ref="471640684"/>
    <nd ref="471640691"/>
    <nd ref="471640695"/>
    <nd ref="471640702"/>
    <nd ref="471640706"/>
    <nd ref="471640712"/>
    <nd ref="471640713"/>
    <nd ref="471640714"/>
    <nd ref="471640715"/>
    <nd ref="471640716"/>
    <nd ref="471640717"/>
    <nd ref="471640718"/>
    <nd ref="471640719"/>
    <nd ref="471640720"/>
    <nd ref="471640721"/>
    <nd ref="471640722"/>
    <nd ref="471640723"/>
    <nd ref="471640724"/>
    <nd ref="471640726"/>
    <nd ref="471640727"/>
    <nd ref="471640728"/>
    <nd ref="471640729"/>
    <nd ref="471640730"/>
    <nd ref="471640731"/>
    <nd ref="471640732"/>
    <nd ref="475470838"/>
    <nd ref="471640733"/>
    <tag k="access" v="designated"/>
    <tag k="discovered_by" v="RambaZamba"/>
    <tag k="highway" v="residential"/>
    <tag k="layer" v="0"/>
    <tag k="name" v="Aica di Sotto"/>
    <tag k="source" v="survey"/>
    <tag k="surface" v="gravel"/>
    <tag k="tracktype" v="grade2"/>
    <tag k="width" v="3"/>
  </way>
  <way id="39365925" version="4" timestamp="2009-08-29T01:52:52Z" uid="36809" user="pfoten_weg_!_" changeset="2296645">
    <nd ref="470105439"/>
    <nd ref="471640375"/>
    <nd ref="471640379"/>
    <nd ref="471640388"/>
    <nd ref="471640393"/>
    <nd ref="471640399"/>
    <nd ref="471640405"/>
    <nd ref="471640419"/>
    <nd ref="471640734"/>
    <nd ref="471640425"/>
    <nd ref="471640436"/>
    <nd ref="471640445"/>
    <nd ref="471640458"/>
    <nd ref="471640916"/>
    <nd ref="471640914"/>
    <nd ref="471640466"/>
    <nd ref="471640917"/>
    <nd ref="471640483"/>
    <nd ref="471640920"/>
    <nd ref="471640493"/>
    <nd ref="471640501"/>
    <nd ref="471640504"/>
    <nd ref="471640513"/>
    <nd ref="471640519"/>
    <nd ref="471640530"/>
    <nd ref="471640539"/>
    <nd ref="471640544"/>
    <nd ref="471640550"/>
    <nd ref="471640557"/>
    <nd ref="471640564"/>
    <nd ref="471640569"/>
    <nd ref="471640575"/>
    <nd ref="471640953"/>
    <tag k="access" v="designated"/>
    <tag k="discovered_by" v="RambaZamba"/>
    <tag k="highway" v="residential"/>
    <tag k="layer" v="0"/>
    <tag k="name" v="Aica di Sotto"/>
    <tag k="source" v="survey"/>
    <tag k="surface" v="gravel"/>
    <tag k="tracktype" v="grade2"/>
    <tag k="width" v="3"/>
  </way>
  <way id="39365925" version="5" timestamp="2009-08-29T23:44:29Z" uid="36809" user="pfoten_weg_!_" changeset="2307874">
    <nd ref="470105439"/>
    <nd ref="471640375"/>
    <nd ref="471640379"/>
    <nd ref="471640388"/>
    <nd ref="471640393"/>
    <nd ref="471640399"/>
    <nd ref="471640405"/>
    <nd ref="471640419"/>
    <nd ref="471640734"/>
    <nd ref="471640425"/>
    <nd ref="471640436"/>
    <nd ref="471640445"/>
    <nd ref="471640458"/>
    <nd ref="471640916"/>
    <nd ref="471640914"/>
    <nd ref="471640466"/>
    <nd ref="471640917"/>
    <nd ref="471640483"/>
    <nd ref="471640920"/>
    <nd ref="471640493"/>
    <nd ref="471640501"/>
    <nd ref="471640504"/>
    <nd ref="471640513"/>
    <nd ref="471640519"/>
    <nd ref="471640530"/>
    <nd ref="471640539"/>
    <nd ref="471640544"/>
    <nd ref="471640550"/>
    <nd ref="471640557"/>
    <nd ref="476754795"/>
    <nd ref="471640564"/>
    <nd ref="471640569"/>
    <nd ref="471640575"/>
    <nd ref="471640953"/>
    <tag k="access" v="designated"/>
    <tag k="discovered_by" v="RambaZamba"/>
    <tag k="highway" v="residential"/>
    <tag k="layer" v="0"/>
    <tag k="name" v="Aica di Sotto"/>
    <tag k="source" v="survey"/>
    <tag k="surface" v="gravel"/>
    <tag k="tracktype" v="grade2"/>
    <tag k="width" v="3"/>
  </way>
  <way id="39365925" version="7" timestamp="2009-08-30T09:56:05Z" uid="36809" user="pfoten_weg_!_" changeset="2311149">
    <nd ref="470105439"/>
    <nd ref="471640375"/>
    <nd ref="471640379"/>
    <nd ref="471640388"/>
    <nd ref="471640393"/>
    <nd ref="471640399"/>
    <nd ref="471640405"/>
    <nd ref="471640419"/>
    <nd ref="471640734"/>
    <nd ref="471640425"/>
    <nd ref="471640436"/>
    <nd ref="471640445"/>
    <nd ref="471640458"/>
    <nd ref="471640916"/>
    <nd ref="471640914"/>
    <nd ref="471640466"/>
    <nd ref="471640917"/>
    <nd ref="471640483"/>
    <nd ref="471640920"/>
    <nd ref="471640493"/>
    <nd ref="471640501"/>
    <nd ref="471640504"/>
    <nd ref="471640513"/>
    <nd ref="471640519"/>
    <nd ref="471640530"/>
    <nd ref="471640539"/>
    <nd ref="471640544"/>
    <nd ref="471640550"/>
    <nd ref="471640557"/>
    <nd ref="476754795"/>
    <nd ref="471640564"/>
    <nd ref="471640569"/>
    <nd ref="471640575"/>
    <nd ref="471640953"/>
    <tag k="access" v="designated"/>
    <tag k="discovered_by" v="RambaZamba"/>
    <tag k="highway" v="residential"/>
    <tag k="layer" v="0"/>
    <tag k="name" v="Aica di Sotto"/>
    <tag k="source" v="survey"/>
    <tag k="surface" v="gravel"/>
    <tag k="tracktype" v="grade2"/>
    <tag k="width" v="3"/>
  </way>
  <way id="39365925" version="9" timestamp="2009-08-30T10:22:32Z" uid="36809" user="pfoten_weg_!_" changeset="2311385">
    <nd ref="470105439"/>
    <nd ref="471640375"/>
    <nd ref="471640379"/>
    <nd ref="471640388"/>
    <nd ref="471640393"/>
    <nd ref="471640399"/>
    <nd ref="471640405"/>
    <nd ref="471640419"/>
    <nd ref="471640734"/>
    <nd ref="471640425"/>
    <nd ref="471640436"/>
    <nd ref="471640445"/>
    <nd ref="471640458"/>
    <nd ref="471640916"/>
    <nd ref="471640914"/>
    <nd ref="471640466"/>
    <nd ref="471640917"/>
    <nd ref="471640483"/>
    <nd ref="471640920"/>
    <nd ref="471640493"/>
    <nd ref="471640501"/>
    <nd ref="471640504"/>
    <nd ref="471640513"/>
    <nd ref="471640519"/>
    <nd ref="471640530"/>
    <nd ref="471640539"/>
    <nd ref="471640544"/>
    <nd ref="471640550"/>
    <nd ref="471640557"/>
    <nd ref="476754795"/>
    <nd ref="471640564"/>
    <nd ref="471640569"/>
    <nd ref="471640575"/>
    <nd ref="471640953"/>
    <tag k="access" v="designated"/>
    <tag k="highway" v="residential"/>
    <tag k="layer" v="0"/>
    <tag k="name" v="Aica di Sotto"/>
    <tag k="source" v="survey by RambaZamba"/>
    <tag k="surface" v="gravel"/>
    <tag k="tracktype" v="grade2"/>
    <tag k="width" v="3"/>
  </way>
  <way id="39365925" version="11" timestamp="2009-08-30T10:42:19Z" uid="36809" user="pfoten_weg_!_" changeset="2311615">
    <nd ref="470105439"/>
    <nd ref="471640375"/>
    <nd ref="471640379"/>
    <nd ref="471640388"/>
    <nd ref="471640393"/>
    <nd ref="471640399"/>
    <nd ref="471640405"/>
    <nd ref="471640419"/>
    <nd ref="471640734"/>
    <nd ref="471640425"/>
    <nd ref="471640436"/>
    <nd ref="471640445"/>
    <nd ref="471640458"/>
    <nd ref="471640916"/>
    <nd ref="471640914"/>
    <nd ref="471640466"/>
    <nd ref="471640917"/>
    <nd ref="471640483"/>
    <nd ref="471640920"/>
    <nd ref="471640493"/>
    <nd ref="471640501"/>
    <nd ref="471640504"/>
    <nd ref="471640513"/>
    <nd ref="471640519"/>
    <nd ref="471640530"/>
    <nd ref="471640539"/>
    <nd ref="471640544"/>
    <nd ref="471640550"/>
    <nd ref="471640557"/>
    <nd ref="476754795"/>
    <nd ref="471640564"/>
    <nd ref="471640569"/>
    <nd ref="471640575"/>
    <nd ref="471640953"/>
    <tag k="access" v="designated"/>
    <tag k="highway" v="residential"/>
    <tag k="layer" v="0"/>
    <tag k="name" v="Aica di Sotto"/>
    <tag k="source" v="survey"/>
    <tag k="surface" v="gravel"/>
    <tag k="tracktype" v="grade2"/>
    <tag k="width" v="3"/>
  </way>
  <way id="39365925" version="12" timestamp="2009-09-23T14:13:31Z" uid="36809" user="pfoten_weg_!_" changeset="2595888"/>
  <way id="39365926" version="1" timestamp="2009-08-20T21:08:03Z" uid="36809" user="pfoten_weg_!_" changeset="2217294">
    <nd ref="471640734"/>
    <nd ref="471640735"/>
    <nd ref="471640736"/>
    <nd ref="471640737"/>
    <nd ref="471640738"/>
    <nd ref="471640739"/>
    <nd ref="471640740"/>
    <tag k="access" v="designated"/>
    <tag k="discovered_by" v="RambaZamba"/>
    <tag k="highway" v="track"/>
    <tag k="layer" v="0"/>
    <tag k="source" v="survey"/>
    <tag k="surface" v="gravel"/>
    <tag k="tracktype" v="grade3"/>
    <tag k="width" v="2.5"/>
  </way>
  <way id="39365926" version="3" timestamp="2009-08-30T10:02:46Z" uid="36809" user="pfoten_weg_!_" changeset="2311149">
    <nd ref="471640734"/>
    <nd ref="471640735"/>
    <nd ref="471640736"/>
    <nd ref="471640737"/>
    <nd ref="471640738"/>
    <nd ref="471640739"/>
    <nd ref="471640740"/>
    <tag k="access" v="designated"/>
    <tag k="discovered_by" v="RambaZamba"/>
    <tag k="highway" v="track"/>
    <tag k="layer" v="0"/>
    <tag k="source" v="survey"/>
    <tag k="surface" v="gravel"/>
    <tag k="tracktype" v="grade3"/>
    <tag k="width" v="2.5"/>
  </way>
  <way id="39365926" version="5" timestamp="2009-08-30T10:23:20Z" uid="36809" user="pfoten_weg_!_" changeset="2311385">
    <nd ref="471640734"/>
    <nd ref="471640735"/>
    <nd ref="471640736"/>
    <nd ref="471640737"/>
    <nd ref="471640738"/>
    <nd ref="471640739"/>
    <nd ref="471640740"/>
    <tag k="access" v="designated"/>
    <tag k="highway" v="track"/>
    <tag k="layer" v="0"/>
    <tag k="source" v="survey by RambaZamba"/>
    <tag k="surface" v="gravel"/>
    <tag k="tracktype" v="grade3"/>
    <tag k="width" v="2.5"/>
  </way>
  <way id="39365926" version="7" timestamp="2009-08-30T10:39:03Z" uid="36809" user="pfoten_weg_!_" changeset="2311615">
    <nd ref="471640734"/>
    <nd ref="471640735"/>
    <nd ref="471640736"/>
    <nd ref="471640737"/>
    <nd ref="471640738"/>
    <nd ref="471640739"/>
    <nd ref="471640740"/>
    <tag k="access" v="designated"/>
    <tag k="highway" v="track"/>
    <tag k="layer" v="0"/>
    <tag k="source" v="survey"/>
    <tag k="surface" v="gravel"/>
    <tag k="tracktype" v="grade3"/>
    <tag k="width" v="2.5"/>
  </way>
  <way id="39365926" version="8" timestamp="2009-09-30T11:01:47Z" uid="36809" user="pfoten_weg_!_" changeset="2686844"/>
  <way id="39365927" version="1" timestamp="2009-08-20T21:08:04Z" uid="36809" user="pfoten_weg_!_" changeset="2217294">
    <nd ref="471640916"/>
    <nd ref="471640930"/>
    <nd ref="471640741"/>
    <nd ref="471640742"/>
    <nd ref="471640743"/>
    <nd ref="471640744"/>
    <nd ref="471640935"/>
    <nd ref="471640745"/>
    <nd ref="471640748"/>
    <nd ref="471640749"/>
    <nd ref="471640939"/>
    <nd ref="471640750"/>
    <nd ref="471640751"/>
    <nd ref="471640752"/>
    <nd ref="471640753"/>
    <nd ref="471640754"/>
    <nd ref="471640755"/>
    <nd ref="471640756"/>
    <nd ref="471640757"/>
    <nd ref="471640758"/>
    <nd ref="471640759"/>
    <nd ref="471640760"/>
    <nd ref="471640761"/>
    <nd ref="471640762"/>
    <nd ref="471640763"/>
    <nd ref="471640766"/>
    <nd ref="471640767"/>
    <nd ref="471640768"/>
    <nd ref="471640769"/>
    <nd ref="471640770"/>
    <nd ref="471640771"/>
    <nd ref="471640772"/>
    <nd ref="471640773"/>
    <nd ref="471640774"/>
    <nd ref="471640775"/>
    <nd ref="471640776"/>
    <nd ref="471640777"/>
    <nd ref="471640778"/>
    <nd ref="471640779"/>
    <nd ref="471640780"/>
    <nd ref="471640781"/>
    <nd ref="471640782"/>
    <nd ref="471640783"/>
    <nd ref="471640784"/>
    <nd ref="471640785"/>
    <nd ref="471640786"/>
    <nd ref="471640787"/>
    <nd ref="471640788"/>
    <nd ref="471640789"/>
    <nd ref="471640790"/>
    <nd ref="471640791"/>
    <nd ref="471640861"/>
    <tag k="access" v="designated"/>
    <tag k="discovered_by" v="RambaZamba"/>
    <tag k="highway" v="track"/>
    <tag k="layer" v="0"/>
    <tag k="name" v="Aica di Sotto"/>
    <tag k="source" v="survey"/>
    <tag k="surface" v="gravel"/>
    <tag k="tracktype" v="grade3"/>
    <tag k="width" v="2.5"/>
  </way>
  <way id="39365927" version="3" timestamp="2009-08-30T09:58:32Z" uid="36809" user="pfoten_weg_!_" changeset="2311149">
    <nd ref="471640916"/>
    <nd ref="471640930"/>
    <nd ref="471640741"/>
    <nd ref="471640742"/>
    <nd ref="471640743"/>
    <nd ref="471640744"/>
    <nd ref="471640935"/>
    <nd ref="471640745"/>
    <nd ref="471640748"/>
    <nd ref="471640749"/>
    <nd ref="471640939"/>
    <nd ref="471640750"/>
    <nd ref="471640751"/>
    <nd ref="471640752"/>
    <nd ref="471640753"/>
    <nd ref="471640754"/>
    <nd ref="471640755"/>
    <nd ref="471640756"/>
    <nd ref="471640757"/>
    <nd ref="471640758"/>
    <nd ref="471640759"/>
    <nd ref="471640760"/>
    <nd ref="471640761"/>
    <nd ref="471640762"/>
    <nd ref="471640763"/>
    <nd ref="471640766"/>
    <nd ref="471640767"/>
    <nd ref="471640768"/>
    <nd ref="471640769"/>
    <nd ref="471640770"/>
    <nd ref="471640771"/>
    <nd ref="471640772"/>
    <nd ref="471640773"/>
    <nd ref="471640774"/>
    <nd ref="471640775"/>
    <nd ref="471640776"/>
    <nd ref="471640777"/>
    <nd ref="471640778"/>
    <nd ref="471640779"/>
    <nd ref="471640780"/>
    <nd ref="471640781"/>
    <nd ref="471640782"/>
    <nd ref="471640783"/>
    <nd ref="471640784"/>
    <nd ref="471640785"/>
    <nd ref="471640786"/>
    <nd ref="471640787"/>
    <nd ref="471640788"/>
    <nd ref="471640789"/>
    <nd ref="471640790"/>
    <nd ref="471640791"/>
    <nd ref="471640861"/>
    <tag k="access" v="designated"/>
    <tag k="discovered_by" v="RambaZamba"/>
    <tag k="highway" v="track"/>
    <tag k="layer" v="0"/>
    <tag k="name" v="Aica di Sotto"/>
    <tag k="source" v="survey"/>
    <tag k="surface" v="gravel"/>
    <tag k="tracktype" v="grade3"/>
    <tag k="width" v="2.5"/>
  </way>
  <way id="39365927" version="5" timestamp="2009-08-30T10:24:19Z" uid="36809" user="pfoten_weg_!_" changeset="2311385">
    <nd ref="471640916"/>
    <nd ref="471640930"/>
    <nd ref="471640741"/>
    <nd ref="471640742"/>
    <nd ref="471640743"/>
    <nd ref="471640744"/>
    <nd ref="471640935"/>
    <nd ref="471640745"/>
    <nd ref="471640748"/>
    <nd ref="471640749"/>
    <nd ref="471640939"/>
    <nd ref="471640750"/>
    <nd ref="471640751"/>
    <nd ref="471640752"/>
    <nd ref="471640753"/>
    <nd ref="471640754"/>
    <nd ref="471640755"/>
    <nd ref="471640756"/>
    <nd ref="471640757"/>
    <nd ref="471640758"/>
    <nd ref="471640759"/>
    <nd ref="471640760"/>
    <nd ref="471640761"/>
    <nd ref="471640762"/>
    <nd ref="471640763"/>
    <nd ref="471640766"/>
    <nd ref="471640767"/>
    <nd ref="471640768"/>
    <nd ref="471640769"/>
    <nd ref="471640770"/>
    <nd ref="471640771"/>
    <nd ref="471640772"/>
    <nd ref="471640773"/>
    <nd ref="471640774"/>
    <nd ref="471640775"/>
    <nd ref="471640776"/>
    <nd ref="471640777"/>
    <nd ref="471640778"/>
    <nd ref="471640779"/>
    <nd ref="471640780"/>
    <nd ref="471640781"/>
    <nd ref="471640782"/>
    <nd ref="471640783"/>
    <nd ref="471640784"/>
    <nd ref="471640785"/>
    <nd ref="471640786"/>
    <nd ref="471640787"/>
    <nd ref="471640788"/>
    <nd ref="471640789"/>
    <nd ref="471640790"/>
    <nd ref="471640791"/>
    <nd ref="471640861"/>
    <tag k="access" v="designated"/>
    <tag k="highway" v="track"/>
    <tag k="layer" v="0"/>
    <tag k="name" v="Aica di Sotto"/>
    <tag k="source" v="survey by RambaZamba"/>
    <tag k="surface" v="gravel"/>
    <tag k="tracktype" v="grade3"/>
    <tag k="width" v="2.5"/>
  </way>
  <way id="39365927" version="7" timestamp="2009-08-30T10:44:31Z" uid="36809" user="pfoten_weg_!_" changeset="2311615">
    <nd ref="471640916"/>
    <nd ref="471640930"/>
    <nd ref="471640741"/>
    <nd ref="471640742"/>
    <nd ref="471640743"/>
    <nd ref="471640744"/>
    <nd ref="471640935"/>
    <nd ref="471640745"/>
    <nd ref="471640748"/>
    <nd ref="471640749"/>
    <nd ref="471640939"/>
    <nd ref="471640750"/>
    <nd ref="471640751"/>
    <nd ref="471640752"/>
    <nd ref="471640753"/>
    <nd ref="471640754"/>
    <nd ref="471640755"/>
    <nd ref="471640756"/>
    <nd ref="471640757"/>
    <nd ref="471640758"/>
    <nd ref="471640759"/>
    <nd ref="471640760"/>
    <nd ref="471640761"/>
    <nd ref="471640762"/>
    <nd ref="471640763"/>
    <nd ref="471640766"/>
    <nd ref="471640767"/>
    <nd ref="471640768"/>
    <nd ref="471640769"/>
    <nd ref="471640770"/>
    <nd ref="471640771"/>
    <nd ref="471640772"/>
    <nd ref="471640773"/>
    <nd ref="471640774"/>
    <nd ref="471640775"/>
    <nd ref="471640776"/>
    <nd ref="471640777"/>
    <nd ref="471640778"/>
    <nd ref="471640779"/>
    <nd ref="471640780"/>
    <nd ref="471640781"/>
    <nd ref="471640782"/>
    <nd ref="471640783"/>
    <nd ref="471640784"/>
    <nd ref="471640785"/>
    <nd ref="471640786"/>
    <nd ref="471640787"/>
    <nd ref="471640788"/>
    <nd ref="471640789"/>
    <nd ref="471640790"/>
    <nd ref="471640791"/>
    <nd ref="471640861"/>
    <tag k="access" v="designated"/>
    <tag k="highway" v="track"/>
    <tag k="layer" v="0"/>
    <tag k="name" v="Aica di Sotto"/>
    <tag k="source" v="survey"/>
    <tag k="surface" v="gravel"/>
    <tag k="tracktype" v="grade3"/>
    <tag k="width" v="2.5"/>
  </way>
  <way id="39365927" version="8" timestamp="2009-09-22T18:05:47Z" uid="36809" user="pfoten_weg_!_" changeset="2574622">
    <nd ref="471640916"/>
    <nd ref="471640930"/>
    <nd ref="471640741"/>
    <nd ref="471640742"/>
    <nd ref="471640743"/>
    <nd ref="471640744"/>
    <nd ref="471640935"/>
    <nd ref="471640745"/>
    <nd ref="471640748"/>
    <nd ref="471640749"/>
    <nd ref="471640939"/>
    <nd ref="471640750"/>
    <nd ref="471640751"/>
    <nd ref="471640752"/>
    <nd ref="471640753"/>
    <nd ref="471640754"/>
    <nd ref="505566302"/>
    <tag k="access" v="agricultural;designated;designated"/>
    <tag k="discovered_by" v="RambaZamba"/>
    <tag k="highway" v="track"/>
    <tag k="layer" v="0"/>
    <tag k="name" v="Aica di Sotto"/>
    <tag k="source" v="survey"/>
    <tag k="surface" v="asphalt"/>
    <tag k="tracktype" v="grade3;grade3;grade4"/>
    <tag k="width" v="2.5;2;2.5"/>
  </way>
  <way id="39365927" version="10" timestamp="2009-09-30T11:01:47Z" uid="36809" user="pfoten_weg_!_" changeset="2686844"/>
  <way id="39365928" version="1" timestamp="2009-08-20T21:08:05Z" uid="36809" user="pfoten_weg_!_" changeset="2217294">
    <nd ref="471640771"/>
    <nd ref="471640792"/>
    <nd ref="471640793"/>
    <nd ref="471640794"/>
    <nd ref="471640795"/>
    <nd ref="471640796"/>
    <nd ref="471640797"/>
    <nd ref="471640798"/>
    <nd ref="471640801"/>
    <nd ref="471640806"/>
    <tag k="access" v="designated"/>
    <tag k="discovered_by" v="RambaZamba"/>
    <tag k="highway" v="track"/>
    <tag k="layer" v="0"/>
    <tag k="source" v="survey"/>
    <tag k="surface" v="gravel"/>
    <tag k="tracktype" v="grade3"/>
    <tag k="width" v="2.5"/>
  </way>
  <way id="39365928" version="3" timestamp="2009-08-30T10:04:22Z" uid="36809" user="pfoten_weg_!_" changeset="2311149">
    <nd ref="471640771"/>
    <nd ref="471640792"/>
    <nd ref="471640793"/>
    <nd ref="471640794"/>
    <nd ref="471640795"/>
    <nd ref="471640796"/>
    <nd ref="471640797"/>
    <nd ref="471640798"/>
    <nd ref="471640801"/>
    <nd ref="471640806"/>
    <tag k="access" v="designated"/>
    <tag k="discovered_by" v="RambaZamba"/>
    <tag k="highway" v="track"/>
    <tag k="layer" v="0"/>
    <tag k="source" v="survey"/>
    <tag k="surface" v="gravel"/>
    <tag k="tracktype" v="grade3"/>
    <tag k="width" v="2.5"/>
  </way>
  <way id="39365928" version="5" timestamp="2009-08-30T10:24:08Z" uid="36809" user="pfoten_weg_!_" changeset="2311385">
    <nd ref="471640771"/>
    <nd ref="471640792"/>
    <nd ref="471640793"/>
    <nd ref="471640794"/>
    <nd ref="471640795"/>
    <nd ref="471640796"/>
    <nd ref="471640797"/>
    <nd ref="471640798"/>
    <nd ref="471640801"/>
    <nd ref="471640806"/>
    <tag k="access" v="designated"/>
    <tag k="highway" v="track"/>
    <tag k="layer" v="0"/>
    <tag k="source" v="survey by RambaZamba"/>
    <tag k="surface" v="gravel"/>
    <tag k="tracktype" v="grade3"/>
    <tag k="width" v="2.5"/>
  </way>
  <way id="39365928" version="7" timestamp="2009-08-30T10:40:54Z" uid="36809" user="pfoten_weg_!_" changeset="2311615">
    <nd ref="471640771"/>
    <nd ref="471640792"/>
    <nd ref="471640793"/>
    <nd ref="471640794"/>
    <nd ref="471640795"/>
    <nd ref="471640796"/>
    <nd ref="471640797"/>
    <nd ref="471640798"/>
    <nd ref="471640801"/>
    <nd ref="471640806"/>
    <tag k="access" v="designated"/>
    <tag k="highway" v="track"/>
    <tag k="layer" v="0"/>
    <tag k="source" v="survey"/>
    <tag k="surface" v="gravel"/>
    <tag k="tracktype" v="grade3"/>
    <tag k="width" v="2.5"/>
  </way>
  <way id="39365928" version="8" timestamp="2009-09-30T10:59:25Z" uid="36809" user="pfoten_weg_!_" changeset="2686844">
    <nd ref="471640771"/>
    <nd ref="471640792"/>
    <nd ref="471640793"/>
    <nd ref="471640794"/>
    <nd ref="471640795"/>
    <nd ref="471640796"/>
    <nd ref="471640797"/>
    <nd ref="471640798"/>
    <nd ref="471640801"/>
    <nd ref="471640806"/>
    <tag k="access" v="designated"/>
    <tag k="highway" v="track"/>
    <tag k="layer" v="0"/>
    <tag k="surface" v="gravel"/>
    <tag k="tracktype" v="grade3"/>
    <tag k="width" v="2.5"/>
  </way>
  <way id="39365928" version="9" timestamp="2009-09-30T11:07:19Z" uid="36809" user="pfoten_weg_!_" changeset="2686844">
    <nd ref="471640771"/>
    <nd ref="471640792"/>
    <nd ref="471640793"/>
    <nd ref="471640794"/>
    <nd ref="471640795"/>
    <nd ref="471640796"/>
    <nd ref="471640797"/>
    <nd ref="471640798"/>
    <nd ref="471640801"/>
    <nd ref="471640806"/>
    <tag k="access" v="designated"/>
    <tag k="highway" v="track"/>
    <tag k="layer" v="0"/>
    <tag k="surface" v="gravel"/>
    <tag k="tracktype" v="grade3"/>
    <tag k="width" v="2.5"/>
  </way>
  <way id="39365930" version="1" timestamp="2009-08-20T21:08:06Z" uid="36809" user="pfoten_weg_!_" changeset="2217294">
    <nd ref="471640758"/>
    <nd ref="471640965"/>
    <nd ref="471640811"/>
    <nd ref="471640959"/>
    <nd ref="471640819"/>
    <nd ref="471640964"/>
    <nd ref="471640823"/>
    <nd ref="471640829"/>
    <nd ref="471640833"/>
    <tag k="access" v="designated"/>
    <tag k="discovered_by" v="RambaZamba"/>
    <tag k="highway" v="track"/>
    <tag k="layer" v="0"/>
    <tag k="source" v="survey"/>
    <tag k="surface" v="gravel"/>
    <tag k="tracktype" v="grade3"/>
    <tag k="width" v="2.5"/>
  </way>
  <way id="39365930" version="2" timestamp="2009-08-20T22:48:18Z" uid="36809" user="pfoten_weg_!_" changeset="2217860">
    <nd ref="471640758"/>
    <nd ref="471640965"/>
    <nd ref="471640811"/>
    <tag k="access" v="designated"/>
    <tag k="discovered_by" v="RambaZamba"/>
    <tag k="highway" v="track"/>
    <tag k="layer" v="0"/>
    <tag k="source" v="survey"/>
    <tag k="surface" v="gravel"/>
    <tag k="tracktype" v="grade3"/>
    <tag k="width" v="2.5"/>
  </way>
  <way id="39365930" version="4" timestamp="2009-08-30T09:56:33Z" uid="36809" user="pfoten_weg_!_" changeset="2311149">
    <nd ref="471640758"/>
    <nd ref="471640965"/>
    <nd ref="471640811"/>
    <tag k="access" v="designated"/>
    <tag k="discovered_by" v="RambaZamba"/>
    <tag k="highway" v="track"/>
    <tag k="layer" v="0"/>
    <tag k="source" v="survey"/>
    <tag k="surface" v="gravel"/>
    <tag k="tracktype" v="grade3"/>
    <tag k="width" v="2.5"/>
  </way>
  <way id="39365930" version="6" timestamp="2009-08-30T10:27:36Z" uid="36809" user="pfoten_weg_!_" changeset="2311385">
    <nd ref="471640758"/>
    <nd ref="471640965"/>
    <nd ref="471640811"/>
    <tag k="access" v="designated"/>
    <tag k="highway" v="track"/>
    <tag k="layer" v="0"/>
    <tag k="source" v="survey by RambaZamba"/>
    <tag k="surface" v="gravel"/>
    <tag k="tracktype" v="grade3"/>
    <tag k="width" v="2.5"/>
  </way>
  <way id="39365930" version="8" timestamp="2009-09-11T14:20:38Z" uid="36809" user="pfoten_weg_!_" changeset="2447267"/>
  <way id="39365931" version="1" timestamp="2009-08-20T21:08:06Z" uid="36809" user="pfoten_weg_!_" changeset="2217294">
    <nd ref="471640646"/>
    <nd ref="471640886"/>
    <nd ref="471640836"/>
    <nd ref="471640843"/>
    <nd ref="471640849"/>
    <nd ref="471640853"/>
    <nd ref="471640854"/>
    <nd ref="471640855"/>
    <nd ref="471640856"/>
    <nd ref="471640857"/>
    <nd ref="471640861"/>
    <nd ref="471640865"/>
    <nd ref="471640871"/>
    <nd ref="471640876"/>
    <nd ref="471640880"/>
    <tag k="access" v="designated"/>
    <tag k="discovered_by" v="RambaZamba"/>
    <tag k="highway" v="track"/>
    <tag k="layer" v="0"/>
    <tag k="name" v="Aica di Sotto"/>
    <tag k="source" v="survey"/>
    <tag k="surface" v="gravel"/>
    <tag k="tracktype" v="grade2"/>
    <tag k="width" v="3"/>
  </way>
  <way id="39365931" version="2" timestamp="2009-08-20T22:48:17Z" uid="36809" user="pfoten_weg_!_" changeset="2217860">
    <nd ref="471640646"/>
    <nd ref="471640886"/>
    <nd ref="471640836"/>
    <nd ref="471640843"/>
    <nd ref="471640849"/>
    <nd ref="471640853"/>
    <nd ref="471640854"/>
    <nd ref="471640855"/>
    <nd ref="471640856"/>
    <nd ref="471640857"/>
    <nd ref="471640861"/>
    <nd ref="471640865"/>
    <nd ref="471640871"/>
    <nd ref="471715978"/>
    <tag k="access" v="designated"/>
    <tag k="discovered_by" v="RambaZamba"/>
    <tag k="highway" v="track"/>
    <tag k="layer" v="0"/>
    <tag k="name" v="Aica di Sotto"/>
    <tag k="source" v="survey"/>
    <tag k="surface" v="gravel"/>
    <tag k="tracktype" v="grade2"/>
    <tag k="width" v="3"/>
  </way>
  <way id="39365931" version="4" timestamp="2009-08-30T09:58:55Z" uid="36809" user="pfoten_weg_!_" changeset="2311149">
    <nd ref="471640646"/>
    <nd ref="471640886"/>
    <nd ref="471640836"/>
    <nd ref="471640843"/>
    <nd ref="471640849"/>
    <nd ref="471640853"/>
    <nd ref="471640854"/>
    <nd ref="471640855"/>
    <nd ref="471640856"/>
    <nd ref="471640857"/>
    <nd ref="471640861"/>
    <nd ref="471640865"/>
    <nd ref="471640871"/>
    <nd ref="471715978"/>
    <tag k="access" v="designated"/>
    <tag k="discovered_by" v="RambaZamba"/>
    <tag k="highway" v="track"/>
    <tag k="layer" v="0"/>
    <tag k="name" v="Aica di Sotto"/>
    <tag k="source" v="survey"/>
    <tag k="surface" v="gravel"/>
    <tag k="tracktype" v="grade2"/>
    <tag k="width" v="3"/>
  </way>
  <way id="39365931" version="6" timestamp="2009-08-30T10:24:53Z" uid="36809" user="pfoten_weg_!_" changeset="2311385">
    <nd ref="471640646"/>
    <nd ref="471640886"/>
    <nd ref="471640836"/>
    <nd ref="471640843"/>
    <nd ref="471640849"/>
    <nd ref="471640853"/>
    <nd ref="471640854"/>
    <nd ref="471640855"/>
    <nd ref="471640856"/>
    <nd ref="471640857"/>
    <nd ref="471640861"/>
    <nd ref="471640865"/>
    <nd ref="471640871"/>
    <nd ref="471715978"/>
    <tag k="access" v="designated"/>
    <tag k="highway" v="track"/>
    <tag k="layer" v="0"/>
    <tag k="name" v="Aica di Sotto"/>
    <tag k="source" v="survey by RambaZamba"/>
    <tag k="surface" v="gravel"/>
    <tag k="tracktype" v="grade2"/>
    <tag k="width" v="3"/>
  </way>
  <way id="39365931" version="8" timestamp="2009-09-11T14:20:38Z" uid="36809" user="pfoten_weg_!_" changeset="2447267"/>
  <way id="39365933" version="1" timestamp="2009-08-20T21:08:07Z" uid="36809" user="pfoten_weg_!_" changeset="2217294">
    <nd ref="471640886"/>
    <nd ref="471640889"/>
    <nd ref="471640895"/>
    <nd ref="471640897"/>
    <nd ref="471640903"/>
    <tag k="access" v="designated"/>
    <tag k="discovered_by" v="RambaZamba"/>
    <tag k="highway" v="track"/>
    <tag k="layer" v="0"/>
    <tag k="source" v="survey"/>
    <tag k="surface" v="gravel"/>
    <tag k="tracktype" v="grade3"/>
    <tag k="width" v="2.5"/>
  </way>
  <way id="39365933" version="3" timestamp="2009-08-30T10:03:01Z" uid="36809" user="pfoten_weg_!_" changeset="2311149">
    <nd ref="471640886"/>
    <nd ref="471640889"/>
    <nd ref="471640895"/>
    <nd ref="471640897"/>
    <nd ref="471640903"/>
    <tag k="access" v="designated"/>
    <tag k="discovered_by" v="RambaZamba"/>
    <tag k="highway" v="track"/>
    <tag k="layer" v="0"/>
    <tag k="source" v="survey"/>
    <tag k="surface" v="gravel"/>
    <tag k="tracktype" v="grade3"/>
    <tag k="width" v="2.5"/>
  </way>
  <way id="39365933" version="5" timestamp="2009-08-30T10:20:14Z" uid="36809" user="pfoten_weg_!_" changeset="2311385">
    <nd ref="471640886"/>
    <nd ref="471640889"/>
    <nd ref="471640895"/>
    <nd ref="471640897"/>
    <nd ref="471640903"/>
    <tag k="access" v="designated"/>
    <tag k="highway" v="track"/>
    <tag k="layer" v="0"/>
    <tag k="source" v="survey by RambaZamba"/>
    <tag k="surface" v="gravel"/>
    <tag k="tracktype" v="grade3"/>
    <tag k="width" v="2.5"/>
  </way>
  <way id="39365933" version="7" timestamp="2009-08-30T10:42:24Z" uid="36809" user="pfoten_weg_!_" changeset="2311615">
    <nd ref="471640886"/>
    <nd ref="471640889"/>
    <nd ref="471640895"/>
    <nd ref="471640897"/>
    <nd ref="471640903"/>
    <tag k="access" v="designated"/>
    <tag k="highway" v="track"/>
    <tag k="layer" v="0"/>
    <tag k="source" v="survey"/>
    <tag k="surface" v="gravel"/>
    <tag k="tracktype" v="grade3"/>
    <tag k="width" v="2.5"/>
  </way>
  <way id="39365933" version="8" timestamp="2009-09-30T11:01:46Z" uid="36809" user="pfoten_weg_!_" changeset="2686844"/>
  <way id="39365934" version="1" timestamp="2009-08-20T21:08:08Z" uid="36809" user="pfoten_weg_!_" changeset="2217294">
    <nd ref="470159007"/>
    <nd ref="470159008"/>
    <nd ref="470159009"/>
    <nd ref="470159010"/>
    <nd ref="470159003"/>
    <nd ref="470159004"/>
    <tag k="access" v="designated"/>
    <tag k="discovered_by" v="RambaZamba"/>
    <tag k="highway" v="track"/>
    <tag k="layer" v="0"/>
    <tag k="name" v="Aica di Sotto"/>
    <tag k="source" v="survey"/>
    <tag k="surface" v="gravel"/>
    <tag k="tracktype" v="grade2"/>
    <tag k="width" v="3"/>
  </way>
  <way id="39365934" version="2" timestamp="2009-08-20T22:48:19Z" uid="36809" user="pfoten_weg_!_" changeset="2217860"/>
</osm>
