<?xml version='1.0' encoding='UTF-8'?>
<osm version="0.6" generator="libosmium/2.20.0">
  <way id="39420154" version="5" timestamp="2009-12-12T15:42:32Z" uid="4467" user="Rosscoe" changeset="3356579">
    <nd ref="250015008"/>
    <nd ref="587742962"/>
    <nd ref="247297388"/>
    <nd ref="250014458"/>
    <nd ref="250012682"/>
    <tag k="highway" v="primary"/>
    <tag k="name" v="Douglas Parade"/>
    <tag k="oneway" v="yes"/>
    <tag k="ref" v="35;T2"/>
    <tag k="source" v="nearmap"/>
  </way>
  <way id="39420154" version="6" timestamp="2010-08-29T14:23:37Z" uid="4467" user="Rosscoe" changeset="5626278">
    <nd ref="250015008"/>
    <nd ref="587742963"/>
    <nd ref="587742962"/>
    <nd ref="247297388"/>
    <nd ref="250014458"/>
    <nd ref="250012682"/>
    <tag k="highway" v="primary"/>
    <tag k="name" v="Douglas Parade"/>
    <tag k="oneway" v="yes"/>
    <tag k="ref" v="35;T2"/>
    <tag k="source" v="nearmap"/>
  </way>
  <way id="39420183" version="4" timestamp="2009-12-12T15:42:31Z" uid="4467" user="Rosscoe" changeset="3356579">
    <nd ref="250014667"/>
    <nd ref="587742952"/>
    <nd ref="587742954"/>
    <nd ref="244080838"/>
    <tag k="highway" v="primary"/>
    <tag k="name" v="Douglas Parade"/>
    <tag k="oneway" v="yes"/>
    <tag k="ref" v="35/T2/T11"/>
    <tag k="source" v="nearmap"/>
  </way>
  <way id="39420184" version="4" timestamp="2009-12-12T15:42:31Z" uid="4467" user="Rosscoe" changeset="3356579">
    <nd ref="250015009"/>
    <nd ref="250015141"/>
    <nd ref="250015008"/>
    <tag k="highway" v="tertiary"/>
    <tag k="name" v="Simcock Avenue"/>
    <tag k="oneway" v="yes"/>
    <tag k="ref" v="T11"/>
    <tag k="source" v="nearmap"/>
  </way>
  <way id="39420184" version="5" timestamp="2010-08-29T14:23:35Z" uid="4467" user="Rosscoe" changeset="5626278">
    <nd ref="250015009"/>
    <nd ref="250015141"/>
    <nd ref="250015008"/>
    <nd ref="587742966"/>
    <nd ref="250014667"/>
    <tag k="highway" v="tertiary"/>
    <tag k="name" v="Simcock Avenue"/>
    <tag k="oneway" v="yes"/>
    <tag k="ref" v="T11"/>
    <tag k="source" v="nearmap"/>
  </way>
  <way id="39420224" version="3" timestamp="2009-12-12T15:42:34Z" uid="4467" user="Rosscoe" changeset="3356579"/>
  <way id="39420252" version="2" timestamp="2011-04-23T03:15:14Z" uid="4467" user="Rosscoe" changeset="7940173">
    <nd ref="1256291053"/>
    <nd ref="472236187"/>
    <nd ref="472236188"/>
    <tag k="highway" v="service"/>
    <tag k="name" v="Hyam Place"/>
    <tag k="source" v="survey"/>
    <tag k="source:name" v="photo"/>
  </way>
  <way id="39420253" version="2" timestamp="2011-04-23T03:15:09Z" uid="4467" user="Rosscoe" changeset="7940173">
    <nd ref="1256291036"/>
    <nd ref="472236189"/>
    <nd ref="472236190"/>
    <nd ref="472236191"/>
    <tag k="highway" v="service"/>
    <tag k="name" v="Chummie Place"/>
    <tag k="source" v="survey"/>
    <tag k="source:name" v="photo"/>
  </way>
  <way id="39420257" version="10" timestamp="2009-12-12T15:42:26Z" uid="4467" user="Rosscoe" changeset="3356579">
    <nd ref="244080838"/>
    <nd ref="244080839"/>
    <nd ref="571834647"/>
    <nd ref="244080840"/>
    <nd ref="587742951"/>
    <nd ref="244080841"/>
    <nd ref="571834242"/>
    <nd ref="250016888"/>
    <nd ref="571834146"/>
    <nd ref="244080843"/>
    <nd ref="571834138"/>
    <nd ref="244080844"/>
    <nd ref="571834096"/>
    <nd ref="244080845"/>
    <nd ref="250019312"/>
    <nd ref="244080846"/>
    <nd ref="571834095"/>
    <nd ref="244080847"/>
    <nd ref="244080848"/>
    <nd ref="250019795"/>
    <nd ref="244080849"/>
    <nd ref="250020338"/>
    <nd ref="244080850"/>
    <nd ref="571833932"/>
    <nd ref="250020648"/>
    <nd ref="244080851"/>
    <nd ref="571834005"/>
    <nd ref="244080852"/>
    <tag k="highway" v="primary"/>
    <tag k="name" v="Douglas Parade"/>
    <tag k="ref" v="35;T2;T11"/>
  </way>
  <way id="39420258" version="3" timestamp="2009-12-12T15:42:31Z" uid="4467" user="Rosscoe" changeset="3356579">
    <nd ref="250012682"/>
    <nd ref="587742972"/>
    <nd ref="587742970"/>
    <nd ref="587742960"/>
    <nd ref="587742965"/>
    <nd ref="244080836"/>
    <nd ref="250014667"/>
    <tag k="highway" v="primary"/>
    <tag k="name" v="Douglas Parade"/>
    <tag k="oneway" v="yes"/>
    <tag k="ref" v="35;T2"/>
    <tag k="source" v="nearmap"/>
  </way>
  <way id="39420317" version="3" timestamp="2009-12-12T15:42:27Z" uid="4467" user="Rosscoe" changeset="3356579">
    <nd ref="250015012"/>
    <nd ref="527734508"/>
    <nd ref="250015013"/>
    <nd ref="250015014"/>
    <tag k="highway" v="unclassified"/>
    <tag k="name" v="Simcock Avenue"/>
    <tag k="source" v="nearmap"/>
  </way>
  <way id="39420363" version="2" timestamp="2009-12-12T15:42:31Z" uid="4467" user="Rosscoe" changeset="3356579">
    <nd ref="250016011"/>
    <nd ref="250015012"/>
    <tag k="highway" v="tertiary"/>
    <tag k="name" v="Booker Street"/>
    <tag k="ref" v="T11"/>
    <tag k="source" v="survey"/>
  </way>
  <way id="39420531" version="3" timestamp="2010-07-08T20:18:37Z" uid="74617" user="JohnSmith" changeset="5168730">
    <nd ref="244078599"/>
    <nd ref="250286996"/>
    <nd ref="250286900"/>
    <nd ref="250287008"/>
    <tag k="highway" v="residential"/>
    <tag k="maxspeed" v="50"/>
    <tag k="maxspeed:source" v="default residential speed limit in Australia"/>
    <tag k="name" v="Morris Street"/>
    <tag k="source" v="MMBW"/>
  </way>
  <way id="39420582" version="7" timestamp="2011-04-24T00:48:33Z" uid="4467" user="Rosscoe" changeset="7948693">
    <nd ref="250286882"/>
    <nd ref="1257442140"/>
    <nd ref="250286884"/>
    <nd ref="250287121"/>
    <nd ref="250287126"/>
    <nd ref="312687915"/>
    <nd ref="250286885"/>
    <nd ref="250287142"/>
    <nd ref="250287022"/>
    <nd ref="250286886"/>
    <nd ref="250287082"/>
    <nd ref="250286887"/>
    <nd ref="250287026"/>
    <nd ref="250286888"/>
    <tag k="cycleway" v="lane"/>
    <tag k="highway" v="tertiary"/>
    <tag k="maxspeed" v="50"/>
    <tag k="name" v="Victoria Street"/>
    <tag k="ref" v="T11"/>
    <tag k="source" v="MMBW"/>
  </way>
  <way id="39420584" version="3" timestamp="2010-04-06T06:54:47Z" uid="74617" user="JohnSmith" changeset="4340624">
    <nd ref="75222776"/>
    <nd ref="588149131"/>
    <nd ref="75222740"/>
    <nd ref="75222781"/>
    <nd ref="75222782"/>
    <nd ref="75222784"/>
    <nd ref="75222785"/>
    <nd ref="75222786"/>
    <nd ref="75222787"/>
    <nd ref="75222788"/>
    <nd ref="75222790"/>
    <nd ref="75222804"/>
    <tag k="highway" v="primary"/>
    <tag k="name" v="Ferguson Street"/>
    <tag k="oneway" v="yes"/>
  </way>
  <way id="39420584" version="5" timestamp="2011-04-24T00:47:41Z" uid="4467" user="Rosscoe" changeset="7948693">
    <nd ref="75222776"/>
    <nd ref="588149131"/>
    <nd ref="75222740"/>
    <nd ref="75222781"/>
    <nd ref="1257442116"/>
    <nd ref="75222782"/>
    <nd ref="75222784"/>
    <tag k="highway" v="primary"/>
    <tag k="name" v="Ferguson Street"/>
    <tag k="oneway" v="yes"/>
  </way>
  <way id="39420585" version="3" timestamp="2011-04-24T00:48:20Z" uid="4467" user="Rosscoe" changeset="7948693">
    <nd ref="250286906"/>
    <nd ref="250286881"/>
    <nd ref="75223309"/>
    <nd ref="75223310"/>
    <nd ref="694172218"/>
    <nd ref="694172220"/>
    <tag k="highway" v="primary"/>
    <tag k="name" v="Ferguson Street"/>
    <tag k="oneway" v="yes"/>
    <tag k="ref" v="35/T11"/>
  </way>
  <way id="39420668" version="3" timestamp="2010-04-05T21:56:31Z" uid="74617" user="JohnSmith" changeset="4338595">
    <nd ref="32549295"/>
    <nd ref="250287324"/>
    <nd ref="75206115"/>
    <nd ref="75206116"/>
    <nd ref="75206118"/>
    <nd ref="75206119"/>
    <nd ref="250287301"/>
    <nd ref="250287302"/>
    <nd ref="32549295"/>
    <tag k="highway" v="primary"/>
    <tag k="junction" v="roundabout"/>
  </way>
  <way id="39420668" version="5" timestamp="2011-03-22T08:17:12Z" uid="4467" user="Rosscoe" changeset="7634647">
    <nd ref="1212930592"/>
    <nd ref="694190800"/>
    <nd ref="250287324"/>
    <nd ref="694190801"/>
    <nd ref="75206115"/>
    <nd ref="1212930580"/>
    <nd ref="694190802"/>
    <nd ref="75206116"/>
    <nd ref="694190803"/>
    <nd ref="75206118"/>
    <nd ref="1212930584"/>
    <nd ref="694190804"/>
    <nd ref="75206119"/>
    <nd ref="694190805"/>
    <nd ref="694190806"/>
    <nd ref="694190807"/>
    <nd ref="1212930586"/>
    <nd ref="250287301"/>
    <nd ref="694190809"/>
    <nd ref="694190810"/>
    <nd ref="694190811"/>
    <nd ref="32549295"/>
    <nd ref="1212930592"/>
    <tag k="highway" v="primary"/>
    <tag k="junction" v="roundabout"/>
  </way>
  <way id="39420707" version="6" timestamp="2011-03-22T08:17:02Z" uid="4467" user="Rosscoe" changeset="7634647">
    <nd ref="75206119"/>
    <nd ref="75206120"/>
    <nd ref="75206121"/>
    <nd ref="75206122"/>
    <nd ref="825406702"/>
    <nd ref="825406709"/>
    <nd ref="825406729"/>
    <nd ref="75206123"/>
    <nd ref="247987977"/>
    <nd ref="825406678"/>
    <nd ref="825406676"/>
    <nd ref="825406675"/>
    <nd ref="319643857"/>
    <nd ref="319643870"/>
    <nd ref="319643919"/>
    <nd ref="75206127"/>
    <tag k="cycleway" v="lane"/>
    <tag k="highway" v="primary"/>
    <tag k="name" v="Kororoit Creek Road"/>
    <tag k="oneway" v="yes"/>
    <tag k="ref" v="35/T11"/>
  </way>
  <way id="39420708" version="5" timestamp="2011-03-22T08:17:05Z" uid="4467" user="Rosscoe" changeset="7634647">
    <nd ref="1212930584"/>
    <nd ref="694190813"/>
    <nd ref="250287571"/>
    <nd ref="694190815"/>
    <nd ref="250287572"/>
    <nd ref="832362786"/>
    <tag k="highway" v="primary"/>
    <tag k="name" v="Millers Road"/>
  </way>
  <way id="39420709" version="5" timestamp="2011-03-22T08:17:17Z" uid="4467" user="Rosscoe" changeset="7634647">
    <nd ref="1212930592"/>
    <nd ref="825477428"/>
    <nd ref="825477429"/>
    <nd ref="32549296"/>
    <nd ref="825477430"/>
    <nd ref="825477431"/>
    <nd ref="825477432"/>
    <nd ref="32549297"/>
    <nd ref="825479567"/>
    <tag k="highway" v="primary"/>
    <tag k="name" v="Kororoit Creek Road"/>
    <tag k="oneway" v="yes"/>
    <tag k="ref" v="35"/>
  </way>
  <way id="39420710" version="5" timestamp="2011-03-22T08:16:58Z" uid="4467" user="Rosscoe" changeset="7634647">
    <nd ref="1212930580"/>
    <nd ref="250287322"/>
    <nd ref="832362787"/>
    <tag k="highway" v="primary"/>
    <tag k="name" v="Millers Road"/>
  </way>
  <way id="39420860" version="8" timestamp="2010-04-06T06:56:38Z" uid="74617" user="JohnSmith" changeset="4340624">
    <nd ref="34221334"/>
    <nd ref="255512148"/>
    <nd ref="255511093"/>
    <nd ref="244892162"/>
    <nd ref="244892163"/>
    <nd ref="244892165"/>
    <nd ref="244892167"/>
    <nd ref="255514745"/>
    <nd ref="247988444"/>
    <nd ref="244892169"/>
    <nd ref="358802277"/>
    <nd ref="588157998"/>
    <nd ref="244892171"/>
    <nd ref="244893455"/>
    <nd ref="244892088"/>
    <nd ref="244893448"/>
    <nd ref="354776999"/>
    <nd ref="354776946"/>
    <nd ref="244892173"/>
    <nd ref="354776889"/>
    <nd ref="354776909"/>
    <nd ref="575678251"/>
    <nd ref="354776807"/>
    <nd ref="588159828"/>
    <nd ref="247848258"/>
    <nd ref="588160115"/>
    <nd ref="244892175"/>
    <nd ref="244892177"/>
    <nd ref="244892179"/>
    <tag k="highway" v="secondary"/>
    <tag k="name" v="Maidstone Street"/>
  </way>
  <way id="39420986" version="2" timestamp="2009-12-16T05:42:19Z" uid="4467" user="Rosscoe" changeset="3384575">
    <nd ref="293345513"/>
    <nd ref="293385745"/>
    <nd ref="293346019"/>
    <nd ref="293345977"/>
    <tag k="highway" v="secondary"/>
    <tag k="name" v="Point Cook Road"/>
    <tag k="oneway" v="yes"/>
    <tag k="ref" v="T11"/>
    <tag k="source" v="nearmap"/>
  </way>
</osm>
