<?xml version='1.0' encoding='UTF-8'?>
<osm version="0.6" generator="libosmium/2.20.0">
  <way id="39497009" version="2" timestamp="2010-03-28T10:17:27Z" uid="20587" user="balrog-kun" changeset="4254597">
    <nd ref="473122157"/>
    <nd ref="122483945"/>
    <nd ref="373504056"/>
    <tag k="created_by" v="Potlatch 0.10f"/>
    <tag k="highway" v="secondary"/>
    <tag k="name" v="Ramona Boulevard"/>
    <tag k="oneway" v="yes"/>
  </way>
  <way id="39497012" version="2" timestamp="2010-03-28T10:17:27Z" uid="20587" user="balrog-kun" changeset="4254597">
    <nd ref="473122193"/>
    <nd ref="473122157"/>
    <tag k="bridge" v="yes"/>
    <tag k="created_by" v="Potlatch 0.10f"/>
    <tag k="highway" v="secondary"/>
    <tag k="name" v="Ramona Boulevard"/>
    <tag k="oneway" v="yes"/>
  </way>
  <way id="39497015" version="2" timestamp="2010-03-28T10:17:27Z" uid="20587" user="balrog-kun" changeset="4254597">
    <nd ref="473122209"/>
    <nd ref="473122211"/>
    <nd ref="473122212"/>
    <nd ref="373504092"/>
    <tag k="highway" v="secondary"/>
    <tag k="name" v="Ramona Boulevard"/>
    <tag k="oneway" v="yes"/>
  </way>
  <way id="39497016" version="2" timestamp="2010-03-28T10:17:27Z" uid="20587" user="balrog-kun" changeset="4254597">
    <nd ref="473122226"/>
    <nd ref="473122209"/>
    <tag k="bridge" v="yes"/>
    <tag k="highway" v="secondary"/>
    <tag k="name" v="Ramona Boulevard"/>
    <tag k="oneway" v="yes"/>
  </way>
  <way id="39497017" version="2" timestamp="2010-03-28T10:17:27Z" uid="20587" user="balrog-kun" changeset="4254597">
    <nd ref="373504052"/>
    <nd ref="373504056"/>
    <tag k="bridge" v="yes"/>
    <tag k="created_by" v="Potlatch 0.10f"/>
    <tag k="highway" v="secondary"/>
    <tag k="name" v="Ramona Boulevard"/>
  </way>
  <way id="39497021" version="3" timestamp="2010-03-28T10:17:27Z" uid="20587" user="balrog-kun" changeset="4254597">
    <nd ref="373504092"/>
    <nd ref="473122287"/>
    <nd ref="473122290"/>
    <nd ref="473122193"/>
    <tag k="highway" v="secondary"/>
    <tag k="name" v="Ramona Boulevard"/>
    <tag k="oneway" v="yes"/>
  </way>
  <way id="39497025" version="2" timestamp="2010-03-28T10:17:28Z" uid="20587" user="balrog-kun" changeset="4254597">
    <nd ref="373504056"/>
    <nd ref="473122317"/>
    <nd ref="473122226"/>
    <tag k="highway" v="secondary"/>
    <tag k="name" v="Ramona Boulevard"/>
    <tag k="oneway" v="yes"/>
  </way>
  <way id="39497244" version="2" timestamp="2009-12-14T18:06:55Z" uid="9581" user="Lobelt" changeset="3373751">
    <nd ref="473124369"/>
    <nd ref="473124395"/>
    <nd ref="473124398"/>
    <nd ref="473124400"/>
    <nd ref="473124401"/>
    <nd ref="590579325"/>
    <nd ref="590579339"/>
    <nd ref="590579347"/>
    <nd ref="590579349"/>
    <nd ref="590579359"/>
    <nd ref="491523942"/>
    <tag k="highway" v="track"/>
    <tag k="tracktype" v="grade3"/>
  </way>
  <way id="39497356" version="2" timestamp="2010-04-03T09:42:43Z" uid="85955" user="Gerd Höweler" changeset="4311067">
    <nd ref="208809386"/>
    <nd ref="208809388"/>
    <nd ref="208809391"/>
    <nd ref="309623919"/>
    <nd ref="208809393"/>
    <nd ref="208809396"/>
    <nd ref="208809398"/>
    <nd ref="304972022"/>
    <nd ref="309623770"/>
    <nd ref="208809400"/>
    <nd ref="208809402"/>
    <nd ref="208809404"/>
    <nd ref="208809407"/>
    <nd ref="208809409"/>
    <nd ref="208809410"/>
    <nd ref="208809412"/>
    <nd ref="208809414"/>
    <nd ref="208809416"/>
    <tag k="highway" v="tertiary"/>
    <tag k="lit" v="yes"/>
    <tag k="maxspeed" v="none"/>
    <tag k="name" v="Heeper Straße"/>
    <tag k="ref" v="K 2"/>
    <tag k="source" v="http://wiki.openstreetmap.org/wiki/Import/Catalogue/Strassen_NRW"/>
  </way>
  <way id="39497485" version="1" timestamp="2009-08-24T18:38:02Z" uid="20587" user="balrog-kun" changeset="2248431">
    <nd ref="251777993"/>
    <nd ref="419281101"/>
    <nd ref="251777994"/>
    <nd ref="419282314"/>
    <nd ref="419256016"/>
    <nd ref="419256017"/>
    <tag k="highway" v="residential"/>
    <tag k="name" v="Christa Botewa"/>
    <tag k="source" v="UMP-PL, ./UMP-Warszawa/src/WARSZAWA_BIALOLEKA.ulice.txt"/>
    <tag k="surface" v="unpaved"/>
  </way>
  <way id="39497658" version="2" timestamp="2010-05-01T23:35:24Z" uid="151899" user="Bikeman2000" changeset="4580450">
    <nd ref="253901691"/>
    <nd ref="715955128"/>
    <nd ref="715955129"/>
    <nd ref="253901693"/>
    <nd ref="715955130"/>
    <nd ref="253901692"/>
    <nd ref="257845015"/>
    <nd ref="715955131"/>
    <nd ref="257844988"/>
    <nd ref="387179952"/>
    <nd ref="257845006"/>
    <tag k="highway" v="residential"/>
    <tag k="maxspeed" v="30"/>
    <tag k="name" v="Wielandstraße"/>
    <tag k="source" v="survey"/>
  </way>
  <way id="39497659" version="2" timestamp="2010-05-01T23:35:23Z" uid="151899" user="Bikeman2000" changeset="4580450">
    <nd ref="241878201"/>
    <nd ref="715955126"/>
    <nd ref="253901691"/>
    <tag k="highway" v="residential"/>
    <tag k="name" v="Wielandstraße"/>
    <tag k="source" v="survey"/>
  </way>
  <way id="39497742" version="1" timestamp="2009-08-24T18:44:33Z" uid="20587" user="balrog-kun" changeset="2248531">
    <nd ref="473129762"/>
    <nd ref="473129764"/>
    <nd ref="473129763"/>
    <nd ref="473129761"/>
    <nd ref="473129762"/>
    <tag k="addr:street" v="Aleje Jerozolimskie"/>
    <tag k="note" v="TODO? addr:housenumber=86/88?"/>
    <tag k="shop" v="furniture"/>
  </way>
  <way id="39497743" version="1" timestamp="2009-08-24T18:44:33Z" uid="20587" user="balrog-kun" changeset="2248531">
    <nd ref="473129765"/>
    <nd ref="473129766"/>
    <nd ref="473129768"/>
    <nd ref="473129767"/>
    <nd ref="473129765"/>
    <tag k="addr:housenumber" v="90"/>
    <tag k="addr:street" v="Aleje Jerozolimskie"/>
    <tag k="building" v="industrial"/>
    <tag k="building:levels" v="1"/>
  </way>
  <way id="39497797" version="1" timestamp="2009-08-24T18:47:02Z" uid="20587" user="balrog-kun" changeset="2248563">
    <nd ref="473130470"/>
    <nd ref="473130471"/>
    <nd ref="473130472"/>
    <nd ref="473130474"/>
    <nd ref="473130475"/>
    <nd ref="473130476"/>
    <nd ref="473130477"/>
    <nd ref="473130478"/>
    <tag k="highway" v="service"/>
    <tag k="note" v="TODO"/>
    <tag k="oneway" v="yes"/>
  </way>
  <way id="39497798" version="1" timestamp="2009-08-24T18:47:02Z" uid="20587" user="balrog-kun" changeset="2248563">
    <nd ref="473130481"/>
    <nd ref="473130482"/>
    <nd ref="473130484"/>
    <nd ref="473130483"/>
    <nd ref="473130481"/>
    <tag k="landuse" v="commercial"/>
  </way>
</osm>
