<?xml version='1.0' encoding='UTF-8'?>
<osm version="0.6" generator="libosmium/2.20.0">
  <way id="39562432" version="6" timestamp="2010-08-17T02:30:24Z" uid="4467" user="Rosscoe" changeset="5514182">
    <nd ref="86657470"/>
    <nd ref="26121256"/>
    <nd ref="474497654"/>
    <nd ref="259621412"/>
    <nd ref="864242607"/>
    <nd ref="26121349"/>
    <nd ref="127627676"/>
    <nd ref="26121382"/>
    <tag k="cycleway" v="lane"/>
    <tag k="highway" v="primary"/>
    <tag k="is_in" v="North Melbourne,Victoria,Australia"/>
    <tag k="name" v="Flemington Road"/>
    <tag k="oneway" v="yes"/>
    <tag k="postal_code" v="3051"/>
    <tag k="ref" v="NR79"/>
    <tag k="source" v="survey;Yahoo"/>
  </way>
  <way id="39562432" version="7" timestamp="2010-10-23T22:07:46Z" uid="4467" user="Rosscoe" changeset="6152168">
    <nd ref="86657470"/>
    <nd ref="474497654"/>
    <nd ref="259621412"/>
    <nd ref="864242607"/>
    <nd ref="26121349"/>
    <nd ref="127627676"/>
    <nd ref="26121382"/>
    <tag k="cycleway" v="lane"/>
    <tag k="highway" v="primary"/>
    <tag k="is_in" v="North Melbourne,Victoria,Australia"/>
    <tag k="name" v="Flemington Road"/>
    <tag k="oneway" v="yes"/>
    <tag k="postal_code" v="3051"/>
    <tag k="ref" v="NR79"/>
    <tag k="source" v="survey;Yahoo"/>
  </way>
</osm>
