<?xml version='1.0' encoding='UTF-8'?>
<osm version="0.6" generator="libosmium/2.20.0">
  <way id="39635363" version="3" timestamp="2010-07-31T09:45:11Z" uid="9581" user="Lobelt" changeset="5361149">
    <nd ref="754035782"/>
    <nd ref="839822622"/>
    <nd ref="839822178"/>
    <nd ref="839822398"/>
    <nd ref="302291282"/>
    <nd ref="707580560"/>
    <nd ref="707580557"/>
    <nd ref="707580549"/>
    <nd ref="707580546"/>
    <nd ref="707580563"/>
    <nd ref="475124785"/>
    <nd ref="475124739"/>
    <nd ref="475124738"/>
    <nd ref="475124737"/>
    <nd ref="291822917"/>
    <tag k="power" v="line"/>
  </way>
  <way id="39635466" version="3" timestamp="2010-03-23T11:46:20Z" uid="4467" user="Rosscoe" changeset="4211337">
    <nd ref="672690928"/>
    <nd ref="672690924"/>
    <tag k="highway" v="secondary"/>
    <tag k="name" v="Wiltshire Lane"/>
    <tag k="oneway" v="yes"/>
    <tag k="ref" v="C307"/>
  </way>
  <way id="39635481" version="2" timestamp="2010-03-23T11:46:20Z" uid="4467" user="Rosscoe" changeset="4211337">
    <nd ref="363996583"/>
    <nd ref="672690928"/>
    <tag k="highway" v="secondary"/>
    <tag k="name" v="Wiltshire Lane"/>
    <tag k="oneway" v="yes"/>
    <tag k="ref" v="C307"/>
  </way>
  <way id="39635611" version="3" timestamp="2010-03-23T11:46:17Z" uid="4467" user="Rosscoe" changeset="4211337">
    <nd ref="672690928"/>
    <nd ref="672690929"/>
    <nd ref="655401555"/>
    <nd ref="356514619"/>
    <tag k="highway" v="secondary"/>
    <tag k="name" v="Wiltshire Lane"/>
    <tag k="ref" v="C307"/>
  </way>
  <way id="39635611" version="6" timestamp="2011-02-07T08:21:25Z" uid="4467" user="Rosscoe" changeset="7213360">
    <nd ref="672690928"/>
    <nd ref="672690929"/>
    <nd ref="1140475163"/>
    <nd ref="946571768"/>
    <nd ref="1140475299"/>
    <nd ref="1140474399"/>
    <nd ref="945492250"/>
    <tag k="cycleway" v="lane"/>
    <tag k="highway" v="secondary"/>
    <tag k="name" v="Wiltshire Lane"/>
    <tag k="ref" v="C307"/>
  </way>
  <way id="39635611" version="7" timestamp="2011-02-07T14:07:50Z" uid="4467" user="Rosscoe" changeset="7216482">
    <nd ref="672690928"/>
    <nd ref="1140837825"/>
    <nd ref="672690929"/>
    <nd ref="1140475163"/>
    <nd ref="946571768"/>
    <nd ref="1140475299"/>
    <nd ref="1140474399"/>
    <nd ref="945492250"/>
    <tag k="cycleway" v="lane"/>
    <tag k="highway" v="secondary"/>
    <tag k="name" v="Wiltshire Lane"/>
    <tag k="ref" v="C307"/>
  </way>
  <way id="39635878" version="5" timestamp="2011-02-07T08:21:20Z" uid="4467" user="Rosscoe" changeset="7213360">
    <nd ref="356514647"/>
    <nd ref="1023553279"/>
    <nd ref="1023553300"/>
    <nd ref="1140475440"/>
    <nd ref="1140474426"/>
    <nd ref="1023553393"/>
    <nd ref="1140474395"/>
    <nd ref="1140474811"/>
    <tag k="highway" v="tertiary"/>
    <tag k="name" v="Leamonth Street"/>
  </way>
  <way id="39635882" version="2" timestamp="2010-03-24T07:00:27Z" uid="4467" user="Rosscoe" changeset="4218623">
    <nd ref="356514678"/>
    <nd ref="318074631"/>
    <tag k="highway" v="residential"/>
  </way>
</osm>
