<?xml version='1.0' encoding='UTF-8'?>
<osm version="0.6" generator="libosmium/2.20.0">
  <way id="3997017" version="3" timestamp="2010-03-27T07:40:29Z" uid="20587" user="balrog-kun" changeset="4244079">
    <nd ref="20958731"/>
    <nd ref="20958732"/>
    <nd ref="88381415"/>
    <nd ref="18001831"/>
    <tag k="created_by" v="JOSM"/>
    <tag k="highway" v="residential"/>
    <tag k="name" v="Avenue 34"/>
  </way>
  <way id="3997018" version="3" timestamp="2010-03-27T07:40:29Z" uid="20587" user="balrog-kun" changeset="4244079">
    <nd ref="20958733"/>
    <nd ref="20958735"/>
    <tag k="highway" v="residential"/>
    <tag k="name" v="Crestmore Place"/>
  </way>
  <way id="3997020" version="3" timestamp="2010-03-27T07:40:29Z" uid="20587" user="balrog-kun" changeset="4244079">
    <nd ref="20958736"/>
    <nd ref="27566553"/>
    <nd ref="20958737"/>
    <tag k="highway" v="residential"/>
    <tag k="name" v="Avenue 37"/>
  </way>
  <way id="3997022" version="4" timestamp="2010-03-27T07:40:29Z" uid="20587" user="balrog-kun" changeset="4244079">
    <nd ref="26963124"/>
    <nd ref="122794900"/>
    <nd ref="20958744"/>
    <nd ref="20958746"/>
    <tag k="highway" v="residential"/>
    <tag k="name" v="Milford Street"/>
  </way>
  <way id="3997024" version="4" timestamp="2010-03-27T07:40:29Z" uid="20587" user="balrog-kun" changeset="4244079">
    <nd ref="20958751"/>
    <nd ref="122688367"/>
    <nd ref="32283431"/>
    <nd ref="122688360"/>
    <nd ref="20958753"/>
    <nd ref="35981855"/>
    <nd ref="18199061"/>
    <nd ref="20958752"/>
    <nd ref="21590090"/>
    <nd ref="122688352"/>
    <nd ref="122590350"/>
    <nd ref="122688350"/>
    <nd ref="35500204"/>
    <tag k="created_by" v="JOSM"/>
    <tag k="highway" v="residential"/>
    <tag k="name" v="Maple Street"/>
  </way>
  <way id="3997025" version="3" timestamp="2010-03-27T07:40:29Z" uid="20587" user="balrog-kun" changeset="4244079">
    <nd ref="35981813"/>
    <nd ref="20958755"/>
    <nd ref="20958756"/>
    <nd ref="20958754"/>
    <nd ref="123734842"/>
    <nd ref="32274489"/>
    <nd ref="32283427"/>
    <nd ref="20958757"/>
    <tag k="created_by" v="JOSM"/>
    <tag k="highway" v="residential"/>
    <tag k="name" v="Garfield Avenue"/>
  </way>
  <way id="3997026" version="3" timestamp="2010-03-27T07:40:30Z" uid="20587" user="balrog-kun" changeset="4244079">
    <nd ref="14854783"/>
    <nd ref="452584655"/>
    <nd ref="452584656"/>
    <nd ref="452584657"/>
    <nd ref="452584658"/>
    <nd ref="20958758"/>
    <nd ref="20958759"/>
    <nd ref="20958760"/>
    <nd ref="20958761"/>
    <nd ref="20958762"/>
    <nd ref="20958763"/>
    <nd ref="20958764"/>
    <nd ref="20958765"/>
    <nd ref="20958766"/>
    <tag k="created_by" v="JOSM"/>
    <tag k="highway" v="residential"/>
    <tag k="name" v="Filion Street"/>
  </way>
  <way id="3997027" version="5" timestamp="2010-03-27T07:40:30Z" uid="20587" user="balrog-kun" changeset="4244079">
    <nd ref="20958758"/>
    <nd ref="88028408"/>
    <nd ref="20958767"/>
    <nd ref="26730517"/>
    <nd ref="20958768"/>
    <tag k="highway" v="residential"/>
    <tag k="name" v="Somers Avenue"/>
  </way>
  <way id="3997028" version="3" timestamp="2010-03-27T07:40:30Z" uid="20587" user="balrog-kun" changeset="4244079">
    <nd ref="20958776"/>
    <nd ref="20958777"/>
    <nd ref="137189886"/>
    <nd ref="137189900"/>
    <nd ref="20958778"/>
    <nd ref="137189915"/>
    <nd ref="20958779"/>
    <tag k="created_by" v="JOSM"/>
    <tag k="highway" v="residential"/>
    <tag k="name" v="Ganemede Drive"/>
  </way>
  <way id="3997029" version="2" timestamp="2010-03-27T07:40:30Z" uid="20587" user="balrog-kun" changeset="4244079">
    <nd ref="20958781"/>
    <nd ref="20958780"/>
    <tag k="created_by" v="JOSM"/>
    <tag k="highway" v="residential"/>
    <tag k="name" v="El Centro Street"/>
  </way>
  <way id="3997030" version="2" timestamp="2010-03-27T07:40:30Z" uid="20587" user="balrog-kun" changeset="4244079">
    <nd ref="20958782"/>
    <nd ref="20958783"/>
    <nd ref="20958784"/>
    <tag k="created_by" v="JOSM"/>
    <tag k="highway" v="residential"/>
    <tag k="name" v="El Atajo Street"/>
  </way>
  <way id="3997031" version="2" timestamp="2010-03-27T07:40:30Z" uid="20587" user="balrog-kun" changeset="4244079">
    <nd ref="15040032"/>
    <nd ref="20958785"/>
    <nd ref="20958786"/>
    <nd ref="20958787"/>
    <tag k="created_by" v="JOSM"/>
    <tag k="highway" v="residential"/>
    <tag k="name" v="Mancheria Drive"/>
  </way>
  <way id="3997033" version="4" timestamp="2010-01-29T23:46:21Z" uid="30201" user="rrankin" changeset="3747639">
    <nd ref="20958797"/>
    <nd ref="20958796"/>
    <tag k="highway" v="residential"/>
    <tag k="name" v="Gray Street"/>
  </way>
  <way id="3997033" version="5" timestamp="2010-07-07T21:47:53Z" uid="74617" user="JohnSmith" changeset="5161069">
    <nd ref="20958797"/>
    <nd ref="20958796"/>
    <tag k="highway" v="residential"/>
    <tag k="maxspeed" v="50"/>
    <tag k="maxspeed:source" v="default residential speed limit in Australia"/>
    <tag k="name" v="Gray Street"/>
  </way>
  <way id="3997037" version="3" timestamp="2009-01-21T11:45:46Z" uid="7617" user="Franc" changeset="820928">
    <nd ref="20979720"/>
    <nd ref="334508505"/>
    <nd ref="20955156"/>
    <nd ref="20958832"/>
    <nd ref="20955152"/>
    <tag k="created_by" v="JOSM"/>
    <tag k="highway" v="secondary"/>
    <tag k="name" v="Newland Street"/>
  </way>
  <way id="3997037" version="4" timestamp="2009-01-24T12:55:39Z" uid="7617" user="Franc" changeset="830203">
    <nd ref="20979720"/>
    <nd ref="335899268"/>
    <nd ref="334508505"/>
    <nd ref="20955156"/>
    <nd ref="20958832"/>
    <nd ref="20955152"/>
    <tag k="created_by" v="JOSM"/>
    <tag k="highway" v="secondary"/>
    <tag k="name" v="Newland Street"/>
  </way>
  <way id="3997037" version="5" timestamp="2009-01-24T14:15:58Z" uid="7617" user="Franc" changeset="830819">
    <nd ref="20979720"/>
    <nd ref="335913118"/>
    <nd ref="335899268"/>
    <nd ref="334508505"/>
    <nd ref="20955156"/>
    <nd ref="20958832"/>
    <nd ref="20955152"/>
    <tag k="created_by" v="JOSM"/>
    <tag k="highway" v="secondary"/>
    <tag k="name" v="Newland Street"/>
  </way>
  <way id="3997038" version="3" timestamp="2009-01-21T12:42:17Z" uid="7617" user="Franc" changeset="820928">
    <nd ref="20955152"/>
    <nd ref="334515265"/>
    <nd ref="20958836"/>
    <nd ref="20958838"/>
    <nd ref="20958839"/>
    <nd ref="20958844"/>
    <nd ref="14696925"/>
    <tag k="abutters" v="retail"/>
    <tag k="bicycle" v="yes"/>
    <tag k="created_by" v="Potlatch 0.10f"/>
    <tag k="highway" v="secondary"/>
    <tag k="name" v="Oxford Street"/>
  </way>
  <way id="3997038" version="6" timestamp="2010-01-29T23:46:21Z" uid="30201" user="rrankin" changeset="3747639">
    <nd ref="20955152"/>
    <nd ref="334515265"/>
    <nd ref="20958836"/>
    <nd ref="20958838"/>
    <nd ref="20958839"/>
    <nd ref="20958844"/>
    <nd ref="14696925"/>
    <tag k="bicycle" v="yes"/>
    <tag k="highway" v="secondary"/>
    <tag k="maxspeed" v="50"/>
    <tag k="name" v="Oxford Street"/>
  </way>
  <way id="3997038" version="9" timestamp="2010-10-16T05:27:11Z" uid="7617" user="Franc" changeset="6054570">
    <nd ref="20955152"/>
    <nd ref="334515265"/>
    <nd ref="951198561"/>
    <nd ref="20958836"/>
    <nd ref="20958838"/>
    <nd ref="20958839"/>
    <nd ref="20958844"/>
    <nd ref="777398539"/>
    <nd ref="14696925"/>
    <tag k="bicycle" v="yes"/>
    <tag k="highway" v="tertiary"/>
    <tag k="maxspeed" v="50"/>
    <tag k="name" v="Oxford Street"/>
  </way>
  <way id="3997039" version="4" timestamp="2010-01-29T23:46:21Z" uid="30201" user="rrankin" changeset="3747639">
    <nd ref="20958833"/>
    <nd ref="20958832"/>
    <tag k="highway" v="residential"/>
    <tag k="name" v="Spring Street"/>
    <tag k="oneway" v="yes"/>
  </way>
  <way id="3997039" version="5" timestamp="2010-07-07T21:48:52Z" uid="74617" user="JohnSmith" changeset="5161069">
    <nd ref="20958833"/>
    <nd ref="20958832"/>
    <tag k="highway" v="residential"/>
    <tag k="maxspeed" v="50"/>
    <tag k="maxspeed:source" v="default residential speed limit in Australia"/>
    <tag k="name" v="Spring Street"/>
    <tag k="oneway" v="yes"/>
  </way>
  <way id="3997040" version="1" timestamp="2007-07-18T22:22:25Z" uid="7617" user="Franc" changeset="152538">
    <nd ref="20958836"/>
    <nd ref="20958834"/>
    <nd ref="26526011"/>
    <nd ref="20958837"/>
    <tag k="abutters" v="residential"/>
    <tag k="created_by" v="JOSM"/>
    <tag k="highway" v="unclassified"/>
    <tag k="name" v="Denison Street"/>
    <tag k="source" v="interpolation"/>
  </way>
  <way id="3997040" version="2" timestamp="2009-01-21T11:45:44Z" uid="7617" user="Franc" changeset="820928">
    <nd ref="20958836"/>
    <nd ref="20958834"/>
    <nd ref="26526011"/>
    <nd ref="334508487"/>
    <nd ref="20958837"/>
    <tag k="abutters" v="residential"/>
    <tag k="created_by" v="JOSM"/>
    <tag k="highway" v="unclassified"/>
    <tag k="name" v="Denison Street"/>
    <tag k="source" v="interpolation"/>
  </way>
  <way id="3997040" version="3" timestamp="2009-03-21T12:00:01Z" uid="7617" user="Franc" changeset="839912">
    <nd ref="20958836"/>
    <nd ref="20958834"/>
    <nd ref="26526011"/>
    <nd ref="364341528"/>
    <nd ref="334508487"/>
    <nd ref="20958837"/>
    <tag k="abutters" v="residential"/>
    <tag k="created_by" v="JOSM"/>
    <tag k="highway" v="unclassified"/>
    <tag k="name" v="Denison Street"/>
    <tag k="source" v="interpolation"/>
  </way>
  <way id="3997040" version="5" timestamp="2010-01-30T00:11:20Z" uid="30201" user="rrankin" changeset="3747745">
    <nd ref="20958836"/>
    <nd ref="20958834"/>
    <nd ref="26526011"/>
    <nd ref="364341528"/>
    <nd ref="334508487"/>
    <nd ref="20958837"/>
    <tag k="highway" v="unclassified"/>
    <tag k="name" v="Denison Street"/>
    <tag k="source" v="interpolation"/>
  </way>
  <way id="3997040" version="6" timestamp="2010-10-16T05:27:19Z" uid="7617" user="Franc" changeset="6054570">
    <nd ref="20958836"/>
    <nd ref="951198566"/>
    <nd ref="20958834"/>
    <nd ref="26526011"/>
    <nd ref="364341528"/>
    <nd ref="334508487"/>
    <nd ref="20958837"/>
    <tag k="highway" v="unclassified"/>
    <tag k="name" v="Denison Street"/>
    <tag k="source" v="interpolation"/>
  </way>
  <way id="3997041" version="2" timestamp="2009-01-21T11:45:45Z" uid="7617" user="Franc" changeset="820928">
    <nd ref="20958838"/>
    <nd ref="20958841"/>
    <nd ref="334508487"/>
    <tag k="abutters" v="residential"/>
    <tag k="created_by" v="JOSM"/>
    <tag k="highway" v="residential"/>
    <tag k="name" v="Mill Hill Road"/>
    <tag k="source" v="interpolation"/>
  </way>
  <way id="3997041" version="4" timestamp="2010-01-30T00:11:20Z" uid="30201" user="rrankin" changeset="3747745">
    <nd ref="20958838"/>
    <nd ref="20958841"/>
    <nd ref="334508487"/>
    <tag k="highway" v="residential"/>
    <tag k="name" v="Mill Hill Road"/>
    <tag k="source" v="interpolation"/>
  </way>
  <way id="3997041" version="5" timestamp="2010-07-07T21:55:14Z" uid="74617" user="JohnSmith" changeset="5161069">
    <nd ref="20958838"/>
    <nd ref="20958841"/>
    <nd ref="334508487"/>
    <tag k="highway" v="residential"/>
    <tag k="maxspeed" v="50"/>
    <tag k="maxspeed:source" v="default residential speed limit in Australia"/>
    <tag k="name" v="Mill Hill Road"/>
    <tag k="source" v="interpolation"/>
  </way>
  <way id="3997041" version="6" timestamp="2010-10-16T05:27:07Z" uid="7617" user="Franc" changeset="6054570">
    <nd ref="20958838"/>
    <nd ref="951198452"/>
    <nd ref="20958841"/>
    <tag k="highway" v="residential"/>
    <tag k="maxspeed" v="50"/>
    <tag k="maxspeed:source" v="default residential speed limit in Australia"/>
    <tag k="name" v="Mill Hill Road"/>
    <tag k="source" v="interpolation"/>
  </way>
  <way id="3997042" version="2" timestamp="2009-01-21T11:45:42Z" uid="7617" user="Franc" changeset="820928">
    <nd ref="20958839"/>
    <nd ref="334508495"/>
    <nd ref="14696931"/>
    <tag k="abutters" v="residential"/>
    <tag k="created_by" v="JOSM"/>
    <tag k="highway" v="residential"/>
    <tag k="name" v="Ruthven Street"/>
    <tag k="source" v="interpolation"/>
  </way>
  <way id="3997042" version="4" timestamp="2010-01-30T00:11:20Z" uid="30201" user="rrankin" changeset="3747745">
    <nd ref="20958839"/>
    <nd ref="334508495"/>
    <nd ref="14696931"/>
    <tag k="highway" v="residential"/>
    <tag k="name" v="Ruthven Street"/>
    <tag k="source" v="interpolation"/>
  </way>
  <way id="3997042" version="6" timestamp="2010-07-07T21:48:33Z" uid="74617" user="JohnSmith" changeset="5161069">
    <nd ref="20958839"/>
    <nd ref="777398552"/>
    <nd ref="777398547"/>
    <nd ref="334508495"/>
    <nd ref="14696931"/>
    <tag k="highway" v="residential"/>
    <tag k="maxspeed" v="50"/>
    <tag k="maxspeed:source" v="default residential speed limit in Australia"/>
    <tag k="name" v="Ruthven Street"/>
    <tag k="source" v="interpolation"/>
  </way>
  <way id="3997042" version="7" timestamp="2010-10-16T05:26:58Z" uid="7617" user="Franc" changeset="6054570">
    <nd ref="20958839"/>
    <nd ref="951198551"/>
    <nd ref="777398552"/>
    <nd ref="777398547"/>
    <nd ref="951198457"/>
    <nd ref="334508495"/>
    <nd ref="951198476"/>
    <nd ref="951198503"/>
    <nd ref="14696931"/>
    <tag k="highway" v="residential"/>
    <tag k="maxspeed" v="50"/>
    <tag k="maxspeed:source" v="default residential speed limit in Australia"/>
    <tag k="name" v="Ruthven Street"/>
    <tag k="source" v="interpolation"/>
  </way>
  <way id="3997043" version="5" timestamp="2010-07-07T21:53:12Z" uid="74617" user="JohnSmith" changeset="5161069">
    <nd ref="20958844"/>
    <nd ref="777398536"/>
    <nd ref="777393654"/>
    <nd ref="777393647"/>
    <tag k="highway" v="residential"/>
    <tag k="maxspeed" v="50"/>
    <tag k="maxspeed:source" v="default residential speed limit in Australia"/>
    <tag k="name" v="Nelson Street"/>
    <tag k="source" v="nearmap"/>
  </way>
  <way id="3997043" version="6" timestamp="2010-10-16T05:27:13Z" uid="7617" user="Franc" changeset="6054570">
    <nd ref="20958844"/>
    <nd ref="951198520"/>
    <nd ref="777398536"/>
    <nd ref="777393654"/>
    <nd ref="777393647"/>
    <tag k="highway" v="residential"/>
    <tag k="maxspeed" v="50"/>
    <tag k="maxspeed:source" v="default residential speed limit in Australia"/>
    <tag k="name" v="Nelson Street"/>
    <tag k="source" v="nearmap"/>
  </way>
  <way id="3997045" version="1" timestamp="2007-07-28T10:31:30Z" uid="7617" user="Franc" changeset="175402">
    <nd ref="8407286"/>
    <nd ref="33024325"/>
    <nd ref="8965991"/>
    <tag k="created_by" v="JOSM"/>
    <tag k="highway" v="unclassified"/>
    <tag k="oneway" v="yes"/>
  </way>
  <way id="3997045" version="3" timestamp="2008-07-30T09:39:12Z" uid="7617" user="Franc" changeset="626105"/>
  <way id="3997046" version="1" timestamp="2007-09-09T03:09:41Z" uid="7617" user="Franc" changeset="396695">
    <nd ref="8965991"/>
    <nd ref="33024002"/>
    <nd ref="8407287"/>
    <nd ref="30200788"/>
    <nd ref="26377733"/>
    <nd ref="26377630"/>
    <nd ref="26374882"/>
    <nd ref="26377734"/>
    <nd ref="26377554"/>
    <nd ref="26377555"/>
    <tag k="abutters" v="mixed"/>
    <tag k="created_by" v="JOSM"/>
    <tag k="highway" v="unclassified"/>
    <tag k="name" v="Devonshire"/>
  </way>
  <way id="3997046" version="3" timestamp="2008-02-17T11:10:08Z" uid="7617" user="Franc" changeset="142722">
    <nd ref="8965991"/>
    <nd ref="33024002"/>
    <nd ref="8407287"/>
    <nd ref="247995462"/>
    <nd ref="30200788"/>
    <nd ref="26377733"/>
    <nd ref="26377630"/>
    <nd ref="26374882"/>
    <nd ref="26377734"/>
    <nd ref="26377554"/>
    <nd ref="26377555"/>
    <tag k="abutters" v="mixed"/>
    <tag k="created_by" v="Potlatch alpha"/>
    <tag k="highway" v="unclassified"/>
    <tag k="name" v="Devonshire Street"/>
  </way>
  <way id="3997046" version="4" timestamp="2008-02-17T11:12:04Z" uid="7617" user="Franc" changeset="142722">
    <nd ref="8965991"/>
    <nd ref="33024002"/>
    <nd ref="8407287"/>
    <nd ref="247995462"/>
    <nd ref="30200788"/>
    <nd ref="26377733"/>
    <nd ref="26377630"/>
    <nd ref="26374882"/>
    <nd ref="26377734"/>
    <nd ref="26377554"/>
    <nd ref="247995642"/>
    <nd ref="247995637"/>
    <nd ref="247995640"/>
    <nd ref="26377555"/>
    <tag k="abutters" v="mixed"/>
    <tag k="created_by" v="Potlatch alpha"/>
    <tag k="highway" v="unclassified"/>
    <tag k="name" v="Devonshire Street"/>
  </way>
  <way id="3997046" version="5" timestamp="2008-03-21T23:26:47Z" uid="7617" user="Franc" changeset="367940">
    <nd ref="8965991"/>
    <nd ref="33024002"/>
    <nd ref="8407287"/>
    <nd ref="247995462"/>
    <nd ref="30200788"/>
    <nd ref="26377733"/>
    <nd ref="26377630"/>
    <nd ref="26374882"/>
    <nd ref="26377734"/>
    <nd ref="26377554"/>
    <nd ref="247995642"/>
    <nd ref="253269018"/>
    <nd ref="247995637"/>
    <nd ref="253269039"/>
    <nd ref="247995640"/>
    <nd ref="26377555"/>
    <tag k="abutters" v="mixed"/>
    <tag k="created_by" v="Potlatch alpha"/>
    <tag k="highway" v="unclassified"/>
    <tag k="name" v="Devonshire Street"/>
  </way>
  <way id="3997046" version="6" timestamp="2008-07-30T00:37:21Z" uid="7617" user="Franc" changeset="625080">
    <nd ref="8965991"/>
    <nd ref="33024002"/>
    <nd ref="8407287"/>
    <nd ref="247995462"/>
    <nd ref="30200788"/>
    <nd ref="26377733"/>
    <nd ref="26377630"/>
    <nd ref="26374882"/>
    <nd ref="26377734"/>
    <nd ref="26377554"/>
    <nd ref="282123649"/>
    <nd ref="247995642"/>
    <nd ref="253269018"/>
    <nd ref="247995637"/>
    <nd ref="253269039"/>
    <nd ref="247995640"/>
    <nd ref="26377555"/>
    <tag k="abutters" v="mixed"/>
    <tag k="created_by" v="Potlatch alpha"/>
    <tag k="highway" v="unclassified"/>
    <tag k="name" v="Devonshire Street"/>
  </way>
  <way id="3997046" version="7" timestamp="2008-07-30T09:39:09Z" uid="7617" user="Franc" changeset="626105">
    <nd ref="8965991"/>
    <nd ref="33024002"/>
    <nd ref="282182435"/>
    <nd ref="8407287"/>
    <nd ref="247995462"/>
    <nd ref="30200788"/>
    <nd ref="26377733"/>
    <nd ref="26377630"/>
    <nd ref="26374882"/>
    <nd ref="26377734"/>
    <nd ref="26377554"/>
    <nd ref="282123649"/>
    <nd ref="247995642"/>
    <nd ref="253269018"/>
    <nd ref="247995637"/>
    <nd ref="253269039"/>
    <nd ref="247995640"/>
    <nd ref="26377555"/>
    <tag k="abutters" v="mixed"/>
    <tag k="created_by" v="Potlatch alpha"/>
    <tag k="highway" v="unclassified"/>
    <tag k="name" v="Devonshire Street"/>
  </way>
  <way id="3997046" version="8" timestamp="2008-08-17T09:26:26Z" uid="7617" user="Franc" changeset="295008">
    <nd ref="8965991"/>
    <nd ref="33024002"/>
    <nd ref="282182435"/>
    <nd ref="8407287"/>
    <nd ref="247995462"/>
    <nd ref="30200788"/>
    <nd ref="26377733"/>
    <nd ref="26377630"/>
    <nd ref="288699939"/>
    <nd ref="288699941"/>
    <nd ref="288699943"/>
    <nd ref="26374882"/>
    <nd ref="26377734"/>
    <nd ref="26377554"/>
    <nd ref="282123649"/>
    <nd ref="247995642"/>
    <nd ref="253269018"/>
    <nd ref="247995637"/>
    <nd ref="253269039"/>
    <nd ref="247995640"/>
    <nd ref="26377555"/>
    <tag k="abutters" v="mixed"/>
    <tag k="created_by" v="Potlatch alpha"/>
    <tag k="highway" v="unclassified"/>
    <tag k="name" v="Devonshire Street"/>
  </way>
  <way id="3997046" version="9" timestamp="2008-08-17T22:38:28Z" uid="7617" user="Franc" changeset="303534">
    <nd ref="8965991"/>
    <nd ref="33024002"/>
    <nd ref="282182435"/>
    <nd ref="8407287"/>
    <nd ref="247995462"/>
    <nd ref="30200788"/>
    <nd ref="26377733"/>
    <nd ref="26377630"/>
    <nd ref="288699939"/>
    <nd ref="288699941"/>
    <nd ref="288699943"/>
    <nd ref="26374882"/>
    <nd ref="26377734"/>
    <nd ref="288968207"/>
    <nd ref="26377554"/>
    <nd ref="282123649"/>
    <nd ref="247995642"/>
    <nd ref="253269018"/>
    <nd ref="247995637"/>
    <nd ref="253269039"/>
    <nd ref="247995640"/>
    <nd ref="26377555"/>
    <tag k="abutters" v="mixed"/>
    <tag k="created_by" v="Potlatch alpha"/>
    <tag k="highway" v="unclassified"/>
    <tag k="name" v="Devonshire Street"/>
  </way>
  <way id="3997046" version="10" timestamp="2008-08-20T08:18:31Z" uid="7617" user="Franc" changeset="331922">
    <nd ref="8965991"/>
    <nd ref="33024002"/>
    <nd ref="282182435"/>
    <nd ref="8407287"/>
    <tag k="abutters" v="mixed"/>
    <tag k="created_by" v="Potlatch alpha"/>
    <tag k="highway" v="unclassified"/>
    <tag k="name" v="Devonshire Street"/>
    <tag k="oneway" v="yes"/>
  </way>
  <way id="3997046" version="12" timestamp="2009-12-24T10:27:54Z" uid="30201" user="rrankin" changeset="3440994">
    <nd ref="8965991"/>
    <nd ref="33024002"/>
    <nd ref="282182435"/>
    <nd ref="8407287"/>
    <tag k="highway" v="unclassified"/>
    <tag k="name" v="Devonshire Street"/>
    <tag k="oneway" v="yes"/>
  </way>
  <way id="3997049" version="6" timestamp="2009-12-24T10:28:01Z" uid="30201" user="rrankin" changeset="3440994">
    <nd ref="12501654"/>
    <nd ref="20958871"/>
    <nd ref="20958857"/>
    <tag k="highway" v="residential"/>
    <tag k="name" v="Allen Street"/>
  </way>
  <way id="3997049" version="7" timestamp="2010-07-07T22:10:20Z" uid="74617" user="JohnSmith" changeset="5161069">
    <nd ref="12501654"/>
    <nd ref="20958871"/>
    <nd ref="20958857"/>
    <tag k="highway" v="residential"/>
    <tag k="maxspeed" v="50"/>
    <tag k="maxspeed:source" v="default residential speed limit in Australia"/>
    <tag k="name" v="Allen Street"/>
  </way>
  <way id="3997050" version="3" timestamp="2009-12-24T23:17:17Z" uid="30201" user="rrankin" changeset="3445508">
    <nd ref="20958875"/>
    <nd ref="599100144"/>
    <nd ref="20958874"/>
    <nd ref="20958873"/>
    <nd ref="20958872"/>
    <nd ref="20958871"/>
    <tag k="highway" v="motorway_link"/>
    <tag k="oneway" v="yes"/>
  </way>
  <way id="3997051" version="5" timestamp="2009-12-24T11:36:17Z" uid="30201" user="rrankin" changeset="3441442">
    <nd ref="20186568"/>
    <nd ref="26627211"/>
    <nd ref="26627212"/>
    <nd ref="26627216"/>
    <nd ref="26627214"/>
    <nd ref="26627215"/>
    <nd ref="26627217"/>
    <nd ref="20958879"/>
    <nd ref="20189082"/>
    <nd ref="20958875"/>
    <nd ref="20958876"/>
    <nd ref="598916849"/>
    <nd ref="26627283"/>
    <nd ref="20958877"/>
    <nd ref="26627284"/>
    <nd ref="26627285"/>
    <nd ref="26627286"/>
    <nd ref="26627287"/>
    <nd ref="17395614"/>
    <tag k="highway" v="motorway"/>
    <tag k="layer" v="2"/>
    <tag k="name" v="Western Distributor"/>
    <tag k="oneway" v="yes"/>
    <tag k="ref" v="MR4"/>
  </way>
  <way id="3997051" version="6" timestamp="2009-12-24T12:35:28Z" uid="30201" user="rrankin" changeset="3441832">
    <nd ref="20186568"/>
    <nd ref="26627211"/>
    <nd ref="26627212"/>
    <nd ref="26627216"/>
    <tag k="bridge" v="yes"/>
    <tag k="highway" v="motorway"/>
    <tag k="layer" v="2"/>
    <tag k="name" v="Western Distributor"/>
    <tag k="oneway" v="yes"/>
    <tag k="ref" v="MR4"/>
  </way>
  <way id="3997051" version="8" timestamp="2010-04-01T13:07:07Z" uid="74617" user="JohnSmith" changeset="4293399">
    <nd ref="20186568"/>
    <nd ref="26627211"/>
    <tag k="bridge" v="viaduct"/>
    <tag k="highway" v="motorway"/>
    <tag k="lanes" v="4"/>
    <tag k="layer" v="2"/>
    <tag k="name" v="Western Distributor"/>
    <tag k="oneway" v="yes"/>
  </way>
  <way id="3997051" version="10" timestamp="2010-07-08T04:41:27Z" uid="30201" user="rrankin" changeset="5163349">
    <nd ref="20186568"/>
    <nd ref="26627211"/>
    <tag k="bridge" v="viaduct"/>
    <tag k="highway" v="motorway"/>
    <tag k="lanes" v="4"/>
    <tag k="layer" v="2"/>
    <tag k="maxspeed" v="60"/>
    <tag k="name" v="Western Distributor"/>
    <tag k="oneway" v="yes"/>
    <tag k="ref" v="MR4"/>
  </way>
  <way id="3997052" version="3" timestamp="2010-07-07T22:09:41Z" uid="74617" user="JohnSmith" changeset="5161069">
    <nd ref="20958859"/>
    <nd ref="20958860"/>
    <nd ref="20958861"/>
    <tag k="highway" v="residential"/>
    <tag k="maxspeed" v="50"/>
    <tag k="maxspeed:source" v="default residential speed limit in Australia"/>
    <tag k="name" v="Experiment Street"/>
  </way>
  <way id="3997054" version="3" timestamp="2010-07-07T22:15:43Z" uid="74617" user="JohnSmith" changeset="5161069">
    <nd ref="20958860"/>
    <nd ref="20958886"/>
    <tag k="highway" v="residential"/>
    <tag k="maxspeed" v="50"/>
    <tag k="maxspeed:source" v="default residential speed limit in Australia"/>
    <tag k="name" v="Bunn Lane"/>
  </way>
  <way id="3997055" version="3" timestamp="2011-05-04T10:25:38Z" uid="7617" user="Franc" changeset="8047572">
    <nd ref="20958861"/>
    <nd ref="20958888"/>
    <tag k="highway" v="pedestrian"/>
  </way>
  <way id="3997056" version="2" timestamp="2008-04-16T06:15:02Z" uid="7617" user="Franc" changeset="162872">
    <nd ref="20958861"/>
    <nd ref="20958882"/>
    <tag k="abutters" v="mixed"/>
    <tag k="created_by" v="JOSM"/>
    <tag k="highway" v="unclassified"/>
    <tag k="name" v="Gipps Street"/>
    <tag k="oneway" v="yes"/>
  </way>
  <way id="3997058" version="4" timestamp="2009-12-24T12:35:31Z" uid="30201" user="rrankin" changeset="3441832">
    <nd ref="20958890"/>
    <nd ref="20958891"/>
    <nd ref="585671300"/>
    <nd ref="20958892"/>
    <nd ref="338579674"/>
    <nd ref="11978257"/>
    <tag k="abutters" v="mixed"/>
    <tag k="highway" v="unclassified"/>
    <tag k="name" v="Jones Bay Road"/>
    <tag k="source" v="survey"/>
  </way>
  <way id="3997058" version="5" timestamp="2009-12-25T00:04:37Z" uid="30201" user="rrankin" changeset="3445648">
    <nd ref="20958890"/>
    <nd ref="20958891"/>
    <nd ref="585671300"/>
    <nd ref="20958892"/>
    <nd ref="338579674"/>
    <nd ref="599108546"/>
    <tag k="abutters" v="mixed"/>
    <tag k="highway" v="unclassified"/>
    <tag k="name" v="Jones Bay Road"/>
    <tag k="source" v="survey"/>
  </way>
  <way id="3997059" version="2" timestamp="2008-02-18T08:54:51Z" uid="7617" user="Franc" changeset="148798">
    <nd ref="20958894"/>
    <nd ref="248145032"/>
    <nd ref="248145033"/>
    <nd ref="20958895"/>
    <tag k="created_by" v="JOSM"/>
    <tag k="highway" v="service"/>
  </way>
  <way id="3997059" version="3" timestamp="2008-04-16T05:49:05Z" uid="7617" user="Franc" changeset="162872">
    <nd ref="20958894"/>
    <nd ref="257877294"/>
    <tag k="created_by" v="JOSM"/>
    <tag k="highway" v="service"/>
  </way>
  <way id="3997059" version="7" timestamp="2010-07-07T22:14:58Z" uid="74617" user="JohnSmith" changeset="5161069">
    <nd ref="20958894"/>
    <nd ref="257877294"/>
    <tag k="highway" v="residential"/>
    <tag k="maxspeed" v="50"/>
    <tag k="maxspeed:source" v="default residential speed limit in Australia"/>
    <tag k="name" v="Bayview Street"/>
  </way>
  <way id="3997060" version="2" timestamp="2008-02-18T08:54:47Z" uid="7617" user="Franc" changeset="148798">
    <nd ref="20958890"/>
    <nd ref="248145041"/>
    <nd ref="248145031"/>
    <nd ref="248145022"/>
    <nd ref="248145021"/>
    <nd ref="248145034"/>
    <nd ref="20958894"/>
    <nd ref="20958896"/>
    <tag k="created_by" v="JOSM"/>
    <tag k="highway" v="residential"/>
    <tag k="name" v="Point Street"/>
    <tag k="source" v="yahoo_imagery"/>
    <tag k="source:name" v="survey"/>
  </way>
  <way id="3997060" version="3" timestamp="2008-04-16T05:50:08Z" uid="7617" user="Franc" changeset="162872">
    <nd ref="20958890"/>
    <nd ref="248145041"/>
    <nd ref="248145031"/>
    <nd ref="257877337"/>
    <nd ref="248145022"/>
    <nd ref="248145021"/>
    <nd ref="248145034"/>
    <nd ref="20958894"/>
    <nd ref="20958896"/>
    <tag k="created_by" v="JOSM"/>
    <tag k="highway" v="residential"/>
    <tag k="name" v="Point Street"/>
    <tag k="source" v="yahoo_imagery"/>
    <tag k="source:name" v="survey"/>
  </way>
  <way id="3997060" version="7" timestamp="2010-07-07T22:14:33Z" uid="74617" user="JohnSmith" changeset="5161069">
    <nd ref="20958890"/>
    <nd ref="248145041"/>
    <nd ref="248145031"/>
    <nd ref="257877337"/>
    <nd ref="248145022"/>
    <nd ref="248145021"/>
    <nd ref="248145034"/>
    <nd ref="585671295"/>
    <nd ref="20958894"/>
    <nd ref="585652570"/>
    <nd ref="20958896"/>
    <tag k="highway" v="residential"/>
    <tag k="maxspeed" v="50"/>
    <tag k="maxspeed:source" v="default residential speed limit in Australia"/>
    <tag k="name" v="Point Street"/>
    <tag k="source" v="yahoo_imagery"/>
    <tag k="source:name" v="survey"/>
  </way>
  <way id="3997060" version="8" timestamp="2010-10-18T08:23:52Z" uid="7617" user="Franc" changeset="6078324">
    <nd ref="20958890"/>
    <nd ref="248145041"/>
    <nd ref="248145031"/>
    <nd ref="257877337"/>
    <nd ref="248145022"/>
    <nd ref="248145021"/>
    <nd ref="248145034"/>
    <nd ref="585671295"/>
    <nd ref="20958894"/>
    <nd ref="585652570"/>
    <tag k="highway" v="residential"/>
    <tag k="maxspeed" v="50"/>
    <tag k="maxspeed:source" v="default residential speed limit in Australia"/>
    <tag k="name" v="Point Street"/>
    <tag k="source" v="yahoo_imagery"/>
    <tag k="source:name" v="survey"/>
  </way>
  <way id="3997061" version="1" timestamp="2007-09-26T05:15:07Z" uid="7617" user="Franc" changeset="521522">
    <nd ref="11978268"/>
    <nd ref="11978489"/>
    <nd ref="11978486"/>
    <nd ref="11978272"/>
    <tag k="created_by" v="JOSM"/>
    <tag k="foot" v="yes"/>
    <tag k="highway" v="cycleway"/>
  </way>
  <way id="3997061" version="3" timestamp="2010-10-18T08:23:40Z" uid="7617" user="Franc" changeset="6078324">
    <nd ref="11978268"/>
    <nd ref="11978489"/>
    <nd ref="11978486"/>
    <nd ref="955747547"/>
    <nd ref="11978272"/>
    <tag k="foot" v="yes"/>
    <tag k="highway" v="cycleway"/>
  </way>
  <way id="3997062" version="2" timestamp="2008-08-13T12:35:23Z" uid="7617" user="Franc" changeset="226131">
    <nd ref="20827852"/>
    <nd ref="20958915"/>
    <nd ref="20958914"/>
    <nd ref="20958913"/>
    <nd ref="20958912"/>
    <nd ref="20958908"/>
    <nd ref="20958905"/>
    <nd ref="20958903"/>
    <nd ref="20958902"/>
    <nd ref="20958901"/>
    <nd ref="20958900"/>
    <nd ref="20958899"/>
    <nd ref="20958898"/>
    <nd ref="11978322"/>
    <nd ref="20958897"/>
    <tag k="created_by" v="JOSM"/>
    <tag k="foot" v="yes"/>
    <tag k="highway" v="cycleway"/>
    <tag k="name" v="Waterfront Promenade"/>
  </way>
  <way id="3997064" version="1" timestamp="2007-09-01T14:36:58Z" uid="7617" user="Franc" changeset="289637">
    <nd ref="20958916"/>
    <nd ref="20958917"/>
    <tag k="bridge" v="yes"/>
    <tag k="created_by" v="JOSM"/>
    <tag k="highway" v="unclassified"/>
    <tag k="name" v="Old swing bridge"/>
  </way>
  <way id="3997064" version="2" timestamp="2007-12-12T08:56:52Z" uid="7617" user="Franc" changeset="269462">
    <nd ref="20958916"/>
    <nd ref="20958917"/>
    <tag k="bridge" v="yes"/>
    <tag k="created_by" v="JOSM"/>
    <tag k="highway" v="unclassified"/>
    <tag k="layer" v="1"/>
    <tag k="name" v="Old swing bridge"/>
  </way>
  <way id="3997064" version="3" timestamp="2008-03-19T06:18:56Z" uid="30201" user="rrankin" changeset="349396">
    <nd ref="20958916"/>
    <nd ref="20958917"/>
    <tag k="bridge" v="yes"/>
    <tag k="created_by" v="Potlatch 0.7b"/>
    <tag k="highway" v="unclassified"/>
    <tag k="layer" v="1"/>
    <tag k="name" v="Glebe Island Bridge"/>
  </way>
  <way id="3997064" version="6" timestamp="2010-12-31T01:07:22Z" uid="4467" user="Rosscoe" changeset="6815826">
    <nd ref="20958916"/>
    <nd ref="1074320897"/>
    <tag k="bridge" v="yes"/>
    <tag k="highway" v="unclassified"/>
    <tag k="layer" v="1"/>
    <tag k="name" v="Glebe Island Bridge"/>
  </way>
  <way id="3997065" version="2" timestamp="2008-05-03T23:50:14Z" uid="30201" user="rrankin" changeset="326090">
    <nd ref="8320611"/>
    <nd ref="20959246"/>
    <nd ref="20959247"/>
    <nd ref="20958928"/>
    <nd ref="20958929"/>
    <nd ref="20958930"/>
    <nd ref="20958931"/>
    <nd ref="20958932"/>
    <nd ref="20958933"/>
    <nd ref="20958934"/>
    <nd ref="20958935"/>
    <nd ref="26377064"/>
    <nd ref="26377065"/>
    <nd ref="26625777"/>
    <tag k="created_by" v="Potlatch alpha"/>
    <tag k="highway" v="motorway"/>
    <tag k="layer" v="1"/>
    <tag k="name" v="Western Distributor"/>
    <tag k="oneway" v="yes"/>
    <tag k="ref" v="MR4"/>
  </way>
  <way id="3997065" version="3" timestamp="2008-05-04T22:18:40Z" uid="30201" user="rrankin" changeset="336241">
    <nd ref="8320611"/>
    <nd ref="20959246"/>
    <nd ref="20959247"/>
    <nd ref="20958928"/>
    <nd ref="20958929"/>
    <nd ref="20958930"/>
    <nd ref="20958931"/>
    <nd ref="20958932"/>
    <nd ref="20958933"/>
    <nd ref="20958934"/>
    <tag k="created_by" v="Potlatch alpha"/>
    <tag k="highway" v="motorway"/>
    <tag k="layer" v="1"/>
    <tag k="name" v="Western Distributor"/>
    <tag k="oneway" v="yes"/>
    <tag k="ref" v="MR4"/>
  </way>
  <way id="3997065" version="4" timestamp="2009-08-16T05:56:57Z" uid="4467" user="Rosscoe" changeset="2160391">
    <nd ref="8320611"/>
    <nd ref="20959246"/>
    <nd ref="20959247"/>
    <nd ref="20958928"/>
    <nd ref="20958929"/>
    <nd ref="20958930"/>
    <nd ref="20958931"/>
    <tag k="bridge" v="yes"/>
    <tag k="highway" v="motorway"/>
    <tag k="layer" v="1"/>
    <tag k="name" v="Western Distributor"/>
    <tag k="oneway" v="yes"/>
    <tag k="ref" v="MR4"/>
  </way>
  <way id="3997065" version="7" timestamp="2010-04-01T13:45:29Z" uid="74617" user="JohnSmith" changeset="4293399">
    <nd ref="8320611"/>
    <nd ref="600645168"/>
    <tag k="highway" v="motorway"/>
    <tag k="layer" v="1"/>
    <tag k="maxspeed" v="70"/>
    <tag k="name" v="Western Distributor"/>
    <tag k="oneway" v="yes"/>
  </way>
  <way id="3997067" version="3" timestamp="2010-01-06T00:58:07Z" uid="30201" user="rrankin" changeset="3550442">
    <nd ref="8588653"/>
    <nd ref="20958939"/>
    <nd ref="20958940"/>
    <tag k="highway" v="unclassified"/>
    <tag k="name" v="Bettington Street"/>
  </way>
  <way id="3997068" version="3" timestamp="2010-01-06T00:58:07Z" uid="30201" user="rrankin" changeset="3550442">
    <nd ref="20958940"/>
    <nd ref="20958941"/>
    <tag k="highway" v="residential"/>
    <tag k="name" v="Merriman Street"/>
  </way>
  <way id="3997068" version="4" timestamp="2010-07-07T22:15:59Z" uid="74617" user="JohnSmith" changeset="5161069">
    <nd ref="20958940"/>
    <nd ref="20958941"/>
    <tag k="highway" v="residential"/>
    <tag k="maxspeed" v="50"/>
    <tag k="maxspeed:source" v="default residential speed limit in Australia"/>
    <tag k="name" v="Merriman Street"/>
  </way>
  <way id="3997069" version="2" timestamp="2008-09-16T08:44:48Z" uid="7617" user="Franc" changeset="648218">
    <nd ref="20958939"/>
    <nd ref="20958946"/>
    <nd ref="20958947"/>
    <nd ref="20958948"/>
    <nd ref="20958949"/>
    <tag k="abutters" v="residential"/>
    <tag k="created_by" v="JOSM"/>
    <tag k="highway" v="service"/>
    <tag k="name" v="Rodens Lane"/>
  </way>
  <way id="3997069" version="4" timestamp="2010-01-06T00:58:07Z" uid="30201" user="rrankin" changeset="3550442">
    <nd ref="20958939"/>
    <nd ref="20958946"/>
    <nd ref="20958947"/>
    <nd ref="20958948"/>
    <nd ref="20958949"/>
    <tag k="highway" v="service"/>
    <tag k="name" v="Rodens Lane"/>
  </way>
  <way id="3997070" version="3" timestamp="2010-01-06T00:58:07Z" uid="30201" user="rrankin" changeset="3550442">
    <nd ref="20958941"/>
    <nd ref="20958944"/>
    <nd ref="20958955"/>
    <nd ref="20958954"/>
    <nd ref="20958953"/>
    <nd ref="20958952"/>
    <nd ref="20958951"/>
    <nd ref="20958950"/>
    <nd ref="20958949"/>
    <tag k="highway" v="cycleway"/>
  </way>
  <way id="3997073" version="2" timestamp="2008-04-06T01:03:33Z" uid="30201" user="rrankin" changeset="57592">
    <nd ref="26358214"/>
    <nd ref="26358194"/>
    <nd ref="26358196"/>
    <nd ref="26358199"/>
    <nd ref="26358201"/>
    <nd ref="26358203"/>
    <nd ref="26358206"/>
    <nd ref="20958970"/>
    <nd ref="8589550"/>
    <tag k="created_by" v="JOSM"/>
    <tag k="highway" v="unclassified"/>
    <tag k="name" v="Pottinger Street"/>
  </way>
  <way id="3997073" version="3" timestamp="2008-04-06T01:50:35Z" uid="30201" user="rrankin" changeset="57592">
    <nd ref="26358214"/>
    <nd ref="26358194"/>
    <nd ref="255978758"/>
    <nd ref="26358196"/>
    <nd ref="26358199"/>
    <nd ref="26358201"/>
    <nd ref="26358203"/>
    <nd ref="26358206"/>
    <nd ref="20958970"/>
    <nd ref="8589550"/>
    <tag k="created_by" v="JOSM"/>
    <tag k="highway" v="unclassified"/>
    <tag k="name" v="Pottinger Street"/>
  </way>
  <way id="3997073" version="4" timestamp="2008-04-06T02:18:36Z" uid="30201" user="rrankin" changeset="57592">
    <nd ref="26358214"/>
    <nd ref="26358194"/>
    <nd ref="255978758"/>
    <nd ref="26358196"/>
    <nd ref="26358199"/>
    <nd ref="26358201"/>
    <nd ref="26358203"/>
    <nd ref="26358206"/>
    <nd ref="255982193"/>
    <nd ref="20958970"/>
    <nd ref="8589550"/>
    <tag k="created_by" v="JOSM"/>
    <tag k="highway" v="unclassified"/>
    <tag k="name" v="Pottinger Street"/>
  </way>
  <way id="3997073" version="5" timestamp="2008-09-18T08:45:08Z" uid="7617" user="Franc" changeset="658014">
    <nd ref="8589550"/>
    <nd ref="20958970"/>
    <nd ref="255982193"/>
    <nd ref="26358206"/>
    <nd ref="26358203"/>
    <nd ref="26358201"/>
    <nd ref="26358199"/>
    <nd ref="26358196"/>
    <nd ref="255978758"/>
    <tag k="created_by" v="JOSM"/>
    <tag k="highway" v="unclassified"/>
    <tag k="name" v="Pottinger Street"/>
  </way>
  <way id="3997076" version="1" timestamp="2007-09-26T06:11:35Z" uid="7617" user="Franc" changeset="521522">
    <nd ref="20958972"/>
    <nd ref="20958973"/>
    <nd ref="20958976"/>
    <nd ref="20958977"/>
    <nd ref="20958974"/>
    <tag k="created_by" v="JOSM"/>
    <tag k="description" v="pier end walkway"/>
    <tag k="highway" v="footway"/>
  </way>
  <way id="3997077" version="3" timestamp="2010-01-06T00:58:08Z" uid="30201" user="rrankin" changeset="3550442">
    <nd ref="20958989"/>
    <nd ref="20958988"/>
    <nd ref="20958987"/>
    <nd ref="20958986"/>
    <nd ref="8589564"/>
    <tag k="cycleway" v="track"/>
    <tag k="foot" v="yes"/>
    <tag k="highway" v="cycleway"/>
  </way>
  <way id="3997078" version="3" timestamp="2010-01-06T00:58:07Z" uid="30201" user="rrankin" changeset="3550442">
    <nd ref="20958989"/>
    <nd ref="20958990"/>
    <nd ref="20958991"/>
    <nd ref="20958992"/>
    <nd ref="20958993"/>
    <nd ref="20958994"/>
    <nd ref="8589590"/>
    <tag k="cycleway" v="track"/>
    <tag k="foot" v="yes"/>
    <tag k="highway" v="cycleway"/>
  </way>
  <way id="3997080" version="2" timestamp="2009-08-16T05:56:59Z" uid="4467" user="Rosscoe" changeset="2160391"/>
  <way id="3997082" version="1" timestamp="2007-09-26T05:55:36Z" uid="7617" user="Franc" changeset="521522">
    <nd ref="20959010"/>
    <nd ref="20959027"/>
    <nd ref="20959026"/>
    <nd ref="20959025"/>
    <nd ref="20959024"/>
    <nd ref="20959010"/>
    <tag k="abutters" v="mixed"/>
    <tag k="created_by" v="JOSM"/>
    <tag k="highway" v="service"/>
    <tag k="name" v="Circular Quay West"/>
  </way>
  <way id="3997082" version="3" timestamp="2009-07-22T11:01:18Z" uid="7617" user="Franc" changeset="1903728">
    <nd ref="20959010"/>
    <nd ref="20959027"/>
    <nd ref="445401038"/>
    <nd ref="20959026"/>
    <tag k="abutters" v="mixed"/>
    <tag k="created_by" v="JOSM"/>
    <tag k="highway" v="service"/>
    <tag k="name" v="Circular Quay West"/>
  </way>
  <way id="3997082" version="5" timestamp="2010-01-06T00:58:08Z" uid="30201" user="rrankin" changeset="3550442">
    <nd ref="20959010"/>
    <nd ref="20959027"/>
    <nd ref="445401038"/>
    <nd ref="20959026"/>
    <tag k="highway" v="service"/>
    <tag k="name" v="Circular Quay West"/>
  </way>
  <way id="3997082" version="6" timestamp="2010-07-27T14:05:57Z" uid="4467" user="Rosscoe" changeset="5329737"/>
  <way id="3997084" version="3" timestamp="2008-04-06T00:35:06Z" uid="30201" user="rrankin" changeset="57592">
    <nd ref="8589608"/>
    <nd ref="20959030"/>
    <nd ref="20959019"/>
    <nd ref="255972844"/>
    <tag k="bridge" v="yes"/>
    <tag k="created_by" v="Potlatch 0.5d"/>
    <tag k="highway" v="service"/>
  </way>
  <way id="3997084" version="4" timestamp="2008-09-16T09:46:07Z" uid="7617" user="Franc" changeset="648218">
    <nd ref="8589608"/>
    <nd ref="20959030"/>
    <nd ref="255972844"/>
    <tag k="bridge" v="yes"/>
    <tag k="created_by" v="Potlatch 0.5d"/>
    <tag k="highway" v="service"/>
  </way>
  <way id="3997084" version="5" timestamp="2009-08-10T22:54:27Z" uid="4467" user="Rosscoe" changeset="2103511">
    <nd ref="8589608"/>
    <nd ref="20959030"/>
    <nd ref="255972844"/>
    <tag k="bridge" v="yes"/>
    <tag k="highway" v="service"/>
    <tag k="layer" v="1"/>
  </way>
  <way id="3997084" version="7" timestamp="2010-07-27T14:05:49Z" uid="4467" user="Rosscoe" changeset="5329737">
    <nd ref="8589608"/>
    <nd ref="20959030"/>
    <tag k="highway" v="service"/>
  </way>
  <way id="3997087" version="3" timestamp="2010-07-27T14:05:58Z" uid="4467" user="Rosscoe" changeset="5329737"/>
  <way id="3997090" version="4" timestamp="2010-07-27T13:39:02Z" uid="4467" user="Rosscoe" changeset="5329540">
    <nd ref="20959047"/>
    <nd ref="20959048"/>
    <tag k="highway" v="footway"/>
    <tag k="man_made" v="pier"/>
    <tag k="name" v="Circular Quay - Wharf 6"/>
  </way>
  <way id="3997091" version="4" timestamp="2010-07-27T13:35:57Z" uid="4467" user="Rosscoe" changeset="5329516">
    <nd ref="835438274"/>
    <nd ref="20959049"/>
    <tag k="description" v="Ferries to Taronga Zoon, JetCat to Manly"/>
    <tag k="highway" v="footway"/>
    <tag k="man_made" v="pier"/>
    <tag k="name" v="Circular Quay - Wharf 2"/>
  </way>
  <way id="3997097" version="2" timestamp="2008-10-12T13:26:35Z" uid="7617" user="Franc" changeset="279832">
    <nd ref="26358532"/>
    <nd ref="26526401"/>
    <nd ref="20959062"/>
    <nd ref="8965825"/>
    <tag k="amenity" v="bus_station"/>
    <tag k="created_by" v="JOSM"/>
    <tag k="highway" v="unclassified"/>
    <tag k="name" v="Loftus Street"/>
  </way>
  <way id="3997097" version="5" timestamp="2011-06-17T12:39:39Z" uid="7617" user="Franc" changeset="8464443">
    <nd ref="26358532"/>
    <nd ref="1328489786"/>
    <nd ref="1328489775"/>
    <nd ref="26526401"/>
    <tag k="highway" v="unclassified"/>
    <tag k="name" v="Loftus Street"/>
  </way>
  <way id="3997097" version="6" timestamp="2011-06-17T12:39:58Z" uid="7617" user="Franc" changeset="8464447">
    <nd ref="26358532"/>
    <nd ref="1328489786"/>
    <nd ref="1328489775"/>
    <nd ref="26526401"/>
    <tag k="amenity" v="bus_station"/>
    <tag k="highway" v="unclassified"/>
    <tag k="name" v="Loftus Street"/>
  </way>
  <way id="3997098" version="5" timestamp="2010-01-06T00:58:03Z" uid="30201" user="rrankin" changeset="3550442">
    <nd ref="8965822"/>
    <nd ref="26526454"/>
    <nd ref="299827307"/>
    <nd ref="20959088"/>
    <nd ref="20959081"/>
    <nd ref="20959063"/>
    <tag k="highway" v="residential"/>
    <tag k="name" v="Pitt Street"/>
  </way>
  <way id="3997098" version="6" timestamp="2010-07-07T22:14:29Z" uid="74617" user="JohnSmith" changeset="5161069">
    <nd ref="8965822"/>
    <nd ref="26526454"/>
    <nd ref="299827307"/>
    <nd ref="20959088"/>
    <nd ref="20959081"/>
    <nd ref="20959063"/>
    <tag k="highway" v="residential"/>
    <tag k="maxspeed" v="50"/>
    <tag k="maxspeed:source" v="default residential speed limit in Australia"/>
    <tag k="name" v="Pitt Street"/>
  </way>
  <way id="3997099" version="2" timestamp="2008-12-04T11:27:39Z" uid="7617" user="Franc" changeset="107422">
    <nd ref="26358531"/>
    <nd ref="316595249"/>
    <nd ref="20959063"/>
    <nd ref="26526398"/>
    <nd ref="26526397"/>
    <nd ref="26358532"/>
    <nd ref="26358753"/>
    <nd ref="8965682"/>
    <nd ref="33122085"/>
    <nd ref="15397477"/>
    <tag k="abutters" v="commercial"/>
    <tag k="created_by" v="JOSM"/>
    <tag k="highway" v="secondary"/>
    <tag k="name" v="Bridge Street"/>
  </way>
  <way id="3997099" version="4" timestamp="2010-01-06T00:58:03Z" uid="30201" user="rrankin" changeset="3550442">
    <nd ref="26358531"/>
    <nd ref="316595249"/>
    <nd ref="20959063"/>
    <nd ref="26526398"/>
    <nd ref="26526397"/>
    <nd ref="26358532"/>
    <nd ref="26358753"/>
    <nd ref="8965682"/>
    <nd ref="33122085"/>
    <nd ref="15397477"/>
    <tag k="highway" v="secondary"/>
    <tag k="name" v="Bridge Street"/>
  </way>
  <way id="3997099" version="5" timestamp="2010-07-27T13:36:07Z" uid="4467" user="Rosscoe" changeset="5329516">
    <nd ref="26358531"/>
    <nd ref="316595249"/>
    <nd ref="20959063"/>
    <nd ref="26526398"/>
    <nd ref="26526397"/>
    <nd ref="26358532"/>
    <nd ref="26358753"/>
    <nd ref="8965682"/>
    <nd ref="15397477"/>
    <tag k="highway" v="secondary"/>
    <tag k="name" v="Bridge Street"/>
  </way>
  <way id="3997104" version="4" timestamp="2010-01-06T00:58:08Z" uid="30201" user="rrankin" changeset="3550442">
    <nd ref="20959186"/>
    <nd ref="20959178"/>
    <tag k="highway" v="pedestrian"/>
    <tag k="name" v="Atherden Street"/>
  </way>
  <way id="3997105" version="1" timestamp="2007-09-26T05:55:36Z" uid="7617" user="Franc" changeset="521522">
    <nd ref="20959178"/>
    <nd ref="20959177"/>
    <nd ref="26526489"/>
    <nd ref="26526488"/>
    <nd ref="8965830"/>
    <tag k="abutters" v="residential"/>
    <tag k="created_by" v="JOSM"/>
    <tag k="highway" v="residential"/>
    <tag k="name" v="Atherden Street"/>
  </way>
  <way id="3997105" version="2" timestamp="2008-04-06T00:02:45Z" uid="30201" user="rrankin" changeset="57592">
    <nd ref="20959178"/>
    <nd ref="20959177"/>
    <nd ref="26526489"/>
    <nd ref="26526488"/>
    <nd ref="8965830"/>
    <tag k="abutters" v="residential"/>
    <tag k="created_by" v="JOSM"/>
    <tag k="highway" v="residential"/>
    <tag k="name" v="Atherden Street"/>
  </way>
  <way id="3997105" version="3" timestamp="2008-09-16T09:46:08Z" uid="7617" user="Franc" changeset="648218">
    <nd ref="20959178"/>
    <nd ref="20959177"/>
    <nd ref="26526488"/>
    <nd ref="8965830"/>
    <tag k="abutters" v="residential"/>
    <tag k="created_by" v="JOSM"/>
    <tag k="highway" v="residential"/>
    <tag k="name" v="Atherden Street"/>
  </way>
  <way id="3997116" version="2" timestamp="2008-04-06T00:50:21Z" uid="30201" user="rrankin" changeset="57592">
    <nd ref="8965831"/>
    <nd ref="255974237"/>
    <nd ref="255974250"/>
    <nd ref="20959236"/>
    <nd ref="20959179"/>
    <tag k="abutters" v="mixed"/>
    <tag k="created_by" v="JOSM"/>
    <tag k="highway" v="unclassified"/>
    <tag k="name" v="Harrington Street"/>
  </way>
  <way id="3997116" version="5" timestamp="2009-08-16T07:16:30Z" uid="4467" user="Rosscoe" changeset="2160849">
    <nd ref="8965831"/>
    <nd ref="255974237"/>
    <nd ref="416480033"/>
    <nd ref="255974250"/>
    <nd ref="20959236"/>
    <nd ref="15406815"/>
    <tag k="abutters" v="mixed"/>
    <tag k="highway" v="residential"/>
    <tag k="name" v="Harrington Street"/>
  </way>
  <way id="3997116" version="7" timestamp="2010-01-06T00:57:45Z" uid="30201" user="rrankin" changeset="3550442">
    <nd ref="8965831"/>
    <nd ref="255974237"/>
    <nd ref="416480033"/>
    <nd ref="255974250"/>
    <nd ref="20959236"/>
    <nd ref="15406815"/>
    <tag k="highway" v="residential"/>
    <tag k="name" v="Harrington Street"/>
  </way>
  <way id="3997116" version="8" timestamp="2010-07-07T22:15:09Z" uid="74617" user="JohnSmith" changeset="5161069">
    <nd ref="8965831"/>
    <nd ref="255974237"/>
    <nd ref="416480033"/>
    <nd ref="255974250"/>
    <nd ref="20959236"/>
    <nd ref="15406815"/>
    <tag k="highway" v="residential"/>
    <tag k="maxspeed" v="50"/>
    <tag k="maxspeed:source" v="default residential speed limit in Australia"/>
    <tag k="name" v="Harrington Street"/>
  </way>
  <way id="3997116" version="10" timestamp="2011-02-06T08:13:02Z" uid="4467" user="Rosscoe" changeset="7200553">
    <nd ref="8965831"/>
    <nd ref="255974237"/>
    <nd ref="416480033"/>
    <nd ref="255974250"/>
    <nd ref="1117739819"/>
    <nd ref="1138703803"/>
    <nd ref="20959236"/>
    <nd ref="1138703801"/>
    <nd ref="15406815"/>
    <tag k="highway" v="residential"/>
    <tag k="maxspeed" v="50"/>
    <tag k="maxspeed:source" v="default residential speed limit in Australia"/>
    <tag k="name" v="Harrington Street"/>
  </way>
  <way id="3997119" version="4" timestamp="2008-11-21T21:22:02Z" uid="7617" user="Franc" changeset="777036">
    <nd ref="20959235"/>
    <nd ref="20959236"/>
    <nd ref="313582432"/>
    <nd ref="26377025"/>
    <tag k="abutters" v="mixed"/>
    <tag k="created_by" v="Potlatch 0.10b"/>
    <tag k="highway" v="residential"/>
    <tag k="name" v="Essex Street"/>
  </way>
  <way id="3997119" version="6" timestamp="2010-01-06T00:58:05Z" uid="30201" user="rrankin" changeset="3550442">
    <nd ref="20959235"/>
    <nd ref="20959236"/>
    <nd ref="313582432"/>
    <nd ref="26377025"/>
    <tag k="highway" v="residential"/>
    <tag k="name" v="Essex Street"/>
  </way>
  <way id="3997119" version="8" timestamp="2010-07-07T22:14:51Z" uid="74617" user="JohnSmith" changeset="5161069">
    <nd ref="20959235"/>
    <nd ref="20959236"/>
    <nd ref="313582432"/>
    <nd ref="26377025"/>
    <tag k="highway" v="residential"/>
    <tag k="maxspeed" v="50"/>
    <tag k="maxspeed:source" v="default residential speed limit in Australia"/>
    <tag k="name" v="Essex Street"/>
    <tag k="source" v="nearmap"/>
  </way>
  <way id="3997120" version="3" timestamp="2008-11-21T21:21:59Z" uid="7617" user="Franc" changeset="777036">
    <nd ref="15407223"/>
    <nd ref="20959245"/>
    <nd ref="313582429"/>
    <nd ref="15406815"/>
    <nd ref="20959179"/>
    <nd ref="15406814"/>
    <tag k="abutters" v="mixed"/>
    <tag k="created_by" v="Potlatch alpha"/>
    <tag k="highway" v="primary"/>
    <tag k="name" v="Grosvenor Street"/>
  </way>
  <way id="3997120" version="6" timestamp="2010-01-06T00:58:04Z" uid="30201" user="rrankin" changeset="3550442">
    <nd ref="15407223"/>
    <nd ref="20959245"/>
    <nd ref="313582429"/>
    <tag k="highway" v="primary"/>
    <tag k="name" v="Grosvenor Street"/>
  </way>
  <way id="3997123" version="2" timestamp="2008-05-21T18:58:23Z" uid="36809" user="pfoten_weg_!_" changeset="495842">
    <nd ref="15735987"/>
    <nd ref="15735995"/>
    <nd ref="15735994"/>
    <nd ref="15735993"/>
    <nd ref="266194604"/>
    <nd ref="15735992"/>
    <nd ref="266194605"/>
    <nd ref="15735991"/>
    <nd ref="15735990"/>
    <nd ref="15735989"/>
    <tag k="created_by" v="Potlatch 0.9a"/>
    <tag k="highway" v="motorway_link"/>
    <tag k="oneway" v="true"/>
  </way>
  <way id="3997126" version="7" timestamp="2008-05-26T22:37:52Z" uid="36809" user="pfoten_weg_!_" changeset="531015">
    <nd ref="472028"/>
    <nd ref="14658652"/>
    <nd ref="14658651"/>
    <nd ref="267046763"/>
    <nd ref="14658650"/>
    <nd ref="14658649"/>
    <nd ref="14658648"/>
    <nd ref="14658647"/>
    <nd ref="14658646"/>
    <nd ref="14658645"/>
    <nd ref="14658644"/>
    <nd ref="14658643"/>
    <nd ref="14658642"/>
    <nd ref="255913932"/>
    <nd ref="255911943"/>
    <nd ref="14658641"/>
    <nd ref="14658640"/>
    <nd ref="14658639"/>
    <nd ref="14658638"/>
    <tag k="created_by" v="Potlatch 0.9b"/>
    <tag k="highway" v="service"/>
    <tag k="oneway" v="yes"/>
  </way>
  <way id="3997126" version="8" timestamp="2008-05-26T22:40:31Z" uid="36809" user="pfoten_weg_!_" changeset="531015">
    <nd ref="472028"/>
    <nd ref="14658652"/>
    <nd ref="14658651"/>
    <nd ref="267046763"/>
    <nd ref="14658650"/>
    <nd ref="14658649"/>
    <nd ref="14658648"/>
    <nd ref="14658647"/>
    <nd ref="14658646"/>
    <nd ref="14658645"/>
    <nd ref="14658644"/>
    <nd ref="14658643"/>
    <nd ref="14658642"/>
    <nd ref="255913932"/>
    <nd ref="255911943"/>
    <nd ref="14658641"/>
    <nd ref="14658640"/>
    <nd ref="14658639"/>
    <nd ref="14658638"/>
    <tag k="created_by" v="Potlatch 0.9b"/>
    <tag k="highway" v="service"/>
    <tag k="oneway" v="yes"/>
  </way>
  <way id="3997127" version="4" timestamp="2008-05-26T22:41:49Z" uid="36809" user="pfoten_weg_!_" changeset="531015">
    <nd ref="14658624"/>
    <nd ref="14658623"/>
    <nd ref="14658622"/>
    <nd ref="267047574"/>
    <nd ref="60043012"/>
    <tag k="created_by" v="Potlatch 0.9b"/>
    <tag k="highway" v="service"/>
    <tag k="oneway" v="yes"/>
  </way>
  <way id="3997127" version="5" timestamp="2008-05-26T22:42:31Z" uid="36809" user="pfoten_weg_!_" changeset="531015">
    <nd ref="14658624"/>
    <nd ref="267047769"/>
    <nd ref="14658623"/>
    <nd ref="14658622"/>
    <nd ref="267047574"/>
    <nd ref="60043012"/>
    <tag k="created_by" v="Potlatch 0.9b"/>
    <tag k="highway" v="service"/>
    <tag k="oneway" v="yes"/>
  </way>
  <way id="3997141" version="2" timestamp="2007-10-16T09:03:23Z" uid="7617" user="Franc" changeset="200414">
    <nd ref="12501636"/>
    <nd ref="20959256"/>
    <tag k="created_by" v="JOSM"/>
    <tag k="highway" v="residential"/>
    <tag k="name" v="Hackett Street"/>
    <tag k="oneway" v="yes"/>
  </way>
  <way id="3997141" version="3" timestamp="2008-05-25T00:55:34Z" uid="30201" user="rrankin" changeset="514168">
    <nd ref="12501639"/>
    <nd ref="20959256"/>
    <tag k="created_by" v="JOSM"/>
    <tag k="highway" v="residential"/>
    <tag k="name" v="Hackett Street"/>
    <tag k="oneway" v="yes"/>
  </way>
  <way id="3997142" version="1" timestamp="2007-07-31T07:46:22Z" uid="7617" user="Franc" changeset="180684">
    <nd ref="18373889"/>
    <nd ref="18373886"/>
    <tag k="created_by" v="Potlatch alpha"/>
    <tag k="highway" v="service"/>
    <tag k="name" v="Francis Street"/>
  </way>
  <way id="3997142" version="2" timestamp="2008-08-21T13:15:48Z" uid="7617" user="Franc" changeset="355023">
    <nd ref="18373889"/>
    <nd ref="289906715"/>
    <nd ref="18373886"/>
    <tag k="created_by" v="Potlatch alpha"/>
    <tag k="highway" v="service"/>
    <tag k="name" v="Francis Street"/>
  </way>
  <way id="3997142" version="4" timestamp="2009-12-06T04:00:27Z" uid="7617" user="Franc" changeset="3300392">
    <nd ref="18373889"/>
    <nd ref="582375336"/>
    <nd ref="582375335"/>
    <nd ref="289906715"/>
    <nd ref="18373886"/>
    <tag k="highway" v="service"/>
    <tag k="name" v="Francis Street"/>
  </way>
  <way id="3997142" version="5" timestamp="2010-04-25T07:08:05Z" uid="7617" user="Franc" changeset="4518185">
    <nd ref="18373889"/>
    <nd ref="582375336"/>
    <nd ref="582375335"/>
    <nd ref="289906715"/>
    <nd ref="705792096"/>
    <tag k="highway" v="service"/>
    <tag k="name" v="Francis Street"/>
  </way>
  <way id="3997160" version="12" timestamp="2009-12-14T22:32:31Z" uid="9581" user="Lobelt" changeset="3375986">
    <nd ref="35689254"/>
    <nd ref="500040"/>
    <nd ref="500041"/>
    <nd ref="500042"/>
    <nd ref="10469235"/>
    <nd ref="500046"/>
    <nd ref="500055"/>
    <nd ref="267658500"/>
    <tag k="direction" v="W"/>
    <tag k="highway" v="motorway"/>
    <tag k="int_ref" v="E 50"/>
    <tag k="oneway" v="yes"/>
    <tag k="ref" v="A 6"/>
  </way>
  <way id="3997161" version="4" timestamp="2007-11-18T16:24:18Z" uid="4667" user="MapZ" changeset="557434">
    <nd ref="501686"/>
    <nd ref="501687"/>
    <nd ref="501688"/>
    <nd ref="501689"/>
    <nd ref="501690"/>
    <nd ref="501691"/>
    <nd ref="501692"/>
    <nd ref="501693"/>
    <nd ref="501694"/>
    <nd ref="501695"/>
    <nd ref="501696"/>
    <nd ref="501697"/>
    <nd ref="501699"/>
    <nd ref="501700"/>
    <nd ref="35679526"/>
    <nd ref="501702"/>
    <nd ref="122017854"/>
    <nd ref="501704"/>
    <nd ref="501705"/>
    <nd ref="501706"/>
    <nd ref="501707"/>
    <nd ref="501708"/>
    <nd ref="501709"/>
    <nd ref="501710"/>
    <nd ref="501711"/>
    <nd ref="501712"/>
    <nd ref="501713"/>
    <nd ref="501714"/>
    <nd ref="501715"/>
    <nd ref="94122807"/>
    <tag k="class" v="motorway"/>
    <tag k="created_by" v="JOSM"/>
    <tag k="direction" v="O"/>
    <tag k="highway" v="motorway"/>
    <tag k="int_ref" v="E50"/>
    <tag k="name" v="A6"/>
    <tag k="oneway" v="yes"/>
    <tag k="ref" v="A6"/>
  </way>
  <way id="3997271" version="1" timestamp="2007-08-06T22:29:48Z" uid="8328" user="benpre" changeset="194268">
    <nd ref="20960092"/>
    <nd ref="20960093"/>
    <tag k="created_by" v="JOSM"/>
    <tag k="highway" v="residential"/>
    <tag k="notes" v="No street sign"/>
  </way>
  <way id="3997423" version="7" timestamp="2008-06-22T21:02:50Z" uid="27600" user="Islanit" changeset="261806">
    <nd ref="20960285"/>
    <nd ref="20960283"/>
    <nd ref="248626547"/>
    <nd ref="20960281"/>
    <nd ref="20960279"/>
    <nd ref="248626040"/>
    <nd ref="20960276"/>
    <nd ref="20960274"/>
    <nd ref="25021515"/>
    <nd ref="248626421"/>
    <nd ref="20960272"/>
    <nd ref="253216904"/>
    <nd ref="20960270"/>
    <nd ref="20960268"/>
    <nd ref="20960266"/>
    <nd ref="253218148"/>
    <nd ref="20428395"/>
    <tag k="created_by" v="Potlatch 0.7b"/>
    <tag k="highway" v="primary"/>
    <tag k="name" v="Kieler Strae"/>
    <tag k="nat_name" v="B4"/>
  </way>
  <way id="3997576" version="13" timestamp="2008-05-17T16:12:30Z" uid="27600" user="Islanit" changeset="468393">
    <nd ref="81558313"/>
    <nd ref="81558312"/>
    <nd ref="26015165"/>
    <nd ref="60447084"/>
    <nd ref="92698761"/>
    <nd ref="249675446"/>
    <nd ref="26015173"/>
    <nd ref="207119632"/>
    <nd ref="25717551"/>
    <nd ref="21303103"/>
    <nd ref="32218789"/>
    <nd ref="249675435"/>
    <nd ref="249675436"/>
    <nd ref="25728057"/>
    <nd ref="21303102"/>
    <nd ref="32218802"/>
    <nd ref="21303101"/>
    <nd ref="25717548"/>
    <nd ref="25717547"/>
    <nd ref="21303100"/>
    <nd ref="21654054"/>
    <nd ref="258081524"/>
    <nd ref="20974427"/>
    <nd ref="258081526"/>
    <nd ref="258081527"/>
    <nd ref="258080407"/>
    <nd ref="25717546"/>
    <nd ref="258080408"/>
    <nd ref="89227515"/>
    <nd ref="20974424"/>
    <nd ref="20984245"/>
    <nd ref="20974422"/>
    <nd ref="258080569"/>
    <nd ref="20984246"/>
    <nd ref="258080710"/>
    <nd ref="20984248"/>
    <nd ref="258080711"/>
    <nd ref="258080712"/>
    <nd ref="20984250"/>
    <nd ref="258080713"/>
    <nd ref="258080715"/>
    <nd ref="258080716"/>
    <nd ref="20984252"/>
    <nd ref="258080717"/>
    <nd ref="20984254"/>
    <nd ref="240096221"/>
    <tag k="created_by" v="Potlatch 0.8a"/>
    <tag k="highway" v="primary"/>
    <tag k="name" v="Kollaustrae; Friedrich-Ebert-Strae"/>
    <tag k="ref" v="B447"/>
  </way>
  <way id="3997587" version="11" timestamp="2009-01-08T17:04:50Z" uid="27600" user="Islanit" changeset="756647">
    <nd ref="16568030"/>
    <nd ref="330251105"/>
    <nd ref="288258974"/>
    <nd ref="20962158"/>
    <nd ref="89419518"/>
    <nd ref="20962156"/>
    <tag k="created_by" v="Potlatch 0.10f"/>
    <tag k="highway" v="primary"/>
    <tag k="name" v="Hoheluftchaussee"/>
    <tag k="postal_code" v="20253"/>
  </way>
  <way id="3997587" version="12" timestamp="2009-01-08T17:06:11Z" uid="27600" user="Islanit" changeset="756647">
    <nd ref="16568030"/>
    <nd ref="330251105"/>
    <nd ref="288258974"/>
    <nd ref="20962158"/>
    <nd ref="330251553"/>
    <nd ref="20962157"/>
    <nd ref="89419518"/>
    <nd ref="20962156"/>
    <tag k="created_by" v="Potlatch 0.10f"/>
    <tag k="highway" v="primary"/>
    <tag k="name" v="Hoheluftchaussee"/>
    <tag k="postal_code" v="20253"/>
  </way>
  <way id="3997614" version="2" timestamp="2008-05-17T16:12:30Z" uid="27600" user="Islanit" changeset="468393">
    <nd ref="20962221"/>
    <nd ref="20962230"/>
    <nd ref="20962231"/>
    <nd ref="31035093"/>
    <nd ref="20962233"/>
    <nd ref="31324968"/>
    <nd ref="20962242"/>
    <nd ref="20962243"/>
    <tag k="created_by" v="Cnud Grevenitz"/>
    <tag k="highway" v="secondary"/>
    <tag k="name" v="Spreenende"/>
  </way>
  <way id="3997776" version="7" timestamp="2010-06-29T20:48:56Z" uid="74617" user="JohnSmith" changeset="5109183">
    <nd ref="20963333"/>
    <nd ref="20963278"/>
    <nd ref="298075478"/>
    <nd ref="20963109"/>
    <nd ref="298075479"/>
    <nd ref="20963314"/>
    <nd ref="298037078"/>
    <nd ref="298037061"/>
    <nd ref="298037079"/>
    <nd ref="298037063"/>
    <nd ref="20963333"/>
    <tag k="fixme" v="sport=rugby is ambiguous, see http://wiki.osm.org/wiki/Tag:sport%3Drugby for more details"/>
    <tag k="leisure" v="pitch"/>
    <tag k="name" v="Cambridge RUFC"/>
    <tag k="sport" v="rugby"/>
  </way>
  <way id="3997975" version="4" timestamp="2008-06-23T18:56:44Z" uid="27600" user="Islanit" changeset="274556">
    <nd ref="20929652"/>
    <nd ref="20929651"/>
    <nd ref="20929649"/>
    <nd ref="20929648"/>
    <nd ref="82712123"/>
    <nd ref="20929641"/>
    <nd ref="20929639"/>
    <nd ref="20929637"/>
    <nd ref="269606116"/>
    <nd ref="20929635"/>
    <nd ref="20929632"/>
    <nd ref="20929631"/>
    <nd ref="20929630"/>
    <nd ref="20929629"/>
    <nd ref="29877058"/>
    <nd ref="20929628"/>
    <nd ref="20929627"/>
    <nd ref="20929498"/>
    <nd ref="26755044"/>
    <nd ref="20929625"/>
    <nd ref="20929624"/>
    <nd ref="20929497"/>
    <nd ref="31607203"/>
    <nd ref="26853864"/>
    <nd ref="20929621"/>
    <nd ref="20929496"/>
    <nd ref="20929495"/>
    <nd ref="20929494"/>
    <tag k="created_by" v="JOSM"/>
    <tag k="highway" v="primary"/>
    <tag k="lanes" v="2"/>
    <tag k="name" v="Grabenstrae"/>
    <tag k="oneway" v="yes"/>
  </way>
  <way id="3997977" version="4" timestamp="2008-06-23T18:56:41Z" uid="27600" user="Islanit" changeset="274556">
    <nd ref="20929499"/>
    <nd ref="29877059"/>
    <nd ref="20929500"/>
    <nd ref="20929501"/>
    <nd ref="20929502"/>
    <nd ref="20929633"/>
    <nd ref="20929640"/>
    <nd ref="20929634"/>
    <nd ref="269606118"/>
    <nd ref="20929636"/>
    <nd ref="20929638"/>
    <nd ref="20929642"/>
    <nd ref="82712125"/>
    <nd ref="269606136"/>
    <nd ref="20929645"/>
    <nd ref="20929646"/>
    <nd ref="20929650"/>
    <nd ref="20929652"/>
    <tag k="created_by" v="JOSM"/>
    <tag k="highway" v="primary"/>
    <tag k="lanes" v="2"/>
    <tag k="name" v="Grabenstrae"/>
    <tag k="oneway" v="yes"/>
  </way>
  <way id="3997981" version="6" timestamp="2008-06-23T18:56:41Z" uid="27600" user="Islanit" changeset="274556">
    <nd ref="20929712"/>
    <nd ref="20929707"/>
    <nd ref="20929705"/>
    <nd ref="20929702"/>
    <nd ref="20929704"/>
    <nd ref="269015454"/>
    <nd ref="20929703"/>
    <nd ref="20929700"/>
    <nd ref="20929698"/>
    <nd ref="20929697"/>
    <nd ref="20929696"/>
    <nd ref="20929695"/>
    <nd ref="20929694"/>
    <nd ref="20929692"/>
    <nd ref="268887730"/>
    <nd ref="20929691"/>
    <nd ref="20929690"/>
    <nd ref="20929689"/>
    <nd ref="268887746"/>
    <nd ref="20929688"/>
    <nd ref="20929687"/>
    <nd ref="268887750"/>
    <nd ref="20929685"/>
    <nd ref="20929684"/>
    <nd ref="20929683"/>
    <nd ref="20929682"/>
    <nd ref="20929681"/>
    <nd ref="20929680"/>
    <nd ref="270472901"/>
    <nd ref="20929679"/>
    <nd ref="268773184"/>
    <nd ref="20929678"/>
    <nd ref="268887751"/>
    <nd ref="20929677"/>
    <nd ref="20929676"/>
    <nd ref="20929675"/>
    <nd ref="20929674"/>
    <nd ref="20929673"/>
    <nd ref="20929672"/>
    <nd ref="20929671"/>
    <nd ref="20929670"/>
    <nd ref="20929669"/>
    <nd ref="20929668"/>
    <nd ref="20929665"/>
    <tag k="created_by" v="JOSM"/>
    <tag k="highway" v="primary"/>
    <tag k="name" v="Radegunder Strae"/>
  </way>
</osm>
