<?xml version='1.0' encoding='UTF-8'?>
<osm version="0.6" generator="libosmium/2.20.0">
  <way id="39995088" version="3" timestamp="2010-07-06T18:40:17Z" uid="74617" user="JohnSmith" changeset="5152225">
    <nd ref="480621724"/>
    <nd ref="480621726"/>
    <tag k="highway" v="residential"/>
    <tag k="maxspeed" v="50"/>
    <tag k="maxspeed:source" v="default residential speed limit in Australia"/>
    <tag k="name" v="Bussian Street"/>
  </way>
  <way id="39995089" version="3" timestamp="2010-07-06T18:41:09Z" uid="74617" user="JohnSmith" changeset="5152225">
    <nd ref="480621727"/>
    <nd ref="480621729"/>
    <tag k="highway" v="residential"/>
    <tag k="maxspeed" v="50"/>
    <tag k="maxspeed:source" v="default residential speed limit in Australia"/>
    <tag k="name" v="Miller Street"/>
  </way>
  <way id="39995090" version="3" timestamp="2010-07-06T18:38:08Z" uid="74617" user="JohnSmith" changeset="5152225">
    <nd ref="480621731"/>
    <nd ref="480621733"/>
    <tag k="highway" v="residential"/>
    <tag k="maxspeed" v="50"/>
    <tag k="maxspeed:source" v="default residential speed limit in Australia"/>
    <tag k="name" v="Eileen Street"/>
  </way>
  <way id="39995092" version="3" timestamp="2010-07-06T18:35:41Z" uid="74617" user="JohnSmith" changeset="5152225">
    <nd ref="480621736"/>
    <nd ref="480621731"/>
    <nd ref="480621737"/>
    <tag k="highway" v="residential"/>
    <tag k="maxspeed" v="50"/>
    <tag k="maxspeed:source" v="default residential speed limit in Australia"/>
    <tag k="name" v="Moyna Street"/>
  </way>
  <way id="39995093" version="2" timestamp="2010-07-06T18:37:02Z" uid="74617" user="JohnSmith" changeset="5152225">
    <nd ref="480621751"/>
    <nd ref="480621749"/>
    <tag k="highway" v="residential"/>
    <tag k="maxspeed" v="50"/>
    <tag k="maxspeed:source" v="default residential speed limit in Australia"/>
    <tag k="name" v="Barden Court"/>
  </way>
  <way id="39995515" version="4" timestamp="2010-04-04T01:24:30Z" uid="20587" user="balrog-kun" changeset="4318136">
    <nd ref="480623450"/>
    <nd ref="480624793"/>
    <tag k="bridge" v="yes"/>
    <tag k="highway" v="secondary"/>
    <tag k="layer" v="1"/>
    <tag k="name" v="Sheridan Boulevard"/>
    <tag k="name_1" v="State Highway 95"/>
    <tag k="ref" v="CO 95"/>
    <tag k="tiger:cfcc" v="A31"/>
    <tag k="tiger:county" v="Denver, CO"/>
    <tag k="tiger:name_base" v="Sheridan"/>
    <tag k="tiger:name_base_1" v="State Highway 95"/>
    <tag k="tiger:name_type" v="Blvd"/>
    <tag k="tiger:reviewed" v="yes"/>
    <tag k="tiger:separated" v="no"/>
    <tag k="tiger:source" v="tiger_import_dch_v0.6_20070809"/>
    <tag k="tiger:tlid" v="177389509:177396309:177298236:177298239:177298242:177629517:177629518:177622951:177622952:177622953:177622954:177622955:177622956:177622957:177622958:177622959:177622960:177622961:177622962:177622963:177622964:177622965:177622966:177622967:177622968:17762"/>
    <tag k="tiger:zip_left" v="80212"/>
    <tag k="tiger:zip_right" v="80212"/>
  </way>
  <way id="39995971" version="4" timestamp="2010-04-04T01:24:30Z" uid="20587" user="balrog-kun" changeset="4318136">
    <nd ref="480624793"/>
    <nd ref="176071113"/>
    <nd ref="176071016"/>
    <nd ref="176071117"/>
    <nd ref="176071119"/>
    <nd ref="176071121"/>
    <nd ref="176071123"/>
    <nd ref="176071125"/>
    <nd ref="176071127"/>
    <nd ref="176071129"/>
    <nd ref="176071131"/>
    <nd ref="176071133"/>
    <nd ref="176071136"/>
    <tag k="highway" v="secondary"/>
    <tag k="name" v="Sheridan Boulevard"/>
    <tag k="name_1" v="State Highway 95"/>
    <tag k="ref" v="CO 95"/>
    <tag k="tiger:cfcc" v="A31"/>
    <tag k="tiger:county" v="Denver, CO"/>
    <tag k="tiger:name_base" v="Sheridan"/>
    <tag k="tiger:name_base_1" v="State Highway 95"/>
    <tag k="tiger:name_type" v="Blvd"/>
    <tag k="tiger:reviewed" v="yes"/>
    <tag k="tiger:separated" v="no"/>
    <tag k="tiger:source" v="tiger_import_dch_v0.6_20070809"/>
    <tag k="tiger:tlid" v="177389509:177396309:177298236:177298239:177298242:177629517:177629518:177622951:177622952:177622953:177622954:177622955:177622956:177622957:177622958:177622959:177622960:177622961:177622962:177622963:177622964:177622965:177622966:177622967:177622968:17762"/>
    <tag k="tiger:zip_left" v="80212"/>
    <tag k="tiger:zip_right" v="80212"/>
  </way>
</osm>
