<?xml version='1.0' encoding='UTF-8'?>
<osm version="0.6" generator="libosmium/2.20.0">
  <way id="40041507" version="2" timestamp="2009-09-05T01:16:28Z" uid="61114" user="Trav" changeset="2375989">
    <nd ref="481557236"/>
    <nd ref="481557241"/>
    <tag k="highway" v="residential"/>
    <tag k="name" v="Curtis Street"/>
  </way>
  <way id="40041507" version="3" timestamp="2010-07-08T01:36:28Z" uid="74617" user="JohnSmith" changeset="5162525">
    <nd ref="481557236"/>
    <nd ref="481557241"/>
    <tag k="highway" v="residential"/>
    <tag k="maxspeed" v="50"/>
    <tag k="maxspeed:source" v="default residential speed limit in Australia"/>
    <tag k="name" v="Curtis Street"/>
  </way>
  <way id="40041508" version="2" timestamp="2009-09-05T01:16:25Z" uid="61114" user="Trav" changeset="2375989">
    <nd ref="481557249"/>
    <nd ref="481557252"/>
    <nd ref="481557255"/>
    <nd ref="481557257"/>
    <nd ref="480692298"/>
    <tag k="highway" v="residential"/>
    <tag k="name" v="Celia Road"/>
  </way>
  <way id="40041508" version="3" timestamp="2010-07-07T23:12:26Z" uid="74617" user="JohnSmith" changeset="5162525">
    <nd ref="481557249"/>
    <nd ref="481557252"/>
    <nd ref="481557255"/>
    <nd ref="481557257"/>
    <nd ref="480692298"/>
    <tag k="highway" v="residential"/>
    <tag k="maxspeed" v="50"/>
    <tag k="maxspeed:source" v="default residential speed limit in Australia"/>
    <tag k="name" v="Celia Road"/>
  </way>
  <way id="40041508" version="4" timestamp="2011-03-03T11:25:24Z" uid="7617" user="Franc" changeset="7444937">
    <nd ref="481557249"/>
    <nd ref="481557252"/>
    <nd ref="1184225087"/>
    <nd ref="481557255"/>
    <nd ref="1184225091"/>
    <nd ref="481557257"/>
    <nd ref="480692298"/>
    <tag k="highway" v="residential"/>
    <tag k="maxspeed" v="50"/>
    <tag k="maxspeed:source" v="default residential speed limit in Australia"/>
    <tag k="name" v="Celia Road"/>
  </way>
  <way id="40041517" version="2" timestamp="2009-12-22T23:00:56Z" uid="30201" user="rrankin" changeset="3430950">
    <nd ref="481557275"/>
    <nd ref="481557278"/>
    <nd ref="481557282"/>
    <nd ref="481557285"/>
    <nd ref="481557290"/>
    <nd ref="481557293"/>
    <nd ref="481557296"/>
    <nd ref="481557299"/>
    <nd ref="481557303"/>
    <nd ref="481557313"/>
    <nd ref="481557315"/>
    <nd ref="481557252"/>
    <tag k="highway" v="residential"/>
    <tag k="name" v="Ross Place"/>
  </way>
  <way id="40041517" version="3" timestamp="2010-07-07T23:09:57Z" uid="74617" user="JohnSmith" changeset="5162525">
    <nd ref="481557275"/>
    <nd ref="481557278"/>
    <nd ref="481557282"/>
    <nd ref="481557285"/>
    <nd ref="481557290"/>
    <nd ref="481557293"/>
    <nd ref="481557296"/>
    <nd ref="481557299"/>
    <nd ref="481557303"/>
    <nd ref="481557313"/>
    <nd ref="481557315"/>
    <nd ref="481557252"/>
    <tag k="highway" v="residential"/>
    <tag k="maxspeed" v="50"/>
    <tag k="maxspeed:source" v="default residential speed limit in Australia"/>
    <tag k="name" v="Ross Place"/>
  </way>
  <way id="40041537" version="2" timestamp="2009-09-05T01:16:32Z" uid="61114" user="Trav" changeset="2375989">
    <nd ref="481557385"/>
    <nd ref="481557388"/>
    <nd ref="481557400"/>
    <nd ref="481557406"/>
    <nd ref="246492296"/>
    <tag k="highway" v="residential"/>
    <tag k="name" v="Fourtune Grove"/>
  </way>
  <way id="40041537" version="3" timestamp="2009-12-28T12:05:15Z" uid="61114" user="Trav" changeset="3470690">
    <nd ref="481557385"/>
    <nd ref="481557388"/>
    <nd ref="600355644"/>
    <tag k="highway" v="residential"/>
    <tag k="name" v="Fourtune Grove"/>
    <tag k="source:name" v="extrapolation"/>
  </way>
</osm>
