<?xml version='1.0' encoding='UTF-8'?>
<osm version="0.6" generator="libosmium/2.20.0">
  <way id="40058844" version="3" timestamp="2010-07-06T18:41:12Z" uid="74617" user="JohnSmith" changeset="5152225">
    <nd ref="482017016"/>
    <nd ref="482017017"/>
    <nd ref="482017019"/>
    <nd ref="482017020"/>
    <nd ref="482017021"/>
    <tag k="highway" v="residential"/>
    <tag k="maxspeed" v="50"/>
    <tag k="maxspeed:source" v="default residential speed limit in Australia"/>
    <tag k="name" v="Stenner Street"/>
  </way>
  <way id="40058846" version="4" timestamp="2010-07-06T18:39:24Z" uid="74617" user="JohnSmith" changeset="5152225">
    <nd ref="510035749"/>
    <nd ref="530907263"/>
    <nd ref="482017024"/>
    <tag k="highway" v="residential"/>
    <tag k="maxspeed" v="50"/>
    <tag k="maxspeed:source" v="default residential speed limit in Australia"/>
    <tag k="name" v="Thiess Street"/>
  </way>
  <way id="40058847" version="4" timestamp="2010-07-06T18:40:21Z" uid="74617" user="JohnSmith" changeset="5152225">
    <nd ref="482017027"/>
    <nd ref="530907251"/>
    <nd ref="482017020"/>
    <tag k="highway" v="residential"/>
    <tag k="maxspeed" v="50"/>
    <tag k="maxspeed:source" v="default residential speed limit in Australia"/>
    <tag k="name" v="Sowden Street"/>
  </way>
  <way id="40058849" version="3" timestamp="2010-07-06T18:40:38Z" uid="74617" user="JohnSmith" changeset="5152225">
    <nd ref="482017030"/>
    <nd ref="482017031"/>
    <tag k="highway" v="residential"/>
    <tag k="maxspeed" v="50"/>
    <tag k="maxspeed:source" v="default residential speed limit in Australia"/>
    <tag k="name" v="Brittle Street"/>
  </way>
  <way id="40058852" version="3" timestamp="2010-07-06T18:34:57Z" uid="74617" user="JohnSmith" changeset="5152225">
    <nd ref="482017032"/>
    <nd ref="482017034"/>
    <tag k="highway" v="residential"/>
    <tag k="maxspeed" v="50"/>
    <tag k="maxspeed:source" v="default residential speed limit in Australia"/>
    <tag k="name" v="Boothby Street"/>
  </way>
  <way id="40058876" version="3" timestamp="2010-07-06T18:40:41Z" uid="74617" user="JohnSmith" changeset="5152225">
    <nd ref="482017054"/>
    <nd ref="482017021"/>
    <tag k="highway" v="residential"/>
    <tag k="maxspeed" v="50"/>
    <tag k="maxspeed:source" v="default residential speed limit in Australia"/>
    <tag k="name" v="Murdock Street"/>
  </way>
</osm>
