<?xml version='1.0' encoding='UTF-8'?>
<osm version="0.6" generator="libosmium/2.20.0">
  <way id="4009020" version="4" timestamp="2008-07-15T01:52:27Z" uid="6975" user="ulfl" changeset="496348">
    <nd ref="378891"/>
    <nd ref="21151083"/>
    <nd ref="378894"/>
    <nd ref="21151080"/>
    <nd ref="378893"/>
    <nd ref="21151081"/>
    <nd ref="378929"/>
    <nd ref="21151082"/>
    <nd ref="378891"/>
    <tag k="highway" v="primary"/>
    <tag k="junction" v="roundabout"/>
    <tag k="maxspeed" v="96"/>
    <tag k="note" v="THIS IS NOT TRUNK - please do not tag as such"/>
  </way>
  <way id="4009153" version="5" timestamp="2008-12-24T03:53:31Z" uid="26515" user="Simon Ward" changeset="580694">
    <nd ref="21154161"/>
    <nd ref="302637857"/>
    <nd ref="276732454"/>
    <nd ref="21154151"/>
    <nd ref="300363017"/>
    <nd ref="300362993"/>
    <nd ref="300363135"/>
    <nd ref="300362995"/>
    <nd ref="300363152"/>
    <nd ref="300362998"/>
    <nd ref="300363156"/>
    <nd ref="21154152"/>
    <nd ref="300626682"/>
    <nd ref="21154156"/>
    <nd ref="300626684"/>
    <tag k="created_by" v="JOSM"/>
    <tag k="highway" v="primary"/>
    <tag k="lanes" v="3"/>
    <tag k="lit" v="yes"/>
    <tag k="name" v="Wakefield Road"/>
    <tag k="oneway" v="true"/>
    <tag k="ref" v="A650"/>
  </way>
  <way id="4009453" version="2" timestamp="2008-08-01T14:31:30Z" uid="36809" user="pfoten_weg_!_" changeset="8482">
    <nd ref="21164568"/>
    <nd ref="21164570"/>
    <nd ref="21164572"/>
    <tag k="created_by" v="Potlatch 0.10b"/>
    <tag k="highway" v="residential"/>
    <tag k="name" v="Hauzenberger Straße"/>
  </way>
  <way id="4009453" version="3" timestamp="2008-08-01T14:31:58Z" uid="36809" user="pfoten_weg_!_" changeset="8482">
    <nd ref="279116258"/>
    <nd ref="282701093"/>
    <nd ref="282700567"/>
    <nd ref="282701094"/>
    <nd ref="21164570"/>
    <nd ref="21164572"/>
    <tag k="created_by" v="Potlatch 0.10b"/>
    <tag k="highway" v="residential"/>
    <tag k="name" v="Hauzenberger Straße"/>
  </way>
  <way id="4009453" version="6" timestamp="2009-03-22T23:03:43Z" uid="36809" user="pfoten_weg_!_" changeset="848256">
    <nd ref="279116258"/>
    <nd ref="364847956"/>
    <nd ref="282701093"/>
    <nd ref="282700567"/>
    <nd ref="282701094"/>
    <nd ref="332095581"/>
    <nd ref="21164570"/>
    <nd ref="21164572"/>
    <tag k="created_by" v="Potlatch 0.10b"/>
    <tag k="highway" v="residential"/>
    <tag k="name" v="Hauzenberger Straße"/>
  </way>
  <way id="4009460" version="5" timestamp="2008-07-17T11:22:33Z" uid="36809" user="pfoten_weg_!_" changeset="514716">
    <nd ref="21135734"/>
    <nd ref="27479540"/>
    <nd ref="247025065"/>
    <nd ref="21135736"/>
    <tag k="created_by" v="Potlatch 0.9c"/>
    <tag k="cycleway" v="track"/>
    <tag k="highway" v="secondary"/>
    <tag k="name" v="Tübinger Straße"/>
    <tag k="oneway" v="true"/>
  </way>
  <way id="4009460" version="6" timestamp="2008-07-17T11:23:49Z" uid="36809" user="pfoten_weg_!_" changeset="514716">
    <nd ref="21135734"/>
    <nd ref="27479540"/>
    <nd ref="247025065"/>
    <nd ref="21135736"/>
    <tag k="created_by" v="Potlatch 0.9c"/>
    <tag k="cycleway" v="track"/>
    <tag k="highway" v="secondary"/>
    <tag k="name" v="Tübinger Straße"/>
    <tag k="oneway" v="true"/>
  </way>
  <way id="4009460" version="7" timestamp="2008-07-17T11:35:41Z" uid="36809" user="pfoten_weg_!_" changeset="514716">
    <nd ref="21135734"/>
    <nd ref="279116993"/>
    <nd ref="27479540"/>
    <nd ref="247025065"/>
    <nd ref="21135736"/>
    <tag k="created_by" v="Potlatch 0.9c"/>
    <tag k="cycleway" v="track"/>
    <tag k="highway" v="secondary"/>
    <tag k="name" v="Tübinger Straße"/>
    <tag k="oneway" v="true"/>
  </way>
  <way id="4009460" version="10" timestamp="2009-03-22T23:03:47Z" uid="36809" user="pfoten_weg_!_" changeset="848256">
    <nd ref="21135734"/>
    <nd ref="364847873"/>
    <nd ref="279116993"/>
    <nd ref="27479540"/>
    <nd ref="362763925"/>
    <nd ref="247025065"/>
    <nd ref="21135736"/>
    <tag k="created_by" v="Potlatch 0.9c"/>
    <tag k="cycleway" v="track"/>
    <tag k="highway" v="secondary"/>
    <tag k="name" v="Tübinger Straße"/>
    <tag k="oneway" v="yes"/>
  </way>
  <way id="4009460" version="11" timestamp="2009-03-22T23:15:43Z" uid="36809" user="pfoten_weg_!_" changeset="848256"/>
</osm>
