<?xml version='1.0' encoding='UTF-8'?>
<osm version="0.6" generator="libosmium/2.20.0">
  <way id="40161081" version="5" timestamp="2010-01-13T16:29:53Z" uid="115477" user="wowik" changeset="3611023">
    <nd ref="483606777"/>
    <nd ref="483606774"/>
    <nd ref="612996960"/>
    <nd ref="483606771"/>
    <nd ref="483606769"/>
    <nd ref="483606759"/>
    <nd ref="483606758"/>
    <nd ref="483606757"/>
    <tag k="addr:postcode" v="119334"/>
    <tag k="cladr:code" v="77000000000133600"/>
    <tag k="cladr:name" v="Академика Зелинского"/>
    <tag k="cladr:suffix" v="Улица"/>
    <tag k="highway" v="tertiary"/>
    <tag k="name" v="улица Академика Зелинского"/>
    <tag k="omkum:code" v="08060"/>
    <tag k="oneway" v="yes"/>
    <tag k="sorting_name" v="Зелинского  Академика  улица"/>
  </way>
  <way id="40161081" version="6" timestamp="2010-01-26T08:55:28Z" uid="115477" user="wowik" changeset="3717595">
    <nd ref="483606777"/>
    <nd ref="483606774"/>
    <nd ref="612996960"/>
    <nd ref="483606771"/>
    <nd ref="483606769"/>
    <nd ref="483606759"/>
    <nd ref="483606758"/>
    <nd ref="620424282"/>
    <nd ref="483606757"/>
    <tag k="addr:postcode" v="119334"/>
    <tag k="cladr:code" v="77000000000133600"/>
    <tag k="cladr:name" v="Академика Зелинского"/>
    <tag k="cladr:suffix" v="Улица"/>
    <tag k="highway" v="tertiary"/>
    <tag k="name" v="улица Академика Зелинского"/>
    <tag k="omkum:code" v="08060"/>
    <tag k="oneway" v="yes"/>
    <tag k="sorting_name" v="Зелинского  Академика  улица"/>
  </way>
  <way id="40161207" version="4" timestamp="2010-10-09T18:09:08Z" uid="9581" user="Lobelt" changeset="5995663">
    <nd ref="304796891"/>
    <nd ref="304796892"/>
    <nd ref="304796893"/>
    <nd ref="922837045"/>
    <nd ref="304796894"/>
    <nd ref="304796895"/>
    <nd ref="304796896"/>
    <nd ref="672481893"/>
    <nd ref="296385793"/>
    <tag k="highway" v="residential"/>
    <tag k="name" v="An der Krümme"/>
    <tag k="surface" v="asphalt"/>
    <tag k="width" v="4"/>
  </way>
  <way id="40161587" version="2" timestamp="2010-03-28T19:06:33Z" uid="1066" user="pavel" changeset="4260798">
    <nd ref="483608755"/>
    <nd ref="676901184"/>
    <nd ref="483608772"/>
    <nd ref="483608758"/>
    <tag k="highway" v="service"/>
  </way>
</osm>
