<?xml version='1.0' encoding='UTF-8'?>
<osm version="0.6" generator="libosmium/2.20.0">
  <way id="40336227" version="5" timestamp="2011-01-16T08:31:00Z" uid="4467" user="Rosscoe" changeset="6984863">
    <nd ref="486819399"/>
    <nd ref="688796684"/>
    <nd ref="688796685"/>
    <nd ref="688796688"/>
    <nd ref="688796690"/>
    <nd ref="688796692"/>
    <nd ref="688796638"/>
    <nd ref="688796694"/>
    <tag k="highway" v="residential"/>
    <tag k="name" v="Gun Club Road"/>
    <tag k="source" v="survey"/>
    <tag k="survey" v="GPS"/>
  </way>
  <way id="40336348" version="3" timestamp="2010-06-01T08:09:15Z" uid="4467" user="Rosscoe" changeset="4872520">
    <nd ref="485368070"/>
    <nd ref="485368071"/>
    <nd ref="485368076"/>
    <nd ref="485368078"/>
    <nd ref="485368081"/>
    <nd ref="485368143"/>
    <nd ref="485368083"/>
    <nd ref="688774756"/>
    <nd ref="486824839"/>
    <tag k="highway" v="residential"/>
    <tag k="name" v="Rudall Avenue"/>
    <tag k="source" v="GPS"/>
  </way>
  <way id="40336349" version="4" timestamp="2010-06-01T13:59:40Z" uid="4467" user="Rosscoe" changeset="4874805">
    <nd ref="485368070"/>
    <nd ref="486824860"/>
    <nd ref="688778721"/>
    <nd ref="303893016"/>
    <tag k="highway" v="residential"/>
    <tag k="name" v="Warman Avenue"/>
  </way>
  <way id="40336419" version="2" timestamp="2010-04-04T21:48:02Z" uid="74617" user="JohnSmith" changeset="4327637">
    <nd ref="486834342"/>
    <nd ref="278377947"/>
    <tag k="bridge" v="yes"/>
    <tag k="highway" v="trunk"/>
    <tag k="maxspeed" v="100"/>
    <tag k="name" v="Western Highway"/>
  </way>
  <way id="40336419" version="3" timestamp="2010-07-25T22:50:11Z" uid="4467" user="Rosscoe" changeset="5317371">
    <nd ref="486834342"/>
    <nd ref="278377947"/>
    <tag k="bridge" v="yes"/>
    <tag k="highway" v="trunk"/>
    <tag k="layer" v="1"/>
    <tag k="maxspeed" v="100"/>
    <tag k="name" v="Western Highway"/>
  </way>
  <way id="40336420" version="2" timestamp="2010-04-04T21:48:02Z" uid="74617" user="JohnSmith" changeset="4327637">
    <nd ref="278377947"/>
    <nd ref="36406281"/>
    <nd ref="36406282"/>
    <nd ref="36406283"/>
    <tag k="highway" v="trunk"/>
    <tag k="maxspeed" v="100"/>
    <tag k="name" v="Western Highway"/>
  </way>
  <way id="40336449" version="2" timestamp="2009-09-24T18:07:36Z" uid="176536" user="555a-ba" changeset="2608499">
    <nd ref="14834596"/>
    <nd ref="60960809"/>
    <nd ref="14834597"/>
    <nd ref="14834598"/>
    <nd ref="14834599"/>
    <nd ref="14834600"/>
    <nd ref="14834601"/>
    <nd ref="14834602"/>
    <nd ref="14834604"/>
    <nd ref="14834605"/>
    <nd ref="14834606"/>
    <nd ref="14834608"/>
    <nd ref="14834609"/>
    <nd ref="14834610"/>
    <nd ref="89155721"/>
    <nd ref="25680413"/>
    <tag k="brigde" v="yes"/>
    <tag k="highway" v="motorway"/>
    <tag k="int_ref" v="E 35"/>
    <tag k="nat_ref" v="A2"/>
    <tag k="oneway" v="yes"/>
    <tag k="ref" v="A2"/>
  </way>
  <way id="40336456" version="2" timestamp="2009-09-24T18:07:36Z" uid="176536" user="555a-ba" changeset="2608499">
    <nd ref="86004365"/>
    <nd ref="86004368"/>
    <nd ref="86004405"/>
    <nd ref="86004409"/>
    <nd ref="86004413"/>
    <nd ref="86004415"/>
    <nd ref="449848641"/>
    <nd ref="86004437"/>
    <nd ref="86004438"/>
    <nd ref="86004439"/>
    <tag k="brigde" v="yes"/>
    <tag k="highway" v="motorway"/>
    <tag k="int_ref" v="E 35"/>
    <tag k="nat_ref" v="A2"/>
    <tag k="note" v="only this site of the motorway is a tunnel!"/>
    <tag k="oneway" v="true"/>
    <tag k="ref" v="A2"/>
    <tag k="tunnel" v="yes"/>
  </way>
  <way id="40336457" version="4" timestamp="2010-03-28T10:19:27Z" uid="20587" user="balrog-kun" changeset="4254597">
    <nd ref="486836721"/>
    <nd ref="486836720"/>
    <nd ref="486901398"/>
    <nd ref="486836719"/>
    <nd ref="486836718"/>
    <nd ref="486836717"/>
    <nd ref="486836716"/>
    <nd ref="486836715"/>
    <nd ref="486836714"/>
    <nd ref="486836713"/>
    <nd ref="486836712"/>
    <nd ref="486836711"/>
    <nd ref="486836710"/>
    <nd ref="486836708"/>
    <tag k="highway" v="residential"/>
    <tag k="name" v="Southwood Drive"/>
    <tag k="note" v="Does not map full length of street"/>
  </way>
  <way id="40336475" version="2" timestamp="2010-04-04T21:48:01Z" uid="74617" user="JohnSmith" changeset="4327637">
    <nd ref="486839389"/>
    <nd ref="278377940"/>
    <nd ref="486839402"/>
    <nd ref="36406269"/>
    <nd ref="486839425"/>
    <nd ref="36406270"/>
    <nd ref="486839466"/>
    <nd ref="36406271"/>
    <nd ref="36406272"/>
    <nd ref="36406273"/>
    <nd ref="36406274"/>
    <nd ref="36406275"/>
    <nd ref="36406276"/>
    <nd ref="36406277"/>
    <nd ref="36406278"/>
    <nd ref="486834533"/>
    <nd ref="36406279"/>
    <nd ref="486834481"/>
    <nd ref="486834464"/>
    <nd ref="36406280"/>
    <nd ref="486834412"/>
    <nd ref="486834342"/>
    <tag k="highway" v="trunk"/>
    <tag k="maxspeed" v="100"/>
    <tag k="name" v="Western Highway"/>
  </way>
  <way id="40336477" version="2" timestamp="2010-04-04T21:48:01Z" uid="74617" user="JohnSmith" changeset="4327637">
    <nd ref="486839370"/>
    <nd ref="486839389"/>
    <tag k="bridge" v="yes"/>
    <tag k="highway" v="trunk"/>
    <tag k="maxspeed" v="100"/>
    <tag k="name" v="Western Highway"/>
  </way>
  <way id="40336477" version="3" timestamp="2010-07-25T22:50:13Z" uid="4467" user="Rosscoe" changeset="5317371">
    <nd ref="486839370"/>
    <nd ref="486839389"/>
    <tag k="bridge" v="yes"/>
    <tag k="highway" v="trunk"/>
    <tag k="layer" v="1"/>
    <tag k="maxspeed" v="100"/>
    <tag k="name" v="Western Highway"/>
  </way>
</osm>
