<?xml version='1.0' encoding='UTF-8'?>
<osm version="0.6" generator="libosmium/2.20.0">
  <way id="40597469" version="3" timestamp="2009-12-07T00:13:58Z" uid="200463" user="harmagedon" changeset="3311752">
    <nd ref="327780357"/>
    <nd ref="327779962"/>
    <tag k="addr:postcode" v="4910"/>
    <tag k="at:maxspeed" v="Ortsgebiet"/>
    <tag k="fixme" v="check import"/>
    <tag k="highway" v="residential"/>
    <tag k="is_in" v="...,Bezirk Ried im Innkreis,Oberösterreich,Österreich,Europa"/>
    <tag k="name" v="Am Stadion"/>
    <tag k="note" v="imported from plan.at; (C)=CC-by-sa or oDBL; feel free to change if necessary"/>
    <tag k="plan_at:acad_id" v="ri4F4"/>
    <tag k="source" v="plan.at 2009"/>
  </way>
  <way id="40597470" version="2" timestamp="2009-12-07T00:13:58Z" uid="200463" user="harmagedon" changeset="3311752">
    <nd ref="289816445"/>
    <nd ref="327780357"/>
    <tag k="addr:postcode" v="4910"/>
    <tag k="at:maxspeed" v="Ortsgebiet"/>
    <tag k="fixme" v="check import"/>
    <tag k="highway" v="residential"/>
    <tag k="is_in" v="...,Bezirk Ried im Innkreis,Oberösterreich,Österreich,Europa"/>
    <tag k="name" v="Am Stadion"/>
    <tag k="note" v="imported from plan.at; (C)=CC-by-sa or oDBL; feel free to change if necessary"/>
    <tag k="plan_at:acad_id" v="ri4F4"/>
    <tag k="source" v="plan.at 2009"/>
  </way>
  <way id="40597471" version="3" timestamp="2009-12-07T00:12:54Z" uid="200463" user="harmagedon" changeset="3311752">
    <nd ref="327789098"/>
    <nd ref="327789221"/>
    <nd ref="327789224"/>
    <nd ref="257937196"/>
    <nd ref="327789226"/>
    <nd ref="327776157"/>
    <nd ref="327789231"/>
    <nd ref="257937192"/>
    <nd ref="327789236"/>
    <nd ref="327789238"/>
    <nd ref="257937191"/>
    <nd ref="257937261"/>
    <tag k="addr:postcode" v="4910"/>
    <tag k="at:maxspeed" v="Ortsgebiet"/>
    <tag k="highway" v="residential"/>
    <tag k="is_in" v="...,Bezirk Ried im Innkreis,Oberösterreich,Österreich,Europa"/>
    <tag k="name" v="Gonetsreith"/>
    <tag k="note" v="imported from plan.at; (C)=CC-by-sa or oDBL; feel free to change if necessary"/>
    <tag k="plan_at:acad_id" v="ri2FA"/>
    <tag k="source" v="plan.at 2009"/>
  </way>
  <way id="40597472" version="2" timestamp="2009-12-07T00:13:04Z" uid="200463" user="harmagedon" changeset="3311752">
    <nd ref="327779079"/>
    <nd ref="327789124"/>
    <nd ref="327789125"/>
    <nd ref="327788857"/>
    <nd ref="327789126"/>
    <nd ref="327789127"/>
    <nd ref="327789128"/>
    <nd ref="327789132"/>
    <nd ref="327789135"/>
    <nd ref="327789138"/>
    <nd ref="327789143"/>
    <nd ref="327789145"/>
    <nd ref="327789151"/>
    <nd ref="327789152"/>
    <nd ref="327789155"/>
    <nd ref="327776353"/>
    <tag k="addr:postcode" v="4910"/>
    <tag k="at:maxspeed" v="Ortsgebiet"/>
    <tag k="fixme" v="check import"/>
    <tag k="highway" v="residential"/>
    <tag k="is_in" v="...,Bezirk Ried im Innkreis,Oberösterreich,Österreich,Europa"/>
    <tag k="name" v="Schwimmbadstraße"/>
    <tag k="note" v="imported from plan.at; (C)=CC-by-sa or oDBL; feel free to change if necessary"/>
    <tag k="plan_at:acad_id" v="ri2FC"/>
    <tag k="source" v="plan.at 2009"/>
  </way>
  <way id="40597473" version="2" timestamp="2009-12-07T00:13:43Z" uid="200463" user="harmagedon" changeset="3311752">
    <nd ref="327776744"/>
    <nd ref="327776746"/>
    <tag k="access" v="destination"/>
    <tag k="fixme" v="check import"/>
    <tag k="highway" v="unclassified"/>
    <tag k="is_in" v="...,Bezirk Ried im Innkreis,Oberösterreich,Österreich,Europa"/>
    <tag k="note" v="imported from plan.at; (C)=CC-by-sa or oDBL; feel free to change if necessary"/>
    <tag k="plan_at:acad_id" v="ri82C"/>
    <tag k="source" v="plan.at 2009"/>
  </way>
  <way id="40597475" version="2" timestamp="2009-12-07T00:15:28Z" uid="200463" user="harmagedon" changeset="3311752">
    <nd ref="327787568"/>
    <nd ref="327787580"/>
    <tag k="addr:postcode" v="4921"/>
    <tag k="at:maxspeed" v="Ortsgebiet"/>
    <tag k="fixme" v="check import"/>
    <tag k="highway" v="track"/>
    <tag k="is_in" v="...,Bezirk Ried im Innkreis,Oberösterreich,Österreich,Europa"/>
    <tag k="name" v="Aching"/>
    <tag k="note" v="imported from plan.at; (C)=CC-by-sa or oDBL; feel free to change if necessary"/>
    <tag k="plan_at:acad_id" v="ri33C"/>
    <tag k="source" v="plan.at 2009"/>
  </way>
  <way id="40597476" version="3" timestamp="2009-12-07T00:13:10Z" uid="200463" user="harmagedon" changeset="3311752">
    <nd ref="257937203"/>
    <nd ref="257937202"/>
    <nd ref="327789206"/>
    <nd ref="327789211"/>
    <nd ref="327789216"/>
    <nd ref="327789098"/>
    <tag k="addr:postcode" v="4910"/>
    <tag k="at:maxspeed" v="Ortsgebiet"/>
    <tag k="highway" v="residential"/>
    <tag k="is_in" v="...,Bezirk Ried im Innkreis,Oberösterreich,Österreich,Europa"/>
    <tag k="name" v="Gonetsreith"/>
    <tag k="note" v="imported from plan.at; (C)=CC-by-sa or oDBL; feel free to change if necessary"/>
    <tag k="plan_at:acad_id" v="ri2FA"/>
    <tag k="source" v="plan.at 2009"/>
  </way>
</osm>
