<?xml version='1.0' encoding='UTF-8'?>
<osm version="0.6" generator="libosmium/2.20.0">
  <way id="40636221" version="1" timestamp="2009-09-11T16:09:12Z" uid="59758" user="rendle" changeset="2448107">
    <nd ref="493580433"/>
    <nd ref="493580434"/>
    <nd ref="493580435"/>
    <nd ref="493580433"/>
    <tag k="area" v="yes"/>
    <tag k="highway" v="pedestrian"/>
  </way>
  <way id="40636231" version="2" timestamp="2009-10-20T13:06:44Z" uid="36809" user="pfoten_weg_!_" changeset="2902657">
    <nd ref="493580687"/>
    <nd ref="493580689"/>
    <nd ref="493580690"/>
    <nd ref="493580691"/>
    <nd ref="493580693"/>
    <nd ref="493580694"/>
    <nd ref="493580695"/>
    <nd ref="493580697"/>
    <nd ref="493580698"/>
    <nd ref="493580699"/>
    <nd ref="493580700"/>
    <nd ref="493580701"/>
    <nd ref="493580702"/>
    <nd ref="493580703"/>
    <nd ref="493580704"/>
    <tag k="bicycle" v="yes"/>
    <tag k="highway" v="track"/>
    <tag k="hiking" v="yes"/>
    <tag k="mtb" v="yes"/>
    <tag k="sac_scale" v="hiking"/>
    <tag k="tracktype" v="grade3"/>
  </way>
  <way id="40636232" version="2" timestamp="2009-10-20T13:06:44Z" uid="36809" user="pfoten_weg_!_" changeset="2902657">
    <nd ref="493580705"/>
    <nd ref="493580707"/>
    <nd ref="493580710"/>
    <nd ref="493580711"/>
    <nd ref="493580709"/>
    <nd ref="493580708"/>
    <nd ref="493580706"/>
    <nd ref="493580705"/>
    <tag k="building" v="yes"/>
    <tag k="name" v="Kaiserwacht"/>
    <tag k="place" v="hamlet"/>
  </way>
  <way id="40636233" version="2" timestamp="2009-10-20T13:06:43Z" uid="36809" user="pfoten_weg_!_" changeset="2902657">
    <nd ref="493580714"/>
    <nd ref="493580716"/>
    <nd ref="493580717"/>
    <nd ref="493580715"/>
    <nd ref="493580714"/>
    <tag k="building" v="yes"/>
  </way>
  <way id="40636234" version="2" timestamp="2009-10-20T13:06:42Z" uid="36809" user="pfoten_weg_!_" changeset="2902657">
    <nd ref="493580718"/>
    <nd ref="493580720"/>
    <nd ref="493580721"/>
    <nd ref="493580719"/>
    <nd ref="493580718"/>
    <tag k="building" v="yes"/>
    <tag k="name" v="Geißalm"/>
    <tag k="tourism" v="chalet"/>
  </way>
  <way id="40636292" version="1" timestamp="2009-09-11T16:15:03Z" uid="170300" user="Se7ven" changeset="2448380">
    <nd ref="493581670"/>
    <nd ref="493581709"/>
    <nd ref="493581690"/>
    <tag k="addr:postcode" v="420107"/>
    <tag k="cladr:code" v="16000001000128400"/>
    <tag k="cladr:name" v="Петербургская"/>
    <tag k="cladr:suffix" v="Улица"/>
    <tag k="highway" v="residential"/>
    <tag k="name" v="ул. Петербургская"/>
  </way>
  <way id="40636494" version="1" timestamp="2009-09-11T16:19:12Z" uid="170300" user="Se7ven" changeset="2448425">
    <nd ref="493581854"/>
    <nd ref="493581667"/>
    <nd ref="493583113"/>
    <nd ref="493583114"/>
    <tag k="addr:street" v="Ново-Песочная"/>
    <tag k="highway" v="residential"/>
    <tag k="name" v="ул. Ново-Песочная"/>
  </way>
  <way id="40636495" version="1" timestamp="2009-09-11T16:19:13Z" uid="170300" user="Se7ven" changeset="2448425">
    <nd ref="493581670"/>
    <nd ref="493583107"/>
    <nd ref="493583113"/>
    <nd ref="493583110"/>
    <nd ref="493583115"/>
    <tag k="addr:street" v="Суконная"/>
    <tag k="highway" v="residential"/>
    <tag k="name" v="ул. Суконная"/>
  </way>
  <way id="40636495" version="2" timestamp="2009-09-11T16:28:04Z" uid="170300" user="Se7ven" changeset="2448517">
    <nd ref="493581670"/>
    <nd ref="493583107"/>
    <nd ref="493583113"/>
    <nd ref="493583110"/>
    <nd ref="493583115"/>
    <tag k="addr:street" v="Суконная"/>
    <tag k="cladr:name" v="Суконная"/>
    <tag k="highway" v="residential"/>
    <tag k="name" v="ул. Суконная"/>
  </way>
  <way id="40636508" version="2" timestamp="2009-09-25T20:37:29Z" uid="9581" user="Lobelt" changeset="2627727">
    <nd ref="491478330"/>
    <nd ref="493583268"/>
    <nd ref="493583269"/>
    <nd ref="491478316"/>
    <tag k="foot" v="yes"/>
    <tag k="highway" v="service"/>
  </way>
  <way id="40636895" version="3" timestamp="2010-10-07T17:11:05Z" uid="9581" user="Lobelt" changeset="5979695">
    <nd ref="311074816"/>
    <nd ref="311074817"/>
    <nd ref="311074818"/>
    <nd ref="311074819"/>
    <nd ref="311074820"/>
    <nd ref="311074821"/>
    <nd ref="311074822"/>
    <tag k="highway" v="residential"/>
    <tag k="name" v="Dorfstraße"/>
  </way>
  <way id="40636938" version="1" timestamp="2009-09-11T16:34:53Z" uid="99207" user="Lar Kiesel" changeset="2448572">
    <nd ref="493586617"/>
    <nd ref="202792616"/>
    <nd ref="202792356"/>
    <nd ref="491047643"/>
    <nd ref="202792618"/>
    <nd ref="202734137"/>
    <nd ref="491047644"/>
    <nd ref="202792623"/>
    <nd ref="491047645"/>
    <nd ref="202792625"/>
    <nd ref="202792634"/>
    <nd ref="202792642"/>
    <nd ref="202746024"/>
    <nd ref="202792326"/>
    <tag k="highway" v="motorway"/>
    <tag k="name" v="Interstate Highway 40"/>
    <tag k="oneway" v="yes"/>
    <tag k="ref" v="I 40"/>
    <tag k="tiger:cfcc" v="A15"/>
    <tag k="tiger:county" v="Jefferson, TN"/>
    <tag k="tiger:name_base" v="I-40"/>
    <tag k="tiger:reviewed" v="no"/>
    <tag k="tiger:separated" v="yes"/>
    <tag k="tiger:source" v="tiger_import_dch_v0.6_20070829"/>
    <tag k="tiger:tlid" v="42565731:42565732:42565738:42566363"/>
    <tag k="tiger:upload_uuid" v="bulk_upload.pl-193c75f2-dae0-4952-b098-875a0ba25f00"/>
  </way>
  <way id="40636940" version="1" timestamp="2009-09-11T16:34:54Z" uid="99207" user="Lar Kiesel" changeset="2448572">
    <nd ref="493586618"/>
    <nd ref="493586617"/>
    <tag k="bridge" v="yes"/>
    <tag k="highway" v="motorway"/>
    <tag k="layer" v="1"/>
    <tag k="name" v="Interstate Highway 40"/>
    <tag k="oneway" v="yes"/>
    <tag k="ref" v="I 40"/>
    <tag k="tiger:cfcc" v="A15"/>
    <tag k="tiger:county" v="Jefferson, TN"/>
    <tag k="tiger:name_base" v="I-40"/>
    <tag k="tiger:reviewed" v="no"/>
    <tag k="tiger:separated" v="yes"/>
    <tag k="tiger:source" v="tiger_import_dch_v0.6_20070829"/>
    <tag k="tiger:tlid" v="42565731:42565732:42565738:42566363"/>
    <tag k="tiger:upload_uuid" v="bulk_upload.pl-193c75f2-dae0-4952-b098-875a0ba25f00"/>
  </way>
  <way id="40636941" version="1" timestamp="2009-09-11T16:34:54Z" uid="99207" user="Lar Kiesel" changeset="2448572">
    <nd ref="493586619"/>
    <nd ref="493586620"/>
    <tag k="bridge" v="yes"/>
    <tag k="highway" v="motorway"/>
    <tag k="layer" v="1"/>
    <tag k="name" v="Interstate Highway 40"/>
    <tag k="oneway" v="yes"/>
    <tag k="ref" v="I 40"/>
    <tag k="tiger:cfcc" v="A11"/>
    <tag k="tiger:county" v="Jefferson, TN"/>
    <tag k="tiger:name_base" v="I-40"/>
    <tag k="tiger:reviewed" v="no"/>
    <tag k="tiger:separated" v="no"/>
    <tag k="tiger:source" v="tiger_import_dch_v0.6_20070829"/>
    <tag k="tiger:tlid" v="42581179:42561946"/>
    <tag k="tiger:upload_uuid" v="bulk_upload.pl-193c75f2-dae0-4952-b098-875a0ba25f00"/>
  </way>
  <way id="40636942" version="1" timestamp="2009-09-11T16:34:55Z" uid="99207" user="Lar Kiesel" changeset="2448572">
    <nd ref="493586620"/>
    <nd ref="491061671"/>
    <nd ref="491061674"/>
    <nd ref="491061676"/>
    <nd ref="491061678"/>
    <nd ref="491061680"/>
    <nd ref="491061683"/>
    <nd ref="491061685"/>
    <nd ref="491061688"/>
    <nd ref="491061695"/>
    <nd ref="491061697"/>
    <nd ref="491061700"/>
    <nd ref="491840018"/>
    <tag k="highway" v="motorway"/>
    <tag k="name" v="Interstate Highway 40"/>
    <tag k="oneway" v="yes"/>
    <tag k="ref" v="I 40"/>
    <tag k="tiger:cfcc" v="A11"/>
    <tag k="tiger:county" v="Jefferson, TN"/>
    <tag k="tiger:name_base" v="I-40"/>
    <tag k="tiger:reviewed" v="no"/>
    <tag k="tiger:separated" v="no"/>
    <tag k="tiger:source" v="tiger_import_dch_v0.6_20070829"/>
    <tag k="tiger:tlid" v="42581179:42561946"/>
    <tag k="tiger:upload_uuid" v="bulk_upload.pl-193c75f2-dae0-4952-b098-875a0ba25f00"/>
  </way>
</osm>
