<?xml version='1.0' encoding='UTF-8'?>
<osm version="0.6" generator="libosmium/2.20.0">
  <way id="40668236" version="2" timestamp="2010-07-09T21:44:27Z" uid="74617" user="JohnSmith" changeset="5176956">
    <nd ref="347052206"/>
    <nd ref="347052211"/>
    <nd ref="60818188"/>
    <tag k="highway" v="residential"/>
    <tag k="maxspeed" v="50"/>
    <tag k="maxspeed:source" v="default residential speed limit in Australia"/>
    <tag k="name" v="Hector Street"/>
    <tag k="source" v="Yahoo Imagery"/>
  </way>
  <way id="40668237" version="2" timestamp="2010-07-09T21:41:31Z" uid="74617" user="JohnSmith" changeset="5176956">
    <nd ref="347052216"/>
    <nd ref="347052222"/>
    <nd ref="347051790"/>
    <tag k="highway" v="residential"/>
    <tag k="maxspeed" v="50"/>
    <tag k="maxspeed:source" v="default residential speed limit in Australia"/>
    <tag k="name" v="Morgans Street"/>
    <tag k="source" v="Yahoo Imagery"/>
  </way>
  <way id="40668296" version="1" timestamp="2009-09-12T08:31:21Z" uid="170300" user="Se7ven" changeset="2455174">
    <nd ref="296043715"/>
    <nd ref="482581479"/>
    <tag k="addr:postcode" v="420107"/>
    <tag k="cladr:code" v="16000001000128400"/>
    <tag k="cladr:name" v="Петербургская"/>
    <tag k="cladr:suffix" v="Улица"/>
    <tag k="highway" v="pedestrian"/>
    <tag k="name" v="ул. Петербургская"/>
  </way>
</osm>
