<?xml version='1.0' encoding='UTF-8'?>
<osm version="0.6" generator="libosmium/2.20.0">
  <way id="40792006" version="2" timestamp="2010-04-07T13:53:17Z" uid="20587" user="balrog-kun" changeset="4353646">
    <nd ref="495953852"/>
    <nd ref="223132179"/>
    <nd ref="223038552"/>
    <nd ref="223132175"/>
    <nd ref="223132171"/>
    <nd ref="223132167"/>
    <nd ref="223132163"/>
    <nd ref="223132159"/>
    <nd ref="223132154"/>
    <nd ref="223132150"/>
    <tag k="highway" v="trunk"/>
    <tag k="name" v="South Jackson St; United States Highway 69"/>
    <tag k="oneway" v="yes"/>
    <tag k="ref" v="US 69"/>
    <tag k="tiger:cfcc" v="A21"/>
    <tag k="tiger:county" v="Cherokee, TX"/>
    <tag k="tiger:name_base" v="Jackson"/>
    <tag k="tiger:name_base_1" v="United States Highway 69"/>
    <tag k="tiger:name_direction_prefix" v="S"/>
    <tag k="tiger:name_type" v="St"/>
    <tag k="tiger:reviewed" v="no"/>
    <tag k="tiger:separated" v="no"/>
    <tag k="tiger:source" v="tiger_import_dch_v0.6_20070829"/>
    <tag k="tiger:tlid" v="72304518:72304938:72304524:72304459:72304001:72318004:72326165:72306300:72319373"/>
  </way>
  <way id="40792070" version="3" timestamp="2010-07-25T22:50:46Z" uid="4467" user="Rosscoe" changeset="5317371">
    <nd ref="249058283"/>
    <nd ref="495955200"/>
    <tag k="bridge" v="yes"/>
    <tag k="highway" v="secondary"/>
    <tag k="layer" v="1"/>
    <tag k="name" v="Coopers Bridge"/>
  </way>
  <way id="40792141" version="1" timestamp="2009-09-14T06:05:46Z" uid="30201" user="rrankin" changeset="2477961">
    <nd ref="495956070"/>
    <nd ref="495956071"/>
    <nd ref="495956072"/>
    <nd ref="495956073"/>
    <nd ref="495956074"/>
    <nd ref="495956075"/>
    <tag k="highway" v="service"/>
    <tag k="service" v="parking_aisle"/>
  </way>
  <way id="40792246" version="2" timestamp="2010-04-06T21:54:12Z" uid="23543" user="jkjk" changeset="4349668">
    <nd ref="430956972"/>
    <nd ref="430956973"/>
    <nd ref="430956974"/>
    <nd ref="430956975"/>
    <nd ref="430956976"/>
    <nd ref="495209673"/>
    <nd ref="495209675"/>
    <nd ref="495209677"/>
    <nd ref="495209679"/>
    <nd ref="495209681"/>
    <nd ref="495209683"/>
    <nd ref="495232303"/>
    <nd ref="495232304"/>
    <nd ref="495232305"/>
    <nd ref="495232306"/>
    <nd ref="495232308"/>
    <nd ref="495956999"/>
    <nd ref="495957000"/>
    <nd ref="495957001"/>
    <nd ref="495957002"/>
    <nd ref="495957003"/>
    <nd ref="495957004"/>
    <nd ref="495957005"/>
    <nd ref="495957006"/>
    <nd ref="495957007"/>
    <nd ref="495957008"/>
    <nd ref="495957009"/>
    <nd ref="495957010"/>
    <nd ref="495957011"/>
    <nd ref="495957012"/>
    <nd ref="495957013"/>
    <nd ref="495957014"/>
    <nd ref="495957015"/>
    <nd ref="495957016"/>
    <nd ref="495957017"/>
    <nd ref="495957018"/>
    <nd ref="495957019"/>
    <nd ref="495957020"/>
    <nd ref="495957021"/>
    <nd ref="495957022"/>
    <nd ref="495957023"/>
    <nd ref="495957024"/>
    <nd ref="495957025"/>
    <nd ref="495957026"/>
    <nd ref="495957027"/>
    <nd ref="495957028"/>
    <nd ref="495957029"/>
    <nd ref="495957030"/>
    <nd ref="495957031"/>
    <nd ref="495957032"/>
    <nd ref="495957033"/>
    <nd ref="495957034"/>
    <nd ref="495957035"/>
    <nd ref="495957036"/>
    <tag k="foot" v="yes"/>
    <tag k="highway" v="path"/>
    <tag k="marked_trail_yellow" v="yes"/>
  </way>
  <way id="40792247" version="6" timestamp="2010-04-06T21:54:12Z" uid="23543" user="jkjk" changeset="4349668">
    <nd ref="495957101"/>
    <nd ref="495957102"/>
    <nd ref="495957103"/>
    <nd ref="495957104"/>
    <nd ref="495957105"/>
    <nd ref="495957106"/>
    <nd ref="495957107"/>
    <nd ref="495957108"/>
    <nd ref="495957111"/>
    <nd ref="495957112"/>
    <nd ref="495957113"/>
    <nd ref="495957114"/>
    <nd ref="495957115"/>
    <nd ref="495957116"/>
    <nd ref="495957117"/>
    <nd ref="495957118"/>
    <tag k="foot" v="yes"/>
    <tag k="highway" v="path"/>
    <tag k="marked_trail_red" v="yes"/>
  </way>
  <way id="40792410" version="2" timestamp="2010-05-06T18:14:30Z" uid="74617" user="JohnSmith" changeset="4623294">
    <nd ref="495958373"/>
    <nd ref="495958372"/>
    <tag k="bridge" v="yes"/>
    <tag k="layer" v="1"/>
    <tag k="railway" v="rail"/>
    <tag k="source" v="nearmap"/>
  </way>
  <way id="40792412" version="3" timestamp="2010-05-06T10:53:18Z" uid="74617" user="JohnSmith" changeset="4620450">
    <nd ref="495958372"/>
    <nd ref="724119286"/>
    <nd ref="724119269"/>
    <nd ref="724119279"/>
    <nd ref="429381264"/>
    <nd ref="724119283"/>
    <nd ref="724119273"/>
    <nd ref="429381265"/>
    <nd ref="724119266"/>
    <nd ref="724119278"/>
    <nd ref="724119285"/>
    <nd ref="724119260"/>
    <nd ref="429381266"/>
    <nd ref="724119268"/>
    <nd ref="724119263"/>
    <nd ref="724119288"/>
    <nd ref="724119282"/>
    <nd ref="429381267"/>
    <nd ref="429381269"/>
    <nd ref="429381289"/>
    <nd ref="429381308"/>
    <nd ref="429381326"/>
    <nd ref="277046318"/>
    <nd ref="598480547"/>
    <nd ref="429381330"/>
    <tag k="railway" v="rail"/>
    <tag k="source" v="yahoo"/>
  </way>
  <way id="40792412" version="4" timestamp="2010-05-06T17:52:57Z" uid="74617" user="JohnSmith" changeset="4623294">
    <nd ref="495958372"/>
    <nd ref="724119286"/>
    <nd ref="724119269"/>
    <nd ref="724119279"/>
    <nd ref="429381264"/>
    <nd ref="724119283"/>
    <nd ref="724119273"/>
    <nd ref="429381265"/>
    <nd ref="724119266"/>
    <nd ref="724119278"/>
    <nd ref="724119285"/>
    <nd ref="724119260"/>
    <nd ref="429381266"/>
    <nd ref="724119268"/>
    <nd ref="724119263"/>
    <nd ref="724119288"/>
    <nd ref="724119282"/>
    <nd ref="724313805"/>
    <nd ref="724313818"/>
    <nd ref="429381267"/>
    <nd ref="429381269"/>
    <nd ref="429381289"/>
    <nd ref="429381308"/>
    <nd ref="429381326"/>
    <nd ref="277046318"/>
    <nd ref="598480547"/>
    <nd ref="429381330"/>
    <tag k="railway" v="rail"/>
    <tag k="source" v="yahoo"/>
  </way>
  <way id="40792412" version="5" timestamp="2010-05-06T18:06:35Z" uid="74617" user="JohnSmith" changeset="4623294">
    <nd ref="495958372"/>
    <nd ref="724119286"/>
    <nd ref="724119269"/>
    <nd ref="724119279"/>
    <nd ref="429381264"/>
    <nd ref="724119283"/>
    <nd ref="724119273"/>
    <nd ref="429381265"/>
    <nd ref="724317659"/>
    <nd ref="724119266"/>
    <nd ref="724119278"/>
    <nd ref="724317681"/>
    <nd ref="724119285"/>
    <nd ref="724119260"/>
    <nd ref="429381266"/>
    <nd ref="724119268"/>
    <nd ref="724119263"/>
    <nd ref="724317702"/>
    <nd ref="724119288"/>
    <nd ref="724119282"/>
    <nd ref="724317704"/>
    <nd ref="724317652"/>
    <nd ref="724317674"/>
    <nd ref="724317678"/>
    <nd ref="724317664"/>
    <nd ref="724317677"/>
    <nd ref="724313805"/>
    <nd ref="724317692"/>
    <nd ref="724313818"/>
    <nd ref="724317667"/>
    <nd ref="724317660"/>
    <nd ref="724317696"/>
    <nd ref="724317699"/>
    <nd ref="724317690"/>
    <nd ref="724317669"/>
    <nd ref="724317671"/>
    <nd ref="724317701"/>
    <nd ref="724317654"/>
    <nd ref="724317685"/>
    <nd ref="724317644"/>
    <nd ref="724317675"/>
    <nd ref="724317679"/>
    <nd ref="429381267"/>
    <nd ref="724317662"/>
    <nd ref="724317683"/>
    <nd ref="724317657"/>
    <tag k="railway" v="rail"/>
    <tag k="source" v="nearmap"/>
  </way>
  <way id="40792518" version="2" timestamp="2010-02-08T08:10:12Z" uid="74617" user="JohnSmith" changeset="3821259">
    <nd ref="495958763"/>
    <nd ref="495958764"/>
    <nd ref="495958765"/>
    <nd ref="495958766"/>
    <nd ref="495958767"/>
    <nd ref="495958768"/>
    <nd ref="495958769"/>
    <nd ref="495958770"/>
    <nd ref="495952515"/>
    <tag k="highway" v="residential"/>
    <tag k="maxspeed" v="50"/>
    <tag k="name" v="Dugong Crs"/>
  </way>
  <way id="40792518" version="4" timestamp="2010-07-17T12:25:58Z" uid="74617" user="JohnSmith" changeset="5241745">
    <nd ref="495958763"/>
    <nd ref="660543156"/>
    <nd ref="495958764"/>
    <nd ref="495958765"/>
    <nd ref="660543124"/>
    <nd ref="660543125"/>
    <nd ref="495958766"/>
    <nd ref="495958767"/>
    <nd ref="660543123"/>
    <nd ref="495958768"/>
    <nd ref="495958769"/>
    <nd ref="495958770"/>
    <nd ref="495952515"/>
    <tag k="highway" v="residential"/>
    <tag k="maxspeed" v="50"/>
    <tag k="name" v="Dugong Cresent"/>
  </way>
  <way id="40792523" version="2" timestamp="2010-02-08T08:10:11Z" uid="74617" user="JohnSmith" changeset="3821259">
    <nd ref="495958790"/>
    <nd ref="495958791"/>
    <tag k="highway" v="residential"/>
    <tag k="maxspeed" v="50"/>
  </way>
  <way id="40792523" version="3" timestamp="2010-07-17T00:51:02Z" uid="74617" user="JohnSmith" changeset="5238815">
    <nd ref="495958790"/>
    <nd ref="495958791"/>
    <tag k="highway" v="residential"/>
    <tag k="maxspeed" v="50"/>
    <tag k="name" v="Mainbrace Court"/>
  </way>
  <way id="40792812" version="3" timestamp="2010-02-08T08:10:24Z" uid="74617" user="JohnSmith" changeset="3821259">
    <nd ref="495960255"/>
    <nd ref="495960256"/>
    <nd ref="495960257"/>
    <nd ref="495952528"/>
    <tag k="highway" v="residential"/>
    <tag k="maxspeed" v="50"/>
  </way>
  <way id="40792812" version="5" timestamp="2010-07-17T00:51:02Z" uid="74617" user="JohnSmith" changeset="5238815">
    <nd ref="495960255"/>
    <nd ref="660543157"/>
    <nd ref="495960256"/>
    <nd ref="495960257"/>
    <nd ref="495952528"/>
    <tag k="highway" v="residential"/>
    <tag k="maxspeed" v="50"/>
    <tag k="name" v="Genoa Place"/>
  </way>
  <way id="40792812" version="6" timestamp="2010-07-17T12:27:02Z" uid="74617" user="JohnSmith" changeset="5241745">
    <nd ref="495960255"/>
    <nd ref="660543157"/>
    <nd ref="495960256"/>
    <nd ref="821818504"/>
    <nd ref="495960257"/>
    <nd ref="495952528"/>
    <tag k="highway" v="residential"/>
    <tag k="maxspeed" v="50"/>
    <tag k="name" v="Genoa Place"/>
  </way>
  <way id="40792819" version="2" timestamp="2010-02-08T08:10:25Z" uid="74617" user="JohnSmith" changeset="3821259">
    <nd ref="495960498"/>
    <nd ref="495952533"/>
    <tag k="highway" v="residential"/>
    <tag k="maxspeed" v="50"/>
  </way>
  <way id="40792819" version="3" timestamp="2010-07-17T00:51:01Z" uid="74617" user="JohnSmith" changeset="5238815">
    <nd ref="495960498"/>
    <nd ref="495952533"/>
    <tag k="highway" v="residential"/>
    <tag k="maxspeed" v="50"/>
    <tag k="name" v="Yardarm Court"/>
  </way>
  <way id="40792819" version="4" timestamp="2010-07-17T12:27:02Z" uid="74617" user="JohnSmith" changeset="5241745">
    <nd ref="821818503"/>
    <nd ref="495960498"/>
    <nd ref="495952533"/>
    <tag k="highway" v="residential"/>
    <tag k="maxspeed" v="50"/>
    <tag k="name" v="Yardarm Court"/>
  </way>
  <way id="40792843" version="4" timestamp="2010-02-08T08:10:25Z" uid="74617" user="JohnSmith" changeset="3821259">
    <nd ref="298940785"/>
    <nd ref="608946086"/>
    <tag k="highway" v="residential"/>
    <tag k="maxspeed" v="50"/>
  </way>
  <way id="40792843" version="5" timestamp="2010-07-17T02:07:26Z" uid="74617" user="JohnSmith" changeset="5238945">
    <nd ref="298940785"/>
    <nd ref="608946086"/>
    <tag k="highway" v="residential"/>
    <tag k="maxspeed" v="50"/>
    <tag k="name" v="Schooner Court"/>
  </way>
  <way id="40792934" version="3" timestamp="2010-02-08T08:10:20Z" uid="74617" user="JohnSmith" changeset="3821259">
    <nd ref="608946457"/>
    <nd ref="298940731"/>
    <nd ref="298940724"/>
    <nd ref="298940733"/>
    <nd ref="298940734"/>
    <nd ref="298940695"/>
    <nd ref="298940735"/>
    <nd ref="298940728"/>
    <nd ref="298940697"/>
    <nd ref="298940698"/>
    <nd ref="298940699"/>
    <nd ref="298940700"/>
    <nd ref="298112900"/>
    <nd ref="298112892"/>
    <tag k="highway" v="residential"/>
    <tag k="maxspeed" v="50"/>
  </way>
  <way id="40792934" version="5" timestamp="2010-07-17T02:07:27Z" uid="74617" user="JohnSmith" changeset="5238945">
    <nd ref="608946457"/>
    <nd ref="298940731"/>
    <nd ref="298940724"/>
    <nd ref="298940733"/>
    <nd ref="298940734"/>
    <nd ref="298940695"/>
    <nd ref="298940735"/>
    <nd ref="298940728"/>
    <nd ref="298940697"/>
    <nd ref="298940698"/>
    <nd ref="298940699"/>
    <nd ref="298940700"/>
    <nd ref="298112900"/>
    <nd ref="660551800"/>
    <nd ref="298112892"/>
    <tag k="highway" v="residential"/>
    <tag k="maxspeed" v="50"/>
    <tag k="name" v="Pacific Drive"/>
  </way>
  <way id="40792943" version="1" timestamp="2009-09-14T06:32:18Z" uid="30201" user="rrankin" changeset="2478124">
    <nd ref="495961549"/>
    <nd ref="495961548"/>
    <nd ref="495961559"/>
    <tag k="highway" v="residential"/>
    <tag k="name" v="Moray Street"/>
    <tag k="source" v="survey"/>
  </way>
  <way id="40792943" version="2" timestamp="2010-07-08T04:49:20Z" uid="74617" user="JohnSmith" changeset="5163091">
    <nd ref="495961549"/>
    <nd ref="495961548"/>
    <nd ref="495961559"/>
    <tag k="highway" v="residential"/>
    <tag k="maxspeed" v="50"/>
    <tag k="maxspeed:source" v="default residential speed limit in Australia"/>
    <tag k="name" v="Moray Street"/>
    <tag k="source" v="survey"/>
  </way>
  <way id="40792944" version="1" timestamp="2009-09-14T06:32:18Z" uid="30201" user="rrankin" changeset="2478124">
    <nd ref="495961470"/>
    <nd ref="495961477"/>
    <nd ref="495961464"/>
    <nd ref="495961471"/>
    <tag k="highway" v="residential"/>
    <tag k="name" v="St Helliers Street"/>
    <tag k="source" v="survey"/>
  </way>
  <way id="40792944" version="2" timestamp="2010-07-08T04:48:51Z" uid="74617" user="JohnSmith" changeset="5163091">
    <nd ref="495961470"/>
    <nd ref="495961477"/>
    <nd ref="495961464"/>
    <nd ref="495961471"/>
    <tag k="highway" v="residential"/>
    <tag k="maxspeed" v="50"/>
    <tag k="maxspeed:source" v="default residential speed limit in Australia"/>
    <tag k="name" v="St Helliers Street"/>
    <tag k="source" v="survey"/>
  </way>
  <way id="40792945" version="1" timestamp="2009-09-14T06:32:18Z" uid="30201" user="rrankin" changeset="2478124">
    <nd ref="495961579"/>
    <nd ref="495961578"/>
    <tag k="highway" v="unclassified"/>
    <tag k="source" v="survey"/>
  </way>
  <way id="40792946" version="1" timestamp="2009-09-14T06:32:18Z" uid="30201" user="rrankin" changeset="2478124">
    <nd ref="495961541"/>
    <nd ref="495961551"/>
    <nd ref="495961550"/>
    <nd ref="495961553"/>
    <nd ref="495961541"/>
    <tag k="amenity" v="school"/>
    <tag k="name" v="Aberdeen Public School"/>
  </way>
  <way id="40792947" version="1" timestamp="2009-09-14T06:32:18Z" uid="30201" user="rrankin" changeset="2478124">
    <nd ref="495961462"/>
    <nd ref="495961466"/>
    <nd ref="495961463"/>
    <nd ref="495961464"/>
    <nd ref="495961472"/>
    <nd ref="495961479"/>
    <nd ref="495961571"/>
    <nd ref="495961581"/>
    <nd ref="495961544"/>
    <nd ref="495961533"/>
    <nd ref="495961465"/>
    <tag k="highway" v="residential"/>
    <tag k="name" v="Segenhoe Street"/>
    <tag k="source" v="survey"/>
  </way>
  <way id="40792947" version="2" timestamp="2010-07-08T04:48:59Z" uid="74617" user="JohnSmith" changeset="5163091">
    <nd ref="495961462"/>
    <nd ref="495961466"/>
    <nd ref="495961463"/>
    <nd ref="495961464"/>
    <nd ref="495961472"/>
    <nd ref="495961479"/>
    <nd ref="495961571"/>
    <nd ref="495961581"/>
    <nd ref="495961544"/>
    <nd ref="495961533"/>
    <nd ref="495961465"/>
    <tag k="highway" v="residential"/>
    <tag k="maxspeed" v="50"/>
    <tag k="maxspeed:source" v="default residential speed limit in Australia"/>
    <tag k="name" v="Segenhoe Street"/>
    <tag k="source" v="survey"/>
  </way>
  <way id="40792948" version="1" timestamp="2009-09-14T06:32:19Z" uid="30201" user="rrankin" changeset="2478124">
    <nd ref="495961466"/>
    <nd ref="495961467"/>
    <nd ref="495961468"/>
    <tag k="highway" v="residential"/>
    <tag k="name" v="Kennedy Place"/>
    <tag k="source" v="survey"/>
  </way>
  <way id="40792948" version="2" timestamp="2010-07-08T04:49:05Z" uid="74617" user="JohnSmith" changeset="5163091">
    <nd ref="495961466"/>
    <nd ref="495961467"/>
    <nd ref="495961468"/>
    <tag k="highway" v="residential"/>
    <tag k="maxspeed" v="50"/>
    <tag k="maxspeed:source" v="default residential speed limit in Australia"/>
    <tag k="name" v="Kennedy Place"/>
    <tag k="source" v="survey"/>
  </way>
  <way id="40792949" version="1" timestamp="2009-09-14T06:32:19Z" uid="30201" user="rrankin" changeset="2478124">
    <nd ref="495961521"/>
    <nd ref="495961520"/>
    <tag k="bridge" v="yes"/>
    <tag k="highway" v="residential"/>
    <tag k="layer" v="1"/>
    <tag k="name" v="Graeme Street"/>
    <tag k="source" v="survey"/>
  </way>
  <way id="40792949" version="2" timestamp="2010-07-08T04:49:01Z" uid="74617" user="JohnSmith" changeset="5163091">
    <nd ref="495961521"/>
    <nd ref="495961520"/>
    <tag k="bridge" v="yes"/>
    <tag k="highway" v="residential"/>
    <tag k="layer" v="1"/>
    <tag k="maxspeed" v="50"/>
    <tag k="maxspeed:source" v="default residential speed limit in Australia"/>
    <tag k="name" v="Graeme Street"/>
    <tag k="source" v="survey"/>
  </way>
  <way id="40792950" version="1" timestamp="2009-09-14T06:32:19Z" uid="30201" user="rrankin" changeset="2478124">
    <nd ref="495961529"/>
    <nd ref="495961562"/>
    <nd ref="495961563"/>
    <nd ref="495961576"/>
    <nd ref="495961554"/>
    <tag k="highway" v="residential"/>
    <tag k="name" v="McLeod Street"/>
    <tag k="source" v="survey"/>
  </way>
  <way id="40792950" version="2" timestamp="2010-07-08T04:49:16Z" uid="74617" user="JohnSmith" changeset="5163091">
    <nd ref="495961529"/>
    <nd ref="495961562"/>
    <nd ref="495961563"/>
    <nd ref="495961576"/>
    <nd ref="495961554"/>
    <tag k="highway" v="residential"/>
    <tag k="maxspeed" v="50"/>
    <tag k="maxspeed:source" v="default residential speed limit in Australia"/>
    <tag k="name" v="McLeod Street"/>
    <tag k="source" v="survey"/>
  </way>
  <way id="40792951" version="1" timestamp="2009-09-14T06:32:19Z" uid="30201" user="rrankin" changeset="2478124">
    <nd ref="495961478"/>
    <nd ref="495961477"/>
    <tag k="highway" v="residential"/>
    <tag k="name" v="Wattle Street"/>
    <tag k="source" v="survey"/>
  </way>
  <way id="40792951" version="2" timestamp="2010-07-08T04:49:09Z" uid="74617" user="JohnSmith" changeset="5163091">
    <nd ref="495961478"/>
    <nd ref="495961477"/>
    <tag k="highway" v="residential"/>
    <tag k="maxspeed" v="50"/>
    <tag k="maxspeed:source" v="default residential speed limit in Australia"/>
    <tag k="name" v="Wattle Street"/>
    <tag k="source" v="survey"/>
  </way>
  <way id="40792952" version="1" timestamp="2009-09-14T06:32:19Z" uid="30201" user="rrankin" changeset="2478124">
    <nd ref="495961504"/>
    <nd ref="495961505"/>
    <nd ref="495961502"/>
    <nd ref="495961503"/>
    <nd ref="495961508"/>
    <nd ref="495961509"/>
    <nd ref="495961506"/>
    <nd ref="495961507"/>
    <nd ref="495961512"/>
    <nd ref="495961504"/>
    <tag k="leisure" v="park"/>
    <tag k="name" v="St Andrews Reserve"/>
  </way>
  <way id="40792953" version="1" timestamp="2009-09-14T06:32:19Z" uid="30201" user="rrankin" changeset="2478124">
    <nd ref="495961561"/>
    <nd ref="495961560"/>
    <nd ref="495961575"/>
    <nd ref="495961555"/>
    <nd ref="495961554"/>
    <nd ref="495961528"/>
    <tag k="highway" v="residential"/>
    <tag k="name" v="St Andrews Street"/>
    <tag k="source" v="survey"/>
  </way>
  <way id="40792953" version="2" timestamp="2010-07-08T04:49:12Z" uid="74617" user="JohnSmith" changeset="5163091">
    <nd ref="495961561"/>
    <nd ref="495961560"/>
    <nd ref="495961575"/>
    <nd ref="495961555"/>
    <nd ref="495961554"/>
    <nd ref="495961528"/>
    <tag k="highway" v="residential"/>
    <tag k="maxspeed" v="50"/>
    <tag k="maxspeed:source" v="default residential speed limit in Australia"/>
    <tag k="name" v="St Andrews Street"/>
    <tag k="source" v="survey"/>
  </way>
  <way id="40792954" version="1" timestamp="2009-09-14T06:32:19Z" uid="30201" user="rrankin" changeset="2478124">
    <nd ref="495961572"/>
    <nd ref="495961573"/>
    <nd ref="495961570"/>
    <tag k="highway" v="residential"/>
    <tag k="name" v="Upper Campbell Street"/>
    <tag k="source" v="survey"/>
  </way>
  <way id="40792954" version="2" timestamp="2010-07-08T04:48:56Z" uid="74617" user="JohnSmith" changeset="5163091">
    <nd ref="495961572"/>
    <nd ref="495961573"/>
    <nd ref="495961570"/>
    <tag k="highway" v="residential"/>
    <tag k="maxspeed" v="50"/>
    <tag k="maxspeed:source" v="default residential speed limit in Australia"/>
    <tag k="name" v="Upper Campbell Street"/>
    <tag k="source" v="survey"/>
  </way>
  <way id="40792955" version="1" timestamp="2009-09-14T06:32:20Z" uid="30201" user="rrankin" changeset="2478124">
    <nd ref="495961457"/>
    <nd ref="495961458"/>
    <nd ref="495961459"/>
    <tag k="highway" v="residential"/>
    <tag k="name" v="Abercairney Terrace"/>
    <tag k="source" v="survey"/>
  </way>
  <way id="40792955" version="2" timestamp="2010-07-08T04:48:49Z" uid="74617" user="JohnSmith" changeset="5163091">
    <nd ref="495961457"/>
    <nd ref="495961458"/>
    <nd ref="495961459"/>
    <tag k="highway" v="residential"/>
    <tag k="maxspeed" v="50"/>
    <tag k="maxspeed:source" v="default residential speed limit in Australia"/>
    <tag k="name" v="Abercairney Terrace"/>
    <tag k="source" v="survey"/>
  </way>
  <way id="40792956" version="1" timestamp="2009-09-14T06:32:20Z" uid="30201" user="rrankin" changeset="2478124">
    <nd ref="495961581"/>
    <nd ref="495961580"/>
    <nd ref="495961583"/>
    <tag k="highway" v="residential"/>
    <tag k="name" v="Bedford Street"/>
    <tag k="source" v="survey"/>
  </way>
  <way id="40792956" version="2" timestamp="2010-07-08T04:49:00Z" uid="74617" user="JohnSmith" changeset="5163091">
    <nd ref="495961581"/>
    <nd ref="495961580"/>
    <nd ref="495961583"/>
    <tag k="highway" v="residential"/>
    <tag k="maxspeed" v="50"/>
    <tag k="maxspeed:source" v="default residential speed limit in Australia"/>
    <tag k="name" v="Bedford Street"/>
    <tag k="source" v="survey"/>
  </way>
  <way id="40792957" version="1" timestamp="2009-09-14T06:32:20Z" uid="30201" user="rrankin" changeset="2478124">
    <nd ref="495961520"/>
    <nd ref="495961547"/>
    <nd ref="495961546"/>
    <nd ref="495961549"/>
    <tag k="highway" v="residential"/>
    <tag k="name" v="Walker Street"/>
    <tag k="source" v="survey"/>
  </way>
  <way id="40792957" version="2" timestamp="2010-07-08T04:48:53Z" uid="74617" user="JohnSmith" changeset="5163091">
    <nd ref="495961520"/>
    <nd ref="495961547"/>
    <nd ref="495961546"/>
    <nd ref="495961549"/>
    <tag k="highway" v="residential"/>
    <tag k="maxspeed" v="50"/>
    <tag k="maxspeed:source" v="default residential speed limit in Australia"/>
    <tag k="name" v="Walker Street"/>
    <tag k="source" v="survey"/>
  </way>
  <way id="40792958" version="1" timestamp="2009-09-14T06:32:20Z" uid="30201" user="rrankin" changeset="2478124">
    <nd ref="495961532"/>
    <nd ref="495961533"/>
    <nd ref="495961542"/>
    <tag k="highway" v="residential"/>
    <tag k="name" v="Moray Street"/>
    <tag k="source" v="survey"/>
  </way>
  <way id="40792958" version="2" timestamp="2010-07-08T04:49:06Z" uid="74617" user="JohnSmith" changeset="5163091">
    <nd ref="495961532"/>
    <nd ref="495961533"/>
    <nd ref="495961542"/>
    <tag k="highway" v="residential"/>
    <tag k="maxspeed" v="50"/>
    <tag k="maxspeed:source" v="default residential speed limit in Australia"/>
    <tag k="name" v="Moray Street"/>
    <tag k="source" v="survey"/>
  </way>
  <way id="40792959" version="1" timestamp="2009-09-14T06:32:20Z" uid="30201" user="rrankin" changeset="2478124">
    <nd ref="495961574"/>
    <nd ref="495961474"/>
    <tag k="highway" v="residential"/>
    <tag k="name" v="Perth Street"/>
    <tag k="source" v="survey"/>
    <tag k="surface" v="unpaved"/>
  </way>
  <way id="40792959" version="2" timestamp="2010-07-08T04:49:03Z" uid="74617" user="JohnSmith" changeset="5163091">
    <nd ref="495961574"/>
    <nd ref="495961474"/>
    <tag k="highway" v="residential"/>
    <tag k="maxspeed" v="50"/>
    <tag k="maxspeed:source" v="default residential speed limit in Australia"/>
    <tag k="name" v="Perth Street"/>
    <tag k="source" v="survey"/>
    <tag k="surface" v="unpaved"/>
  </way>
  <way id="40792960" version="1" timestamp="2009-09-14T06:32:20Z" uid="30201" user="rrankin" changeset="2478124">
    <nd ref="495961489"/>
    <nd ref="495961494"/>
    <nd ref="495961492"/>
    <nd ref="495961497"/>
    <nd ref="495961495"/>
    <nd ref="495961500"/>
    <nd ref="495961501"/>
    <nd ref="495961498"/>
    <nd ref="495961499"/>
    <nd ref="495961487"/>
    <tag k="highway" v="service"/>
    <tag k="source" v="survey"/>
  </way>
  <way id="40792961" version="1" timestamp="2009-09-14T06:32:20Z" uid="30201" user="rrankin" changeset="2478124">
    <nd ref="495961514"/>
    <nd ref="495961579"/>
    <nd ref="495961574"/>
    <tag k="highway" v="residential"/>
    <tag k="name" v="Perth Street"/>
    <tag k="source" v="survey"/>
  </way>
  <way id="40792961" version="2" timestamp="2010-07-08T04:49:16Z" uid="74617" user="JohnSmith" changeset="5163091">
    <nd ref="495961514"/>
    <nd ref="495961579"/>
    <nd ref="495961574"/>
    <tag k="highway" v="residential"/>
    <tag k="maxspeed" v="50"/>
    <tag k="maxspeed:source" v="default residential speed limit in Australia"/>
    <tag k="name" v="Perth Street"/>
    <tag k="source" v="survey"/>
  </way>
  <way id="40792962" version="1" timestamp="2009-09-14T06:32:20Z" uid="30201" user="rrankin" changeset="2478124">
    <nd ref="495961571"/>
    <nd ref="495961582"/>
    <tag k="highway" v="residential"/>
    <tag k="name" v="Eldon Street"/>
    <tag k="source" v="survey"/>
  </way>
  <way id="40792962" version="2" timestamp="2010-07-08T04:48:58Z" uid="74617" user="JohnSmith" changeset="5163091">
    <nd ref="495961571"/>
    <nd ref="495961582"/>
    <tag k="highway" v="residential"/>
    <tag k="maxspeed" v="50"/>
    <tag k="maxspeed:source" v="default residential speed limit in Australia"/>
    <tag k="name" v="Eldon Street"/>
    <tag k="source" v="survey"/>
  </way>
  <way id="40792963" version="1" timestamp="2009-09-14T06:32:21Z" uid="30201" user="rrankin" changeset="2478124">
    <nd ref="495961559"/>
    <nd ref="495961519"/>
    <nd ref="495961556"/>
    <nd ref="495961566"/>
    <nd ref="495961558"/>
    <nd ref="495961561"/>
    <tag k="highway" v="residential"/>
    <tag k="name" v="Mount Street"/>
    <tag k="source" v="survey"/>
  </way>
  <way id="40792963" version="2" timestamp="2010-07-08T04:48:51Z" uid="74617" user="JohnSmith" changeset="5163091">
    <nd ref="495961559"/>
    <nd ref="495961519"/>
    <nd ref="495961556"/>
    <nd ref="495961566"/>
    <nd ref="495961558"/>
    <nd ref="495961561"/>
    <tag k="highway" v="residential"/>
    <tag k="maxspeed" v="50"/>
    <tag k="maxspeed:source" v="default residential speed limit in Australia"/>
    <tag k="name" v="Mount Street"/>
    <tag k="source" v="survey"/>
  </way>
  <way id="40792964" version="1" timestamp="2009-09-14T06:32:21Z" uid="30201" user="rrankin" changeset="2478124">
    <nd ref="495961574"/>
    <nd ref="495961575"/>
    <nd ref="495961564"/>
    <nd ref="495961567"/>
    <nd ref="495961568"/>
    <nd ref="495961518"/>
    <nd ref="495961572"/>
    <tag k="highway" v="residential"/>
    <tag k="name" v="Campbell Street"/>
    <tag k="source" v="survey"/>
  </way>
  <way id="40792964" version="2" timestamp="2010-07-08T04:49:01Z" uid="74617" user="JohnSmith" changeset="5163091">
    <nd ref="495961574"/>
    <nd ref="495961575"/>
    <nd ref="495961564"/>
    <nd ref="495961567"/>
    <nd ref="495961568"/>
    <nd ref="495961518"/>
    <nd ref="495961572"/>
    <tag k="highway" v="residential"/>
    <tag k="maxspeed" v="50"/>
    <tag k="maxspeed:source" v="default residential speed limit in Australia"/>
    <tag k="name" v="Campbell Street"/>
    <tag k="source" v="survey"/>
  </way>
  <way id="40792965" version="1" timestamp="2009-09-14T06:32:21Z" uid="30201" user="rrankin" changeset="2478124">
    <nd ref="495961577"/>
    <nd ref="495961574"/>
    <tag k="highway" v="residential"/>
    <tag k="name" v="Campbell Street"/>
    <tag k="source" v="survey"/>
    <tag k="surface" v="unpaved"/>
  </way>
  <way id="40792965" version="2" timestamp="2010-07-08T04:48:55Z" uid="74617" user="JohnSmith" changeset="5163091">
    <nd ref="495961577"/>
    <nd ref="495961574"/>
    <tag k="highway" v="residential"/>
    <tag k="maxspeed" v="50"/>
    <tag k="maxspeed:source" v="default residential speed limit in Australia"/>
    <tag k="name" v="Campbell Street"/>
    <tag k="source" v="survey"/>
    <tag k="surface" v="unpaved"/>
  </way>
  <way id="40792966" version="1" timestamp="2009-09-14T06:32:21Z" uid="30201" user="rrankin" changeset="2478124">
    <nd ref="495961543"/>
    <nd ref="495961544"/>
    <nd ref="495961545"/>
    <tag k="highway" v="residential"/>
    <tag k="name" v="Graeme Street"/>
    <tag k="source" v="survey"/>
  </way>
  <way id="40792966" version="2" timestamp="2010-07-08T04:49:08Z" uid="74617" user="JohnSmith" changeset="5163091">
    <nd ref="495961543"/>
    <nd ref="495961544"/>
    <nd ref="495961545"/>
    <tag k="highway" v="residential"/>
    <tag k="maxspeed" v="50"/>
    <tag k="maxspeed:source" v="default residential speed limit in Australia"/>
    <tag k="name" v="Graeme Street"/>
    <tag k="source" v="survey"/>
  </way>
  <way id="40792967" version="1" timestamp="2009-09-14T06:32:21Z" uid="30201" user="rrankin" changeset="2478124">
    <nd ref="495961484"/>
    <nd ref="495961489"/>
    <nd ref="495961487"/>
    <nd ref="495961480"/>
    <tag k="highway" v="service"/>
    <tag k="source" v="survey"/>
  </way>
  <way id="40792968" version="1" timestamp="2009-09-14T06:32:21Z" uid="30201" user="rrankin" changeset="2478124">
    <nd ref="495961460"/>
    <nd ref="495961461"/>
    <tag k="highway" v="residential"/>
    <tag k="name" v="Shannon Close"/>
    <tag k="source" v="survey"/>
  </way>
  <way id="40792968" version="2" timestamp="2010-07-08T04:49:12Z" uid="74617" user="JohnSmith" changeset="5163091">
    <nd ref="495961460"/>
    <nd ref="495961461"/>
    <tag k="highway" v="residential"/>
    <tag k="maxspeed" v="50"/>
    <tag k="maxspeed:source" v="default residential speed limit in Australia"/>
    <tag k="name" v="Shannon Close"/>
    <tag k="source" v="survey"/>
  </way>
  <way id="40792969" version="1" timestamp="2009-09-14T06:32:21Z" uid="30201" user="rrankin" changeset="2478124">
    <nd ref="495961564"/>
    <nd ref="495961565"/>
    <tag k="highway" v="residential"/>
    <tag k="name" v="Margaret Place"/>
    <tag k="source" v="survey"/>
  </way>
  <way id="40792969" version="2" timestamp="2010-07-08T04:49:06Z" uid="74617" user="JohnSmith" changeset="5163091">
    <nd ref="495961564"/>
    <nd ref="495961565"/>
    <tag k="highway" v="residential"/>
    <tag k="maxspeed" v="50"/>
    <tag k="maxspeed:source" v="default residential speed limit in Australia"/>
    <tag k="name" v="Margaret Place"/>
    <tag k="source" v="survey"/>
  </way>
  <way id="40792970" version="1" timestamp="2009-09-14T06:32:21Z" uid="30201" user="rrankin" changeset="2478124">
    <nd ref="495961566"/>
    <nd ref="495961567"/>
    <tag k="highway" v="service"/>
    <tag k="name" v="Waratah Lane"/>
    <tag k="source" v="survey"/>
  </way>
  <way id="40792971" version="1" timestamp="2009-09-14T06:32:22Z" uid="30201" user="rrankin" changeset="2478124">
    <nd ref="495961557"/>
    <nd ref="495961556"/>
    <nd ref="495961591"/>
    <nd ref="495961568"/>
    <nd ref="495961569"/>
    <tag k="highway" v="residential"/>
    <tag k="name" v="Bedford Street"/>
    <tag k="source" v="survey"/>
  </way>
  <way id="40792971" version="2" timestamp="2010-07-08T04:49:18Z" uid="74617" user="JohnSmith" changeset="5163091">
    <nd ref="495961557"/>
    <nd ref="495961556"/>
    <nd ref="495961591"/>
    <nd ref="495961568"/>
    <nd ref="495961569"/>
    <tag k="highway" v="residential"/>
    <tag k="maxspeed" v="50"/>
    <tag k="maxspeed:source" v="default residential speed limit in Australia"/>
    <tag k="name" v="Bedford Street"/>
    <tag k="source" v="survey"/>
  </way>
  <way id="40792972" version="1" timestamp="2009-09-14T06:32:22Z" uid="30201" user="rrankin" changeset="2478124">
    <nd ref="495961520"/>
    <nd ref="495961596"/>
    <nd ref="495961519"/>
    <nd ref="495961590"/>
    <nd ref="495961518"/>
    <nd ref="495961525"/>
    <nd ref="495961524"/>
    <nd ref="495961523"/>
    <nd ref="495961522"/>
    <nd ref="495961569"/>
    <nd ref="495961529"/>
    <nd ref="495961528"/>
    <nd ref="495961527"/>
    <nd ref="495961531"/>
    <nd ref="495961526"/>
    <tag k="highway" v="residential"/>
    <tag k="name" v="Graeme Street"/>
    <tag k="source" v="survey"/>
  </way>
  <way id="40792972" version="2" timestamp="2010-07-08T04:48:52Z" uid="74617" user="JohnSmith" changeset="5163091">
    <nd ref="495961520"/>
    <nd ref="495961596"/>
    <nd ref="495961519"/>
    <nd ref="495961590"/>
    <nd ref="495961518"/>
    <nd ref="495961525"/>
    <nd ref="495961524"/>
    <nd ref="495961523"/>
    <nd ref="495961522"/>
    <nd ref="495961569"/>
    <nd ref="495961529"/>
    <nd ref="495961528"/>
    <nd ref="495961527"/>
    <nd ref="495961531"/>
    <nd ref="495961526"/>
    <tag k="highway" v="residential"/>
    <tag k="maxspeed" v="50"/>
    <tag k="maxspeed:source" v="default residential speed limit in Australia"/>
    <tag k="name" v="Graeme Street"/>
    <tag k="source" v="survey"/>
  </way>
  <way id="40792973" version="1" timestamp="2009-09-14T06:32:22Z" uid="30201" user="rrankin" changeset="2478124">
    <nd ref="495961515"/>
    <nd ref="495961514"/>
    <tag k="bridge" v="yes"/>
    <tag k="highway" v="residential"/>
    <tag k="layer" v="1"/>
    <tag k="name" v="Perth Street"/>
    <tag k="source" v="survey"/>
  </way>
  <way id="40792973" version="2" timestamp="2010-07-08T04:49:20Z" uid="74617" user="JohnSmith" changeset="5163091">
    <nd ref="495961515"/>
    <nd ref="495961514"/>
    <tag k="bridge" v="yes"/>
    <tag k="highway" v="residential"/>
    <tag k="layer" v="1"/>
    <tag k="maxspeed" v="50"/>
    <tag k="maxspeed:source" v="default residential speed limit in Australia"/>
    <tag k="name" v="Perth Street"/>
    <tag k="source" v="survey"/>
  </way>
  <way id="40792974" version="1" timestamp="2009-09-14T06:32:22Z" uid="30201" user="rrankin" changeset="2478124">
    <nd ref="495961526"/>
    <nd ref="495961534"/>
    <nd ref="495961535"/>
    <nd ref="495961536"/>
    <nd ref="495961537"/>
    <nd ref="495961530"/>
    <tag k="highway" v="unclassified"/>
    <tag k="name" v="Wells Gully Road"/>
    <tag k="source" v="survey"/>
  </way>
  <way id="40792975" version="1" timestamp="2009-09-14T06:32:22Z" uid="30201" user="rrankin" changeset="2478124">
    <nd ref="495961469"/>
    <nd ref="495961470"/>
    <tag k="highway" v="residential"/>
    <tag k="name" v="St Helliers Street"/>
    <tag k="source" v="survey"/>
  </way>
  <way id="40792975" version="2" timestamp="2010-07-08T04:48:59Z" uid="74617" user="JohnSmith" changeset="5163091">
    <nd ref="495961469"/>
    <nd ref="495961470"/>
    <tag k="highway" v="residential"/>
    <tag k="maxspeed" v="50"/>
    <tag k="maxspeed:source" v="default residential speed limit in Australia"/>
    <tag k="name" v="St Helliers Street"/>
    <tag k="source" v="survey"/>
  </way>
  <way id="40792976" version="1" timestamp="2009-09-14T06:32:22Z" uid="30201" user="rrankin" changeset="2478124">
    <nd ref="495961480"/>
    <nd ref="495961479"/>
    <nd ref="495961486"/>
    <tag k="highway" v="residential"/>
    <tag k="name" v="St Andrews Street"/>
    <tag k="source" v="survey"/>
  </way>
  <way id="40792976" version="2" timestamp="2010-07-08T04:49:02Z" uid="74617" user="JohnSmith" changeset="5163091">
    <nd ref="495961480"/>
    <nd ref="495961479"/>
    <nd ref="495961486"/>
    <tag k="highway" v="residential"/>
    <tag k="maxspeed" v="50"/>
    <tag k="maxspeed:source" v="default residential speed limit in Australia"/>
    <tag k="name" v="St Andrews Street"/>
    <tag k="source" v="survey"/>
  </way>
  <way id="40792977" version="1" timestamp="2009-09-14T06:32:22Z" uid="30201" user="rrankin" changeset="2478124">
    <nd ref="495961456"/>
    <nd ref="495961460"/>
    <nd ref="495961463"/>
    <nd ref="495961457"/>
    <tag k="highway" v="residential"/>
    <tag k="name" v="Gordon Street"/>
    <tag k="source" v="survey"/>
  </way>
  <way id="40792977" version="2" timestamp="2010-07-08T04:48:58Z" uid="74617" user="JohnSmith" changeset="5163091">
    <nd ref="495961456"/>
    <nd ref="495961460"/>
    <nd ref="495961463"/>
    <nd ref="495961457"/>
    <tag k="highway" v="residential"/>
    <tag k="maxspeed" v="50"/>
    <tag k="maxspeed:source" v="default residential speed limit in Australia"/>
    <tag k="name" v="Gordon Street"/>
    <tag k="source" v="survey"/>
  </way>
  <way id="40792978" version="1" timestamp="2009-09-14T06:32:23Z" uid="30201" user="rrankin" changeset="2478124">
    <nd ref="495961513"/>
    <nd ref="495961510"/>
    <nd ref="495961511"/>
    <nd ref="495961517"/>
    <nd ref="495961516"/>
    <tag k="highway" v="residential"/>
    <tag k="name" v="Alexander Close"/>
    <tag k="source" v="survey"/>
  </way>
  <way id="40792978" version="2" timestamp="2010-07-08T04:49:12Z" uid="74617" user="JohnSmith" changeset="5163091">
    <nd ref="495961513"/>
    <nd ref="495961510"/>
    <nd ref="495961511"/>
    <nd ref="495961517"/>
    <nd ref="495961516"/>
    <tag k="highway" v="residential"/>
    <tag k="maxspeed" v="50"/>
    <tag k="maxspeed:source" v="default residential speed limit in Australia"/>
    <tag k="name" v="Alexander Close"/>
    <tag k="source" v="survey"/>
  </way>
  <way id="40792979" version="1" timestamp="2009-09-14T06:32:23Z" uid="30201" user="rrankin" changeset="2478124">
    <nd ref="495961473"/>
    <nd ref="495961472"/>
    <nd ref="495961478"/>
    <nd ref="495961476"/>
    <nd ref="495961513"/>
    <nd ref="495961515"/>
    <tag k="highway" v="residential"/>
    <tag k="name" v="Perth Street"/>
    <tag k="source" v="survey"/>
  </way>
  <way id="40792979" version="2" timestamp="2010-07-08T04:49:06Z" uid="74617" user="JohnSmith" changeset="5163091">
    <nd ref="495961473"/>
    <nd ref="495961472"/>
    <nd ref="495961478"/>
    <nd ref="495961476"/>
    <nd ref="495961513"/>
    <nd ref="495961515"/>
    <tag k="highway" v="residential"/>
    <tag k="maxspeed" v="50"/>
    <tag k="maxspeed:source" v="default residential speed limit in Australia"/>
    <tag k="name" v="Perth Street"/>
    <tag k="source" v="survey"/>
  </way>
  <way id="40792980" version="1" timestamp="2009-09-14T06:32:23Z" uid="30201" user="rrankin" changeset="2478124">
    <nd ref="495961471"/>
    <nd ref="495961473"/>
    <tag k="highway" v="residential"/>
    <tag k="name" v="MacKenzie Street"/>
    <tag k="source" v="survey"/>
  </way>
  <way id="40792980" version="2" timestamp="2010-07-08T04:49:16Z" uid="74617" user="JohnSmith" changeset="5163091">
    <nd ref="495961471"/>
    <nd ref="495961473"/>
    <tag k="highway" v="residential"/>
    <tag k="maxspeed" v="50"/>
    <tag k="maxspeed:source" v="default residential speed limit in Australia"/>
    <tag k="name" v="MacKenzie Street"/>
    <tag k="source" v="survey"/>
  </way>
  <way id="40792981" version="1" timestamp="2009-09-14T06:32:23Z" uid="30201" user="rrankin" changeset="2478124">
    <nd ref="495961584"/>
    <nd ref="495961585"/>
    <nd ref="495961586"/>
    <nd ref="495961587"/>
    <nd ref="495961588"/>
    <tag k="highway" v="residential"/>
    <tag k="name" v="Short Street"/>
    <tag k="surface" v="unpaved"/>
  </way>
  <way id="40792981" version="2" timestamp="2010-07-08T04:49:08Z" uid="74617" user="JohnSmith" changeset="5163091">
    <nd ref="495961584"/>
    <nd ref="495961585"/>
    <nd ref="495961586"/>
    <nd ref="495961587"/>
    <nd ref="495961588"/>
    <tag k="highway" v="residential"/>
    <tag k="maxspeed" v="50"/>
    <tag k="maxspeed:source" v="default residential speed limit in Australia"/>
    <tag k="name" v="Short Street"/>
    <tag k="surface" v="unpaved"/>
  </way>
  <way id="40792982" version="1" timestamp="2009-09-14T06:32:23Z" uid="30201" user="rrankin" changeset="2478124">
    <nd ref="495961591"/>
    <nd ref="495961590"/>
    <nd ref="495961592"/>
    <nd ref="495961593"/>
    <nd ref="495961594"/>
    <nd ref="495961595"/>
    <nd ref="495961590"/>
    <tag k="highway" v="residential"/>
    <tag k="name" v="Kyuga Street"/>
  </way>
  <way id="40792982" version="2" timestamp="2010-07-08T04:48:51Z" uid="74617" user="JohnSmith" changeset="5163091">
    <nd ref="495961591"/>
    <nd ref="495961590"/>
    <nd ref="495961592"/>
    <nd ref="495961593"/>
    <nd ref="495961594"/>
    <nd ref="495961595"/>
    <nd ref="495961590"/>
    <tag k="highway" v="residential"/>
    <tag k="maxspeed" v="50"/>
    <tag k="maxspeed:source" v="default residential speed limit in Australia"/>
    <tag k="name" v="Kyuga Street"/>
  </way>
  <way id="40792983" version="1" timestamp="2009-09-14T06:32:23Z" uid="30201" user="rrankin" changeset="2478124">
    <nd ref="495961599"/>
    <nd ref="265088405"/>
    <nd ref="495961598"/>
    <nd ref="265088406"/>
    <nd ref="265088407"/>
    <nd ref="265088408"/>
    <nd ref="495961597"/>
    <nd ref="265088409"/>
    <nd ref="495961601"/>
    <nd ref="495961600"/>
    <nd ref="265088410"/>
    <tag k="highway" v="tertiary"/>
    <tag k="name" v="McAdam Street"/>
    <tag k="source" v="survey"/>
  </way>
  <way id="40792984" version="1" timestamp="2009-09-14T06:32:23Z" uid="30201" user="rrankin" changeset="2478124">
    <nd ref="495961602"/>
    <nd ref="495961605"/>
    <nd ref="495961608"/>
    <nd ref="495961603"/>
    <tag k="highway" v="residential"/>
    <tag k="name" v="Hall Street"/>
    <tag k="source" v="survey"/>
  </way>
  <way id="40792984" version="2" timestamp="2010-07-08T04:48:54Z" uid="74617" user="JohnSmith" changeset="5163091">
    <nd ref="495961602"/>
    <nd ref="495961605"/>
    <nd ref="495961608"/>
    <nd ref="495961603"/>
    <tag k="highway" v="residential"/>
    <tag k="maxspeed" v="50"/>
    <tag k="maxspeed:source" v="default residential speed limit in Australia"/>
    <tag k="name" v="Hall Street"/>
    <tag k="source" v="survey"/>
  </way>
  <way id="40792985" version="1" timestamp="2009-09-14T06:32:24Z" uid="30201" user="rrankin" changeset="2478124">
    <nd ref="495961603"/>
    <nd ref="495961604"/>
    <tag k="highway" v="residential"/>
    <tag k="name" v="Nandowra Street"/>
    <tag k="source" v="survey"/>
  </way>
  <way id="40792985" version="2" timestamp="2010-07-08T04:48:48Z" uid="74617" user="JohnSmith" changeset="5163091">
    <nd ref="495961603"/>
    <nd ref="495961604"/>
    <tag k="highway" v="residential"/>
    <tag k="maxspeed" v="50"/>
    <tag k="maxspeed:source" v="default residential speed limit in Australia"/>
    <tag k="name" v="Nandowra Street"/>
    <tag k="source" v="survey"/>
  </way>
  <way id="40792986" version="1" timestamp="2009-09-14T06:32:24Z" uid="30201" user="rrankin" changeset="2478124">
    <nd ref="495961605"/>
    <nd ref="495961606"/>
    <tag k="highway" v="residential"/>
    <tag k="name" v="Dart Street"/>
    <tag k="source" v="survey"/>
  </way>
  <way id="40792986" version="2" timestamp="2010-07-08T04:49:04Z" uid="74617" user="JohnSmith" changeset="5163091">
    <nd ref="495961605"/>
    <nd ref="495961606"/>
    <tag k="highway" v="residential"/>
    <tag k="maxspeed" v="50"/>
    <tag k="maxspeed:source" v="default residential speed limit in Australia"/>
    <tag k="name" v="Dart Street"/>
    <tag k="source" v="survey"/>
  </way>
  <way id="40792987" version="1" timestamp="2009-09-14T06:32:24Z" uid="30201" user="rrankin" changeset="2478124">
    <nd ref="495961607"/>
    <nd ref="495961608"/>
    <tag k="highway" v="residential"/>
    <tag k="name" v="Gundebri Street"/>
    <tag k="source" v="survey"/>
  </way>
  <way id="40792987" version="2" timestamp="2010-07-08T04:49:00Z" uid="74617" user="JohnSmith" changeset="5163091">
    <nd ref="495961607"/>
    <nd ref="495961608"/>
    <tag k="highway" v="residential"/>
    <tag k="maxspeed" v="50"/>
    <tag k="maxspeed:source" v="default residential speed limit in Australia"/>
    <tag k="name" v="Gundebri Street"/>
    <tag k="source" v="survey"/>
  </way>
</osm>
