<?xml version='1.0' encoding='UTF-8'?>
<osm version="0.6" generator="libosmium/2.20.0">
  <way id="40794189" version="2" timestamp="2010-12-06T21:21:59Z" uid="8619" user="cetest" changeset="6568610">
    <nd ref="267408635"/>
    <nd ref="1025514818"/>
    <nd ref="495980950"/>
    <tag k="highway" v="tertiary"/>
    <tag k="note" v="FIXME"/>
  </way>
  <way id="40794189" version="3" timestamp="2010-12-08T20:40:09Z" uid="8619" user="cetest" changeset="6589161">
    <nd ref="267408635"/>
    <nd ref="1025514818"/>
    <nd ref="1028609154"/>
    <nd ref="495980950"/>
    <tag k="highway" v="tertiary"/>
    <tag k="note" v="FIXME"/>
  </way>
  <way id="40794458" version="2" timestamp="2010-09-09T08:55:18Z" uid="115477" user="wowik" changeset="5730823">
    <nd ref="495964667"/>
    <nd ref="495964659"/>
    <nd ref="495964661"/>
    <nd ref="495964664"/>
    <nd ref="495964667"/>
    <tag k="barrier" v="fence"/>
    <tag k="landuse" v="industrial"/>
    <tag k="layer" v="-1"/>
  </way>
  <way id="40794653" version="3" timestamp="2011-06-10T08:21:30Z" uid="115477" user="wowik" changeset="8394902">
    <nd ref="495982986"/>
    <nd ref="495982602"/>
    <nd ref="495982535"/>
    <nd ref="495982536"/>
    <nd ref="495984024"/>
    <nd ref="495982539"/>
    <nd ref="495982540"/>
    <nd ref="495982530"/>
    <nd ref="495982531"/>
    <nd ref="495982533"/>
    <nd ref="495983293"/>
    <nd ref="495982534"/>
    <nd ref="495982558"/>
    <nd ref="725228973"/>
    <nd ref="1318553036"/>
    <nd ref="495982561"/>
    <nd ref="1318553037"/>
    <nd ref="495984679"/>
    <nd ref="495982567"/>
    <tag k="highway" v="residential"/>
  </way>
  <way id="40794772" version="2" timestamp="2011-06-10T08:22:57Z" uid="115477" user="wowik" changeset="8394902">
    <nd ref="60656269"/>
    <nd ref="495982999"/>
    <nd ref="1318554207"/>
    <nd ref="495983005"/>
    <nd ref="495983009"/>
    <nd ref="495983001"/>
    <tag k="highway" v="residential"/>
  </way>
  <way id="40794984" version="1" timestamp="2009-09-14T08:06:49Z" uid="30201" user="rrankin" changeset="2478799">
    <nd ref="495986050"/>
    <nd ref="412753009"/>
    <nd ref="412753010"/>
    <nd ref="445968128"/>
    <nd ref="445968129"/>
    <tag k="highway" v="tertiary"/>
    <tag k="source" v="yahoo"/>
  </way>
  <way id="40794984" version="2" timestamp="2009-09-17T23:18:09Z" uid="4467" user="Rosscoe" changeset="2517965"/>
  <way id="40794985" version="1" timestamp="2009-09-14T08:06:49Z" uid="30201" user="rrankin" changeset="2478799">
    <nd ref="495986076"/>
    <nd ref="495986088"/>
    <nd ref="495986079"/>
    <nd ref="495986078"/>
    <nd ref="495986081"/>
    <nd ref="495986074"/>
    <tag k="highway" v="residential"/>
    <tag k="name" v="George Street"/>
    <tag k="source" v="survey"/>
  </way>
  <way id="40794985" version="2" timestamp="2009-09-14T10:43:09Z" uid="30201" user="rrankin" changeset="2480398">
    <nd ref="495986076"/>
    <nd ref="495986088"/>
    <nd ref="495986079"/>
    <nd ref="495986078"/>
    <nd ref="496055843"/>
    <nd ref="495986081"/>
    <nd ref="495986074"/>
    <tag k="highway" v="residential"/>
    <tag k="name" v="George Street"/>
    <tag k="source" v="survey"/>
  </way>
  <way id="40794986" version="1" timestamp="2009-09-14T08:06:49Z" uid="30201" user="rrankin" changeset="2478799">
    <nd ref="495986066"/>
    <nd ref="495986068"/>
    <nd ref="495986069"/>
    <nd ref="495986070"/>
    <nd ref="495986071"/>
    <nd ref="495986072"/>
    <tag k="highway" v="residential"/>
    <tag k="name" v="Cemetery Street"/>
    <tag k="source" v="survey"/>
  </way>
  <way id="40794987" version="1" timestamp="2009-09-14T08:06:49Z" uid="30201" user="rrankin" changeset="2478799">
    <nd ref="495986053"/>
    <nd ref="495986113"/>
    <nd ref="495986075"/>
    <tag k="highway" v="residential"/>
    <tag k="name" v="Davenport Street"/>
    <tag k="source" v="survey"/>
  </way>
  <way id="40794988" version="1" timestamp="2009-09-14T08:06:50Z" uid="30201" user="rrankin" changeset="2478799">
    <nd ref="495986051"/>
    <nd ref="495986053"/>
    <nd ref="495986054"/>
    <nd ref="495986076"/>
    <nd ref="495986055"/>
    <nd ref="495986056"/>
    <nd ref="495986057"/>
    <nd ref="495986058"/>
    <nd ref="495986059"/>
    <nd ref="495986060"/>
    <nd ref="495986061"/>
    <nd ref="495986062"/>
    <nd ref="495986063"/>
    <nd ref="495986064"/>
    <nd ref="495986065"/>
    <nd ref="495986066"/>
    <tag k="highway" v="residential"/>
    <tag k="name" v="Clark Street"/>
    <tag k="source" v="survey"/>
  </way>
  <way id="40794989" version="1" timestamp="2009-09-14T08:06:50Z" uid="30201" user="rrankin" changeset="2478799">
    <nd ref="495986073"/>
    <nd ref="495986077"/>
    <nd ref="495986051"/>
    <tag k="highway" v="residential"/>
    <tag k="name" v="Gannan Street"/>
    <tag k="source" v="survey"/>
  </way>
  <way id="40794990" version="1" timestamp="2009-09-14T08:06:50Z" uid="30201" user="rrankin" changeset="2478799">
    <nd ref="495986074"/>
    <nd ref="495986075"/>
    <nd ref="495986073"/>
    <tag k="highway" v="residential"/>
    <tag k="name" v="Morton Street"/>
    <tag k="source" v="survey"/>
  </way>
  <way id="40794991" version="1" timestamp="2009-09-14T08:06:50Z" uid="30201" user="rrankin" changeset="2478799">
    <nd ref="495986077"/>
    <nd ref="495986113"/>
    <nd ref="495986078"/>
    <tag k="highway" v="residential"/>
    <tag k="name" v="Walker Street"/>
    <tag k="source" v="survey"/>
  </way>
  <way id="40794992" version="1" timestamp="2009-09-14T08:06:50Z" uid="30201" user="rrankin" changeset="2478799">
    <nd ref="495986079"/>
    <nd ref="495986083"/>
    <nd ref="495986080"/>
    <tag k="highway" v="residential"/>
    <tag k="name" v="John Street"/>
    <tag k="source" v="survey"/>
  </way>
  <way id="40794993" version="1" timestamp="2009-09-14T08:06:50Z" uid="30201" user="rrankin" changeset="2478799">
    <nd ref="495986081"/>
    <nd ref="495986084"/>
    <nd ref="495986089"/>
    <nd ref="495986082"/>
    <tag k="highway" v="residential"/>
    <tag k="name" v="Norman Street"/>
    <tag k="source" v="survey"/>
  </way>
  <way id="40794993" version="2" timestamp="2009-09-14T09:35:53Z" uid="30201" user="rrankin" changeset="2479688">
    <nd ref="495986081"/>
    <nd ref="495986084"/>
    <nd ref="496008662"/>
    <nd ref="495986089"/>
    <nd ref="495986082"/>
    <tag k="highway" v="residential"/>
    <tag k="name" v="Norman Street"/>
    <tag k="source" v="survey"/>
  </way>
  <way id="40794994" version="1" timestamp="2009-09-14T08:06:50Z" uid="30201" user="rrankin" changeset="2478799">
    <nd ref="495986057"/>
    <nd ref="495986087"/>
    <nd ref="495986083"/>
    <nd ref="495986084"/>
    <nd ref="495986086"/>
    <tag k="highway" v="residential"/>
    <tag k="name" v="Kates Street"/>
    <tag k="source" v="survey"/>
  </way>
  <way id="40794995" version="1" timestamp="2009-09-14T08:06:50Z" uid="30201" user="rrankin" changeset="2478799">
    <nd ref="495986087"/>
    <nd ref="495986088"/>
    <tag k="highway" v="residential"/>
    <tag k="name" v="Morgan Street"/>
    <tag k="source" v="survey"/>
  </way>
  <way id="40794996" version="1" timestamp="2009-09-14T08:06:50Z" uid="30201" user="rrankin" changeset="2478799">
    <nd ref="495986058"/>
    <nd ref="495986080"/>
    <nd ref="495986089"/>
    <tag k="highway" v="residential"/>
    <tag k="name" v="Queen Street"/>
    <tag k="source" v="survey"/>
  </way>
  <way id="40794997" version="1" timestamp="2009-09-14T08:06:50Z" uid="30201" user="rrankin" changeset="2478799">
    <nd ref="495986059"/>
    <nd ref="495986082"/>
    <nd ref="495986091"/>
    <tag k="highway" v="residential"/>
    <tag k="name" v="Fisher Street"/>
    <tag k="source" v="survey"/>
  </way>
  <way id="40794998" version="1" timestamp="2009-09-14T08:06:51Z" uid="30201" user="rrankin" changeset="2478799">
    <nd ref="495986061"/>
    <nd ref="495986092"/>
    <tag k="highway" v="residential"/>
    <tag k="name" v="Commonwealth Street"/>
    <tag k="source" v="survey"/>
  </way>
  <way id="40794998" version="2" timestamp="2009-09-14T09:35:53Z" uid="30201" user="rrankin" changeset="2479688">
    <nd ref="495986061"/>
    <nd ref="496008673"/>
    <nd ref="495986092"/>
    <tag k="highway" v="residential"/>
    <tag k="name" v="Commonwealth Street"/>
    <tag k="source" v="survey"/>
  </way>
  <way id="40794999" version="1" timestamp="2009-09-14T08:06:51Z" uid="30201" user="rrankin" changeset="2478799">
    <nd ref="495986062"/>
    <nd ref="495986094"/>
    <nd ref="495986095"/>
    <nd ref="495986093"/>
    <tag k="highway" v="residential"/>
    <tag k="name" v="Mason Street"/>
    <tag k="source" v="survey"/>
  </way>
  <way id="40794999" version="2" timestamp="2009-09-14T09:35:53Z" uid="30201" user="rrankin" changeset="2479688">
    <nd ref="495986062"/>
    <nd ref="496008674"/>
    <nd ref="495986094"/>
    <nd ref="495986095"/>
    <nd ref="495986093"/>
    <tag k="highway" v="residential"/>
    <tag k="name" v="Mason Street"/>
    <tag k="source" v="survey"/>
  </way>
</osm>
