<?xml version='1.0' encoding='UTF-8'?>
<osm version="0.6" generator="libosmium/2.20.0">
  <way id="40799944" version="2" timestamp="2009-11-01T19:00:04Z" uid="20587" user="balrog-kun" changeset="3009848">
    <nd ref="496055200"/>
    <nd ref="496055199"/>
    <tag k="alt_name" v="Kolej Wiedeńska"/>
    <tag k="bridge" v="yes"/>
    <tag k="electrified" v="contact_line"/>
    <tag k="frequency" v="0"/>
    <tag k="layer" v="1"/>
    <tag k="maxspeed" v="140"/>
    <tag k="name" v="Linia Warszawa Centralna - Katowice"/>
    <tag k="operator" v="PLK S.A."/>
    <tag k="railway" v="rail"/>
    <tag k="ref" v="1"/>
    <tag k="voltage" v="3000"/>
    <tag k="wikipedia" v="pl:Linia kolejowa nr 1"/>
  </way>
  <way id="40799944" version="3" timestamp="2009-11-11T11:15:11Z" uid="20587" user="balrog-kun" changeset="3089068">
    <nd ref="496055200"/>
    <nd ref="496055199"/>
    <tag k="bridge" v="yes"/>
    <tag k="electrified" v="contact_line"/>
    <tag k="frequency" v="0"/>
    <tag k="layer" v="1"/>
    <tag k="maxspeed" v="140"/>
    <tag k="railway" v="rail"/>
    <tag k="voltage" v="3000"/>
  </way>
  <way id="40799945" version="4" timestamp="2009-11-01T19:00:04Z" uid="20587" user="balrog-kun" changeset="3009848">
    <nd ref="496055199"/>
    <nd ref="496055198"/>
    <nd ref="364045745"/>
    <nd ref="364045746"/>
    <nd ref="364045747"/>
    <nd ref="364045748"/>
    <nd ref="365550304"/>
    <nd ref="365550306"/>
    <nd ref="520162463"/>
    <nd ref="365550308"/>
    <nd ref="476301077"/>
    <nd ref="476301083"/>
    <nd ref="476301081"/>
    <nd ref="476301084"/>
    <nd ref="506674304"/>
    <nd ref="473698391"/>
    <tag k="alt_name" v="Kolej Wiedeńska"/>
    <tag k="electrified" v="contact_line"/>
    <tag k="frequency" v="0"/>
    <tag k="layer" v="0"/>
    <tag k="maxspeed" v="140"/>
    <tag k="name" v="Linia Warszawa Centralna - Katowice"/>
    <tag k="operator" v="PLK S.A."/>
    <tag k="railway" v="rail"/>
    <tag k="ref" v="1"/>
    <tag k="voltage" v="3000"/>
    <tag k="wikipedia" v="pl:Linia kolejowa nr 1"/>
  </way>
  <way id="40799945" version="5" timestamp="2009-11-11T11:15:05Z" uid="20587" user="balrog-kun" changeset="3089068">
    <nd ref="496055199"/>
    <nd ref="496055198"/>
    <nd ref="364045745"/>
    <nd ref="364045746"/>
    <nd ref="364045747"/>
    <nd ref="364045748"/>
    <nd ref="365550304"/>
    <nd ref="365550306"/>
    <nd ref="520162463"/>
    <nd ref="365550308"/>
    <nd ref="476301077"/>
    <nd ref="476301083"/>
    <nd ref="476301081"/>
    <nd ref="476301084"/>
    <nd ref="506674304"/>
    <nd ref="473698391"/>
    <tag k="electrified" v="contact_line"/>
    <tag k="frequency" v="0"/>
    <tag k="layer" v="0"/>
    <tag k="maxspeed" v="140"/>
    <tag k="railway" v="rail"/>
    <tag k="voltage" v="3000"/>
  </way>
  <way id="40799947" version="3" timestamp="2009-11-11T11:15:10Z" uid="20587" user="balrog-kun" changeset="3089068">
    <nd ref="496055209"/>
    <nd ref="364044727"/>
    <nd ref="364044729"/>
    <nd ref="364044730"/>
    <nd ref="496055206"/>
    <nd ref="364044731"/>
    <nd ref="364044732"/>
    <nd ref="364044733"/>
    <nd ref="539107698"/>
    <nd ref="364044734"/>
    <nd ref="364044735"/>
    <tag k="railway" v="rail"/>
  </way>
  <way id="40799979" version="3" timestamp="2010-04-09T21:59:17Z" uid="34428" user="usm78-gis" changeset="4378030">
    <nd ref="478230393"/>
    <nd ref="478230392"/>
    <nd ref="478230391"/>
    <nd ref="478230390"/>
    <nd ref="478230387"/>
    <nd ref="478230386"/>
    <tag k="highway" v="residential"/>
    <tag k="name" v="Круговая ул."/>
  </way>
  <way id="40799979" version="4" timestamp="2010-04-09T21:59:18Z" uid="34428" user="usm78-gis" changeset="4378030">
    <nd ref="478230393"/>
    <nd ref="478230392"/>
    <nd ref="478230391"/>
    <nd ref="478230390"/>
    <nd ref="478230387"/>
    <tag k="highway" v="residential"/>
    <tag k="name" v="Круговая ул."/>
  </way>
</osm>
