<?xml version='1.0' encoding='UTF-8'?>
<osm version="0.6" generator="libosmium/2.20.0">
  <way id="4080212" version="9" timestamp="2010-07-09T04:54:30Z" uid="74617" user="JohnSmith" changeset="5170972">
    <nd ref="21643811"/>
    <nd ref="514120766"/>
    <nd ref="514121206"/>
    <nd ref="21643787"/>
    <nd ref="21643706"/>
    <nd ref="21643673"/>
    <nd ref="21643718"/>
    <nd ref="21643659"/>
    <nd ref="21643713"/>
    <nd ref="514121928"/>
    <nd ref="21643685"/>
    <tag k="highway" v="residential"/>
    <tag k="maxspeed" v="50"/>
    <tag k="maxspeed:source" v="default residential speed limit in Australia"/>
    <tag k="name" v="Wakefield Street"/>
  </way>
  <way id="4080213" version="17" timestamp="2010-07-09T04:56:38Z" uid="74617" user="JohnSmith" changeset="5170972">
    <nd ref="21643682"/>
    <nd ref="514121706"/>
    <nd ref="350902412"/>
    <nd ref="514122647"/>
    <nd ref="21643685"/>
    <nd ref="730614628"/>
    <nd ref="730613647"/>
    <nd ref="730615284"/>
    <nd ref="304715000"/>
    <nd ref="730615470"/>
    <nd ref="246707481"/>
    <nd ref="246707306"/>
    <tag k="highway" v="residential"/>
    <tag k="maxspeed" v="50"/>
    <tag k="maxspeed:source" v="default residential speed limit in Australia"/>
    <tag k="name" v="William Street"/>
    <tag k="source" v="unknown,nearmap"/>
  </way>
  <way id="4080217" version="10" timestamp="2010-04-26T23:27:54Z" uid="4467" user="Rosscoe" changeset="4537270">
    <nd ref="21643695"/>
    <nd ref="346142731"/>
    <nd ref="708267959"/>
    <tag k="highway" v="tertiary"/>
    <tag k="name" v="Harold Street"/>
  </way>
  <way id="4080392" version="13" timestamp="2009-02-14T01:19:00Z" uid="36809" user="pfoten_weg_!_" changeset="423851">
    <nd ref="19371337"/>
    <nd ref="1956058"/>
    <tag k="created_by" v="RambaZamba"/>
    <tag k="cycleway" v="track"/>
    <tag k="highway" v="primary"/>
    <tag k="name" v="Situlistraße"/>
    <tag k="ref" v="B 11"/>
    <tag k="source" v="survey"/>
  </way>
  <way id="4080565" version="1" timestamp="2006-12-19T22:44:09Z" uid="4667" user="MapZ" changeset="170513">
    <nd ref="20978875"/>
    <nd ref="20977707"/>
    <nd ref="20977714"/>
    <nd ref="20977716"/>
    <nd ref="20977720"/>
    <nd ref="20977726"/>
    <nd ref="20977732"/>
    <nd ref="20977738"/>
    <nd ref="20977744"/>
    <nd ref="20977750"/>
    <tag k="created_by" v="JOSM"/>
    <tag k="highway" v="secondary"/>
  </way>
  <way id="4080565" version="5" timestamp="2010-01-16T12:08:57Z" uid="9581" user="Lobelt" changeset="3630837">
    <nd ref="20977702"/>
    <nd ref="20977707"/>
    <nd ref="20977714"/>
    <nd ref="20977716"/>
    <nd ref="20977720"/>
    <nd ref="614602642"/>
    <nd ref="20977726"/>
    <nd ref="20977732"/>
    <nd ref="20977738"/>
    <nd ref="20977744"/>
    <nd ref="20977750"/>
    <tag k="highway" v="secondary"/>
    <tag k="ref" v="L 597"/>
  </way>
  <way id="4080671" version="1" timestamp="2007-07-11T22:30:08Z" uid="8328" user="benpre" changeset="141044">
    <nd ref="536672"/>
    <nd ref="536671"/>
    <nd ref="14293277"/>
    <tag k="bicycle" v="yes"/>
    <tag k="created_by" v="JOSM"/>
    <tag k="foot" v="yes"/>
    <tag k="highway" v="secondary"/>
    <tag k="motorcar" v="yes"/>
    <tag k="name" v="Hamburger Straße"/>
  </way>
  <way id="4080878" version="4" timestamp="2009-03-29T09:07:38Z" uid="111804" user="Ammar Merzah" changeset="869020">
    <nd ref="21629940"/>
    <nd ref="21650542"/>
    <nd ref="21650543"/>
    <tag k="bridge" v="yes"/>
    <tag k="created_by" v="Potlatch 0.10f"/>
    <tag k="layer" v="1"/>
    <tag k="name" v="الجمهورية"/>
  </way>
  <way id="4080939" version="25" timestamp="2010-05-26T04:29:28Z" uid="4467" user="Rosscoe" changeset="4809656">
    <nd ref="21650912"/>
    <nd ref="662734792"/>
    <nd ref="21650909"/>
    <nd ref="311436293"/>
    <nd ref="255023659"/>
    <tag k="highway" v="tertiary"/>
    <tag k="name" v="Prospect Hill Road"/>
    <tag k="source" v="nearmap"/>
  </way>
  <way id="4080941" version="5" timestamp="2010-03-27T07:41:06Z" uid="20587" user="balrog-kun" changeset="4244079">
    <nd ref="21650941"/>
    <nd ref="21650942"/>
    <nd ref="123079333"/>
    <nd ref="21650943"/>
    <nd ref="123079339"/>
    <nd ref="72402794"/>
    <nd ref="18453030"/>
    <tag k="highway" v="residential"/>
    <tag k="name" v="Thomas Street"/>
    <tag k="source" v="survey;image;usgs_imagery"/>
    <tag k="source_ref" v="AM909_DSCR9642"/>
  </way>
  <way id="4080943" version="4" timestamp="2010-03-27T07:41:06Z" uid="20587" user="balrog-kun" changeset="4244079">
    <nd ref="21650951"/>
    <nd ref="21650952"/>
    <nd ref="614226041"/>
    <nd ref="614226042"/>
    <nd ref="614226040"/>
    <nd ref="21650953"/>
    <nd ref="72448967"/>
    <nd ref="72448952"/>
    <nd ref="614226017"/>
    <nd ref="21650954"/>
    <nd ref="21650955"/>
    <tag k="highway" v="residential"/>
    <tag k="name" v="Prewit Street"/>
  </way>
  <way id="4080945" version="2" timestamp="2010-03-27T07:41:06Z" uid="20587" user="balrog-kun" changeset="4244079">
    <nd ref="21650974"/>
    <nd ref="21650975"/>
    <tag k="created_by" v="JOSM"/>
    <tag k="highway" v="residential"/>
    <tag k="name" v="Avenue 27"/>
  </way>
  <way id="4080947" version="7" timestamp="2010-03-27T07:41:06Z" uid="20587" user="balrog-kun" changeset="4244079">
    <nd ref="364612185"/>
    <nd ref="27292008"/>
    <nd ref="21650977"/>
    <tag k="created_by" v="Potlatch 0.10f"/>
    <tag k="highway" v="residential"/>
    <tag k="name" v="Avenue 38"/>
  </way>
  <way id="4080948" version="3" timestamp="2010-03-27T07:41:06Z" uid="20587" user="balrog-kun" changeset="4244079">
    <nd ref="21507181"/>
    <nd ref="21650981"/>
    <nd ref="21650982"/>
    <nd ref="21650983"/>
    <nd ref="21650980"/>
    <nd ref="567247248"/>
    <nd ref="21650984"/>
    <nd ref="567247249"/>
    <nd ref="21650985"/>
    <nd ref="21507182"/>
    <tag k="highway" v="residential"/>
    <tag k="name" v="Hayes Avenue"/>
  </way>
  <way id="4080949" version="6" timestamp="2010-03-27T07:41:06Z" uid="20587" user="balrog-kun" changeset="4244079">
    <nd ref="18364118"/>
    <nd ref="18364115"/>
    <nd ref="111964671"/>
    <nd ref="19809018"/>
    <nd ref="21650987"/>
    <nd ref="123185480"/>
    <nd ref="123185483"/>
    <nd ref="21650988"/>
    <tag k="highway" v="residential"/>
    <tag k="name" v="Avenue 59"/>
  </way>
  <way id="4080950" version="4" timestamp="2010-03-27T07:41:06Z" uid="20587" user="balrog-kun" changeset="4244079">
    <nd ref="21650991"/>
    <nd ref="21650992"/>
    <nd ref="21650993"/>
    <nd ref="18075316"/>
    <nd ref="21650994"/>
    <nd ref="21650995"/>
    <nd ref="21650996"/>
    <nd ref="21650997"/>
    <nd ref="21650998"/>
    <nd ref="24396761"/>
    <nd ref="25583602"/>
    <tag k="created_by" v="JOSM"/>
    <tag k="highway" v="residential"/>
    <tag k="name" v="Avenue 57"/>
  </way>
  <way id="4080951" version="4" timestamp="2010-03-27T07:41:07Z" uid="20587" user="balrog-kun" changeset="4244079">
    <nd ref="21651001"/>
    <nd ref="503827098"/>
    <nd ref="503824810"/>
    <nd ref="18410619"/>
    <tag k="highway" v="residential"/>
    <tag k="name" v="Munsen Avenue"/>
  </way>
  <way id="4080964" version="6" timestamp="2009-08-31T21:38:04Z" uid="36809" user="pfoten_weg_!_" changeset="2331946">
    <nd ref="10258385"/>
    <nd ref="420299548"/>
    <nd ref="21646593"/>
    <nd ref="21646592"/>
    <tag k="bicycle" v="no"/>
    <tag k="highway" v="footway"/>
  </way>
</osm>
