<?xml version='1.0' encoding='UTF-8'?>
<osm version="0.6" generator="libosmium/2.20.0">
  <way id="40805057" version="2" timestamp="2010-04-07T13:53:28Z" uid="20587" user="balrog-kun" changeset="4353646">
    <nd ref="82288670"/>
    <nd ref="496127057"/>
    <tag k="bridge" v="yes"/>
    <tag k="highway" v="secondary"/>
    <tag k="layer" v="1"/>
    <tag k="name" v="South Main Street"/>
    <tag k="name_1" v="State Highway 171"/>
    <tag k="tiger:cfcc" v="A31"/>
    <tag k="tiger:county" v="Parker, TX"/>
    <tag k="tiger:name_base" v="Main"/>
    <tag k="tiger:name_base_1" v="State Highway 171"/>
    <tag k="tiger:name_direction_prefix" v="S"/>
    <tag k="tiger:name_type" v="St"/>
    <tag k="tiger:reviewed" v="no"/>
    <tag k="tiger:separated" v="no"/>
    <tag k="tiger:source" v="tiger_import_dch_v0.6_20070830"/>
    <tag k="tiger:tlid" v="103588291"/>
  </way>
  <way id="40805060" version="2" timestamp="2010-04-07T13:53:28Z" uid="20587" user="balrog-kun" changeset="4353646">
    <nd ref="496127057"/>
    <nd ref="82291648"/>
    <nd ref="314676023"/>
    <nd ref="82314995"/>
    <nd ref="314792877"/>
    <nd ref="82291615"/>
    <nd ref="82314989"/>
    <nd ref="314675162"/>
    <nd ref="314675156"/>
    <nd ref="82314979"/>
    <nd ref="82314977"/>
    <nd ref="82270983"/>
    <tag k="highway" v="secondary"/>
    <tag k="name" v="South Main Street"/>
    <tag k="name_1" v="State Highway 171"/>
    <tag k="tiger:cfcc" v="A31"/>
    <tag k="tiger:county" v="Parker, TX"/>
    <tag k="tiger:name_base" v="Main"/>
    <tag k="tiger:name_base_1" v="State Highway 171"/>
    <tag k="tiger:name_direction_prefix" v="S"/>
    <tag k="tiger:name_type" v="St"/>
    <tag k="tiger:reviewed" v="no"/>
    <tag k="tiger:separated" v="no"/>
    <tag k="tiger:source" v="tiger_import_dch_v0.6_20070830"/>
    <tag k="tiger:tlid" v="103588291"/>
  </way>
  <way id="40805085" version="4" timestamp="2010-05-27T13:40:50Z" uid="4467" user="Rosscoe" changeset="4822071">
    <nd ref="496127109"/>
    <nd ref="619055404"/>
    <nd ref="496127108"/>
    <nd ref="496127107"/>
    <nd ref="619055406"/>
    <nd ref="496127105"/>
    <nd ref="496127106"/>
    <tag k="highway" v="tertiary"/>
    <tag k="name" v="Johanna Boulevard"/>
    <tag k="source" v="survey"/>
    <tag k="surface" v="paved"/>
  </way>
  <way id="40805087" version="2" timestamp="2009-10-17T11:30:54Z" uid="74617" user="JohnSmith" changeset="2872865">
    <nd ref="445183849"/>
    <nd ref="496127110"/>
    <nd ref="496127116"/>
    <nd ref="496127111"/>
    <nd ref="534184429"/>
    <nd ref="534184431"/>
    <nd ref="534184434"/>
    <nd ref="534184442"/>
    <nd ref="496127113"/>
    <tag k="highway" v="residential"/>
    <tag k="name" v="Johnston Street"/>
    <tag k="surface" v="paved"/>
  </way>
  <way id="40805087" version="3" timestamp="2009-10-17T13:18:07Z" uid="74617" user="JohnSmith" changeset="2873874">
    <nd ref="445183849"/>
    <nd ref="496127110"/>
    <nd ref="496127116"/>
    <nd ref="496127111"/>
    <nd ref="534184429"/>
    <nd ref="534255946"/>
    <nd ref="534184431"/>
    <nd ref="534184434"/>
    <nd ref="534184442"/>
    <nd ref="496127113"/>
    <tag k="highway" v="residential"/>
    <tag k="name" v="Johnston Street"/>
    <tag k="surface" v="paved"/>
  </way>
  <way id="40805087" version="4" timestamp="2010-05-27T13:40:47Z" uid="4467" user="Rosscoe" changeset="4822071">
    <nd ref="445183849"/>
    <nd ref="496127110"/>
    <nd ref="496127116"/>
    <nd ref="496127111"/>
    <nd ref="534184429"/>
    <nd ref="534255946"/>
    <nd ref="534184431"/>
    <nd ref="534184434"/>
    <nd ref="534184442"/>
    <nd ref="750838084"/>
    <tag k="highway" v="residential"/>
    <tag k="name" v="Johnston Street"/>
    <tag k="surface" v="paved"/>
  </way>
  <way id="40805087" version="5" timestamp="2010-07-08T05:04:31Z" uid="74617" user="JohnSmith" changeset="5163091">
    <nd ref="445183849"/>
    <nd ref="496127110"/>
    <nd ref="496127116"/>
    <nd ref="496127111"/>
    <nd ref="534184429"/>
    <nd ref="534255946"/>
    <nd ref="534184431"/>
    <nd ref="534184434"/>
    <nd ref="534184442"/>
    <nd ref="750838084"/>
    <tag k="highway" v="residential"/>
    <tag k="maxspeed" v="50"/>
    <tag k="maxspeed:source" v="default residential speed limit in Australia"/>
    <tag k="name" v="Johnston Street"/>
    <tag k="surface" v="paved"/>
  </way>
  <way id="40805087" version="7" timestamp="2010-08-03T03:03:22Z" uid="74617" user="JohnSmith" changeset="5386337">
    <nd ref="844360032"/>
    <nd ref="844360011"/>
    <nd ref="496127110"/>
    <nd ref="496127116"/>
    <nd ref="496127111"/>
    <nd ref="844360040"/>
    <nd ref="843396556"/>
    <nd ref="534184429"/>
    <nd ref="534184431"/>
    <nd ref="534184434"/>
    <nd ref="534184442"/>
    <nd ref="844359979"/>
    <nd ref="844359975"/>
    <nd ref="844360014"/>
    <nd ref="750838084"/>
    <tag k="highway" v="residential"/>
    <tag k="maxspeed" v="50"/>
    <tag k="maxspeed:source" v="default residential speed limit in Australia"/>
    <tag k="name" v="Johnston Street"/>
    <tag k="surface" v="paved"/>
  </way>
  <way id="40805088" version="2" timestamp="2009-10-17T13:54:07Z" uid="74617" user="JohnSmith" changeset="2874164">
    <nd ref="496127114"/>
    <nd ref="496127115"/>
    <nd ref="534272617"/>
    <nd ref="496127116"/>
    <tag k="highway" v="residential"/>
    <tag k="name" v="Bolewski Street"/>
    <tag k="source" v="survey"/>
    <tag k="surface" v="paved"/>
  </way>
  <way id="40805088" version="4" timestamp="2010-07-08T05:03:29Z" uid="74617" user="JohnSmith" changeset="5163091">
    <nd ref="496127114"/>
    <nd ref="496127115"/>
    <nd ref="534272617"/>
    <nd ref="628619252"/>
    <nd ref="496127116"/>
    <tag k="highway" v="residential"/>
    <tag k="maxspeed" v="50"/>
    <tag k="maxspeed:source" v="default residential speed limit in Australia"/>
    <tag k="name" v="Bolewski Street"/>
    <tag k="source" v="survey"/>
    <tag k="surface" v="paved"/>
  </way>
  <way id="40805089" version="2" timestamp="2010-06-02T00:52:59Z" uid="4467" user="Rosscoe" changeset="4879901">
    <nd ref="411935786"/>
    <nd ref="418740354"/>
    <tag k="highway" v="tertiary"/>
    <tag k="name" v="Enterprise Street"/>
    <tag k="oneway" v="yes"/>
    <tag k="source" v="survey"/>
  </way>
  <way id="40805091" version="3" timestamp="2009-10-17T13:18:07Z" uid="74617" user="JohnSmith" changeset="2873874">
    <nd ref="411935786"/>
    <nd ref="411935787"/>
    <nd ref="411935788"/>
    <nd ref="411935789"/>
    <nd ref="411935790"/>
    <nd ref="411935791"/>
    <nd ref="411935792"/>
    <nd ref="534255941"/>
    <nd ref="411935793"/>
    <nd ref="411935794"/>
    <nd ref="411935795"/>
    <nd ref="411935796"/>
    <nd ref="411935784"/>
    <nd ref="499663811"/>
    <tag k="highway" v="tertiary"/>
    <tag k="name" v="Enterprise St"/>
    <tag k="source" v="survey"/>
  </way>
  <way id="40805091" version="8" timestamp="2010-05-27T14:17:10Z" uid="4467" user="Rosscoe" changeset="4822455">
    <nd ref="411935786"/>
    <nd ref="411935787"/>
    <nd ref="411935788"/>
    <nd ref="617948453"/>
    <nd ref="617948452"/>
    <nd ref="617948451"/>
    <nd ref="617948454"/>
    <nd ref="411935789"/>
    <nd ref="411935790"/>
    <nd ref="617908645"/>
    <nd ref="619072688"/>
    <tag k="highway" v="tertiary"/>
    <tag k="name" v="Enterprise Street"/>
    <tag k="source" v="survey"/>
  </way>
  <way id="40805092" version="2" timestamp="2010-06-02T03:51:55Z" uid="4467" user="Rosscoe" changeset="4880447">
    <nd ref="358236064"/>
    <nd ref="358236062"/>
    <tag k="highway" v="tertiary"/>
    <tag k="name" v="Maynard Street"/>
    <tag k="oneway" v="yes"/>
    <tag k="source" v="survey"/>
  </way>
  <way id="40805093" version="2" timestamp="2009-10-17T11:12:40Z" uid="74617" user="JohnSmith" changeset="2872728">
    <nd ref="358236062"/>
    <nd ref="358236060"/>
    <nd ref="358236056"/>
    <nd ref="359980360"/>
    <nd ref="534177017"/>
    <nd ref="534177014"/>
    <nd ref="358236054"/>
    <nd ref="358236052"/>
    <nd ref="534177027"/>
    <nd ref="358236049"/>
    <nd ref="358236046"/>
    <nd ref="358236043"/>
    <nd ref="358236041"/>
    <nd ref="358236222"/>
    <tag k="highway" v="tertiary"/>
    <tag k="name" v="Maynard St"/>
    <tag k="source" v="survey"/>
  </way>
  <way id="40805093" version="3" timestamp="2009-10-17T12:41:06Z" uid="74617" user="JohnSmith" changeset="2873542">
    <nd ref="358236062"/>
    <nd ref="358236060"/>
    <nd ref="534246986"/>
    <nd ref="534246987"/>
    <nd ref="534246985"/>
    <nd ref="534246989"/>
    <nd ref="534247000"/>
    <nd ref="358236056"/>
    <nd ref="359980360"/>
    <nd ref="534177017"/>
    <nd ref="534177014"/>
    <nd ref="358236054"/>
    <nd ref="358236052"/>
    <nd ref="534177027"/>
    <nd ref="358236049"/>
    <nd ref="358236046"/>
    <nd ref="358236043"/>
    <nd ref="358236041"/>
    <nd ref="358236222"/>
    <tag k="highway" v="tertiary"/>
    <tag k="name" v="Maynard St"/>
    <tag k="source" v="survey"/>
  </way>
  <way id="40805093" version="4" timestamp="2009-10-17T13:02:29Z" uid="74617" user="JohnSmith" changeset="2873730">
    <nd ref="358236062"/>
    <nd ref="358236060"/>
    <nd ref="534246986"/>
    <nd ref="534246987"/>
    <nd ref="534246985"/>
    <nd ref="534251659"/>
    <nd ref="534246989"/>
    <nd ref="534251655"/>
    <nd ref="534247000"/>
    <nd ref="358236056"/>
    <nd ref="359980360"/>
    <nd ref="534177017"/>
    <nd ref="534177014"/>
    <nd ref="358236054"/>
    <nd ref="358236052"/>
    <nd ref="534177027"/>
    <nd ref="358236049"/>
    <nd ref="358236046"/>
    <nd ref="358236043"/>
    <nd ref="358236041"/>
    <nd ref="358236222"/>
    <tag k="highway" v="tertiary"/>
    <tag k="name" v="Maynard St"/>
    <tag k="source" v="survey"/>
  </way>
  <way id="40805093" version="5" timestamp="2009-10-17T13:15:12Z" uid="74617" user="JohnSmith" changeset="2873842">
    <nd ref="358236062"/>
    <nd ref="358236060"/>
    <nd ref="534246986"/>
    <nd ref="534246987"/>
    <nd ref="534246985"/>
    <nd ref="534251659"/>
    <nd ref="534246989"/>
    <nd ref="534251655"/>
    <nd ref="534255517"/>
    <nd ref="534247000"/>
    <nd ref="534255536"/>
    <nd ref="358236056"/>
    <nd ref="359980360"/>
    <nd ref="534177017"/>
    <nd ref="534177014"/>
    <nd ref="358236054"/>
    <nd ref="358236052"/>
    <nd ref="534177027"/>
    <nd ref="358236049"/>
    <nd ref="358236046"/>
    <nd ref="358236043"/>
    <nd ref="358236041"/>
    <nd ref="358236222"/>
    <tag k="highway" v="tertiary"/>
    <tag k="name" v="Maynard St"/>
    <tag k="source" v="survey"/>
  </way>
  <way id="40805093" version="7" timestamp="2010-05-01T08:26:47Z" uid="4467" user="Rosscoe" changeset="4572510">
    <nd ref="358236062"/>
    <nd ref="358236060"/>
    <nd ref="534246986"/>
    <nd ref="534246987"/>
    <nd ref="534246985"/>
    <nd ref="534251659"/>
    <nd ref="534246989"/>
    <nd ref="534251655"/>
    <nd ref="534255517"/>
    <nd ref="534247000"/>
    <nd ref="534255536"/>
    <nd ref="358236056"/>
    <nd ref="359980360"/>
    <nd ref="534177017"/>
    <nd ref="358236054"/>
    <nd ref="358236052"/>
    <nd ref="534177027"/>
    <nd ref="715007696"/>
    <tag k="highway" v="tertiary"/>
    <tag k="name" v="Maynard Street"/>
    <tag k="source" v="survey"/>
  </way>
  <way id="40805093" version="8" timestamp="2010-07-30T07:26:08Z" uid="74617" user="JohnSmith" changeset="5351900">
    <nd ref="358236062"/>
    <nd ref="358236060"/>
    <nd ref="534246986"/>
    <nd ref="534246987"/>
    <nd ref="534246985"/>
    <nd ref="534251659"/>
    <nd ref="534246989"/>
    <nd ref="534251655"/>
    <nd ref="534255517"/>
    <nd ref="534247000"/>
    <nd ref="534255536"/>
    <nd ref="358236056"/>
    <nd ref="359980360"/>
    <nd ref="534177014"/>
    <nd ref="358236052"/>
    <nd ref="534177027"/>
    <nd ref="715007696"/>
    <tag k="highway" v="tertiary"/>
    <tag k="name" v="Maynard Street"/>
    <tag k="source" v="survey"/>
  </way>
  <way id="40805097" version="2" timestamp="2010-04-07T13:53:29Z" uid="20587" user="balrog-kun" changeset="4353646">
    <nd ref="82318241"/>
    <nd ref="82318243"/>
    <tag k="bridge" v="yes"/>
    <tag k="highway" v="residential"/>
    <tag k="layer" v="1"/>
    <tag k="name" v="Old Dennis Road"/>
    <tag k="tiger:cfcc" v="A41"/>
    <tag k="tiger:county" v="Parker, TX"/>
    <tag k="tiger:name_base" v="Old Dennis"/>
    <tag k="tiger:name_type" v="Rd"/>
    <tag k="tiger:reviewed" v="no"/>
    <tag k="tiger:separated" v="no"/>
    <tag k="tiger:source" v="tiger_import_dch_v0.6_20070830"/>
    <tag k="tiger:tlid" v="103580756:103580085:103586546:103607982:103607983:103580126"/>
    <tag k="tiger:zip_left" v="76087"/>
    <tag k="tiger:zip_right" v="76087"/>
  </way>
  <way id="40805101" version="2" timestamp="2010-04-07T13:53:29Z" uid="20587" user="balrog-kun" changeset="4353646">
    <nd ref="496127146"/>
    <nd ref="82279114"/>
    <nd ref="82298771"/>
    <nd ref="82295689"/>
    <nd ref="82298773"/>
    <nd ref="82298775"/>
    <nd ref="82298777"/>
    <nd ref="82298779"/>
    <nd ref="82298781"/>
    <nd ref="82298783"/>
    <nd ref="82298785"/>
    <nd ref="82298787"/>
    <nd ref="82298789"/>
    <nd ref="82298791"/>
    <nd ref="82298793"/>
    <nd ref="82256325"/>
    <nd ref="82256312"/>
    <nd ref="82298795"/>
    <nd ref="82298797"/>
    <nd ref="82298799"/>
    <nd ref="82298803"/>
    <nd ref="82298805"/>
    <nd ref="82298807"/>
    <nd ref="82298809"/>
    <nd ref="82298811"/>
    <tag k="highway" v="residential"/>
    <tag k="name" v="Old Brock Road"/>
    <tag k="tiger:cfcc" v="A41"/>
    <tag k="tiger:county" v="Parker, TX"/>
    <tag k="tiger:name_base" v="Old Brock"/>
    <tag k="tiger:name_type" v="Rd"/>
    <tag k="tiger:reviewed" v="no"/>
    <tag k="tiger:separated" v="no"/>
    <tag k="tiger:source" v="tiger_import_dch_v0.6_20070830"/>
    <tag k="tiger:tlid" v="103593708:103588393:103588396:103588397:103579966:103579967"/>
    <tag k="tiger:zip_left" v="76088"/>
    <tag k="tiger:zip_right" v="76088"/>
  </way>
  <way id="40805103" version="2" timestamp="2010-04-07T13:53:30Z" uid="20587" user="balrog-kun" changeset="4353646">
    <nd ref="496127168"/>
    <nd ref="496127146"/>
    <tag k="bridge" v="yes"/>
    <tag k="highway" v="residential"/>
    <tag k="layer" v="1"/>
    <tag k="name" v="Old Brock Road"/>
    <tag k="tiger:cfcc" v="A41"/>
    <tag k="tiger:county" v="Parker, TX"/>
    <tag k="tiger:name_base" v="Old Brock"/>
    <tag k="tiger:name_type" v="Rd"/>
    <tag k="tiger:reviewed" v="no"/>
    <tag k="tiger:separated" v="no"/>
    <tag k="tiger:source" v="tiger_import_dch_v0.6_20070830"/>
    <tag k="tiger:tlid" v="103593708:103588393:103588396:103588397:103579966:103579967"/>
    <tag k="tiger:zip_left" v="76088"/>
    <tag k="tiger:zip_right" v="76088"/>
  </way>
  <way id="40805109" version="2" timestamp="2010-04-07T13:53:30Z" uid="20587" user="balrog-kun" changeset="4353646">
    <nd ref="496127172"/>
    <nd ref="82297995"/>
    <tag k="bridge" v="yes"/>
    <tag k="highway" v="residential"/>
    <tag k="layer" v="1"/>
    <tag k="name" v="Dennis Road"/>
    <tag k="tiger:cfcc" v="A41"/>
    <tag k="tiger:county" v="Parker, TX"/>
    <tag k="tiger:name_base" v="Dennis"/>
    <tag k="tiger:name_type" v="Rd"/>
    <tag k="tiger:reviewed" v="no"/>
    <tag k="tiger:separated" v="no"/>
    <tag k="tiger:source" v="tiger_import_dch_v0.6_20070830"/>
    <tag k="tiger:tlid" v="103580447"/>
  </way>
  <way id="40805123" version="2" timestamp="2010-04-07T13:53:31Z" uid="20587" user="balrog-kun" changeset="4353646">
    <nd ref="82297995"/>
    <nd ref="82272535"/>
    <nd ref="82297997"/>
    <tag k="highway" v="residential"/>
    <tag k="name" v="Dennis Road"/>
    <tag k="tiger:cfcc" v="A41"/>
    <tag k="tiger:county" v="Parker, TX"/>
    <tag k="tiger:name_base" v="Dennis"/>
    <tag k="tiger:name_type" v="Rd"/>
    <tag k="tiger:reviewed" v="no"/>
    <tag k="tiger:separated" v="no"/>
    <tag k="tiger:source" v="tiger_import_dch_v0.6_20070830"/>
    <tag k="tiger:tlid" v="103580447"/>
  </way>
  <way id="40805207" version="1" timestamp="2009-09-14T13:22:38Z" uid="30632" user="antblant" changeset="2481773">
    <nd ref="389906249"/>
    <nd ref="496127382"/>
    <nd ref="496127383"/>
    <nd ref="496127384"/>
    <nd ref="496127385"/>
    <nd ref="496127386"/>
    <nd ref="496127387"/>
    <tag k="highway" v="path"/>
  </way>
  <way id="40805208" version="1" timestamp="2009-09-14T13:22:38Z" uid="30632" user="antblant" changeset="2481773">
    <nd ref="496127387"/>
    <nd ref="496127388"/>
    <nd ref="496127389"/>
    <nd ref="496127412"/>
    <nd ref="496127413"/>
    <nd ref="496127415"/>
    <nd ref="496127416"/>
    <nd ref="496127417"/>
    <nd ref="496127418"/>
    <nd ref="496127419"/>
    <nd ref="496127420"/>
    <nd ref="496127422"/>
    <nd ref="496127423"/>
    <nd ref="443695245"/>
    <tag k="highway" v="path"/>
  </way>
  <way id="40805211" version="1" timestamp="2009-09-14T13:22:38Z" uid="30632" user="antblant" changeset="2481773">
    <nd ref="496127387"/>
    <nd ref="496127390"/>
    <nd ref="496127391"/>
    <nd ref="496127392"/>
    <nd ref="496127393"/>
    <nd ref="496127394"/>
    <nd ref="496127395"/>
    <nd ref="496127397"/>
    <nd ref="496127398"/>
    <nd ref="496127399"/>
    <nd ref="496127400"/>
    <nd ref="496127401"/>
    <nd ref="496127404"/>
    <nd ref="496127405"/>
    <nd ref="496127406"/>
    <nd ref="496127407"/>
    <nd ref="496127409"/>
    <nd ref="496127410"/>
    <nd ref="496127411"/>
    <nd ref="443695256"/>
    <tag k="highway" v="path"/>
  </way>
  <way id="40805212" version="1" timestamp="2009-09-14T13:22:39Z" uid="30632" user="antblant" changeset="2481773">
    <nd ref="389906249"/>
    <nd ref="389906254"/>
    <nd ref="389906255"/>
    <nd ref="389906256"/>
    <nd ref="389906257"/>
    <nd ref="389906258"/>
    <nd ref="389906259"/>
    <nd ref="389906260"/>
    <nd ref="389906261"/>
    <nd ref="389906262"/>
    <nd ref="389906263"/>
    <nd ref="389906264"/>
    <nd ref="389906265"/>
    <nd ref="389906266"/>
    <nd ref="389906267"/>
    <nd ref="389906269"/>
    <nd ref="389906270"/>
    <nd ref="389906271"/>
    <nd ref="389906272"/>
    <nd ref="389906273"/>
    <tag k="highway" v="path"/>
    <tag k="note" v="tunel"/>
  </way>
  <way id="40805213" version="1" timestamp="2009-09-14T13:22:39Z" uid="30632" user="antblant" changeset="2481773">
    <nd ref="496127403"/>
    <nd ref="496127399"/>
    <tag k="highway" v="path"/>
  </way>
  <way id="40805214" version="1" timestamp="2009-09-14T13:22:39Z" uid="30632" user="antblant" changeset="2481773">
    <nd ref="443695245"/>
    <nd ref="496127445"/>
    <nd ref="496127443"/>
    <nd ref="496127424"/>
    <nd ref="496127425"/>
    <nd ref="496127426"/>
    <nd ref="496127427"/>
    <nd ref="496127429"/>
    <nd ref="496127430"/>
    <nd ref="496127431"/>
    <nd ref="496127432"/>
    <nd ref="496127434"/>
    <nd ref="496127435"/>
    <nd ref="496127436"/>
    <nd ref="496127437"/>
    <nd ref="496127439"/>
    <nd ref="496127440"/>
    <nd ref="496127441"/>
    <nd ref="496127442"/>
    <nd ref="496127393"/>
    <tag k="highway" v="path"/>
  </way>
  <way id="40805216" version="1" timestamp="2009-09-14T13:22:39Z" uid="30632" user="antblant" changeset="2481773">
    <nd ref="443695256"/>
    <nd ref="347278961"/>
    <tag k="highway" v="path"/>
  </way>
  <way id="40805573" version="1" timestamp="2009-09-14T13:27:55Z" uid="49111" user="Markus B" changeset="2481823">
    <nd ref="496128332"/>
    <nd ref="496128334"/>
    <nd ref="496128337"/>
    <nd ref="496128340"/>
    <nd ref="496128332"/>
    <tag k="amenity" v="Restaurant"/>
    <tag k="name" v="Igelwirt"/>
  </way>
  <way id="40805573" version="2" timestamp="2009-09-14T16:14:33Z" uid="49111" user="Markus B" changeset="2483556">
    <nd ref="496128332"/>
    <nd ref="496128334"/>
    <nd ref="496128337"/>
    <nd ref="496128340"/>
    <nd ref="496128332"/>
    <tag k="amenity" v="Restaurant"/>
    <tag k="building" v="yes"/>
    <tag k="name" v="Igelwirt"/>
  </way>
  <way id="40805573" version="3" timestamp="2009-09-14T19:39:42Z" uid="49111" user="Markus B" changeset="2485972">
    <nd ref="496128332"/>
    <nd ref="496128334"/>
    <nd ref="496128337"/>
    <nd ref="496128340"/>
    <nd ref="496128332"/>
    <tag k="addr:city" v="Osternohe"/>
    <tag k="addr:country" v="DE"/>
    <tag k="addr:housenumber" v="6"/>
    <tag k="addr:postcode" v="91220"/>
    <tag k="addr:street" v="Igelweg"/>
    <tag k="amenity" v="Restaurant"/>
    <tag k="building" v="yes"/>
    <tag k="name" v="Igelwirt"/>
    <tag k="tourism" v="hotel"/>
  </way>
  <way id="40805573" version="5" timestamp="2010-06-16T19:36:07Z" uid="49111" user="Markus B" changeset="5003517">
    <nd ref="496128332"/>
    <nd ref="496128334"/>
    <nd ref="496128337"/>
    <nd ref="496128340"/>
    <nd ref="496128332"/>
    <tag k="addr:city" v="Osternohe"/>
    <tag k="addr:country" v="DE"/>
    <tag k="addr:housenumber" v="6"/>
    <tag k="addr:postcode" v="91220"/>
    <tag k="addr:street" v="Igelweg"/>
    <tag k="amenity" v="restaurant"/>
    <tag k="building" v="yes"/>
    <tag k="name" v="Igelwirt"/>
    <tag k="opening_hours" v="Mo off"/>
    <tag k="phone" v="09153-406-0"/>
    <tag k="smoking" v="no"/>
    <tag k="smoking:outside" v="yes"/>
    <tag k="tourism" v="hotel"/>
    <tag k="website" v="http://igelwirt.de"/>
  </way>
  <way id="40805573" version="6" timestamp="2010-06-18T15:42:57Z" uid="49111" user="Markus B" changeset="5017235">
    <nd ref="496128332"/>
    <nd ref="496128334"/>
    <nd ref="496128337"/>
    <nd ref="496128340"/>
    <nd ref="496128332"/>
    <tag k="addr:city" v="Osternohe"/>
    <tag k="addr:country" v="DE"/>
    <tag k="addr:housenumber" v="6"/>
    <tag k="addr:postcode" v="91220"/>
    <tag k="addr:street" v="Igelweg"/>
    <tag k="amenity" v="restaurant"/>
    <tag k="building" v="yes"/>
    <tag k="name" v="Igelwirt"/>
    <tag k="opening_hours" v="Mo off"/>
    <tag k="phone" v="09153-406-0"/>
    <tag k="smoking" v="no"/>
    <tag k="smoking:outside" v="yes"/>
    <tag k="smoking_hours" v="22:00+"/>
    <tag k="tourism" v="hotel"/>
    <tag k="website" v="http://igelwirt.de"/>
  </way>
  <way id="40805573" version="7" timestamp="2010-08-02T12:03:38Z" uid="49111" user="Markus B" changeset="5379889">
    <nd ref="496128332"/>
    <nd ref="496128334"/>
    <nd ref="496128337"/>
    <nd ref="496128340"/>
    <nd ref="496128332"/>
    <tag k="addr:city" v="Osternohe"/>
    <tag k="addr:country" v="DE"/>
    <tag k="addr:housenumber" v="6"/>
    <tag k="addr:postcode" v="91220"/>
    <tag k="addr:street" v="Igelweg"/>
    <tag k="amenity" v="restaurant"/>
    <tag k="building" v="yes"/>
    <tag k="name" v="Igelwirt"/>
    <tag k="opening_hours" v="Mo off"/>
    <tag k="phone" v="09153-406-0"/>
    <tag k="smoking" v="no"/>
    <tag k="smoking:outside" v="yes"/>
    <tag k="tourism" v="hotel"/>
    <tag k="website" v="http://igelwirt.de"/>
  </way>
  <way id="40805661" version="2" timestamp="2010-06-29T19:05:34Z" uid="74617" user="JohnSmith" changeset="5108182">
    <nd ref="496129538"/>
    <nd ref="496129543"/>
    <nd ref="496129546"/>
    <nd ref="496129549"/>
    <nd ref="496129538"/>
    <tag k="fixme" v="sport=football is ambiguous, see http://wiki.osm.org/wiki/Football for more details"/>
    <tag k="leisure" v="pitch"/>
    <tag k="sport" v="football"/>
  </way>
  <way id="40805865" version="5" timestamp="2009-10-01T16:33:16Z" uid="86259" user="hasse_osm_korinthenkacker" changeset="2702067">
    <nd ref="496130224"/>
    <nd ref="496130223"/>
    <nd ref="496130222"/>
    <nd ref="496130221"/>
    <nd ref="496130220"/>
    <nd ref="496130219"/>
    <nd ref="496130218"/>
    <nd ref="496130217"/>
    <nd ref="496130216"/>
    <nd ref="496130215"/>
    <nd ref="496130214"/>
    <nd ref="496130213"/>
    <nd ref="496130212"/>
    <nd ref="496130211"/>
    <nd ref="496130210"/>
    <nd ref="496130209"/>
    <nd ref="496130208"/>
    <nd ref="496130207"/>
    <nd ref="496130206"/>
    <nd ref="496130205"/>
    <nd ref="496130204"/>
    <nd ref="496130203"/>
    <nd ref="496130202"/>
    <nd ref="496130201"/>
    <nd ref="496130200"/>
    <nd ref="496130199"/>
    <nd ref="496130198"/>
    <nd ref="496130197"/>
    <nd ref="496130196"/>
    <nd ref="496130195"/>
    <nd ref="496130194"/>
    <nd ref="496130193"/>
    <nd ref="496130192"/>
    <nd ref="496130191"/>
    <nd ref="496130190"/>
    <nd ref="496130189"/>
    <nd ref="496130188"/>
    <nd ref="496130187"/>
    <nd ref="496130186"/>
    <nd ref="496130185"/>
    <nd ref="496130184"/>
    <nd ref="496130183"/>
    <nd ref="496130182"/>
    <nd ref="496130181"/>
    <nd ref="496130180"/>
    <nd ref="496130179"/>
    <nd ref="496130178"/>
    <nd ref="496130177"/>
    <nd ref="496130176"/>
    <nd ref="496130175"/>
    <nd ref="496130174"/>
    <nd ref="496130173"/>
    <nd ref="496130172"/>
    <nd ref="496130171"/>
    <nd ref="496130170"/>
    <nd ref="496130169"/>
    <nd ref="496130168"/>
    <nd ref="496130167"/>
    <nd ref="496130166"/>
    <nd ref="496130165"/>
    <nd ref="496130164"/>
    <nd ref="496130163"/>
    <nd ref="496130162"/>
    <nd ref="496130161"/>
    <nd ref="496130160"/>
    <nd ref="496130159"/>
    <nd ref="496130158"/>
    <nd ref="496130157"/>
    <nd ref="496130156"/>
    <nd ref="496130155"/>
    <nd ref="496130154"/>
    <nd ref="496130153"/>
    <nd ref="496130152"/>
    <nd ref="496130151"/>
    <nd ref="496130150"/>
    <nd ref="496130149"/>
    <tag k="highway" v="path"/>
    <tag k="layer" v="1"/>
    <tag k="sac_scale" v="hiking"/>
    <tag k="surface" v="unpaved"/>
    <tag k="width" v="1.5"/>
  </way>
</osm>
