<?xml version='1.0' encoding='UTF-8'?>
<osm version="0.6" generator="libosmium/2.20.0">
  <way id="40829048" version="2" timestamp="2010-03-28T10:21:17Z" uid="20587" user="balrog-kun" changeset="4254597">
    <nd ref="65286495"/>
    <nd ref="65286498"/>
    <nd ref="496536666"/>
    <nd ref="65286500"/>
    <nd ref="65286502"/>
    <nd ref="65286504"/>
    <nd ref="65286507"/>
    <tag k="highway" v="motorway_link"/>
    <tag k="name" v="Southern Embarcadero Freeway"/>
    <tag k="oneway" v="yes"/>
    <tag k="tiger:cfcc" v="A63"/>
    <tag k="tiger:county" v="San Francisco, CA"/>
    <tag k="tiger:source" v="tiger_import_dch_v0.6_20070809"/>
    <tag k="tiger:tlid" v="192301240"/>
  </way>
  <way id="40829562" version="2" timestamp="2010-04-06T14:40:09Z" uid="20587" user="balrog-kun" changeset="4342997">
    <nd ref="120538737"/>
    <nd ref="120526477"/>
    <tag k="highway" v="residential"/>
    <tag k="name" v="South East 96th Street"/>
    <tag k="name_1" v="County Road 586"/>
    <tag k="tiger:cfcc" v="A41"/>
    <tag k="tiger:county" v="Harvey, KS"/>
    <tag k="tiger:name_base" v="E 96th"/>
    <tag k="tiger:name_base_1" v="County Road 586"/>
    <tag k="tiger:name_direction_prefix" v="S"/>
    <tag k="tiger:name_type" v="St"/>
    <tag k="tiger:reviewed" v="no"/>
    <tag k="tiger:separated" v="no"/>
    <tag k="tiger:source" v="tiger_import_dch_v0.6_20070812"/>
    <tag k="tiger:tlid" v="120651130:120651131:120651167"/>
    <tag k="tiger:zip_left" v="67135"/>
    <tag k="tiger:zip_right" v="67135"/>
  </way>
  <way id="40829888" version="3" timestamp="2010-03-28T10:21:17Z" uid="20587" user="balrog-kun" changeset="4254597">
    <nd ref="496539813"/>
    <nd ref="496539894"/>
    <tag k="highway" v="tertiary"/>
    <tag k="name" v="Hidden Water Road"/>
    <tag k="source" v="survey;image;yahoo_imagry"/>
    <tag k="source_ref" v="AM909_DSCN9308"/>
  </way>
  <way id="40829890" version="3" timestamp="2010-03-28T10:21:18Z" uid="20587" user="balrog-kun" changeset="4254597">
    <nd ref="496539914"/>
    <nd ref="496539940"/>
    <nd ref="496539958"/>
    <nd ref="496539955"/>
    <nd ref="496539911"/>
    <nd ref="496539913"/>
    <tag k="highway" v="residential"/>
    <tag k="name" v="Goose Street"/>
  </way>
  <way id="40829892" version="3" timestamp="2010-03-28T10:21:18Z" uid="20587" user="balrog-kun" changeset="4254597">
    <nd ref="496539908"/>
    <nd ref="496539938"/>
    <tag k="highway" v="residential"/>
    <tag k="name" v="Grouse Street"/>
  </way>
  <way id="40829893" version="3" timestamp="2010-03-28T10:21:18Z" uid="20587" user="balrog-kun" changeset="4254597">
    <nd ref="496539940"/>
    <nd ref="496539942"/>
    <nd ref="496539943"/>
    <nd ref="496539944"/>
    <nd ref="496539945"/>
    <nd ref="496539946"/>
    <nd ref="496539948"/>
    <nd ref="496539949"/>
    <nd ref="496539950"/>
    <nd ref="496539951"/>
    <nd ref="496539952"/>
    <nd ref="496539959"/>
    <tag k="highway" v="residential"/>
    <tag k="name" v="Wolfhound Street"/>
  </way>
  <way id="40829896" version="3" timestamp="2010-03-28T10:21:18Z" uid="20587" user="balrog-kun" changeset="4254597">
    <nd ref="496539956"/>
    <nd ref="496539957"/>
    <nd ref="496539958"/>
    <tag k="highway" v="residential"/>
    <tag k="name" v="Maisey Street"/>
  </way>
  <way id="40829897" version="3" timestamp="2010-03-28T10:21:18Z" uid="20587" user="balrog-kun" changeset="4254597">
    <nd ref="496539960"/>
    <nd ref="496539961"/>
    <tag k="highway" v="residential"/>
    <tag k="name" v="Brant Court"/>
  </way>
  <way id="40829898" version="3" timestamp="2010-03-28T10:21:18Z" uid="20587" user="balrog-kun" changeset="4254597">
    <nd ref="496539966"/>
    <nd ref="496539967"/>
    <nd ref="496539951"/>
    <tag k="highway" v="residential"/>
    <tag k="name" v="Bushmaster Street"/>
  </way>
  <way id="40829899" version="3" timestamp="2010-03-28T10:21:18Z" uid="20587" user="balrog-kun" changeset="4254597">
    <nd ref="496539968"/>
    <nd ref="496539970"/>
    <nd ref="496539998"/>
    <nd ref="496539995"/>
    <nd ref="496539993"/>
    <nd ref="496539969"/>
    <nd ref="496539897"/>
    <tag k="highway" v="residential"/>
    <tag k="name" v="Retriever Street"/>
  </way>
  <way id="40829902" version="3" timestamp="2010-03-28T10:21:18Z" uid="20587" user="balrog-kun" changeset="4254597">
    <nd ref="496539995"/>
    <nd ref="496539996"/>
    <tag k="highway" v="residential"/>
    <tag k="name" v="English Setter Street"/>
  </way>
  <way id="40829903" version="3" timestamp="2010-03-28T10:21:18Z" uid="20587" user="balrog-kun" changeset="4254597">
    <nd ref="496539997"/>
    <nd ref="496539999"/>
    <nd ref="496539996"/>
    <tag k="highway" v="residential"/>
    <tag k="name" v="Brace Street"/>
  </way>
  <way id="40829905" version="3" timestamp="2010-03-28T10:21:18Z" uid="20587" user="balrog-kun" changeset="4254597">
    <nd ref="496540000"/>
    <nd ref="496540001"/>
    <tag k="highway" v="residential"/>
    <tag k="name" v="Whippet Street"/>
  </way>
  <way id="40829906" version="3" timestamp="2010-03-28T10:21:18Z" uid="20587" user="balrog-kun" changeset="4254597">
    <nd ref="496539988"/>
    <nd ref="496540003"/>
    <tag k="highway" v="residential"/>
    <tag k="name" v="Spain Court"/>
  </way>
  <way id="40829908" version="3" timestamp="2010-03-28T10:21:19Z" uid="20587" user="balrog-kun" changeset="4254597">
    <nd ref="496540004"/>
    <nd ref="496539977"/>
    <tag k="highway" v="residential"/>
    <tag k="name" v="Bass Court"/>
  </way>
  <way id="40829918" version="3" timestamp="2010-03-28T10:21:19Z" uid="20587" user="balrog-kun" changeset="4254597">
    <nd ref="496540045"/>
    <nd ref="496540046"/>
    <nd ref="496540071"/>
    <nd ref="496540047"/>
    <nd ref="496540048"/>
    <nd ref="496540049"/>
    <nd ref="496540050"/>
    <nd ref="496540051"/>
    <nd ref="496540053"/>
    <nd ref="496540054"/>
    <nd ref="496540055"/>
    <nd ref="496540056"/>
    <nd ref="496540097"/>
    <nd ref="496540057"/>
    <nd ref="496540060"/>
    <nd ref="496540061"/>
    <nd ref="496540063"/>
    <nd ref="496540096"/>
    <tag k="highway" v="residential"/>
    <tag k="name" v="Orchid Drive"/>
  </way>
  <way id="40829919" version="3" timestamp="2010-03-28T10:21:19Z" uid="20587" user="balrog-kun" changeset="4254597">
    <nd ref="496540064"/>
    <nd ref="496540065"/>
    <tag k="highway" v="residential"/>
    <tag k="name" v="Beechwood Court"/>
  </way>
  <way id="40829920" version="3" timestamp="2010-03-28T10:21:19Z" uid="20587" user="balrog-kun" changeset="4254597">
    <nd ref="496540071"/>
    <nd ref="496540069"/>
    <nd ref="496540068"/>
    <nd ref="496540067"/>
    <nd ref="496540086"/>
    <nd ref="496540090"/>
    <nd ref="496540073"/>
    <nd ref="496540066"/>
    <nd ref="496540064"/>
    <tag k="highway" v="residential"/>
    <tag k="name" v="Hazelnut Drive"/>
  </way>
  <way id="40829921" version="3" timestamp="2010-03-28T10:21:19Z" uid="20587" user="balrog-kun" changeset="4254597">
    <nd ref="496540073"/>
    <nd ref="496540095"/>
    <nd ref="496540074"/>
    <tag k="highway" v="residential"/>
    <tag k="name" v="Alder Drive"/>
  </way>
  <way id="40829923" version="3" timestamp="2010-03-28T10:21:19Z" uid="20587" user="balrog-kun" changeset="4254597">
    <nd ref="496540090"/>
    <nd ref="496540091"/>
    <nd ref="496540094"/>
    <tag k="highway" v="residential"/>
    <tag k="name" v="Persimmon Court"/>
  </way>
  <way id="40829987" version="2" timestamp="2010-04-02T17:45:29Z" uid="20587" user="balrog-kun" changeset="4304500">
    <nd ref="50976268"/>
    <nd ref="493509881"/>
    <nd ref="300457857"/>
    <nd ref="300457858"/>
    <nd ref="493509884"/>
    <nd ref="50976269"/>
    <nd ref="50976271"/>
    <nd ref="300457860"/>
    <nd ref="493509890"/>
    <nd ref="300457861"/>
    <nd ref="493509893"/>
    <nd ref="50976274"/>
    <nd ref="493509896"/>
    <nd ref="300457863"/>
    <nd ref="493509899"/>
    <nd ref="50976276"/>
    <nd ref="50976278"/>
    <tag k="highway" v="residential"/>
    <tag k="name" v="West 13th Avenue"/>
    <tag k="tiger:cfcc" v="A41"/>
    <tag k="tiger:county" v="Spokane, WA"/>
    <tag k="tiger:name_base" v="13th"/>
    <tag k="tiger:name_direction_prefix" v="W"/>
    <tag k="tiger:name_type" v="Ave"/>
    <tag k="tiger:reviewed" v="no"/>
    <tag k="tiger:separated" v="no"/>
    <tag k="tiger:source" v="tiger_import_dch_v0.6_20070830"/>
    <tag k="tiger:tlid" v="189876083:189876108:189876201:189876207:189876234:189876783:189876227:189876199:189876805:189876814:189876807:189876890:189876913:189876891"/>
    <tag k="tiger:zip_left" v="99204"/>
    <tag k="tiger:zip_right" v="99204"/>
  </way>
  <way id="40829990" version="2" timestamp="2010-04-02T17:45:29Z" uid="20587" user="balrog-kun" changeset="4304500">
    <nd ref="50976266"/>
    <nd ref="50976268"/>
    <tag k="highway" v="tertiary"/>
    <tag k="name" v="South Grove Street"/>
    <tag k="tiger:cfcc" v="A41"/>
    <tag k="tiger:county" v="Spokane, WA"/>
    <tag k="tiger:name_base" v="13th"/>
    <tag k="tiger:name_direction_prefix" v="W"/>
    <tag k="tiger:name_type" v="Ave"/>
    <tag k="tiger:reviewed" v="no"/>
    <tag k="tiger:separated" v="no"/>
    <tag k="tiger:source" v="tiger_import_dch_v0.6_20070830"/>
    <tag k="tiger:tlid" v="189876083:189876108:189876201:189876207:189876234:189876783:189876227:189876199:189876805:189876814:189876807:189876890:189876913:189876891"/>
    <tag k="tiger:zip_left" v="99204"/>
    <tag k="tiger:zip_right" v="99204"/>
  </way>
  <way id="40829993" version="2" timestamp="2010-03-28T10:21:19Z" uid="20587" user="balrog-kun" changeset="4254597">
    <nd ref="54465575"/>
    <nd ref="54610900"/>
    <nd ref="54534029"/>
    <tag k="highway" v="residential"/>
    <tag k="name" v="South Ramona Street"/>
    <tag k="tiger:cfcc" v="A41"/>
    <tag k="tiger:county" v="Riverside, CA"/>
    <tag k="tiger:name_base" v="Ramona"/>
    <tag k="tiger:name_direction_prefix" v="S"/>
    <tag k="tiger:name_type" v="St"/>
    <tag k="tiger:reviewed" v="no"/>
    <tag k="tiger:separated" v="no"/>
    <tag k="tiger:source" v="tiger_import_dch_v0.6_20070809"/>
    <tag k="tiger:tlid" v="194755806:194755826:194755828:194755841"/>
    <tag k="tiger:zip_left" v="92543"/>
    <tag k="tiger:zip_right" v="92543"/>
  </way>
  <way id="40829994" version="2" timestamp="2010-03-28T10:21:20Z" uid="20587" user="balrog-kun" changeset="4254597">
    <nd ref="496545656"/>
    <nd ref="54314440"/>
    <nd ref="54314441"/>
    <nd ref="54314443"/>
    <nd ref="54314444"/>
    <nd ref="54314447"/>
    <nd ref="496545688"/>
    <nd ref="54314448"/>
    <nd ref="54314450"/>
    <nd ref="54281206"/>
    <nd ref="54314452"/>
    <tag k="highway" v="residential"/>
    <tag k="name" v="South Alessandro Street"/>
    <tag k="tiger:cfcc" v="A41"/>
    <tag k="tiger:county" v="Riverside, CA"/>
    <tag k="tiger:name_base" v="Alessandro"/>
    <tag k="tiger:name_direction_prefix" v="S"/>
    <tag k="tiger:name_type" v="St"/>
    <tag k="tiger:reviewed" v="no"/>
    <tag k="tiger:separated" v="no"/>
    <tag k="tiger:source" v="tiger_import_dch_v0.6_20070809"/>
    <tag k="tiger:tlid" v="194757004:194757005:194757006:194757007:194755898:194755902:194755904:194814879:194757067:194755832"/>
    <tag k="tiger:zip_left" v="92543"/>
    <tag k="tiger:zip_right" v="92543"/>
  </way>
  <way id="40829998" version="2" timestamp="2010-03-28T10:21:20Z" uid="20587" user="balrog-kun" changeset="4254597">
    <nd ref="496546516"/>
    <nd ref="54315097"/>
    <tag k="highway" v="residential"/>
    <tag k="name" v="Mary Lane"/>
    <tag k="tiger:cfcc" v="A41"/>
    <tag k="tiger:county" v="Riverside, CA"/>
    <tag k="tiger:name_base" v="Mary"/>
    <tag k="tiger:name_type" v="Ln"/>
    <tag k="tiger:reviewed" v="no"/>
    <tag k="tiger:separated" v="no"/>
    <tag k="tiger:source" v="tiger_import_dch_v0.6_20070809"/>
    <tag k="tiger:tlid" v="194814916:194756951"/>
    <tag k="tiger:zip_left" v="92543"/>
    <tag k="tiger:zip_right" v="92543"/>
  </way>
  <way id="40829999" version="2" timestamp="2010-03-28T10:21:20Z" uid="20587" user="balrog-kun" changeset="4254597">
    <nd ref="496546536"/>
    <nd ref="54281207"/>
    <tag k="highway" v="residential"/>
    <tag k="name" v="Vivian Lane"/>
    <tag k="tiger:cfcc" v="A41"/>
    <tag k="tiger:county" v="Riverside, CA"/>
    <tag k="tiger:name_base" v="Vivian"/>
    <tag k="tiger:name_type" v="Ln"/>
    <tag k="tiger:reviewed" v="no"/>
    <tag k="tiger:separated" v="no"/>
    <tag k="tiger:source" v="tiger_import_dch_v0.6_20070809"/>
    <tag k="tiger:tlid" v="194814914"/>
    <tag k="tiger:zip_left" v="92543"/>
    <tag k="tiger:zip_right" v="92543"/>
  </way>
</osm>
