<?xml version='1.0' encoding='UTF-8'?>
<osm version="0.6" generator="libosmium/2.20.0">
  <way id="40826112" version="3" timestamp="2010-04-06T14:40:05Z" uid="20587" user="balrog-kun" changeset="4342997">
    <nd ref="121319986"/>
    <nd ref="121319989"/>
    <nd ref="121319993"/>
    <nd ref="121319996"/>
    <nd ref="121319999"/>
    <nd ref="121320002"/>
    <nd ref="121320005"/>
    <nd ref="121320010"/>
    <nd ref="121292716"/>
    <nd ref="121320013"/>
    <nd ref="121320016"/>
    <nd ref="121320018"/>
    <nd ref="121320022"/>
    <nd ref="121320025"/>
    <nd ref="121320027"/>
    <nd ref="121320030"/>
    <nd ref="121320032"/>
    <nd ref="121273982"/>
    <nd ref="121320035"/>
    <nd ref="121320039"/>
    <nd ref="121320041"/>
    <nd ref="121320043"/>
    <nd ref="121320044"/>
    <nd ref="121320047"/>
    <nd ref="121320049"/>
    <nd ref="121320052"/>
    <nd ref="121320055"/>
    <nd ref="121320058"/>
    <nd ref="121320062"/>
    <nd ref="121320066"/>
    <nd ref="121320069"/>
    <nd ref="121320072"/>
    <nd ref="121320074"/>
    <nd ref="121320076"/>
    <nd ref="121296707"/>
    <nd ref="121320077"/>
    <nd ref="121320079"/>
    <nd ref="121320082"/>
    <nd ref="121320086"/>
    <nd ref="121320088"/>
    <nd ref="121320090"/>
    <nd ref="121319365"/>
    <tag k="highway" v="residential"/>
    <tag k="maxspeed" v="45"/>
    <tag k="name" v="Bison Road"/>
    <tag k="tiger:cfcc" v="A41"/>
    <tag k="tiger:county" v="Marion, KS"/>
    <tag k="tiger:name_base" v="Bison"/>
    <tag k="tiger:name_type" v="Rd"/>
    <tag k="tiger:separated" v="no"/>
    <tag k="tiger:source" v="tiger_import_dch_v0.6_20070812"/>
    <tag k="tiger:tlid" v="120685387:120685766:120701859:120685775:120685404:120685690:120685663:120685740:120685439:120699110:120699111:120704527:120704528:120685424:120713067:120713068"/>
  </way>
  <way id="40826180" version="1" timestamp="2009-09-14T21:02:26Z" uid="99207" user="Lar Kiesel" changeset="2486630">
    <nd ref="496485077"/>
    <nd ref="496485080"/>
    <tag k="highway" v="motorway"/>
    <tag k="name" v="Interstate Highway 81"/>
    <tag k="oneway" v="yes"/>
    <tag k="ref" v="I 81"/>
  </way>
  <way id="40826180" version="2" timestamp="2009-09-14T21:06:58Z" uid="99207" user="Lar Kiesel" changeset="2486630">
    <nd ref="496490865"/>
    <nd ref="496490869"/>
    <nd ref="496490870"/>
    <nd ref="496490872"/>
    <nd ref="496490874"/>
    <nd ref="496490877"/>
    <nd ref="496490880"/>
    <nd ref="496490881"/>
    <nd ref="496490885"/>
    <nd ref="496490886"/>
    <nd ref="496490887"/>
    <nd ref="496490890"/>
    <nd ref="496490892"/>
    <nd ref="496490894"/>
    <nd ref="496490895"/>
    <nd ref="496490896"/>
    <nd ref="496490897"/>
    <nd ref="496490899"/>
    <nd ref="496490901"/>
    <nd ref="496490902"/>
    <nd ref="496490908"/>
    <nd ref="496490911"/>
    <tag k="highway" v="motorway"/>
    <tag k="name" v="Interstate Highway 81"/>
    <tag k="oneway" v="yes"/>
    <tag k="ref" v="I 81"/>
  </way>
  <way id="40826180" version="3" timestamp="2009-09-14T21:14:49Z" uid="99207" user="Lar Kiesel" changeset="2486630">
    <nd ref="496494753"/>
    <nd ref="496494754"/>
    <nd ref="496490865"/>
    <nd ref="496490869"/>
    <nd ref="496490870"/>
    <nd ref="496490872"/>
    <nd ref="496490874"/>
    <nd ref="496490877"/>
    <nd ref="496490880"/>
    <nd ref="496490881"/>
    <nd ref="496490885"/>
    <nd ref="496490886"/>
    <nd ref="496490887"/>
    <nd ref="496490890"/>
    <nd ref="496490892"/>
    <nd ref="496490894"/>
    <nd ref="496490895"/>
    <nd ref="496490896"/>
    <nd ref="496490897"/>
    <nd ref="496490899"/>
    <nd ref="496490901"/>
    <nd ref="496490902"/>
    <nd ref="496490908"/>
    <nd ref="496490911"/>
    <tag k="highway" v="motorway"/>
    <tag k="name" v="Interstate Highway 81"/>
    <tag k="oneway" v="yes"/>
    <tag k="ref" v="I 81"/>
  </way>
  <way id="40826183" version="1" timestamp="2009-09-14T21:02:32Z" uid="99207" user="Lar Kiesel" changeset="2486630">
    <nd ref="496485113"/>
    <nd ref="202493667"/>
    <tag k="bridge" v="yes"/>
    <tag k="highway" v="residential"/>
    <tag k="layer" v="1"/>
    <tag k="name" v="Earl Baxter Rd"/>
    <tag k="tiger:cfcc" v="A41"/>
    <tag k="tiger:county" v="Greene, TN"/>
    <tag k="tiger:name_base" v="Earl Baxter"/>
    <tag k="tiger:name_type" v="Rd"/>
    <tag k="tiger:reviewed" v="no"/>
    <tag k="tiger:separated" v="no"/>
    <tag k="tiger:source" v="tiger_import_dch_v0.6_20070829"/>
    <tag k="tiger:tlid" v="127750471:127750201:127751406"/>
    <tag k="tiger:upload_uuid" v="bulk_upload.pl-6e893c3f-43b4-4414-95ef-f18a474999f7"/>
  </way>
  <way id="40826185" version="1" timestamp="2009-09-14T21:02:33Z" uid="99207" user="Lar Kiesel" changeset="2486630">
    <nd ref="202493667"/>
    <nd ref="202562734"/>
    <nd ref="202562737"/>
    <nd ref="202527070"/>
    <tag k="highway" v="residential"/>
    <tag k="name" v="Earl Baxter Rd"/>
    <tag k="tiger:cfcc" v="A41"/>
    <tag k="tiger:county" v="Greene, TN"/>
    <tag k="tiger:name_base" v="Earl Baxter"/>
    <tag k="tiger:name_type" v="Rd"/>
    <tag k="tiger:reviewed" v="no"/>
    <tag k="tiger:separated" v="no"/>
    <tag k="tiger:source" v="tiger_import_dch_v0.6_20070829"/>
    <tag k="tiger:tlid" v="127750471:127750201:127751406"/>
    <tag k="tiger:upload_uuid" v="bulk_upload.pl-6e893c3f-43b4-4414-95ef-f18a474999f7"/>
  </way>
  <way id="40826306" version="1" timestamp="2009-09-14T21:07:00Z" uid="99207" user="Lar Kiesel" changeset="2486630">
    <nd ref="496490916"/>
    <nd ref="496490918"/>
    <nd ref="496490920"/>
    <nd ref="496490922"/>
    <nd ref="496490925"/>
    <nd ref="496490930"/>
    <nd ref="496485077"/>
    <nd ref="496485080"/>
    <tag k="highway" v="motorway"/>
    <tag k="name" v="Interstate Highway 81"/>
    <tag k="oneway" v="yes"/>
    <tag k="ref" v="I 81"/>
  </way>
  <way id="40826310" version="1" timestamp="2009-09-14T21:07:00Z" uid="99207" user="Lar Kiesel" changeset="2486630">
    <nd ref="496490911"/>
    <nd ref="496490916"/>
    <tag k="bridge" v="yes"/>
    <tag k="highway" v="motorway"/>
    <tag k="layer" v="1"/>
    <tag k="name" v="Interstate Highway 81"/>
    <tag k="oneway" v="yes"/>
    <tag k="ref" v="I 81"/>
  </way>
  <way id="40826315" version="1" timestamp="2009-09-14T21:07:01Z" uid="99207" user="Lar Kiesel" changeset="2486630">
    <nd ref="203984224"/>
    <nd ref="496490937"/>
    <nd ref="496490944"/>
    <tag k="bridge" v="yes"/>
    <tag k="highway" v="motorway"/>
    <tag k="layer" v="1"/>
    <tag k="name" v="Interstate Highway 81"/>
    <tag k="oneway" v="yes"/>
    <tag k="ref" v="I 81"/>
    <tag k="tiger:cfcc" v="A11"/>
    <tag k="tiger:county" v="Washington, TN"/>
    <tag k="tiger:name_base" v="I-81"/>
    <tag k="tiger:reviewed" v="no"/>
    <tag k="tiger:separated" v="no"/>
    <tag k="tiger:source" v="tiger_import_dch_v0.6_20070829"/>
    <tag k="tiger:tlid" v="127926412:127926584:127926458:127926628:127926442:127926461:127926466:127926462:127948747:127926464:127926468:127926394:127927493"/>
    <tag k="tiger:upload_uuid" v="bulk_upload.pl-4b012593-f562-47a5-a75f-10cee97f5b6b"/>
  </way>
  <way id="40826322" version="1" timestamp="2009-09-14T21:07:03Z" uid="99207" user="Lar Kiesel" changeset="2486630">
    <nd ref="496490944"/>
    <nd ref="203950656"/>
    <nd ref="203959903"/>
    <nd ref="203984234"/>
    <nd ref="203945900"/>
    <nd ref="203984239"/>
    <nd ref="203984242"/>
    <nd ref="203984249"/>
    <nd ref="496484956"/>
    <nd ref="203984252"/>
    <nd ref="496484974"/>
    <nd ref="203984259"/>
    <nd ref="203778123"/>
    <tag k="highway" v="motorway"/>
    <tag k="name" v="Interstate Highway 81"/>
    <tag k="oneway" v="yes"/>
    <tag k="ref" v="I 81"/>
    <tag k="tiger:cfcc" v="A11"/>
    <tag k="tiger:county" v="Washington, TN"/>
    <tag k="tiger:name_base" v="I-81"/>
    <tag k="tiger:reviewed" v="no"/>
    <tag k="tiger:separated" v="no"/>
    <tag k="tiger:source" v="tiger_import_dch_v0.6_20070829"/>
    <tag k="tiger:tlid" v="127926412:127926584:127926458:127926628:127926442:127926461:127926466:127926462:127948747:127926464:127926468:127926394:127927493"/>
    <tag k="tiger:upload_uuid" v="bulk_upload.pl-4b012593-f562-47a5-a75f-10cee97f5b6b"/>
  </way>
</osm>
