<?xml version='1.0' encoding='UTF-8'?>
<osm version="0.6" generator="libosmium/2.20.0">
  <way id="40920475" version="10" timestamp="2010-04-06T14:40:38Z" uid="20587" user="balrog-kun" changeset="4342997">
    <nd ref="122141262"/>
    <nd ref="122529930"/>
    <nd ref="122529931"/>
    <nd ref="122529933"/>
    <nd ref="122529934"/>
    <nd ref="122529936"/>
    <nd ref="122475130"/>
    <nd ref="122529937"/>
    <nd ref="122529939"/>
    <nd ref="122529941"/>
    <nd ref="122529944"/>
    <nd ref="122529948"/>
    <nd ref="122529950"/>
    <nd ref="122529951"/>
    <nd ref="122529953"/>
    <nd ref="122529956"/>
    <nd ref="122529959"/>
    <nd ref="122499673"/>
    <nd ref="122529962"/>
    <nd ref="122529965"/>
    <nd ref="122529968"/>
    <nd ref="122529974"/>
    <nd ref="122529979"/>
    <nd ref="122529982"/>
    <nd ref="122529985"/>
    <nd ref="122529988"/>
    <nd ref="122529991"/>
    <nd ref="122529995"/>
    <nd ref="122529999"/>
    <nd ref="122530002"/>
    <nd ref="122530004"/>
    <nd ref="122530007"/>
    <nd ref="122499944"/>
    <nd ref="122530011"/>
    <nd ref="122269361"/>
    <nd ref="122530014"/>
    <nd ref="122530021"/>
    <nd ref="122530031"/>
    <nd ref="122306100"/>
    <nd ref="122251398"/>
    <nd ref="122245236"/>
    <nd ref="122530034"/>
    <nd ref="122530036"/>
    <nd ref="122404822"/>
    <nd ref="122530038"/>
    <nd ref="122369622"/>
    <nd ref="122499808"/>
    <nd ref="122530040"/>
    <nd ref="122336727"/>
    <tag k="highway" v="motorway"/>
    <tag k="name" v="East Kellogg Street"/>
    <tag k="oneway" v="yes"/>
    <tag k="ref" v="US 54; US 400"/>
    <tag k="tiger:cfcc" v="A25"/>
    <tag k="tiger:county" v="Sedgwick, KS"/>
    <tag k="tiger:name_base" v="Kellogg"/>
    <tag k="tiger:name_base_1" v="United States Highway 400"/>
    <tag k="tiger:name_base_2" v="United States Highway 54"/>
    <tag k="tiger:name_direction_prefix" v="E"/>
    <tag k="tiger:name_type" v="St"/>
    <tag k="tiger:reviewed" v="no"/>
    <tag k="tiger:separated" v="yes"/>
    <tag k="tiger:source" v="tiger_import_dch_v0.6_20070812"/>
    <tag k="tiger:tlid" v="115679738:115697954:115679749:115647959:115647960:115648015:115702099:115709394:115709395:115679696:115715651:115713723:115715652:115713699:115713702:115697946:115713685:115679544:115679547:115679554:115675704:115690172:115690173:115675710:115697715:11570"/>
  </way>
  <way id="40920477" version="5" timestamp="2010-04-06T14:40:39Z" uid="20587" user="balrog-kun" changeset="4342997">
    <nd ref="498326677"/>
    <nd ref="122141262"/>
    <tag k="bridge" v="yes"/>
    <tag k="highway" v="motorway"/>
    <tag k="layer" v="1"/>
    <tag k="name" v="East Kellogg Street"/>
    <tag k="oneway" v="yes"/>
    <tag k="ref" v="US 54; US 400"/>
    <tag k="tiger:cfcc" v="A25"/>
    <tag k="tiger:county" v="Sedgwick, KS"/>
    <tag k="tiger:name_base" v="Kellogg"/>
    <tag k="tiger:name_base_1" v="United States Highway 400"/>
    <tag k="tiger:name_base_2" v="United States Highway 54"/>
    <tag k="tiger:name_direction_prefix" v="E"/>
    <tag k="tiger:name_type" v="St"/>
    <tag k="tiger:reviewed" v="no"/>
    <tag k="tiger:separated" v="yes"/>
    <tag k="tiger:source" v="tiger_import_dch_v0.6_20070812"/>
    <tag k="tiger:tlid" v="115679738:115697954:115679749:115647959:115647960:115648015:115702099:115709394:115709395:115679696:115715651:115713723:115715652:115713699:115713702:115697946:115713685:115679544:115679547:115679554:115675704:115690172:115690173:115675710:115697715:11570"/>
  </way>
  <way id="40920478" version="5" timestamp="2010-04-06T14:40:39Z" uid="20587" user="balrog-kun" changeset="4342997">
    <nd ref="498326688"/>
    <nd ref="122529439"/>
    <tag k="bridge" v="yes"/>
    <tag k="highway" v="motorway"/>
    <tag k="layer" v="1"/>
    <tag k="name" v="East Kellogg Street"/>
    <tag k="oneway" v="yes"/>
    <tag k="ref" v="US 54; US 400"/>
    <tag k="tiger:cfcc" v="A25"/>
    <tag k="tiger:county" v="Sedgwick, KS"/>
    <tag k="tiger:name_base" v="Kellogg"/>
    <tag k="tiger:name_base_1" v="United States Highway 54"/>
    <tag k="tiger:name_base_2" v="United States Highway 400"/>
    <tag k="tiger:name_direction_prefix" v="E"/>
    <tag k="tiger:name_type" v="St"/>
    <tag k="tiger:reviewed" v="no"/>
    <tag k="tiger:separated" v="yes"/>
    <tag k="tiger:source" v="tiger_import_dch_v0.6_20070812"/>
    <tag k="tiger:tlid" v="115685749:115709458:115651313:115651319:115697761:115709502:115682203:115682204:115651332:115651344"/>
    <tag k="tiger:zip_left" v="67218"/>
  </way>
  <way id="40920479" version="5" timestamp="2010-04-06T14:40:40Z" uid="20587" user="balrog-kun" changeset="4342997">
    <nd ref="122529439"/>
    <nd ref="122134878"/>
    <nd ref="122152859"/>
    <nd ref="122529436"/>
    <nd ref="122529432"/>
    <nd ref="122152028"/>
    <nd ref="122529429"/>
    <nd ref="122529425"/>
    <tag k="highway" v="motorway"/>
    <tag k="name" v="East Kellogg Street"/>
    <tag k="oneway" v="yes"/>
    <tag k="ref" v="US 54; US 400"/>
    <tag k="tiger:cfcc" v="A25"/>
    <tag k="tiger:county" v="Sedgwick, KS"/>
    <tag k="tiger:name_base" v="Kellogg"/>
    <tag k="tiger:name_base_1" v="United States Highway 54"/>
    <tag k="tiger:name_base_2" v="United States Highway 400"/>
    <tag k="tiger:name_direction_prefix" v="E"/>
    <tag k="tiger:name_type" v="St"/>
    <tag k="tiger:reviewed" v="no"/>
    <tag k="tiger:separated" v="yes"/>
    <tag k="tiger:source" v="tiger_import_dch_v0.6_20070812"/>
    <tag k="tiger:tlid" v="115685749:115709458:115651313:115651319:115697761:115709502:115682203:115682204:115651332:115651344"/>
    <tag k="tiger:zip_left" v="67218"/>
  </way>
  <way id="40920481" version="5" timestamp="2010-04-06T14:40:40Z" uid="20587" user="balrog-kun" changeset="4342997">
    <nd ref="498326718"/>
    <nd ref="122529901"/>
    <tag k="bridge" v="yes"/>
    <tag k="highway" v="motorway"/>
    <tag k="layer" v="1"/>
    <tag k="name" v="East Kellogg Street"/>
    <tag k="oneway" v="yes"/>
    <tag k="ref" v="US 54; US 400"/>
    <tag k="tiger:cfcc" v="A25"/>
    <tag k="tiger:county" v="Sedgwick, KS"/>
    <tag k="tiger:name_base" v="Kellogg"/>
    <tag k="tiger:name_base_1" v="United States Highway 400"/>
    <tag k="tiger:name_base_2" v="United States Highway 54"/>
    <tag k="tiger:name_direction_prefix" v="E"/>
    <tag k="tiger:name_type" v="St"/>
    <tag k="tiger:reviewed" v="no"/>
    <tag k="tiger:separated" v="yes"/>
    <tag k="tiger:source" v="tiger_import_dch_v0.6_20070812"/>
    <tag k="tiger:tlid" v="115679738:115697954:115679749:115647959:115647960:115648015:115702099:115709394:115709395:115679696:115715651:115713723:115715652:115713699:115713702:115697946:115713685:115679544:115679547:115679554:115675704:115690172:115690173:115675710:115697715:11570"/>
  </way>
  <way id="40920490" version="5" timestamp="2010-04-06T14:40:41Z" uid="20587" user="balrog-kun" changeset="4342997">
    <nd ref="122529425"/>
    <nd ref="122529423"/>
    <nd ref="122529421"/>
    <tag k="bridge" v="yes"/>
    <tag k="highway" v="motorway"/>
    <tag k="layer" v="1"/>
    <tag k="name" v="East Kellogg Street"/>
    <tag k="oneway" v="yes"/>
    <tag k="ref" v="US 54; US 400"/>
    <tag k="tiger:cfcc" v="A25"/>
    <tag k="tiger:county" v="Sedgwick, KS"/>
    <tag k="tiger:name_base" v="Kellogg"/>
    <tag k="tiger:name_base_1" v="United States Highway 54"/>
    <tag k="tiger:name_base_2" v="United States Highway 400"/>
    <tag k="tiger:name_direction_prefix" v="E"/>
    <tag k="tiger:name_type" v="St"/>
    <tag k="tiger:reviewed" v="no"/>
    <tag k="tiger:separated" v="yes"/>
    <tag k="tiger:source" v="tiger_import_dch_v0.6_20070812"/>
    <tag k="tiger:tlid" v="115685749:115709458:115651313:115651319:115697761:115709502:115682203:115682204:115651332:115651344"/>
    <tag k="tiger:zip_left" v="67218"/>
  </way>
  <way id="40920491" version="5" timestamp="2010-04-06T14:40:41Z" uid="20587" user="balrog-kun" changeset="4342997">
    <nd ref="122529421"/>
    <nd ref="122529419"/>
    <tag k="highway" v="motorway"/>
    <tag k="name" v="East Kellogg Street"/>
    <tag k="oneway" v="yes"/>
    <tag k="ref" v="US 54; US 400"/>
    <tag k="tiger:cfcc" v="A25"/>
    <tag k="tiger:county" v="Sedgwick, KS"/>
    <tag k="tiger:name_base" v="Kellogg"/>
    <tag k="tiger:name_base_1" v="United States Highway 54"/>
    <tag k="tiger:name_base_2" v="United States Highway 400"/>
    <tag k="tiger:name_direction_prefix" v="E"/>
    <tag k="tiger:name_type" v="St"/>
    <tag k="tiger:reviewed" v="no"/>
    <tag k="tiger:separated" v="yes"/>
    <tag k="tiger:source" v="tiger_import_dch_v0.6_20070812"/>
    <tag k="tiger:tlid" v="115685749:115709458:115651313:115651319:115697761:115709502:115682203:115682204:115651332:115651344"/>
    <tag k="tiger:zip_left" v="67218"/>
  </way>
  <way id="40920492" version="6" timestamp="2010-04-06T14:40:41Z" uid="20587" user="balrog-kun" changeset="4342997">
    <nd ref="122529901"/>
    <nd ref="122162386"/>
    <nd ref="122170166"/>
    <nd ref="122529911"/>
    <nd ref="122529914"/>
    <nd ref="122529918"/>
    <nd ref="122529924"/>
    <nd ref="122529927"/>
    <nd ref="498326677"/>
    <tag k="highway" v="motorway"/>
    <tag k="name" v="East Kellogg Street"/>
    <tag k="oneway" v="yes"/>
    <tag k="ref" v="US 54; US 400"/>
    <tag k="tiger:cfcc" v="A25"/>
    <tag k="tiger:county" v="Sedgwick, KS"/>
    <tag k="tiger:name_base" v="Kellogg"/>
    <tag k="tiger:name_base_1" v="United States Highway 400"/>
    <tag k="tiger:name_base_2" v="United States Highway 54"/>
    <tag k="tiger:name_direction_prefix" v="E"/>
    <tag k="tiger:name_type" v="St"/>
    <tag k="tiger:reviewed" v="no"/>
    <tag k="tiger:separated" v="yes"/>
    <tag k="tiger:source" v="tiger_import_dch_v0.6_20070812"/>
    <tag k="tiger:tlid" v="115679738:115697954:115679749:115647959:115647960:115648015:115702099:115709394:115709395:115679696:115715651:115713723:115715652:115713699:115713702:115697946:115713685:115679544:115679547:115679554:115675704:115690172:115690173:115675710:115697715:11570"/>
  </way>
  <way id="40920644" version="1" timestamp="2009-09-16T17:02:57Z" uid="107674" user="GeoCounter" changeset="2504417">
    <nd ref="295909762"/>
    <nd ref="261630004"/>
    <tag k="created_by" v="Potlatch 0.8c"/>
    <tag k="highway" v="track"/>
    <tag k="tracktype" v="grade1"/>
  </way>
  <way id="40920645" version="1" timestamp="2009-09-16T17:02:58Z" uid="107674" user="GeoCounter" changeset="2504417">
    <nd ref="60068558"/>
    <nd ref="52733103"/>
    <nd ref="52733098"/>
    <nd ref="60068560"/>
    <nd ref="287732134"/>
    <nd ref="287097221"/>
    <tag k="created_by" v="JOSM"/>
    <tag k="highway" v="tertiary"/>
    <tag k="maxspeed" v="50"/>
    <tag k="name" v="Seligenstädter Straße"/>
  </way>
  <way id="40920646" version="1" timestamp="2009-09-16T17:02:58Z" uid="107674" user="GeoCounter" changeset="2504417">
    <nd ref="264129257"/>
    <nd ref="249180088"/>
    <nd ref="249180089"/>
    <nd ref="249180091"/>
    <nd ref="249180093"/>
    <nd ref="249180095"/>
    <nd ref="249180096"/>
    <nd ref="249180098"/>
    <nd ref="249180099"/>
    <nd ref="249180101"/>
    <nd ref="249180103"/>
    <nd ref="249180105"/>
    <nd ref="249180106"/>
    <nd ref="249180108"/>
    <tag k="created_by" v="JOSM"/>
    <tag k="highway" v="track"/>
    <tag k="tracktype" v="grade2"/>
  </way>
  <way id="40920647" version="1" timestamp="2009-09-16T17:02:58Z" uid="107674" user="GeoCounter" changeset="2504417">
    <nd ref="41947008"/>
    <nd ref="41269551"/>
    <nd ref="41269568"/>
    <nd ref="41269588"/>
    <nd ref="41269599"/>
    <nd ref="41269613"/>
    <nd ref="41269638"/>
    <nd ref="41270054"/>
    <nd ref="249296423"/>
    <tag k="created_by" v="JOSM"/>
    <tag k="highway" v="track"/>
    <tag k="name" v="Hennigweg"/>
    <tag k="surface" v="paved"/>
    <tag k="tracktype" v="grade1"/>
  </way>
  <way id="40920648" version="1" timestamp="2009-09-16T17:02:58Z" uid="107674" user="GeoCounter" changeset="2504417">
    <nd ref="249197510"/>
    <nd ref="249197512"/>
    <nd ref="249197514"/>
    <nd ref="249197516"/>
    <tag k="created_by" v="JOSM"/>
    <tag k="highway" v="service"/>
    <tag k="maxspeed" v="30"/>
    <tag k="name" v="Mainstweg"/>
  </way>
  <way id="40920649" version="1" timestamp="2009-09-16T17:02:58Z" uid="107674" user="GeoCounter" changeset="2504417">
    <nd ref="249197516"/>
    <nd ref="249197517"/>
    <nd ref="249197520"/>
    <nd ref="249197521"/>
    <tag k="created_by" v="JOSM"/>
    <tag k="highway" v="service"/>
    <tag k="maxspeed" v="30"/>
    <tag k="name" v="Mainstweg"/>
  </way>
  <way id="40920650" version="1" timestamp="2009-09-16T17:02:58Z" uid="107674" user="GeoCounter" changeset="2504417">
    <nd ref="41947008"/>
    <nd ref="340296577"/>
    <tag k="bicycle" v="designated"/>
    <tag k="created_by" v="JOSM"/>
    <tag k="foot" v="designated"/>
    <tag k="highway" v="path"/>
    <tag k="surface" v="paved"/>
  </way>
  <way id="40920651" version="1" timestamp="2009-09-16T17:02:59Z" uid="107674" user="GeoCounter" changeset="2504417">
    <nd ref="41269512"/>
    <nd ref="41947008"/>
    <tag k="created_by" v="JOSM"/>
    <tag k="highway" v="track"/>
    <tag k="name" v="Hennigweg"/>
    <tag k="surface" v="paved"/>
    <tag k="tracktype" v="grade1"/>
  </way>
  <way id="40920652" version="1" timestamp="2009-09-16T17:02:59Z" uid="107674" user="GeoCounter" changeset="2504417">
    <nd ref="35352109"/>
    <nd ref="35352110"/>
    <nd ref="41290703"/>
    <tag k="created_by" v="Potlatch 0.10f"/>
    <tag k="highway" v="secondary"/>
    <tag k="name" v="Lämmerspieler Straße"/>
    <tag k="ref" v="L 3064"/>
  </way>
  <way id="40920653" version="1" timestamp="2009-09-16T17:02:59Z" uid="107674" user="GeoCounter" changeset="2504417">
    <nd ref="498328586"/>
    <nd ref="46620961"/>
    <tag k="highway" v="path"/>
  </way>
  <way id="40920654" version="1" timestamp="2009-09-16T17:02:59Z" uid="107674" user="GeoCounter" changeset="2504417">
    <nd ref="498328586"/>
    <nd ref="45330222"/>
    <nd ref="45330229"/>
    <nd ref="45330232"/>
    <nd ref="45330237"/>
    <nd ref="45330244"/>
    <tag k="highway" v="residential"/>
    <tag k="name" v="Industriestraße"/>
  </way>
  <way id="40920655" version="1" timestamp="2009-09-16T17:02:59Z" uid="107674" user="GeoCounter" changeset="2504417">
    <nd ref="45330244"/>
    <nd ref="45330251"/>
    <nd ref="45330254"/>
    <nd ref="45330263"/>
    <nd ref="45330270"/>
    <tag k="highway" v="residential"/>
    <tag k="name" v="Industriestraße"/>
  </way>
  <way id="40920656" version="1" timestamp="2009-09-16T17:02:59Z" uid="107674" user="GeoCounter" changeset="2504417">
    <nd ref="52719407"/>
    <nd ref="52719423"/>
    <nd ref="52719427"/>
    <nd ref="52720124"/>
    <nd ref="267900883"/>
    <tag k="created_by" v="JOSM"/>
    <tag k="highway" v="service"/>
    <tag k="name" v="Am Hansteinweiher"/>
  </way>
  <way id="40920657" version="1" timestamp="2009-09-16T17:02:59Z" uid="107674" user="GeoCounter" changeset="2504417">
    <nd ref="264129274"/>
    <nd ref="264129280"/>
    <nd ref="264129282"/>
    <nd ref="264129283"/>
    <nd ref="264129284"/>
    <nd ref="264129285"/>
    <nd ref="264129286"/>
    <nd ref="264129287"/>
    <tag k="created_by" v="JOSM"/>
    <tag k="highway" v="residential"/>
    <tag k="maxspeed" v="50"/>
  </way>
  <way id="40920658" version="1" timestamp="2009-09-16T17:02:59Z" uid="107674" user="GeoCounter" changeset="2504417">
    <nd ref="286029700"/>
    <nd ref="498328589"/>
    <tag k="highway" v="track"/>
    <tag k="surface" v="asphalt"/>
  </way>
  <way id="40920658" version="2" timestamp="2009-09-16T20:25:18Z" uid="107674" user="GeoCounter" changeset="2506732">
    <nd ref="286029700"/>
    <nd ref="498474199"/>
    <tag k="highway" v="track"/>
    <tag k="surface" v="asphalt"/>
  </way>
  <way id="40920827" version="2" timestamp="2010-11-26T04:20:13Z" uid="20587" user="balrog-kun" changeset="6459241">
    <nd ref="498336221"/>
    <nd ref="434692695"/>
    <nd ref="498336250"/>
    <tag k="highway" v="residential"/>
    <tag k="name" v="DG 56A S"/>
  </way>
  <way id="40920827" version="3" timestamp="2010-11-26T04:54:15Z" uid="20587" user="balrog-kun" changeset="6459318">
    <nd ref="498336221"/>
    <nd ref="434692695"/>
    <nd ref="498336250"/>
    <tag k="highway" v="residential"/>
    <tag k="name" v="Diagonal 56A S"/>
  </way>
  <way id="40920828" version="2" timestamp="2010-11-26T04:20:26Z" uid="20587" user="balrog-kun" changeset="6459241">
    <nd ref="498336266"/>
    <nd ref="498336271"/>
    <nd ref="498336304"/>
    <tag k="highway" v="residential"/>
    <tag k="name" v="DG 54A S"/>
  </way>
  <way id="40920828" version="3" timestamp="2010-11-26T04:54:35Z" uid="20587" user="balrog-kun" changeset="6459318">
    <nd ref="498336266"/>
    <nd ref="498336271"/>
    <nd ref="498336304"/>
    <tag k="highway" v="residential"/>
    <tag k="name" v="Diagonal 54A S"/>
  </way>
  <way id="40920830" version="2" timestamp="2010-11-26T04:20:11Z" uid="20587" user="balrog-kun" changeset="6459241">
    <nd ref="434692669"/>
    <nd ref="498336297"/>
    <tag k="highway" v="residential"/>
    <tag k="name" v="DG 54B S"/>
  </way>
  <way id="40920830" version="3" timestamp="2010-11-26T04:54:26Z" uid="20587" user="balrog-kun" changeset="6459318">
    <nd ref="434692669"/>
    <nd ref="498336297"/>
    <tag k="highway" v="residential"/>
    <tag k="name" v="Diagonal 54B S"/>
  </way>
  <way id="40920834" version="2" timestamp="2010-11-26T04:54:18Z" uid="20587" user="balrog-kun" changeset="6459318">
    <nd ref="498336341"/>
    <nd ref="498336334"/>
    <tag k="highway" v="residential"/>
    <tag k="name" v="Diagonal 56A S"/>
  </way>
  <way id="40920835" version="2" timestamp="2010-11-26T04:54:25Z" uid="20587" user="balrog-kun" changeset="6459318">
    <nd ref="498336347"/>
    <nd ref="498336349"/>
    <nd ref="498336328"/>
    <tag k="highway" v="residential"/>
    <tag k="name" v="Diagonal 57 S"/>
  </way>
  <way id="40920836" version="2" timestamp="2010-11-26T04:07:17Z" uid="20587" user="balrog-kun" changeset="6459241">
    <nd ref="498336334"/>
    <nd ref="498336349"/>
    <tag k="highway" v="residential"/>
  </way>
  <way id="40920837" version="2" timestamp="2010-11-26T04:20:17Z" uid="20587" user="balrog-kun" changeset="6459241">
    <nd ref="498336376"/>
    <nd ref="498336380"/>
    <nd ref="498336341"/>
    <nd ref="498336347"/>
    <nd ref="498336383"/>
    <nd ref="498336385"/>
    <nd ref="498336387"/>
    <nd ref="498336389"/>
    <tag k="highway" v="residential"/>
  </way>
  <way id="40920838" version="2" timestamp="2010-11-26T03:54:52Z" uid="20587" user="balrog-kun" changeset="6459228">
    <nd ref="498336394"/>
    <nd ref="498336870"/>
    <nd ref="498336417"/>
    <nd ref="498336401"/>
    <tag k="highway" v="residential"/>
  </way>
  <way id="40920838" version="3" timestamp="2010-11-26T04:20:28Z" uid="20587" user="balrog-kun" changeset="6459241">
    <nd ref="498336394"/>
    <nd ref="498336882"/>
    <nd ref="498336429"/>
    <nd ref="498336870"/>
    <nd ref="498336417"/>
    <nd ref="498336401"/>
    <tag k="highway" v="residential"/>
  </way>
  <way id="40920842" version="3" timestamp="2010-11-26T04:54:28Z" uid="20587" user="balrog-kun" changeset="6459318">
    <nd ref="498336446"/>
    <nd ref="498336448"/>
    <tag k="highway" v="residential"/>
    <tag k="name" v="Diagonal 54 S"/>
  </way>
  <way id="40920843" version="2" timestamp="2010-11-26T04:07:22Z" uid="20587" user="balrog-kun" changeset="6459241">
    <nd ref="498336456"/>
    <nd ref="498336459"/>
    <nd ref="498336474"/>
    <nd ref="1004963012"/>
    <nd ref="498336469"/>
    <tag k="highway" v="residential"/>
  </way>
  <way id="40920846" version="2" timestamp="2010-11-26T04:54:24Z" uid="20587" user="balrog-kun" changeset="6459318">
    <nd ref="498336489"/>
    <nd ref="498336494"/>
    <nd ref="498336500"/>
    <tag k="highway" v="residential"/>
    <tag k="name" v="Diagonal 55A S"/>
  </way>
  <way id="40920851" version="2" timestamp="2010-11-26T04:07:05Z" uid="20587" user="balrog-kun" changeset="6459241">
    <nd ref="498336575"/>
    <nd ref="498336593"/>
    <nd ref="498336316"/>
    <nd ref="498336336"/>
    <nd ref="498336603"/>
    <nd ref="498336380"/>
    <tag k="highway" v="residential"/>
    <tag k="name" v="DG 56 S"/>
  </way>
  <way id="40920851" version="3" timestamp="2010-11-26T04:54:27Z" uid="20587" user="balrog-kun" changeset="6459318">
    <nd ref="498336575"/>
    <nd ref="498336593"/>
    <nd ref="498336316"/>
    <nd ref="498336336"/>
    <nd ref="498336603"/>
    <nd ref="498336380"/>
    <tag k="highway" v="residential"/>
    <tag k="name" v="Diagonal 56 S"/>
  </way>
  <way id="40920858" version="2" timestamp="2010-11-26T04:54:31Z" uid="20587" user="balrog-kun" changeset="6459318">
    <nd ref="498336688"/>
    <nd ref="498336690"/>
    <tag k="highway" v="residential"/>
    <tag k="name" v="Calle 56B S"/>
  </way>
  <way id="40920859" version="2" timestamp="2010-11-26T04:54:14Z" uid="20587" user="balrog-kun" changeset="6459318">
    <nd ref="498336701"/>
    <nd ref="498336705"/>
    <tag k="highway" v="residential"/>
    <tag k="name" v="Calle 56A S"/>
  </way>
  <way id="40920861" version="2" timestamp="2010-11-26T04:54:18Z" uid="20587" user="balrog-kun" changeset="6459318">
    <nd ref="498336723"/>
    <nd ref="498336553"/>
    <nd ref="498336728"/>
    <nd ref="498336734"/>
    <tag k="highway" v="residential"/>
    <tag k="name" v="Calle 55B S"/>
  </way>
  <way id="40920866" version="2" timestamp="2010-11-26T04:07:19Z" uid="20587" user="balrog-kun" changeset="6459241">
    <nd ref="498336836"/>
    <nd ref="1004963018"/>
    <nd ref="498336838"/>
    <tag k="highway" v="residential"/>
  </way>
  <way id="40920867" version="2" timestamp="2010-11-26T04:54:30Z" uid="20587" user="balrog-kun" changeset="6459318">
    <nd ref="498336848"/>
    <nd ref="498336682"/>
    <nd ref="498336667"/>
    <nd ref="498336690"/>
    <nd ref="498336705"/>
    <nd ref="498336575"/>
    <tag k="highway" v="residential"/>
    <tag k="name" v="Diagonal 56 S"/>
  </way>
  <way id="40920868" version="2" timestamp="2010-11-26T04:07:03Z" uid="20587" user="balrog-kun" changeset="6459241">
    <nd ref="498336859"/>
    <nd ref="498336964"/>
    <nd ref="498336862"/>
    <nd ref="498336863"/>
    <tag k="highway" v="residential"/>
    <tag k="name" v="TV B E"/>
  </way>
  <way id="40920869" version="2" timestamp="2010-11-26T04:20:24Z" uid="20587" user="balrog-kun" changeset="6459241">
    <nd ref="498336870"/>
    <nd ref="498336406"/>
    <nd ref="498336876"/>
    <tag k="highway" v="residential"/>
    <tag k="name" v="DG 60S"/>
  </way>
  <way id="40920869" version="3" timestamp="2010-11-26T04:54:33Z" uid="20587" user="balrog-kun" changeset="6459318">
    <nd ref="498336870"/>
    <nd ref="498336406"/>
    <nd ref="498336876"/>
    <tag k="highway" v="residential"/>
    <tag k="name" v="Diagonal 60S"/>
  </way>
  <way id="40920870" version="2" timestamp="2010-11-26T04:54:17Z" uid="20587" user="balrog-kun" changeset="6459318">
    <nd ref="498336882"/>
    <nd ref="498336887"/>
    <tag k="highway" v="residential"/>
    <tag k="name" v="Diagonal 59 S"/>
  </way>
  <way id="40920871" version="2" timestamp="2010-11-26T04:54:25Z" uid="20587" user="balrog-kun" changeset="6459318">
    <nd ref="498336903"/>
    <nd ref="498336838"/>
    <nd ref="498336907"/>
    <tag k="highway" v="residential"/>
    <tag k="name" v="Diagonal 57 S"/>
  </way>
  <way id="40920872" version="2" timestamp="2010-11-26T04:20:19Z" uid="20587" user="balrog-kun" changeset="6459241">
    <nd ref="314499669"/>
    <nd ref="498336394"/>
    <nd ref="498336918"/>
    <nd ref="498336922"/>
    <nd ref="498336383"/>
    <nd ref="498336926"/>
    <nd ref="498336226"/>
    <nd ref="498336755"/>
    <tag k="highway" v="tertiary"/>
    <tag k="name" v="DG 58S"/>
  </way>
  <way id="40920872" version="3" timestamp="2010-11-26T04:54:19Z" uid="20587" user="balrog-kun" changeset="6459318">
    <nd ref="314499669"/>
    <nd ref="498336394"/>
    <nd ref="498336918"/>
    <nd ref="498336922"/>
    <nd ref="498336383"/>
    <nd ref="498336926"/>
    <nd ref="498336226"/>
    <nd ref="498336755"/>
    <tag k="highway" v="tertiary"/>
    <tag k="name" v="Diagonal 58S"/>
  </way>
  <way id="40920876" version="2" timestamp="2010-11-26T04:07:01Z" uid="20587" user="balrog-kun" changeset="6459241">
    <nd ref="498336627"/>
    <nd ref="314499672"/>
    <nd ref="498336964"/>
    <nd ref="1004963019"/>
    <nd ref="498336959"/>
    <tag k="highway" v="residential"/>
  </way>
  <way id="40920878" version="2" timestamp="2010-11-26T04:07:06Z" uid="20587" user="balrog-kun" changeset="6459241">
    <nd ref="498336976"/>
    <nd ref="1004963019"/>
    <nd ref="498336985"/>
    <tag k="highway" v="residential"/>
    <tag k="name" v="TV 1A BIS E"/>
  </way>
  <way id="40920881" version="2" timestamp="2010-11-26T04:54:18Z" uid="20587" user="balrog-kun" changeset="6459318">
    <nd ref="498337084"/>
    <nd ref="498336956"/>
    <tag k="highway" v="residential"/>
    <tag k="name" v="Calle 55A S"/>
  </way>
</osm>
