<?xml version='1.0' encoding='UTF-8'?>
<osm version="0.6" generator="libosmium/2.20.0">
  <way id="41103023" version="1" timestamp="2009-09-19T02:01:47Z" uid="74617" user="JohnSmith" changeset="2529812">
    <nd ref="501456784"/>
    <nd ref="501456788"/>
    <tag k="highway" v="residential"/>
    <tag k="name" v="Melinda Court"/>
  </way>
  <way id="41103023" version="2" timestamp="2010-02-08T07:26:53Z" uid="74617" user="JohnSmith" changeset="3821117">
    <nd ref="501456784"/>
    <nd ref="501456788"/>
    <tag k="highway" v="residential"/>
    <tag k="maxspeed" v="50"/>
    <tag k="name" v="Melinda Court"/>
  </way>
  <way id="41103024" version="1" timestamp="2009-09-19T02:01:47Z" uid="74617" user="JohnSmith" changeset="2529812">
    <nd ref="501456803"/>
    <nd ref="267115480"/>
    <nd ref="501456805"/>
    <tag k="highway" v="residential"/>
    <tag k="name" v="Snook Street"/>
  </way>
  <way id="41103024" version="2" timestamp="2010-02-08T07:26:50Z" uid="74617" user="JohnSmith" changeset="3821117">
    <nd ref="501456803"/>
    <nd ref="267115480"/>
    <nd ref="501456805"/>
    <tag k="highway" v="residential"/>
    <tag k="maxspeed" v="50"/>
    <tag k="name" v="Snook Street"/>
  </way>
  <way id="41103024" version="3" timestamp="2010-06-10T09:49:04Z" uid="74617" user="JohnSmith" changeset="4952117">
    <nd ref="267115491"/>
    <nd ref="267115479"/>
    <nd ref="501456803"/>
    <nd ref="768462202"/>
    <nd ref="267115480"/>
    <nd ref="768462200"/>
    <nd ref="501456805"/>
    <tag k="highway" v="residential"/>
    <tag k="maxspeed" v="50"/>
    <tag k="name" v="Snook Street"/>
  </way>
  <way id="41103026" version="1" timestamp="2009-09-19T02:01:47Z" uid="74617" user="JohnSmith" changeset="2529812">
    <nd ref="267115234"/>
    <nd ref="331342402"/>
    <nd ref="267115231"/>
    <nd ref="267115236"/>
    <nd ref="267115237"/>
    <nd ref="267115238"/>
    <nd ref="267115239"/>
    <tag k="highway" v="residential"/>
    <tag k="name" v="College Parade"/>
  </way>
  <way id="41103026" version="2" timestamp="2010-02-08T07:26:18Z" uid="74617" user="JohnSmith" changeset="3821117">
    <nd ref="267115234"/>
    <nd ref="331342402"/>
    <nd ref="267115231"/>
    <nd ref="267115236"/>
    <nd ref="267115237"/>
    <nd ref="267115238"/>
    <nd ref="267115239"/>
    <tag k="highway" v="residential"/>
    <tag k="maxspeed" v="50"/>
    <tag k="name" v="College Parade"/>
  </way>
</osm>
