<?xml version='1.0' encoding='UTF-8'?>
<osm version="0.6" generator="libosmium/2.20.0">
  <way id="41509039" version="3" timestamp="2010-05-09T13:49:40Z" uid="4467" user="Rosscoe" changeset="4648741">
    <nd ref="716012692"/>
    <nd ref="727445901"/>
    <tag k="highway" v="residential"/>
    <tag k="name" v="Raglan Street"/>
    <tag k="surface" v="paved"/>
  </way>
  <way id="41509039" version="4" timestamp="2010-07-09T05:28:51Z" uid="74617" user="JohnSmith" changeset="5170986">
    <nd ref="716012692"/>
    <nd ref="727445901"/>
    <tag k="highway" v="residential"/>
    <tag k="maxspeed" v="50"/>
    <tag k="maxspeed:source" v="default residential speed limit in Australia"/>
    <tag k="name" v="Raglan Street"/>
    <tag k="surface" v="paved"/>
  </way>
  <way id="41509040" version="2" timestamp="2010-05-09T13:49:44Z" uid="4467" user="Rosscoe" changeset="4648741">
    <nd ref="508256258"/>
    <nd ref="716012574"/>
    <nd ref="709134529"/>
    <nd ref="727445821"/>
    <nd ref="727445808"/>
    <tag k="highway" v="residential"/>
    <tag k="name" v="Pelissier Street"/>
    <tag k="surface" v="paved"/>
  </way>
  <way id="41509040" version="4" timestamp="2010-07-09T05:29:41Z" uid="74617" user="JohnSmith" changeset="5170986">
    <nd ref="508256258"/>
    <nd ref="746038035"/>
    <nd ref="716012574"/>
    <nd ref="709134529"/>
    <nd ref="727445821"/>
    <nd ref="727445808"/>
    <tag k="highway" v="residential"/>
    <tag k="maxspeed" v="50"/>
    <tag k="maxspeed:source" v="default residential speed limit in Australia"/>
    <tag k="name" v="Pelissier Street"/>
    <tag k="surface" v="paved"/>
  </way>
  <way id="41509042" version="3" timestamp="2010-05-09T13:49:40Z" uid="4467" user="Rosscoe" changeset="4648741">
    <nd ref="508256262"/>
    <nd ref="727445831"/>
    <nd ref="725873220"/>
    <nd ref="508087831"/>
    <nd ref="508256267"/>
    <nd ref="508256271"/>
    <nd ref="725873221"/>
    <nd ref="508256258"/>
    <tag k="highway" v="residential"/>
    <tag k="name" v="Falmouth Street"/>
    <tag k="surface" v="paved"/>
  </way>
  <way id="41509042" version="4" timestamp="2010-07-09T05:28:49Z" uid="74617" user="JohnSmith" changeset="5170986">
    <nd ref="508256262"/>
    <nd ref="727445831"/>
    <nd ref="725873220"/>
    <nd ref="508087831"/>
    <nd ref="508256267"/>
    <nd ref="508256271"/>
    <nd ref="725873221"/>
    <nd ref="508256258"/>
    <tag k="highway" v="residential"/>
    <tag k="maxspeed" v="50"/>
    <tag k="maxspeed:source" v="default residential speed limit in Australia"/>
    <tag k="name" v="Falmouth Street"/>
    <tag k="surface" v="paved"/>
  </way>
</osm>
