<?xml version='1.0' encoding='UTF-8'?>
<osm version="0.6" generator="libosmium/2.20.0">
  <way id="41576033" version="2" timestamp="2010-07-08T17:10:27Z" uid="74617" user="JohnSmith" changeset="5167338">
    <nd ref="38411235"/>
    <nd ref="38411236"/>
    <tag k="highway" v="residential"/>
    <tag k="maxspeed" v="50"/>
    <tag k="maxspeed:source" v="default residential speed limit in Australia"/>
    <tag k="name" v="The Crossing"/>
  </way>
  <way id="41576034" version="2" timestamp="2010-07-08T17:11:17Z" uid="74617" user="JohnSmith" changeset="5167338">
    <nd ref="510168941"/>
    <nd ref="510168897"/>
    <nd ref="510168834"/>
    <nd ref="38411236"/>
    <nd ref="38411237"/>
    <nd ref="38411238"/>
    <tag k="highway" v="residential"/>
    <tag k="maxspeed" v="50"/>
    <tag k="maxspeed:source" v="default residential speed limit in Australia"/>
    <tag k="name" v="Lahinch Mews"/>
  </way>
  <way id="41576036" version="2" timestamp="2010-07-08T17:10:38Z" uid="74617" user="JohnSmith" changeset="5167338">
    <nd ref="510168897"/>
    <nd ref="510169128"/>
    <nd ref="510169134"/>
    <tag k="highway" v="residential"/>
    <tag k="maxspeed" v="50"/>
    <tag k="maxspeed:source" v="default residential speed limit in Australia"/>
    <tag k="name" v="Dornoch Link"/>
  </way>
  <way id="41576037" version="2" timestamp="2010-07-08T17:11:27Z" uid="74617" user="JohnSmith" changeset="5167338">
    <nd ref="510169138"/>
    <nd ref="510169134"/>
    <nd ref="510169142"/>
    <nd ref="510169146"/>
    <nd ref="510169366"/>
    <nd ref="510169166"/>
    <nd ref="510169189"/>
    <nd ref="510169193"/>
    <nd ref="510169493"/>
    <nd ref="510169198"/>
    <nd ref="510169203"/>
    <nd ref="510169209"/>
    <nd ref="510169519"/>
    <nd ref="510169237"/>
    <nd ref="510169263"/>
    <nd ref="510169297"/>
    <tag k="highway" v="residential"/>
    <tag k="maxspeed" v="50"/>
    <tag k="maxspeed:source" v="default residential speed limit in Australia"/>
    <tag k="name" v="St Georges Way"/>
  </way>
  <way id="41576038" version="2" timestamp="2010-07-08T17:10:52Z" uid="74617" user="JohnSmith" changeset="5167338">
    <nd ref="510169297"/>
    <nd ref="510169352"/>
    <tag k="highway" v="residential"/>
    <tag k="maxspeed" v="50"/>
    <tag k="maxspeed:source" v="default residential speed limit in Australia"/>
    <tag k="name" v="Ballyliffen Crescent"/>
  </way>
  <way id="41576039" version="2" timestamp="2010-07-08T17:11:41Z" uid="74617" user="JohnSmith" changeset="5167338">
    <nd ref="510169297"/>
    <nd ref="510169323"/>
    <tag k="highway" v="residential"/>
    <tag k="maxspeed" v="50"/>
    <tag k="maxspeed:source" v="default residential speed limit in Australia"/>
    <tag k="name" v="Druids Glen"/>
  </way>
  <way id="41576041" version="2" timestamp="2010-07-08T17:11:19Z" uid="74617" user="JohnSmith" changeset="5167338">
    <nd ref="510169366"/>
    <nd ref="510169393"/>
    <nd ref="510169420"/>
    <nd ref="510169445"/>
    <nd ref="510169467"/>
    <nd ref="510169493"/>
    <tag k="highway" v="residential"/>
    <tag k="maxspeed" v="50"/>
    <tag k="maxspeed:source" v="default residential speed limit in Australia"/>
    <tag k="name" v="St Georges Loop"/>
  </way>
  <way id="41576042" version="3" timestamp="2010-07-08T17:10:43Z" uid="74617" user="JohnSmith" changeset="5167338">
    <nd ref="510169519"/>
    <nd ref="510169535"/>
    <nd ref="510169559"/>
    <nd ref="510169584"/>
    <nd ref="510169606"/>
    <nd ref="510169623"/>
    <nd ref="510169640"/>
    <nd ref="510170489"/>
    <nd ref="510169662"/>
    <nd ref="510169685"/>
    <nd ref="510169710"/>
    <nd ref="510169731"/>
    <nd ref="510169757"/>
    <nd ref="510169778"/>
    <nd ref="510169800"/>
    <nd ref="510169816"/>
    <nd ref="510169843"/>
    <nd ref="510169868"/>
    <nd ref="510169917"/>
    <nd ref="510169952"/>
    <nd ref="510170000"/>
    <nd ref="510170046"/>
    <nd ref="510170094"/>
    <tag k="highway" v="residential"/>
    <tag k="maxspeed" v="50"/>
    <tag k="maxspeed:source" v="default residential speed limit in Australia"/>
    <tag k="name" v="Links Drive"/>
  </way>
  <way id="41576043" version="2" timestamp="2010-07-08T17:11:35Z" uid="74617" user="JohnSmith" changeset="5167338">
    <nd ref="510169584"/>
    <nd ref="510170212"/>
    <nd ref="510170236"/>
    <nd ref="510170263"/>
    <nd ref="510170282"/>
    <nd ref="510170322"/>
    <nd ref="510170361"/>
    <nd ref="510170386"/>
    <nd ref="510170405"/>
    <nd ref="510170435"/>
    <nd ref="510170468"/>
    <nd ref="510170489"/>
    <tag k="highway" v="residential"/>
    <tag k="maxspeed" v="50"/>
    <tag k="maxspeed:source" v="default residential speed limit in Australia"/>
    <tag k="name" v="Loch Lomond Crescent"/>
  </way>
  <way id="41576044" version="2" timestamp="2010-07-08T17:11:31Z" uid="74617" user="JohnSmith" changeset="5167338">
    <nd ref="510169731"/>
    <nd ref="510170494"/>
    <nd ref="510170497"/>
    <nd ref="510170502"/>
    <nd ref="510170505"/>
    <nd ref="510170510"/>
    <nd ref="510170513"/>
    <tag k="highway" v="residential"/>
    <tag k="maxspeed" v="50"/>
    <tag k="maxspeed:source" v="default residential speed limit in Australia"/>
    <tag k="name" v="Gleneagles Close"/>
  </way>
  <way id="41576045" version="2" timestamp="2010-07-08T17:10:55Z" uid="74617" user="JohnSmith" changeset="5167338">
    <nd ref="510170505"/>
    <nd ref="510170522"/>
    <nd ref="510170525"/>
    <nd ref="510170530"/>
    <nd ref="510170568"/>
    <nd ref="510169843"/>
    <tag k="highway" v="residential"/>
    <tag k="maxspeed" v="50"/>
    <tag k="maxspeed:source" v="default residential speed limit in Australia"/>
    <tag k="name" v="Gleneagles Close"/>
  </way>
  <way id="41576048" version="3" timestamp="2010-07-08T17:10:44Z" uid="74617" user="JohnSmith" changeset="5167338">
    <nd ref="38411231"/>
    <nd ref="510170595"/>
    <nd ref="510170625"/>
    <nd ref="510170638"/>
    <nd ref="510170659"/>
    <nd ref="510170686"/>
    <nd ref="510170715"/>
    <nd ref="510170730"/>
    <tag k="highway" v="residential"/>
    <tag k="maxspeed" v="50"/>
    <tag k="maxspeed:source" v="default residential speed limit in Australia"/>
    <tag k="name" v="Sands Terrace"/>
  </way>
  <way id="41576049" version="5" timestamp="2010-07-08T17:11:35Z" uid="74617" user="JohnSmith" changeset="5167338">
    <nd ref="510170753"/>
    <nd ref="510170834"/>
    <nd ref="518259773"/>
    <nd ref="518259722"/>
    <nd ref="510170865"/>
    <nd ref="518259720"/>
    <nd ref="510170895"/>
    <nd ref="510170912"/>
    <nd ref="518259681"/>
    <nd ref="518259705"/>
    <nd ref="518259699"/>
    <nd ref="518259712"/>
    <nd ref="510170931"/>
    <nd ref="510170951"/>
    <nd ref="510170983"/>
    <nd ref="518259708"/>
    <nd ref="510171003"/>
    <tag k="highway" v="residential"/>
    <tag k="maxspeed" v="50"/>
    <tag k="maxspeed:source" v="default residential speed limit in Australia"/>
    <tag k="name" v="Pacific Drive"/>
  </way>
  <way id="41576052" version="2" timestamp="2010-07-08T17:11:45Z" uid="74617" user="JohnSmith" changeset="5167338">
    <nd ref="510171217"/>
    <nd ref="510171242"/>
    <tag k="highway" v="residential"/>
    <tag k="maxspeed" v="50"/>
    <tag k="maxspeed:source" v="default residential speed limit in Australia"/>
    <tag k="name" v="Park Lane"/>
  </way>
  <way id="41576056" version="3" timestamp="2010-07-08T17:11:38Z" uid="74617" user="JohnSmith" changeset="5167338">
    <nd ref="510176154"/>
    <nd ref="510171377"/>
    <nd ref="510559436"/>
    <nd ref="510171295"/>
    <tag k="highway" v="residential"/>
    <tag k="maxspeed" v="50"/>
    <tag k="maxspeed:source" v="default residential speed limit in Australia"/>
    <tag k="name" v="Rudd Avenue"/>
  </way>
  <way id="41576058" version="4" timestamp="2010-07-08T17:10:24Z" uid="74617" user="JohnSmith" changeset="5167338">
    <nd ref="510171319"/>
    <nd ref="510559176"/>
    <tag k="highway" v="residential"/>
    <tag k="maxspeed" v="50"/>
    <tag k="maxspeed:source" v="default residential speed limit in Australia"/>
    <tag k="name" v="Price Street"/>
    <tag k="oneway" v="yes"/>
  </way>
  <way id="41576059" version="2" timestamp="2010-07-08T17:11:15Z" uid="74617" user="JohnSmith" changeset="5167338">
    <nd ref="510171377"/>
    <nd ref="510171391"/>
    <tag k="highway" v="residential"/>
    <tag k="maxspeed" v="50"/>
    <tag k="maxspeed:source" v="default residential speed limit in Australia"/>
    <tag k="name" v="Parker Street"/>
  </way>
  <way id="41576060" version="3" timestamp="2010-07-08T17:11:10Z" uid="74617" user="JohnSmith" changeset="5167338">
    <nd ref="510171490"/>
    <nd ref="510558215"/>
    <nd ref="510171391"/>
    <nd ref="510558866"/>
    <tag k="highway" v="residential"/>
    <tag k="maxspeed" v="50"/>
    <tag k="maxspeed:source" v="default residential speed limit in Australia"/>
    <tag k="name" v="Munday Street"/>
  </way>
  <way id="41576062" version="3" timestamp="2010-07-08T17:11:23Z" uid="74617" user="JohnSmith" changeset="5167338">
    <nd ref="510171539"/>
    <nd ref="510171574"/>
    <nd ref="510171551"/>
    <tag k="highway" v="residential"/>
    <tag k="maxspeed" v="50"/>
    <tag k="maxspeed:source" v="default residential speed limit in Australia"/>
    <tag k="name" v="Charles Lane"/>
  </way>
  <way id="41576065" version="2" timestamp="2010-07-08T17:11:06Z" uid="74617" user="JohnSmith" changeset="5167338">
    <nd ref="510171574"/>
    <nd ref="510171596"/>
    <tag k="highway" v="residential"/>
    <tag k="maxspeed" v="50"/>
    <tag k="maxspeed:source" v="default residential speed limit in Australia"/>
    <tag k="name" v="Beales Street"/>
  </way>
  <way id="41576067" version="4" timestamp="2010-07-08T17:11:19Z" uid="74617" user="JohnSmith" changeset="5167338">
    <nd ref="510171623"/>
    <nd ref="510558231"/>
    <nd ref="518638174"/>
    <nd ref="518638236"/>
    <nd ref="510559279"/>
    <tag k="highway" v="residential"/>
    <tag k="maxspeed" v="50"/>
    <tag k="maxspeed:source" v="default residential speed limit in Australia"/>
    <tag k="name" v="Pride Street"/>
    <tag k="oneway" v="yes"/>
  </way>
  <way id="41576068" version="3" timestamp="2009-12-16T08:32:02Z" uid="4467" user="Rosscoe" changeset="3385067">
    <nd ref="510171662"/>
    <nd ref="510171667"/>
    <nd ref="510171670"/>
    <nd ref="510171743"/>
    <nd ref="510171671"/>
    <tag k="highway" v="residential"/>
    <tag k="name" v="Pearl Street"/>
  </way>
  <way id="41576068" version="4" timestamp="2010-07-08T17:11:17Z" uid="74617" user="JohnSmith" changeset="5167338">
    <nd ref="510171662"/>
    <nd ref="510171667"/>
    <nd ref="510171670"/>
    <nd ref="510171743"/>
    <nd ref="510171671"/>
    <tag k="highway" v="residential"/>
    <tag k="maxspeed" v="50"/>
    <tag k="maxspeed:source" v="default residential speed limit in Australia"/>
    <tag k="name" v="Pearl Street"/>
  </way>
  <way id="41576068" version="5" timestamp="2011-03-14T02:27:37Z" uid="4467" user="Rosscoe" changeset="7552465">
    <nd ref="510171662"/>
    <nd ref="510171667"/>
    <nd ref="510171670"/>
    <nd ref="510171743"/>
    <nd ref="510171671"/>
    <tag k="highway" v="residential"/>
    <tag k="maxspeed" v="50"/>
    <tag k="name" v="Pearl Street"/>
    <tag k="source:maxspeed" v="default residential speed limit in Australia"/>
  </way>
  <way id="41576069" version="3" timestamp="2010-07-08T17:10:39Z" uid="74617" user="JohnSmith" changeset="5167338">
    <nd ref="510171670"/>
    <nd ref="512196734"/>
    <nd ref="510171672"/>
    <tag k="highway" v="residential"/>
    <tag k="maxspeed" v="50"/>
    <tag k="maxspeed:source" v="default residential speed limit in Australia"/>
    <tag k="name" v="Boston Road"/>
  </way>
  <way id="41576069" version="5" timestamp="2011-03-14T02:27:32Z" uid="4467" user="Rosscoe" changeset="7552465">
    <nd ref="510171670"/>
    <nd ref="512196734"/>
    <nd ref="847653834"/>
    <nd ref="510171672"/>
    <tag k="highway" v="residential"/>
    <tag k="maxspeed" v="50"/>
    <tag k="name" v="Boston Road"/>
    <tag k="source:maxspeed" v="default residential speed limit in Australia"/>
  </way>
  <way id="41576070" version="4" timestamp="2010-07-08T17:11:29Z" uid="74617" user="JohnSmith" changeset="5167338">
    <nd ref="510171673"/>
    <nd ref="518640973"/>
    <nd ref="518641362"/>
    <nd ref="510171684"/>
    <tag k="highway" v="residential"/>
    <tag k="maxspeed" v="50"/>
    <tag k="maxspeed:source" v="default residential speed limit in Australia"/>
    <tag k="name" v="Cliff Street"/>
  </way>
  <way id="41576070" version="5" timestamp="2011-03-14T02:27:27Z" uid="4467" user="Rosscoe" changeset="7552465">
    <nd ref="510171673"/>
    <nd ref="518640973"/>
    <nd ref="518641362"/>
    <nd ref="510171684"/>
    <tag k="highway" v="residential"/>
    <tag k="maxspeed" v="50"/>
    <tag k="name" v="Cliff Street"/>
    <tag k="source:maxspeed" v="default residential speed limit in Australia"/>
  </way>
  <way id="41576071" version="4" timestamp="2010-07-08T17:10:54Z" uid="74617" user="JohnSmith" changeset="5167338">
    <nd ref="510171674"/>
    <nd ref="518641339"/>
    <nd ref="518641266"/>
    <nd ref="518641395"/>
    <nd ref="510171675"/>
    <tag k="highway" v="residential"/>
    <tag k="maxspeed" v="50"/>
    <tag k="maxspeed:source" v="default residential speed limit in Australia"/>
    <tag k="name" v="Walker Street"/>
  </way>
  <way id="41576071" version="6" timestamp="2011-03-14T02:27:43Z" uid="4467" user="Rosscoe" changeset="7552465">
    <nd ref="510171674"/>
    <nd ref="518641339"/>
    <nd ref="518641266"/>
    <nd ref="846538704"/>
    <nd ref="518641395"/>
    <nd ref="510171675"/>
    <tag k="highway" v="residential"/>
    <tag k="maxspeed" v="50"/>
    <tag k="name" v="Walker Street"/>
    <tag k="source:maxspeed" v="default residential speed limit in Australia"/>
  </way>
  <way id="41576072" version="3" timestamp="2010-07-08T17:11:09Z" uid="74617" user="JohnSmith" changeset="5167338">
    <nd ref="270452270"/>
    <nd ref="518642281"/>
    <nd ref="510171714"/>
    <nd ref="510171676"/>
    <nd ref="510171852"/>
    <nd ref="510171671"/>
    <nd ref="510171677"/>
    <tag k="highway" v="residential"/>
    <tag k="maxspeed" v="50"/>
    <tag k="maxspeed:source" v="default residential speed limit in Australia"/>
    <tag k="name" v="Bristol Road"/>
  </way>
  <way id="41576072" version="7" timestamp="2011-03-14T02:27:31Z" uid="4467" user="Rosscoe" changeset="7552465">
    <nd ref="270452270"/>
    <nd ref="847653866"/>
    <nd ref="848692961"/>
    <nd ref="518642281"/>
    <nd ref="510171714"/>
    <nd ref="510171676"/>
    <nd ref="510171852"/>
    <nd ref="846538717"/>
    <tag k="highway" v="residential"/>
    <tag k="maxspeed" v="50"/>
    <tag k="name" v="Bristol Road"/>
    <tag k="source:maxspeed" v="default residential speed limit in Australia"/>
  </way>
  <way id="41576073" version="3" timestamp="2010-07-08T17:10:32Z" uid="74617" user="JohnSmith" changeset="5167338">
    <nd ref="510171685"/>
    <nd ref="512196734"/>
    <nd ref="510171714"/>
    <tag k="highway" v="residential"/>
    <tag k="maxspeed" v="50"/>
    <tag k="maxspeed:source" v="default residential speed limit in Australia"/>
    <tag k="name" v="Payne Street"/>
  </way>
  <way id="41576073" version="5" timestamp="2011-03-14T02:27:45Z" uid="4467" user="Rosscoe" changeset="7552465">
    <nd ref="510171685"/>
    <nd ref="512196734"/>
    <nd ref="847653626"/>
    <nd ref="510171714"/>
    <tag k="highway" v="residential"/>
    <tag k="maxspeed" v="50"/>
    <tag k="name" v="Payne Street"/>
    <tag k="source:maxspeed" v="default residential speed limit in Australia"/>
  </way>
  <way id="41576075" version="4" timestamp="2010-07-08T17:10:46Z" uid="74617" user="JohnSmith" changeset="5167338">
    <nd ref="510171743"/>
    <nd ref="513392596"/>
    <nd ref="518638075"/>
    <nd ref="518641806"/>
    <nd ref="510171784"/>
    <nd ref="37693932"/>
    <tag k="highway" v="residential"/>
    <tag k="maxspeed" v="50"/>
    <tag k="maxspeed:source" v="default residential speed limit in Australia"/>
    <tag k="name" v="Gilbert Street"/>
  </way>
  <way id="41576075" version="6" timestamp="2011-03-14T02:27:37Z" uid="4467" user="Rosscoe" changeset="7552465">
    <nd ref="510171743"/>
    <nd ref="518638075"/>
    <nd ref="518641806"/>
    <nd ref="510171784"/>
    <nd ref="37693932"/>
    <tag k="highway" v="residential"/>
    <tag k="maxspeed" v="50"/>
    <tag k="name" v="Gilbert Street"/>
    <tag k="source:maxspeed" v="default residential speed limit in Australia"/>
  </way>
  <way id="41576077" version="6" timestamp="2010-07-08T17:11:33Z" uid="74617" user="JohnSmith" changeset="5167338">
    <nd ref="510171813"/>
    <nd ref="510171673"/>
    <nd ref="510171675"/>
    <nd ref="512286974"/>
    <nd ref="518641150"/>
    <nd ref="510558574"/>
    <tag k="highway" v="residential"/>
    <tag k="maxspeed" v="50"/>
    <tag k="maxspeed:source" v="default residential speed limit in Australia"/>
    <tag k="name" v="Zeally Bay Road"/>
  </way>
  <way id="41576077" version="9" timestamp="2011-03-14T02:27:28Z" uid="4467" user="Rosscoe" changeset="7552465">
    <nd ref="510171813"/>
    <nd ref="510171673"/>
    <nd ref="510171675"/>
    <nd ref="518641150"/>
    <nd ref="844859903"/>
    <nd ref="510558574"/>
    <tag k="highway" v="residential"/>
    <tag k="maxspeed" v="50"/>
    <tag k="name" v="Zeally Bay Road"/>
    <tag k="source:maxspeed" v="default residential speed limit in Australia"/>
  </way>
  <way id="41576080" version="2" timestamp="2010-07-08T17:11:22Z" uid="74617" user="JohnSmith" changeset="5167338">
    <nd ref="510172121"/>
    <nd ref="510172189"/>
    <nd ref="510172218"/>
    <nd ref="510172260"/>
    <nd ref="510172296"/>
    <nd ref="510172328"/>
    <tag k="highway" v="residential"/>
    <tag k="maxspeed" v="50"/>
    <tag k="maxspeed:source" v="default residential speed limit in Australia"/>
    <tag k="name" v="Pomora Avenue"/>
  </way>
  <way id="41576082" version="4" timestamp="2010-07-08T17:11:38Z" uid="74617" user="JohnSmith" changeset="5167338">
    <nd ref="510172366"/>
    <nd ref="512196732"/>
    <nd ref="510172448"/>
    <nd ref="512196733"/>
    <nd ref="513527127"/>
    <nd ref="510173099"/>
    <nd ref="510172866"/>
    <nd ref="510172965"/>
    <nd ref="510172408"/>
    <tag k="highway" v="residential"/>
    <tag k="maxspeed" v="50"/>
    <tag k="maxspeed:source" v="default residential speed limit in Australia"/>
    <tag k="name" v="Cowrie Road"/>
  </way>
  <way id="41576082" version="5" timestamp="2011-03-14T02:27:34Z" uid="4467" user="Rosscoe" changeset="7552465">
    <nd ref="510172366"/>
    <nd ref="512196732"/>
    <nd ref="510172448"/>
    <nd ref="512196733"/>
    <nd ref="513527127"/>
    <nd ref="510173099"/>
    <nd ref="510172866"/>
    <nd ref="510172965"/>
    <nd ref="510172408"/>
    <tag k="highway" v="residential"/>
    <tag k="maxspeed" v="50"/>
    <tag k="name" v="Cowrie Road"/>
    <tag k="source:maxspeed" v="default residential speed limit in Australia"/>
  </way>
  <way id="41576083" version="3" timestamp="2010-07-08T17:11:00Z" uid="74617" user="JohnSmith" changeset="5167338">
    <nd ref="510172448"/>
    <nd ref="510172706"/>
    <nd ref="510172516"/>
    <tag k="highway" v="residential"/>
    <tag k="maxspeed" v="50"/>
    <tag k="maxspeed:source" v="default residential speed limit in Australia"/>
    <tag k="name" v="Follett Street"/>
  </way>
  <way id="41576083" version="4" timestamp="2011-03-14T02:27:29Z" uid="4467" user="Rosscoe" changeset="7552465">
    <nd ref="510172448"/>
    <nd ref="510172706"/>
    <nd ref="510172516"/>
    <tag k="highway" v="residential"/>
    <tag k="maxspeed" v="50"/>
    <tag k="name" v="Follett Street"/>
    <tag k="source:maxspeed" v="default residential speed limit in Australia"/>
  </way>
  <way id="41576084" version="3" timestamp="2010-07-08T17:10:57Z" uid="74617" user="JohnSmith" changeset="5167338">
    <nd ref="510172571"/>
    <nd ref="510172840"/>
    <nd ref="512196732"/>
    <nd ref="510172639"/>
    <nd ref="510172738"/>
    <nd ref="510172682"/>
    <tag k="highway" v="residential"/>
    <tag k="maxspeed" v="50"/>
    <tag k="maxspeed:source" v="default residential speed limit in Australia"/>
    <tag k="name" v="Felix Crescent"/>
  </way>
  <way id="41576084" version="5" timestamp="2011-03-14T02:27:44Z" uid="4467" user="Rosscoe" changeset="7552465">
    <nd ref="510172571"/>
    <nd ref="510172840"/>
    <nd ref="512196732"/>
    <nd ref="510172639"/>
    <nd ref="510172738"/>
    <nd ref="848692892"/>
    <nd ref="510172682"/>
    <tag k="highway" v="residential"/>
    <tag k="maxspeed" v="50"/>
    <tag k="name" v="Felix Crescent"/>
    <tag k="source:maxspeed" v="default residential speed limit in Australia"/>
  </way>
  <way id="41576087" version="2" timestamp="2010-07-08T17:10:34Z" uid="74617" user="JohnSmith" changeset="5167338">
    <nd ref="510172706"/>
    <nd ref="510172738"/>
    <tag k="highway" v="residential"/>
    <tag k="maxspeed" v="50"/>
    <tag k="maxspeed:source" v="default residential speed limit in Australia"/>
    <tag k="name" v="New Street"/>
  </way>
  <way id="41576087" version="3" timestamp="2011-03-14T02:27:31Z" uid="4467" user="Rosscoe" changeset="7552465">
    <nd ref="510172706"/>
    <nd ref="510172738"/>
    <tag k="highway" v="residential"/>
    <tag k="maxspeed" v="50"/>
    <tag k="name" v="New Street"/>
    <tag k="source:maxspeed" v="default residential speed limit in Australia"/>
  </way>
  <way id="41576089" version="3" timestamp="2010-07-08T17:11:41Z" uid="74617" user="JohnSmith" changeset="5167338">
    <nd ref="510172769"/>
    <nd ref="512196731"/>
    <nd ref="512196730"/>
    <nd ref="510172840"/>
    <tag k="highway" v="residential"/>
    <tag k="maxspeed" v="50"/>
    <tag k="maxspeed:source" v="default residential speed limit in Australia"/>
    <tag k="name" v="Central Avenue"/>
  </way>
  <way id="41576089" version="4" timestamp="2011-03-14T02:27:35Z" uid="4467" user="Rosscoe" changeset="7552465">
    <nd ref="510172769"/>
    <nd ref="512196731"/>
    <nd ref="512196730"/>
    <nd ref="510172840"/>
    <tag k="highway" v="residential"/>
    <tag k="maxspeed" v="50"/>
    <tag k="name" v="Central Avenue"/>
    <tag k="source:maxspeed" v="default residential speed limit in Australia"/>
  </way>
  <way id="41576090" version="3" timestamp="2010-07-08T17:11:03Z" uid="74617" user="JohnSmith" changeset="5167338">
    <nd ref="510172866"/>
    <nd ref="512196731"/>
    <nd ref="510172901"/>
    <tag k="highway" v="residential"/>
    <tag k="maxspeed" v="50"/>
    <tag k="maxspeed:source" v="default residential speed limit in Australia"/>
    <tag k="name" v="Short Street"/>
  </way>
  <way id="41576090" version="4" timestamp="2011-03-14T02:27:30Z" uid="4467" user="Rosscoe" changeset="7552465">
    <nd ref="510172866"/>
    <nd ref="512196731"/>
    <nd ref="510172901"/>
    <tag k="highway" v="residential"/>
    <tag k="maxspeed" v="50"/>
    <tag k="name" v="Short Street"/>
    <tag k="source:maxspeed" v="default residential speed limit in Australia"/>
  </way>
  <way id="41576091" version="2" timestamp="2010-07-08T17:10:26Z" uid="74617" user="JohnSmith" changeset="5167338">
    <nd ref="510172936"/>
    <nd ref="510172986"/>
    <nd ref="510172965"/>
    <tag k="highway" v="residential"/>
    <tag k="maxspeed" v="50"/>
    <tag k="maxspeed:source" v="default residential speed limit in Australia"/>
    <tag k="name" v="Henty Street"/>
  </way>
  <way id="41576093" version="2" timestamp="2010-07-08T17:11:13Z" uid="74617" user="JohnSmith" changeset="5167338">
    <nd ref="510172986"/>
    <nd ref="510173017"/>
    <nd ref="510173045"/>
    <nd ref="510173072"/>
    <nd ref="510173099"/>
    <tag k="highway" v="residential"/>
    <tag k="maxspeed" v="50"/>
    <tag k="maxspeed:source" v="default residential speed limit in Australia"/>
    <tag k="name" v="Gogoll Crescent"/>
  </way>
  <way id="41576093" version="3" timestamp="2011-03-14T02:27:36Z" uid="4467" user="Rosscoe" changeset="7552465">
    <nd ref="510172986"/>
    <nd ref="510173017"/>
    <nd ref="510173045"/>
    <nd ref="510173072"/>
    <nd ref="510173099"/>
    <tag k="highway" v="residential"/>
    <tag k="maxspeed" v="50"/>
    <tag k="name" v="Gogoll Crescent"/>
    <tag k="source:maxspeed" v="default residential speed limit in Australia"/>
  </way>
  <way id="41576095" version="3" timestamp="2010-07-08T17:11:26Z" uid="74617" user="JohnSmith" changeset="5167338">
    <nd ref="510173127"/>
    <nd ref="510173156"/>
    <tag k="highway" v="residential"/>
    <tag k="maxspeed" v="50"/>
    <tag k="maxspeed:source" v="default residential speed limit in Australia"/>
    <tag k="name" v="Puebla Street"/>
  </way>
  <way id="41576095" version="4" timestamp="2011-03-14T02:27:25Z" uid="4467" user="Rosscoe" changeset="7552465">
    <nd ref="510173127"/>
    <nd ref="510173156"/>
    <tag k="highway" v="residential"/>
    <tag k="maxspeed" v="50"/>
    <tag k="name" v="Puebla Street"/>
    <tag k="source:maxspeed" v="default residential speed limit in Australia"/>
  </way>
  <way id="41576096" version="3" timestamp="2010-07-08T17:10:55Z" uid="74617" user="JohnSmith" changeset="5167338">
    <nd ref="510173165"/>
    <nd ref="510173177"/>
    <tag k="highway" v="residential"/>
    <tag k="maxspeed" v="50"/>
    <tag k="maxspeed:source" v="default residential speed limit in Australia"/>
    <tag k="name" v="Spring Street"/>
  </way>
  <way id="41576096" version="4" timestamp="2011-03-14T02:27:39Z" uid="4467" user="Rosscoe" changeset="7552465">
    <nd ref="510173165"/>
    <nd ref="510173177"/>
    <tag k="highway" v="residential"/>
    <tag k="maxspeed" v="50"/>
    <tag k="name" v="Spring Street"/>
    <tag k="source:maxspeed" v="default residential speed limit in Australia"/>
  </way>
  <way id="41576097" version="2" timestamp="2010-07-08T17:11:46Z" uid="74617" user="JohnSmith" changeset="5167338">
    <nd ref="510174329"/>
    <nd ref="510174298"/>
    <nd ref="510174261"/>
    <nd ref="510173184"/>
    <tag k="highway" v="residential"/>
    <tag k="maxspeed" v="50"/>
    <tag k="maxspeed:source" v="default residential speed limit in Australia"/>
    <tag k="name" v="Colina Court"/>
  </way>
  <way id="41576100" version="3" timestamp="2010-07-08T17:10:29Z" uid="74617" user="JohnSmith" changeset="5167338">
    <nd ref="510173805"/>
    <nd ref="510173849"/>
    <nd ref="510173886"/>
    <nd ref="510173937"/>
    <nd ref="510173962"/>
    <nd ref="510174007"/>
    <nd ref="510174036"/>
    <nd ref="510174062"/>
    <nd ref="510174093"/>
    <nd ref="510173768"/>
    <nd ref="512197939"/>
    <nd ref="512197958"/>
    <nd ref="512197970"/>
    <nd ref="512197989"/>
    <tag k="highway" v="residential"/>
    <tag k="maxspeed" v="50"/>
    <tag k="maxspeed:source" v="default residential speed limit in Australia"/>
    <tag k="name" v="Aquilla Avenue"/>
  </way>
  <way id="41576102" version="3" timestamp="2010-07-08T17:10:41Z" uid="74617" user="JohnSmith" changeset="5167338">
    <nd ref="510173530"/>
    <nd ref="512198983"/>
    <nd ref="512198428"/>
    <nd ref="510173557"/>
    <nd ref="510173581"/>
    <nd ref="510173608"/>
    <nd ref="510173642"/>
    <nd ref="510173768"/>
    <tag k="highway" v="residential"/>
    <tag k="maxspeed" v="50"/>
    <tag k="maxspeed:source" v="default residential speed limit in Australia"/>
    <tag k="name" v="Endeavour Drive"/>
  </way>
  <way id="41576103" version="2" timestamp="2010-07-08T17:11:32Z" uid="74617" user="JohnSmith" changeset="5167338">
    <nd ref="510174122"/>
    <nd ref="510174156"/>
    <nd ref="510174204"/>
    <nd ref="510174232"/>
    <tag k="highway" v="residential"/>
    <tag k="maxspeed" v="50"/>
    <tag k="maxspeed:source" v="default residential speed limit in Australia"/>
    <tag k="name" v="Joanna Court"/>
  </way>
  <way id="41576106" version="3" timestamp="2010-07-08T17:10:35Z" uid="74617" user="JohnSmith" changeset="5167338">
    <nd ref="512198151"/>
    <nd ref="512198225"/>
    <nd ref="512198200"/>
    <nd ref="510173184"/>
    <nd ref="510174353"/>
    <nd ref="510174122"/>
    <nd ref="510173193"/>
    <nd ref="510173204"/>
    <nd ref="510173213"/>
    <nd ref="510173221"/>
    <nd ref="510173228"/>
    <nd ref="510173234"/>
    <nd ref="510173267"/>
    <nd ref="510173298"/>
    <nd ref="510172328"/>
    <nd ref="510173332"/>
    <nd ref="510173363"/>
    <nd ref="510173401"/>
    <nd ref="510173431"/>
    <nd ref="510173461"/>
    <nd ref="510173498"/>
    <tag k="highway" v="residential"/>
    <tag k="maxspeed" v="50"/>
    <tag k="maxspeed:source" v="default residential speed limit in Australia"/>
    <tag k="name" v="Glaneuse Avenue"/>
  </way>
  <way id="41576110" version="3" timestamp="2010-07-08T17:11:36Z" uid="74617" user="JohnSmith" changeset="5167338">
    <nd ref="510174353"/>
    <nd ref="510174385"/>
    <tag k="highway" v="residential"/>
    <tag k="maxspeed" v="50"/>
    <tag k="maxspeed:source" v="default residential speed limit in Australia"/>
    <tag k="name" v="Penola Street"/>
  </way>
  <way id="41576131" version="2" timestamp="2011-02-12T10:57:31Z" uid="4467" user="Rosscoe" changeset="7263380">
    <nd ref="1148877054"/>
    <nd ref="510177825"/>
    <nd ref="510177823"/>
    <nd ref="510177821"/>
    <nd ref="510177829"/>
    <nd ref="510177819"/>
    <tag k="attribution" v="Based on data from State of Queensland (Department of Environment and Resource Management) 2009"/>
    <tag k="foot" v="yes"/>
    <tag k="highway" v="footway"/>
    <tag k="note" v="FIXME: DCDB indicates a right of way in this location.  Needs a field survey to confirm highway type."/>
    <tag k="source" v="au.qld.dcdb_lite"/>
  </way>
  <way id="41576132" version="2" timestamp="2011-02-12T14:28:23Z" uid="4467" user="Rosscoe" changeset="7265329">
    <nd ref="304562650"/>
    <nd ref="510177831"/>
    <nd ref="510177833"/>
    <nd ref="304262205"/>
    <tag k="highway" v="residential"/>
    <tag k="source" v="nearmap"/>
    <tag k="surface" v="asphalt"/>
  </way>
  <way id="41576134" version="2" timestamp="2011-02-12T14:28:22Z" uid="4467" user="Rosscoe" changeset="7265329">
    <nd ref="304565571"/>
    <nd ref="510177843"/>
    <nd ref="510177845"/>
    <nd ref="304566926"/>
    <nd ref="510177850"/>
    <tag k="highway" v="residential"/>
    <tag k="source" v="nearmap"/>
    <tag k="surface" v="asphalt"/>
  </way>
  <way id="41576135" version="2" timestamp="2011-02-12T14:28:25Z" uid="4467" user="Rosscoe" changeset="7265329">
    <nd ref="510177845"/>
    <nd ref="510177852"/>
    <nd ref="510177854"/>
    <nd ref="304566918"/>
    <tag k="highway" v="residential"/>
    <tag k="source" v="nearmap"/>
    <tag k="surface" v="asphalt"/>
  </way>
  <way id="41576140" version="4" timestamp="2009-12-16T08:32:18Z" uid="4467" user="Rosscoe" changeset="3385067"/>
  <way id="41576164" version="4" timestamp="2010-07-08T17:11:48Z" uid="74617" user="JohnSmith" changeset="5167338">
    <nd ref="510175733"/>
    <nd ref="508067821"/>
    <nd ref="510558735"/>
    <nd ref="510175795"/>
    <nd ref="510558714"/>
    <nd ref="510175817"/>
    <nd ref="510175758"/>
    <nd ref="510175833"/>
    <nd ref="510175832"/>
    <nd ref="510175733"/>
    <tag k="highway" v="residential"/>
    <tag k="junction" v="roundabout"/>
    <tag k="maxspeed" v="50"/>
    <tag k="maxspeed:source" v="default residential speed limit in Australia"/>
  </way>
  <way id="41576176" version="3" timestamp="2011-03-14T02:27:38Z" uid="4467" user="Rosscoe" changeset="7552465">
    <nd ref="509915763"/>
    <nd ref="37693760"/>
    <nd ref="510559316"/>
    <nd ref="510171623"/>
    <nd ref="510171217"/>
    <nd ref="510171490"/>
    <nd ref="1201166835"/>
    <nd ref="1201166836"/>
    <nd ref="510558119"/>
    <nd ref="510176169"/>
    <tag k="highway" v="tertiary"/>
    <tag k="name" v="Bell Street"/>
    <tag k="source" v="nearmap"/>
  </way>
  <way id="41576178" version="6" timestamp="2011-03-14T02:27:29Z" uid="4467" user="Rosscoe" changeset="7552465">
    <nd ref="37693748"/>
    <nd ref="510176225"/>
    <nd ref="510176154"/>
    <nd ref="510176241"/>
    <nd ref="510176267"/>
    <nd ref="845902439"/>
    <nd ref="510176169"/>
    <nd ref="510176294"/>
    <nd ref="510176317"/>
    <nd ref="37693748"/>
    <tag k="highway" v="tertiary"/>
    <tag k="junction" v="roundabout"/>
    <tag k="source" v="nearmap"/>
  </way>
  <way id="41576444" version="3" timestamp="2011-02-12T16:49:19Z" uid="4467" user="Rosscoe" changeset="7266729">
    <nd ref="510188082"/>
    <nd ref="510188083"/>
    <nd ref="510188075"/>
    <nd ref="510188078"/>
    <nd ref="510188080"/>
    <nd ref="510188088"/>
    <nd ref="510188090"/>
    <nd ref="510188092"/>
    <nd ref="510188086"/>
    <nd ref="510188082"/>
    <tag k="amenity" v="school"/>
    <tag k="name" v="Western Suburbs State Special School"/>
  </way>
  <way id="41576446" version="3" timestamp="2011-02-12T16:49:39Z" uid="4467" user="Rosscoe" changeset="7266729">
    <nd ref="510188094"/>
    <nd ref="1149250149"/>
    <nd ref="510188096"/>
    <nd ref="510188098"/>
    <nd ref="510188100"/>
    <nd ref="510188094"/>
    <tag k="amenity" v="school"/>
    <tag k="name" v="Inala State School"/>
  </way>
  <way id="41576447" version="2" timestamp="2010-05-12T13:18:25Z" uid="4467" user="Rosscoe" changeset="4677105">
    <nd ref="130929834"/>
    <nd ref="130930589"/>
    <tag k="highway" v="tertiary"/>
    <tag k="name" v="Rosemary Street"/>
    <tag k="oneway" v="yes"/>
  </way>
  <way id="41576491" version="5" timestamp="2010-03-07T10:58:32Z" uid="58091" user="Andreas M" changeset="4059582">
    <nd ref="335900454"/>
    <nd ref="508460501"/>
    <nd ref="332900781"/>
    <nd ref="488875784"/>
    <nd ref="488875792"/>
    <nd ref="488875796"/>
    <nd ref="488875800"/>
    <nd ref="488875804"/>
    <nd ref="510189031"/>
    <tag k="fixme" v="feel free to correct"/>
    <tag k="highway" v="residential"/>
    <tag k="name" v="Seeweg"/>
    <tag k="postal_code" v="2070"/>
  </way>
  <way id="41576497" version="4" timestamp="2010-03-07T10:58:30Z" uid="58091" user="Andreas M" changeset="4059582">
    <nd ref="510189031"/>
    <nd ref="508069983"/>
    <nd ref="508069986"/>
    <nd ref="508069988"/>
    <nd ref="508069990"/>
    <nd ref="508069992"/>
    <nd ref="508069994"/>
    <nd ref="508069996"/>
    <nd ref="332899723"/>
    <nd ref="508069998"/>
    <nd ref="508070000"/>
    <nd ref="508070002"/>
    <nd ref="332889215"/>
    <nd ref="508070004"/>
    <nd ref="508070007"/>
    <nd ref="508070009"/>
    <nd ref="508070011"/>
    <tag k="highway" v="residential"/>
    <tag k="is_in" v="...,Bezirk Hollabrunn,Niederösterreich,Österreich,Europa"/>
    <tag k="name" v="Im Stadtfeld"/>
    <tag k="postal_code" v="2070"/>
  </way>
  <way id="41576636" version="2" timestamp="2010-02-15T06:35:26Z" uid="74617" user="JohnSmith" changeset="3880421">
    <nd ref="130948379"/>
    <nd ref="130961968"/>
    <nd ref="130915624"/>
    <tag k="highway" v="residential"/>
    <tag k="maxspeed" v="50"/>
    <tag k="name" v="Lavender Street"/>
    <tag k="oneway" v="yes"/>
  </way>
</osm>
