<?xml version='1.0' encoding='UTF-8'?>
<osm version="0.6" generator="libosmium/2.20.0">
  <way id="41579077" version="3" timestamp="2010-12-12T17:05:45Z" uid="6269" user="Mueck" changeset="6638693">
    <nd ref="29759774"/>
    <nd ref="1036002658"/>
    <nd ref="45351176"/>
    <nd ref="45351184"/>
    <nd ref="257099865"/>
    <tag k="cycleway" v="lane"/>
    <tag k="highway" v="primary"/>
    <tag k="maxspeed" v="50"/>
    <tag k="name" v="Elbinger Platz"/>
    <tag k="note" v="s. Brhv im OSM-Wiki"/>
    <tag k="oneway" v="yes"/>
    <tag k="ref" v="B 6"/>
  </way>
  <way id="41579079" version="4" timestamp="2010-12-12T17:05:46Z" uid="6269" user="Mueck" changeset="6638693">
    <nd ref="45351240"/>
    <nd ref="220185197"/>
    <nd ref="29759790"/>
    <nd ref="245949072"/>
    <tag k="highway" v="primary"/>
    <tag k="maxspeed" v="50"/>
    <tag k="name" v="Elbinger Platz"/>
    <tag k="note" v="s. Brhv im OSM-Wiki"/>
    <tag k="oneway" v="yes"/>
    <tag k="ref" v="B 6"/>
    <tag k="source" v="TraceLog"/>
  </way>
  <way id="41579354" version="5" timestamp="2009-10-28T19:23:29Z" uid="62339" user="gopholux" changeset="2975919">
    <nd ref="542132269"/>
    <nd ref="542132154"/>
    <nd ref="307751878"/>
    <nd ref="307752350"/>
    <tag k="highway" v="secondary"/>
  </way>
  <way id="41579354" version="6" timestamp="2009-10-28T19:24:32Z" uid="62339" user="gopholux" changeset="2975919">
    <nd ref="542132269"/>
    <nd ref="542132154"/>
    <tag k="highway" v="secondary"/>
  </way>
  <way id="41579354" version="7" timestamp="2009-10-28T19:24:35Z" uid="62339" user="gopholux" changeset="2975919"/>
</osm>
