<?xml version='1.0' encoding='UTF-8'?>
<osm version="0.6" generator="libosmium/2.20.0">
  <way id="41668382" version="1" timestamp="2009-09-28T12:41:35Z" uid="49111" user="Markus B" changeset="2664152">
    <nd ref="295936781"/>
    <nd ref="324225889"/>
    <nd ref="312896503"/>
    <nd ref="324225890"/>
    <tag k="highway" v="track"/>
    <tag k="surface" v="unpaved"/>
    <tag k="tracktype" v="grade3"/>
  </way>
  <way id="41668382" version="2" timestamp="2010-04-03T22:35:05Z" uid="49111" user="Markus B" changeset="4318083">
    <nd ref="295936781"/>
    <nd ref="324225889"/>
    <nd ref="683648935"/>
    <nd ref="312896503"/>
    <nd ref="683648934"/>
    <nd ref="324225890"/>
    <tag k="highway" v="track"/>
    <tag k="surface" v="unpaved"/>
    <tag k="tracktype" v="grade3"/>
  </way>
  <way id="41668831" version="2" timestamp="2010-07-08T17:11:17Z" uid="74617" user="JohnSmith" changeset="5167338">
    <nd ref="512197424"/>
    <nd ref="512197799"/>
    <nd ref="512197801"/>
    <nd ref="512197802"/>
    <nd ref="512197804"/>
    <nd ref="512197806"/>
    <nd ref="512197807"/>
    <tag k="highway" v="residential"/>
    <tag k="maxspeed" v="50"/>
    <tag k="maxspeed:source" v="default residential speed limit in Australia"/>
    <tag k="name" v="Riverside Drive"/>
  </way>
  <way id="41668832" version="2" timestamp="2010-07-08T17:10:45Z" uid="74617" user="JohnSmith" changeset="5167338">
    <nd ref="512197799"/>
    <nd ref="512197808"/>
    <nd ref="512197810"/>
    <nd ref="512197811"/>
    <tag k="highway" v="residential"/>
    <tag k="maxspeed" v="50"/>
    <tag k="maxspeed:source" v="default residential speed limit in Australia"/>
    <tag k="name" v="Grandview Road"/>
  </way>
  <way id="41668833" version="2" timestamp="2010-07-08T17:11:36Z" uid="74617" user="JohnSmith" changeset="5167338">
    <nd ref="512197812"/>
    <nd ref="512197810"/>
    <nd ref="512197821"/>
    <nd ref="512197807"/>
    <nd ref="512197826"/>
    <nd ref="512197827"/>
    <nd ref="512197840"/>
    <tag k="highway" v="residential"/>
    <tag k="maxspeed" v="50"/>
    <tag k="maxspeed:source" v="default residential speed limit in Australia"/>
    <tag k="name" v="Parkside Crescent"/>
  </way>
  <way id="41668834" version="2" timestamp="2010-07-08T17:10:59Z" uid="74617" user="JohnSmith" changeset="5167338">
    <nd ref="512197840"/>
    <nd ref="512197852"/>
    <nd ref="512197853"/>
    <nd ref="512197854"/>
    <nd ref="512197863"/>
    <tag k="highway" v="residential"/>
    <tag k="maxspeed" v="50"/>
    <tag k="maxspeed:source" v="default residential speed limit in Australia"/>
    <tag k="name" v="Parkside Crescent"/>
    <tag k="surface" v="unpaved"/>
  </way>
  <way id="41668835" version="2" timestamp="2010-07-08T17:11:50Z" uid="74617" user="JohnSmith" changeset="5167338">
    <nd ref="512197863"/>
    <nd ref="512197875"/>
    <tag k="highway" v="residential"/>
    <tag k="maxspeed" v="50"/>
    <tag k="maxspeed:source" v="default residential speed limit in Australia"/>
    <tag k="name" v="Parkside Crescent"/>
  </way>
  <way id="41668836" version="2" timestamp="2010-07-08T17:11:46Z" uid="74617" user="JohnSmith" changeset="5167338">
    <nd ref="512197826"/>
    <nd ref="512197896"/>
    <tag k="highway" v="residential"/>
    <tag k="maxspeed" v="50"/>
    <tag k="maxspeed:source" v="default residential speed limit in Australia"/>
    <tag k="name" v="Haven Court"/>
  </way>
  <way id="41668837" version="2" timestamp="2010-07-08T17:11:08Z" uid="74617" user="JohnSmith" changeset="5167338">
    <nd ref="512197821"/>
    <nd ref="512197917"/>
    <tag k="highway" v="residential"/>
    <tag k="maxspeed" v="50"/>
    <tag k="maxspeed:source" v="default residential speed limit in Australia"/>
    <tag k="name" v="Centre Court"/>
  </way>
  <way id="41668838" version="2" timestamp="2010-07-08T17:10:32Z" uid="74617" user="JohnSmith" changeset="5167338">
    <nd ref="512198048"/>
    <nd ref="512198253"/>
    <nd ref="512198272"/>
    <tag k="highway" v="residential"/>
    <tag k="maxspeed" v="50"/>
    <tag k="maxspeed:source" v="default residential speed limit in Australia"/>
    <tag k="name" v="Petriana Court"/>
  </way>
  <way id="41668841" version="2" timestamp="2010-07-08T17:11:02Z" uid="74617" user="JohnSmith" changeset="5167338">
    <nd ref="512197970"/>
    <nd ref="512198307"/>
    <nd ref="512198334"/>
    <nd ref="512198360"/>
    <nd ref="512198378"/>
    <nd ref="512198139"/>
    <tag k="highway" v="residential"/>
    <tag k="maxspeed" v="50"/>
    <tag k="maxspeed:source" v="default residential speed limit in Australia"/>
    <tag k="name" v="Holyhead Drive"/>
  </way>
  <way id="41668843" version="2" timestamp="2010-07-08T17:11:15Z" uid="74617" user="JohnSmith" changeset="5167338">
    <nd ref="512198360"/>
    <nd ref="512198395"/>
    <nd ref="512198398"/>
    <nd ref="512198408"/>
    <nd ref="512198428"/>
    <tag k="highway" v="residential"/>
    <tag k="maxspeed" v="50"/>
    <tag k="maxspeed:source" v="default residential speed limit in Australia"/>
    <tag k="name" v="Scammell Crescent"/>
  </way>
  <way id="41668844" version="2" timestamp="2010-07-08T17:11:11Z" uid="74617" user="JohnSmith" changeset="5167338">
    <nd ref="512198398"/>
    <nd ref="512198448"/>
    <tag k="highway" v="residential"/>
    <tag k="maxspeed" v="50"/>
    <tag k="maxspeed:source" v="default residential speed limit in Australia"/>
    <tag k="name" v="Time Court"/>
  </way>
  <way id="41668846" version="2" timestamp="2010-07-08T17:11:24Z" uid="74617" user="JohnSmith" changeset="5167338">
    <nd ref="512198408"/>
    <nd ref="512198471"/>
    <nd ref="512198501"/>
    <tag k="highway" v="residential"/>
    <tag k="maxspeed" v="50"/>
    <tag k="maxspeed:source" v="default residential speed limit in Australia"/>
    <tag k="name" v="Elanora Court"/>
  </way>
  <way id="41668847" version="2" timestamp="2010-07-08T17:10:49Z" uid="74617" user="JohnSmith" changeset="5167338">
    <nd ref="512198334"/>
    <nd ref="512198513"/>
    <nd ref="512198516"/>
    <nd ref="512198518"/>
    <tag k="highway" v="residential"/>
    <tag k="maxspeed" v="50"/>
    <tag k="maxspeed:source" v="default residential speed limit in Australia"/>
    <tag k="name" v="Romeo Court"/>
  </way>
  <way id="41668848" version="2" timestamp="2010-07-08T17:10:25Z" uid="74617" user="JohnSmith" changeset="5167338">
    <nd ref="512197958"/>
    <nd ref="512198522"/>
    <nd ref="512198531"/>
    <tag k="highway" v="residential"/>
    <tag k="maxspeed" v="50"/>
    <tag k="maxspeed:source" v="default residential speed limit in Australia"/>
    <tag k="name" v="Lydia Court"/>
  </way>
  <way id="41668849" version="2" timestamp="2010-07-08T17:11:16Z" uid="74617" user="JohnSmith" changeset="5167338">
    <nd ref="512198542"/>
    <nd ref="512198551"/>
    <nd ref="512198555"/>
    <tag k="highway" v="residential"/>
    <tag k="maxspeed" v="50"/>
    <tag k="maxspeed:source" v="default residential speed limit in Australia"/>
    <tag k="name" v="Miranda Close"/>
  </way>
  <way id="41668850" version="2" timestamp="2010-07-08T17:10:39Z" uid="74617" user="JohnSmith" changeset="5167338">
    <nd ref="512198551"/>
    <nd ref="512198557"/>
    <tag k="highway" v="residential"/>
    <tag k="maxspeed" v="50"/>
    <tag k="maxspeed:source" v="default residential speed limit in Australia"/>
    <tag k="name" v="Miranda Close"/>
  </way>
  <way id="41668851" version="2" timestamp="2010-07-08T17:11:29Z" uid="74617" user="JohnSmith" changeset="5167338">
    <nd ref="512198007"/>
    <nd ref="512198559"/>
    <nd ref="512198561"/>
    <nd ref="512198562"/>
    <nd ref="512198563"/>
    <nd ref="512198565"/>
    <nd ref="512198567"/>
    <nd ref="512198575"/>
    <nd ref="512198598"/>
    <nd ref="512198085"/>
    <tag k="highway" v="residential"/>
    <tag k="maxspeed" v="50"/>
    <tag k="maxspeed:source" v="default residential speed limit in Australia"/>
    <tag k="name" v="Grange Crescent"/>
  </way>
  <way id="41668852" version="2" timestamp="2010-07-08T17:11:25Z" uid="74617" user="JohnSmith" changeset="5167338">
    <nd ref="510174036"/>
    <nd ref="512198613"/>
    <nd ref="512198626"/>
    <tag k="highway" v="residential"/>
    <tag k="maxspeed" v="50"/>
    <tag k="maxspeed:source" v="default residential speed limit in Australia"/>
    <tag k="name" v="Seabird Court"/>
  </way>
  <way id="41668853" version="2" timestamp="2010-07-08T17:10:50Z" uid="74617" user="JohnSmith" changeset="5167338">
    <nd ref="510173937"/>
    <nd ref="512198647"/>
    <nd ref="512198677"/>
    <nd ref="512198698"/>
    <tag k="highway" v="residential"/>
    <tag k="maxspeed" v="50"/>
    <tag k="maxspeed:source" v="default residential speed limit in Australia"/>
    <tag k="name" v="Osprey Court"/>
  </way>
  <way id="41668854" version="2" timestamp="2010-07-08T17:11:40Z" uid="74617" user="JohnSmith" changeset="5167338">
    <nd ref="512197939"/>
    <nd ref="512198737"/>
    <nd ref="512198761"/>
    <nd ref="512198941"/>
    <nd ref="512198900"/>
    <nd ref="512198782"/>
    <nd ref="512198808"/>
    <tag k="highway" v="residential"/>
    <tag k="maxspeed" v="50"/>
    <tag k="maxspeed:source" v="default residential speed limit in Australia"/>
    <tag k="name" v="Orungal Court"/>
  </way>
  <way id="41668861" version="2" timestamp="2010-07-08T17:11:43Z" uid="74617" user="JohnSmith" changeset="5167338">
    <nd ref="510173557"/>
    <nd ref="512198959"/>
    <tag k="highway" v="residential"/>
    <tag k="maxspeed" v="50"/>
    <tag k="maxspeed:source" v="default residential speed limit in Australia"/>
    <tag k="name" v="Antares Court"/>
  </way>
  <way id="41668864" version="2" timestamp="2010-07-08T17:11:05Z" uid="74617" user="JohnSmith" changeset="5167338">
    <nd ref="512198983"/>
    <nd ref="512199002"/>
    <tag k="highway" v="residential"/>
    <tag k="maxspeed" v="50"/>
    <tag k="maxspeed:source" v="default residential speed limit in Australia"/>
    <tag k="name" v="Nestor Court"/>
  </way>
  <way id="41668866" version="3" timestamp="2010-07-08T17:11:18Z" uid="74617" user="JohnSmith" changeset="5167338">
    <nd ref="510173298"/>
    <nd ref="512199022"/>
    <nd ref="512199041"/>
    <tag k="highway" v="residential"/>
    <tag k="maxspeed" v="50"/>
    <tag k="maxspeed:source" v="default residential speed limit in Australia"/>
    <tag k="name" v="Flinders Lane"/>
  </way>
  <way id="41668867" version="2" timestamp="2010-07-08T17:10:42Z" uid="74617" user="JohnSmith" changeset="5167338">
    <nd ref="510173213"/>
    <nd ref="512199062"/>
    <nd ref="512199082"/>
    <nd ref="512199109"/>
    <nd ref="512199131"/>
    <nd ref="512199138"/>
    <nd ref="512199145"/>
    <nd ref="512199022"/>
    <tag k="highway" v="residential"/>
    <tag k="maxspeed" v="50"/>
    <tag k="maxspeed:source" v="default residential speed limit in Australia"/>
    <tag k="name" v="Boscarne Avenue"/>
  </way>
  <way id="41668869" version="2" timestamp="2010-07-08T17:11:29Z" uid="74617" user="JohnSmith" changeset="5167338">
    <nd ref="510173363"/>
    <nd ref="512199150"/>
    <tag k="highway" v="residential"/>
    <tag k="maxspeed" v="50"/>
    <tag k="maxspeed:source" v="default residential speed limit in Australia"/>
    <tag k="name" v="Neva Court"/>
  </way>
  <way id="41668871" version="2" timestamp="2010-07-08T17:11:43Z" uid="74617" user="JohnSmith" changeset="5167338">
    <nd ref="510173431"/>
    <nd ref="512199183"/>
    <nd ref="512199154"/>
    <nd ref="512199161"/>
    <nd ref="512199167"/>
    <nd ref="512199169"/>
    <tag k="highway" v="residential"/>
    <tag k="maxspeed" v="50"/>
    <tag k="maxspeed:source" v="default residential speed limit in Australia"/>
    <tag k="name" v="Dumfries Court"/>
  </way>
  <way id="41668876" version="2" timestamp="2010-07-08T17:11:33Z" uid="74617" user="JohnSmith" changeset="5167338">
    <nd ref="510173401"/>
    <nd ref="512199220"/>
    <nd ref="512199238"/>
    <tag k="highway" v="residential"/>
    <tag k="maxspeed" v="50"/>
    <tag k="maxspeed:source" v="default residential speed limit in Australia"/>
    <tag k="name" v="Hettie Court"/>
  </way>
  <way id="41668878" version="2" timestamp="2010-07-08T17:11:47Z" uid="74617" user="JohnSmith" changeset="5167338">
    <nd ref="510172091"/>
    <nd ref="512199240"/>
    <nd ref="512199241"/>
    <tag k="highway" v="residential"/>
    <tag k="maxspeed" v="50"/>
    <tag k="maxspeed:source" v="default residential speed limit in Australia"/>
    <tag k="name" v="Casino Court"/>
  </way>
  <way id="41668882" version="2" timestamp="2010-07-08T17:11:00Z" uid="74617" user="JohnSmith" changeset="5167338">
    <nd ref="512199240"/>
    <nd ref="512199242"/>
    <tag k="highway" v="residential"/>
    <tag k="maxspeed" v="50"/>
    <tag k="maxspeed:source" v="default residential speed limit in Australia"/>
    <tag k="name" v="Casino Court"/>
  </way>
  <way id="41668884" version="2" timestamp="2010-07-08T17:11:47Z" uid="74617" user="JohnSmith" changeset="5167338">
    <nd ref="510172024"/>
    <nd ref="512199256"/>
    <nd ref="512199243"/>
    <tag k="highway" v="residential"/>
    <tag k="maxspeed" v="50"/>
    <tag k="maxspeed:source" v="default residential speed limit in Australia"/>
    <tag k="name" v="Foam Court"/>
  </way>
  <way id="41668885" version="3" timestamp="2010-07-08T17:11:09Z" uid="74617" user="JohnSmith" changeset="5167338">
    <nd ref="512199256"/>
    <nd ref="512199267"/>
    <nd ref="512199285"/>
    <nd ref="669536038"/>
    <tag k="highway" v="residential"/>
    <tag k="maxspeed" v="50"/>
    <tag k="maxspeed:source" v="default residential speed limit in Australia"/>
    <tag k="name" v="Rayville Court"/>
  </way>
  <way id="41668886" version="2" timestamp="2010-07-08T17:10:33Z" uid="74617" user="JohnSmith" changeset="5167338">
    <nd ref="512199304"/>
    <nd ref="512199324"/>
    <nd ref="512199345"/>
    <nd ref="512199771"/>
    <nd ref="512199355"/>
    <nd ref="512199378"/>
    <nd ref="512199749"/>
    <nd ref="512199402"/>
    <nd ref="512199422"/>
    <nd ref="512199442"/>
    <nd ref="512199450"/>
    <nd ref="512199471"/>
    <tag k="highway" v="residential"/>
    <tag k="maxspeed" v="50"/>
    <tag k="maxspeed:source" v="default residential speed limit in Australia"/>
    <tag k="name" v="Highlander Street"/>
  </way>
  <way id="41668888" version="2" timestamp="2010-07-08T17:11:40Z" uid="74617" user="JohnSmith" changeset="5167338">
    <nd ref="512199442"/>
    <nd ref="512199491"/>
    <nd ref="512199511"/>
    <tag k="highway" v="residential"/>
    <tag k="maxspeed" v="50"/>
    <tag k="maxspeed:source" v="default residential speed limit in Australia"/>
    <tag k="name" v="Whistler Close"/>
  </way>
  <way id="41668891" version="2" timestamp="2010-07-08T17:11:16Z" uid="74617" user="JohnSmith" changeset="5167338">
    <nd ref="512199422"/>
    <nd ref="512199529"/>
    <nd ref="512199538"/>
    <nd ref="512199557"/>
    <nd ref="512199583"/>
    <tag k="highway" v="residential"/>
    <tag k="maxspeed" v="50"/>
    <tag k="maxspeed:source" v="default residential speed limit in Australia"/>
    <tag k="name" v="Conside Crescent"/>
  </way>
  <way id="41668892" version="2" timestamp="2010-07-08T17:11:12Z" uid="74617" user="JohnSmith" changeset="5167338">
    <nd ref="512199529"/>
    <nd ref="512199600"/>
    <nd ref="512199617"/>
    <nd ref="512199624"/>
    <tag k="highway" v="residential"/>
    <tag k="maxspeed" v="50"/>
    <tag k="maxspeed:source" v="default residential speed limit in Australia"/>
    <tag k="name" v="Almeida CLose"/>
  </way>
  <way id="41668896" version="2" timestamp="2010-07-08T17:11:46Z" uid="74617" user="JohnSmith" changeset="5167338">
    <nd ref="512199600"/>
    <nd ref="512199640"/>
    <nd ref="512199665"/>
    <tag k="highway" v="residential"/>
    <tag k="maxspeed" v="50"/>
    <tag k="maxspeed:source" v="default residential speed limit in Australia"/>
    <tag k="name" v="Almeida CLose"/>
  </way>
  <way id="41668897" version="2" timestamp="2010-07-08T17:11:07Z" uid="74617" user="JohnSmith" changeset="5167338">
    <nd ref="512199402"/>
    <nd ref="512199719"/>
    <tag k="highway" v="residential"/>
    <tag k="maxspeed" v="50"/>
    <tag k="maxspeed:source" v="default residential speed limit in Australia"/>
    <tag k="name" v="Empire Court"/>
  </way>
  <way id="41668898" version="2" timestamp="2010-07-08T17:10:31Z" uid="74617" user="JohnSmith" changeset="5167338">
    <nd ref="512199355"/>
    <nd ref="512199751"/>
    <nd ref="512199759"/>
    <tag k="highway" v="residential"/>
    <tag k="maxspeed" v="50"/>
    <tag k="maxspeed:source" v="default residential speed limit in Australia"/>
    <tag k="name" v="Bulli Court"/>
  </way>
  <way id="41668899" version="2" timestamp="2010-07-08T17:11:20Z" uid="74617" user="JohnSmith" changeset="5167338">
    <nd ref="512199771"/>
    <nd ref="512199776"/>
    <tag k="highway" v="residential"/>
    <tag k="maxspeed" v="50"/>
    <tag k="maxspeed:source" v="default residential speed limit in Australia"/>
    <tag k="name" v="Elm Grove Court"/>
  </way>
  <way id="41668900" version="2" timestamp="2010-07-08T17:11:18Z" uid="74617" user="JohnSmith" changeset="5167338">
    <nd ref="512199345"/>
    <nd ref="512199783"/>
    <nd ref="512199324"/>
    <tag k="highway" v="residential"/>
    <tag k="maxspeed" v="50"/>
    <tag k="maxspeed:source" v="default residential speed limit in Australia"/>
    <tag k="name" v="Corsair Way"/>
    <tag k="oneway" v="yes"/>
  </way>
  <way id="41668901" version="2" timestamp="2010-07-08T17:10:41Z" uid="74617" user="JohnSmith" changeset="5167338">
    <nd ref="512199783"/>
    <nd ref="512201194"/>
    <nd ref="512199795"/>
    <nd ref="512199825"/>
    <nd ref="512199837"/>
    <nd ref="512199861"/>
    <nd ref="512199873"/>
    <nd ref="512199874"/>
    <nd ref="512199875"/>
    <nd ref="512199882"/>
    <nd ref="512199892"/>
    <tag k="highway" v="residential"/>
    <tag k="maxspeed" v="50"/>
    <tag k="maxspeed:source" v="default residential speed limit in Australia"/>
    <tag k="name" v="Corsair Way"/>
  </way>
  <way id="41668902" version="2" timestamp="2010-07-08T17:11:32Z" uid="74617" user="JohnSmith" changeset="5167338">
    <nd ref="512199795"/>
    <nd ref="512199900"/>
    <nd ref="512199911"/>
    <tag k="highway" v="residential"/>
    <tag k="maxspeed" v="50"/>
    <tag k="maxspeed:source" v="default residential speed limit in Australia"/>
    <tag k="name" v="Rio Court"/>
  </way>
  <way id="41668904" version="2" timestamp="2010-07-08T17:11:11Z" uid="74617" user="JohnSmith" changeset="5167338">
    <nd ref="512199938"/>
    <nd ref="512199968"/>
    <nd ref="512199972"/>
    <nd ref="512199980"/>
    <nd ref="512199981"/>
    <tag k="highway" v="residential"/>
    <tag k="maxspeed" v="50"/>
    <tag k="maxspeed:source" v="default residential speed limit in Australia"/>
    <tag k="name" v="Lune Court"/>
  </way>
  <way id="41668905" version="2" timestamp="2010-07-08T17:10:35Z" uid="74617" user="JohnSmith" changeset="5167338">
    <nd ref="512199837"/>
    <nd ref="512200000"/>
    <tag k="highway" v="residential"/>
    <tag k="maxspeed" v="50"/>
    <tag k="maxspeed:source" v="default residential speed limit in Australia"/>
    <tag k="name" v="Petrel Close"/>
  </way>
  <way id="41668906" version="2" timestamp="2010-07-08T17:11:24Z" uid="74617" user="JohnSmith" changeset="5167338">
    <nd ref="512199861"/>
    <nd ref="512200022"/>
    <nd ref="512200030"/>
    <nd ref="512200061"/>
    <nd ref="512200087"/>
    <tag k="highway" v="residential"/>
    <tag k="maxspeed" v="50"/>
    <tag k="maxspeed:source" v="default residential speed limit in Australia"/>
    <tag k="name" v="Artisan Close"/>
  </way>
  <way id="41668907" version="2" timestamp="2010-07-08T17:10:49Z" uid="74617" user="JohnSmith" changeset="5167338">
    <nd ref="512200110"/>
    <nd ref="512200119"/>
    <nd ref="512200133"/>
    <nd ref="512200154"/>
    <nd ref="512200165"/>
    <nd ref="512200188"/>
    <nd ref="512200198"/>
    <nd ref="512200224"/>
    <nd ref="512200251"/>
    <nd ref="512200272"/>
    <nd ref="512199875"/>
    <tag k="highway" v="residential"/>
    <tag k="maxspeed" v="50"/>
    <tag k="maxspeed:source" v="default residential speed limit in Australia"/>
    <tag k="name" v="Koomeela Drive"/>
  </way>
  <way id="41668908" version="2" timestamp="2010-07-08T17:10:44Z" uid="74617" user="JohnSmith" changeset="5167338">
    <nd ref="512200165"/>
    <nd ref="512200296"/>
    <nd ref="512200304"/>
    <nd ref="512200331"/>
    <tag k="highway" v="residential"/>
    <tag k="maxspeed" v="50"/>
    <tag k="maxspeed:source" v="default residential speed limit in Australia"/>
    <tag k="name" v="Baden Court"/>
  </way>
  <way id="41668909" version="2" timestamp="2010-07-08T17:11:36Z" uid="74617" user="JohnSmith" changeset="5167338">
    <nd ref="512200354"/>
    <nd ref="512200369"/>
    <nd ref="512200382"/>
    <tag k="highway" v="residential"/>
    <tag k="maxspeed" v="50"/>
    <tag k="maxspeed:source" v="default residential speed limit in Australia"/>
    <tag k="name" v="Liesbet Close"/>
  </way>
  <way id="41668910" version="2" timestamp="2010-07-08T17:10:58Z" uid="74617" user="JohnSmith" changeset="5167338">
    <nd ref="512200369"/>
    <nd ref="512200414"/>
    <tag k="highway" v="residential"/>
    <tag k="maxspeed" v="50"/>
    <tag k="maxspeed:source" v="default residential speed limit in Australia"/>
    <tag k="name" v="Liesbet Close"/>
  </way>
  <way id="41668911" version="2" timestamp="2010-07-08T17:11:49Z" uid="74617" user="JohnSmith" changeset="5167338">
    <nd ref="512200438"/>
    <nd ref="512200461"/>
    <tag k="highway" v="residential"/>
    <tag k="maxspeed" v="50"/>
    <tag k="maxspeed:source" v="default residential speed limit in Australia"/>
    <tag k="name" v="Shah Court"/>
  </way>
  <way id="41668912" version="2" timestamp="2010-07-08T17:11:24Z" uid="74617" user="JohnSmith" changeset="5167338">
    <nd ref="512200465"/>
    <nd ref="512200486"/>
    <tag k="highway" v="residential"/>
    <tag k="maxspeed" v="50"/>
    <tag k="maxspeed:source" v="default residential speed limit in Australia"/>
    <tag k="name" v="Afzan Court"/>
  </way>
  <way id="41668913" version="2" timestamp="2010-07-08T17:10:50Z" uid="74617" user="JohnSmith" changeset="5167338">
    <nd ref="512200503"/>
    <nd ref="512200507"/>
    <nd ref="512200659"/>
    <nd ref="512200514"/>
    <nd ref="512200519"/>
    <nd ref="512200524"/>
    <nd ref="512200527"/>
    <nd ref="512200529"/>
    <nd ref="512200534"/>
    <nd ref="512200536"/>
    <nd ref="512200540"/>
    <nd ref="512200545"/>
    <nd ref="512200551"/>
    <nd ref="512200554"/>
    <tag k="highway" v="residential"/>
    <tag k="maxspeed" v="50"/>
    <tag k="maxspeed:source" v="default residential speed limit in Australia"/>
    <tag k="name" v="Golden Beach Way"/>
  </way>
  <way id="41668914" version="2" timestamp="2010-07-08T17:11:39Z" uid="74617" user="JohnSmith" changeset="5167338">
    <nd ref="512200540"/>
    <nd ref="512200555"/>
    <nd ref="512200556"/>
    <nd ref="512200557"/>
    <nd ref="512200559"/>
    <tag k="highway" v="residential"/>
    <tag k="maxspeed" v="50"/>
    <tag k="maxspeed:source" v="default residential speed limit in Australia"/>
    <tag k="name" v="Hani Court"/>
  </way>
  <way id="41668916" version="2" timestamp="2010-07-08T17:10:59Z" uid="74617" user="JohnSmith" changeset="5167338">
    <nd ref="512200557"/>
    <nd ref="512200573"/>
    <tag k="highway" v="residential"/>
    <tag k="maxspeed" v="50"/>
    <tag k="maxspeed:source" v="default residential speed limit in Australia"/>
    <tag k="name" v="Hani Court"/>
  </way>
  <way id="41668917" version="2" timestamp="2010-07-08T17:11:50Z" uid="74617" user="JohnSmith" changeset="5167338">
    <nd ref="512200536"/>
    <nd ref="512200588"/>
    <nd ref="512200614"/>
    <tag k="highway" v="residential"/>
    <tag k="maxspeed" v="50"/>
    <tag k="maxspeed:source" v="default residential speed limit in Australia"/>
    <tag k="name" v="Hallis Court"/>
  </way>
  <way id="41668919" version="2" timestamp="2010-07-08T17:10:36Z" uid="74617" user="JohnSmith" changeset="5167338">
    <nd ref="512200588"/>
    <nd ref="512200634"/>
    <tag k="highway" v="residential"/>
    <tag k="maxspeed" v="50"/>
    <tag k="maxspeed:source" v="default residential speed limit in Australia"/>
    <tag k="name" v="Hallis Court"/>
  </way>
  <way id="41668920" version="2" timestamp="2010-07-08T17:10:53Z" uid="74617" user="JohnSmith" changeset="5167338">
    <nd ref="512200507"/>
    <nd ref="512200670"/>
    <tag k="highway" v="residential"/>
    <tag k="maxspeed" v="50"/>
    <tag k="maxspeed:source" v="default residential speed limit in Australia"/>
    <tag k="name" v="Fatimah Court"/>
  </way>
  <way id="41668937" version="2" timestamp="2010-07-08T17:11:14Z" uid="74617" user="JohnSmith" changeset="5167338">
    <nd ref="512199825"/>
    <nd ref="512199920"/>
    <nd ref="512199927"/>
    <nd ref="512199938"/>
    <nd ref="512199943"/>
    <nd ref="512199583"/>
    <nd ref="512199948"/>
    <nd ref="512199892"/>
    <nd ref="512199956"/>
    <tag k="highway" v="residential"/>
    <tag k="maxspeed" v="50"/>
    <tag k="maxspeed:source" v="default residential speed limit in Australia"/>
    <tag k="name" v="Glengarry Drive"/>
  </way>
</osm>
