<?xml version='1.0' encoding='UTF-8'?>
<osm version="0.6" generator="libosmium/2.20.0">
  <way id="41682350" version="1" timestamp="2009-09-28T18:23:04Z" uid="8931" user="bluepup" changeset="2668579">
    <nd ref="512562526"/>
    <nd ref="512562527"/>
    <nd ref="512562528"/>
    <nd ref="512562529"/>
    <tag k="barrier" v="fence"/>
  </way>
  <way id="41682416" version="2" timestamp="2010-04-06T15:35:38Z" uid="20587" user="balrog-kun" changeset="4342727">
    <nd ref="512562936"/>
    <nd ref="512562937"/>
    <tag k="bridge" v="yes"/>
    <tag k="highway" v="residential"/>
    <tag k="layer" v="1"/>
    <tag k="name" v="219th Street"/>
    <tag k="name_1" v="County Road 22"/>
    <tag k="source" v="yahoo"/>
  </way>
  <way id="41682418" version="2" timestamp="2010-04-06T15:35:38Z" uid="20587" user="balrog-kun" changeset="4342727">
    <nd ref="512562937"/>
    <nd ref="78720359"/>
    <nd ref="78720361"/>
    <nd ref="78720363"/>
    <nd ref="78720365"/>
    <tag k="highway" v="residential"/>
    <tag k="name" v="219th Street"/>
    <tag k="name_1" v="County Road 22"/>
    <tag k="tiger:cfcc" v="A41"/>
    <tag k="tiger:county" v="Brookings, SD"/>
    <tag k="tiger:name_base" v="219th"/>
    <tag k="tiger:name_base_1" v="County Road 22"/>
    <tag k="tiger:name_type" v="St"/>
    <tag k="tiger:reviewed" v="no"/>
    <tag k="tiger:separated" v="no"/>
    <tag k="tiger:source" v="tiger_import_dch_v0.6_20070829"/>
    <tag k="tiger:tlid" v="193625652:193625653:193625713:193625870"/>
    <tag k="tiger:zip_left" v="57006"/>
    <tag k="tiger:zip_right" v="57006"/>
  </way>
  <way id="41682422" version="3" timestamp="2010-04-06T15:35:39Z" uid="20587" user="balrog-kun" changeset="4342727">
    <nd ref="512562944"/>
    <nd ref="512562948"/>
    <tag k="bridge" v="yes"/>
    <tag k="highway" v="secondary"/>
    <tag k="layer" v="1"/>
    <tag k="name" v="217th Street"/>
    <tag k="ref" v="SD 324"/>
    <tag k="source" v="yahoo"/>
  </way>
  <way id="41682431" version="3" timestamp="2010-04-06T15:35:39Z" uid="20587" user="balrog-kun" changeset="4342727">
    <nd ref="512562961"/>
    <nd ref="512562960"/>
    <tag k="bridge" v="yes"/>
    <tag k="highway" v="primary"/>
    <tag k="layer" v="1"/>
    <tag k="name" v="6th Street"/>
    <tag k="name_1" v="United States Highway 14"/>
    <tag k="name_2" v="United States Highway 14 (Bus)"/>
    <tag k="ref" v="US 14"/>
    <tag k="source" v="yahoo"/>
  </way>
  <way id="41682432" version="5" timestamp="2010-04-06T15:35:39Z" uid="20587" user="balrog-kun" changeset="4342727">
    <nd ref="512562960"/>
    <nd ref="78721157"/>
    <nd ref="78732835"/>
    <nd ref="78738103"/>
    <tag k="highway" v="primary"/>
    <tag k="name" v="6th Street"/>
    <tag k="name_1" v="United States Highway 14"/>
    <tag k="name_2" v="United States Highway 14 (Bus)"/>
    <tag k="ref" v="US 14"/>
    <tag k="tiger:cfcc" v="A25"/>
    <tag k="tiger:county" v="Brookings, SD"/>
    <tag k="tiger:name_base" v="6th"/>
    <tag k="tiger:name_base_1" v="United States Highway 14"/>
    <tag k="tiger:name_base_2" v="United States Highway 14 (Bus)"/>
    <tag k="tiger:name_type" v="St"/>
    <tag k="tiger:reviewed" v="no"/>
    <tag k="tiger:separated" v="yes"/>
    <tag k="tiger:source" v="tiger_import_dch_v0.6_20070829"/>
    <tag k="tiger:tlid" v="193633395:193633575:193633875:193633571:193633629:193627333:193633905"/>
  </way>
  <way id="41682435" version="3" timestamp="2010-04-06T15:35:39Z" uid="20587" user="balrog-kun" changeset="4342727">
    <nd ref="512562959"/>
    <nd ref="512562958"/>
    <tag k="bridge" v="yes"/>
    <tag k="highway" v="primary"/>
    <tag k="layer" v="1"/>
    <tag k="name" v="6th Street"/>
    <tag k="name_1" v="United States Highway 14 (Bus)"/>
    <tag k="name_2" v="United States Highway 14"/>
    <tag k="ref" v="US 14"/>
    <tag k="source" v="yahoo"/>
  </way>
  <way id="41682437" version="4" timestamp="2010-04-06T15:35:39Z" uid="20587" user="balrog-kun" changeset="4342727">
    <nd ref="512562958"/>
    <nd ref="78721141"/>
    <nd ref="78721225"/>
    <nd ref="78738122"/>
    <nd ref="78738123"/>
    <nd ref="78738124"/>
    <nd ref="78738094"/>
    <tag k="highway" v="primary"/>
    <tag k="name" v="6th Street"/>
    <tag k="name_1" v="United States Highway 14 (Bus)"/>
    <tag k="name_2" v="United States Highway 14"/>
    <tag k="ref" v="US 14"/>
    <tag k="tiger:cfcc" v="A21"/>
    <tag k="tiger:county" v="Brookings, SD"/>
    <tag k="tiger:name_base" v="6th"/>
    <tag k="tiger:name_base_1" v="United States Highway 14 (Bus)"/>
    <tag k="tiger:name_base_2" v="United States Highway 14"/>
    <tag k="tiger:name_type" v="St"/>
    <tag k="tiger:reviewed" v="no"/>
    <tag k="tiger:separated" v="no"/>
    <tag k="tiger:source" v="tiger_import_dch_v0.6_20070829"/>
    <tag k="tiger:tlid" v="193622848:193622851:193622852:193622855:193622856:193622861:193622862:193622864:193622866:193622870:193622868:193622859:193622849:193622872:193622874:193622876:193627542:193623988"/>
    <tag k="tiger:zip_left" v="57006"/>
    <tag k="tiger:zip_right" v="57006"/>
  </way>
  <way id="41682503" version="2" timestamp="2009-11-02T12:55:55Z" uid="43863" user="Rundling" changeset="3016071">
    <nd ref="551582423"/>
    <nd ref="551582424"/>
    <nd ref="551582426"/>
    <nd ref="551582428"/>
    <nd ref="285882166"/>
    <nd ref="551582435"/>
    <nd ref="339821321"/>
    <nd ref="551582449"/>
    <tag k="highway" v="primary"/>
    <tag k="name" v="Lüchower Straße"/>
    <tag k="ref" v="B 493"/>
  </way>
  <way id="41682503" version="3" timestamp="2011-02-27T15:53:41Z" uid="43863" user="Rundling" changeset="7411937">
    <nd ref="551582423"/>
    <nd ref="551582424"/>
    <nd ref="551582426"/>
    <nd ref="551582428"/>
    <nd ref="285882166"/>
    <nd ref="1177339703"/>
    <nd ref="551582435"/>
    <nd ref="339821321"/>
    <nd ref="1177339758"/>
    <nd ref="551582449"/>
    <tag k="highway" v="primary"/>
    <tag k="name" v="Lüchower Straße"/>
    <tag k="ref" v="B 493"/>
  </way>
  <way id="41682503" version="4" timestamp="2011-02-27T16:16:33Z" uid="43863" user="Rundling" changeset="7412324">
    <nd ref="551582423"/>
    <nd ref="551582424"/>
    <nd ref="551582426"/>
    <nd ref="1177372057"/>
    <nd ref="551582428"/>
    <nd ref="285882166"/>
    <nd ref="1177339703"/>
    <nd ref="551582435"/>
    <nd ref="339821321"/>
    <nd ref="1177339758"/>
    <nd ref="551582449"/>
    <tag k="highway" v="primary"/>
    <tag k="name" v="Lüchower Straße"/>
    <tag k="ref" v="B 493"/>
  </way>
  <way id="41682504" version="2" timestamp="2010-01-16T12:06:05Z" uid="43863" user="Rundling" changeset="3630818">
    <nd ref="31588790"/>
    <nd ref="31588792"/>
    <nd ref="291520517"/>
    <nd ref="31588793"/>
    <nd ref="291622211"/>
    <nd ref="31588795"/>
    <nd ref="345106442"/>
    <nd ref="345106444"/>
    <nd ref="31588796"/>
    <nd ref="345106445"/>
    <nd ref="31588798"/>
    <nd ref="291688021"/>
    <nd ref="275319266"/>
    <tag k="highway" v="primary"/>
    <tag k="ref" v="B 191"/>
  </way>
  <way id="41682504" version="3" timestamp="2010-01-16T12:11:17Z" uid="43863" user="Rundling" changeset="3630847">
    <nd ref="31588790"/>
    <nd ref="31588792"/>
    <nd ref="291520517"/>
    <nd ref="31588793"/>
    <nd ref="291622211"/>
    <nd ref="31588795"/>
    <nd ref="345106442"/>
    <nd ref="345106444"/>
    <nd ref="31588796"/>
    <nd ref="345106445"/>
    <nd ref="31588798"/>
    <nd ref="291688021"/>
    <nd ref="275319266"/>
    <nd ref="31588799"/>
    <nd ref="288118689"/>
    <nd ref="344780115"/>
    <tag k="highway" v="primary"/>
    <tag k="maxspeed" v="70"/>
    <tag k="ref" v="B 191"/>
  </way>
  <way id="41682700" version="3" timestamp="2010-08-07T19:27:04Z" uid="23543" user="jkjk" changeset="5427177">
    <nd ref="512564777"/>
    <nd ref="417875869"/>
    <nd ref="417876908"/>
    <nd ref="417876774"/>
    <nd ref="417876606"/>
    <nd ref="417876592"/>
    <nd ref="512564769"/>
    <nd ref="417876968"/>
    <nd ref="512564770"/>
    <nd ref="417876946"/>
    <nd ref="417876755"/>
    <nd ref="848901478"/>
    <nd ref="848901602"/>
    <nd ref="417936277"/>
    <tag k="addr:city" v="Nowa Słupia"/>
    <tag k="addr:postcode" v="26-006"/>
    <tag k="highway" v="residential"/>
    <tag k="name" v="Świętokrzyska"/>
    <tag k="source" v="http://ump.waw.pl/ retrieved 13:50:02 06/07/09 (UMP-Kielce/src/KIELCE.drogi.txt)"/>
  </way>
  <way id="41682827" version="1" timestamp="2009-09-28T18:34:30Z" uid="157412" user="Leopold" changeset="2668718">
    <nd ref="512565522"/>
    <nd ref="512565523"/>
    <nd ref="512565524"/>
    <nd ref="512565525"/>
    <tag k="highway" v="track"/>
    <tag k="surface" v="grass"/>
  </way>
</osm>
