<?xml version='1.0' encoding='UTF-8'?>
<osm version="0.6" generator="libosmium/2.20.0">
  <way id="41934018" version="6" timestamp="2010-03-28T10:57:40Z" uid="20587" user="balrog-kun" changeset="4254597">
    <nd ref="519453773"/>
    <nd ref="519453778"/>
    <tag k="bridge" v="yes"/>
    <tag k="highway" v="motorway"/>
    <tag k="history" v="Retrieved from v23"/>
    <tag k="layer" v="1"/>
    <tag k="name" v="Junipero Serra Freeway"/>
    <tag k="oneway" v="yes"/>
    <tag k="ref" v="I 280"/>
  </way>
  <way id="41934019" version="2" timestamp="2010-03-28T10:57:40Z" uid="20587" user="balrog-kun" changeset="4254597">
    <nd ref="519453778"/>
    <nd ref="305549073"/>
    <tag k="highway" v="motorway"/>
    <tag k="history" v="Retrieved from v23"/>
    <tag k="name" v="Junipero Serra Freeway"/>
    <tag k="oneway" v="yes"/>
    <tag k="ref" v="I 280"/>
  </way>
  <way id="41934020" version="5" timestamp="2010-03-28T10:57:40Z" uid="20587" user="balrog-kun" changeset="4254597">
    <nd ref="519453755"/>
    <nd ref="519453800"/>
    <tag k="bridge" v="yes"/>
    <tag k="highway" v="motorway"/>
    <tag k="layer" v="1"/>
    <tag k="name" v="Junipero Serra Freeway"/>
    <tag k="oneway" v="yes"/>
    <tag k="ref" v="I 280"/>
  </way>
  <way id="41934021" version="3" timestamp="2010-03-28T10:57:41Z" uid="20587" user="balrog-kun" changeset="4254597">
    <nd ref="519453800"/>
    <nd ref="206689224"/>
    <nd ref="289651583"/>
    <nd ref="289638735"/>
    <nd ref="26506805"/>
    <nd ref="92274376"/>
    <nd ref="305548963"/>
    <nd ref="26506806"/>
    <nd ref="305548965"/>
    <nd ref="26506808"/>
    <nd ref="26506810"/>
    <nd ref="255655733"/>
    <nd ref="73705048"/>
    <nd ref="73704995"/>
    <nd ref="220218075"/>
    <nd ref="305548752"/>
    <nd ref="26506811"/>
    <nd ref="305548771"/>
    <nd ref="220221941"/>
    <nd ref="26506819"/>
    <nd ref="26506813"/>
    <nd ref="49071602"/>
    <nd ref="49071605"/>
    <nd ref="30237136"/>
    <nd ref="306086412"/>
    <nd ref="92274384"/>
    <nd ref="224490643"/>
    <nd ref="30237138"/>
    <nd ref="305548483"/>
    <nd ref="30237139"/>
    <nd ref="30674511"/>
    <tag k="highway" v="motorway"/>
    <tag k="name" v="Junipero Serra Freeway"/>
    <tag k="oneway" v="yes"/>
    <tag k="ref" v="I 280"/>
    <tag k="symbol" v="http://upload.wikimedia.org/wikipedia/commons/f/fa/I-blank.svg"/>
  </way>
  <way id="41934457" version="1" timestamp="2009-10-03T21:51:22Z" uid="20587" user="balrog-kun" changeset="2730109">
    <nd ref="370385222"/>
    <nd ref="370385221"/>
    <nd ref="264460732"/>
    <tag k="highway" v="residential"/>
    <tag k="name" v="Max-Planck-StraÃŸe"/>
  </way>
  <way id="41934557" version="1" timestamp="2009-10-03T21:54:45Z" uid="99207" user="Lar Kiesel" changeset="2730135">
    <nd ref="113512238"/>
    <nd ref="113512243"/>
    <tag k="highway" v="residential"/>
    <tag k="name" v="North Lakeshore Drive"/>
    <tag k="surface" v="unpaved"/>
    <tag k="tiger:cfcc" v="A41"/>
    <tag k="tiger:county" v="Lexington, SC"/>
    <tag k="tiger:name_base" v="Lakeshore"/>
    <tag k="tiger:name_base_1" v="State Road S-32-1329"/>
    <tag k="tiger:name_direction_prefix" v="N"/>
    <tag k="tiger:name_type" v="Dr"/>
    <tag k="tiger:separated" v="no"/>
    <tag k="tiger:source" v="tiger_import_dch_v0.6_20070829"/>
    <tag k="tiger:tlid" v="70046504:70046484"/>
    <tag k="tiger:upload_uuid" v="bulk_upload.pl-fe67c1cb-bcd5-4753-ae32-5a2256c432dc"/>
  </way>
  <way id="41934557" version="2" timestamp="2009-10-28T02:08:11Z" uid="99207" user="Lar Kiesel" changeset="2970456">
    <nd ref="113512238"/>
    <nd ref="113512243"/>
    <tag k="highway" v="residential"/>
    <tag k="name" v="North Lakeshore Dr"/>
    <tag k="surface" v="unpaved"/>
    <tag k="tiger:cfcc" v="A41"/>
    <tag k="tiger:county" v="Lexington, SC"/>
    <tag k="tiger:name_base" v="Lakeshore"/>
    <tag k="tiger:name_base_1" v="State Road S-32-1329"/>
    <tag k="tiger:name_direction_prefix" v="N"/>
    <tag k="tiger:name_type" v="Dr"/>
    <tag k="tiger:separated" v="no"/>
    <tag k="tiger:source" v="tiger_import_dch_v0.6_20070829"/>
    <tag k="tiger:tlid" v="70046504:70046484"/>
    <tag k="tiger:upload_uuid" v="bulk_upload.pl-fe67c1cb-bcd5-4753-ae32-5a2256c432dc"/>
  </way>
</osm>
