<?xml version='1.0' encoding='UTF-8'?>
<osm version="0.6" generator="libosmium/2.20.0">
  <way id="4211008" version="1" timestamp="2007-07-11T22:30:19Z" uid="8328" user="benpre" changeset="141044">
    <nd ref="21647401"/>
    <nd ref="536667"/>
    <tag k="bicycle" v="yes"/>
    <tag k="bridge" v="yes"/>
    <tag k="created_by" v="JOSM"/>
    <tag k="highway" v="primary"/>
    <tag k="layer" v="1"/>
    <tag k="motorcar" v="yes"/>
    <tag k="name" v="Tonbergstraße"/>
    <tag k="oneway" v="yes"/>
  </way>
  <way id="4211009" version="1" timestamp="2007-07-11T22:30:20Z" uid="8328" user="benpre" changeset="141044">
    <nd ref="21647399"/>
    <nd ref="21647402"/>
    <tag k="bicycle" v="yes"/>
    <tag k="bridge" v="yes"/>
    <tag k="created_by" v="JOSM"/>
    <tag k="highway" v="primary"/>
    <tag k="layer" v="1"/>
    <tag k="motorcar" v="yes"/>
    <tag k="name" v="Tonbergstraße"/>
    <tag k="oneway" v="yes"/>
  </way>
  <way id="4211011" version="1" timestamp="2007-07-11T22:30:18Z" uid="8328" user="benpre" changeset="141044">
    <nd ref="21540856"/>
    <nd ref="21647397"/>
    <nd ref="21647398"/>
    <nd ref="21647401"/>
    <tag k="bicycle" v="yes"/>
    <tag k="created_by" v="JOSM"/>
    <tag k="highway" v="primary"/>
    <tag k="motorcar" v="yes"/>
    <tag k="name" v="Tonbergstraße"/>
    <tag k="oneway" v="yes"/>
  </way>
  <way id="4211013" version="1" timestamp="2007-07-11T22:30:16Z" uid="8328" user="benpre" changeset="141044">
    <nd ref="2297615"/>
    <nd ref="24947421"/>
    <nd ref="24947407"/>
    <nd ref="24947416"/>
    <tag k="bicycle" v="yes"/>
    <tag k="created_by" v="JOSM"/>
    <tag k="highway" v="residential"/>
    <tag k="motorcar" v="yes"/>
    <tag k="name" v="Tonbergstraße"/>
  </way>
  <way id="4211062" version="2" timestamp="2008-07-30T10:46:50Z" uid="6269" user="Mueck" changeset="628766">
    <nd ref="14963170"/>
    <nd ref="14963171"/>
    <nd ref="14963172"/>
    <nd ref="14963173"/>
    <nd ref="14963174"/>
    <nd ref="14963175"/>
    <nd ref="14963176"/>
    <nd ref="14963177"/>
    <nd ref="16475803"/>
    <nd ref="14963178"/>
    <nd ref="25297159"/>
    <nd ref="14963179"/>
    <nd ref="14963180"/>
    <nd ref="14915623"/>
    <tag k="created_by" v="Potlatch 0.10a"/>
    <tag k="highway" v="tertiary"/>
    <tag k="name" v="Hermann-Veit-Straße"/>
    <tag k="note" v="im SHP des NVK: III"/>
    <tag k="oneway" v="true"/>
  </way>
  <way id="4211062" version="9" timestamp="2011-02-13T12:34:33Z" uid="6269" user="Mueck" changeset="7274725">
    <nd ref="14963170"/>
    <nd ref="472988407"/>
    <nd ref="14963171"/>
    <nd ref="14963172"/>
    <nd ref="1150845141"/>
    <nd ref="14963173"/>
    <nd ref="1150845163"/>
    <nd ref="14963174"/>
    <nd ref="14963175"/>
    <nd ref="14963176"/>
    <nd ref="14963177"/>
    <nd ref="601766173"/>
    <nd ref="601766174"/>
    <nd ref="601766175"/>
    <nd ref="338479751"/>
    <nd ref="16475803"/>
    <nd ref="601766179"/>
    <nd ref="601766180"/>
    <nd ref="601766185"/>
    <nd ref="1150845364"/>
    <nd ref="14963178"/>
    <nd ref="25297159"/>
    <nd ref="14963179"/>
    <nd ref="14963180"/>
    <nd ref="331231671"/>
    <nd ref="14915623"/>
    <tag k="highway" v="tertiary"/>
    <tag k="name" v="Hermann-Veit-Straße"/>
    <tag k="note" v="im SHP des NVK: III"/>
    <tag k="oneway" v="yes"/>
  </way>
  <way id="4211062" version="11" timestamp="2011-04-01T01:26:04Z" uid="6269" user="Mueck" changeset="7731388">
    <nd ref="14963170"/>
    <nd ref="472988407"/>
    <nd ref="14963171"/>
    <nd ref="14963172"/>
    <nd ref="1150845141"/>
    <nd ref="14963173"/>
    <nd ref="1150845163"/>
    <nd ref="14963174"/>
    <nd ref="14963175"/>
    <nd ref="14963176"/>
    <nd ref="14963177"/>
    <nd ref="601766173"/>
    <nd ref="601766174"/>
    <nd ref="601766175"/>
    <nd ref="338479751"/>
    <nd ref="1218978306"/>
    <nd ref="16475803"/>
    <nd ref="601766179"/>
    <nd ref="601766180"/>
    <nd ref="601766185"/>
    <nd ref="1150845364"/>
    <nd ref="14963178"/>
    <nd ref="25297159"/>
    <nd ref="1227403992"/>
    <nd ref="14963179"/>
    <nd ref="1227403960"/>
    <nd ref="14963180"/>
    <nd ref="331231671"/>
    <nd ref="14915623"/>
    <tag k="highway" v="tertiary"/>
    <tag k="name" v="Hermann-Veit-Straße"/>
    <tag k="note" v="im SHP des NVK: III"/>
    <tag k="oneway" v="yes"/>
  </way>
  <way id="4211169" version="2" timestamp="2008-02-12T23:22:11Z" uid="6269" user="Mueck" changeset="111430">
    <nd ref="14852022"/>
    <nd ref="247390208"/>
    <nd ref="26041850"/>
    <nd ref="15254842"/>
    <nd ref="15254840"/>
    <nd ref="26041853"/>
    <nd ref="14954761"/>
    <tag k="created_by" v="Potlatch 0.7a"/>
    <tag k="highway" v="footway"/>
    <tag k="name" v="Alter Brauhof"/>
  </way>
  <way id="4211169" version="3" timestamp="2008-02-12T23:26:11Z" uid="6269" user="Mueck" changeset="111430">
    <nd ref="247390208"/>
    <nd ref="26041850"/>
    <nd ref="15254842"/>
    <nd ref="15254840"/>
    <nd ref="26041853"/>
    <nd ref="14954761"/>
    <tag k="created_by" v="Potlatch 0.7a"/>
    <tag k="highway" v="footway"/>
    <tag k="name" v="Alter Brauhof"/>
  </way>
  <way id="4211169" version="8" timestamp="2011-01-25T11:25:37Z" uid="6269" user="Mueck" changeset="7082608">
    <nd ref="247390208"/>
    <nd ref="497173430"/>
    <tag k="bicycle" v="yes"/>
    <tag k="highway" v="pedestrian"/>
    <tag k="name" v="Alter Brauhof"/>
  </way>
  <way id="4211170" version="7" timestamp="2011-01-25T01:46:20Z" uid="6269" user="Mueck" changeset="7079873">
    <nd ref="21762278"/>
    <nd ref="1119552960"/>
    <nd ref="1054236886"/>
    <nd ref="496220606"/>
    <nd ref="15254842"/>
    <nd ref="26041852"/>
    <tag k="bicycle" v="yes"/>
    <tag k="highway" v="pedestrian"/>
    <tag k="name" v="Alter Brauhof"/>
  </way>
  <way id="4211170" version="8" timestamp="2011-04-04T16:20:19Z" uid="6269" user="Mueck" changeset="7766537">
    <nd ref="21762278"/>
    <nd ref="1119552960"/>
    <nd ref="1054236886"/>
    <nd ref="496220606"/>
    <tag k="bicycle" v="yes"/>
    <tag k="highway" v="pedestrian"/>
    <tag k="motor_vehicle" v="private"/>
    <tag k="name" v="Alter Brauhof"/>
  </way>
  <way id="4211172" version="7" timestamp="2011-04-06T23:35:25Z" uid="6269" user="Mueck" changeset="7790254">
    <nd ref="14890735"/>
    <nd ref="1235346227"/>
    <nd ref="14791558"/>
    <nd ref="1235346226"/>
    <nd ref="14791571"/>
    <nd ref="1235346170"/>
    <nd ref="14791577"/>
    <nd ref="14791602"/>
    <nd ref="1235346212"/>
    <nd ref="14791604"/>
    <nd ref="1235346180"/>
    <nd ref="14791606"/>
    <nd ref="1235346232"/>
    <nd ref="14890749"/>
    <nd ref="1235346197"/>
    <nd ref="14890746"/>
    <nd ref="14890739"/>
    <nd ref="1235346187"/>
    <nd ref="14890735"/>
    <tag k="bicycle" v="designated"/>
    <tag k="foot" v="designated"/>
    <tag k="highway" v="path"/>
    <tag k="name" v="Richard-Willstätter-Allee"/>
    <tag k="segregated" v="no"/>
  </way>
  <way id="4211173" version="5" timestamp="2011-04-05T23:38:26Z" uid="6269" user="Mueck" changeset="7780144">
    <nd ref="1234225586"/>
    <nd ref="29920284"/>
    <nd ref="366114290"/>
    <tag k="highway" v="cycleway"/>
    <tag k="name" v="Richard-Willstätter-Allee"/>
  </way>
  <way id="4211191" version="5" timestamp="2011-03-21T22:50:05Z" uid="6269" user="Mueck" changeset="7632655">
    <nd ref="21498827"/>
    <nd ref="21498823"/>
    <nd ref="1212612594"/>
    <nd ref="21498822"/>
    <nd ref="21498821"/>
    <nd ref="21498819"/>
    <nd ref="387909538"/>
    <tag k="highway" v="living_street"/>
    <tag k="name" v="Zähringerstraße"/>
  </way>
  <way id="4211192" version="2" timestamp="2008-02-10T02:06:01Z" uid="6269" user="Mueck" changeset="88956">
    <nd ref="21493419"/>
    <nd ref="15254827"/>
    <nd ref="21498827"/>
    <tag k="bicycle" v="yes"/>
    <tag k="created_by" v="Potlatch 0.7"/>
    <tag k="highway" v="pedestrian"/>
    <tag k="name" v="Zähringerstraße"/>
  </way>
  <way id="4211192" version="5" timestamp="2011-03-21T22:50:05Z" uid="6269" user="Mueck" changeset="7632655">
    <nd ref="21493419"/>
    <nd ref="710449446"/>
    <nd ref="1212612591"/>
    <nd ref="15254827"/>
    <nd ref="1212612589"/>
    <nd ref="21498827"/>
    <tag k="bicycle" v="yes"/>
    <tag k="highway" v="pedestrian"/>
    <tag k="name" v="Zähringerstraße"/>
  </way>
  <way id="4211193" version="4" timestamp="2009-09-27T16:51:45Z" uid="6269" user="Mueck" changeset="2655098">
    <nd ref="16718515"/>
    <nd ref="510811252"/>
    <nd ref="16718499"/>
    <tag k="highway" v="unclassified"/>
    <tag k="name" v="Fautenbruchstraße"/>
    <tag k="oneway" v="yes"/>
  </way>
  <way id="4211193" version="5" timestamp="2011-03-27T17:36:06Z" uid="6269" user="Mueck" changeset="7688761">
    <nd ref="16718515"/>
    <nd ref="510811252"/>
    <nd ref="1221942648"/>
    <nd ref="1221942581"/>
    <nd ref="16718499"/>
    <tag k="highway" v="unclassified"/>
    <tag k="name" v="Fautenbruchstraße"/>
    <tag k="oneway" v="yes"/>
  </way>
  <way id="4211202" version="2" timestamp="2007-11-18T16:21:52Z" uid="4667" user="MapZ" changeset="557434">
    <nd ref="35679554"/>
    <nd ref="35679552"/>
    <nd ref="35679549"/>
    <nd ref="35679546"/>
    <nd ref="35679541"/>
    <nd ref="35679540"/>
    <nd ref="35679539"/>
    <nd ref="35679538"/>
    <nd ref="35679537"/>
    <nd ref="35679535"/>
    <nd ref="21604191"/>
    <nd ref="21604197"/>
    <nd ref="21604200"/>
    <nd ref="21604203"/>
    <nd ref="21604218"/>
    <nd ref="21604283"/>
    <nd ref="21604290"/>
    <nd ref="21604302"/>
    <nd ref="21604308"/>
    <nd ref="21604314"/>
    <nd ref="21604324"/>
    <nd ref="21604332"/>
    <nd ref="21604335"/>
    <nd ref="21604343"/>
    <nd ref="21604354"/>
    <tag k="created_by" v="JOSM"/>
    <tag k="highway" v="primary"/>
  </way>
  <way id="4211202" version="3" timestamp="2007-11-18T16:24:19Z" uid="4667" user="MapZ" changeset="557434">
    <nd ref="35679554"/>
    <nd ref="35679552"/>
    <nd ref="35679549"/>
    <nd ref="35679546"/>
    <nd ref="35679541"/>
    <nd ref="35679540"/>
    <nd ref="35679539"/>
    <nd ref="35679538"/>
    <nd ref="35679537"/>
    <nd ref="35679535"/>
    <nd ref="21604191"/>
    <nd ref="21604197"/>
    <nd ref="21604200"/>
    <nd ref="21604203"/>
    <nd ref="122017737"/>
    <nd ref="21604218"/>
    <nd ref="21604283"/>
    <nd ref="21604290"/>
    <nd ref="21604302"/>
    <nd ref="21604308"/>
    <nd ref="21604314"/>
    <nd ref="21604324"/>
    <nd ref="21604332"/>
    <nd ref="21604335"/>
    <nd ref="21604343"/>
    <nd ref="21604354"/>
    <tag k="created_by" v="JOSM"/>
    <tag k="highway" v="primary"/>
  </way>
  <way id="4211228" version="1" timestamp="2007-07-01T21:42:23Z" uid="8328" user="benpre" changeset="122992">
    <nd ref="24950640"/>
    <nd ref="24950641"/>
    <nd ref="30040074"/>
    <nd ref="30040075"/>
    <nd ref="30040076"/>
    <nd ref="30040057"/>
    <tag k="created_by" v="JOSM"/>
    <tag k="highway" v="minor"/>
    <tag k="name" v="Schoettlestraße"/>
  </way>
  <way id="4211230" version="1" timestamp="2007-07-01T21:42:18Z" uid="8328" user="benpre" changeset="122992">
    <nd ref="30040072"/>
    <nd ref="30040066"/>
    <nd ref="30040065"/>
    <nd ref="30040064"/>
    <nd ref="30040063"/>
    <nd ref="30040062"/>
    <nd ref="30040061"/>
    <nd ref="30040060"/>
    <nd ref="30040059"/>
    <nd ref="30040058"/>
    <nd ref="30040057"/>
    <nd ref="24950644"/>
    <nd ref="21725720"/>
    <nd ref="24950645"/>
    <tag k="created_by" v="JOSM"/>
    <tag k="highway" v="minor"/>
    <tag k="name" v="Knorrstraße"/>
  </way>
  <way id="4211231" version="1" timestamp="2007-07-01T21:42:23Z" uid="8328" user="benpre" changeset="122992">
    <nd ref="21725712"/>
    <nd ref="24950640"/>
    <nd ref="21725720"/>
    <tag k="created_by" v="JOSM"/>
    <tag k="highway" v="minor"/>
    <tag k="name" v="Rosenbergstraße"/>
  </way>
  <way id="4211232" version="1" timestamp="2007-06-30T23:53:53Z" uid="8328" user="benpre" changeset="120615">
    <nd ref="21725720"/>
    <nd ref="24950703"/>
    <nd ref="21725730"/>
    <tag k="created_by" v="JOSM"/>
    <tag k="highway" v="minor"/>
    <tag k="name" v="Besigheimer Straße"/>
  </way>
  <way id="4211239" version="1" timestamp="2007-07-23T22:28:38Z" uid="8328" user="benpre" changeset="163405">
    <nd ref="24937933"/>
    <nd ref="5454109"/>
    <nd ref="5447273"/>
    <nd ref="24950657"/>
    <nd ref="24950658"/>
    <nd ref="24950659"/>
    <nd ref="24950660"/>
    <nd ref="24936461"/>
    <tag k="created_by" v="JOSM"/>
    <tag k="highway" v="footway"/>
  </way>
  <way id="4211240" version="1" timestamp="2007-07-23T22:28:37Z" uid="8328" user="benpre" changeset="163405">
    <nd ref="5448223"/>
    <nd ref="5448224"/>
    <nd ref="16258765"/>
    <nd ref="296165"/>
    <nd ref="5458859"/>
    <tag k="created_by" v="JOSM"/>
    <tag k="highway" v="residential"/>
    <tag k="name" v="Tore Hunds vei"/>
  </way>
  <way id="4211252" version="1" timestamp="2007-07-11T22:30:08Z" uid="8328" user="benpre" changeset="141044">
    <nd ref="24947416"/>
    <nd ref="26818482"/>
    <nd ref="26818483"/>
    <nd ref="26818484"/>
    <nd ref="21616627"/>
    <tag k="bicycle" v="yes"/>
    <tag k="created_by" v="JOSM"/>
    <tag k="foot" v="yes"/>
    <tag k="highway" v="footway"/>
    <tag k="motorcar" v="no"/>
    <tag k="name" v="Tonbergstraße"/>
  </way>
  <way id="4211253" version="1" timestamp="2007-07-11T22:30:07Z" uid="8328" user="benpre" changeset="141044">
    <nd ref="24950682"/>
    <nd ref="21616627"/>
    <tag k="bicycle" v="yes"/>
    <tag k="created_by" v="JOSM"/>
    <tag k="highway" v="residential"/>
    <tag k="motorcar" v="yes"/>
    <tag k="name" v="Tonbergstraße"/>
  </way>
  <way id="4211274" version="1" timestamp="2007-06-30T23:53:39Z" uid="8328" user="benpre" changeset="120615">
    <nd ref="24950708"/>
    <nd ref="24952653"/>
    <nd ref="24952655"/>
    <nd ref="24952660"/>
    <nd ref="24952661"/>
    <nd ref="30898857"/>
    <nd ref="24950712"/>
    <nd ref="24950713"/>
    <nd ref="24950714"/>
    <nd ref="24950715"/>
    <nd ref="24950716"/>
    <nd ref="24950717"/>
    <nd ref="24950718"/>
    <nd ref="24950719"/>
    <nd ref="24950720"/>
    <nd ref="24950721"/>
    <nd ref="24950722"/>
    <nd ref="21725748"/>
    <tag k="created_by" v="JOSM"/>
    <tag k="highway" v="minor"/>
    <tag k="name" v="Friedrich-Dürr-Straße"/>
  </way>
  <way id="4211298" version="1" timestamp="2007-07-23T22:28:36Z" uid="8328" user="benpre" changeset="163405">
    <nd ref="5458846"/>
    <nd ref="5458840"/>
    <nd ref="296165"/>
    <tag k="created_by" v="JOSM"/>
    <tag k="highway" v="residential"/>
  </way>
  <way id="4211300" version="1" timestamp="2007-07-23T22:28:36Z" uid="8328" user="benpre" changeset="163405">
    <nd ref="79603"/>
    <nd ref="5455491"/>
    <nd ref="5455490"/>
    <nd ref="5454319"/>
    <nd ref="5454249"/>
    <nd ref="5454234"/>
    <nd ref="5454228"/>
    <nd ref="5454267"/>
    <nd ref="5454283"/>
    <nd ref="5454293"/>
    <nd ref="5454298"/>
    <nd ref="5454308"/>
    <nd ref="16258772"/>
    <nd ref="5455479"/>
    <nd ref="5455481"/>
    <nd ref="5455484"/>
    <nd ref="5455485"/>
    <nd ref="5455488"/>
    <nd ref="5457890"/>
    <nd ref="5457889"/>
    <tag k="created_by" v="JOSM"/>
    <tag k="highway" v="residential"/>
    <tag k="name" v="Einars vei"/>
  </way>
  <way id="4211301" version="2" timestamp="2008-10-03T08:14:54Z" uid="71074" user="HaraldBg" changeset="52867">
    <nd ref="16258772"/>
    <nd ref="16258771"/>
    <nd ref="16258770"/>
    <nd ref="16258769"/>
    <nd ref="16258768"/>
    <nd ref="16258767"/>
    <nd ref="16258766"/>
    <nd ref="5455494"/>
    <nd ref="5455490"/>
    <tag k="created_by" v="Potlatch 0.10c"/>
    <tag k="highway" v="residential"/>
    <tag k="name" v="Bergljots vei"/>
  </way>
  <way id="4211370" version="11" timestamp="2009-02-14T01:19:01Z" uid="36809" user="pfoten_weg_!_" changeset="423851">
    <nd ref="29039640"/>
    <nd ref="21096411"/>
    <nd ref="21096409"/>
    <tag k="created_by" v="RambaZamba"/>
    <tag k="highway" v="primary"/>
    <tag k="lanes" v="2"/>
    <tag k="name" v="Isarring"/>
    <tag k="oneway" v="yes"/>
    <tag k="ref" v="B 2R;B 11"/>
    <tag k="source" v="survey"/>
  </way>
  <way id="4211383" version="2" timestamp="2009-05-14T21:09:18Z" uid="6269" user="Mueck" changeset="1193099">
    <nd ref="14789920"/>
    <nd ref="21493229"/>
    <nd ref="14961097"/>
    <nd ref="17086421"/>
    <tag k="created_by" v="JOSM"/>
    <tag k="highway" v="residential"/>
    <tag k="maxspeed" v="30"/>
    <tag k="name" v="Hirschstraße"/>
  </way>
  <way id="4211383" version="4" timestamp="2011-01-29T13:02:49Z" uid="6269" user="Mueck" changeset="7121820">
    <nd ref="14789920"/>
    <nd ref="1126172323"/>
    <nd ref="21493229"/>
    <nd ref="14961097"/>
    <nd ref="17086421"/>
    <tag k="highway" v="residential"/>
    <tag k="maxspeed" v="30"/>
    <tag k="name" v="Hirschstraße"/>
  </way>
  <way id="4211384" version="2" timestamp="2008-02-12T19:21:21Z" uid="6269" user="Mueck" changeset="111430">
    <nd ref="20850359"/>
    <nd ref="15520053"/>
    <nd ref="15520054"/>
    <nd ref="14769609"/>
    <tag k="created_by" v="Potlatch 0.7a"/>
    <tag k="cycleway" v="opposite"/>
    <tag k="highway" v="residential"/>
    <tag k="name" v="Hirschstraße"/>
    <tag k="oneway" v="true"/>
  </way>
  <way id="4211384" version="3" timestamp="2008-09-25T20:53:47Z" uid="6269" user="Mueck" changeset="695572">
    <nd ref="20850359"/>
    <nd ref="15520053"/>
    <nd ref="15520054"/>
    <nd ref="14769609"/>
    <tag k="created_by" v="Potlatch 0.10b"/>
    <tag k="cycleway" v="opposite"/>
    <tag k="highway" v="residential"/>
    <tag k="name" v="Hirschstraße"/>
    <tag k="oneway" v="yes"/>
  </way>
  <way id="4211384" version="8" timestamp="2011-03-20T02:16:35Z" uid="6269" user="Mueck" changeset="7612251">
    <nd ref="20850359"/>
    <nd ref="15520053"/>
    <nd ref="15520054"/>
    <nd ref="427822428"/>
    <nd ref="1210006022"/>
    <tag k="cycleway" v="opposite"/>
    <tag k="highway" v="residential"/>
    <tag k="maxspeed" v="30"/>
    <tag k="name" v="Hirschstraße"/>
    <tag k="oneway" v="yes"/>
  </way>
  <way id="4211386" version="3" timestamp="2008-07-30T10:54:11Z" uid="6269" user="Mueck" changeset="628766">
    <nd ref="14795187"/>
    <nd ref="21733407"/>
    <nd ref="14852026"/>
    <tag k="created_by" v="Potlatch 0.10a"/>
    <tag k="highway" v="tertiary"/>
    <tag k="name" v="Stephanienstraße"/>
    <tag k="note" v="im SHP des NVK: III"/>
  </way>
  <way id="4211386" version="4" timestamp="2008-09-03T14:46:26Z" uid="6269" user="Mueck" changeset="512789">
    <nd ref="14795187"/>
    <nd ref="21733407"/>
    <nd ref="14852026"/>
    <tag k="created_by" v="Potlatch 0.10b"/>
    <tag k="highway" v="secondary"/>
    <tag k="name" v="Stephanienstraße"/>
    <tag k="note" v="im SHP des NVK: III, Verkehrsstärke 1996 spricht aber für II"/>
  </way>
  <way id="4211386" version="6" timestamp="2011-03-12T18:41:35Z" uid="6269" user="Mueck" changeset="7536709">
    <nd ref="1198886201"/>
    <nd ref="14795187"/>
    <nd ref="21733407"/>
    <nd ref="14852026"/>
    <tag k="highway" v="secondary"/>
    <tag k="name" v="Stephanienstraße"/>
    <tag k="note" v="im SHP des NVK: III, Verkehrsstärke 1996 spricht aber für II"/>
  </way>
  <way id="4211404" version="7" timestamp="2009-08-28T13:28:36Z" uid="6269" user="Mueck" changeset="2290148">
    <nd ref="14791623"/>
    <nd ref="311295251"/>
    <nd ref="29159496"/>
    <nd ref="14954712"/>
    <nd ref="311295252"/>
    <nd ref="14791688"/>
    <tag k="foot" v="yes"/>
    <tag k="highway" v="cycleway"/>
    <tag k="name" v="Richard-Willstätter-Allee"/>
  </way>
  <way id="4211406" version="8" timestamp="2011-04-16T23:29:57Z" uid="6269" user="Mueck" changeset="7883091">
    <nd ref="14954520"/>
    <nd ref="1247809046"/>
    <nd ref="1247809078"/>
    <nd ref="24952013"/>
    <nd ref="1247809016"/>
    <nd ref="1247809070"/>
    <nd ref="24952015"/>
    <nd ref="1247809071"/>
    <nd ref="1247809054"/>
    <nd ref="14791695"/>
    <nd ref="1247809029"/>
    <nd ref="1247809104"/>
    <nd ref="24952007"/>
    <nd ref="1247809107"/>
    <nd ref="1247809020"/>
    <nd ref="24952030"/>
    <nd ref="1247809010"/>
    <nd ref="24952008"/>
    <nd ref="24952031"/>
    <nd ref="1247809011"/>
    <nd ref="1247809049"/>
    <nd ref="14791688"/>
    <nd ref="524620548"/>
    <nd ref="1247809004"/>
    <nd ref="1247809061"/>
    <nd ref="1247809025"/>
    <nd ref="524536677"/>
    <nd ref="1247809112"/>
    <nd ref="1247809006"/>
    <nd ref="1247809005"/>
    <nd ref="24952012"/>
    <nd ref="24952034"/>
    <nd ref="1247809036"/>
    <nd ref="1247809069"/>
    <nd ref="14954520"/>
    <tag k="bicycle" v="designated"/>
    <tag k="foot" v="designated"/>
    <tag k="highway" v="path"/>
    <tag k="segregated" v="no"/>
  </way>
  <way id="4211443" version="4" timestamp="2011-03-20T23:07:59Z" uid="6269" user="Mueck" changeset="7622822"/>
  <way id="4211445" version="2" timestamp="2008-02-10T02:09:13Z" uid="6269" user="Mueck" changeset="88956">
    <nd ref="14911307"/>
    <nd ref="26574832"/>
    <tag k="bicycle" v="yes"/>
    <tag k="created_by" v="Potlatch 0.7"/>
    <tag k="highway" v="pedestrian"/>
    <tag k="name" v="Platz der Grundrechte"/>
  </way>
  <way id="4211466" version="7" timestamp="2010-04-22T16:26:56Z" uid="6269" user="Mueck" changeset="4496332">
    <nd ref="15520039"/>
    <nd ref="26043048"/>
    <nd ref="15520042"/>
    <tag k="highway" v="primary"/>
    <tag k="motorroad" v="no"/>
    <tag k="name" v="Kriegsstraße"/>
    <tag k="oneway" v="yes"/>
    <tag k="ref" v="B 10"/>
  </way>
  <way id="4211466" version="8" timestamp="2011-01-30T13:03:49Z" uid="6269" user="Mueck" changeset="7133406">
    <nd ref="15520039"/>
    <nd ref="1127895586"/>
    <nd ref="26043048"/>
    <nd ref="1127895513"/>
    <nd ref="15520042"/>
    <tag k="highway" v="primary"/>
    <tag k="motorroad" v="no"/>
    <tag k="name" v="Kriegsstraße"/>
    <tag k="oneway" v="yes"/>
    <tag k="ref" v="B 10"/>
  </way>
  <way id="4211467" version="10" timestamp="2010-04-22T16:27:43Z" uid="6269" user="Mueck" changeset="4496332">
    <nd ref="30248041"/>
    <nd ref="459673309"/>
    <nd ref="420527309"/>
    <nd ref="479102816"/>
    <nd ref="14963318"/>
    <nd ref="479102818"/>
    <nd ref="14963317"/>
    <nd ref="14963348"/>
    <nd ref="14963316"/>
    <nd ref="14963277"/>
    <nd ref="14963306"/>
    <nd ref="14963304"/>
    <tag k="highway" v="primary"/>
    <tag k="motorroad" v="no"/>
    <tag k="name" v="Kriegsstraße"/>
    <tag k="oneway" v="yes"/>
    <tag k="ref" v="B 10"/>
  </way>
  <way id="4211467" version="12" timestamp="2011-01-30T13:50:22Z" uid="6269" user="Mueck" changeset="7133406">
    <nd ref="30248041"/>
    <nd ref="998420536"/>
    <nd ref="420527309"/>
    <nd ref="479102816"/>
    <nd ref="14963318"/>
    <nd ref="479102818"/>
    <nd ref="998420782"/>
    <nd ref="998420744"/>
    <tag k="highway" v="primary"/>
    <tag k="motorroad" v="no"/>
    <tag k="name" v="Kriegsstraße"/>
    <tag k="oneway" v="yes"/>
    <tag k="ref" v="B 10"/>
  </way>
  <way id="4211467" version="13" timestamp="2011-01-30T17:52:03Z" uid="6269" user="Mueck" changeset="7136664">
    <nd ref="30248041"/>
    <nd ref="998420536"/>
    <nd ref="420527309"/>
    <nd ref="479102816"/>
    <nd ref="14963318"/>
    <nd ref="479102818"/>
    <nd ref="1128248099"/>
    <nd ref="1128248104"/>
    <nd ref="998420782"/>
    <nd ref="998420744"/>
    <tag k="highway" v="primary"/>
    <tag k="motorroad" v="no"/>
    <tag k="name" v="Kriegsstraße"/>
    <tag k="oneway" v="yes"/>
    <tag k="ref" v="B 10"/>
  </way>
  <way id="4211469" version="5" timestamp="2010-04-22T16:26:39Z" uid="6269" user="Mueck" changeset="4496332">
    <nd ref="17324620"/>
    <nd ref="15520030"/>
    <tag k="highway" v="primary"/>
    <tag k="motorroad" v="no"/>
    <tag k="name" v="Kriegsstraße"/>
    <tag k="ref" v="B 10"/>
  </way>
  <way id="4211470" version="2" timestamp="2008-04-06T15:30:05Z" uid="16922" user="amai" changeset="62288">
    <nd ref="15520030"/>
    <nd ref="26027481"/>
    <nd ref="15520060"/>
    <nd ref="14795560"/>
    <nd ref="14954774"/>
    <tag k="created_by" v="Potlatch 0.8a"/>
    <tag k="highway" v="primary"/>
    <tag k="name" v="Kriegsstraße"/>
    <tag k="oneway" v="true"/>
    <tag k="ref" v="B10"/>
  </way>
  <way id="4211471" version="10" timestamp="2010-04-22T16:25:09Z" uid="6269" user="Mueck" changeset="4496332">
    <nd ref="26027111"/>
    <nd ref="412398"/>
    <nd ref="26027127"/>
    <nd ref="14954762"/>
    <nd ref="26027131"/>
    <tag k="highway" v="primary"/>
    <tag k="minspeed" v="30"/>
    <tag k="motorroad" v="no"/>
    <tag k="name" v="Kriegsstraße"/>
    <tag k="oneway" v="yes"/>
    <tag k="ref" v="B 10"/>
  </way>
  <way id="4211471" version="13" timestamp="2010-11-04T18:37:00Z" uid="6269" user="Mueck" changeset="6290631">
    <nd ref="26027111"/>
    <nd ref="412398"/>
    <nd ref="26027127"/>
    <nd ref="14954762"/>
    <nd ref="26027131"/>
    <tag k="highway" v="primary"/>
    <tag k="maxspeed" v="70"/>
    <tag k="minspeed" v="30"/>
    <tag k="motorroad" v="no"/>
    <tag k="name" v="Kriegsstraße"/>
    <tag k="oneway" v="yes"/>
    <tag k="ref" v="B 10"/>
  </way>
  <way id="4211471" version="14" timestamp="2011-01-28T13:09:04Z" uid="6269" user="Mueck" changeset="7112784">
    <nd ref="26027111"/>
    <nd ref="1124828592"/>
    <nd ref="412398"/>
    <nd ref="26027127"/>
    <nd ref="14954762"/>
    <nd ref="26027131"/>
    <tag k="highway" v="primary"/>
    <tag k="maxspeed" v="70"/>
    <tag k="minspeed" v="30"/>
    <tag k="motorroad" v="no"/>
    <tag k="name" v="Kriegsstraße"/>
    <tag k="oneway" v="yes"/>
    <tag k="ref" v="B 10"/>
  </way>
  <way id="4211472" version="12" timestamp="2010-04-22T16:21:04Z" uid="6269" user="Mueck" changeset="4496332">
    <nd ref="26026276"/>
    <nd ref="26009940"/>
    <nd ref="26009942"/>
    <tag k="bicycle" v="designated"/>
    <tag k="cycleway" v="lane"/>
    <tag k="highway" v="primary"/>
    <tag k="lanes" v="3"/>
    <tag k="motorroad" v="no"/>
    <tag k="name" v="Kriegsstraße"/>
    <tag k="oneway" v="yes"/>
    <tag k="ref" v="B 10"/>
  </way>
  <way id="4211512" version="1" timestamp="2007-06-30T23:53:49Z" uid="8328" user="benpre" changeset="120615">
    <nd ref="24952655"/>
    <nd ref="24952652"/>
    <nd ref="24952650"/>
    <nd ref="24952648"/>
    <nd ref="24952658"/>
    <tag k="created_by" v="JOSM"/>
    <tag k="highway" v="minor"/>
    <tag k="name" v="Feilingrathstraße"/>
  </way>
  <way id="4211527" version="2" timestamp="2008-02-12T20:50:17Z" uid="6269" user="Mueck" changeset="111430">
    <nd ref="21618138"/>
    <nd ref="31270258"/>
    <nd ref="28089441"/>
    <nd ref="21596348"/>
    <nd ref="21596347"/>
    <nd ref="31268561"/>
    <nd ref="31268560"/>
    <nd ref="25936594"/>
    <nd ref="21596346"/>
    <tag k="created_by" v="Potlatch 0.7a"/>
    <tag k="railway" v="tram"/>
  </way>
  <way id="4211527" version="3" timestamp="2008-02-12T22:12:01Z" uid="6269" user="Mueck" changeset="111430">
    <nd ref="21618138"/>
    <nd ref="31270258"/>
    <nd ref="28089441"/>
    <nd ref="21596348"/>
    <nd ref="21596347"/>
    <nd ref="31268561"/>
    <nd ref="31268560"/>
    <nd ref="25936594"/>
    <nd ref="21596346"/>
    <tag k="created_by" v="Potlatch 0.7a"/>
    <tag k="layer" v="1"/>
    <tag k="railway" v="tram"/>
  </way>
  <way id="4211527" version="6" timestamp="2010-01-31T00:02:29Z" uid="6269" user="Mueck" changeset="3755711">
    <nd ref="21618138"/>
    <nd ref="31270258"/>
    <nd ref="28089441"/>
    <nd ref="21596348"/>
    <nd ref="21596347"/>
    <nd ref="31268561"/>
    <nd ref="31268560"/>
    <nd ref="623727968"/>
    <nd ref="421661702"/>
    <nd ref="25936594"/>
    <nd ref="21596346"/>
    <tag k="layer" v="1"/>
    <tag k="railway" v="tram"/>
  </way>
  <way id="4211527" version="7" timestamp="2011-02-04T15:12:51Z" uid="6269" user="Mueck" changeset="7184150">
    <nd ref="21618138"/>
    <nd ref="28089441"/>
    <nd ref="21596348"/>
    <nd ref="21596347"/>
    <nd ref="31268561"/>
    <nd ref="31268560"/>
    <nd ref="623727968"/>
    <nd ref="421661702"/>
    <nd ref="25936594"/>
    <nd ref="21596346"/>
    <tag k="layer" v="1"/>
    <tag k="railway" v="tram"/>
  </way>
  <way id="4211527" version="8" timestamp="2011-02-04T15:36:20Z" uid="6269" user="Mueck" changeset="7184150">
    <nd ref="31268561"/>
    <nd ref="31268560"/>
    <nd ref="623727968"/>
    <nd ref="421661702"/>
    <nd ref="25936594"/>
    <nd ref="21596346"/>
    <tag k="layer" v="1"/>
    <tag k="railway" v="tram"/>
  </way>
  <way id="4211527" version="9" timestamp="2011-02-04T16:09:03Z" uid="6269" user="Mueck" changeset="7184150"/>
  <way id="4211528" version="2" timestamp="2008-02-12T20:51:56Z" uid="6269" user="Mueck" changeset="111430">
    <nd ref="21596353"/>
    <nd ref="31263263"/>
    <nd ref="31263282"/>
    <nd ref="21618138"/>
    <tag k="created_by" v="Potlatch 0.7a"/>
    <tag k="railway" v="tram"/>
  </way>
  <way id="4211528" version="3" timestamp="2008-02-12T22:11:28Z" uid="6269" user="Mueck" changeset="111430">
    <nd ref="21596353"/>
    <nd ref="31263263"/>
    <nd ref="31263282"/>
    <nd ref="21618138"/>
    <tag k="created_by" v="Potlatch 0.7a"/>
    <tag k="layer" v="1"/>
    <tag k="railway" v="tram"/>
  </way>
  <way id="4211528" version="5" timestamp="2009-05-17T12:26:13Z" uid="6269" user="Mueck" changeset="1221507">
    <nd ref="21596353"/>
    <nd ref="31263263"/>
    <nd ref="402620521"/>
    <nd ref="31263282"/>
    <nd ref="21618138"/>
    <tag k="created_by" v="Potlatch 0.9c"/>
    <tag k="layer" v="1"/>
    <tag k="railway" v="tram"/>
  </way>
  <way id="4211528" version="6" timestamp="2009-05-17T12:26:37Z" uid="6269" user="Mueck" changeset="1221507">
    <nd ref="21596353"/>
    <nd ref="402621777"/>
    <nd ref="31263263"/>
    <nd ref="402620521"/>
    <nd ref="31263282"/>
    <nd ref="21618138"/>
    <tag k="created_by" v="Potlatch 0.9c"/>
    <tag k="layer" v="1"/>
    <tag k="railway" v="tram"/>
  </way>
  <way id="4211529" version="2" timestamp="2008-02-12T20:52:09Z" uid="6269" user="Mueck" changeset="111430">
    <nd ref="25504897"/>
    <nd ref="25504896"/>
    <nd ref="14954735"/>
    <nd ref="25932686"/>
    <nd ref="21596356"/>
    <nd ref="21596355"/>
    <nd ref="31263276"/>
    <nd ref="21596354"/>
    <nd ref="21596353"/>
    <tag k="created_by" v="Potlatch 0.7a"/>
    <tag k="railway" v="tram"/>
  </way>
  <way id="4211529" version="3" timestamp="2008-02-12T22:10:48Z" uid="6269" user="Mueck" changeset="111430">
    <nd ref="25504897"/>
    <nd ref="25504896"/>
    <nd ref="14954735"/>
    <nd ref="25932686"/>
    <nd ref="21596356"/>
    <nd ref="21596355"/>
    <nd ref="31263276"/>
    <nd ref="21596354"/>
    <nd ref="21596353"/>
    <tag k="created_by" v="Potlatch 0.7a"/>
    <tag k="layer" v="1"/>
    <tag k="railway" v="tram"/>
  </way>
  <way id="4211529" version="4" timestamp="2008-02-12T22:11:14Z" uid="6269" user="Mueck" changeset="111430">
    <nd ref="25504897"/>
    <nd ref="25504896"/>
    <nd ref="14954735"/>
    <nd ref="25932686"/>
    <nd ref="21596356"/>
    <nd ref="21596355"/>
    <nd ref="31263276"/>
    <nd ref="21596354"/>
    <nd ref="21596353"/>
    <tag k="created_by" v="Potlatch 0.7a"/>
    <tag k="layer" v="1"/>
    <tag k="railway" v="tram"/>
  </way>
  <way id="4211529" version="5" timestamp="2008-02-12T22:55:35Z" uid="6269" user="Mueck" changeset="111430">
    <nd ref="25504897"/>
    <nd ref="25504896"/>
    <nd ref="14954735"/>
    <nd ref="25932686"/>
    <nd ref="247389115"/>
    <nd ref="21596356"/>
    <nd ref="21596355"/>
    <nd ref="31263276"/>
    <nd ref="21596354"/>
    <nd ref="21596353"/>
    <tag k="created_by" v="Potlatch 0.7a"/>
    <tag k="layer" v="1"/>
    <tag k="railway" v="tram"/>
  </way>
  <way id="4211529" version="6" timestamp="2008-02-12T22:56:13Z" uid="6269" user="Mueck" changeset="111430">
    <nd ref="25504897"/>
    <nd ref="25504896"/>
    <nd ref="14954735"/>
    <nd ref="25932686"/>
    <nd ref="247389115"/>
    <nd ref="21596356"/>
    <nd ref="21596355"/>
    <nd ref="31263276"/>
    <nd ref="21596354"/>
    <nd ref="21596353"/>
    <tag k="created_by" v="Potlatch 0.7a"/>
    <tag k="layer" v="1"/>
    <tag k="railway" v="tram"/>
  </way>
  <way id="4211529" version="13" timestamp="2011-01-29T00:57:11Z" uid="6269" user="Mueck" changeset="7118148">
    <nd ref="25504897"/>
    <nd ref="1125645807"/>
    <tag k="layer" v="1"/>
    <tag k="railway" v="tram"/>
  </way>
  <way id="4211529" version="14" timestamp="2011-01-29T11:48:48Z" uid="6269" user="Mueck" changeset="7121221"/>
  <way id="4211530" version="2" timestamp="2008-02-12T20:49:58Z" uid="6269" user="Mueck" changeset="111430">
    <nd ref="21596346"/>
    <nd ref="25936617"/>
    <nd ref="31089005"/>
    <nd ref="31089006"/>
    <nd ref="21596342"/>
    <nd ref="21596341"/>
    <tag k="created_by" v="Potlatch 0.7a"/>
    <tag k="railway" v="tram"/>
  </way>
  <way id="4211530" version="3" timestamp="2008-02-12T22:13:21Z" uid="6269" user="Mueck" changeset="111430">
    <nd ref="21596346"/>
    <nd ref="25936617"/>
    <nd ref="247385435"/>
    <nd ref="247385429"/>
    <tag k="created_by" v="Potlatch 0.7a"/>
    <tag k="railway" v="tram"/>
  </way>
  <way id="4211530" version="4" timestamp="2008-02-12T22:13:57Z" uid="6269" user="Mueck" changeset="111430">
    <nd ref="21596346"/>
    <nd ref="25936617"/>
    <nd ref="247385435"/>
    <tag k="created_by" v="Potlatch 0.7a"/>
    <tag k="layer" v="1"/>
    <tag k="railway" v="tram"/>
  </way>
  <way id="4211530" version="5" timestamp="2008-04-20T13:24:10Z" uid="16922" user="amai" changeset="200450">
    <nd ref="21596346"/>
    <nd ref="25936617"/>
    <nd ref="247385474"/>
    <tag k="created_by" v="Potlatch 0.7a"/>
    <tag k="layer" v="1"/>
    <tag k="railway" v="tram"/>
  </way>
  <way id="4211530" version="8" timestamp="2011-02-04T16:22:35Z" uid="6269" user="Mueck" changeset="7184150"/>
  <way id="4211531" version="7" timestamp="2009-04-27T08:49:58Z" uid="6269" user="Mueck" changeset="987289">
    <nd ref="14911405"/>
    <nd ref="385752878"/>
    <nd ref="28087811"/>
    <nd ref="526145"/>
    <nd ref="526149"/>
    <nd ref="315935808"/>
    <nd ref="526150"/>
    <nd ref="526151"/>
    <nd ref="21618148"/>
    <nd ref="526152"/>
    <nd ref="526153"/>
    <nd ref="526155"/>
    <nd ref="26026283"/>
    <tag k="created_by" v="Potlatch 0.9a"/>
    <tag k="highway" v="primary"/>
    <tag k="name" v="Ludwig-Erhard-Allee"/>
    <tag k="oneway" v="yes"/>
    <tag k="ref" v="B 10"/>
  </way>
  <way id="4211531" version="10" timestamp="2010-04-22T16:19:08Z" uid="6269" user="Mueck" changeset="4496332">
    <nd ref="14911405"/>
    <nd ref="385752878"/>
    <nd ref="28087811"/>
    <nd ref="526145"/>
    <nd ref="526149"/>
    <nd ref="315935808"/>
    <nd ref="526150"/>
    <nd ref="526151"/>
    <nd ref="21618148"/>
    <nd ref="526152"/>
    <nd ref="526153"/>
    <nd ref="526155"/>
    <nd ref="26026283"/>
    <tag k="highway" v="primary"/>
    <tag k="motorroad" v="no"/>
    <tag k="name" v="Ludwig-Erhard-Allee"/>
    <tag k="oneway" v="yes"/>
    <tag k="ref" v="B 10"/>
  </way>
  <way id="4211531" version="12" timestamp="2010-12-06T00:29:28Z" uid="6269" user="Mueck" changeset="6558663">
    <nd ref="14911405"/>
    <nd ref="385752878"/>
    <nd ref="28087811"/>
    <nd ref="526145"/>
    <nd ref="526149"/>
    <nd ref="315935808"/>
    <nd ref="526150"/>
    <nd ref="526151"/>
    <nd ref="21618148"/>
    <nd ref="526152"/>
    <nd ref="526153"/>
    <nd ref="526155"/>
    <nd ref="26026283"/>
    <tag k="highway" v="primary"/>
    <tag k="motorroad" v="no"/>
    <tag k="name" v="Ludwig-Erhard-Allee"/>
    <tag k="oneway" v="yes"/>
    <tag k="ref" v="B 10"/>
  </way>
  <way id="4211531" version="17" timestamp="2011-03-21T23:41:15Z" uid="6269" user="Mueck" changeset="7632655">
    <nd ref="14911404"/>
    <nd ref="14911405"/>
    <nd ref="1180502941"/>
    <nd ref="1180502900"/>
    <nd ref="28087811"/>
    <nd ref="1180502849"/>
    <nd ref="1180502825"/>
    <nd ref="1180823130"/>
    <nd ref="526145"/>
    <nd ref="1212673678"/>
    <nd ref="1212673908"/>
    <nd ref="1212673652"/>
    <nd ref="1212673790"/>
    <nd ref="1180840901"/>
    <nd ref="1212673681"/>
    <nd ref="526149"/>
    <nd ref="1212673875"/>
    <nd ref="315935808"/>
    <nd ref="526150"/>
    <nd ref="1212673817"/>
    <nd ref="526151"/>
    <nd ref="1212673658"/>
    <nd ref="1212673735"/>
    <nd ref="1212673798"/>
    <nd ref="1212673877"/>
    <nd ref="21618148"/>
    <nd ref="1212673886"/>
    <nd ref="526152"/>
    <nd ref="526153"/>
    <nd ref="526155"/>
    <nd ref="26026283"/>
    <tag k="highway" v="primary"/>
    <tag k="lanes" v="2"/>
    <tag k="motorroad" v="no"/>
    <tag k="name" v="Ludwig-Erhard-Allee"/>
    <tag k="oneway" v="yes"/>
    <tag k="ref" v="B 10"/>
  </way>
  <way id="4211532" version="7" timestamp="2011-04-01T15:03:23Z" uid="6269" user="Mueck" changeset="7736182">
    <nd ref="26027397"/>
    <nd ref="427822416"/>
    <nd ref="15015731"/>
    <nd ref="1227973901"/>
    <nd ref="818984730"/>
    <nd ref="24952341"/>
    <tag k="highway" v="residential"/>
    <tag k="maxspeed" v="30"/>
    <tag k="name" v="Hirschstraße"/>
  </way>
  <way id="4211533" version="6" timestamp="2010-02-26T21:16:01Z" uid="6269" user="Mueck" changeset="3983795">
    <nd ref="24952341"/>
    <nd ref="24952340"/>
    <tag k="bridge" v="yes"/>
    <tag k="highway" v="residential"/>
    <tag k="layer" v="2"/>
    <tag k="name" v="Hirschbrücke"/>
  </way>
  <way id="4211534" version="6" timestamp="2011-04-01T15:03:23Z" uid="6269" user="Mueck" changeset="7736182">
    <nd ref="24952340"/>
    <nd ref="429634484"/>
    <nd ref="1227973911"/>
    <nd ref="15015691"/>
    <nd ref="1227973919"/>
    <nd ref="1227973888"/>
    <nd ref="14769643"/>
    <nd ref="1227973921"/>
    <nd ref="430499150"/>
    <nd ref="15015686"/>
    <nd ref="317260084"/>
    <nd ref="14796529"/>
    <tag k="highway" v="residential"/>
    <tag k="name" v="Hirschstraße"/>
  </way>
  <way id="4211535" version="7" timestamp="2011-01-30T00:07:30Z" uid="6269" user="Mueck" changeset="7128139">
    <nd ref="14796529"/>
    <nd ref="430499205"/>
    <nd ref="14962577"/>
    <nd ref="14769666"/>
    <nd ref="430499219"/>
    <nd ref="14769674"/>
    <nd ref="430499223"/>
    <nd ref="108252074"/>
    <nd ref="14963185"/>
    <nd ref="1127162013"/>
    <nd ref="14769681"/>
    <tag k="highway" v="residential"/>
    <tag k="maxspeed" v="30"/>
    <tag k="name" v="Hirschstraße"/>
  </way>
  <way id="4211535" version="8" timestamp="2011-04-01T15:58:25Z" uid="6269" user="Mueck" changeset="7736182">
    <nd ref="14796529"/>
    <nd ref="430499205"/>
    <nd ref="14962577"/>
    <nd ref="1228027553"/>
    <nd ref="14769666"/>
    <nd ref="1228027566"/>
    <nd ref="430499219"/>
    <nd ref="430499223"/>
    <nd ref="108252074"/>
    <nd ref="14963185"/>
    <nd ref="1127162013"/>
    <nd ref="14769681"/>
    <tag k="highway" v="residential"/>
    <tag k="maxspeed" v="30"/>
    <tag k="name" v="Hirschstraße"/>
  </way>
  <way id="4211536" version="3" timestamp="2008-07-30T10:47:24Z" uid="6269" user="Mueck" changeset="628766">
    <nd ref="14796529"/>
    <nd ref="24952670"/>
    <nd ref="108238263"/>
    <nd ref="108238304"/>
    <nd ref="14796526"/>
    <nd ref="14890751"/>
    <tag k="created_by" v="Potlatch 0.10a"/>
    <tag k="highway" v="tertiary"/>
    <tag k="name" v="Südendstraße"/>
    <tag k="note" v="im SHP des NVK: III"/>
    <tag k="oneway" v="true"/>
  </way>
  <way id="4211536" version="7" timestamp="2011-04-01T15:38:35Z" uid="6269" user="Mueck" changeset="7736182">
    <nd ref="14796529"/>
    <nd ref="24952670"/>
    <nd ref="108238263"/>
    <nd ref="1228013835"/>
    <nd ref="108238304"/>
    <nd ref="14796526"/>
    <nd ref="1133821548"/>
    <nd ref="14890751"/>
    <tag k="highway" v="tertiary"/>
    <tag k="name" v="Südendstraße"/>
    <tag k="note" v="im SHP des NVK: III"/>
    <tag k="oneway" v="yes"/>
  </way>
  <way id="4211537" version="2" timestamp="2008-07-30T10:47:21Z" uid="6269" user="Mueck" changeset="628766">
    <nd ref="14890751"/>
    <nd ref="14796420"/>
    <nd ref="14797077"/>
    <nd ref="24952671"/>
    <nd ref="14796529"/>
    <tag k="created_by" v="Potlatch 0.10a"/>
    <tag k="highway" v="tertiary"/>
    <tag k="name" v="Südendstraße"/>
    <tag k="note" v="im SHP des NVK: III"/>
    <tag k="oneway" v="true"/>
  </way>
  <way id="4211548" version="7" timestamp="2009-05-08T23:23:47Z" uid="6269" user="Mueck" changeset="1122795">
    <nd ref="15848814"/>
    <nd ref="15843218"/>
    <nd ref="15843217"/>
    <nd ref="341930820"/>
    <tag k="created_by" v="Potlatch 0.10f"/>
    <tag k="highway" v="trunk"/>
    <tag k="maxspeed" v="80"/>
    <tag k="motorroad" v="yes"/>
    <tag k="name" v="Südtangente"/>
    <tag k="oneway" v="yes"/>
    <tag k="ref" v="B 10"/>
  </way>
  <way id="4211548" version="8" timestamp="2009-05-08T23:28:37Z" uid="6269" user="Mueck" changeset="1122795">
    <nd ref="15848814"/>
    <nd ref="15843218"/>
    <nd ref="15843217"/>
    <nd ref="341930820"/>
    <tag k="created_by" v="Potlatch 0.10f"/>
    <tag k="highway" v="trunk"/>
    <tag k="maxspeed" v="80"/>
    <tag k="motorroad" v="yes"/>
    <tag k="name" v="Südtangente"/>
    <tag k="oneway" v="yes"/>
  </way>
  <way id="4211548" version="9" timestamp="2009-05-08T23:38:28Z" uid="6269" user="Mueck" changeset="1122795">
    <nd ref="15848814"/>
    <nd ref="15843218"/>
    <nd ref="15843217"/>
    <nd ref="341930820"/>
    <tag k="created_by" v="Potlatch 0.10f"/>
    <tag k="highway" v="trunk"/>
    <tag k="maxspeed" v="80"/>
    <tag k="motorroad" v="yes"/>
    <tag k="name" v="Südtangente"/>
    <tag k="oneway" v="yes"/>
    <tag k="ref" v="K9657"/>
  </way>
  <way id="4211575" version="2" timestamp="2008-08-11T10:40:22Z" uid="6269" user="Mueck" changeset="188275">
    <nd ref="15108280"/>
    <nd ref="15108291"/>
    <nd ref="34097958"/>
    <nd ref="15108289"/>
    <nd ref="15108287"/>
    <nd ref="15108285"/>
    <nd ref="31095809"/>
    <nd ref="15108282"/>
    <nd ref="15108281"/>
    <nd ref="20456957"/>
    <nd ref="17502893"/>
    <tag k="created_by" v="Potlatch 0.10b"/>
    <tag k="highway" v="tertiary"/>
    <tag k="name" v="Litzenhardtstraße"/>
    <tag k="note" v="im SHP des NVK: III"/>
  </way>
  <way id="4211575" version="7" timestamp="2011-03-06T10:40:22Z" uid="6269" user="Mueck" changeset="7471610">
    <nd ref="15108280"/>
    <nd ref="1125115903"/>
    <nd ref="15108291"/>
    <nd ref="34097958"/>
    <nd ref="15108289"/>
    <nd ref="1125116177"/>
    <nd ref="323189537"/>
    <nd ref="15108287"/>
    <nd ref="15108285"/>
    <nd ref="1188953408"/>
    <nd ref="31095809"/>
    <nd ref="1188953145"/>
    <nd ref="15108282"/>
    <nd ref="15108281"/>
    <nd ref="20456957"/>
    <nd ref="24938189"/>
    <nd ref="24938195"/>
    <tag k="highway" v="tertiary"/>
    <tag k="name" v="Litzenhardtstraße"/>
    <tag k="note" v="im SHP des NVK: III"/>
  </way>
  <way id="4211591" version="6" timestamp="2009-05-08T23:28:17Z" uid="6269" user="Mueck" changeset="1122795">
    <nd ref="30122607"/>
    <nd ref="15848797"/>
    <nd ref="15848796"/>
    <nd ref="15848795"/>
    <nd ref="15848794"/>
    <nd ref="31118143"/>
    <nd ref="342903"/>
    <nd ref="342904"/>
    <nd ref="342905"/>
    <nd ref="321775841"/>
    <nd ref="342906"/>
    <nd ref="342907"/>
    <nd ref="321775844"/>
    <nd ref="31113066"/>
    <nd ref="342908"/>
    <nd ref="31113064"/>
    <nd ref="31113065"/>
    <nd ref="342909"/>
    <nd ref="25444913"/>
    <nd ref="341910282"/>
    <tag k="created_by" v="Potlatch 0.10f"/>
    <tag k="highway" v="trunk"/>
    <tag k="maxspeed" v="80"/>
    <tag k="motorroad" v="yes"/>
    <tag k="name" v="Südtangente"/>
    <tag k="oneway" v="yes"/>
    <tag k="ref" v="B 10"/>
  </way>
  <way id="4211591" version="7" timestamp="2009-05-08T23:28:42Z" uid="6269" user="Mueck" changeset="1122795">
    <nd ref="30122607"/>
    <nd ref="15848797"/>
    <nd ref="15848796"/>
    <nd ref="15848795"/>
    <nd ref="15848794"/>
    <nd ref="31118143"/>
    <nd ref="342903"/>
    <nd ref="342904"/>
    <nd ref="342905"/>
    <nd ref="321775841"/>
    <nd ref="342906"/>
    <nd ref="342907"/>
    <nd ref="321775844"/>
    <nd ref="31113066"/>
    <nd ref="342908"/>
    <nd ref="31113064"/>
    <nd ref="31113065"/>
    <nd ref="342909"/>
    <nd ref="25444913"/>
    <nd ref="341910282"/>
    <tag k="created_by" v="Potlatch 0.10f"/>
    <tag k="highway" v="trunk"/>
    <tag k="maxspeed" v="80"/>
    <tag k="motorroad" v="yes"/>
    <tag k="name" v="Südtangente"/>
    <tag k="oneway" v="yes"/>
  </way>
  <way id="4211591" version="8" timestamp="2009-05-08T23:38:39Z" uid="6269" user="Mueck" changeset="1122795">
    <nd ref="30122607"/>
    <nd ref="15848797"/>
    <nd ref="15848796"/>
    <nd ref="15848795"/>
    <nd ref="15848794"/>
    <nd ref="31118143"/>
    <nd ref="342903"/>
    <nd ref="342904"/>
    <nd ref="342905"/>
    <nd ref="321775841"/>
    <nd ref="342906"/>
    <nd ref="342907"/>
    <nd ref="321775844"/>
    <nd ref="31113066"/>
    <nd ref="342908"/>
    <nd ref="31113064"/>
    <nd ref="31113065"/>
    <nd ref="342909"/>
    <nd ref="25444913"/>
    <nd ref="341910282"/>
    <tag k="created_by" v="Potlatch 0.10f"/>
    <tag k="highway" v="trunk"/>
    <tag k="maxspeed" v="80"/>
    <tag k="motorroad" v="yes"/>
    <tag k="name" v="Südtangente"/>
    <tag k="oneway" v="yes"/>
    <tag k="ref" v="K9657"/>
  </way>
  <way id="4211591" version="9" timestamp="2009-05-09T08:14:39Z" uid="6269" user="Mueck" changeset="1124725">
    <nd ref="30122607"/>
    <nd ref="15848797"/>
    <nd ref="392602712"/>
    <nd ref="15848796"/>
    <nd ref="15848795"/>
    <nd ref="15848794"/>
    <nd ref="31118143"/>
    <nd ref="342903"/>
    <nd ref="342904"/>
    <nd ref="342905"/>
    <nd ref="321775841"/>
    <nd ref="342906"/>
    <nd ref="342907"/>
    <nd ref="321775844"/>
    <nd ref="31113066"/>
    <nd ref="342908"/>
    <nd ref="31113064"/>
    <nd ref="31113065"/>
    <nd ref="342909"/>
    <nd ref="25444913"/>
    <nd ref="341910282"/>
    <tag k="created_by" v="Potlatch 0.10f"/>
    <tag k="highway" v="trunk"/>
    <tag k="maxspeed" v="80"/>
    <tag k="motorroad" v="yes"/>
    <tag k="name" v="Südtangente"/>
    <tag k="oneway" v="yes"/>
    <tag k="ref" v="K9657"/>
  </way>
  <way id="4211592" version="7" timestamp="2009-05-08T23:57:35Z" uid="6269" user="Mueck" changeset="1122795">
    <nd ref="18236783"/>
    <nd ref="18236782"/>
    <nd ref="32924067"/>
    <nd ref="18236780"/>
    <nd ref="18236779"/>
    <nd ref="18236778"/>
    <tag k="created_by" v="Potlatch 0.9a"/>
    <tag k="highway" v="trunk"/>
    <tag k="motorroad" v="no"/>
    <tag k="name" v="Südtangente"/>
    <tag k="oneway" v="yes"/>
    <tag k="ref" v="B 10"/>
  </way>
  <way id="4211592" version="8" timestamp="2009-05-12T09:58:38Z" uid="6269" user="Mueck" changeset="1162244">
    <nd ref="18236783"/>
    <nd ref="394577788"/>
    <nd ref="18236782"/>
    <nd ref="32924067"/>
    <nd ref="18236780"/>
    <nd ref="18236779"/>
    <nd ref="18236778"/>
    <tag k="created_by" v="Potlatch 0.9a"/>
    <tag k="highway" v="trunk"/>
    <tag k="motorroad" v="no"/>
    <tag k="name" v="Südtangente"/>
    <tag k="oneway" v="yes"/>
    <tag k="ref" v="B 10"/>
  </way>
  <way id="4211592" version="9" timestamp="2009-05-12T09:59:02Z" uid="6269" user="Mueck" changeset="1162244">
    <nd ref="18236783"/>
    <nd ref="394577788"/>
    <nd ref="18236782"/>
    <nd ref="32924067"/>
    <nd ref="18236780"/>
    <nd ref="18236779"/>
    <nd ref="18236778"/>
    <tag k="created_by" v="Potlatch 0.9a"/>
    <tag k="cycleway" v="track"/>
    <tag k="highway" v="trunk"/>
    <tag k="motorroad" v="no"/>
    <tag k="name" v="Südtangente"/>
    <tag k="oneway" v="yes"/>
    <tag k="ref" v="B 10"/>
  </way>
  <way id="4211592" version="10" timestamp="2009-05-12T18:46:36Z" uid="6269" user="Mueck" changeset="1167997">
    <nd ref="18236783"/>
    <nd ref="394577788"/>
    <nd ref="18236782"/>
    <tag k="created_by" v="Potlatch 0.9a"/>
    <tag k="cycleway" v="track"/>
    <tag k="highway" v="trunk"/>
    <tag k="motorroad" v="no"/>
    <tag k="name" v="Südtangente"/>
    <tag k="oneway" v="yes"/>
    <tag k="ref" v="B 10"/>
  </way>
  <way id="4211592" version="11" timestamp="2009-05-12T18:48:26Z" uid="6269" user="Mueck" changeset="1168022">
    <nd ref="18236783"/>
    <nd ref="394577788"/>
    <nd ref="18236782"/>
    <tag k="created_by" v="Potlatch 0.9a"/>
    <tag k="cycleway" v="track"/>
    <tag k="embankment" v="yes"/>
    <tag k="highway" v="trunk"/>
    <tag k="motorroad" v="no"/>
    <tag k="name" v="Südtangente"/>
    <tag k="oneway" v="yes"/>
    <tag k="ref" v="B 10"/>
  </way>
  <way id="4211592" version="12" timestamp="2009-05-12T21:44:37Z" uid="6269" user="Mueck" changeset="1170064">
    <nd ref="18236783"/>
    <nd ref="394577788"/>
    <nd ref="18236782"/>
    <tag k="agricultural" v="yes"/>
    <tag k="created_by" v="Potlatch 0.9a"/>
    <tag k="cycleway" v="track"/>
    <tag k="embankment" v="yes"/>
    <tag k="highway" v="trunk"/>
    <tag k="motorroad" v="no"/>
    <tag k="name" v="Südtangente"/>
    <tag k="oneway" v="yes"/>
    <tag k="ref" v="B 10"/>
  </way>
  <way id="4211592" version="16" timestamp="2010-04-22T16:32:11Z" uid="6269" user="Mueck" changeset="4496458">
    <nd ref="18236783"/>
    <nd ref="394577788"/>
    <nd ref="18236782"/>
    <tag k="agricultural" v="yes"/>
    <tag k="cycleway" v="track"/>
    <tag k="embankment" v="yes"/>
    <tag k="highway" v="trunk"/>
    <tag k="maxspeed" v="100"/>
    <tag k="motorroad" v="o"/>
    <tag k="name" v="Südtangente"/>
    <tag k="oneway" v="yes"/>
    <tag k="ref" v="B 10"/>
  </way>
  <way id="4211592" version="17" timestamp="2010-09-22T20:55:18Z" uid="6269" user="Mueck" changeset="5849224">
    <nd ref="18236783"/>
    <nd ref="394577788"/>
    <nd ref="18236782"/>
    <tag k="agricultural" v="yes"/>
    <tag k="cycleway" v="track"/>
    <tag k="embankment" v="yes"/>
    <tag k="highway" v="trunk"/>
    <tag k="maxspeed" v="100"/>
    <tag k="motorroad" v="no"/>
    <tag k="name" v="Südtangente"/>
    <tag k="oneway" v="yes"/>
    <tag k="ref" v="B 10"/>
  </way>
  <way id="4211593" version="2" timestamp="2008-07-03T21:04:30Z" uid="6269" user="Mueck" changeset="381214">
    <nd ref="16261935"/>
    <nd ref="30949810"/>
    <nd ref="276065390"/>
    <nd ref="16261934"/>
    <nd ref="16261933"/>
    <nd ref="16261932"/>
    <nd ref="24681846"/>
    <nd ref="24681787"/>
    <nd ref="24681805"/>
    <nd ref="27005337"/>
    <nd ref="26974847"/>
    <nd ref="16261964"/>
    <nd ref="21434675"/>
    <nd ref="16261965"/>
    <tag k="created_by" v="Potlatch 0.9c"/>
    <tag k="highway" v="primary"/>
    <tag k="name" v="Rheinstraße"/>
  </way>
  <way id="4211593" version="3" timestamp="2008-07-03T21:27:26Z" uid="6269" user="Mueck" changeset="381214">
    <nd ref="16261935"/>
    <nd ref="30949810"/>
    <nd ref="276065390"/>
    <tag k="created_by" v="Potlatch 0.9c"/>
    <tag k="highway" v="primary"/>
    <tag k="name" v="Rheinstraße"/>
  </way>
  <way id="4211593" version="5" timestamp="2008-07-11T09:15:26Z" uid="6269" user="Mueck" changeset="458009">
    <nd ref="16261935"/>
    <nd ref="30949810"/>
    <nd ref="276065390"/>
    <tag k="created_by" v="Potlatch 0.9c"/>
    <tag k="highway" v="primary"/>
    <tag k="name" v="Rheinbrückenstraße"/>
  </way>
  <way id="4211593" version="6" timestamp="2009-05-12T10:09:22Z" uid="6269" user="Mueck" changeset="1162331">
    <nd ref="16261935"/>
    <nd ref="30949810"/>
    <nd ref="276065390"/>
    <tag k="created_by" v="Potlatch 0.9c"/>
    <tag k="cycleway" v="track"/>
    <tag k="highway" v="primary"/>
    <tag k="name" v="Rheinbrückenstraße"/>
  </way>
  <way id="4211593" version="9" timestamp="2011-02-19T12:42:06Z" uid="6269" user="Mueck" changeset="7331340">
    <nd ref="16261935"/>
    <nd ref="1161214066"/>
    <nd ref="30949810"/>
    <nd ref="276065390"/>
    <tag k="cycleway" v="both"/>
    <tag k="highway" v="primary"/>
    <tag k="name" v="Rheinbrückenstraße"/>
  </way>
  <way id="4211593" version="10" timestamp="2011-03-13T00:22:12Z" uid="6269" user="Mueck" changeset="7539621">
    <nd ref="16261935"/>
    <nd ref="1161214066"/>
    <nd ref="30949810"/>
    <nd ref="276065390"/>
    <tag k="cycleway" v="both"/>
    <tag k="highway" v="primary"/>
    <tag k="name" v="Rheinbrückenstraße"/>
    <tag k="note" v="ca. auf alter Trasse der Maxaubahn"/>
    <tag k="railway" v="razed"/>
  </way>
  <way id="4211594" version="3" timestamp="2008-02-13T02:30:57Z" uid="6269" user="Mueck" changeset="111430">
    <nd ref="17905118"/>
    <nd ref="17905137"/>
    <nd ref="17905139"/>
    <nd ref="17905141"/>
    <nd ref="17905142"/>
    <nd ref="17905143"/>
    <nd ref="17905145"/>
    <nd ref="17905146"/>
    <nd ref="27231911"/>
    <nd ref="17905149"/>
    <nd ref="17905150"/>
    <nd ref="17905151"/>
    <nd ref="17905152"/>
    <nd ref="17905154"/>
    <nd ref="17905155"/>
    <nd ref="15105661"/>
    <nd ref="27354563"/>
    <nd ref="15105660"/>
    <tag k="created_by" v="Potlatch 0.7a"/>
    <tag k="highway" v="secondary"/>
  </way>
  <way id="4211618" version="1" timestamp="2007-07-01T22:11:04Z" uid="8328" user="benpre" changeset="122992">
    <nd ref="24953584"/>
    <nd ref="29089758"/>
    <nd ref="30503761"/>
    <nd ref="31172281"/>
    <nd ref="24953586"/>
    <tag k="created_by" v="JOSM"/>
    <tag k="highway" v="minor"/>
    <tag k="name" v="Wollhausstraße"/>
  </way>
  <way id="4211620" version="1" timestamp="2007-06-30T21:25:34Z" uid="8328" user="benpre" changeset="119473">
    <nd ref="23742376"/>
    <nd ref="24953592"/>
    <nd ref="24953593"/>
    <nd ref="24953594"/>
    <nd ref="24953595"/>
    <nd ref="24953596"/>
    <nd ref="24953597"/>
    <nd ref="24953598"/>
    <nd ref="24953599"/>
    <nd ref="24953601"/>
    <tag k="access" v="private"/>
    <tag k="created_by" v="JOSM"/>
    <tag k="highway" v="minor"/>
  </way>
  <way id="4211622" version="1" timestamp="2007-07-01T20:04:30Z" uid="8328" user="benpre" changeset="121022">
    <nd ref="21778337"/>
    <nd ref="26780572"/>
    <nd ref="26780574"/>
    <nd ref="24953606"/>
    <nd ref="24953605"/>
    <nd ref="24953603"/>
    <tag k="created_by" v="JOSM"/>
    <tag k="highway" v="minor"/>
    <tag k="name" v="Schubartstraße"/>
  </way>
  <way id="4211623" version="1" timestamp="2007-06-30T23:53:54Z" uid="8328" user="benpre" changeset="120615">
    <nd ref="21776521"/>
    <nd ref="26769614"/>
    <nd ref="24953615"/>
    <nd ref="26769621"/>
    <nd ref="30901778"/>
    <nd ref="26769623"/>
    <nd ref="26769625"/>
    <tag k="created_by" v="JOSM"/>
    <tag k="highway" v="minor"/>
    <tag k="name" v="Guido-Hauk-Straße"/>
  </way>
  <way id="4211625" version="2" timestamp="2008-04-05T20:14:39Z" uid="16922" user="amai" changeset="53105">
    <nd ref="15843204"/>
    <nd ref="15843205"/>
    <nd ref="255926438"/>
    <nd ref="15843208"/>
    <nd ref="15843209"/>
    <tag k="created_by" v="Potlatch 0.8a"/>
    <tag k="highway" v="primary"/>
    <tag k="name" v="Haid-und-Neu-Straße"/>
  </way>
  <way id="4211625" version="3" timestamp="2008-04-05T20:15:13Z" uid="16922" user="amai" changeset="53105">
    <nd ref="15843204"/>
    <nd ref="15843205"/>
    <nd ref="255926438"/>
    <nd ref="255926499"/>
    <nd ref="15843208"/>
    <nd ref="15843209"/>
    <tag k="created_by" v="Potlatch 0.8a"/>
    <tag k="highway" v="primary"/>
    <tag k="name" v="Haid-und-Neu-Straße"/>
  </way>
  <way id="4211625" version="4" timestamp="2008-04-06T14:40:49Z" uid="16922" user="amai" changeset="62288">
    <nd ref="15843204"/>
    <nd ref="15843205"/>
    <nd ref="255926438"/>
    <nd ref="255926499"/>
    <nd ref="256073930"/>
    <nd ref="15843208"/>
    <nd ref="15843209"/>
    <tag k="created_by" v="Potlatch 0.8a"/>
    <tag k="highway" v="primary"/>
    <tag k="name" v="Haid-und-Neu-Straße"/>
  </way>
  <way id="4211625" version="5" timestamp="2008-08-09T00:53:03Z" uid="6269" user="Mueck" changeset="154032">
    <nd ref="15843204"/>
    <nd ref="15843205"/>
    <nd ref="255926438"/>
    <nd ref="255926499"/>
    <nd ref="256073930"/>
    <nd ref="15843208"/>
    <nd ref="15843209"/>
    <tag k="created_by" v="Potlatch 0.10b"/>
    <tag k="highway" v="secondary"/>
    <tag k="name" v="Haid-und-Neu-Straße"/>
    <tag k="note" v="im SHP des NVK: II"/>
  </way>
  <way id="4211625" version="6" timestamp="2008-08-09T00:53:33Z" uid="6269" user="Mueck" changeset="154032">
    <nd ref="15843201"/>
    <nd ref="15843204"/>
    <nd ref="15843205"/>
    <nd ref="255926438"/>
    <nd ref="255926499"/>
    <tag k="created_by" v="Potlatch 0.10b"/>
    <tag k="highway" v="secondary"/>
    <tag k="name" v="Haid-und-Neu-Straße"/>
    <tag k="note" v="im SHP des NVK: II"/>
  </way>
  <way id="4211625" version="7" timestamp="2008-08-09T00:53:48Z" uid="6269" user="Mueck" changeset="154032">
    <nd ref="15843201"/>
    <nd ref="15843204"/>
    <nd ref="15843205"/>
    <nd ref="255926438"/>
    <nd ref="255926499"/>
    <tag k="created_by" v="Potlatch 0.10b"/>
    <tag k="highway" v="primary"/>
    <tag k="name" v="Haid-und-Neu-Straße"/>
    <tag k="note" v="im SHP des NVK: I"/>
  </way>
  <way id="4211625" version="8" timestamp="2008-08-27T22:54:54Z" uid="6269" user="Mueck" changeset="436167">
    <nd ref="15843201"/>
    <nd ref="15843204"/>
    <nd ref="15843205"/>
    <nd ref="255926438"/>
    <nd ref="255926499"/>
    <tag k="abutters" v="commercial"/>
    <tag k="created_by" v="Potlatch 0.10b"/>
    <tag k="highway" v="primary"/>
    <tag k="name" v="Haid-und-Neu-Straße"/>
    <tag k="note" v="im SHP des NVK: I"/>
    <tag k="ref" v="L 560"/>
  </way>
  <way id="4211625" version="9" timestamp="2008-08-27T22:55:13Z" uid="6269" user="Mueck" changeset="436167">
    <nd ref="15843201"/>
    <nd ref="15843204"/>
    <nd ref="15843205"/>
    <nd ref="255926438"/>
    <nd ref="255926499"/>
    <tag k="created_by" v="Potlatch 0.10b"/>
    <tag k="highway" v="primary"/>
    <tag k="name" v="Haid-und-Neu-Straße"/>
    <tag k="note" v="im SHP des NVK: I"/>
    <tag k="ref" v="L 560"/>
  </way>
  <way id="4211625" version="10" timestamp="2009-01-07T14:46:44Z" uid="6269" user="Mueck" changeset="752161">
    <nd ref="255926438"/>
    <nd ref="255926499"/>
    <tag k="created_by" v="Potlatch 0.10f"/>
    <tag k="highway" v="primary"/>
    <tag k="name" v="Haid-und-Neu-Straße"/>
    <tag k="note" v="im SHP des NVK: I"/>
    <tag k="ref" v="L 560"/>
  </way>
  <way id="4211625" version="13" timestamp="2011-02-10T22:57:16Z" uid="6269" user="Mueck" changeset="7250518"/>
  <way id="4211626" version="3" timestamp="2008-08-27T22:55:05Z" uid="6269" user="Mueck" changeset="436167">
    <nd ref="15843194"/>
    <nd ref="15843195"/>
    <nd ref="15843198"/>
    <nd ref="271960793"/>
    <nd ref="15843200"/>
    <nd ref="29947653"/>
    <nd ref="29947648"/>
    <nd ref="15843203"/>
    <nd ref="29947643"/>
    <nd ref="15843201"/>
    <tag k="created_by" v="Potlatch 0.10b"/>
    <tag k="highway" v="primary"/>
    <tag k="name" v="Haid-und-Neu-Straße"/>
    <tag k="note" v="im SHP des NVK: I"/>
    <tag k="oneway" v="true"/>
    <tag k="ref" v="L 560"/>
  </way>
  <way id="4211626" version="4" timestamp="2009-01-07T14:46:59Z" uid="6269" user="Mueck" changeset="752161">
    <nd ref="15843194"/>
    <nd ref="15843195"/>
    <nd ref="15843198"/>
    <nd ref="271960793"/>
    <nd ref="15843200"/>
    <nd ref="29947653"/>
    <nd ref="29947648"/>
    <nd ref="15843203"/>
    <nd ref="29947643"/>
    <nd ref="330014688"/>
    <nd ref="330014689"/>
    <nd ref="255926438"/>
    <tag k="created_by" v="Potlatch 0.10f"/>
    <tag k="highway" v="primary"/>
    <tag k="name" v="Haid-und-Neu-Straße"/>
    <tag k="note" v="im SHP des NVK: I"/>
    <tag k="oneway" v="true"/>
    <tag k="ref" v="L 560"/>
  </way>
  <way id="4211626" version="5" timestamp="2009-01-07T14:47:58Z" uid="6269" user="Mueck" changeset="752161">
    <nd ref="15843194"/>
    <nd ref="15843195"/>
    <nd ref="15843198"/>
    <nd ref="271960793"/>
    <nd ref="15843200"/>
    <nd ref="29947653"/>
    <nd ref="29947648"/>
    <nd ref="15843203"/>
    <nd ref="29947643"/>
    <nd ref="330014688"/>
    <nd ref="330014689"/>
    <nd ref="255926438"/>
    <tag k="created_by" v="Potlatch 0.10f"/>
    <tag k="highway" v="primary"/>
    <tag k="name" v="Haid-und-Neu-Straße"/>
    <tag k="note" v="im SHP des NVK: I"/>
    <tag k="oneway" v="true"/>
    <tag k="ref" v="L 560"/>
  </way>
  <way id="4211626" version="8" timestamp="2011-02-10T22:52:05Z" uid="6269" user="Mueck" changeset="7250518">
    <nd ref="15843194"/>
    <nd ref="15843195"/>
    <nd ref="15843198"/>
    <nd ref="271960793"/>
    <nd ref="15843200"/>
    <nd ref="29947653"/>
    <nd ref="29947648"/>
    <nd ref="15843203"/>
    <nd ref="29947643"/>
    <nd ref="330014688"/>
    <nd ref="330014689"/>
    <nd ref="1146263068"/>
    <tag k="highway" v="primary"/>
    <tag k="name" v="Haid-und-Neu-Straße"/>
    <tag k="note" v="im SHP des NVK: I"/>
    <tag k="oneway" v="yes"/>
    <tag k="ref" v="L 560"/>
  </way>
  <way id="4211626" version="9" timestamp="2011-02-10T22:55:27Z" uid="6269" user="Mueck" changeset="7250518">
    <nd ref="15843194"/>
    <nd ref="15843195"/>
    <nd ref="15843198"/>
    <nd ref="271960793"/>
    <nd ref="15843200"/>
    <nd ref="29947653"/>
    <nd ref="29947648"/>
    <nd ref="15843203"/>
    <nd ref="29947643"/>
    <nd ref="330014688"/>
    <nd ref="330014689"/>
    <nd ref="255926438"/>
    <tag k="highway" v="primary"/>
    <tag k="name" v="Haid-und-Neu-Straße"/>
    <tag k="note" v="im SHP des NVK: I"/>
    <tag k="oneway" v="yes"/>
    <tag k="ref" v="L 560"/>
  </way>
  <way id="4211626" version="10" timestamp="2011-02-10T23:06:34Z" uid="6269" user="Mueck" changeset="7250518">
    <nd ref="15843194"/>
    <nd ref="15843195"/>
    <nd ref="15843198"/>
    <nd ref="271960793"/>
    <nd ref="15843200"/>
    <nd ref="29947653"/>
    <nd ref="29947648"/>
    <nd ref="15843203"/>
    <nd ref="1146298146"/>
    <nd ref="29947643"/>
    <nd ref="330014688"/>
    <nd ref="330014689"/>
    <nd ref="255926438"/>
    <tag k="highway" v="primary"/>
    <tag k="name" v="Haid-und-Neu-Straße"/>
    <tag k="note" v="im SHP des NVK: I"/>
    <tag k="oneway" v="yes"/>
    <tag k="ref" v="L 560"/>
  </way>
  <way id="4211626" version="11" timestamp="2011-02-10T23:06:59Z" uid="6269" user="Mueck" changeset="7250518">
    <nd ref="15843194"/>
    <nd ref="15843195"/>
    <nd ref="15843198"/>
    <nd ref="271960793"/>
    <nd ref="15843200"/>
    <nd ref="29947653"/>
    <nd ref="29947648"/>
    <nd ref="15843203"/>
    <nd ref="1146299100"/>
    <nd ref="1146298146"/>
    <nd ref="29947643"/>
    <nd ref="330014688"/>
    <nd ref="330014689"/>
    <nd ref="255926438"/>
    <tag k="highway" v="primary"/>
    <tag k="name" v="Haid-und-Neu-Straße"/>
    <tag k="note" v="im SHP des NVK: I"/>
    <tag k="oneway" v="yes"/>
    <tag k="ref" v="L 560"/>
  </way>
  <way id="4211626" version="12" timestamp="2011-02-10T23:11:00Z" uid="6269" user="Mueck" changeset="7250518">
    <nd ref="15843194"/>
    <nd ref="15843195"/>
    <nd ref="15843198"/>
    <nd ref="271960793"/>
    <nd ref="1146312631"/>
    <nd ref="15843200"/>
    <nd ref="29947653"/>
    <nd ref="29947648"/>
    <nd ref="15843203"/>
    <nd ref="1146299100"/>
    <nd ref="1146298146"/>
    <nd ref="29947643"/>
    <nd ref="330014688"/>
    <nd ref="330014689"/>
    <nd ref="255926438"/>
    <tag k="highway" v="primary"/>
    <tag k="name" v="Haid-und-Neu-Straße"/>
    <tag k="note" v="im SHP des NVK: I"/>
    <tag k="oneway" v="yes"/>
    <tag k="ref" v="L 560"/>
  </way>
  <way id="4211626" version="13" timestamp="2011-02-10T23:11:31Z" uid="6269" user="Mueck" changeset="7250518">
    <nd ref="15843194"/>
    <nd ref="15843195"/>
    <nd ref="15843198"/>
    <nd ref="271960793"/>
    <nd ref="1146314361"/>
    <nd ref="1146312631"/>
    <nd ref="15843200"/>
    <nd ref="29947653"/>
    <nd ref="29947648"/>
    <nd ref="15843203"/>
    <nd ref="1146299100"/>
    <nd ref="1146298146"/>
    <nd ref="29947643"/>
    <nd ref="330014688"/>
    <nd ref="330014689"/>
    <nd ref="255926438"/>
    <tag k="highway" v="primary"/>
    <tag k="name" v="Haid-und-Neu-Straße"/>
    <tag k="note" v="im SHP des NVK: I"/>
    <tag k="oneway" v="yes"/>
    <tag k="ref" v="L 560"/>
  </way>
  <way id="4211626" version="14" timestamp="2011-02-10T23:29:51Z" uid="6269" user="Mueck" changeset="7250518">
    <nd ref="15843194"/>
    <nd ref="15843195"/>
    <nd ref="15843198"/>
    <nd ref="271960793"/>
    <nd ref="1146365527"/>
    <nd ref="1146314361"/>
    <nd ref="1146312631"/>
    <nd ref="15843200"/>
    <nd ref="29947653"/>
    <nd ref="29947648"/>
    <nd ref="15843203"/>
    <nd ref="1146299100"/>
    <nd ref="1146298146"/>
    <nd ref="29947643"/>
    <nd ref="330014688"/>
    <nd ref="330014689"/>
    <nd ref="255926438"/>
    <tag k="highway" v="primary"/>
    <tag k="name" v="Haid-und-Neu-Straße"/>
    <tag k="note" v="im SHP des NVK: I"/>
    <tag k="oneway" v="yes"/>
    <tag k="ref" v="L 560"/>
  </way>
  <way id="4211627" version="2" timestamp="2008-02-12T22:04:20Z" uid="6269" user="Mueck" changeset="111430">
    <nd ref="15843194"/>
    <nd ref="25930348"/>
    <nd ref="25930349"/>
    <nd ref="15843193"/>
    <nd ref="15843192"/>
    <nd ref="247384711"/>
    <nd ref="15843191"/>
    <nd ref="15843190"/>
    <nd ref="25930352"/>
    <nd ref="25930353"/>
    <nd ref="15843187"/>
    <tag k="created_by" v="Potlatch 0.7a"/>
    <tag k="highway" v="primary"/>
    <tag k="name" v="Haid-und-Neu-Straße"/>
  </way>
  <way id="4211627" version="4" timestamp="2008-08-27T22:55:51Z" uid="6269" user="Mueck" changeset="436167">
    <nd ref="15843194"/>
    <nd ref="25930348"/>
    <nd ref="25930349"/>
    <nd ref="15843193"/>
    <nd ref="15843192"/>
    <nd ref="247384711"/>
    <nd ref="15843191"/>
    <nd ref="15843190"/>
    <nd ref="25930352"/>
    <nd ref="286475449"/>
    <nd ref="25930353"/>
    <nd ref="15843187"/>
    <tag k="created_by" v="Potlatch 0.10b"/>
    <tag k="highway" v="primary"/>
    <tag k="name" v="Haid-und-Neu-Straße"/>
    <tag k="note" v="im SHP des NVK: I"/>
    <tag k="ref" v="L 560"/>
  </way>
  <way id="4211627" version="6" timestamp="2009-07-01T23:06:33Z" uid="6269" user="Mueck" changeset="1705642">
    <nd ref="15843194"/>
    <nd ref="25930348"/>
    <nd ref="25930349"/>
    <nd ref="15843193"/>
    <nd ref="15843192"/>
    <nd ref="247384711"/>
    <nd ref="432029318"/>
    <tag k="created_by" v="Potlatch 0.10b"/>
    <tag k="highway" v="primary"/>
    <tag k="maxspeed" v="60"/>
    <tag k="name" v="Haid-und-Neu-Straße"/>
    <tag k="note" v="im SHP des NVK: I"/>
    <tag k="ref" v="L 560"/>
  </way>
  <way id="4211627" version="7" timestamp="2011-02-10T23:58:34Z" uid="6269" user="Mueck" changeset="7250518">
    <nd ref="15843194"/>
    <nd ref="25930348"/>
    <nd ref="25930349"/>
    <nd ref="15843193"/>
    <nd ref="15843192"/>
    <nd ref="247384711"/>
    <nd ref="432029318"/>
    <tag k="highway" v="primary"/>
    <tag k="maxspeed" v="60"/>
    <tag k="name" v="Haid-und-Neu-Straße"/>
    <tag k="note" v="im SHP des NVK: I"/>
    <tag k="ref" v="L 560"/>
  </way>
  <way id="4211627" version="8" timestamp="2011-02-11T00:01:17Z" uid="6269" user="Mueck" changeset="7250518">
    <nd ref="15843194"/>
    <nd ref="25930348"/>
    <nd ref="1146425266"/>
    <nd ref="25930349"/>
    <nd ref="15843193"/>
    <nd ref="15843192"/>
    <nd ref="247384711"/>
    <nd ref="432029318"/>
    <tag k="highway" v="primary"/>
    <tag k="maxspeed" v="60"/>
    <tag k="name" v="Haid-und-Neu-Straße"/>
    <tag k="note" v="im SHP des NVK: I"/>
    <tag k="ref" v="L 560"/>
  </way>
  <way id="4211627" version="9" timestamp="2011-02-11T00:05:01Z" uid="6269" user="Mueck" changeset="7251051">
    <nd ref="15843194"/>
    <nd ref="25930348"/>
    <nd ref="1146425266"/>
    <nd ref="25930349"/>
    <nd ref="1146430437"/>
    <nd ref="15843193"/>
    <nd ref="15843192"/>
    <nd ref="247384711"/>
    <nd ref="432029318"/>
    <tag k="highway" v="primary"/>
    <tag k="maxspeed" v="60"/>
    <tag k="name" v="Haid-und-Neu-Straße"/>
    <tag k="note" v="im SHP des NVK: I"/>
    <tag k="ref" v="L 560"/>
  </way>
  <way id="4211627" version="10" timestamp="2011-02-11T00:06:47Z" uid="6269" user="Mueck" changeset="7251051">
    <nd ref="15843194"/>
    <nd ref="25930348"/>
    <nd ref="1146425266"/>
    <nd ref="25930349"/>
    <nd ref="1146430437"/>
    <nd ref="15843193"/>
    <nd ref="1146434157"/>
    <nd ref="15843192"/>
    <nd ref="247384711"/>
    <nd ref="432029318"/>
    <tag k="highway" v="primary"/>
    <tag k="maxspeed" v="60"/>
    <tag k="name" v="Haid-und-Neu-Straße"/>
    <tag k="note" v="im SHP des NVK: I"/>
    <tag k="ref" v="L 560"/>
  </way>
  <way id="4211627" version="11" timestamp="2011-02-11T00:29:04Z" uid="6269" user="Mueck" changeset="7251051">
    <nd ref="15843194"/>
    <nd ref="25930348"/>
    <nd ref="1146425266"/>
    <nd ref="25930349"/>
    <nd ref="1146430437"/>
    <nd ref="15843193"/>
    <nd ref="1146434157"/>
    <nd ref="15843192"/>
    <nd ref="247384711"/>
    <nd ref="1146463637"/>
    <nd ref="432029318"/>
    <tag k="highway" v="primary"/>
    <tag k="maxspeed" v="60"/>
    <tag k="name" v="Haid-und-Neu-Straße"/>
    <tag k="note" v="im SHP des NVK: I"/>
    <tag k="ref" v="L 560"/>
  </way>
  <way id="4211628" version="2" timestamp="2008-08-27T22:56:50Z" uid="6269" user="Mueck" changeset="436167">
    <nd ref="15843187"/>
    <nd ref="15843188"/>
    <nd ref="15843185"/>
    <nd ref="29948683"/>
    <tag k="created_by" v="Potlatch 0.10b"/>
    <tag k="highway" v="primary"/>
    <tag k="name" v="Haid-und-Neu-Straße"/>
    <tag k="note" v="im SHP des NVK: I"/>
    <tag k="oneway" v="true"/>
    <tag k="ref" v="L 560"/>
  </way>
  <way id="4211628" version="4" timestamp="2011-02-11T00:54:29Z" uid="6269" user="Mueck" changeset="7251051">
    <nd ref="15843187"/>
    <nd ref="1146492014"/>
    <nd ref="15843188"/>
    <nd ref="15843185"/>
    <nd ref="29948683"/>
    <tag k="highway" v="primary"/>
    <tag k="name" v="Haid-und-Neu-Straße"/>
    <tag k="note" v="im SHP des NVK: I"/>
    <tag k="oneway" v="yes"/>
    <tag k="ref" v="L 560"/>
  </way>
  <way id="4211628" version="5" timestamp="2011-02-11T00:54:52Z" uid="6269" user="Mueck" changeset="7251051">
    <nd ref="15843187"/>
    <nd ref="1146492014"/>
    <nd ref="1146492323"/>
    <nd ref="15843188"/>
    <nd ref="15843185"/>
    <nd ref="29948683"/>
    <tag k="highway" v="primary"/>
    <tag k="name" v="Haid-und-Neu-Straße"/>
    <tag k="note" v="im SHP des NVK: I"/>
    <tag k="oneway" v="yes"/>
    <tag k="ref" v="L 560"/>
  </way>
  <way id="4211628" version="6" timestamp="2011-02-11T00:55:34Z" uid="6269" user="Mueck" changeset="7251051">
    <nd ref="15843187"/>
    <nd ref="1146492014"/>
    <nd ref="1146492323"/>
    <nd ref="15843188"/>
    <nd ref="1146493147"/>
    <nd ref="15843185"/>
    <nd ref="29948683"/>
    <tag k="highway" v="primary"/>
    <tag k="name" v="Haid-und-Neu-Straße"/>
    <tag k="note" v="im SHP des NVK: I"/>
    <tag k="oneway" v="yes"/>
    <tag k="ref" v="L 560"/>
  </way>
  <way id="4211628" version="7" timestamp="2011-02-11T00:55:55Z" uid="6269" user="Mueck" changeset="7251051">
    <nd ref="15843187"/>
    <nd ref="1146492014"/>
    <nd ref="1146492323"/>
    <nd ref="15843188"/>
    <nd ref="1146493147"/>
    <nd ref="1146493526"/>
    <nd ref="15843185"/>
    <nd ref="29948683"/>
    <tag k="highway" v="primary"/>
    <tag k="name" v="Haid-und-Neu-Straße"/>
    <tag k="note" v="im SHP des NVK: I"/>
    <tag k="oneway" v="yes"/>
    <tag k="ref" v="L 560"/>
  </way>
  <way id="4211628" version="8" timestamp="2011-02-11T00:56:36Z" uid="6269" user="Mueck" changeset="7251051">
    <nd ref="15843187"/>
    <nd ref="1146492014"/>
    <nd ref="1146492323"/>
    <nd ref="15843188"/>
    <nd ref="1146493147"/>
    <nd ref="1146493526"/>
    <nd ref="1146494082"/>
    <nd ref="15843185"/>
    <nd ref="29948683"/>
    <tag k="highway" v="primary"/>
    <tag k="name" v="Haid-und-Neu-Straße"/>
    <tag k="note" v="im SHP des NVK: I"/>
    <tag k="oneway" v="yes"/>
    <tag k="ref" v="L 560"/>
  </way>
  <way id="4211628" version="9" timestamp="2011-02-11T00:57:16Z" uid="6269" user="Mueck" changeset="7251051">
    <nd ref="15843187"/>
    <nd ref="1146492014"/>
    <nd ref="1146492323"/>
    <nd ref="15843188"/>
    <nd ref="1146493147"/>
    <nd ref="1146493526"/>
    <nd ref="1146494082"/>
    <nd ref="1146494533"/>
    <nd ref="15843185"/>
    <nd ref="29948683"/>
    <tag k="highway" v="primary"/>
    <tag k="name" v="Haid-und-Neu-Straße"/>
    <tag k="note" v="im SHP des NVK: I"/>
    <tag k="oneway" v="yes"/>
    <tag k="ref" v="L 560"/>
  </way>
  <way id="4211628" version="10" timestamp="2011-02-11T00:58:39Z" uid="6269" user="Mueck" changeset="7251051">
    <nd ref="15843187"/>
    <nd ref="1146492014"/>
    <nd ref="1146492323"/>
    <nd ref="15843188"/>
    <nd ref="1146493147"/>
    <nd ref="1146493526"/>
    <nd ref="1146494082"/>
    <nd ref="1146494533"/>
    <nd ref="15843185"/>
    <nd ref="1146495846"/>
    <nd ref="29948683"/>
    <tag k="highway" v="primary"/>
    <tag k="name" v="Haid-und-Neu-Straße"/>
    <tag k="note" v="im SHP des NVK: I"/>
    <tag k="oneway" v="yes"/>
    <tag k="ref" v="L 560"/>
  </way>
  <way id="4211628" version="11" timestamp="2011-02-11T01:01:15Z" uid="6269" user="Mueck" changeset="7251051">
    <nd ref="15843187"/>
    <nd ref="1146492014"/>
    <nd ref="1146492323"/>
    <nd ref="15843188"/>
    <nd ref="1146493147"/>
    <nd ref="1146493526"/>
    <nd ref="1146494082"/>
    <nd ref="1146494533"/>
    <nd ref="15843185"/>
    <nd ref="1146495846"/>
    <nd ref="1146498027"/>
    <nd ref="29948683"/>
    <tag k="highway" v="primary"/>
    <tag k="name" v="Haid-und-Neu-Straße"/>
    <tag k="note" v="im SHP des NVK: I"/>
    <tag k="oneway" v="yes"/>
    <tag k="ref" v="L 560"/>
  </way>
  <way id="4211628" version="12" timestamp="2011-02-11T01:21:46Z" uid="6269" user="Mueck" changeset="7251051">
    <nd ref="15843187"/>
    <nd ref="1146492014"/>
    <nd ref="1146492323"/>
    <nd ref="15843188"/>
    <nd ref="1146493147"/>
    <nd ref="1146493526"/>
    <nd ref="1146494082"/>
    <nd ref="1146494533"/>
    <nd ref="15843185"/>
    <nd ref="1146495846"/>
    <nd ref="1146498027"/>
    <nd ref="1146523944"/>
    <nd ref="29948683"/>
    <tag k="highway" v="primary"/>
    <tag k="name" v="Haid-und-Neu-Straße"/>
    <tag k="note" v="im SHP des NVK: I"/>
    <tag k="oneway" v="yes"/>
    <tag k="ref" v="L 560"/>
  </way>
  <way id="4211629" version="2" timestamp="2008-08-09T01:18:52Z" uid="6269" user="Mueck" changeset="154032">
    <nd ref="15843180"/>
    <nd ref="15843179"/>
    <nd ref="15843175"/>
    <tag k="created_by" v="Potlatch 0.10b"/>
    <tag k="highway" v="primary"/>
    <tag k="name" v="Gustav-Heinemann-Allee"/>
    <tag k="note" v="im SHP des NVK: I"/>
  </way>
  <way id="4211629" version="3" timestamp="2008-08-27T22:57:33Z" uid="6269" user="Mueck" changeset="436167">
    <nd ref="15843180"/>
    <nd ref="15843179"/>
    <nd ref="15843175"/>
    <tag k="created_by" v="Potlatch 0.10b"/>
    <tag k="highway" v="primary"/>
    <tag k="name" v="Gustav-Heinemann-Allee"/>
    <tag k="note" v="im SHP des NVK: I"/>
    <tag k="ref" v="L 560"/>
  </way>
  <way id="4211630" version="5" timestamp="2008-07-30T09:45:11Z" uid="6269" user="Mueck" changeset="628766">
    <nd ref="696704"/>
    <nd ref="220731701"/>
    <nd ref="696705"/>
    <nd ref="14959824"/>
    <nd ref="696707"/>
    <nd ref="16569234"/>
    <nd ref="15848816"/>
    <nd ref="14954703"/>
    <nd ref="696708"/>
    <nd ref="696709"/>
    <nd ref="14954717"/>
    <nd ref="26538129"/>
    <nd ref="696710"/>
    <nd ref="14959804"/>
    <nd ref="696756"/>
    <nd ref="18911784"/>
    <nd ref="696849"/>
    <nd ref="14959808"/>
    <tag k="created_by" v="Potlatch 0.10a"/>
    <tag k="highway" v="secondary"/>
    <tag k="maxspeed" v="60"/>
    <tag k="name" v="Adenauerring"/>
    <tag k="note" v="im SHP des NVK: II"/>
  </way>
  <way id="4211633" version="4" timestamp="2008-07-30T09:43:33Z" uid="6269" user="Mueck" changeset="628766">
    <nd ref="14795133"/>
    <nd ref="248951107"/>
    <nd ref="14890795"/>
    <nd ref="15357692"/>
    <nd ref="14890794"/>
    <nd ref="14890793"/>
    <nd ref="14959773"/>
    <nd ref="14890792"/>
    <nd ref="14890790"/>
    <nd ref="14890789"/>
    <nd ref="14890788"/>
    <nd ref="14890787"/>
    <nd ref="26289879"/>
    <nd ref="14890786"/>
    <nd ref="26292037"/>
    <nd ref="14890783"/>
    <nd ref="220731695"/>
    <nd ref="696704"/>
    <tag k="created_by" v="Potlatch 0.10a"/>
    <tag k="highway" v="primary"/>
    <tag k="maxspeed" v="60"/>
    <tag k="name" v="Adenauerring"/>
    <tag k="note" v="im SHP des NVK: I"/>
  </way>
  <way id="4211635" version="2" timestamp="2008-07-30T09:44:00Z" uid="6269" user="Mueck" changeset="628766">
    <nd ref="14795804"/>
    <nd ref="14961080"/>
    <nd ref="15357691"/>
    <nd ref="696702"/>
    <nd ref="26556796"/>
    <nd ref="696703"/>
    <nd ref="696704"/>
    <tag k="created_by" v="Potlatch 0.10a"/>
    <tag k="highway" v="secondary"/>
    <tag k="name" v="Willy-Brandt-Allee"/>
    <tag k="note" v="im SHP des NVK: II"/>
  </way>
  <way id="4211636" version="2" timestamp="2008-07-30T09:42:07Z" uid="6269" user="Mueck" changeset="628766">
    <nd ref="14795804"/>
    <nd ref="21733409"/>
    <nd ref="24951922"/>
    <nd ref="15431428"/>
    <nd ref="24951919"/>
    <nd ref="15431424"/>
    <nd ref="25948133"/>
    <nd ref="14795418"/>
    <nd ref="31151423"/>
    <nd ref="14795133"/>
    <tag k="created_by" v="Potlatch 0.10a"/>
    <tag k="highway" v="secondary"/>
    <tag k="name" v="Moltkestraße"/>
    <tag k="note" v="im SHP des NVK: II"/>
  </way>
  <way id="4211638" version="4" timestamp="2011-02-22T12:55:33Z" uid="6269" user="Mueck" changeset="7362910">
    <nd ref="15357760"/>
    <nd ref="1166382140"/>
    <nd ref="31152150"/>
    <nd ref="29131997"/>
    <nd ref="15357762"/>
    <nd ref="29131992"/>
    <nd ref="15357767"/>
    <nd ref="15357780"/>
    <nd ref="15357783"/>
    <nd ref="15357777"/>
    <nd ref="29131991"/>
    <nd ref="15357784"/>
    <nd ref="26355280"/>
    <nd ref="15357821"/>
    <nd ref="15357818"/>
    <nd ref="15357908"/>
    <nd ref="26355274"/>
    <nd ref="15357823"/>
    <nd ref="15357826"/>
    <nd ref="15357824"/>
    <nd ref="15357911"/>
    <nd ref="15431123"/>
    <tag k="highway" v="residential"/>
    <tag k="maxspeed" v="30"/>
    <tag k="name" v="Knielinger Allee"/>
  </way>
  <way id="4211638" version="5" timestamp="2011-02-24T13:23:48Z" uid="6269" user="Mueck" changeset="7381138">
    <nd ref="15357760"/>
    <nd ref="1166382140"/>
    <nd ref="31152150"/>
    <nd ref="29131997"/>
    <nd ref="15357762"/>
    <nd ref="29131992"/>
    <nd ref="15357767"/>
    <nd ref="15357780"/>
    <nd ref="15357783"/>
    <nd ref="15357777"/>
    <nd ref="29131991"/>
    <nd ref="15357784"/>
    <nd ref="26355280"/>
    <nd ref="15357821"/>
    <nd ref="15357818"/>
    <nd ref="15357908"/>
    <nd ref="26355274"/>
    <nd ref="15357823"/>
    <nd ref="15357826"/>
    <nd ref="15357824"/>
    <nd ref="15357911"/>
    <nd ref="1170143778"/>
    <nd ref="15431123"/>
    <tag k="highway" v="residential"/>
    <tag k="maxspeed" v="30"/>
    <tag k="name" v="Knielinger Allee"/>
  </way>
  <way id="4211639" version="6" timestamp="2011-02-24T13:23:48Z" uid="6269" user="Mueck" changeset="7381138">
    <nd ref="15431123"/>
    <nd ref="1170143800"/>
    <nd ref="30959892"/>
    <nd ref="16201477"/>
    <nd ref="271149111"/>
    <nd ref="248951124"/>
    <nd ref="17069142"/>
    <nd ref="248951120"/>
    <nd ref="15431813"/>
    <nd ref="310220418"/>
    <nd ref="17083155"/>
    <tag k="highway" v="residential"/>
    <tag k="name" v="Knielinger Allee"/>
  </way>
  <way id="4211641" version="2" timestamp="2010-06-13T14:01:22Z" uid="6269" user="Mueck" changeset="4978915">
    <nd ref="15750584"/>
    <nd ref="27255996"/>
    <tag k="highway" v="residential"/>
    <tag k="name" v="Silberstreifen"/>
  </way>
  <way id="4211641" version="3" timestamp="2010-06-13T14:02:55Z" uid="6269" user="Mueck" changeset="4978915">
    <nd ref="15750584"/>
    <nd ref="27255996"/>
    <nd ref="768003222"/>
    <tag k="highway" v="residential"/>
    <tag k="name" v="Silberstreifen"/>
    <tag k="smoothness" v="good"/>
    <tag k="surface" v="asphalt"/>
  </way>
  <way id="4211658" version="6" timestamp="2008-03-25T22:46:09Z" uid="16922" user="amai" changeset="394442">
    <nd ref="24954564"/>
    <nd ref="24954554"/>
    <nd ref="24954551"/>
    <nd ref="30566296"/>
    <nd ref="24954550"/>
    <nd ref="24954545"/>
    <nd ref="24954541"/>
    <nd ref="24954537"/>
    <nd ref="24954535"/>
    <nd ref="24954531"/>
    <nd ref="93874283"/>
    <nd ref="93874288"/>
    <nd ref="93874390"/>
    <nd ref="24954529"/>
    <nd ref="93874309"/>
    <nd ref="24954525"/>
    <nd ref="24954520"/>
    <nd ref="86091008"/>
    <nd ref="86083253"/>
    <nd ref="24954516"/>
    <nd ref="24954508"/>
    <nd ref="86083140"/>
    <nd ref="24954502"/>
    <nd ref="24954492"/>
    <nd ref="24954487"/>
    <nd ref="595975"/>
    <nd ref="246703381"/>
    <nd ref="595973"/>
    <nd ref="595971"/>
    <nd ref="595963"/>
    <nd ref="29044468"/>
    <nd ref="595960"/>
    <tag k="created_by" v="Potlatch 0.8"/>
    <tag k="highway" v="trunk"/>
    <tag k="int_ref" v="E52"/>
    <tag k="oneway" v="true"/>
    <tag k="ref" v="B28"/>
  </way>
  <way id="4211725" version="6" timestamp="2009-06-17T21:36:22Z" uid="6269" user="Mueck" changeset="1549517">
    <nd ref="15750606"/>
    <nd ref="249216040"/>
    <nd ref="24955139"/>
    <nd ref="24955140"/>
    <nd ref="278853103"/>
    <nd ref="278853111"/>
    <nd ref="401859971"/>
    <nd ref="33505517"/>
    <nd ref="33505520"/>
    <nd ref="401859972"/>
    <nd ref="33505524"/>
    <nd ref="33505531"/>
    <nd ref="33505532"/>
    <nd ref="33505518"/>
    <tag k="created_by" v="Potlatch 0.7b"/>
    <tag k="highway" v="track"/>
    <tag k="smoothness" v="intermediate"/>
    <tag k="surface" v="compacted"/>
    <tag k="tracktype" v="grade2"/>
  </way>
  <way id="4211725" version="8" timestamp="2010-06-27T19:45:58Z" uid="6269" user="Mueck" changeset="5091894">
    <nd ref="15750606"/>
    <nd ref="249216040"/>
    <nd ref="24955139"/>
    <nd ref="24955140"/>
    <nd ref="278853103"/>
    <nd ref="278853111"/>
    <nd ref="401859971"/>
    <nd ref="33505517"/>
    <nd ref="33505520"/>
    <nd ref="401859972"/>
    <nd ref="566756061"/>
    <nd ref="33505524"/>
    <nd ref="33505531"/>
    <nd ref="33505532"/>
    <nd ref="793485918"/>
    <nd ref="33505518"/>
    <tag k="highway" v="track"/>
    <tag k="smoothness" v="intermediate"/>
    <tag k="surface" v="compacted"/>
    <tag k="tracktype" v="grade2"/>
  </way>
  <way id="4211726" version="2" timestamp="2008-02-14T15:03:21Z" uid="6269" user="Mueck" changeset="120280">
    <nd ref="24955170"/>
    <nd ref="24955180"/>
    <nd ref="24955173"/>
    <nd ref="24955179"/>
    <nd ref="24955169"/>
    <nd ref="24955178"/>
    <nd ref="24955172"/>
    <nd ref="24955177"/>
    <nd ref="24955171"/>
    <nd ref="24955176"/>
    <nd ref="24955175"/>
    <nd ref="24955183"/>
    <nd ref="24955168"/>
    <nd ref="24955182"/>
    <nd ref="24955174"/>
    <nd ref="24955181"/>
    <nd ref="24955170"/>
    <tag k="created_by" v="Potlatch 0.7a"/>
    <tag k="highway" v="secondary"/>
    <tag k="junction" v="roundabout"/>
  </way>
  <way id="4211726" version="3" timestamp="2008-08-11T10:07:36Z" uid="6269" user="Mueck" changeset="188275">
    <nd ref="24955170"/>
    <nd ref="24955180"/>
    <nd ref="24955173"/>
    <nd ref="24955179"/>
    <nd ref="24955169"/>
    <nd ref="24955178"/>
    <nd ref="24955172"/>
    <nd ref="24955177"/>
    <nd ref="24955171"/>
    <nd ref="24955176"/>
    <nd ref="24955175"/>
    <nd ref="24955183"/>
    <nd ref="24955168"/>
    <nd ref="24955182"/>
    <nd ref="24955174"/>
    <nd ref="24955181"/>
    <nd ref="24955170"/>
    <tag k="created_by" v="Potlatch 0.10b"/>
    <tag k="highway" v="primary"/>
    <tag k="junction" v="roundabout"/>
  </way>
  <way id="4211726" version="5" timestamp="2008-12-01T19:23:19Z" uid="6269" user="Mueck" changeset="11996">
    <nd ref="24955170"/>
    <nd ref="24955180"/>
    <nd ref="24955173"/>
    <nd ref="24955179"/>
    <nd ref="24955169"/>
    <nd ref="24955178"/>
    <nd ref="24955172"/>
    <nd ref="24955177"/>
    <nd ref="24955171"/>
    <nd ref="24955176"/>
    <nd ref="24955175"/>
    <nd ref="24955183"/>
    <nd ref="24955168"/>
    <nd ref="24955182"/>
    <nd ref="24955174"/>
    <nd ref="24955181"/>
    <nd ref="24955170"/>
    <tag k="created_by" v="Potlatch 0.10f"/>
    <tag k="highway" v="primary"/>
    <tag k="junction" v="roundabout"/>
  </way>
  <way id="4211727" version="2" timestamp="2008-02-14T15:01:33Z" uid="6269" user="Mueck" changeset="120280">
    <nd ref="16477266"/>
    <nd ref="24955164"/>
    <nd ref="24955165"/>
    <nd ref="24955166"/>
    <nd ref="24955167"/>
    <nd ref="24955180"/>
    <tag k="created_by" v="Potlatch 0.7a"/>
    <tag k="highway" v="secondary"/>
  </way>
  <way id="4211727" version="3" timestamp="2008-08-11T10:07:51Z" uid="6269" user="Mueck" changeset="188275">
    <nd ref="16477266"/>
    <nd ref="24955164"/>
    <nd ref="24955165"/>
    <nd ref="24955166"/>
    <nd ref="24955167"/>
    <nd ref="24955180"/>
    <tag k="created_by" v="Potlatch 0.10b"/>
    <tag k="highway" v="primary"/>
    <tag k="note" v="im SHP des NVK: I"/>
  </way>
  <way id="4211727" version="5" timestamp="2008-10-20T10:55:13Z" uid="6269" user="Mueck" changeset="468895">
    <nd ref="16477266"/>
    <nd ref="24955164"/>
    <nd ref="24955165"/>
    <nd ref="24955166"/>
    <nd ref="24955167"/>
    <nd ref="24955180"/>
    <tag k="created_by" v="Potlatch 0.10e"/>
    <tag k="highway" v="primary"/>
    <tag k="note" v="im SHP des NVK: I"/>
  </way>
  <way id="4211727" version="7" timestamp="2008-12-01T19:23:01Z" uid="6269" user="Mueck" changeset="11996">
    <nd ref="16477266"/>
    <nd ref="24955164"/>
    <nd ref="24955165"/>
    <nd ref="24955166"/>
    <nd ref="24955167"/>
    <nd ref="24955180"/>
    <tag k="created_by" v="Potlatch 0.10f"/>
    <tag k="highway" v="primary"/>
    <tag k="note" v="im SHP des NVK: I"/>
  </way>
  <way id="4211728" version="2" timestamp="2008-02-14T15:01:41Z" uid="6269" user="Mueck" changeset="120280">
    <nd ref="24955171"/>
    <nd ref="24955184"/>
    <nd ref="24955185"/>
    <nd ref="24955186"/>
    <nd ref="24955187"/>
    <nd ref="24955194"/>
    <nd ref="24955195"/>
    <tag k="created_by" v="Potlatch 0.7a"/>
    <tag k="highway" v="secondary"/>
  </way>
  <way id="4211728" version="4" timestamp="2008-08-11T10:06:49Z" uid="6269" user="Mueck" changeset="188275">
    <nd ref="24955171"/>
    <nd ref="266847380"/>
    <nd ref="24955185"/>
    <nd ref="24955186"/>
    <nd ref="24955187"/>
    <nd ref="24955194"/>
    <nd ref="24955195"/>
    <tag k="created_by" v="Potlatch 0.10b"/>
    <tag k="highway" v="primary"/>
    <tag k="note" v="im SHP des NVK: I"/>
  </way>
  <way id="4211729" version="5" timestamp="2009-06-17T21:49:42Z" uid="6269" user="Mueck" changeset="1549517">
    <nd ref="14915567"/>
    <nd ref="24955208"/>
    <nd ref="24955209"/>
    <nd ref="25875295"/>
    <tag k="created_by" v="Potlatch 0.9c"/>
    <tag k="highway" v="trunk_link"/>
    <tag k="motorroad" v="yes"/>
    <tag k="oneway" v="yes"/>
    <tag k="ref" v="B 3"/>
  </way>
  <way id="4211731" version="3" timestamp="2010-05-29T19:46:58Z" uid="6269" user="Mueck" changeset="4845394">
    <nd ref="24955212"/>
    <nd ref="757340161"/>
    <nd ref="15750681"/>
    <nd ref="15750674"/>
    <tag k="highway" v="service"/>
  </way>
  <way id="4211736" version="7" timestamp="2009-06-17T21:45:33Z" uid="6269" user="Mueck" changeset="1549517">
    <nd ref="25875295"/>
    <nd ref="26202200"/>
    <nd ref="26202199"/>
    <nd ref="24955214"/>
    <nd ref="24955213"/>
    <nd ref="24955152"/>
    <nd ref="24955151"/>
    <nd ref="25875321"/>
    <nd ref="25875323"/>
    <nd ref="25875329"/>
    <tag k="created_by" v="Potlatch 0.10d"/>
    <tag k="highway" v="trunk"/>
    <tag k="motorroad" v="no"/>
    <tag k="oneway" v="yes"/>
    <tag k="ref" v="B 3"/>
  </way>
  <way id="4211738" version="3" timestamp="2009-06-17T21:46:08Z" uid="6269" user="Mueck" changeset="1549517">
    <nd ref="24955214"/>
    <nd ref="26202285"/>
    <nd ref="26202284"/>
    <nd ref="15750646"/>
    <tag k="created_by" v="Potlatch 0.10d"/>
    <tag k="highway" v="trunk_link"/>
    <tag k="motorroad" v="no"/>
    <tag k="oneway" v="yes"/>
  </way>
  <way id="4211739" version="5" timestamp="2008-08-11T10:09:57Z" uid="6269" user="Mueck" changeset="188275">
    <nd ref="15750606"/>
    <nd ref="24955142"/>
    <nd ref="278853173"/>
    <nd ref="24955143"/>
    <nd ref="278853177"/>
    <nd ref="24955144"/>
    <nd ref="24955145"/>
    <nd ref="24955146"/>
    <nd ref="24955147"/>
    <nd ref="28575904"/>
    <nd ref="24955148"/>
    <tag k="created_by" v="Potlatch 0.10b"/>
    <tag k="highway" v="secondary"/>
    <tag k="note" v="im SHP des NVK: II"/>
    <tag k="ref" v="K 3581"/>
  </way>
  <way id="4211739" version="9" timestamp="2010-06-13T14:37:38Z" uid="6269" user="Mueck" changeset="4978915">
    <nd ref="15750606"/>
    <nd ref="24955142"/>
    <nd ref="278853173"/>
    <nd ref="24955143"/>
    <nd ref="278853177"/>
    <nd ref="24955144"/>
    <nd ref="24955145"/>
    <nd ref="24955146"/>
    <nd ref="28575904"/>
    <nd ref="582591053"/>
    <nd ref="24955148"/>
    <tag k="highway" v="secondary"/>
    <tag k="maxspeed" v="100"/>
    <tag k="note" v="im SHP des NVK: II"/>
    <tag k="ref" v="K 3581"/>
  </way>
  <way id="4211739" version="10" timestamp="2010-06-15T20:41:53Z" uid="6269" user="Mueck" changeset="4995302">
    <nd ref="15750606"/>
    <nd ref="24955142"/>
    <nd ref="278853173"/>
    <nd ref="24955143"/>
    <nd ref="278853177"/>
    <nd ref="24955144"/>
    <nd ref="24955145"/>
    <nd ref="24955146"/>
    <nd ref="773265630"/>
    <nd ref="28575904"/>
    <nd ref="582591053"/>
    <nd ref="24955148"/>
    <tag k="highway" v="secondary"/>
    <tag k="maxspeed" v="100"/>
    <tag k="note" v="im SHP des NVK: II"/>
    <tag k="ref" v="K 3581"/>
  </way>
  <way id="4211740" version="2" timestamp="2008-02-14T14:45:56Z" uid="6269" user="Mueck" changeset="120280">
    <nd ref="24955149"/>
    <nd ref="24955153"/>
    <nd ref="24955154"/>
    <nd ref="247650667"/>
    <nd ref="24955155"/>
    <nd ref="25875395"/>
    <nd ref="24955156"/>
    <nd ref="24955157"/>
    <nd ref="26033788"/>
    <nd ref="24955158"/>
    <nd ref="24955159"/>
    <nd ref="24955160"/>
    <nd ref="24955161"/>
    <nd ref="24955162"/>
    <nd ref="24955163"/>
    <nd ref="16477312"/>
    <tag k="created_by" v="Potlatch 0.7a"/>
    <tag k="highway" v="secondary"/>
  </way>
  <way id="4211740" version="3" timestamp="2008-02-14T14:58:29Z" uid="6269" user="Mueck" changeset="120280">
    <nd ref="24955149"/>
    <nd ref="24955153"/>
    <nd ref="24955154"/>
    <nd ref="247650667"/>
    <nd ref="24955155"/>
    <nd ref="247651598"/>
    <nd ref="25875395"/>
    <nd ref="24955156"/>
    <nd ref="24955157"/>
    <nd ref="26033788"/>
    <nd ref="24955158"/>
    <nd ref="24955159"/>
    <nd ref="24955160"/>
    <nd ref="24955161"/>
    <nd ref="24955162"/>
    <nd ref="24955163"/>
    <nd ref="16477312"/>
    <tag k="created_by" v="Potlatch 0.7a"/>
    <tag k="highway" v="secondary"/>
  </way>
  <way id="4211740" version="6" timestamp="2008-08-11T10:08:56Z" uid="6269" user="Mueck" changeset="188275">
    <nd ref="24955149"/>
    <nd ref="24955153"/>
    <nd ref="24955154"/>
    <nd ref="247650667"/>
    <nd ref="24955155"/>
    <nd ref="247651598"/>
    <tag k="created_by" v="Potlatch 0.10b"/>
    <tag k="highway" v="primary"/>
    <tag k="oneway" v="true"/>
  </way>
  <way id="4211740" version="7" timestamp="2008-08-11T10:09:18Z" uid="6269" user="Mueck" changeset="188275">
    <nd ref="24955149"/>
    <nd ref="24955153"/>
    <nd ref="24955154"/>
    <nd ref="247650667"/>
    <nd ref="24955155"/>
    <nd ref="247651598"/>
    <tag k="created_by" v="Potlatch 0.10b"/>
    <tag k="highway" v="primary"/>
    <tag k="oneway" v="true"/>
  </way>
  <way id="4211740" version="9" timestamp="2008-10-20T10:54:36Z" uid="6269" user="Mueck" changeset="468895">
    <nd ref="24955149"/>
    <nd ref="24955153"/>
    <nd ref="24955154"/>
    <nd ref="247650667"/>
    <nd ref="24955155"/>
    <nd ref="247651598"/>
    <tag k="created_by" v="Potlatch 0.10e"/>
    <tag k="highway" v="primary"/>
    <tag k="oneway" v="yes"/>
    <tag k="ref" v="L 607"/>
  </way>
  <way id="4211740" version="10" timestamp="2008-10-20T10:54:55Z" uid="6269" user="Mueck" changeset="468895"/>
  <way id="4211741" version="2" timestamp="2008-02-14T15:02:00Z" uid="6269" user="Mueck" changeset="120280">
    <nd ref="24955187"/>
    <nd ref="24955188"/>
    <nd ref="24955189"/>
    <nd ref="24955190"/>
    <nd ref="24955191"/>
    <nd ref="24955192"/>
    <nd ref="24955193"/>
    <tag k="created_by" v="Potlatch 0.7a"/>
    <tag k="highway" v="secondary"/>
  </way>
  <way id="4211741" version="3" timestamp="2008-08-11T10:07:02Z" uid="6269" user="Mueck" changeset="188275">
    <nd ref="24955187"/>
    <nd ref="24955188"/>
    <nd ref="24955189"/>
    <nd ref="24955190"/>
    <nd ref="24955191"/>
    <nd ref="24955192"/>
    <nd ref="24955193"/>
    <tag k="created_by" v="Potlatch 0.10b"/>
    <tag k="highway" v="primary_link"/>
  </way>
  <way id="4211745" version="5" timestamp="2009-09-23T15:53:27Z" uid="6269" user="Mueck" changeset="2596838">
    <nd ref="24955227"/>
    <nd ref="506255287"/>
    <nd ref="24955228"/>
    <nd ref="14911343"/>
    <tag k="highway" v="unclassified"/>
    <tag k="name" v="Am Stadtgarten"/>
    <tag k="oneway" v="yes"/>
  </way>
  <way id="4211746" version="4" timestamp="2008-07-30T10:39:07Z" uid="6269" user="Mueck" changeset="628766">
    <nd ref="25448752"/>
    <nd ref="14961092"/>
    <nd ref="278986547"/>
    <nd ref="14961093"/>
    <nd ref="278986546"/>
    <nd ref="14961095"/>
    <nd ref="278986545"/>
    <nd ref="14852027"/>
    <nd ref="14961086"/>
    <nd ref="14961087"/>
    <nd ref="24913353"/>
    <nd ref="14961088"/>
    <nd ref="274562819"/>
    <nd ref="14961090"/>
    <tag k="created_by" v="Potlatch 0.10a"/>
    <tag k="highway" v="secondary"/>
    <tag k="name" v="Schwarzwaldstraße"/>
    <tag k="note" v="im SHP des NVK: II"/>
  </way>
  <way id="4211746" version="8" timestamp="2011-01-26T11:52:10Z" uid="6269" user="Mueck" changeset="7092640">
    <nd ref="25448752"/>
    <nd ref="14961092"/>
    <nd ref="1121601466"/>
    <nd ref="1121601438"/>
    <nd ref="278986547"/>
    <nd ref="14961093"/>
    <nd ref="278986546"/>
    <nd ref="14961095"/>
    <nd ref="278986545"/>
    <nd ref="1121601406"/>
    <nd ref="14852027"/>
    <tag k="highway" v="secondary"/>
    <tag k="name" v="Schwarzwaldstraße"/>
    <tag k="note" v="im SHP des NVK: II"/>
  </way>
  <way id="4211747" version="2" timestamp="2008-07-30T10:41:20Z" uid="6269" user="Mueck" changeset="628766">
    <nd ref="526064"/>
    <nd ref="14961090"/>
    <tag k="created_by" v="Potlatch 0.10a"/>
    <tag k="highway" v="secondary"/>
  </way>
  <way id="4211747" version="6" timestamp="2009-09-27T16:36:49Z" uid="6269" user="Mueck" changeset="2654897">
    <nd ref="526064"/>
    <nd ref="510802796"/>
    <nd ref="374232537"/>
    <nd ref="479297888"/>
    <nd ref="14961090"/>
    <tag k="highway" v="secondary"/>
  </way>
  <way id="4211748" version="2" timestamp="2008-07-30T11:02:15Z" uid="6269" user="Mueck" changeset="628766">
    <nd ref="14963344"/>
    <nd ref="30920044"/>
    <nd ref="14963279"/>
    <tag k="created_by" v="Potlatch 0.10a"/>
    <tag k="highway" v="secondary"/>
    <tag k="name" v="Yorckstraße"/>
    <tag k="note" v="im SHP des NVK: II"/>
    <tag k="oneway" v="true"/>
  </way>
  <way id="4211749" version="2" timestamp="2008-07-30T11:02:24Z" uid="6269" user="Mueck" changeset="628766">
    <nd ref="412356"/>
    <nd ref="15520025"/>
    <nd ref="15520034"/>
    <nd ref="15357697"/>
    <tag k="created_by" v="Potlatch 0.10a"/>
    <tag k="highway" v="secondary"/>
    <tag k="name" v="Yorckstraße"/>
    <tag k="note" v="im SHP des NVK: II"/>
    <tag k="oneway" v="true"/>
  </way>
  <way id="4211749" version="5" timestamp="2011-02-02T01:27:32Z" uid="6269" user="Mueck" changeset="7161065">
    <nd ref="412356"/>
    <nd ref="1131836013"/>
    <nd ref="15520025"/>
    <nd ref="15520034"/>
    <nd ref="15357697"/>
    <tag k="highway" v="secondary"/>
    <tag k="name" v="Yorckstraße"/>
    <tag k="note" v="im SHP des NVK: II"/>
    <tag k="oneway" v="yes"/>
  </way>
  <way id="4211750" version="2" timestamp="2008-07-30T11:02:27Z" uid="6269" user="Mueck" changeset="628766">
    <nd ref="15520003"/>
    <nd ref="15520036"/>
    <nd ref="15520031"/>
    <nd ref="15521140"/>
    <tag k="created_by" v="Potlatch 0.10a"/>
    <tag k="highway" v="secondary"/>
    <tag k="name" v="Yorckstraße"/>
    <tag k="note" v="im SHP des NVK: II"/>
    <tag k="oneway" v="true"/>
  </way>
  <way id="4211750" version="5" timestamp="2011-02-02T01:27:33Z" uid="6269" user="Mueck" changeset="7161065">
    <nd ref="15520003"/>
    <nd ref="15520036"/>
    <nd ref="15520031"/>
    <nd ref="1131835852"/>
    <nd ref="15521140"/>
    <tag k="highway" v="secondary"/>
    <tag k="name" v="Yorckstraße"/>
    <tag k="note" v="im SHP des NVK: II"/>
    <tag k="oneway" v="yes"/>
  </way>
  <way id="4211751" version="3" timestamp="2011-03-29T23:06:31Z" uid="6269" user="Mueck" changeset="7711468">
    <nd ref="24955229"/>
    <nd ref="1224777634"/>
    <nd ref="24955230"/>
    <nd ref="1224777620"/>
    <nd ref="24955231"/>
    <nd ref="1224777635"/>
    <nd ref="24955232"/>
    <nd ref="1224777612"/>
    <nd ref="24955233"/>
    <nd ref="1224777614"/>
    <nd ref="24955234"/>
    <nd ref="1224777622"/>
    <nd ref="24955235"/>
    <nd ref="1224777636"/>
    <nd ref="24955236"/>
    <nd ref="1224777609"/>
    <nd ref="24955237"/>
    <nd ref="1224777641"/>
    <nd ref="24955238"/>
    <nd ref="1224777633"/>
    <nd ref="24955239"/>
    <nd ref="1224777630"/>
    <nd ref="24955240"/>
    <nd ref="1224777642"/>
    <nd ref="24955241"/>
    <nd ref="1224777624"/>
    <nd ref="1224777611"/>
    <nd ref="24955229"/>
    <tag k="leisure" v="park"/>
    <tag k="name" v="Yorckplatz"/>
  </way>
  <way id="4211752" version="4" timestamp="2011-01-05T23:46:48Z" uid="6269" user="Mueck" changeset="6877660">
    <nd ref="23053586"/>
    <nd ref="530273300"/>
    <nd ref="15843279"/>
    <tag k="highway" v="residential"/>
    <tag k="name" v="Diakonissenstraße"/>
    <tag k="oneway" v="yes"/>
  </way>
  <way id="4211752" version="5" timestamp="2011-01-26T17:55:56Z" uid="6269" user="Mueck" changeset="7094659">
    <nd ref="23053586"/>
    <nd ref="1122142993"/>
    <nd ref="1122142813"/>
    <nd ref="1122142460"/>
    <nd ref="530273300"/>
    <nd ref="15843279"/>
    <tag k="highway" v="residential"/>
    <tag k="name" v="Diakonissenstraße"/>
    <tag k="oneway" v="yes"/>
  </way>
  <way id="4211754" version="2" timestamp="2008-03-29T16:56:49Z" uid="16922" user="amai" changeset="420423">
    <nd ref="14912567"/>
    <nd ref="14912568"/>
    <tag k="created_by" v="Potlatch 0.8"/>
    <tag k="highway" v="residential"/>
    <tag k="maxspeed" v="30"/>
    <tag k="name" v="Hölderlinstraße"/>
    <tag k="oneway" v="yes"/>
  </way>
  <way id="4211754" version="5" timestamp="2011-02-10T00:01:32Z" uid="6269" user="Mueck" changeset="7241697">
    <nd ref="14912567"/>
    <nd ref="1144841416"/>
    <nd ref="465207867"/>
    <nd ref="14912568"/>
    <tag k="highway" v="residential"/>
    <tag k="maxspeed" v="30"/>
    <tag k="name" v="Hölderlinstraße"/>
    <tag k="oneway" v="yes"/>
  </way>
  <way id="4211800" version="7" timestamp="2011-01-30T18:04:07Z" uid="6269" user="Mueck" changeset="7137318">
    <nd ref="14963318"/>
    <nd ref="420527308"/>
    <nd ref="1128271669"/>
    <nd ref="16082520"/>
    <nd ref="29050154"/>
    <nd ref="440732209"/>
    <nd ref="29050155"/>
    <nd ref="497380295"/>
    <nd ref="480482194"/>
    <nd ref="14963253"/>
    <tag k="highway" v="residential"/>
    <tag k="name" v="Wilhelm-Baur-Straße"/>
  </way>
  <way id="4211800" version="8" timestamp="2011-01-30T18:05:52Z" uid="6269" user="Mueck" changeset="7137318">
    <nd ref="14963318"/>
    <nd ref="1128274275"/>
    <nd ref="420527308"/>
    <nd ref="1128271669"/>
    <nd ref="16082520"/>
    <nd ref="29050154"/>
    <nd ref="440732209"/>
    <nd ref="29050155"/>
    <nd ref="497380295"/>
    <nd ref="480482194"/>
    <nd ref="14963253"/>
    <tag k="highway" v="residential"/>
    <tag k="name" v="Wilhelm-Baur-Straße"/>
  </way>
  <way id="4211800" version="9" timestamp="2011-03-30T21:26:11Z" uid="6269" user="Mueck" changeset="7720894">
    <nd ref="14963318"/>
    <nd ref="1128274275"/>
    <nd ref="420527308"/>
    <nd ref="1128271669"/>
    <nd ref="16082520"/>
    <nd ref="29050154"/>
    <nd ref="440732209"/>
    <nd ref="29050155"/>
    <nd ref="497380295"/>
    <nd ref="14963253"/>
    <tag k="highway" v="residential"/>
    <tag k="name" v="Wilhelm-Baur-Straße"/>
  </way>
  <way id="4211806" version="3" timestamp="2008-02-20T14:03:08Z" uid="6269" user="Mueck" changeset="164462">
    <nd ref="14911364"/>
    <nd ref="14892147"/>
    <tag k="created_by" v="Potlatch 0.7b"/>
    <tag k="highway" v="residential"/>
    <tag k="name" v="Victor-Gollancz-Straße"/>
    <tag k="oneway" v="true"/>
  </way>
  <way id="4211806" version="6" timestamp="2009-09-27T16:39:39Z" uid="6269" user="Mueck" changeset="2654897">
    <nd ref="14911364"/>
    <nd ref="510804079"/>
    <nd ref="510804082"/>
    <tag k="highway" v="residential"/>
    <tag k="name" v="Victor-Gollancz-Straße"/>
    <tag k="oneway" v="yes"/>
  </way>
  <way id="4211806" version="7" timestamp="2009-09-27T16:40:56Z" uid="6269" user="Mueck" changeset="2654897">
    <nd ref="14911364"/>
    <nd ref="510804079"/>
    <nd ref="510804931"/>
    <nd ref="510804082"/>
    <tag k="highway" v="residential"/>
    <tag k="name" v="Victor-Gollancz-Straße"/>
    <tag k="oneway" v="yes"/>
  </way>
  <way id="4211806" version="8" timestamp="2009-09-27T16:43:58Z" uid="6269" user="Mueck" changeset="2655011">
    <nd ref="14911364"/>
    <nd ref="510804079"/>
    <nd ref="510807224"/>
    <nd ref="510804931"/>
    <nd ref="510804082"/>
    <tag k="highway" v="residential"/>
    <tag k="name" v="Victor-Gollancz-Straße"/>
    <tag k="oneway" v="yes"/>
  </way>
  <way id="4211806" version="9" timestamp="2009-09-27T16:48:06Z" uid="6269" user="Mueck" changeset="2655011">
    <nd ref="14911364"/>
    <nd ref="510804079"/>
    <nd ref="510807224"/>
    <tag k="highway" v="residential"/>
    <tag k="name" v="Victor-Gollancz-Straße"/>
    <tag k="oneway" v="yes"/>
  </way>
  <way id="4211806" version="10" timestamp="2011-01-24T16:35:04Z" uid="6269" user="Mueck" changeset="7073890">
    <nd ref="14911364"/>
    <nd ref="510804079"/>
    <nd ref="1118886350"/>
    <nd ref="1118886393"/>
    <nd ref="510807224"/>
    <tag k="highway" v="residential"/>
    <tag k="name" v="Victor-Gollancz-Straße"/>
    <tag k="oneway" v="yes"/>
  </way>
  <way id="4211829" version="4" timestamp="2009-06-27T19:14:12Z" uid="6269" user="Mueck" changeset="1652432">
    <nd ref="24955614"/>
    <nd ref="429936885"/>
    <nd ref="24955618"/>
    <nd ref="247942323"/>
    <tag k="highway" v="unclassified"/>
    <tag k="name" v="Hochbahnstraße"/>
  </way>
  <way id="4211832" version="5" timestamp="2009-06-27T18:51:48Z" uid="6269" user="Mueck" changeset="1652432">
    <nd ref="24955777"/>
    <nd ref="429925656"/>
    <nd ref="24955765"/>
    <nd ref="24955763"/>
    <nd ref="24955761"/>
    <nd ref="255857375"/>
    <nd ref="248822644"/>
    <nd ref="247943585"/>
    <nd ref="247943584"/>
    <nd ref="16571773"/>
    <nd ref="247943582"/>
    <tag k="highway" v="unclassified"/>
    <tag k="name" v="Werftstraße"/>
  </way>
  <way id="4211832" version="6" timestamp="2009-06-27T18:53:35Z" uid="6269" user="Mueck" changeset="1652432">
    <nd ref="24955777"/>
    <nd ref="429925656"/>
    <nd ref="429925999"/>
    <nd ref="24955765"/>
    <nd ref="24955763"/>
    <nd ref="24955761"/>
    <nd ref="255857375"/>
    <nd ref="248822644"/>
    <nd ref="247943585"/>
    <nd ref="247943584"/>
    <nd ref="16571773"/>
    <nd ref="247943582"/>
    <tag k="highway" v="unclassified"/>
    <tag k="name" v="Werftstraße"/>
  </way>
  <way id="4211832" version="7" timestamp="2009-06-27T18:54:35Z" uid="6269" user="Mueck" changeset="1652432">
    <nd ref="24955777"/>
    <nd ref="429925656"/>
    <nd ref="429925999"/>
    <nd ref="429926911"/>
    <nd ref="24955765"/>
    <nd ref="24955763"/>
    <nd ref="24955761"/>
    <nd ref="255857375"/>
    <nd ref="248822644"/>
    <nd ref="247943585"/>
    <nd ref="247943584"/>
    <nd ref="16571773"/>
    <nd ref="247943582"/>
    <tag k="highway" v="unclassified"/>
    <tag k="name" v="Werftstraße"/>
  </way>
  <way id="4211832" version="8" timestamp="2009-06-27T18:56:30Z" uid="6269" user="Mueck" changeset="1652432">
    <nd ref="24955777"/>
    <nd ref="429925656"/>
    <nd ref="429925999"/>
    <nd ref="429926911"/>
    <nd ref="24955765"/>
    <nd ref="24955763"/>
    <nd ref="429927651"/>
    <nd ref="24955761"/>
    <nd ref="255857375"/>
    <nd ref="248822644"/>
    <nd ref="247943585"/>
    <nd ref="247943584"/>
    <nd ref="16571773"/>
    <nd ref="247943582"/>
    <tag k="highway" v="unclassified"/>
    <tag k="name" v="Werftstraße"/>
  </way>
  <way id="4211832" version="9" timestamp="2009-06-27T18:59:14Z" uid="6269" user="Mueck" changeset="1652432">
    <nd ref="24955777"/>
    <nd ref="429925656"/>
    <nd ref="429925999"/>
    <nd ref="429926911"/>
    <nd ref="24955765"/>
    <nd ref="24955763"/>
    <nd ref="429927651"/>
    <nd ref="24955761"/>
    <nd ref="255857375"/>
    <nd ref="248822644"/>
    <nd ref="247943585"/>
    <nd ref="247943584"/>
    <nd ref="16571773"/>
    <nd ref="429929272"/>
    <nd ref="429929035"/>
    <nd ref="247943582"/>
    <tag k="highway" v="unclassified"/>
    <tag k="name" v="Werftstraße"/>
  </way>
  <way id="4211832" version="10" timestamp="2009-06-27T18:59:52Z" uid="6269" user="Mueck" changeset="1652432">
    <nd ref="24955777"/>
    <nd ref="429925656"/>
    <nd ref="429925999"/>
    <nd ref="429926911"/>
    <nd ref="429929401"/>
    <nd ref="24955765"/>
    <nd ref="24955763"/>
    <nd ref="429927651"/>
    <nd ref="24955761"/>
    <nd ref="255857375"/>
    <nd ref="248822644"/>
    <nd ref="247943585"/>
    <nd ref="247943584"/>
    <nd ref="16571773"/>
    <nd ref="429929272"/>
    <nd ref="429929035"/>
    <nd ref="247943582"/>
    <tag k="highway" v="unclassified"/>
    <tag k="name" v="Werftstraße"/>
  </way>
  <way id="4211832" version="11" timestamp="2009-06-27T19:03:32Z" uid="6269" user="Mueck" changeset="1652432">
    <nd ref="24955777"/>
    <nd ref="429925656"/>
    <nd ref="429925999"/>
    <nd ref="429930615"/>
    <nd ref="429926911"/>
    <nd ref="429929401"/>
    <nd ref="24955765"/>
    <nd ref="24955763"/>
    <nd ref="429927651"/>
    <nd ref="24955761"/>
    <nd ref="255857375"/>
    <nd ref="248822644"/>
    <nd ref="247943585"/>
    <nd ref="247943584"/>
    <nd ref="16571773"/>
    <nd ref="429929272"/>
    <nd ref="429929035"/>
    <nd ref="247943582"/>
    <tag k="highway" v="unclassified"/>
    <tag k="name" v="Werftstraße"/>
  </way>
  <way id="4211832" version="14" timestamp="2010-12-07T11:58:12Z" uid="6269" user="Mueck" changeset="6573762">
    <nd ref="24955777"/>
    <nd ref="429925656"/>
    <nd ref="429925999"/>
    <nd ref="1026360886"/>
    <nd ref="429930615"/>
    <nd ref="429926911"/>
    <nd ref="429929401"/>
    <nd ref="24955765"/>
    <nd ref="24955763"/>
    <nd ref="429927651"/>
    <nd ref="24955761"/>
    <nd ref="255857375"/>
    <nd ref="248822644"/>
    <nd ref="695156047"/>
    <nd ref="247943585"/>
    <nd ref="247943584"/>
    <nd ref="771785859"/>
    <nd ref="16571773"/>
    <nd ref="429928712"/>
    <nd ref="247943582"/>
    <tag k="highway" v="unclassified"/>
    <tag k="name" v="Werftstraße"/>
  </way>
  <way id="4211832" version="15" timestamp="2011-03-10T01:14:53Z" uid="6269" user="Mueck" changeset="7510286">
    <nd ref="24955777"/>
    <nd ref="429925656"/>
    <nd ref="429925999"/>
    <nd ref="1026360886"/>
    <nd ref="429926911"/>
    <nd ref="429929401"/>
    <nd ref="24955765"/>
    <nd ref="24955763"/>
    <nd ref="429927651"/>
    <nd ref="24955761"/>
    <nd ref="1194844361"/>
    <nd ref="255857375"/>
    <nd ref="248822644"/>
    <nd ref="1194844438"/>
    <nd ref="695156047"/>
    <nd ref="247943585"/>
    <nd ref="247943584"/>
    <nd ref="1194844350"/>
    <nd ref="16571773"/>
    <nd ref="429928712"/>
    <nd ref="247943582"/>
    <tag k="highway" v="unclassified"/>
    <tag k="name" v="Werftstraße"/>
  </way>
  <way id="4211832" version="16" timestamp="2011-03-10T19:51:40Z" uid="6269" user="Mueck" changeset="7517596">
    <nd ref="24955777"/>
    <nd ref="429925656"/>
    <nd ref="429925999"/>
    <nd ref="1026360886"/>
    <nd ref="429926911"/>
    <nd ref="429929401"/>
    <nd ref="1195795312"/>
    <nd ref="24955765"/>
    <nd ref="24955763"/>
    <nd ref="429927651"/>
    <nd ref="24955761"/>
    <nd ref="1194844361"/>
    <nd ref="255857375"/>
    <nd ref="248822644"/>
    <nd ref="1194844438"/>
    <nd ref="695156047"/>
    <nd ref="247943585"/>
    <nd ref="247943584"/>
    <nd ref="1194844350"/>
    <nd ref="16571773"/>
    <nd ref="429928712"/>
    <nd ref="247943582"/>
    <tag k="highway" v="unclassified"/>
    <tag k="name" v="Werftstraße"/>
  </way>
  <way id="4211837" version="1" timestamp="2007-01-07T20:52:37Z" uid="1066" user="pavel" changeset="190086">
    <nd ref="24579873"/>
    <nd ref="24955890"/>
    <nd ref="24955891"/>
    <nd ref="24955892"/>
    <nd ref="24955893"/>
    <nd ref="24955894"/>
    <nd ref="24955896"/>
    <nd ref="24955898"/>
    <nd ref="24955899"/>
    <nd ref="24955902"/>
    <nd ref="24699674"/>
    <nd ref="24955904"/>
    <nd ref="24955911"/>
    <nd ref="24955914"/>
    <nd ref="24955916"/>
    <nd ref="24955917"/>
    <nd ref="24581250"/>
    <tag k="created_by" v="JOSM"/>
    <tag k="name" v="097"/>
    <tag k="railway" v="rail"/>
  </way>
  <way id="4211838" version="1" timestamp="2007-01-07T20:52:39Z" uid="1066" user="pavel" changeset="190086">
    <nd ref="24955918"/>
    <nd ref="24955919"/>
    <nd ref="24955920"/>
    <nd ref="24955921"/>
    <nd ref="24588243"/>
    <tag k="created_by" v="JOSM"/>
    <tag k="railway" v="rail"/>
  </way>
  <way id="4211839" version="1" timestamp="2007-01-07T20:52:41Z" uid="1066" user="pavel" changeset="190086">
    <nd ref="24955774"/>
    <nd ref="24694598"/>
    <nd ref="24955783"/>
    <nd ref="24955791"/>
    <nd ref="24955811"/>
    <nd ref="24955813"/>
    <nd ref="24955818"/>
    <nd ref="24584767"/>
    <nd ref="24955821"/>
    <nd ref="24955847"/>
    <nd ref="24692427"/>
    <nd ref="24955872"/>
    <nd ref="24955858"/>
    <nd ref="24594395"/>
    <nd ref="24955885"/>
    <nd ref="24579873"/>
    <nd ref="24955890"/>
    <tag k="created_by" v="JOSM"/>
    <tag k="name" v="097"/>
    <tag k="railway" v="rail"/>
  </way>
  <way id="4211840" version="2" timestamp="2008-07-30T10:59:41Z" uid="6269" user="Mueck" changeset="628766">
    <nd ref="15520013"/>
    <nd ref="15520014"/>
    <nd ref="15520022"/>
    <nd ref="15431063"/>
    <nd ref="15357697"/>
    <nd ref="15520003"/>
    <nd ref="17716575"/>
    <nd ref="30919662"/>
    <nd ref="15357696"/>
    <nd ref="16082749"/>
    <nd ref="30023751"/>
    <nd ref="16082744"/>
    <nd ref="30023753"/>
    <nd ref="26355239"/>
    <nd ref="15357694"/>
    <tag k="created_by" v="Potlatch 0.10a"/>
    <tag k="highway" v="tertiary"/>
    <tag k="name" v="Sophienstraße"/>
    <tag k="note" v="im SHP des NVK: III"/>
    <tag k="oneway" v="true"/>
  </way>
  <way id="4211840" version="3" timestamp="2008-07-30T11:02:29Z" uid="6269" user="Mueck" changeset="628766">
    <nd ref="15520013"/>
    <nd ref="15520014"/>
    <nd ref="15520022"/>
    <nd ref="15431063"/>
    <nd ref="15357697"/>
    <nd ref="15520003"/>
    <tag k="created_by" v="Potlatch 0.10a"/>
    <tag k="highway" v="tertiary"/>
    <tag k="name" v="Sophienstraße"/>
    <tag k="note" v="im SHP des NVK: III"/>
    <tag k="oneway" v="true"/>
  </way>
  <way id="4211840" version="4" timestamp="2008-07-30T11:02:33Z" uid="6269" user="Mueck" changeset="628766">
    <nd ref="15520013"/>
    <nd ref="15520014"/>
    <nd ref="15520022"/>
    <nd ref="15431063"/>
    <nd ref="15357697"/>
    <tag k="created_by" v="Potlatch 0.10a"/>
    <tag k="highway" v="tertiary"/>
    <tag k="name" v="Sophienstraße"/>
    <tag k="note" v="im SHP des NVK: III"/>
    <tag k="oneway" v="true"/>
  </way>
  <way id="4211840" version="5" timestamp="2008-07-30T11:02:58Z" uid="6269" user="Mueck" changeset="628766">
    <nd ref="15520013"/>
    <nd ref="15520014"/>
    <nd ref="15520022"/>
    <nd ref="15431063"/>
    <nd ref="15357697"/>
    <tag k="created_by" v="Potlatch 0.10a"/>
    <tag k="highway" v="residential"/>
    <tag k="name" v="Sophienstraße"/>
    <tag k="note" v="im SHP des NVK: IV"/>
    <tag k="oneway" v="true"/>
  </way>
  <way id="4211840" version="8" timestamp="2010-08-05T22:43:32Z" uid="6269" user="Mueck" changeset="5412656">
    <nd ref="15520013"/>
    <nd ref="15520014"/>
    <nd ref="15520022"/>
    <nd ref="15431063"/>
    <nd ref="15357697"/>
    <tag k="bicycle" v="designated"/>
    <tag k="bicycle_road" v="yes"/>
    <tag k="highway" v="residential"/>
    <tag k="name" v="Sophienstraße"/>
    <tag k="oneway" v="yes"/>
  </way>
  <way id="4211840" version="9" timestamp="2010-08-09T09:25:49Z" uid="6269" user="Mueck" changeset="5441608"/>
  <way id="4211926" version="2" timestamp="2009-06-10T16:02:42Z" uid="6269" user="Mueck" changeset="1479175">
    <nd ref="21434664"/>
    <nd ref="21434666"/>
    <tag k="created_by" v="JOSM"/>
    <tag k="highway" v="residential"/>
    <tag k="name" v="Pfalzbahnstraße"/>
  </way>
  <way id="4211926" version="3" timestamp="2009-06-10T16:02:55Z" uid="6269" user="Mueck" changeset="1479175">
    <nd ref="21434664"/>
    <nd ref="21434666"/>
    <tag k="created_by" v="JOSM"/>
    <tag k="embankment" v="yes"/>
    <tag k="highway" v="unclassified"/>
    <tag k="name" v="Pfalzbahnstraße"/>
  </way>
  <way id="4211955" version="1" timestamp="2007-07-07T15:09:02Z" uid="8328" user="benpre" changeset="130696">
    <nd ref="24956301"/>
    <nd ref="24956302"/>
    <tag k="created_by" v="JOSM"/>
    <tag k="highway" v="residential"/>
  </way>
  <way id="4211974" version="1" timestamp="2007-01-07T22:02:32Z" uid="1066" user="pavel" changeset="190086">
    <nd ref="24956646"/>
    <nd ref="24956645"/>
    <nd ref="24956644"/>
    <nd ref="24956643"/>
    <nd ref="24956636"/>
    <nd ref="24956631"/>
    <nd ref="24956629"/>
    <tag k="created_by" v="JOSM"/>
    <tag k="railway" v="rail"/>
  </way>
  <way id="4211975" version="1" timestamp="2007-01-07T22:02:35Z" uid="1066" user="pavel" changeset="190086">
    <nd ref="24956648"/>
    <nd ref="24956647"/>
    <nd ref="24581217"/>
    <nd ref="24956628"/>
    <nd ref="24956627"/>
    <nd ref="24956629"/>
    <nd ref="24584267"/>
    <nd ref="24956626"/>
    <nd ref="24956625"/>
    <nd ref="24956624"/>
    <nd ref="24956623"/>
    <nd ref="24956622"/>
    <nd ref="24956621"/>
    <nd ref="24956620"/>
    <nd ref="24956619"/>
    <nd ref="24956618"/>
    <nd ref="24956617"/>
    <nd ref="24956616"/>
    <nd ref="24956615"/>
    <nd ref="24680277"/>
    <nd ref="24956614"/>
    <nd ref="24956613"/>
    <nd ref="24956601"/>
    <nd ref="24956548"/>
    <nd ref="24956518"/>
    <nd ref="24956481"/>
    <nd ref="24956476"/>
    <nd ref="24956475"/>
    <nd ref="24956424"/>
    <nd ref="24956422"/>
    <nd ref="24956421"/>
    <nd ref="24591751"/>
    <nd ref="24956420"/>
    <nd ref="24956419"/>
    <nd ref="24956418"/>
    <nd ref="24956417"/>
    <nd ref="24956416"/>
    <nd ref="24956415"/>
    <nd ref="24956414"/>
    <nd ref="24956413"/>
    <nd ref="24956412"/>
    <nd ref="24956411"/>
    <nd ref="24956410"/>
    <nd ref="24956409"/>
    <nd ref="24956408"/>
    <nd ref="24698493"/>
    <nd ref="24956407"/>
    <nd ref="24956406"/>
    <nd ref="24956405"/>
    <nd ref="24956404"/>
    <nd ref="24956403"/>
    <nd ref="24588951"/>
    <nd ref="24956399"/>
    <nd ref="24956401"/>
    <nd ref="24956402"/>
    <nd ref="24956441"/>
    <nd ref="24956468"/>
    <nd ref="24585362"/>
    <tag k="created_by" v="JOSM"/>
    <tag k="name" v="072"/>
    <tag k="railway" v="rail"/>
  </way>
  <way id="4211979" version="1" timestamp="2007-07-11T22:30:46Z" uid="8328" user="benpre" changeset="141044">
    <nd ref="24953146"/>
    <nd ref="24953145"/>
    <nd ref="25694681"/>
    <nd ref="24953153"/>
    <nd ref="24953160"/>
    <tag k="bicycle" v="yes"/>
    <tag k="created_by" v="JOSM"/>
    <tag k="foot" v="yes"/>
    <tag k="highway" v="secondary"/>
    <tag k="motorcar" v="yes"/>
    <tag k="name" v="Sternstraße"/>
  </way>
</osm>
