<?xml version='1.0' encoding='UTF-8'?>
<osm version="0.6" generator="libosmium/2.20.0">
  <way id="42126423" version="2" timestamp="2010-04-28T19:47:49Z" uid="20587" user="balrog-kun" changeset="4552978">
    <nd ref="523795982"/>
    <nd ref="523795984"/>
    <nd ref="710876417"/>
    <nd ref="523795987"/>
    <nd ref="254069117"/>
    <tag k="highway" v="residential"/>
    <tag k="name" v="Łódzka"/>
  </way>
  <way id="42126424" version="2" timestamp="2010-04-28T19:47:38Z" uid="20587" user="balrog-kun" changeset="4552978">
    <nd ref="523796000"/>
    <nd ref="523796004"/>
    <nd ref="523796007"/>
    <nd ref="710876414"/>
    <nd ref="423480762"/>
    <tag k="highway" v="residential"/>
    <tag k="name" v="Krótka"/>
  </way>
  <way id="42126424" version="3" timestamp="2010-05-06T02:46:50Z" uid="20587" user="balrog-kun" changeset="4618389">
    <nd ref="523796000"/>
    <nd ref="523796004"/>
    <nd ref="723637495"/>
    <nd ref="523796007"/>
    <nd ref="710876414"/>
    <nd ref="423480762"/>
    <tag k="highway" v="residential"/>
    <tag k="name" v="Krótka"/>
  </way>
  <way id="42126425" version="2" timestamp="2010-04-28T19:47:48Z" uid="20587" user="balrog-kun" changeset="4552978">
    <nd ref="423480756"/>
    <nd ref="523796017"/>
    <nd ref="523796021"/>
    <nd ref="710876428"/>
    <nd ref="523796025"/>
    <nd ref="710876399"/>
    <nd ref="710876329"/>
    <nd ref="523796030"/>
    <nd ref="523796038"/>
    <nd ref="423480729"/>
    <tag k="highway" v="residential"/>
    <tag k="name" v="Leona Babińskiego"/>
  </way>
  <way id="42126428" version="2" timestamp="2010-04-28T19:47:41Z" uid="20587" user="balrog-kun" changeset="4552978">
    <nd ref="523796076"/>
    <nd ref="710876433"/>
    <nd ref="523796077"/>
    <nd ref="523796078"/>
    <nd ref="523796079"/>
    <nd ref="523796080"/>
    <tag k="highway" v="residential"/>
    <tag k="name" v="Sybiraków"/>
  </way>
  <way id="42126429" version="2" timestamp="2010-04-28T19:47:34Z" uid="20587" user="balrog-kun" changeset="4552978">
    <nd ref="523796078"/>
    <nd ref="523796082"/>
    <nd ref="710876313"/>
    <nd ref="710876280"/>
    <nd ref="523796086"/>
    <nd ref="523796079"/>
    <tag k="highway" v="residential"/>
    <tag k="name" v="Sybiraków"/>
  </way>
  <way id="42126431" version="2" timestamp="2010-04-28T13:56:15Z" uid="20587" user="balrog-kun" changeset="4549804">
    <nd ref="523796122"/>
    <nd ref="523796128"/>
    <nd ref="523796132"/>
    <nd ref="523796134"/>
    <nd ref="710536701"/>
    <nd ref="523796138"/>
    <nd ref="710536739"/>
    <nd ref="523796139"/>
    <nd ref="710536900"/>
    <nd ref="523796140"/>
    <tag k="highway" v="residential"/>
    <tag k="name" v="Półkolista"/>
  </way>
  <way id="42126433" version="2" timestamp="2010-04-28T13:56:14Z" uid="20587" user="balrog-kun" changeset="4549804">
    <nd ref="310192761"/>
    <nd ref="523796148"/>
    <nd ref="523796152"/>
    <nd ref="710536928"/>
    <nd ref="523796156"/>
    <nd ref="523796160"/>
    <nd ref="523796165"/>
    <tag k="highway" v="residential"/>
    <tag k="name" v="Rubież"/>
  </way>
  <way id="42126433" version="3" timestamp="2010-04-29T01:04:47Z" uid="20587" user="balrog-kun" changeset="4554805">
    <nd ref="310192761"/>
    <nd ref="711189918"/>
    <nd ref="523796148"/>
    <nd ref="523796152"/>
    <nd ref="710536928"/>
    <nd ref="523796156"/>
    <nd ref="523796160"/>
    <nd ref="523796165"/>
    <tag k="highway" v="residential"/>
    <tag k="name" v="Rubież"/>
  </way>
  <way id="42126528" version="2" timestamp="2010-07-06T09:15:42Z" uid="74617" user="JohnSmith" changeset="5147679">
    <nd ref="523798764"/>
    <nd ref="344125642"/>
    <nd ref="523798766"/>
    <tag k="highway" v="residential"/>
    <tag k="maxspeed" v="50"/>
    <tag k="maxspeed:source" v="default residential speed limit in Australia"/>
    <tag k="name" v="Athabasca Close"/>
    <tag k="source" v="yahoo"/>
  </way>
  <way id="42126574" version="4" timestamp="2010-03-28T11:00:32Z" uid="20587" user="balrog-kun" changeset="4254597">
    <nd ref="86020108"/>
    <nd ref="85019490"/>
    <nd ref="86020111"/>
    <tag k="highway" v="residential"/>
    <tag k="name" v="Foster Avenue"/>
    <tag k="oneway" v="yes"/>
    <tag k="tiger:cfcc" v="A41"/>
    <tag k="tiger:county" v="Humboldt, CA"/>
    <tag k="tiger:name_base" v="Foster"/>
    <tag k="tiger:name_type" v="Ave"/>
    <tag k="tiger:reviewed" v="yes"/>
    <tag k="tiger:separated" v="no"/>
    <tag k="tiger:source" v="tiger_import_dch_v0.6_20070809"/>
    <tag k="tiger:tlid" v="113008896:113044726:113044727:113009664:112987668:112987238"/>
    <tag k="tiger:zip_left" v="95521"/>
    <tag k="tiger:zip_right" v="95521"/>
  </way>
  <way id="42126747" version="2" timestamp="2010-06-29T20:48:25Z" uid="74617" user="JohnSmith" changeset="5109183">
    <nd ref="523803840"/>
    <nd ref="523803841"/>
    <nd ref="523803850"/>
    <nd ref="523803855"/>
    <nd ref="523803858"/>
    <nd ref="523803861"/>
    <nd ref="523803866"/>
    <nd ref="523803871"/>
    <nd ref="523803878"/>
    <nd ref="523803840"/>
    <tag k="fixme" v="sport=rugby is ambiguous, see http://wiki.osm.org/wiki/Tag:sport%3Drugby for more details"/>
    <tag k="sport" v="rugby"/>
  </way>
  <way id="42126758" version="4" timestamp="2010-06-29T20:49:12Z" uid="74617" user="JohnSmith" changeset="5109183">
    <nd ref="523804021"/>
    <nd ref="523804025"/>
    <nd ref="523804032"/>
    <nd ref="523804037"/>
    <nd ref="523804021"/>
    <tag k="fixme" v="sport=rugby is ambiguous, see http://wiki.osm.org/wiki/Tag:sport%3Drugby for more details"/>
    <tag k="landuse" v="grass"/>
    <tag k="name" v="Conradie"/>
    <tag k="sport" v="rugby"/>
  </way>
  <way id="42126760" version="2" timestamp="2010-06-29T20:48:27Z" uid="74617" user="JohnSmith" changeset="5109183">
    <nd ref="523804063"/>
    <nd ref="523804068"/>
    <nd ref="523804071"/>
    <nd ref="523804073"/>
    <nd ref="523804063"/>
    <tag k="fixme" v="sport=rugby is ambiguous, see http://wiki.osm.org/wiki/Tag:sport%3Drugby for more details"/>
    <tag k="sport" v="rugby"/>
  </way>
  <way id="42126892" version="2" timestamp="2010-04-07T13:56:36Z" uid="20587" user="balrog-kun" changeset="4353646">
    <nd ref="153015273"/>
    <nd ref="153015276"/>
    <nd ref="153015280"/>
    <nd ref="152790946"/>
    <tag k="highway" v="trunk"/>
    <tag k="name" v="West 2nd St; United States Highway 79"/>
    <tag k="oneway" v="yes"/>
    <tag k="ref" v="US 79"/>
    <tag k="tiger:cfcc" v="A25"/>
    <tag k="tiger:county" v="Williamson, TX"/>
    <tag k="tiger:name_base" v="2nd"/>
    <tag k="tiger:name_base_1" v="US Hwy 79B (Bus)"/>
    <tag k="tiger:name_direction_prefix" v="W"/>
    <tag k="tiger:name_type" v="St"/>
    <tag k="tiger:separated" v="yes"/>
    <tag k="tiger:source" v="tiger_import_dch_v0.6_20070830"/>
    <tag k="tiger:tlid" v="126521797:126522496"/>
  </way>
</osm>
