<?xml version='1.0' encoding='UTF-8'?>
<osm version="0.6" generator="libosmium/2.20.0">
  <way id="42154000" version="2" timestamp="2009-10-10T09:42:53Z" uid="20587" user="balrog-kun" changeset="2801655">
    <nd ref="524240736"/>
    <nd ref="524240685"/>
    <nd ref="524240704"/>
    <nd ref="524240652"/>
    <nd ref="524240736"/>
    <tag k="attribution" v="Mono County GIS"/>
    <tag k="building" v="yes"/>
  </way>
  <way id="42154002" version="2" timestamp="2009-10-10T09:42:53Z" uid="20587" user="balrog-kun" changeset="2801655">
    <nd ref="524240749"/>
    <nd ref="524240898"/>
    <nd ref="524242584"/>
    <nd ref="524240720"/>
    <nd ref="524240749"/>
    <tag k="PrntAsmtNu" v="015075004000"/>
    <tag k="addr:city" v="June Lake"/>
    <tag k="addr:housenumber" v="2604"/>
    <tag k="addr:street" v="158"/>
    <tag k="attribution" v="Mono County GIS"/>
    <tag k="building" v="yes"/>
    <tag k="name" v="Ernie&apos; Tackle and Ski"/>
  </way>
  <way id="42154004" version="2" timestamp="2009-10-10T09:42:54Z" uid="20587" user="balrog-kun" changeset="2801655">
    <nd ref="524239718"/>
    <nd ref="524239280"/>
    <nd ref="524239290"/>
    <nd ref="524240006"/>
    <nd ref="524240025"/>
    <nd ref="524240047"/>
    <nd ref="524239737"/>
    <nd ref="524239759"/>
    <nd ref="524239718"/>
    <tag k="attribution" v="Mono County GIS"/>
    <tag k="building" v="yes"/>
  </way>
  <way id="42154007" version="2" timestamp="2009-10-10T09:42:54Z" uid="20587" user="balrog-kun" changeset="2801655">
    <nd ref="524240667"/>
    <nd ref="524240615"/>
    <nd ref="524240632"/>
    <nd ref="524240753"/>
    <nd ref="524240667"/>
    <tag k="attribution" v="Mono County GIS"/>
    <tag k="building" v="yes"/>
  </way>
  <way id="42154010" version="2" timestamp="2009-10-10T09:42:52Z" uid="20587" user="balrog-kun" changeset="2801655">
    <nd ref="524242436"/>
    <nd ref="524242469"/>
    <nd ref="524242484"/>
    <nd ref="524242452"/>
    <nd ref="524242436"/>
    <tag k="PrntAsmtNu" v="015086003000"/>
    <tag k="addr:city" v="June Lake"/>
    <tag k="addr:housenumber" v="2635"/>
    <tag k="addr:street" v="158"/>
    <tag k="attribution" v="Mono County GIS"/>
    <tag k="building" v="yes"/>
    <tag k="name" v="Heidelberg Inn"/>
    <tag k="stories" v="2.0"/>
    <tag k="type" v="Condo-Hotel"/>
  </way>
  <way id="42154011" version="2" timestamp="2009-10-10T09:42:51Z" uid="20587" user="balrog-kun" changeset="2801655">
    <nd ref="524242493"/>
    <nd ref="524242601"/>
    <nd ref="524242617"/>
    <nd ref="524242496"/>
    <nd ref="524242493"/>
    <tag k="attribution" v="Mono County GIS"/>
    <tag k="building" v="yes"/>
  </way>
  <way id="42154016" version="2" timestamp="2009-10-10T09:42:51Z" uid="20587" user="balrog-kun" changeset="2801655">
    <nd ref="524242740"/>
    <nd ref="524242741"/>
    <nd ref="524242751"/>
    <nd ref="524242771"/>
    <nd ref="524242740"/>
    <tag k="attribution" v="Mono County GIS"/>
    <tag k="building" v="yes"/>
  </way>
  <way id="42154017" version="2" timestamp="2009-10-10T09:42:51Z" uid="20587" user="balrog-kun" changeset="2801655">
    <nd ref="524242504"/>
    <nd ref="524242519"/>
    <nd ref="524242540"/>
    <nd ref="524242545"/>
    <nd ref="524242504"/>
    <tag k="attribution" v="Mono County GIS"/>
    <tag k="building" v="yes"/>
  </way>
  <way id="42154019" version="2" timestamp="2009-10-10T09:42:51Z" uid="20587" user="balrog-kun" changeset="2801655">
    <nd ref="524240123"/>
    <nd ref="524240407"/>
    <nd ref="524240406"/>
    <nd ref="524240103"/>
    <nd ref="524240123"/>
    <tag k="attribution" v="Mono County GIS"/>
    <tag k="building" v="yes"/>
  </way>
  <way id="42154020" version="2" timestamp="2009-10-10T09:42:51Z" uid="20587" user="balrog-kun" changeset="2801655">
    <nd ref="524240189"/>
    <nd ref="524238702"/>
    <nd ref="524240273"/>
    <nd ref="524240333"/>
    <nd ref="524240352"/>
    <nd ref="524240300"/>
    <nd ref="524240318"/>
    <nd ref="524240369"/>
    <nd ref="524240189"/>
    <tag k="attribution" v="Mono County GIS"/>
    <tag k="building" v="yes"/>
  </way>
  <way id="42154023" version="2" timestamp="2009-10-10T09:42:51Z" uid="20587" user="balrog-kun" changeset="2801655">
    <nd ref="524240140"/>
    <nd ref="524240160"/>
    <nd ref="524240509"/>
    <nd ref="524240551"/>
    <nd ref="524240140"/>
    <tag k="attribution" v="Mono County GIS"/>
    <tag k="building" v="yes"/>
  </way>
  <way id="42154025" version="2" timestamp="2009-10-10T09:42:50Z" uid="20587" user="balrog-kun" changeset="2801655">
    <nd ref="524240242"/>
    <nd ref="524240216"/>
    <nd ref="524240408"/>
    <nd ref="524239884"/>
    <nd ref="524240242"/>
    <tag k="attribution" v="Mono County GIS"/>
    <tag k="building" v="yes"/>
  </way>
  <way id="42154026" version="2" timestamp="2009-10-10T09:42:50Z" uid="20587" user="balrog-kun" changeset="2801655">
    <nd ref="524240819"/>
    <nd ref="524240826"/>
    <nd ref="524240833"/>
    <nd ref="524240884"/>
    <nd ref="524240819"/>
    <tag k="attribution" v="Mono County GIS"/>
    <tag k="building" v="yes"/>
  </way>
  <way id="42154029" version="2" timestamp="2009-10-10T09:42:50Z" uid="20587" user="balrog-kun" changeset="2801655">
    <nd ref="524240524"/>
    <nd ref="524240791"/>
    <nd ref="524240770"/>
    <nd ref="524240575"/>
    <nd ref="524240524"/>
    <tag k="attribution" v="Mono County GIS"/>
    <tag k="building" v="yes"/>
  </way>
  <way id="42154031" version="2" timestamp="2009-10-10T09:42:50Z" uid="20587" user="balrog-kun" changeset="2801655">
    <nd ref="524240871"/>
    <nd ref="524240861"/>
    <nd ref="524242574"/>
    <nd ref="524242558"/>
    <nd ref="524240871"/>
    <tag k="attribution" v="Mono County GIS"/>
    <tag k="building" v="yes"/>
  </way>
  <way id="42154035" version="2" timestamp="2009-10-10T09:42:50Z" uid="20587" user="balrog-kun" changeset="2801655">
    <nd ref="524240595"/>
    <nd ref="524240844"/>
    <nd ref="524240835"/>
    <nd ref="524240585"/>
    <nd ref="524240595"/>
    <tag k="attribution" v="Mono County GIS"/>
    <tag k="building" v="yes"/>
  </way>
  <way id="42154037" version="2" timestamp="2009-10-10T09:41:27Z" uid="20587" user="balrog-kun" changeset="2801655">
    <nd ref="524368298"/>
    <nd ref="524368309"/>
    <nd ref="524368296"/>
    <nd ref="524368297"/>
    <nd ref="524368298"/>
    <tag k="addr:city" v="Bridgeport"/>
    <tag k="attribution" v="Mono County GIS"/>
    <tag k="building" v="yes"/>
  </way>
  <way id="42154038" version="2" timestamp="2009-10-10T09:41:27Z" uid="20587" user="balrog-kun" changeset="2801655">
    <nd ref="524369311"/>
    <nd ref="524369372"/>
    <nd ref="524369383"/>
    <nd ref="524369327"/>
    <nd ref="524369311"/>
    <tag k="addr:city" v="Bridgeport"/>
    <tag k="attribution" v="Mono County GIS"/>
    <tag k="building" v="yes"/>
  </way>
  <way id="42154039" version="2" timestamp="2009-10-10T09:41:27Z" uid="20587" user="balrog-kun" changeset="2801655">
    <nd ref="524368138"/>
    <nd ref="524368139"/>
    <nd ref="524368151"/>
    <nd ref="524368152"/>
    <nd ref="524368167"/>
    <nd ref="524368149"/>
    <nd ref="524368138"/>
    <tag k="addr:city" v="Bridgeport"/>
    <tag k="attribution" v="Mono County GIS"/>
    <tag k="building" v="yes"/>
  </way>
  <way id="42154044" version="2" timestamp="2009-10-10T09:41:27Z" uid="20587" user="balrog-kun" changeset="2801655">
    <nd ref="524368184"/>
    <nd ref="524368201"/>
    <nd ref="524368217"/>
    <nd ref="524368251"/>
    <nd ref="524368234"/>
    <nd ref="524368274"/>
    <nd ref="524368321"/>
    <nd ref="524368332"/>
    <nd ref="524368184"/>
    <tag k="addr:city" v="Bridgeport"/>
    <tag k="attribution" v="Mono County GIS"/>
    <tag k="building" v="yes"/>
  </way>
  <way id="42154054" version="2" timestamp="2009-10-10T09:41:30Z" uid="20587" user="balrog-kun" changeset="2801655">
    <nd ref="524369458"/>
    <nd ref="524369471"/>
    <nd ref="524369489"/>
    <nd ref="524369500"/>
    <nd ref="524369458"/>
    <tag k="addr:city" v="Bridgeport"/>
    <tag k="attribution" v="Mono County GIS"/>
    <tag k="building" v="yes"/>
  </way>
  <way id="42154059" version="2" timestamp="2009-10-10T09:41:30Z" uid="20587" user="balrog-kun" changeset="2801655">
    <nd ref="524372078"/>
    <nd ref="524372101"/>
    <nd ref="524372115"/>
    <nd ref="524372125"/>
    <nd ref="524372078"/>
    <tag k="addr:city" v="Bridgeport"/>
    <tag k="attribution" v="Mono County GIS"/>
    <tag k="building" v="yes"/>
  </way>
  <way id="42154063" version="2" timestamp="2009-10-10T09:41:30Z" uid="20587" user="balrog-kun" changeset="2801655">
    <nd ref="524369341"/>
    <nd ref="524369396"/>
    <nd ref="524369410"/>
    <nd ref="524369424"/>
    <nd ref="524369442"/>
    <nd ref="524369360"/>
    <nd ref="524369341"/>
    <tag k="addr:city" v="Bridgeport"/>
    <tag k="attribution" v="Mono County GIS"/>
    <tag k="building" v="yes"/>
  </way>
  <way id="42154065" version="2" timestamp="2009-10-10T09:41:30Z" uid="20587" user="balrog-kun" changeset="2801655">
    <nd ref="524372001"/>
    <nd ref="524372020"/>
    <nd ref="524372043"/>
    <nd ref="524372060"/>
    <nd ref="524372001"/>
    <tag k="addr:city" v="Bridgeport"/>
    <tag k="attribution" v="Mono County GIS"/>
    <tag k="building" v="yes"/>
  </way>
  <way id="42154070" version="2" timestamp="2009-10-10T09:41:30Z" uid="20587" user="balrog-kun" changeset="2801655">
    <nd ref="524368855"/>
    <nd ref="524368837"/>
    <nd ref="524368595"/>
    <nd ref="524368581"/>
    <nd ref="524368855"/>
    <tag k="addr:city" v="Bridgeport"/>
    <tag k="addr:housenumber" v="250"/>
    <tag k="addr:street" v="182"/>
    <tag k="attribution" v="Mono County GIS"/>
    <tag k="building" v="yes"/>
  </way>
  <way id="42154074" version="2" timestamp="2009-10-10T09:41:30Z" uid="20587" user="balrog-kun" changeset="2801655">
    <nd ref="524370897"/>
    <nd ref="524370944"/>
    <nd ref="524370919"/>
    <nd ref="524370842"/>
    <nd ref="524370897"/>
    <tag k="addr:city" v="Bridgeport"/>
    <tag k="attribution" v="Mono County GIS"/>
    <tag k="building" v="yes"/>
  </way>
  <way id="42154076" version="2" timestamp="2009-10-10T09:41:29Z" uid="20587" user="balrog-kun" changeset="2801655">
    <nd ref="524368445"/>
    <nd ref="524368454"/>
    <nd ref="524368570"/>
    <nd ref="524368567"/>
    <nd ref="524368547"/>
    <nd ref="524368533"/>
    <nd ref="524368445"/>
    <tag k="addr:city" v="Bridgeport"/>
    <tag k="addr:housenumber" v="250"/>
    <tag k="addr:street" v="182"/>
    <tag k="attribution" v="Mono County GIS"/>
    <tag k="building" v="yes"/>
  </way>
  <way id="42154078" version="2" timestamp="2009-10-10T09:41:29Z" uid="20587" user="balrog-kun" changeset="2801655">
    <nd ref="524368513"/>
    <nd ref="524368494"/>
    <nd ref="524368480"/>
    <nd ref="524368476"/>
    <nd ref="524368513"/>
    <tag k="addr:city" v="Bridgeport"/>
    <tag k="addr:housenumber" v="250"/>
    <tag k="addr:street" v="182"/>
    <tag k="attribution" v="Mono County GIS"/>
    <tag k="building" v="yes"/>
  </way>
  <way id="42154081" version="2" timestamp="2009-10-10T09:41:29Z" uid="20587" user="balrog-kun" changeset="2801655">
    <nd ref="524370993"/>
    <nd ref="524370969"/>
    <nd ref="524371045"/>
    <nd ref="524371018"/>
    <nd ref="524370993"/>
    <tag k="addr:city" v="Bridgeport"/>
    <tag k="attribution" v="Mono County GIS"/>
    <tag k="building" v="yes"/>
  </way>
  <way id="42154083" version="2" timestamp="2009-10-10T09:41:29Z" uid="20587" user="balrog-kun" changeset="2801655">
    <nd ref="524368718"/>
    <nd ref="524368704"/>
    <nd ref="524368788"/>
    <nd ref="524368806"/>
    <nd ref="524368718"/>
    <tag k="addr:city" v="Bridgeport"/>
    <tag k="addr:housenumber" v="250"/>
    <tag k="addr:street" v="182"/>
    <tag k="attribution" v="Mono County GIS"/>
    <tag k="building" v="yes"/>
  </way>
  <way id="42154085" version="2" timestamp="2009-10-10T09:41:29Z" uid="20587" user="balrog-kun" changeset="2801655">
    <nd ref="524370831"/>
    <nd ref="524370887"/>
    <nd ref="524370862"/>
    <nd ref="524370822"/>
    <nd ref="524370831"/>
    <tag k="addr:city" v="Bridgeport"/>
    <tag k="attribution" v="Mono County GIS"/>
    <tag k="building" v="yes"/>
  </way>
  <way id="42154086" version="2" timestamp="2009-10-10T09:41:29Z" uid="20587" user="balrog-kun" changeset="2801655">
    <nd ref="524370802"/>
    <nd ref="524370812"/>
    <nd ref="524370792"/>
    <nd ref="524370778"/>
    <nd ref="524370802"/>
    <tag k="addr:city" v="Bridgeport"/>
    <tag k="attribution" v="Mono County GIS"/>
    <tag k="building" v="yes"/>
  </way>
  <way id="42154090" version="2" timestamp="2009-10-10T09:41:29Z" uid="20587" user="balrog-kun" changeset="2801655">
    <nd ref="524369972"/>
    <nd ref="524370019"/>
    <nd ref="524369987"/>
    <nd ref="524369966"/>
    <nd ref="524369972"/>
    <tag k="addr:city" v="Bridgeport"/>
    <tag k="attribution" v="Mono County GIS"/>
    <tag k="building" v="yes"/>
  </way>
  <way id="42154093" version="2" timestamp="2009-10-10T09:41:28Z" uid="20587" user="balrog-kun" changeset="2801655">
    <nd ref="524369951"/>
    <nd ref="524369938"/>
    <nd ref="524369578"/>
    <nd ref="524369560"/>
    <nd ref="524369545"/>
    <nd ref="524369546"/>
    <nd ref="524369542"/>
    <nd ref="524369544"/>
    <nd ref="524369540"/>
    <nd ref="524369541"/>
    <nd ref="524369604"/>
    <nd ref="524369588"/>
    <nd ref="524369951"/>
    <tag k="addr:city" v="Bridgeport"/>
    <tag k="addr:housenumber" v="80"/>
    <tag k="addr:street" v="Tamarack"/>
    <tag k="attribution" v="Mono County GIS"/>
    <tag k="building" v="yes"/>
  </way>
  <way id="42154096" version="2" timestamp="2009-10-10T09:41:28Z" uid="20587" user="balrog-kun" changeset="2801655">
    <nd ref="524369852"/>
    <nd ref="524369854"/>
    <nd ref="524369853"/>
    <nd ref="524369878"/>
    <nd ref="524369852"/>
    <tag k="addr:city" v="Bridgeport"/>
    <tag k="attribution" v="Mono County GIS"/>
    <tag k="building" v="yes"/>
  </way>
  <way id="42154097" version="2" timestamp="2009-10-10T09:41:28Z" uid="20587" user="balrog-kun" changeset="2801655">
    <nd ref="524368820"/>
    <nd ref="524368755"/>
    <nd ref="524368736"/>
    <nd ref="524368771"/>
    <nd ref="524368820"/>
    <tag k="addr:city" v="Bridgeport"/>
    <tag k="addr:housenumber" v="264"/>
    <tag k="addr:street" v="182"/>
    <tag k="attribution" v="Mono County GIS"/>
    <tag k="building" v="yes"/>
  </way>
  <way id="42154099" version="2" timestamp="2009-10-10T09:41:28Z" uid="20587" user="balrog-kun" changeset="2801655">
    <nd ref="524370198"/>
    <nd ref="524370054"/>
    <nd ref="524370099"/>
    <nd ref="524370111"/>
    <nd ref="524370198"/>
    <tag k="addr:city" v="Bridgeport"/>
    <tag k="addr:housenumber" v="68"/>
    <tag k="addr:street" v="Aurora Canyon"/>
    <tag k="attribution" v="Mono County GIS"/>
    <tag k="building" v="yes"/>
  </way>
  <way id="42154101" version="2" timestamp="2009-10-10T09:41:28Z" uid="20587" user="balrog-kun" changeset="2801655">
    <nd ref="524370143"/>
    <nd ref="524370197"/>
    <nd ref="524370172"/>
    <nd ref="524370200"/>
    <nd ref="524370143"/>
    <tag k="addr:city" v="Bridgeport"/>
    <tag k="addr:housenumber" v="72"/>
    <tag k="addr:street" v="Aurora Canyon"/>
    <tag k="attribution" v="Mono County GIS"/>
    <tag k="building" v="yes"/>
  </way>
  <way id="42154104" version="2" timestamp="2009-10-10T09:41:28Z" uid="20587" user="balrog-kun" changeset="2801655">
    <nd ref="524369890"/>
    <nd ref="524369892"/>
    <nd ref="524369908"/>
    <nd ref="524369922"/>
    <nd ref="524369890"/>
    <tag k="addr:city" v="Bridgeport"/>
    <tag k="addr:housenumber" v="68"/>
    <tag k="addr:street" v="Aurora Canyon"/>
    <tag k="attribution" v="Mono County GIS"/>
    <tag k="building" v="yes"/>
  </way>
  <way id="42154106" version="2" timestamp="2009-10-10T09:41:28Z" uid="20587" user="balrog-kun" changeset="2801655">
    <nd ref="524368996"/>
    <nd ref="524369009"/>
    <nd ref="524369021"/>
    <nd ref="524368993"/>
    <nd ref="524368969"/>
    <nd ref="524368952"/>
    <nd ref="524368990"/>
    <nd ref="524368989"/>
    <nd ref="524368988"/>
    <nd ref="524368984"/>
    <nd ref="524368947"/>
    <nd ref="524368951"/>
    <nd ref="524368996"/>
    <tag k="addr:city" v="Bridgeport"/>
    <tag k="addr:housenumber" v="264"/>
    <tag k="addr:street" v="182"/>
    <tag k="attribution" v="Mono County GIS"/>
    <tag k="building" v="yes"/>
  </way>
  <way id="42154109" version="2" timestamp="2009-10-10T09:41:27Z" uid="20587" user="balrog-kun" changeset="2801655">
    <nd ref="524374200"/>
    <nd ref="524374189"/>
    <nd ref="524374217"/>
    <nd ref="524374208"/>
    <nd ref="524374200"/>
    <tag k="addr:city" v="Bridgeport"/>
    <tag k="attribution" v="Mono County GIS"/>
    <tag k="building" v="yes"/>
  </way>
  <way id="42154111" version="2" timestamp="2009-10-10T09:41:27Z" uid="20587" user="balrog-kun" changeset="2801655">
    <nd ref="524372251"/>
    <nd ref="524372218"/>
    <nd ref="524372231"/>
    <nd ref="524372266"/>
    <nd ref="524372325"/>
    <nd ref="524372300"/>
    <nd ref="524372298"/>
    <nd ref="524372283"/>
    <nd ref="524369228"/>
    <nd ref="524369208"/>
    <nd ref="524369192"/>
    <nd ref="524369177"/>
    <nd ref="524372251"/>
    <tag k="addr:city" v="Bridgeport"/>
    <tag k="addr:housenumber" v="328"/>
    <tag k="addr:street" v="182"/>
    <tag k="attribution" v="Mono County GIS"/>
    <tag k="building" v="yes"/>
  </way>
  <way id="42154113" version="2" timestamp="2009-10-10T09:41:32Z" uid="20587" user="balrog-kun" changeset="2801655">
    <nd ref="524373824"/>
    <nd ref="524370235"/>
    <nd ref="524370260"/>
    <nd ref="524370223"/>
    <nd ref="524373824"/>
    <tag k="addr:city" v="Bridgeport"/>
    <tag k="addr:housenumber" v="72"/>
    <tag k="addr:street" v="Aurora Canyon"/>
    <tag k="attribution" v="Mono County GIS"/>
    <tag k="building" v="yes"/>
  </way>
  <way id="42154115" version="2" timestamp="2009-10-10T09:41:32Z" uid="20587" user="balrog-kun" changeset="2801655">
    <nd ref="524368874"/>
    <nd ref="524368887"/>
    <nd ref="524368912"/>
    <nd ref="524368933"/>
    <nd ref="524369043"/>
    <nd ref="524369062"/>
    <nd ref="524369078"/>
    <nd ref="524369104"/>
    <nd ref="524369133"/>
    <nd ref="524369119"/>
    <nd ref="524369163"/>
    <nd ref="524369145"/>
    <nd ref="524368874"/>
    <tag k="addr:city" v="Bridgeport"/>
    <tag k="attribution" v="Mono County GIS"/>
    <tag k="building" v="yes"/>
  </way>
  <way id="42154120" version="2" timestamp="2009-10-10T09:41:33Z" uid="20587" user="balrog-kun" changeset="2801655">
    <nd ref="524372406"/>
    <nd ref="524372415"/>
    <nd ref="524372431"/>
    <nd ref="524372505"/>
    <nd ref="524372363"/>
    <nd ref="524372346"/>
    <nd ref="524372406"/>
    <tag k="addr:city" v="Bridgeport"/>
    <tag k="attribution" v="Mono County GIS"/>
    <tag k="building" v="yes"/>
  </way>
  <way id="42154138" version="2" timestamp="2009-10-10T09:41:32Z" uid="20587" user="balrog-kun" changeset="2801655">
    <nd ref="524373843"/>
    <nd ref="524373868"/>
    <nd ref="524372447"/>
    <nd ref="524372466"/>
    <nd ref="524372479"/>
    <nd ref="524372394"/>
    <nd ref="524373843"/>
    <tag k="addr:city" v="Bridgeport"/>
    <tag k="attribution" v="Mono County GIS"/>
    <tag k="building" v="yes"/>
  </way>
  <way id="42154143" version="2" timestamp="2009-10-10T09:41:32Z" uid="20587" user="balrog-kun" changeset="2801655">
    <nd ref="524374888"/>
    <nd ref="524375019"/>
    <nd ref="524375005"/>
    <nd ref="524374862"/>
    <nd ref="524374888"/>
    <tag k="addr:city" v="Bridgeport"/>
    <tag k="attribution" v="Mono County GIS"/>
    <tag k="building" v="yes"/>
  </way>
  <way id="42154147" version="2" timestamp="2009-10-10T09:41:31Z" uid="20587" user="balrog-kun" changeset="2801655">
    <nd ref="524374775"/>
    <nd ref="524374754"/>
    <nd ref="524374653"/>
    <nd ref="524374643"/>
    <nd ref="524374775"/>
    <tag k="addr:city" v="Bridgeport"/>
    <tag k="attribution" v="Mono County GIS"/>
    <tag k="building" v="yes"/>
  </way>
  <way id="42154148" version="2" timestamp="2009-10-10T09:41:31Z" uid="20587" user="balrog-kun" changeset="2801655">
    <nd ref="524372364"/>
    <nd ref="524372377"/>
    <nd ref="524372186"/>
    <nd ref="524372202"/>
    <nd ref="524372364"/>
    <tag k="addr:city" v="Bridgeport"/>
    <tag k="attribution" v="Mono County GIS"/>
    <tag k="building" v="yes"/>
  </way>
  <way id="42154150" version="2" timestamp="2009-10-10T09:41:32Z" uid="20587" user="balrog-kun" changeset="2801655">
    <nd ref="524373434"/>
    <nd ref="524373474"/>
    <nd ref="524373377"/>
    <nd ref="524373400"/>
    <nd ref="524373434"/>
    <tag k="addr:city" v="Bridgeport"/>
    <tag k="attribution" v="Mono County GIS"/>
    <tag k="building" v="yes"/>
  </way>
  <way id="42154152" version="2" timestamp="2009-10-10T09:41:32Z" uid="20587" user="balrog-kun" changeset="2801655">
    <nd ref="524377582"/>
    <nd ref="524377660"/>
    <nd ref="524377621"/>
    <nd ref="524377692"/>
    <nd ref="524377582"/>
    <tag k="addr:city" v="Bridgeport"/>
    <tag k="attribution" v="Mono County GIS"/>
    <tag k="building" v="yes"/>
  </way>
  <way id="42154157" version="2" timestamp="2009-10-10T09:41:32Z" uid="20587" user="balrog-kun" changeset="2801655">
    <nd ref="524376299"/>
    <nd ref="524376348"/>
    <nd ref="524376384"/>
    <nd ref="524376415"/>
    <nd ref="524376299"/>
    <tag k="addr:city" v="Bridgeport"/>
    <tag k="attribution" v="Mono County GIS"/>
    <tag k="building" v="yes"/>
  </way>
  <way id="42154158" version="2" timestamp="2009-10-10T09:41:32Z" uid="20587" user="balrog-kun" changeset="2801655">
    <nd ref="524378321"/>
    <nd ref="524378336"/>
    <nd ref="524378297"/>
    <nd ref="524378283"/>
    <nd ref="524378321"/>
    <tag k="addr:city" v="Bridgeport"/>
    <tag k="attribution" v="Mono County GIS"/>
    <tag k="building" v="yes"/>
  </way>
  <way id="42154162" version="2" timestamp="2009-10-10T09:41:30Z" uid="20587" user="balrog-kun" changeset="2801655">
    <nd ref="524380032"/>
    <nd ref="524380019"/>
    <nd ref="524380042"/>
    <nd ref="524380053"/>
    <nd ref="524380032"/>
    <tag k="addr:city" v="Bridgeport"/>
    <tag k="attribution" v="Mono County GIS"/>
    <tag k="building" v="yes"/>
  </way>
  <way id="42154163" version="2" timestamp="2009-10-10T09:41:31Z" uid="20587" user="balrog-kun" changeset="2801655">
    <nd ref="524378396"/>
    <nd ref="524378421"/>
    <nd ref="524378439"/>
    <nd ref="524378461"/>
    <nd ref="524378396"/>
    <tag k="addr:city" v="Bridgeport"/>
    <tag k="attribution" v="Mono County GIS"/>
    <tag k="building" v="yes"/>
  </way>
  <way id="42154165" version="2" timestamp="2009-10-10T09:41:31Z" uid="20587" user="balrog-kun" changeset="2801655">
    <nd ref="524379311"/>
    <nd ref="524379215"/>
    <nd ref="524379251"/>
    <nd ref="524379281"/>
    <nd ref="524379311"/>
    <tag k="addr:city" v="Bridgeport"/>
    <tag k="attribution" v="Mono County GIS"/>
    <tag k="building" v="yes"/>
  </way>
  <way id="42154168" version="2" timestamp="2009-10-10T09:41:31Z" uid="20587" user="balrog-kun" changeset="2801655">
    <nd ref="524380982"/>
    <nd ref="524381020"/>
    <nd ref="524380999"/>
    <nd ref="524381056"/>
    <nd ref="524380982"/>
    <tag k="addr:city" v="Bridgeport"/>
    <tag k="attribution" v="Mono County GIS"/>
    <tag k="building" v="yes"/>
  </way>
  <way id="42154169" version="2" timestamp="2009-10-10T09:41:31Z" uid="20587" user="balrog-kun" changeset="2801655">
    <nd ref="524369680"/>
    <nd ref="524369669"/>
    <nd ref="524369631"/>
    <nd ref="524369651"/>
    <nd ref="524369680"/>
    <tag k="addr:city" v="Bridgeport"/>
    <tag k="addr:housenumber" v="22"/>
    <tag k="addr:street" v="Summers Meadow"/>
    <tag k="attribution" v="Mono County GIS"/>
    <tag k="building" v="yes"/>
  </way>
  <way id="42154172" version="2" timestamp="2009-10-10T09:41:31Z" uid="20587" user="balrog-kun" changeset="2801655">
    <nd ref="524374832"/>
    <nd ref="524374720"/>
    <nd ref="524374274"/>
    <nd ref="524374691"/>
    <nd ref="524374305"/>
    <nd ref="524374730"/>
    <nd ref="524374284"/>
    <nd ref="524374857"/>
    <nd ref="524374797"/>
    <nd ref="524374800"/>
    <nd ref="524374832"/>
    <tag k="addr:city" v="Bridgeport"/>
    <tag k="attribution" v="Mono County GIS"/>
    <tag k="building" v="yes"/>
  </way>
  <way id="42154174" version="2" timestamp="2009-10-10T09:41:31Z" uid="20587" user="balrog-kun" changeset="2801655">
    <nd ref="524375037"/>
    <nd ref="524374809"/>
    <nd ref="524374815"/>
    <nd ref="524375068"/>
    <nd ref="524375037"/>
    <tag k="addr:city" v="Bridgeport"/>
    <tag k="attribution" v="Mono County GIS"/>
    <tag k="building" v="yes"/>
  </way>
  <way id="42154177" version="2" timestamp="2009-10-10T09:41:34Z" uid="20587" user="balrog-kun" changeset="2801655">
    <nd ref="524374946"/>
    <nd ref="524374982"/>
    <nd ref="524374963"/>
    <nd ref="524374997"/>
    <nd ref="524374946"/>
    <tag k="addr:city" v="Bridgeport"/>
    <tag k="attribution" v="Mono County GIS"/>
    <tag k="building" v="yes"/>
  </way>
  <way id="42154183" version="2" timestamp="2009-10-10T09:41:34Z" uid="20587" user="balrog-kun" changeset="2801655">
    <nd ref="524374920"/>
    <nd ref="524374930"/>
    <nd ref="524374908"/>
    <nd ref="524374913"/>
    <nd ref="524374920"/>
    <tag k="addr:city" v="Bridgeport"/>
    <tag k="attribution" v="Mono County GIS"/>
    <tag k="building" v="yes"/>
  </way>
  <way id="42154185" version="2" timestamp="2009-10-10T09:41:35Z" uid="20587" user="balrog-kun" changeset="2801655">
    <nd ref="524370659"/>
    <nd ref="524370672"/>
    <nd ref="524370632"/>
    <nd ref="524370646"/>
    <nd ref="524370659"/>
    <tag k="addr:city" v="Bridgeport"/>
    <tag k="attribution" v="Mono County GIS"/>
    <tag k="building" v="yes"/>
  </way>
  <way id="42154186" version="2" timestamp="2009-10-10T09:41:35Z" uid="20587" user="balrog-kun" changeset="2801655">
    <nd ref="524370695"/>
    <nd ref="524370688"/>
    <nd ref="524370707"/>
    <nd ref="524370702"/>
    <nd ref="524370695"/>
    <tag k="addr:city" v="Bridgeport"/>
    <tag k="attribution" v="Mono County GIS"/>
    <tag k="building" v="yes"/>
  </way>
  <way id="42154187" version="2" timestamp="2009-10-10T09:41:34Z" uid="20587" user="balrog-kun" changeset="2801655">
    <nd ref="524371298"/>
    <nd ref="524371343"/>
    <nd ref="524371321"/>
    <nd ref="524371369"/>
    <nd ref="524370724"/>
    <nd ref="524370750"/>
    <nd ref="524370745"/>
    <nd ref="524370754"/>
    <nd ref="524371298"/>
    <tag k="addr:city" v="Bridgeport"/>
    <tag k="attribution" v="Mono County GIS"/>
    <tag k="building" v="yes"/>
  </way>
  <way id="42154189" version="2" timestamp="2009-10-10T09:41:34Z" uid="20587" user="balrog-kun" changeset="2801655">
    <nd ref="524370356"/>
    <nd ref="524370340"/>
    <nd ref="524370324"/>
    <nd ref="524370531"/>
    <nd ref="524369754"/>
    <nd ref="524369737"/>
    <nd ref="524369716"/>
    <nd ref="524369698"/>
    <nd ref="524370356"/>
    <tag k="addr:city" v="Bridgeport"/>
    <tag k="attribution" v="Mono County GIS"/>
    <tag k="building" v="yes"/>
  </way>
  <way id="42154194" version="2" timestamp="2009-10-10T09:41:34Z" uid="20587" user="balrog-kun" changeset="2801655">
    <nd ref="524370471"/>
    <nd ref="524370378"/>
    <nd ref="524370368"/>
    <nd ref="524370457"/>
    <nd ref="524370471"/>
    <tag k="addr:city" v="Bridgeport"/>
    <tag k="attribution" v="Mono County GIS"/>
    <tag k="building" v="yes"/>
  </way>
  <way id="42154198" version="2" timestamp="2009-10-10T09:41:33Z" uid="20587" user="balrog-kun" changeset="2801655">
    <nd ref="524370294"/>
    <nd ref="524370308"/>
    <nd ref="524369847"/>
    <nd ref="524369828"/>
    <nd ref="524369808"/>
    <nd ref="524369786"/>
    <nd ref="524370294"/>
    <tag k="addr:city" v="Bridgeport"/>
    <tag k="addr:housenumber" v="75"/>
    <tag k="addr:street" v="Tamarack"/>
    <tag k="attribution" v="Mono County GIS"/>
    <tag k="building" v="yes"/>
  </way>
  <way id="42154199" version="2" timestamp="2009-10-10T09:41:34Z" uid="20587" user="balrog-kun" changeset="2801655">
    <nd ref="524371421"/>
    <nd ref="524370763"/>
    <nd ref="524370755"/>
    <nd ref="524371395"/>
    <nd ref="524371421"/>
    <tag k="addr:city" v="Bridgeport"/>
    <tag k="attribution" v="Mono County GIS"/>
    <tag k="building" v="yes"/>
  </way>
  <way id="42154201" version="2" timestamp="2009-10-10T09:41:34Z" uid="20587" user="balrog-kun" changeset="2801655">
    <nd ref="524370485"/>
    <nd ref="524370552"/>
    <nd ref="524370580"/>
    <nd ref="524370567"/>
    <nd ref="524370544"/>
    <nd ref="524370391"/>
    <nd ref="524370485"/>
    <tag k="addr:city" v="Bridgeport"/>
    <tag k="attribution" v="Mono County GIS"/>
    <tag k="building" v="yes"/>
  </way>
  <way id="42154209" version="2" timestamp="2009-10-10T09:41:33Z" uid="20587" user="balrog-kun" changeset="2801655">
    <nd ref="524370437"/>
    <nd ref="524370452"/>
    <nd ref="524370405"/>
    <nd ref="524370421"/>
    <nd ref="524370437"/>
    <tag k="addr:city" v="Bridgeport"/>
    <tag k="attribution" v="Mono County GIS"/>
    <tag k="building" v="yes"/>
  </way>
  <way id="42154231" version="2" timestamp="2009-10-10T09:41:33Z" uid="20587" user="balrog-kun" changeset="2801655">
    <nd ref="524370500"/>
    <nd ref="524370516"/>
    <nd ref="524370264"/>
    <nd ref="524370263"/>
    <nd ref="524370277"/>
    <nd ref="524370285"/>
    <nd ref="524370500"/>
    <tag k="addr:city" v="Bridgeport"/>
    <tag k="attribution" v="Mono County GIS"/>
    <tag k="building" v="yes"/>
  </way>
  <way id="42154236" version="2" timestamp="2009-10-10T09:41:33Z" uid="20587" user="balrog-kun" changeset="2801655">
    <nd ref="524371070"/>
    <nd ref="524371208"/>
    <nd ref="524371234"/>
    <nd ref="524371183"/>
    <nd ref="524371070"/>
    <tag k="addr:city" v="Bridgeport"/>
    <tag k="attribution" v="Mono County GIS"/>
    <tag k="building" v="yes"/>
  </way>
  <way id="42154239" version="2" timestamp="2009-10-10T09:41:33Z" uid="20587" user="balrog-kun" changeset="2801655">
    <nd ref="524371263"/>
    <nd ref="524371287"/>
    <nd ref="524371101"/>
    <nd ref="524371091"/>
    <nd ref="524371263"/>
    <tag k="addr:city" v="Bridgeport"/>
    <tag k="attribution" v="Mono County GIS"/>
    <tag k="building" v="yes"/>
  </way>
  <way id="42154242" version="2" timestamp="2009-10-10T09:41:16Z" uid="20587" user="balrog-kun" changeset="2801655">
    <nd ref="524371697"/>
    <nd ref="524371696"/>
    <nd ref="524371722"/>
    <nd ref="524371707"/>
    <nd ref="524371697"/>
    <tag k="addr:city" v="Bridgeport"/>
    <tag k="attribution" v="Mono County GIS"/>
    <tag k="building" v="yes"/>
  </way>
  <way id="42154248" version="2" timestamp="2009-10-10T09:41:16Z" uid="20587" user="balrog-kun" changeset="2801655">
    <nd ref="524371667"/>
    <nd ref="524371934"/>
    <nd ref="524371150"/>
    <nd ref="524371124"/>
    <nd ref="524371667"/>
    <tag k="addr:city" v="Bridgeport"/>
    <tag k="attribution" v="Mono County GIS"/>
    <tag k="building" v="yes"/>
  </way>
  <way id="42154251" version="2" timestamp="2009-10-10T09:41:16Z" uid="20587" user="balrog-kun" changeset="2801655">
    <nd ref="524370605"/>
    <nd ref="524370619"/>
    <nd ref="524370593"/>
    <nd ref="524370602"/>
    <nd ref="524370605"/>
    <tag k="addr:city" v="Bridgeport"/>
    <tag k="attribution" v="Mono County GIS"/>
    <tag k="building" v="yes"/>
  </way>
  <way id="42154254" version="2" timestamp="2009-10-10T09:41:16Z" uid="20587" user="balrog-kun" changeset="2801655">
    <nd ref="524371723"/>
    <nd ref="524371732"/>
    <nd ref="524371743"/>
    <nd ref="524371752"/>
    <nd ref="524371723"/>
    <tag k="addr:city" v="Bridgeport"/>
    <tag k="attribution" v="Mono County GIS"/>
    <tag k="building" v="yes"/>
  </way>
  <way id="42154266" version="2" timestamp="2009-10-10T09:41:17Z" uid="20587" user="balrog-kun" changeset="2801655">
    <nd ref="524370591"/>
    <nd ref="524370592"/>
    <nd ref="524371818"/>
    <nd ref="524371844"/>
    <nd ref="524370591"/>
    <tag k="addr:city" v="Bridgeport"/>
    <tag k="attribution" v="Mono County GIS"/>
    <tag k="building" v="yes"/>
  </way>
  <way id="42154268" version="2" timestamp="2009-10-10T09:41:17Z" uid="20587" user="balrog-kun" changeset="2801655">
    <nd ref="524371691"/>
    <nd ref="524371678"/>
    <nd ref="524371858"/>
    <nd ref="524371881"/>
    <nd ref="524371901"/>
    <nd ref="524371970"/>
    <nd ref="524371983"/>
    <nd ref="524371953"/>
    <nd ref="524371918"/>
    <nd ref="524371445"/>
    <nd ref="524371691"/>
    <tag k="addr:city" v="Bridgeport"/>
    <tag k="attribution" v="Mono County GIS"/>
    <tag k="building" v="yes"/>
  </way>
  <way id="42154269" version="2" timestamp="2009-10-10T09:41:17Z" uid="20587" user="balrog-kun" changeset="2801655">
    <nd ref="524341386"/>
    <nd ref="524341388"/>
    <nd ref="524341371"/>
    <nd ref="524341382"/>
    <nd ref="524341335"/>
    <nd ref="524341350"/>
    <nd ref="524341758"/>
    <nd ref="524341761"/>
    <nd ref="524341762"/>
    <nd ref="524341676"/>
    <nd ref="524341749"/>
    <nd ref="524341684"/>
    <nd ref="524341705"/>
    <nd ref="524341727"/>
    <nd ref="524341386"/>
    <tag k="addr:city" v="Bridgeport"/>
    <tag k="addr:housenumber" v="21"/>
    <tag k="addr:street" v="Laurel"/>
    <tag k="attribution" v="Mono County GIS"/>
    <tag k="building" v="yes"/>
  </way>
  <way id="42154273" version="2" timestamp="2009-10-10T09:41:14Z" uid="20587" user="balrog-kun" changeset="2801655">
    <nd ref="524341987"/>
    <nd ref="524341928"/>
    <nd ref="524341766"/>
    <nd ref="524341788"/>
    <nd ref="524341987"/>
    <tag k="addr:city" v="Bridgeport"/>
    <tag k="addr:housenumber" v="21"/>
    <tag k="addr:street" v="Laurel"/>
    <tag k="attribution" v="Mono County GIS"/>
    <tag k="building" v="yes"/>
  </way>
  <way id="42154278" version="2" timestamp="2009-10-10T09:41:15Z" uid="20587" user="balrog-kun" changeset="2801655">
    <nd ref="524340884"/>
    <nd ref="524341051"/>
    <nd ref="524341050"/>
    <nd ref="524341047"/>
    <nd ref="524341255"/>
    <nd ref="524341226"/>
    <nd ref="524341228"/>
    <nd ref="524341231"/>
    <nd ref="524340884"/>
    <tag k="addr:city" v="Bridgeport"/>
    <tag k="addr:housenumber" v="26"/>
    <tag k="addr:street" v="Laurel"/>
    <tag k="attribution" v="Mono County GIS"/>
    <tag k="building" v="yes"/>
  </way>
  <way id="42154281" version="2" timestamp="2009-10-10T09:41:14Z" uid="20587" user="balrog-kun" changeset="2801655">
    <nd ref="524340961"/>
    <nd ref="524341092"/>
    <nd ref="524341063"/>
    <nd ref="524340900"/>
    <nd ref="524340914"/>
    <nd ref="524340925"/>
    <nd ref="524340937"/>
    <nd ref="524340949"/>
    <nd ref="524340961"/>
    <tag k="addr:city" v="Bridgeport"/>
    <tag k="addr:housenumber" v="26"/>
    <tag k="addr:street" v="Laurel"/>
    <tag k="attribution" v="Mono County GIS"/>
    <tag k="building" v="yes"/>
  </way>
  <way id="42154282" version="2" timestamp="2009-10-10T09:41:14Z" uid="20587" user="balrog-kun" changeset="2801655">
    <nd ref="524340587"/>
    <nd ref="524340802"/>
    <nd ref="524340790"/>
    <nd ref="524340567"/>
    <nd ref="524340587"/>
    <tag k="addr:city" v="Bridgeport"/>
    <tag k="attribution" v="Mono County GIS"/>
    <tag k="building" v="yes"/>
  </way>
  <way id="42154285" version="2" timestamp="2009-10-10T09:41:14Z" uid="20587" user="balrog-kun" changeset="2801655">
    <nd ref="524341841"/>
    <nd ref="524341819"/>
    <nd ref="524341875"/>
    <nd ref="524341871"/>
    <nd ref="524341841"/>
    <tag k="addr:city" v="Bridgeport"/>
    <tag k="addr:housenumber" v="21"/>
    <tag k="addr:street" v="Laurel"/>
    <tag k="attribution" v="Mono County GIS"/>
    <tag k="building" v="yes"/>
  </way>
  <way id="42154287" version="2" timestamp="2009-10-10T09:41:14Z" uid="20587" user="balrog-kun" changeset="2801655">
    <nd ref="524340883"/>
    <nd ref="524340887"/>
    <nd ref="524340886"/>
    <nd ref="524340871"/>
    <nd ref="524340883"/>
    <tag k="addr:city" v="Bridgeport"/>
    <tag k="addr:housenumber" v="26"/>
    <tag k="addr:street" v="Laurel"/>
    <tag k="attribution" v="Mono County GIS"/>
    <tag k="building" v="yes"/>
  </way>
  <way id="42154288" version="2" timestamp="2009-10-10T09:41:15Z" uid="20587" user="balrog-kun" changeset="2801655">
    <nd ref="524341007"/>
    <nd ref="524340995"/>
    <nd ref="524341021"/>
    <nd ref="524341034"/>
    <nd ref="524341007"/>
    <tag k="addr:city" v="Bridgeport"/>
    <tag k="addr:housenumber" v="26"/>
    <tag k="addr:street" v="Laurel"/>
    <tag k="attribution" v="Mono County GIS"/>
    <tag k="building" v="yes"/>
  </way>
  <way id="42154292" version="2" timestamp="2009-10-10T09:41:16Z" uid="20587" user="balrog-kun" changeset="2801655">
    <nd ref="524327113"/>
    <nd ref="524327085"/>
    <nd ref="524326818"/>
    <nd ref="524327332"/>
    <nd ref="524327340"/>
    <nd ref="524326835"/>
    <nd ref="524326847"/>
    <nd ref="524326875"/>
    <nd ref="524326895"/>
    <nd ref="524326860"/>
    <nd ref="524327113"/>
    <tag k="addr:city" v="Bridgeport"/>
    <tag k="addr:housenumber" v="255"/>
    <tag k="addr:street" v="Kingsley"/>
    <tag k="attribution" v="Mono County GIS"/>
    <tag k="building" v="yes"/>
  </way>
  <way id="42154293" version="2" timestamp="2009-10-10T09:41:16Z" uid="20587" user="balrog-kun" changeset="2801655">
    <nd ref="524327394"/>
    <nd ref="524327431"/>
    <nd ref="524327373"/>
    <nd ref="524327450"/>
    <nd ref="524327456"/>
    <nd ref="524327407"/>
    <nd ref="524327410"/>
    <nd ref="524327356"/>
    <nd ref="524327394"/>
    <tag k="addr:city" v="Bridgeport"/>
    <tag k="addr:housenumber" v="205"/>
    <tag k="addr:street" v="Kingsley"/>
    <tag k="attribution" v="Mono County GIS"/>
    <tag k="building" v="yes"/>
    <tag k="type" v="School"/>
  </way>
  <way id="42154295" version="2" timestamp="2009-10-10T09:41:15Z" uid="20587" user="balrog-kun" changeset="2801655">
    <nd ref="524342074"/>
    <nd ref="524342064"/>
    <nd ref="524342050"/>
    <nd ref="524342098"/>
    <nd ref="524342588"/>
    <nd ref="524342227"/>
    <nd ref="524342360"/>
    <nd ref="524342320"/>
    <nd ref="524341241"/>
    <nd ref="524342003"/>
    <nd ref="524342074"/>
    <tag k="addr:city" v="Bridgeport"/>
    <tag k="addr:housenumber" v="15"/>
    <tag k="addr:street" v="Laurel"/>
    <tag k="attribution" v="Mono County GIS"/>
    <tag k="building" v="yes"/>
  </way>
  <way id="42154298" version="2" timestamp="2009-10-10T09:41:15Z" uid="20587" user="balrog-kun" changeset="2801655">
    <nd ref="524342282"/>
    <nd ref="524342611"/>
    <nd ref="524346542"/>
    <nd ref="524346437"/>
    <nd ref="524342282"/>
    <tag k="addr:city" v="Bridgeport"/>
    <tag k="addr:housenumber" v="87"/>
    <tag k="addr:street" v="Kingsley"/>
    <tag k="attribution" v="Mono County GIS"/>
    <tag k="building" v="yes"/>
  </way>
  <way id="42154301" version="2" timestamp="2009-10-10T09:41:15Z" uid="20587" user="balrog-kun" changeset="2801655">
    <nd ref="524340980"/>
    <nd ref="524341107"/>
    <nd ref="524341117"/>
    <nd ref="524341078"/>
    <nd ref="524340980"/>
    <tag k="addr:city" v="Bridgeport"/>
    <tag k="addr:housenumber" v="135"/>
    <tag k="addr:street" v="Kingsley"/>
    <tag k="attribution" v="Mono County GIS"/>
    <tag k="building" v="yes"/>
  </way>
  <way id="42154302" version="2" timestamp="2009-10-10T09:41:15Z" uid="20587" user="balrog-kun" changeset="2801655">
    <nd ref="524342161"/>
    <nd ref="524342142"/>
    <nd ref="524342209"/>
    <nd ref="524342181"/>
    <nd ref="524342395"/>
    <nd ref="524342522"/>
    <nd ref="524342491"/>
    <nd ref="524342470"/>
    <nd ref="524342450"/>
    <nd ref="524342425"/>
    <nd ref="524342161"/>
    <tag k="addr:city" v="Bridgeport"/>
    <tag k="addr:housenumber" v="99"/>
    <tag k="addr:street" v="Kingsley"/>
    <tag k="attribution" v="Mono County GIS"/>
    <tag k="building" v="yes"/>
  </way>
  <way id="42154304" version="2" timestamp="2009-10-10T09:41:19Z" uid="20587" user="balrog-kun" changeset="2801655">
    <nd ref="524341962"/>
    <nd ref="524342563"/>
    <nd ref="524341892"/>
    <nd ref="524341905"/>
    <nd ref="524341962"/>
    <tag k="addr:city" v="Bridgeport"/>
    <tag k="addr:housenumber" v="21"/>
    <tag k="addr:street" v="Laurel"/>
    <tag k="attribution" v="Mono County GIS"/>
    <tag k="building" v="yes"/>
  </way>
  <way id="42154306" version="2" timestamp="2009-10-10T09:41:19Z" uid="20587" user="balrog-kun" changeset="2801655">
    <nd ref="524340701"/>
    <nd ref="524340774"/>
    <nd ref="524340746"/>
    <nd ref="524340761"/>
    <nd ref="524340714"/>
    <nd ref="524340728"/>
    <nd ref="524341151"/>
    <nd ref="524341168"/>
    <nd ref="524341128"/>
    <nd ref="524340839"/>
    <nd ref="524340826"/>
    <nd ref="524340854"/>
    <nd ref="524340853"/>
    <nd ref="524340852"/>
    <nd ref="524340851"/>
    <nd ref="524340814"/>
    <nd ref="524340690"/>
    <nd ref="524340675"/>
    <nd ref="524340663"/>
    <nd ref="524340653"/>
    <nd ref="524340701"/>
    <tag k="addr:city" v="Bridgeport"/>
    <tag k="attribution" v="Mono County GIS"/>
    <tag k="building" v="yes"/>
  </way>
  <way id="42154309" version="2" timestamp="2009-10-10T09:41:18Z" uid="20587" user="balrog-kun" changeset="2801655">
    <nd ref="524331395"/>
    <nd ref="524331380"/>
    <nd ref="524331429"/>
    <nd ref="524331413"/>
    <nd ref="524331471"/>
    <nd ref="524331461"/>
    <nd ref="524331453"/>
    <nd ref="524331451"/>
    <nd ref="524331504"/>
    <nd ref="524331571"/>
    <nd ref="524331557"/>
    <nd ref="524331479"/>
    <nd ref="524331520"/>
    <nd ref="524331540"/>
    <nd ref="524331395"/>
    <tag k="addr:city" v="Bridgeport"/>
    <tag k="addr:housenumber" v="205"/>
    <tag k="addr:street" v="Kingsley"/>
    <tag k="attribution" v="Mono County GIS"/>
    <tag k="building" v="yes"/>
  </way>
  <way id="42154311" version="2" timestamp="2009-10-10T09:41:18Z" uid="20587" user="balrog-kun" changeset="2801655">
    <nd ref="524338254"/>
    <nd ref="524338310"/>
    <nd ref="524338373"/>
    <nd ref="524338345"/>
    <nd ref="524338602"/>
    <nd ref="524338568"/>
    <nd ref="524338535"/>
    <nd ref="524338414"/>
    <nd ref="524338505"/>
    <nd ref="524338462"/>
    <nd ref="524338265"/>
    <nd ref="524338268"/>
    <nd ref="524338266"/>
    <nd ref="524338274"/>
    <nd ref="524338271"/>
    <nd ref="524338293"/>
    <nd ref="524338254"/>
    <tag k="addr:city" v="Bridgeport"/>
    <tag k="addr:housenumber" v="205"/>
    <tag k="addr:street" v="Kingsley"/>
    <tag k="attribution" v="Mono County GIS"/>
    <tag k="building" v="yes"/>
    <tag k="type" v="School"/>
  </way>
  <way id="42154323" version="2" timestamp="2009-10-10T09:41:20Z" uid="20587" user="balrog-kun" changeset="2801655">
    <nd ref="524331350"/>
    <nd ref="524331366"/>
    <nd ref="524338327"/>
    <nd ref="524338256"/>
    <nd ref="524331350"/>
    <tag k="addr:city" v="Bridgeport"/>
    <tag k="addr:housenumber" v="205"/>
    <tag k="addr:street" v="Kingsley"/>
    <tag k="attribution" v="Mono County GIS"/>
    <tag k="building" v="yes"/>
  </way>
  <way id="42154326" version="2" timestamp="2009-10-10T09:41:20Z" uid="20587" user="balrog-kun" changeset="2801655">
    <nd ref="524327511"/>
    <nd ref="524327532"/>
    <nd ref="524338240"/>
    <nd ref="524327543"/>
    <nd ref="524327511"/>
    <tag k="addr:city" v="Bridgeport"/>
    <tag k="addr:housenumber" v="205"/>
    <tag k="addr:street" v="Kingsley"/>
    <tag k="attribution" v="Mono County GIS"/>
    <tag k="building" v="yes"/>
    <tag k="type" v="School"/>
  </way>
  <way id="42154327" version="2" timestamp="2009-10-10T09:41:20Z" uid="20587" user="balrog-kun" changeset="2801655">
    <nd ref="524327291"/>
    <nd ref="524327305"/>
    <nd ref="524327316"/>
    <nd ref="524327289"/>
    <nd ref="524327291"/>
    <tag k="addr:city" v="Bridgeport"/>
    <tag k="addr:street" v="Kingsley"/>
    <tag k="attribution" v="Mono County GIS"/>
    <tag k="building" v="yes"/>
  </way>
  <way id="42154328" version="2" timestamp="2009-10-10T09:41:19Z" uid="20587" user="balrog-kun" changeset="2801655">
    <nd ref="524327599"/>
    <nd ref="524327643"/>
    <nd ref="524327631"/>
    <nd ref="524327573"/>
    <nd ref="524327599"/>
    <tag k="addr:city" v="Bridgeport"/>
    <tag k="addr:housenumber" v="205"/>
    <tag k="addr:street" v="Kingsley"/>
    <tag k="attribution" v="Mono County GIS"/>
    <tag k="building" v="yes"/>
    <tag k="type" v="School"/>
  </way>
  <way id="42154330" version="2" timestamp="2009-10-10T09:41:19Z" uid="20587" user="balrog-kun" changeset="2801655">
    <nd ref="524327226"/>
    <nd ref="524327251"/>
    <nd ref="524327474"/>
    <nd ref="524327490"/>
    <nd ref="524327226"/>
    <tag k="addr:city" v="Bridgeport"/>
    <tag k="addr:street" v="Kingsley"/>
    <tag k="attribution" v="Mono County GIS"/>
    <tag k="building" v="yes"/>
  </way>
  <way id="42154334" version="2" timestamp="2009-10-10T09:41:19Z" uid="20587" user="balrog-kun" changeset="2801655">
    <nd ref="524327188"/>
    <nd ref="524327195"/>
    <nd ref="524327267"/>
    <nd ref="524327280"/>
    <nd ref="524327188"/>
    <tag k="addr:city" v="Bridgeport"/>
    <tag k="addr:housenumber" v="255"/>
    <tag k="addr:street" v="Kingsley"/>
    <tag k="attribution" v="Mono County GIS"/>
    <tag k="building" v="yes"/>
  </way>
  <way id="42154352" version="2" timestamp="2009-10-10T09:41:18Z" uid="20587" user="balrog-kun" changeset="2801655">
    <nd ref="524325244"/>
    <nd ref="524325258"/>
    <nd ref="524325312"/>
    <nd ref="524325302"/>
    <nd ref="524324906"/>
    <nd ref="524324886"/>
    <nd ref="524324871"/>
    <nd ref="524324856"/>
    <nd ref="524325287"/>
    <nd ref="524325272"/>
    <nd ref="524325244"/>
    <tag k="addr:city" v="Bridgeport"/>
    <tag k="addr:housenumber" v="129"/>
    <tag k="addr:street" v="Twin Lakes"/>
    <tag k="attribution" v="Mono County GIS"/>
    <tag k="building" v="yes"/>
  </way>
  <way id="42154354" version="2" timestamp="2009-10-10T09:41:18Z" uid="20587" user="balrog-kun" changeset="2801655">
    <nd ref="524323379"/>
    <nd ref="524323404"/>
    <nd ref="524323416"/>
    <nd ref="524323392"/>
    <nd ref="524323418"/>
    <nd ref="524323428"/>
    <nd ref="524323452"/>
    <nd ref="524323617"/>
    <nd ref="524323640"/>
    <nd ref="524323470"/>
    <nd ref="524323485"/>
    <nd ref="524323501"/>
    <nd ref="524323379"/>
    <tag k="addr:city" v="Bridgeport"/>
    <tag k="addr:housenumber" v="154"/>
    <tag k="addr:street" v="Twin Lakes"/>
    <tag k="attribution" v="Mono County GIS"/>
    <tag k="building" v="yes"/>
  </way>
  <way id="42154356" version="2" timestamp="2009-10-10T09:41:18Z" uid="20587" user="balrog-kun" changeset="2801655">
    <nd ref="524323540"/>
    <nd ref="524323594"/>
    <nd ref="524323603"/>
    <nd ref="524323576"/>
    <nd ref="524323540"/>
    <tag k="addr:city" v="Bridgeport"/>
    <tag k="addr:housenumber" v="154"/>
    <tag k="addr:street" v="Twin Lakes"/>
    <tag k="attribution" v="Mono County GIS"/>
    <tag k="building" v="yes"/>
  </way>
  <way id="42154358" version="2" timestamp="2009-10-10T09:41:18Z" uid="20587" user="balrog-kun" changeset="2801655">
    <nd ref="524323658"/>
    <nd ref="524323680"/>
    <nd ref="524323557"/>
    <nd ref="524323527"/>
    <nd ref="524323658"/>
    <tag k="addr:city" v="Bridgeport"/>
    <tag k="addr:housenumber" v="154"/>
    <tag k="addr:street" v="Twin Lakes"/>
    <tag k="attribution" v="Mono County GIS"/>
    <tag k="building" v="yes"/>
  </way>
  <way id="42154360" version="2" timestamp="2009-10-10T09:41:17Z" uid="20587" user="balrog-kun" changeset="2801655">
    <nd ref="524325960"/>
    <nd ref="524325995"/>
    <nd ref="524326038"/>
    <nd ref="524324649"/>
    <nd ref="524325888"/>
    <nd ref="524325915"/>
    <nd ref="524325960"/>
    <tag k="addr:city" v="Bridgeport"/>
    <tag k="addr:housenumber" v="221"/>
    <tag k="addr:street" v="Twin Lakes"/>
    <tag k="attribution" v="Mono County GIS"/>
    <tag k="building" v="yes"/>
    <tag k="type" v="Public Facility"/>
  </way>
  <way id="42154362" version="2" timestamp="2009-10-10T09:41:17Z" uid="20587" user="balrog-kun" changeset="2801655">
    <nd ref="524324834"/>
    <nd ref="524324791"/>
    <nd ref="524324817"/>
    <nd ref="524324374"/>
    <nd ref="524324400"/>
    <nd ref="524324425"/>
    <nd ref="524324443"/>
    <nd ref="524324472"/>
    <nd ref="524324834"/>
    <tag k="addr:city" v="Bridgeport"/>
    <tag k="addr:housenumber" v="221"/>
    <tag k="addr:street" v="Twin Lakes"/>
    <tag k="attribution" v="Mono County GIS"/>
    <tag k="building" v="yes"/>
    <tag k="type" v="Public Facility"/>
  </way>
  <way id="42154368" version="2" timestamp="2009-10-10T09:41:22Z" uid="20587" user="balrog-kun" changeset="2801655">
    <nd ref="524323902"/>
    <nd ref="524324090"/>
    <nd ref="524324141"/>
    <nd ref="524324182"/>
    <nd ref="524324157"/>
    <nd ref="524324496"/>
    <nd ref="524324520"/>
    <nd ref="524324549"/>
    <nd ref="524324579"/>
    <nd ref="524324595"/>
    <nd ref="524324625"/>
    <nd ref="524324267"/>
    <nd ref="524324350"/>
    <nd ref="524324329"/>
    <nd ref="524324320"/>
    <nd ref="524324306"/>
    <nd ref="524324295"/>
    <nd ref="524324283"/>
    <nd ref="524324273"/>
    <nd ref="524324259"/>
    <nd ref="524324240"/>
    <nd ref="524324209"/>
    <nd ref="524324012"/>
    <nd ref="524324032"/>
    <nd ref="524324058"/>
    <nd ref="524323883"/>
    <nd ref="524323902"/>
    <tag k="addr:city" v="Bridgeport"/>
    <tag k="addr:housenumber" v="221"/>
    <tag k="addr:street" v="Twin Lakes"/>
    <tag k="attribution" v="Mono County GIS"/>
    <tag k="building" v="yes"/>
    <tag k="type" v="Public Facility"/>
  </way>
  <way id="42154372" version="2" timestamp="2009-10-10T09:41:22Z" uid="20587" user="balrog-kun" changeset="2801655">
    <nd ref="524327665"/>
    <nd ref="524338798"/>
    <nd ref="524338751"/>
    <nd ref="524338643"/>
    <nd ref="524339223"/>
    <nd ref="524339261"/>
    <nd ref="524339239"/>
    <nd ref="524339281"/>
    <nd ref="524339314"/>
    <nd ref="524339333"/>
    <nd ref="524339351"/>
    <nd ref="524339369"/>
    <nd ref="524339290"/>
    <nd ref="524327733"/>
    <nd ref="524327756"/>
    <nd ref="524327788"/>
    <nd ref="524327727"/>
    <nd ref="524338688"/>
    <nd ref="524339400"/>
    <nd ref="524339382"/>
    <nd ref="524338706"/>
    <nd ref="524327704"/>
    <nd ref="524327722"/>
    <nd ref="524327691"/>
    <nd ref="524327699"/>
    <nd ref="524327687"/>
    <nd ref="524327665"/>
    <tag k="addr:city" v="Bridgeport"/>
    <tag k="addr:housenumber" v="205"/>
    <tag k="addr:street" v="Kingsley"/>
    <tag k="attribution" v="Mono County GIS"/>
    <tag k="building" v="yes"/>
    <tag k="type" v="School"/>
  </way>
  <way id="42154374" version="2" timestamp="2009-10-10T09:41:22Z" uid="20587" user="balrog-kun" changeset="2801655">
    <nd ref="524325729"/>
    <nd ref="524325720"/>
    <nd ref="524325703"/>
    <nd ref="524325686"/>
    <nd ref="524325729"/>
    <tag k="addr:city" v="Bridgeport"/>
    <tag k="addr:street" v="Kingsley"/>
    <tag k="attribution" v="Mono County GIS"/>
    <tag k="building" v="yes"/>
  </way>
  <way id="42154376" version="2" timestamp="2009-10-10T09:41:23Z" uid="20587" user="balrog-kun" changeset="2801655">
    <nd ref="524325738"/>
    <nd ref="524326425"/>
    <nd ref="524326407"/>
    <nd ref="524325731"/>
    <nd ref="524325738"/>
    <tag k="addr:city" v="Bridgeport"/>
    <tag k="addr:street" v="Kingsley"/>
    <tag k="attribution" v="Mono County GIS"/>
    <tag k="building" v="yes"/>
  </way>
  <way id="42154377" version="2" timestamp="2009-10-10T09:41:23Z" uid="20587" user="balrog-kun" changeset="2801655">
    <nd ref="524329663"/>
    <nd ref="524329693"/>
    <nd ref="524325781"/>
    <nd ref="524325799"/>
    <nd ref="524325792"/>
    <nd ref="524325766"/>
    <nd ref="524325754"/>
    <nd ref="524325833"/>
    <nd ref="524325815"/>
    <nd ref="524325816"/>
    <nd ref="524329663"/>
    <tag k="addr:city" v="Bridgeport"/>
    <tag k="addr:housenumber" v="319"/>
    <tag k="addr:street" v="Kingsley"/>
    <tag k="attribution" v="Mono County GIS"/>
    <tag k="building" v="yes"/>
  </way>
  <way id="42154389" version="2" timestamp="2009-10-10T09:41:23Z" uid="20587" user="balrog-kun" changeset="2801655">
    <nd ref="524352007"/>
    <nd ref="524350794"/>
    <nd ref="524350791"/>
    <nd ref="524351949"/>
    <nd ref="524351967"/>
    <nd ref="524351989"/>
    <nd ref="524352036"/>
    <nd ref="524351000"/>
    <nd ref="524350986"/>
    <nd ref="524352007"/>
    <tag k="addr:city" v="Bridgeport"/>
    <tag k="addr:housenumber" v="100"/>
    <tag k="addr:street" v="Main"/>
    <tag k="attribution" v="Mono County GIS"/>
    <tag k="building" v="yes"/>
  </way>
  <way id="42154390" version="2" timestamp="2009-10-10T09:41:23Z" uid="20587" user="balrog-kun" changeset="2801655">
    <nd ref="524325632"/>
    <nd ref="524325618"/>
    <nd ref="524325668"/>
    <nd ref="524325651"/>
    <nd ref="524325632"/>
    <tag k="addr:city" v="Bridgeport"/>
    <tag k="addr:street" v="Kingsley"/>
    <tag k="attribution" v="Mono County GIS"/>
    <tag k="building" v="yes"/>
  </way>
  <way id="42154393" version="2" timestamp="2009-10-10T09:41:23Z" uid="20587" user="balrog-kun" changeset="2801655">
    <nd ref="524325539"/>
    <nd ref="524325533"/>
    <nd ref="524325559"/>
    <nd ref="524325550"/>
    <nd ref="524325532"/>
    <nd ref="524325539"/>
    <tag k="addr:city" v="Bridgeport"/>
    <tag k="addr:street" v="Kingsley"/>
    <tag k="attribution" v="Mono County GIS"/>
    <tag k="building" v="yes"/>
  </way>
  <way id="42154395" version="2" timestamp="2009-10-10T09:41:23Z" uid="20587" user="balrog-kun" changeset="2801655">
    <nd ref="524325637"/>
    <nd ref="524326412"/>
    <nd ref="524326409"/>
    <nd ref="524325601"/>
    <nd ref="524325637"/>
    <tag k="addr:city" v="Bridgeport"/>
    <tag k="addr:street" v="Kingsley"/>
    <tag k="attribution" v="Mono County GIS"/>
    <tag k="building" v="yes"/>
  </way>
  <way id="42154398" version="2" timestamp="2009-10-10T09:41:24Z" uid="20587" user="balrog-kun" changeset="2801655">
    <nd ref="524325570"/>
    <nd ref="524325560"/>
    <nd ref="524325590"/>
    <nd ref="524325587"/>
    <nd ref="524325570"/>
    <tag k="addr:city" v="Bridgeport"/>
    <tag k="addr:street" v="Kingsley"/>
    <tag k="attribution" v="Mono County GIS"/>
    <tag k="building" v="yes"/>
  </way>
  <way id="42154399" version="2" timestamp="2009-10-10T09:41:24Z" uid="20587" user="balrog-kun" changeset="2801655">
    <nd ref="524349928"/>
    <nd ref="524349858"/>
    <nd ref="524345438"/>
    <nd ref="524345450"/>
    <nd ref="524345482"/>
    <nd ref="524345542"/>
    <nd ref="524349928"/>
    <tag k="addr:city" v="Bridgeport"/>
    <tag k="addr:housenumber" v="166"/>
    <tag k="addr:street" v="Main"/>
    <tag k="attribution" v="Mono County GIS"/>
    <tag k="building" v="yes"/>
  </way>
  <way id="42154400" version="2" timestamp="2009-10-10T09:41:20Z" uid="20587" user="balrog-kun" changeset="2801655">
    <nd ref="524345511"/>
    <nd ref="524345466"/>
    <nd ref="524345481"/>
    <nd ref="524345530"/>
    <nd ref="524345511"/>
    <tag k="addr:city" v="Bridgeport"/>
    <tag k="addr:housenumber" v="172"/>
    <tag k="addr:street" v="Main"/>
    <tag k="attribution" v="Mono County GIS"/>
    <tag k="building" v="yes"/>
  </way>
  <way id="42154401" version="2" timestamp="2009-10-10T09:41:20Z" uid="20587" user="balrog-kun" changeset="2801655">
    <nd ref="524345291"/>
    <nd ref="524345281"/>
    <nd ref="524345500"/>
    <nd ref="524345490"/>
    <nd ref="524345291"/>
    <tag k="addr:city" v="Bridgeport"/>
    <tag k="attribution" v="Mono County GIS"/>
    <tag k="building" v="yes"/>
  </way>
  <way id="42154402" version="2" timestamp="2009-10-10T09:41:20Z" uid="20587" user="balrog-kun" changeset="2801655">
    <nd ref="524345303"/>
    <nd ref="524346004"/>
    <nd ref="524345620"/>
    <nd ref="524345577"/>
    <nd ref="524345599"/>
    <nd ref="524345556"/>
    <nd ref="524345303"/>
    <tag k="addr:city" v="Bridgeport"/>
    <tag k="attribution" v="Mono County GIS"/>
    <tag k="building" v="yes"/>
  </way>
  <way id="42154404" version="2" timestamp="2009-10-10T09:41:21Z" uid="20587" user="balrog-kun" changeset="2801655">
    <nd ref="524351049"/>
    <nd ref="524350504"/>
    <nd ref="524350669"/>
    <nd ref="524350684"/>
    <nd ref="524350655"/>
    <nd ref="524351692"/>
    <nd ref="524351021"/>
    <nd ref="524351036"/>
    <nd ref="524351049"/>
    <tag k="addr:city" v="Bridgeport"/>
    <tag k="addr:housenumber" v="110"/>
    <tag k="addr:street" v="Main"/>
    <tag k="attribution" v="Mono County GIS"/>
    <tag k="building" v="yes"/>
  </way>
  <way id="42154406" version="2" timestamp="2009-10-10T09:41:21Z" uid="20587" user="balrog-kun" changeset="2801655">
    <nd ref="524350524"/>
    <nd ref="524350564"/>
    <nd ref="524350547"/>
    <nd ref="524350603"/>
    <nd ref="524350728"/>
    <nd ref="524350759"/>
    <nd ref="524350767"/>
    <nd ref="524350695"/>
    <nd ref="524350707"/>
    <nd ref="524350578"/>
    <nd ref="524350484"/>
    <nd ref="524350479"/>
    <nd ref="524350524"/>
    <tag k="addr:city" v="Bridgeport"/>
    <tag k="addr:housenumber" v="136"/>
    <tag k="addr:street" v="Main"/>
    <tag k="attribution" v="Mono County GIS"/>
    <tag k="building" v="yes"/>
  </way>
  <way id="42154409" version="2" timestamp="2009-10-10T09:41:21Z" uid="20587" user="balrog-kun" changeset="2801655">
    <nd ref="524350141"/>
    <nd ref="524350125"/>
    <nd ref="524350158"/>
    <nd ref="524350167"/>
    <nd ref="524350622"/>
    <nd ref="524350635"/>
    <nd ref="524350168"/>
    <nd ref="524350180"/>
    <nd ref="524350141"/>
    <tag k="addr:city" v="Bridgeport"/>
    <tag k="addr:housenumber" v="152"/>
    <tag k="addr:street" v="Main"/>
    <tag k="attribution" v="Mono County GIS"/>
    <tag k="building" v="yes"/>
  </way>
  <way id="42154411" version="2" timestamp="2009-10-10T09:41:21Z" uid="20587" user="balrog-kun" changeset="2801655">
    <nd ref="524345390"/>
    <nd ref="524345406"/>
    <nd ref="524345483"/>
    <nd ref="524345486"/>
    <nd ref="524345484"/>
    <nd ref="524345424"/>
    <nd ref="524345390"/>
    <tag k="addr:city" v="Bridgeport"/>
    <tag k="attribution" v="Mono County GIS"/>
    <tag k="building" v="yes"/>
  </way>
  <way id="42154413" version="2" timestamp="2009-10-10T09:41:21Z" uid="20587" user="balrog-kun" changeset="2801655">
    <nd ref="524367639"/>
    <nd ref="524367625"/>
    <nd ref="524367611"/>
    <nd ref="524367651"/>
    <nd ref="524367639"/>
    <tag k="addr:city" v="Bridgeport"/>
    <tag k="addr:housenumber" v="64"/>
    <tag k="addr:street" v="Bridge"/>
    <tag k="attribution" v="Mono County GIS"/>
    <tag k="building" v="yes"/>
  </way>
  <way id="42154415" version="2" timestamp="2009-10-10T09:41:21Z" uid="20587" user="balrog-kun" changeset="2801655">
    <nd ref="524351280"/>
    <nd ref="524351265"/>
    <nd ref="524351322"/>
    <nd ref="524351298"/>
    <nd ref="524351226"/>
    <nd ref="524351202"/>
    <nd ref="524351253"/>
    <nd ref="524351251"/>
    <nd ref="524351280"/>
    <tag k="addr:city" v="Bridgeport"/>
    <tag k="attribution" v="Mono County GIS"/>
    <tag k="building" v="yes"/>
  </way>
  <way id="42154429" version="2" timestamp="2009-10-10T09:41:22Z" uid="20587" user="balrog-kun" changeset="2801655">
    <nd ref="524367789"/>
    <nd ref="524367806"/>
    <nd ref="524367690"/>
    <nd ref="524367662"/>
    <nd ref="524367789"/>
    <tag k="addr:city" v="Bridgeport"/>
    <tag k="addr:housenumber" v="64"/>
    <tag k="addr:street" v="Bridge"/>
    <tag k="attribution" v="Mono County GIS"/>
    <tag k="building" v="yes"/>
  </way>
  <way id="42154435" version="2" timestamp="2009-10-10T09:41:25Z" uid="20587" user="balrog-kun" changeset="2801655">
    <nd ref="524351430"/>
    <nd ref="524351407"/>
    <nd ref="524351392"/>
    <nd ref="524351374"/>
    <nd ref="524351361"/>
    <nd ref="524351335"/>
    <nd ref="524351119"/>
    <nd ref="524351109"/>
    <nd ref="524351158"/>
    <nd ref="524351141"/>
    <nd ref="524351133"/>
    <nd ref="524351169"/>
    <nd ref="524351478"/>
    <nd ref="524351457"/>
    <nd ref="524351449"/>
    <nd ref="524351487"/>
    <nd ref="524351430"/>
    <tag k="addr:city" v="Bridgeport"/>
    <tag k="attribution" v="Mono County GIS"/>
    <tag k="building" v="yes"/>
  </way>
  <way id="42154437" version="2" timestamp="2009-10-10T09:41:25Z" uid="20587" user="balrog-kun" changeset="2801655">
    <nd ref="524346135"/>
    <nd ref="524346157"/>
    <nd ref="524346188"/>
    <nd ref="524346206"/>
    <nd ref="524345919"/>
    <nd ref="524346073"/>
    <nd ref="524346135"/>
    <tag k="addr:city" v="Bridgeport"/>
    <tag k="attribution" v="Mono County GIS"/>
    <tag k="building" v="yes"/>
  </way>
  <way id="42154439" version="2" timestamp="2009-10-10T09:41:25Z" uid="20587" user="balrog-kun" changeset="2801655">
    <nd ref="524345969"/>
    <nd ref="524345944"/>
    <nd ref="524346238"/>
    <nd ref="524346223"/>
    <nd ref="524346101"/>
    <nd ref="524346112"/>
    <nd ref="524346114"/>
    <nd ref="524346117"/>
    <nd ref="524345969"/>
    <tag k="addr:city" v="Bridgeport"/>
    <tag k="attribution" v="Mono County GIS"/>
    <tag k="building" v="yes"/>
  </way>
  <way id="42154442" version="2" timestamp="2009-10-10T09:41:26Z" uid="20587" user="balrog-kun" changeset="2801655">
    <nd ref="524351056"/>
    <nd ref="524351443"/>
    <nd ref="524351189"/>
    <nd ref="524367594"/>
    <nd ref="524351056"/>
    <tag k="addr:city" v="Bridgeport"/>
    <tag k="attribution" v="Mono County GIS"/>
    <tag k="building" v="yes"/>
  </way>
  <way id="42154446" version="2" timestamp="2009-10-10T09:41:26Z" uid="20587" user="balrog-kun" changeset="2801655">
    <nd ref="524346361"/>
    <nd ref="524346293"/>
    <nd ref="524346085"/>
    <nd ref="524346254"/>
    <nd ref="524346277"/>
    <nd ref="524346343"/>
    <nd ref="524346355"/>
    <nd ref="524346323"/>
    <nd ref="524346361"/>
    <tag k="addr:city" v="Bridgeport"/>
    <tag k="attribution" v="Mono County GIS"/>
    <tag k="building" v="yes"/>
  </way>
  <way id="42154448" version="2" timestamp="2009-10-10T09:41:26Z" uid="20587" user="balrog-kun" changeset="2801655">
    <nd ref="524368137"/>
    <nd ref="524368104"/>
    <nd ref="524368132"/>
    <nd ref="524368086"/>
    <nd ref="524368137"/>
    <tag k="addr:city" v="Bridgeport"/>
    <tag k="addr:housenumber" v="55"/>
    <tag k="addr:street" v="Court"/>
    <tag k="attribution" v="Mono County GIS"/>
    <tag k="building" v="yes"/>
  </way>
  <way id="42154450" version="2" timestamp="2009-10-10T09:41:26Z" uid="20587" user="balrog-kun" changeset="2801655">
    <nd ref="524351820"/>
    <nd ref="524351839"/>
    <nd ref="524367936"/>
    <nd ref="524351829"/>
    <nd ref="524351820"/>
    <tag k="addr:city" v="Bridgeport"/>
    <tag k="addr:housenumber" v="64"/>
    <tag k="addr:street" v="Bridge"/>
    <tag k="attribution" v="Mono County GIS"/>
    <tag k="building" v="yes"/>
  </way>
  <way id="42154459" version="2" timestamp="2009-10-10T09:41:27Z" uid="20587" user="balrog-kun" changeset="2801655">
    <nd ref="524368143"/>
    <nd ref="524368370"/>
    <nd ref="524368349"/>
    <nd ref="524367993"/>
    <nd ref="524368143"/>
    <tag k="addr:city" v="Bridgeport"/>
    <tag k="addr:housenumber" v="55"/>
    <tag k="addr:street" v="Court"/>
    <tag k="attribution" v="Mono County GIS"/>
    <tag k="building" v="yes"/>
  </way>
  <way id="42154460" version="2" timestamp="2009-10-10T09:41:26Z" uid="20587" user="balrog-kun" changeset="2801655">
    <nd ref="524367953"/>
    <nd ref="524367984"/>
    <nd ref="524368035"/>
    <nd ref="524368014"/>
    <nd ref="524368069"/>
    <nd ref="524368054"/>
    <nd ref="524367953"/>
    <tag k="addr:city" v="Bridgeport"/>
    <tag k="addr:housenumber" v="55"/>
    <tag k="addr:street" v="Court"/>
    <tag k="attribution" v="Mono County GIS"/>
    <tag k="building" v="yes"/>
  </way>
  <way id="42154461" version="2" timestamp="2009-10-10T09:41:26Z" uid="20587" user="balrog-kun" changeset="2801655">
    <nd ref="524351730"/>
    <nd ref="524351493"/>
    <nd ref="524351657"/>
    <nd ref="524351633"/>
    <nd ref="524351615"/>
    <nd ref="524351559"/>
    <nd ref="524351594"/>
    <nd ref="524351512"/>
    <nd ref="524351539"/>
    <nd ref="524351760"/>
    <nd ref="524351730"/>
    <tag k="addr:city" v="Bridgeport"/>
    <tag k="addr:housenumber" v="64"/>
    <tag k="addr:street" v="Bridge"/>
    <tag k="attribution" v="Mono County GIS"/>
    <tag k="building" v="yes"/>
  </way>
  <way id="42154464" version="2" timestamp="2009-10-10T09:41:24Z" uid="20587" user="balrog-kun" changeset="2801655">
    <nd ref="524367726"/>
    <nd ref="524367709"/>
    <nd ref="524367771"/>
    <nd ref="524367750"/>
    <nd ref="524367726"/>
    <tag k="addr:city" v="Bridgeport"/>
    <tag k="addr:housenumber" v="64"/>
    <tag k="addr:street" v="Bridge"/>
    <tag k="attribution" v="Mono County GIS"/>
    <tag k="building" v="yes"/>
  </way>
  <way id="42154473" version="2" timestamp="2009-10-10T09:41:24Z" uid="20587" user="balrog-kun" changeset="2801655">
    <nd ref="524367918"/>
    <nd ref="524367900"/>
    <nd ref="524367860"/>
    <nd ref="524367873"/>
    <nd ref="524367874"/>
    <nd ref="524367875"/>
    <nd ref="524367828"/>
    <nd ref="524367836"/>
    <nd ref="524367918"/>
    <tag k="addr:city" v="Bridgeport"/>
    <tag k="addr:housenumber" v="64"/>
    <tag k="addr:street" v="Bridge"/>
    <tag k="attribution" v="Mono County GIS"/>
    <tag k="building" v="yes"/>
  </way>
  <way id="42154480" version="2" timestamp="2009-10-10T09:41:25Z" uid="20587" user="balrog-kun" changeset="2801655">
    <nd ref="524367815"/>
    <nd ref="524367814"/>
    <nd ref="524351788"/>
    <nd ref="524367885"/>
    <nd ref="524367815"/>
    <tag k="addr:city" v="Bridgeport"/>
    <tag k="addr:housenumber" v="64"/>
    <tag k="addr:street" v="Bridge"/>
    <tag k="attribution" v="Mono County GIS"/>
    <tag k="building" v="yes"/>
  </way>
  <way id="42154482" version="2" timestamp="2009-10-10T09:41:24Z" uid="20587" user="balrog-kun" changeset="2801655">
    <nd ref="524340019"/>
    <nd ref="524340021"/>
    <nd ref="524340011"/>
    <nd ref="524340014"/>
    <nd ref="524340019"/>
    <tag k="addr:city" v="Bridgeport"/>
    <tag k="addr:housenumber" v="287"/>
    <tag k="addr:street" v="Main"/>
    <tag k="attribution" v="Mono County GIS"/>
    <tag k="building" v="yes"/>
  </way>
  <way id="42154483" version="2" timestamp="2009-10-10T09:41:24Z" uid="20587" user="balrog-kun" changeset="2801655">
    <nd ref="524340387"/>
    <nd ref="524340524"/>
    <nd ref="524340534"/>
    <nd ref="524340489"/>
    <nd ref="524340496"/>
    <nd ref="524340507"/>
    <nd ref="524340487"/>
    <nd ref="524340486"/>
    <nd ref="524340480"/>
    <nd ref="524340479"/>
    <nd ref="524340421"/>
    <nd ref="524340356"/>
    <nd ref="524340387"/>
    <tag k="addr:city" v="Bridgeport"/>
    <tag k="addr:housenumber" v="255"/>
    <tag k="addr:street" v="Main"/>
    <tag k="attribution" v="Mono County GIS"/>
    <tag k="building" v="yes"/>
  </way>
  <way id="42154486" version="2" timestamp="2009-10-10T09:41:24Z" uid="20587" user="balrog-kun" changeset="2801655">
    <nd ref="524340219"/>
    <nd ref="524340409"/>
    <nd ref="524340398"/>
    <nd ref="524340381"/>
    <nd ref="524340367"/>
    <nd ref="524340207"/>
    <nd ref="524340219"/>
    <tag k="addr:city" v="Bridgeport"/>
    <tag k="addr:housenumber" v="261"/>
    <tag k="addr:street" v="Main"/>
    <tag k="attribution" v="Mono County GIS"/>
    <tag k="building" v="yes"/>
  </way>
  <way id="42154489" version="2" timestamp="2009-10-10T09:41:25Z" uid="20587" user="balrog-kun" changeset="2801655">
    <nd ref="524340433"/>
    <nd ref="524340552"/>
    <nd ref="524343236"/>
    <nd ref="524343230"/>
    <nd ref="524343231"/>
    <nd ref="524340468"/>
    <nd ref="524340455"/>
    <nd ref="524340445"/>
    <nd ref="524340433"/>
    <tag k="addr:city" v="Bridgeport"/>
    <tag k="addr:housenumber" v="20"/>
    <tag k="addr:street" v="Sinclair"/>
    <tag k="attribution" v="Mono County GIS"/>
    <tag k="building" v="yes"/>
  </way>
  <way id="42154494" version="2" timestamp="2009-10-10T09:41:25Z" uid="20587" user="balrog-kun" changeset="2801655">
    <nd ref="524347849"/>
    <nd ref="524347864"/>
    <nd ref="524347826"/>
    <nd ref="524347838"/>
    <nd ref="524347849"/>
    <tag k="addr:city" v="Bridgeport"/>
    <tag k="addr:housenumber" v="105"/>
    <tag k="addr:street" v="Main"/>
    <tag k="attribution" v="Mono County GIS"/>
    <tag k="building" v="yes"/>
  </way>
  <way id="42154496" version="2" timestamp="2009-10-10T09:40:57Z" uid="20587" user="balrog-kun" changeset="2801655">
    <nd ref="524347815"/>
    <nd ref="524347814"/>
    <nd ref="524347915"/>
    <nd ref="524347893"/>
    <nd ref="524347815"/>
    <tag k="addr:city" v="Bridgeport"/>
    <tag k="addr:housenumber" v="105"/>
    <tag k="addr:street" v="Main"/>
    <tag k="attribution" v="Mono County GIS"/>
    <tag k="building" v="yes"/>
  </way>
  <way id="42154502" version="2" timestamp="2009-10-10T09:40:56Z" uid="20587" user="balrog-kun" changeset="2801655">
    <nd ref="524347503"/>
    <nd ref="524347673"/>
    <nd ref="524347657"/>
    <nd ref="524347440"/>
    <nd ref="524347503"/>
    <tag k="addr:city" v="Bridgeport"/>
    <tag k="addr:housenumber" v="68"/>
    <tag k="addr:street" v="Kingsley"/>
    <tag k="attribution" v="Mono County GIS"/>
    <tag k="building" v="yes"/>
  </way>
  <way id="42154503" version="2" timestamp="2009-10-10T09:40:56Z" uid="20587" user="balrog-kun" changeset="2801655">
    <nd ref="524347524"/>
    <nd ref="524347552"/>
    <nd ref="524347539"/>
    <nd ref="524347573"/>
    <nd ref="524347568"/>
    <nd ref="524347455"/>
    <nd ref="524347463"/>
    <nd ref="524347477"/>
    <nd ref="524347524"/>
    <tag k="addr:city" v="Bridgeport"/>
    <tag k="addr:housenumber" v="68"/>
    <tag k="addr:street" v="Kingsley"/>
    <tag k="attribution" v="Mono County GIS"/>
    <tag k="building" v="yes"/>
  </way>
  <way id="42154505" version="2" timestamp="2009-10-10T09:40:56Z" uid="20587" user="balrog-kun" changeset="2801655">
    <nd ref="524343727"/>
    <nd ref="524343883"/>
    <nd ref="524343904"/>
    <nd ref="524344053"/>
    <nd ref="524344054"/>
    <nd ref="524344055"/>
    <nd ref="524344056"/>
    <nd ref="524344065"/>
    <nd ref="524344051"/>
    <nd ref="524344044"/>
    <nd ref="524344088"/>
    <nd ref="524344095"/>
    <nd ref="524344086"/>
    <nd ref="524344544"/>
    <nd ref="524344560"/>
    <nd ref="524344087"/>
    <nd ref="524344108"/>
    <nd ref="524343923"/>
    <nd ref="524343941"/>
    <nd ref="524343951"/>
    <nd ref="524343984"/>
    <nd ref="524343973"/>
    <nd ref="524344866"/>
    <nd ref="524344815"/>
    <nd ref="524343774"/>
    <nd ref="524343760"/>
    <nd ref="524343727"/>
    <tag k="addr:city" v="Bridgeport"/>
    <tag k="attribution" v="Mono County GIS"/>
    <tag k="building" v="yes"/>
  </way>
  <way id="42154507" version="2" timestamp="2009-10-10T09:40:56Z" uid="20587" user="balrog-kun" changeset="2801655">
    <nd ref="524344503"/>
    <nd ref="524344482"/>
    <nd ref="524344074"/>
    <nd ref="524343838"/>
    <nd ref="524344503"/>
    <tag k="addr:city" v="Bridgeport"/>
    <tag k="addr:housenumber" v="250"/>
    <tag k="addr:street" v="Main"/>
    <tag k="attribution" v="Mono County GIS"/>
    <tag k="building" v="yes"/>
    <tag k="type" v="Public Facility"/>
  </way>
  <way id="42154508" version="2" timestamp="2009-10-10T09:40:55Z" uid="20587" user="balrog-kun" changeset="2801655">
    <nd ref="524344540"/>
    <nd ref="524344529"/>
    <nd ref="524343860"/>
    <nd ref="524343850"/>
    <nd ref="524344540"/>
    <tag k="addr:city" v="Bridgeport"/>
    <tag k="attribution" v="Mono County GIS"/>
    <tag k="building" v="yes"/>
    <tag k="type" v="Public Facility"/>
  </way>
  <way id="42154509" version="2" timestamp="2009-10-10T09:40:56Z" uid="20587" user="balrog-kun" changeset="2801655">
    <nd ref="524344287"/>
    <nd ref="524344450"/>
    <nd ref="524344251"/>
    <nd ref="524344386"/>
    <nd ref="524344236"/>
    <nd ref="524352126"/>
    <nd ref="524352170"/>
    <nd ref="524352199"/>
    <nd ref="524352064"/>
    <nd ref="524352050"/>
    <nd ref="524352097"/>
    <nd ref="524344372"/>
    <nd ref="524344350"/>
    <nd ref="524344327"/>
    <nd ref="524344287"/>
    <tag k="addr:city" v="Bridgeport"/>
    <tag k="addr:housenumber" v="25"/>
    <tag k="addr:street" v="Bryant"/>
    <tag k="attribution" v="Mono County GIS"/>
    <tag k="building" v="yes"/>
    <tag k="type" v="Public Facility"/>
  </way>
  <way id="42154513" version="2" timestamp="2009-10-10T09:40:55Z" uid="20587" user="balrog-kun" changeset="2801655">
    <nd ref="524344850"/>
    <nd ref="524345034"/>
    <nd ref="524345002"/>
    <nd ref="524344960"/>
    <nd ref="524344950"/>
    <nd ref="524345270"/>
    <nd ref="524344850"/>
    <tag k="addr:city" v="Bridgeport"/>
    <tag k="addr:housenumber" v="208"/>
    <tag k="addr:street" v="Main"/>
    <tag k="attribution" v="Mono County GIS"/>
    <tag k="building" v="yes"/>
  </way>
  <way id="42154516" version="2" timestamp="2009-10-10T09:40:55Z" uid="20587" user="balrog-kun" changeset="2801655">
    <nd ref="524344939"/>
    <nd ref="524345072"/>
    <nd ref="524345060"/>
    <nd ref="524344972"/>
    <nd ref="524344939"/>
    <tag k="addr:city" v="Bridgeport"/>
    <tag k="addr:housenumber" v="214"/>
    <tag k="addr:street" v="Main"/>
    <tag k="attribution" v="Mono County GIS"/>
    <tag k="building" v="yes"/>
  </way>
  <way id="42154518" version="2" timestamp="2009-10-10T09:40:55Z" uid="20587" user="balrog-kun" changeset="2801655">
    <nd ref="524344838"/>
    <nd ref="524344885"/>
    <nd ref="524344910"/>
    <nd ref="524344898"/>
    <nd ref="524344876"/>
    <nd ref="524344817"/>
    <nd ref="524344838"/>
    <tag k="addr:city" v="Bridgeport"/>
    <tag k="addr:housenumber" v="226"/>
    <tag k="addr:street" v="Main"/>
    <tag k="attribution" v="Mono County GIS"/>
    <tag k="building" v="yes"/>
  </way>
  <way id="42154519" version="2" timestamp="2009-10-10T09:40:55Z" uid="20587" user="balrog-kun" changeset="2801655">
    <nd ref="524343883"/>
    <nd ref="524343727"/>
    <nd ref="524343743"/>
    <nd ref="524343962"/>
    <nd ref="524344011"/>
    <nd ref="524343995"/>
    <nd ref="524344033"/>
    <nd ref="524344022"/>
    <nd ref="524343883"/>
    <tag k="addr:city" v="Bridgeport"/>
    <tag k="addr:housenumber" v="250"/>
    <tag k="addr:street" v="Main"/>
    <tag k="attribution" v="Mono County GIS"/>
    <tag k="building" v="yes"/>
    <tag k="name" v="Ken&apos;s Gift &amp; Variety Store"/>
  </way>
  <way id="42154521" version="2" timestamp="2009-10-10T09:40:55Z" uid="20587" user="balrog-kun" changeset="2801655">
    <nd ref="524346378"/>
    <nd ref="524346551"/>
    <nd ref="524346968"/>
    <nd ref="524346638"/>
    <nd ref="524346378"/>
    <tag k="addr:city" v="Bridgeport"/>
    <tag k="addr:housenumber" v="73"/>
    <tag k="addr:street" v="Kingsley"/>
    <tag k="attribution" v="Mono County GIS"/>
    <tag k="building" v="yes"/>
  </way>
  <way id="42154524" version="2" timestamp="2009-10-10T09:40:54Z" uid="20587" user="balrog-kun" changeset="2801655">
    <nd ref="524348389"/>
    <nd ref="524348706"/>
    <nd ref="524348737"/>
    <nd ref="524348339"/>
    <nd ref="524348389"/>
    <tag k="addr:city" v="Bridgeport"/>
    <tag k="addr:housenumber" v="5"/>
    <tag k="addr:street" v="Kingsley"/>
    <tag k="attribution" v="Mono County GIS"/>
    <tag k="building" v="yes"/>
  </way>
  <way id="42154528" version="2" timestamp="2009-10-10T09:40:59Z" uid="20587" user="balrog-kun" changeset="2801655">
    <nd ref="524346660"/>
    <nd ref="524346810"/>
    <nd ref="524346866"/>
    <nd ref="524346816"/>
    <nd ref="524346819"/>
    <nd ref="524346711"/>
    <nd ref="524346713"/>
    <nd ref="524346727"/>
    <nd ref="524346710"/>
    <nd ref="524346645"/>
    <nd ref="524346660"/>
    <tag k="addr:city" v="Bridgeport"/>
    <tag k="addr:housenumber" v="21"/>
    <tag k="addr:street" v="Kingsley"/>
    <tag k="attribution" v="Mono County GIS"/>
    <tag k="building" v="yes"/>
  </way>
  <way id="42154530" version="2" timestamp="2009-10-10T09:40:59Z" uid="20587" user="balrog-kun" changeset="2801655">
    <nd ref="524348581"/>
    <nd ref="524348597"/>
    <nd ref="524348523"/>
    <nd ref="524348551"/>
    <nd ref="524348469"/>
    <nd ref="524348492"/>
    <nd ref="524348434"/>
    <nd ref="524348444"/>
    <nd ref="524348581"/>
    <tag k="addr:city" v="Bridgeport"/>
    <tag k="addr:housenumber" v="21"/>
    <tag k="addr:street" v="Kingsley"/>
    <tag k="attribution" v="Mono County GIS"/>
    <tag k="building" v="yes"/>
  </way>
  <way id="42154534" version="2" timestamp="2009-10-10T09:40:59Z" uid="20587" user="balrog-kun" changeset="2801655">
    <nd ref="524346963"/>
    <nd ref="524347193"/>
    <nd ref="524347180"/>
    <nd ref="524347060"/>
    <nd ref="524347072"/>
    <nd ref="524347087"/>
    <nd ref="524347101"/>
    <nd ref="524346944"/>
    <nd ref="524346963"/>
    <tag k="addr:city" v="Bridgeport"/>
    <tag k="addr:housenumber" v="21"/>
    <tag k="addr:street" v="Kingsley"/>
    <tag k="attribution" v="Mono County GIS"/>
    <tag k="building" v="yes"/>
  </way>
  <way id="42154538" version="2" timestamp="2009-10-10T09:40:58Z" uid="20587" user="balrog-kun" changeset="2801655">
    <nd ref="524348626"/>
    <nd ref="524347314"/>
    <nd ref="524348677"/>
    <nd ref="524348651"/>
    <nd ref="524348815"/>
    <nd ref="524348840"/>
    <nd ref="524348779"/>
    <nd ref="524348793"/>
    <nd ref="524348626"/>
    <tag k="addr:city" v="Bridgeport"/>
    <tag k="addr:housenumber" v="21"/>
    <tag k="addr:street" v="Kingsley"/>
    <tag k="attribution" v="Mono County GIS"/>
    <tag k="building" v="yes"/>
  </way>
  <way id="42154540" version="2" timestamp="2009-10-10T09:40:58Z" uid="20587" user="balrog-kun" changeset="2801655">
    <nd ref="524346677"/>
    <nd ref="524346692"/>
    <nd ref="524347109"/>
    <nd ref="524347124"/>
    <nd ref="524346756"/>
    <nd ref="524346770"/>
    <nd ref="524346803"/>
    <nd ref="524346787"/>
    <nd ref="524346677"/>
    <tag k="addr:city" v="Bridgeport"/>
    <tag k="addr:housenumber" v="21"/>
    <tag k="addr:street" v="Kingsley"/>
    <tag k="attribution" v="Mono County GIS"/>
    <tag k="building" v="yes"/>
  </way>
  <way id="42154542" version="2" timestamp="2009-10-10T09:40:58Z" uid="20587" user="balrog-kun" changeset="2801655">
    <nd ref="524348180"/>
    <nd ref="524348148"/>
    <nd ref="524348121"/>
    <nd ref="524348091"/>
    <nd ref="524348286"/>
    <nd ref="524348231"/>
    <nd ref="524349065"/>
    <nd ref="524349025"/>
    <nd ref="524349048"/>
    <nd ref="524349141"/>
    <nd ref="524349130"/>
    <nd ref="524349091"/>
    <nd ref="524348180"/>
    <tag k="addr:city" v="Bridgeport"/>
    <tag k="addr:housenumber" v="1"/>
    <tag k="addr:street" v="Kingsley"/>
    <tag k="attribution" v="Mono County GIS"/>
    <tag k="building" v="yes"/>
  </way>
  <way id="42154543" version="2" timestamp="2009-10-10T09:40:58Z" uid="20587" user="balrog-kun" changeset="2801655">
    <nd ref="524350360"/>
    <nd ref="524350392"/>
    <nd ref="524350379"/>
    <nd ref="524350406"/>
    <nd ref="524350467"/>
    <nd ref="524350435"/>
    <nd ref="524350337"/>
    <nd ref="524350449"/>
    <nd ref="524350360"/>
    <tag k="addr:city" v="Bridgeport"/>
    <tag k="addr:housenumber" v="105"/>
    <tag k="addr:street" v="Main"/>
    <tag k="attribution" v="Mono County GIS"/>
    <tag k="building" v="yes"/>
  </way>
  <way id="42154544" version="2" timestamp="2009-10-10T09:40:57Z" uid="20587" user="balrog-kun" changeset="2801655">
    <nd ref="524347810"/>
    <nd ref="524350311"/>
    <nd ref="524350289"/>
    <nd ref="524350234"/>
    <nd ref="524350217"/>
    <nd ref="524347794"/>
    <nd ref="524347810"/>
    <tag k="addr:city" v="Bridgeport"/>
    <tag k="addr:housenumber" v="105"/>
    <tag k="addr:street" v="Main"/>
    <tag k="attribution" v="Mono County GIS"/>
    <tag k="building" v="yes"/>
  </way>
  <way id="42154546" version="2" timestamp="2009-10-10T09:40:57Z" uid="20587" user="balrog-kun" changeset="2801655">
    <nd ref="524348034"/>
    <nd ref="524348062"/>
    <nd ref="524349515"/>
    <nd ref="524349484"/>
    <nd ref="524348034"/>
    <tag k="addr:city" v="Bridgeport"/>
    <tag k="addr:housenumber" v="105"/>
    <tag k="addr:street" v="Main"/>
    <tag k="attribution" v="Mono County GIS"/>
    <tag k="building" v="yes"/>
  </way>
  <way id="42154548" version="2" timestamp="2009-10-10T09:40:57Z" uid="20587" user="balrog-kun" changeset="2801655">
    <nd ref="524347970"/>
    <nd ref="524347991"/>
    <nd ref="524348012"/>
    <nd ref="524347951"/>
    <nd ref="524347931"/>
    <nd ref="524347960"/>
    <nd ref="524347970"/>
    <tag k="addr:city" v="Bridgeport"/>
    <tag k="addr:housenumber" v="105"/>
    <tag k="addr:street" v="Main"/>
    <tag k="attribution" v="Mono County GIS"/>
    <tag k="building" v="yes"/>
  </way>
  <way id="42154560" version="2" timestamp="2009-10-10T09:41:01Z" uid="20587" user="balrog-kun" changeset="2801655">
    <nd ref="524346418"/>
    <nd ref="524346421"/>
    <nd ref="524346387"/>
    <nd ref="524346404"/>
    <nd ref="524346418"/>
    <tag k="addr:city" v="Bridgeport"/>
    <tag k="addr:housenumber" v="87"/>
    <tag k="addr:street" v="Kingsley"/>
    <tag k="attribution" v="Mono County GIS"/>
    <tag k="building" v="yes"/>
  </way>
  <way id="42154587" version="2" timestamp="2009-10-10T09:40:59Z" uid="20587" user="balrog-kun" changeset="2801655">
    <nd ref="524346745"/>
    <nd ref="524346833"/>
    <nd ref="524346892"/>
    <nd ref="524346896"/>
    <nd ref="524346914"/>
    <nd ref="524346929"/>
    <nd ref="524346880"/>
    <nd ref="524346850"/>
    <nd ref="524346745"/>
    <tag k="addr:city" v="Bridgeport"/>
    <tag k="addr:housenumber" v="21"/>
    <tag k="addr:street" v="Kingsley"/>
    <tag k="attribution" v="Mono County GIS"/>
    <tag k="building" v="yes"/>
  </way>
  <way id="42154605" version="2" timestamp="2009-10-10T09:41:02Z" uid="20587" user="balrog-kun" changeset="2801655">
    <nd ref="524349619"/>
    <nd ref="524349599"/>
    <nd ref="524349577"/>
    <nd ref="524349545"/>
    <nd ref="524350272"/>
    <nd ref="524350269"/>
    <nd ref="524350255"/>
    <nd ref="524347788"/>
    <nd ref="524347770"/>
    <nd ref="524350198"/>
    <nd ref="524349619"/>
    <tag k="addr:city" v="Bridgeport"/>
    <tag k="addr:housenumber" v="125"/>
    <tag k="addr:street" v="Main"/>
    <tag k="attribution" v="Mono County GIS"/>
    <tag k="building" v="yes"/>
    <tag k="type" v="Public Facility"/>
  </way>
  <way id="42154611" version="2" timestamp="2009-10-10T09:41:02Z" uid="20587" user="balrog-kun" changeset="2801655">
    <nd ref="524350798"/>
    <nd ref="524350807"/>
    <nd ref="524350803"/>
    <nd ref="524350420"/>
    <nd ref="524350795"/>
    <nd ref="524350796"/>
    <nd ref="524350798"/>
    <tag k="addr:city" v="Bridgeport"/>
    <tag k="addr:housenumber" v="14"/>
    <tag k="addr:street" v="Hays"/>
    <tag k="attribution" v="Mono County GIS"/>
    <tag k="building" v="yes"/>
  </way>
  <way id="42154613" version="2" timestamp="2009-10-10T09:41:02Z" uid="20587" user="balrog-kun" changeset="2801655">
    <nd ref="524347384"/>
    <nd ref="524347379"/>
    <nd ref="524347362"/>
    <nd ref="524347344"/>
    <nd ref="524347384"/>
    <tag k="addr:city" v="Bridgeport"/>
    <tag k="addr:housenumber" v="21"/>
    <tag k="addr:street" v="Kingsley"/>
    <tag k="attribution" v="Mono County GIS"/>
    <tag k="building" v="yes"/>
  </way>
  <way id="42154615" version="2" timestamp="2009-10-10T09:41:02Z" uid="20587" user="balrog-kun" changeset="2801655">
    <nd ref="524347257"/>
    <nd ref="524347246"/>
    <nd ref="524347265"/>
    <nd ref="524347258"/>
    <nd ref="524347257"/>
    <tag k="addr:city" v="Bridgeport"/>
    <tag k="addr:housenumber" v="21"/>
    <tag k="addr:street" v="Kingsley"/>
    <tag k="attribution" v="Mono County GIS"/>
    <tag k="building" v="yes"/>
  </way>
  <way id="42154617" version="2" timestamp="2009-10-10T09:41:01Z" uid="20587" user="balrog-kun" changeset="2801655">
    <nd ref="524350968"/>
    <nd ref="524350938"/>
    <nd ref="524350953"/>
    <nd ref="524350923"/>
    <nd ref="524350906"/>
    <nd ref="524350888"/>
    <nd ref="524350812"/>
    <nd ref="524350833"/>
    <nd ref="524351079"/>
    <nd ref="524351089"/>
    <nd ref="524350852"/>
    <nd ref="524350868"/>
    <nd ref="524350968"/>
    <tag k="addr:city" v="Bridgeport"/>
    <tag k="addr:housenumber" v="21"/>
    <tag k="addr:street" v="Hays"/>
    <tag k="attribution" v="Mono County GIS"/>
    <tag k="building" v="yes"/>
  </way>
  <way id="42154618" version="2" timestamp="2009-10-10T09:41:01Z" uid="20587" user="balrog-kun" changeset="2801655">
    <nd ref="524348859"/>
    <nd ref="524347327"/>
    <nd ref="524349402"/>
    <nd ref="524348878"/>
    <nd ref="524348859"/>
    <tag k="addr:city" v="Bridgeport"/>
    <tag k="addr:housenumber" v="21"/>
    <tag k="addr:street" v="Kingsley"/>
    <tag k="attribution" v="Mono County GIS"/>
    <tag k="building" v="yes"/>
  </way>
  <way id="42154623" version="2" timestamp="2009-10-10T09:41:02Z" uid="20587" user="balrog-kun" changeset="2801655">
    <nd ref="524339584"/>
    <nd ref="524339582"/>
    <nd ref="524339583"/>
    <nd ref="524339564"/>
    <nd ref="524339578"/>
    <nd ref="524339536"/>
    <nd ref="524339553"/>
    <nd ref="524339521"/>
    <nd ref="524339490"/>
    <nd ref="524339477"/>
    <nd ref="524339584"/>
    <tag k="addr:city" v="Bridgeport"/>
    <tag k="addr:housenumber" v="168"/>
    <tag k="addr:street" v="Kingsley"/>
    <tag k="attribution" v="Mono County GIS"/>
    <tag k="building" v="yes"/>
  </way>
  <way id="42154633" version="2" timestamp="2009-10-10T09:41:06Z" uid="20587" user="balrog-kun" changeset="2801655">
    <nd ref="524349342"/>
    <nd ref="524349371"/>
    <nd ref="524349457"/>
    <nd ref="524349424"/>
    <nd ref="524349342"/>
    <tag k="addr:city" v="Bridgeport"/>
    <tag k="addr:housenumber" v="65"/>
    <tag k="addr:street" v="Napa"/>
    <tag k="attribution" v="Mono County GIS"/>
    <tag k="building" v="yes"/>
  </way>
  <way id="42154634" version="2" timestamp="2009-10-10T09:41:06Z" uid="20587" user="balrog-kun" changeset="2801655">
    <nd ref="524340290"/>
    <nd ref="524340309"/>
    <nd ref="524340266"/>
    <nd ref="524340256"/>
    <nd ref="524340290"/>
    <tag k="addr:city" v="Bridgeport"/>
    <tag k="addr:housenumber" v="168"/>
    <tag k="addr:street" v="Kingsley"/>
    <tag k="attribution" v="Mono County GIS"/>
    <tag k="building" v="yes"/>
  </way>
  <way id="42154636" version="2" timestamp="2009-10-10T09:41:05Z" uid="20587" user="balrog-kun" changeset="2801655">
    <nd ref="524339505"/>
    <nd ref="524340100"/>
    <nd ref="524340325"/>
    <nd ref="524340336"/>
    <nd ref="524340337"/>
    <nd ref="524339467"/>
    <nd ref="524339505"/>
    <tag k="addr:city" v="Bridgeport"/>
    <tag k="attribution" v="Mono County GIS"/>
    <tag k="building" v="yes"/>
  </way>
  <way id="42154637" version="2" timestamp="2010-04-02T17:50:57Z" uid="20587" user="balrog-kun" changeset="4304500">
    <nd ref="50913168"/>
    <nd ref="524576243"/>
    <nd ref="524576251"/>
    <nd ref="524576281"/>
    <nd ref="524576291"/>
    <nd ref="524576298"/>
    <nd ref="524576303"/>
    <nd ref="51011149"/>
    <tag k="highway" v="tertiary"/>
    <tag k="name" v="East Sharp Avenue"/>
    <tag k="oneway" v="yes"/>
  </way>
  <way id="42154638" version="2" timestamp="2009-10-10T09:41:04Z" uid="20587" user="balrog-kun" changeset="2801655">
    <nd ref="524347232"/>
    <nd ref="524347201"/>
    <nd ref="524347194"/>
    <nd ref="524347160"/>
    <nd ref="524347011"/>
    <nd ref="524347036"/>
    <nd ref="524347232"/>
    <tag k="addr:city" v="Bridgeport"/>
    <tag k="addr:housenumber" v="21"/>
    <tag k="addr:street" v="Kingsley"/>
    <tag k="attribution" v="Mono County GIS"/>
    <tag k="building" v="yes"/>
  </way>
  <way id="42154639" version="2" timestamp="2010-04-02T17:50:57Z" uid="20587" user="balrog-kun" changeset="4304500">
    <nd ref="51011149"/>
    <nd ref="50969937"/>
    <nd ref="50997480"/>
    <nd ref="50997500"/>
    <tag k="highway" v="tertiary"/>
    <tag k="name" v="East Sharp Avenue"/>
    <tag k="tiger:cfcc" v="A41"/>
    <tag k="tiger:county" v="Spokane, WA"/>
    <tag k="tiger:name_base" v="Sharp"/>
    <tag k="tiger:name_direction_prefix" v="E"/>
    <tag k="tiger:name_type" v="Ave"/>
    <tag k="tiger:reviewed" v="no"/>
    <tag k="tiger:separated" v="no"/>
    <tag k="tiger:source" v="tiger_import_dch_v0.6_20070830"/>
    <tag k="tiger:tlid" v="189878748:189878672:189878674:189878757:189878758:189875461:189878652:189878775:189902416:189875429:189875431:189875433:189875338:189875459"/>
    <tag k="tiger:zip_left" v="99202"/>
    <tag k="tiger:zip_right" v="99202"/>
  </way>
  <way id="42154640" version="2" timestamp="2010-04-02T17:50:57Z" uid="20587" user="balrog-kun" changeset="4304500">
    <nd ref="51002156"/>
    <nd ref="50936551"/>
    <tag k="highway" v="tertiary"/>
    <tag k="name" v="East Sharp Avenue"/>
    <tag k="oneway" v="yes"/>
    <tag k="tiger:cfcc" v="A41"/>
    <tag k="tiger:county" v="Spokane, WA"/>
    <tag k="tiger:name_base" v="Sharp"/>
    <tag k="tiger:name_direction_prefix" v="E"/>
    <tag k="tiger:name_type" v="Ave"/>
    <tag k="tiger:reviewed" v="no"/>
    <tag k="tiger:separated" v="no"/>
    <tag k="tiger:source" v="tiger_import_dch_v0.6_20070830"/>
    <tag k="tiger:tlid" v="189878748:189878672:189878674:189878757:189878758:189875461:189878652:189878775:189902416:189875429:189875431:189875433:189875338:189875459"/>
    <tag k="tiger:zip_left" v="99202"/>
    <tag k="tiger:zip_right" v="99202"/>
  </way>
  <way id="42154641" version="2" timestamp="2009-10-10T09:41:03Z" uid="20587" user="balrog-kun" changeset="2801655">
    <nd ref="524346507"/>
    <nd ref="524346527"/>
    <nd ref="524346495"/>
    <nd ref="524346499"/>
    <nd ref="524346461"/>
    <nd ref="524346478"/>
    <nd ref="524346439"/>
    <nd ref="524346448"/>
    <nd ref="524346507"/>
    <tag k="addr:city" v="Bridgeport"/>
    <tag k="addr:housenumber" v="87"/>
    <tag k="addr:street" v="Kingsley"/>
    <tag k="attribution" v="Mono County GIS"/>
    <tag k="building" v="yes"/>
  </way>
  <way id="42154642" version="2" timestamp="2010-04-02T17:50:57Z" uid="20587" user="balrog-kun" changeset="4304500">
    <nd ref="50913168"/>
    <nd ref="50959790"/>
    <nd ref="51002156"/>
    <tag k="highway" v="tertiary"/>
    <tag k="name" v="East Sharp Avenue"/>
    <tag k="tiger:cfcc" v="A41"/>
    <tag k="tiger:county" v="Spokane, WA"/>
    <tag k="tiger:name_base" v="Sharp"/>
    <tag k="tiger:name_direction_prefix" v="E"/>
    <tag k="tiger:name_type" v="Ave"/>
    <tag k="tiger:reviewed" v="no"/>
    <tag k="tiger:separated" v="no"/>
    <tag k="tiger:source" v="tiger_import_dch_v0.6_20070830"/>
    <tag k="tiger:tlid" v="189878748:189878672:189878674:189878757:189878758:189875461:189878652:189878775:189902416:189875429:189875431:189875433:189875338:189875459"/>
    <tag k="tiger:zip_left" v="99202"/>
    <tag k="tiger:zip_right" v="99202"/>
  </way>
  <way id="42154643" version="2" timestamp="2009-10-10T09:41:03Z" uid="20587" user="balrog-kun" changeset="2801655">
    <nd ref="524346555"/>
    <nd ref="524346592"/>
    <nd ref="524347216"/>
    <nd ref="524346984"/>
    <nd ref="524346555"/>
    <tag k="addr:city" v="Bridgeport"/>
    <tag k="addr:housenumber" v="73"/>
    <tag k="addr:street" v="Kingsley"/>
    <tag k="attribution" v="Mono County GIS"/>
    <tag k="building" v="yes"/>
  </way>
  <way id="42154644" version="2" timestamp="2009-10-10T09:41:03Z" uid="20587" user="balrog-kun" changeset="2801655">
    <nd ref="524347321"/>
    <nd ref="524347323"/>
    <nd ref="524348904"/>
    <nd ref="524348761"/>
    <nd ref="524347321"/>
    <tag k="addr:city" v="Bridgeport"/>
    <tag k="addr:housenumber" v="21"/>
    <tag k="addr:street" v="Kingsley"/>
    <tag k="attribution" v="Mono County GIS"/>
    <tag k="building" v="yes"/>
  </way>
  <way id="42154659" version="2" timestamp="2009-10-10T09:41:10Z" uid="20587" user="balrog-kun" changeset="2801655">
    <nd ref="524346581"/>
    <nd ref="524346633"/>
    <nd ref="524346618"/>
    <nd ref="524346568"/>
    <nd ref="524346581"/>
    <tag k="addr:city" v="Bridgeport"/>
    <tag k="addr:housenumber" v="73"/>
    <tag k="addr:street" v="Kingsley"/>
    <tag k="attribution" v="Mono County GIS"/>
    <tag k="building" v="yes"/>
  </way>
  <way id="42154660" version="2" timestamp="2009-10-10T09:41:09Z" uid="20587" user="balrog-kun" changeset="2801655">
    <nd ref="524346426"/>
    <nd ref="524346550"/>
    <nd ref="524346602"/>
    <nd ref="524346433"/>
    <nd ref="524346426"/>
    <tag k="addr:city" v="Bridgeport"/>
    <tag k="addr:housenumber" v="73"/>
    <tag k="addr:street" v="Kingsley"/>
    <tag k="attribution" v="Mono County GIS"/>
    <tag k="building" v="yes"/>
  </way>
  <way id="42154661" version="2" timestamp="2009-10-10T09:41:09Z" uid="20587" user="balrog-kun" changeset="2801655">
    <nd ref="524348956"/>
    <nd ref="524348929"/>
    <nd ref="524349005"/>
    <nd ref="524348982"/>
    <nd ref="524348956"/>
    <tag k="addr:city" v="Bridgeport"/>
    <tag k="addr:housenumber" v="21"/>
    <tag k="addr:street" v="Kingsley"/>
    <tag k="attribution" v="Mono County GIS"/>
    <tag k="building" v="yes"/>
  </way>
  <way id="42154663" version="2" timestamp="2009-10-10T09:41:09Z" uid="20587" user="balrog-kun" changeset="2801655">
    <nd ref="524347057"/>
    <nd ref="524347051"/>
    <nd ref="524347266"/>
    <nd ref="524347294"/>
    <nd ref="524347279"/>
    <nd ref="524347267"/>
    <nd ref="524347057"/>
    <tag k="addr:city" v="Bridgeport"/>
    <tag k="addr:housenumber" v="21"/>
    <tag k="addr:street" v="Kingsley"/>
    <tag k="attribution" v="Mono County GIS"/>
    <tag k="building" v="yes"/>
  </way>
  <way id="42154664" version="2" timestamp="2009-10-10T09:41:10Z" uid="20587" user="balrog-kun" changeset="2801655">
    <nd ref="524328398"/>
    <nd ref="524328376"/>
    <nd ref="524328290"/>
    <nd ref="524328545"/>
    <nd ref="524328555"/>
    <nd ref="524328347"/>
    <nd ref="524328324"/>
    <nd ref="524328308"/>
    <nd ref="524328398"/>
    <tag k="addr:city" v="Bridgeport"/>
    <tag k="addr:housenumber" v="53"/>
    <tag k="addr:street" v="Laurel"/>
    <tag k="attribution" v="Mono County GIS"/>
    <tag k="building" v="yes"/>
  </way>
  <way id="42154667" version="2" timestamp="2009-10-10T09:41:11Z" uid="20587" user="balrog-kun" changeset="2801655">
    <nd ref="524327896"/>
    <nd ref="524327888"/>
    <nd ref="524328282"/>
    <nd ref="524328254"/>
    <nd ref="524328200"/>
    <nd ref="524328239"/>
    <nd ref="524328216"/>
    <nd ref="524328166"/>
    <nd ref="524327850"/>
    <nd ref="524327867"/>
    <nd ref="524327896"/>
    <tag k="addr:city" v="Bridgeport"/>
    <tag k="addr:housenumber" v="50"/>
    <tag k="addr:street" v="Laurel"/>
    <tag k="attribution" v="Mono County GIS"/>
    <tag k="building" v="yes"/>
  </way>
  <way id="42154668" version="2" timestamp="2009-10-10T09:41:10Z" uid="20587" user="balrog-kun" changeset="2801655">
    <nd ref="524328529"/>
    <nd ref="524328524"/>
    <nd ref="524328566"/>
    <nd ref="524328583"/>
    <nd ref="524328529"/>
    <tag k="addr:city" v="Bridgeport"/>
    <tag k="addr:housenumber" v="53"/>
    <tag k="addr:street" v="Laurel"/>
    <tag k="attribution" v="Mono County GIS"/>
    <tag k="building" v="yes"/>
  </way>
  <way id="42154670" version="2" timestamp="2009-10-10T09:41:10Z" uid="20587" user="balrog-kun" changeset="2801655">
    <nd ref="524328523"/>
    <nd ref="524328522"/>
    <nd ref="524328521"/>
    <nd ref="524328518"/>
    <nd ref="524328502"/>
    <nd ref="524328487"/>
    <nd ref="524341462"/>
    <nd ref="524341444"/>
    <nd ref="524328523"/>
    <tag k="addr:city" v="Bridgeport"/>
    <tag k="addr:housenumber" v="33"/>
    <tag k="addr:street" v="Laurel"/>
    <tag k="attribution" v="Mono County GIS"/>
    <tag k="building" v="yes"/>
  </way>
  <way id="42154676" version="2" timestamp="2009-10-10T09:41:06Z" uid="20587" user="balrog-kun" changeset="2801655">
    <nd ref="524328472"/>
    <nd ref="524341223"/>
    <nd ref="524341393"/>
    <nd ref="524341428"/>
    <nd ref="524341409"/>
    <nd ref="524328422"/>
    <nd ref="524328472"/>
    <tag k="addr:city" v="Bridgeport"/>
    <tag k="addr:housenumber" v="33"/>
    <tag k="addr:street" v="Laurel"/>
    <tag k="attribution" v="Mono County GIS"/>
    <tag k="building" v="yes"/>
  </way>
  <way id="42154679" version="2" timestamp="2009-10-10T09:41:07Z" uid="20587" user="balrog-kun" changeset="2801655">
    <nd ref="524327838"/>
    <nd ref="524340859"/>
    <nd ref="524341212"/>
    <nd ref="524341222"/>
    <nd ref="524341216"/>
    <nd ref="524328192"/>
    <nd ref="524327927"/>
    <nd ref="524327915"/>
    <nd ref="524327838"/>
    <tag k="addr:city" v="Bridgeport"/>
    <tag k="addr:housenumber" v="36"/>
    <tag k="addr:street" v="Laurel"/>
    <tag k="attribution" v="Mono County GIS"/>
    <tag k="building" v="yes"/>
  </way>
  <way id="42154682" version="2" timestamp="2009-10-10T09:41:09Z" uid="20587" user="balrog-kun" changeset="2801655">
    <nd ref="524340624"/>
    <nd ref="524340642"/>
    <nd ref="524340599"/>
    <nd ref="524340612"/>
    <nd ref="524340624"/>
    <tag k="addr:city" v="Bridgeport"/>
    <tag k="attribution" v="Mono County GIS"/>
    <tag k="building" v="yes"/>
  </way>
  <way id="42154684" version="2" timestamp="2009-10-10T09:41:08Z" uid="20587" user="balrog-kun" changeset="2801655">
    <nd ref="524328561"/>
    <nd ref="524341669"/>
    <nd ref="524341641"/>
    <nd ref="524341651"/>
    <nd ref="524341473"/>
    <nd ref="524341537"/>
    <nd ref="524341503"/>
    <nd ref="524341561"/>
    <nd ref="524341593"/>
    <nd ref="524341619"/>
    <nd ref="524346367"/>
    <nd ref="524328611"/>
    <nd ref="524328561"/>
    <tag k="addr:city" v="Bridgeport"/>
    <tag k="addr:housenumber" v="33"/>
    <tag k="addr:street" v="Laurel"/>
    <tag k="attribution" v="Mono County GIS"/>
    <tag k="building" v="yes"/>
  </way>
  <way id="42154685" version="2" timestamp="2009-10-10T09:41:08Z" uid="20587" user="balrog-kun" changeset="2801655">
    <nd ref="524340069"/>
    <nd ref="524339423"/>
    <nd ref="524339448"/>
    <nd ref="524340087"/>
    <nd ref="524340069"/>
    <tag k="addr:city" v="Bridgeport"/>
    <tag k="attribution" v="Mono County GIS"/>
    <tag k="building" v="yes"/>
  </way>
  <way id="42154687" version="2" timestamp="2009-10-10T09:41:08Z" uid="20587" user="balrog-kun" changeset="2801655">
    <nd ref="524341193"/>
    <nd ref="524340276"/>
    <nd ref="524342797"/>
    <nd ref="524342781"/>
    <nd ref="524341193"/>
    <tag k="addr:city" v="Bridgeport"/>
    <tag k="addr:housenumber" v="158"/>
    <tag k="addr:street" v="Kingsley"/>
    <tag k="attribution" v="Mono County GIS"/>
    <tag k="building" v="yes"/>
  </way>
  <way id="42154688" version="2" timestamp="2009-10-10T09:41:11Z" uid="20587" user="balrog-kun" changeset="2801655">
    <nd ref="524340052"/>
    <nd ref="524340034"/>
    <nd ref="524340231"/>
    <nd ref="524340247"/>
    <nd ref="524340052"/>
    <tag k="addr:city" v="Bridgeport"/>
    <tag k="attribution" v="Mono County GIS"/>
    <tag k="building" v="yes"/>
  </way>
  <way id="42154691" version="2" timestamp="2009-10-10T09:41:11Z" uid="20587" user="balrog-kun" changeset="2801655">
    <nd ref="524340339"/>
    <nd ref="524340171"/>
    <nd ref="524340338"/>
    <nd ref="524340350"/>
    <nd ref="524340339"/>
    <tag k="addr:city" v="Bridgeport"/>
    <tag k="attribution" v="Mono County GIS"/>
    <tag k="building" v="yes"/>
  </way>
  <way id="42154693" version="2" timestamp="2009-10-10T09:41:11Z" uid="20587" user="balrog-kun" changeset="2801655">
    <nd ref="524340191"/>
    <nd ref="524340178"/>
    <nd ref="524340119"/>
    <nd ref="524340129"/>
    <nd ref="524340145"/>
    <nd ref="524340157"/>
    <nd ref="524340191"/>
    <tag k="addr:city" v="Bridgeport"/>
    <tag k="addr:housenumber" v="261"/>
    <tag k="addr:street" v="Main"/>
    <tag k="attribution" v="Mono County GIS"/>
    <tag k="building" v="yes"/>
  </way>
  <way id="42154697" version="2" timestamp="2009-10-10T09:41:12Z" uid="20587" user="balrog-kun" changeset="2801655">
    <nd ref="524342745"/>
    <nd ref="524343225"/>
    <nd ref="524343228"/>
    <nd ref="524342767"/>
    <nd ref="524342745"/>
    <tag k="addr:city" v="Bridgeport"/>
    <tag k="addr:housenumber" v="20"/>
    <tag k="addr:street" v="Sinclair"/>
    <tag k="attribution" v="Mono County GIS"/>
    <tag k="building" v="yes"/>
  </way>
  <way id="42154698" version="2" timestamp="2009-10-10T09:41:12Z" uid="20587" user="balrog-kun" changeset="2801655">
    <nd ref="524327822"/>
    <nd ref="524328083"/>
    <nd ref="524327996"/>
    <nd ref="524327810"/>
    <nd ref="524327822"/>
    <tag k="addr:city" v="Bridgeport"/>
    <tag k="attribution" v="Mono County GIS"/>
    <tag k="building" v="yes"/>
  </way>
  <way id="42154700" version="2" timestamp="2009-10-10T09:41:12Z" uid="20587" user="balrog-kun" changeset="2801655">
    <nd ref="524327983"/>
    <nd ref="524327936"/>
    <nd ref="524327967"/>
    <nd ref="524328033"/>
    <nd ref="524328060"/>
    <nd ref="524328014"/>
    <nd ref="524327983"/>
    <tag k="addr:city" v="Bridgeport"/>
    <tag k="addr:housenumber" v="50"/>
    <tag k="addr:street" v="Laurel"/>
    <tag k="attribution" v="Mono County GIS"/>
    <tag k="building" v="yes"/>
  </way>
  <way id="42154702" version="2" timestamp="2009-10-10T09:41:12Z" uid="20587" user="balrog-kun" changeset="2801655">
    <nd ref="524352330"/>
    <nd ref="524352363"/>
    <nd ref="524352392"/>
    <nd ref="524352416"/>
    <nd ref="524352298"/>
    <nd ref="524352503"/>
    <nd ref="524352540"/>
    <nd ref="524352444"/>
    <nd ref="524352470"/>
    <nd ref="524352428"/>
    <nd ref="524352433"/>
    <nd ref="524352330"/>
    <tag k="addr:city" v="Bridgeport"/>
    <tag k="addr:housenumber" v="38"/>
    <tag k="addr:street" v="Emigrant"/>
    <tag k="attribution" v="Mono County GIS"/>
    <tag k="building" v="yes"/>
  </way>
  <way id="42154706" version="2" timestamp="2009-10-10T09:41:11Z" uid="20587" user="balrog-kun" changeset="2801655">
    <nd ref="524335276"/>
    <nd ref="524335292"/>
    <nd ref="524335308"/>
    <nd ref="524335327"/>
    <nd ref="524335276"/>
    <tag k="addr:city" v="Bridgeport"/>
    <tag k="attribution" v="Mono County GIS"/>
    <tag k="building" v="yes"/>
  </way>
  <way id="42154708" version="2" timestamp="2009-10-10T09:41:11Z" uid="20587" user="balrog-kun" changeset="2801655">
    <nd ref="524335355"/>
    <nd ref="524335348"/>
    <nd ref="524335792"/>
    <nd ref="524335872"/>
    <nd ref="524335904"/>
    <nd ref="524335813"/>
    <nd ref="524335840"/>
    <nd ref="524335933"/>
    <nd ref="524335968"/>
    <nd ref="524335745"/>
    <nd ref="524335355"/>
    <tag k="addr:city" v="Bridgeport"/>
    <tag k="addr:housenumber" v="197"/>
    <tag k="addr:street" v="Emigrant"/>
    <tag k="attribution" v="Mono County GIS"/>
    <tag k="building" v="yes"/>
  </way>
  <way id="42154722" version="2" timestamp="2009-10-10T09:41:13Z" uid="20587" user="balrog-kun" changeset="2801655">
    <nd ref="524352237"/>
    <nd ref="524344397"/>
    <nd ref="524344413"/>
    <nd ref="524352269"/>
    <nd ref="524352237"/>
    <tag k="addr:city" v="Bridgeport"/>
    <tag k="addr:housenumber" v="25"/>
    <tag k="addr:street" v="Bryant"/>
    <tag k="attribution" v="Mono County GIS"/>
    <tag k="building" v="yes"/>
    <tag k="type" v="Public Facility"/>
  </way>
  <way id="42154729" version="2" timestamp="2009-10-10T09:41:13Z" uid="20587" user="balrog-kun" changeset="2801655">
    <nd ref="524335762"/>
    <nd ref="524335783"/>
    <nd ref="524336353"/>
    <nd ref="524336363"/>
    <nd ref="524335762"/>
    <tag k="addr:city" v="Bridgeport"/>
    <tag k="addr:housenumber" v="171"/>
    <tag k="addr:street" v="Emigrant"/>
    <tag k="attribution" v="Mono County GIS"/>
    <tag k="building" v="yes"/>
  </way>
  <way id="42154732" version="2" timestamp="2009-10-10T09:41:13Z" uid="20587" user="balrog-kun" changeset="2801655">
    <nd ref="524336311"/>
    <nd ref="524336225"/>
    <nd ref="524336240"/>
    <nd ref="524336251"/>
    <nd ref="524336268"/>
    <nd ref="524336284"/>
    <nd ref="524336292"/>
    <nd ref="524336295"/>
    <nd ref="524336310"/>
    <nd ref="524333706"/>
    <nd ref="524333718"/>
    <nd ref="524333741"/>
    <nd ref="524333771"/>
    <nd ref="524336341"/>
    <nd ref="524336311"/>
    <tag k="addr:city" v="Bridgeport"/>
    <tag k="addr:housenumber" v="123"/>
    <tag k="addr:street" v="Emigrant"/>
    <tag k="attribution" v="Mono County GIS"/>
    <tag k="building" v="yes"/>
    <tag k="type" v="Public Facility"/>
  </way>
  <way id="42154737" version="2" timestamp="2009-10-10T09:41:12Z" uid="20587" user="balrog-kun" changeset="2801655">
    <nd ref="524337814"/>
    <nd ref="524337829"/>
    <nd ref="524337830"/>
    <nd ref="524337945"/>
    <nd ref="524337931"/>
    <nd ref="524334895"/>
    <nd ref="524334949"/>
    <nd ref="524334956"/>
    <nd ref="524334916"/>
    <nd ref="524337833"/>
    <nd ref="524337900"/>
    <nd ref="524337915"/>
    <nd ref="524337859"/>
    <nd ref="524337884"/>
    <nd ref="524337814"/>
    <tag k="addr:city" v="Bridgeport"/>
    <tag k="addr:housenumber" v="83"/>
    <tag k="addr:street" v="Emigrant"/>
    <tag k="attribution" v="Mono County GIS"/>
    <tag k="building" v="yes"/>
  </way>
  <way id="42154740" version="2" timestamp="2009-10-10T09:41:12Z" uid="20587" user="balrog-kun" changeset="2801655">
    <nd ref="524332807"/>
    <nd ref="524335691"/>
    <nd ref="524335697"/>
    <nd ref="524332797"/>
    <nd ref="524332807"/>
    <tag k="addr:city" v="Bridgeport"/>
    <tag k="addr:housenumber" v="151"/>
    <tag k="addr:street" v="Emigrant"/>
    <tag k="attribution" v="Mono County GIS"/>
    <tag k="building" v="yes"/>
  </way>
  <way id="42154742" version="2" timestamp="2009-10-10T09:41:12Z" uid="20587" user="balrog-kun" changeset="2801655">
    <nd ref="524352800"/>
    <nd ref="524352792"/>
    <nd ref="524344724"/>
    <nd ref="524344713"/>
    <nd ref="524352800"/>
    <tag k="addr:city" v="Bridgeport"/>
    <tag k="attribution" v="Mono County GIS"/>
    <tag k="building" v="yes"/>
    <tag k="type" v="Public Facility"/>
  </way>
  <way id="42154745" version="2" timestamp="2009-10-10T09:41:13Z" uid="20587" user="balrog-kun" changeset="2801655">
    <nd ref="524337269"/>
    <nd ref="524337253"/>
    <nd ref="524337239"/>
    <nd ref="524337245"/>
    <nd ref="524337208"/>
    <nd ref="524337223"/>
    <nd ref="524334611"/>
    <nd ref="524334618"/>
    <nd ref="524337269"/>
    <tag k="addr:city" v="Bridgeport"/>
    <tag k="addr:housenumber" v="123"/>
    <tag k="addr:street" v="Emigrant"/>
    <tag k="attribution" v="Mono County GIS"/>
    <tag k="building" v="yes"/>
    <tag k="type" v="Public Facility"/>
  </way>
  <way id="42154747" version="2" timestamp="2009-10-10T09:41:13Z" uid="20587" user="balrog-kun" changeset="2801655">
    <nd ref="524333433"/>
    <nd ref="524336327"/>
    <nd ref="524336316"/>
    <nd ref="524333725"/>
    <nd ref="524333433"/>
    <tag k="addr:city" v="Bridgeport"/>
    <tag k="addr:housenumber" v="123"/>
    <tag k="addr:street" v="Emigrant"/>
    <tag k="attribution" v="Mono County GIS"/>
    <tag k="building" v="yes"/>
    <tag k="type" v="Public Facility"/>
  </way>
  <way id="42154750" version="2" timestamp="2009-10-10T09:41:13Z" uid="20587" user="balrog-kun" changeset="2801655">
    <nd ref="524332915"/>
    <nd ref="524335729"/>
    <nd ref="524335714"/>
    <nd ref="524332908"/>
    <nd ref="524332915"/>
    <tag k="addr:city" v="Bridgeport"/>
    <tag k="addr:housenumber" v="85"/>
    <tag k="addr:street" v="Kirkwood"/>
    <tag k="attribution" v="Mono County GIS"/>
    <tag k="building" v="yes"/>
  </way>
  <way id="42154751" version="2" timestamp="2009-10-10T09:41:13Z" uid="20587" user="balrog-kun" changeset="2801655">
    <nd ref="524333434"/>
    <nd ref="524333435"/>
    <nd ref="524333726"/>
    <nd ref="524333724"/>
    <nd ref="524333434"/>
    <tag k="addr:city" v="Bridgeport"/>
    <tag k="addr:housenumber" v="123"/>
    <tag k="addr:street" v="Emigrant"/>
    <tag k="attribution" v="Mono County GIS"/>
    <tag k="building" v="yes"/>
    <tag k="type" v="Public Facility"/>
  </way>
  <way id="42154763" version="2" timestamp="2009-10-10T09:40:24Z" uid="20587" user="balrog-kun" changeset="2801655">
    <nd ref="524334976"/>
    <nd ref="524334957"/>
    <nd ref="524334958"/>
    <nd ref="524334961"/>
    <nd ref="524334976"/>
    <tag k="addr:city" v="Bridgeport"/>
    <tag k="addr:housenumber" v="123"/>
    <tag k="addr:street" v="Emigrant"/>
    <tag k="attribution" v="Mono County GIS"/>
    <tag k="building" v="yes"/>
  </way>
  <way id="42154764" version="2" timestamp="2009-10-10T09:40:23Z" uid="20587" user="balrog-kun" changeset="2801655">
    <nd ref="524344730"/>
    <nd ref="524344658"/>
    <nd ref="524344666"/>
    <nd ref="524344738"/>
    <nd ref="524344730"/>
    <tag k="addr:city" v="Bridgeport"/>
    <tag k="attribution" v="Mono County GIS"/>
    <tag k="building" v="yes"/>
    <tag k="type" v="Public Facility"/>
  </way>
  <way id="42154765" version="2" timestamp="2009-10-10T09:40:23Z" uid="20587" user="balrog-kun" changeset="2801655">
    <nd ref="524332818"/>
    <nd ref="524332828"/>
    <nd ref="524333424"/>
    <nd ref="524333432"/>
    <nd ref="524333411"/>
    <nd ref="524333321"/>
    <nd ref="524333327"/>
    <nd ref="524333343"/>
    <nd ref="524332818"/>
    <tag k="addr:city" v="Bridgeport"/>
    <tag k="addr:housenumber" v="94"/>
    <tag k="addr:street" v="Kirkwood"/>
    <tag k="attribution" v="Mono County GIS"/>
    <tag k="building" v="yes"/>
  </way>
  <way id="42154770" version="2" timestamp="2009-10-10T09:40:27Z" uid="20587" user="balrog-kun" changeset="2801655">
    <nd ref="524337535"/>
    <nd ref="524337565"/>
    <nd ref="524337537"/>
    <nd ref="524337525"/>
    <nd ref="524337535"/>
    <tag k="addr:city" v="Bridgeport"/>
    <tag k="attribution" v="Mono County GIS"/>
    <tag k="building" v="yes"/>
  </way>
  <way id="42154773" version="2" timestamp="2009-10-10T09:40:25Z" uid="20587" user="balrog-kun" changeset="2801655">
    <nd ref="524336430"/>
    <nd ref="524336427"/>
    <nd ref="524336413"/>
    <nd ref="524336397"/>
    <nd ref="524336430"/>
    <tag k="addr:city" v="Bridgeport"/>
    <tag k="addr:housenumber" v="148"/>
    <tag k="addr:street" v="Emigrant"/>
    <tag k="attribution" v="Mono County GIS"/>
    <tag k="building" v="yes"/>
  </way>
  <way id="42154774" version="2" timestamp="2009-10-10T09:40:26Z" uid="20587" user="balrog-kun" changeset="2801655">
    <nd ref="524352963"/>
    <nd ref="524352956"/>
    <nd ref="524352939"/>
    <nd ref="524352919"/>
    <nd ref="524352902"/>
    <nd ref="524352883"/>
    <nd ref="524352869"/>
    <nd ref="524352860"/>
    <nd ref="524352963"/>
    <tag k="addr:city" v="Bridgeport"/>
    <tag k="addr:housenumber" v="10"/>
    <tag k="addr:street" v="Emigrant"/>
    <tag k="attribution" v="Mono County GIS"/>
    <tag k="building" v="yes"/>
  </way>
  <way id="42154776" version="2" timestamp="2009-10-10T09:40:25Z" uid="20587" user="balrog-kun" changeset="2801655">
    <nd ref="524352765"/>
    <nd ref="524352721"/>
    <nd ref="524352843"/>
    <nd ref="524352829"/>
    <nd ref="524352643"/>
    <nd ref="524352695"/>
    <nd ref="524352662"/>
    <nd ref="524352747"/>
    <nd ref="524352765"/>
    <tag k="addr:city" v="Bridgeport"/>
    <tag k="addr:housenumber" v="30"/>
    <tag k="addr:street" v="Emigrant"/>
    <tag k="attribution" v="Mono County GIS"/>
    <tag k="building" v="yes"/>
  </way>
  <way id="42154778" version="2" timestamp="2009-10-10T09:40:25Z" uid="20587" user="balrog-kun" changeset="2801655">
    <nd ref="524337764"/>
    <nd ref="524337757"/>
    <nd ref="524337755"/>
    <nd ref="524337754"/>
    <nd ref="524337764"/>
    <tag k="addr:city" v="Bridgeport"/>
    <tag k="attribution" v="Mono County GIS"/>
    <tag k="building" v="yes"/>
  </way>
  <way id="42154786" version="2" timestamp="2009-10-10T09:40:29Z" uid="20587" user="balrog-kun" changeset="2801655">
    <nd ref="524336571"/>
    <nd ref="524336636"/>
    <nd ref="524336657"/>
    <nd ref="524336594"/>
    <nd ref="524336613"/>
    <nd ref="524336712"/>
    <nd ref="524336693"/>
    <nd ref="524336680"/>
    <nd ref="524336571"/>
    <tag k="addr:city" v="Bridgeport"/>
    <tag k="addr:housenumber" v="134"/>
    <tag k="addr:street" v="Emigrant"/>
    <tag k="attribution" v="Mono County GIS"/>
    <tag k="building" v="yes"/>
  </way>
  <way id="42154795" version="2" timestamp="2009-10-10T09:40:28Z" uid="20587" user="balrog-kun" changeset="2801655">
    <nd ref="524337800"/>
    <nd ref="524337767"/>
    <nd ref="524337781"/>
    <nd ref="524337765"/>
    <nd ref="524337800"/>
    <tag k="addr:city" v="Bridgeport"/>
    <tag k="addr:housenumber" v="106"/>
    <tag k="addr:street" v="Emigrant"/>
    <tag k="attribution" v="Mono County GIS"/>
    <tag k="building" v="yes"/>
  </way>
  <way id="42154796" version="2" timestamp="2009-10-10T09:40:27Z" uid="20587" user="balrog-kun" changeset="2801655">
    <nd ref="524336144"/>
    <nd ref="524336148"/>
    <nd ref="524336147"/>
    <nd ref="524336146"/>
    <nd ref="524336111"/>
    <nd ref="524336093"/>
    <nd ref="524336035"/>
    <nd ref="524336055"/>
    <nd ref="524336069"/>
    <nd ref="524336076"/>
    <nd ref="524336125"/>
    <nd ref="524336141"/>
    <nd ref="524336143"/>
    <nd ref="524336142"/>
    <nd ref="524336144"/>
    <tag k="addr:city" v="Bridgeport"/>
    <tag k="addr:housenumber" v="194"/>
    <tag k="addr:street" v="Emigrant"/>
    <tag k="attribution" v="Mono County GIS"/>
    <tag k="building" v="yes"/>
  </way>
  <way id="42154797" version="2" timestamp="2009-10-10T09:40:28Z" uid="20587" user="balrog-kun" changeset="2801655">
    <nd ref="524338225"/>
    <nd ref="524338160"/>
    <nd ref="524338188"/>
    <nd ref="524338154"/>
    <nd ref="524338149"/>
    <nd ref="524338205"/>
    <nd ref="524338225"/>
    <tag k="addr:city" v="Bridgeport"/>
    <tag k="addr:housenumber" v="80"/>
    <tag k="addr:street" v="Emigrant"/>
    <tag k="attribution" v="Mono County GIS"/>
    <tag k="building" v="yes"/>
  </way>
  <way id="42154798" version="2" timestamp="2009-10-10T09:40:27Z" uid="20587" user="balrog-kun" changeset="2801655">
    <nd ref="524336722"/>
    <nd ref="524337468"/>
    <nd ref="524337313"/>
    <nd ref="524337297"/>
    <nd ref="524337335"/>
    <nd ref="524337328"/>
    <nd ref="524337282"/>
    <nd ref="524336437"/>
    <nd ref="524336722"/>
    <tag k="addr:city" v="Bridgeport"/>
    <tag k="addr:housenumber" v="134"/>
    <tag k="addr:street" v="Emigrant"/>
    <tag k="attribution" v="Mono County GIS"/>
    <tag k="building" v="yes"/>
  </way>
  <way id="42154800" version="2" timestamp="2009-10-10T09:40:31Z" uid="20587" user="balrog-kun" changeset="2801655">
    <nd ref="524336734"/>
    <nd ref="524336732"/>
    <nd ref="524336551"/>
    <nd ref="524336510"/>
    <nd ref="524336527"/>
    <nd ref="524336495"/>
    <nd ref="524336477"/>
    <nd ref="524336450"/>
    <nd ref="524336734"/>
    <tag k="addr:city" v="Bridgeport"/>
    <tag k="addr:housenumber" v="134"/>
    <tag k="addr:street" v="Emigrant"/>
    <tag k="attribution" v="Mono County GIS"/>
    <tag k="building" v="yes"/>
  </way>
  <way id="42154802" version="2" timestamp="2009-10-10T09:40:31Z" uid="20587" user="balrog-kun" changeset="2801655">
    <nd ref="524337392"/>
    <nd ref="524337400"/>
    <nd ref="524337407"/>
    <nd ref="524337408"/>
    <nd ref="524337418"/>
    <nd ref="524337434"/>
    <nd ref="524337451"/>
    <nd ref="524337509"/>
    <nd ref="524337351"/>
    <nd ref="524337492"/>
    <nd ref="524337476"/>
    <nd ref="524337380"/>
    <nd ref="524337391"/>
    <nd ref="524337368"/>
    <nd ref="524337392"/>
    <tag k="addr:city" v="Bridgeport"/>
    <tag k="addr:housenumber" v="122"/>
    <tag k="addr:street" v="Emigrant"/>
    <tag k="attribution" v="Mono County GIS"/>
    <tag k="building" v="yes"/>
  </way>
  <way id="42154805" version="2" timestamp="2009-10-10T09:40:30Z" uid="20587" user="balrog-kun" changeset="2801655">
    <nd ref="524338138"/>
    <nd ref="524338123"/>
    <nd ref="524338104"/>
    <nd ref="524338090"/>
    <nd ref="524338138"/>
    <tag k="addr:city" v="Bridgeport"/>
    <tag k="attribution" v="Mono County GIS"/>
    <tag k="building" v="yes"/>
  </way>
  <way id="42154807" version="2" timestamp="2009-10-10T09:40:30Z" uid="20587" user="balrog-kun" changeset="2801655">
    <nd ref="524335394"/>
    <nd ref="524335375"/>
    <nd ref="524335209"/>
    <nd ref="524335242"/>
    <nd ref="524335263"/>
    <nd ref="524335226"/>
    <nd ref="524335394"/>
    <tag k="addr:city" v="Bridgeport"/>
    <tag k="addr:housenumber" v="208"/>
    <tag k="addr:street" v="Emigrant"/>
    <tag k="attribution" v="Mono County GIS"/>
    <tag k="building" v="yes"/>
  </way>
  <way id="42154810" version="2" timestamp="2009-10-10T09:40:30Z" uid="20587" user="balrog-kun" changeset="2801655">
    <nd ref="524337626"/>
    <nd ref="524337641"/>
    <nd ref="524337599"/>
    <nd ref="524337615"/>
    <nd ref="524337661"/>
    <nd ref="524337692"/>
    <nd ref="524337679"/>
    <nd ref="524337726"/>
    <nd ref="524337626"/>
    <tag k="addr:city" v="Bridgeport"/>
    <tag k="addr:housenumber" v="106"/>
    <tag k="addr:street" v="Emigrant"/>
    <tag k="attribution" v="Mono County GIS"/>
    <tag k="building" v="yes"/>
  </way>
  <way id="42154811" version="2" timestamp="2009-10-10T09:40:30Z" uid="20587" user="balrog-kun" changeset="2801655">
    <nd ref="524337708"/>
    <nd ref="524337740"/>
    <nd ref="524338030"/>
    <nd ref="524337977"/>
    <nd ref="524337960"/>
    <nd ref="524337998"/>
    <nd ref="524338078"/>
    <nd ref="524338064"/>
    <nd ref="524338048"/>
    <nd ref="524338042"/>
    <nd ref="524337708"/>
    <tag k="addr:city" v="Bridgeport"/>
    <tag k="attribution" v="Mono County GIS"/>
    <tag k="building" v="yes"/>
  </way>
  <way id="42154812" version="2" timestamp="2009-10-10T09:40:30Z" uid="20587" user="balrog-kun" changeset="2801655">
    <nd ref="524352997"/>
    <nd ref="524353030"/>
    <nd ref="524353295"/>
    <nd ref="524353311"/>
    <nd ref="524353331"/>
    <nd ref="524353073"/>
    <nd ref="524352997"/>
    <tag k="addr:city" v="Bridgeport"/>
    <tag k="addr:housenumber" v="351"/>
    <tag k="addr:street" v="Stock"/>
    <tag k="attribution" v="Mono County GIS"/>
    <tag k="building" v="yes"/>
  </way>
  <way id="42154813" version="2" timestamp="2009-10-10T09:40:30Z" uid="20587" user="balrog-kun" changeset="2801655">
    <nd ref="524335494"/>
    <nd ref="524335495"/>
    <nd ref="524335516"/>
    <nd ref="524335498"/>
    <nd ref="524335494"/>
    <tag k="addr:city" v="Bridgeport"/>
    <tag k="attribution" v="Mono County GIS"/>
    <tag k="building" v="yes"/>
  </way>
  <way id="42154815" version="2" timestamp="2009-10-10T09:40:29Z" uid="20587" user="balrog-kun" changeset="2801655">
    <nd ref="524336924"/>
    <nd ref="524336927"/>
    <nd ref="524337005"/>
    <nd ref="524337012"/>
    <nd ref="524336968"/>
    <nd ref="524336986"/>
    <nd ref="524336924"/>
    <tag k="addr:city" v="Bridgeport"/>
    <tag k="attribution" v="Mono County GIS"/>
    <tag k="building" v="yes"/>
  </way>
  <way id="42154816" version="2" timestamp="2009-10-10T09:40:34Z" uid="20587" user="balrog-kun" changeset="2801655">
    <nd ref="524336812"/>
    <nd ref="524336829"/>
    <nd ref="524337018"/>
    <nd ref="524337064"/>
    <nd ref="524337038"/>
    <nd ref="524337072"/>
    <nd ref="524336935"/>
    <nd ref="524336954"/>
    <nd ref="524336812"/>
    <tag k="addr:city" v="Bridgeport"/>
    <tag k="addr:housenumber" v="475"/>
    <tag k="addr:street" v="Stock"/>
    <tag k="attribution" v="Mono County GIS"/>
    <tag k="building" v="yes"/>
  </way>
  <way id="42154818" version="2" timestamp="2009-10-10T09:40:34Z" uid="20587" user="balrog-kun" changeset="2801655">
    <nd ref="524335414"/>
    <nd ref="524335411"/>
    <nd ref="524335418"/>
    <nd ref="524335424"/>
    <nd ref="524335414"/>
    <tag k="addr:city" v="Bridgeport"/>
    <tag k="attribution" v="Mono County GIS"/>
    <tag k="building" v="yes"/>
  </way>
  <way id="42154819" version="2" timestamp="2009-10-10T09:40:34Z" uid="20587" user="balrog-kun" changeset="2801655">
    <nd ref="524335166"/>
    <nd ref="524335181"/>
    <nd ref="524335147"/>
    <nd ref="524335125"/>
    <nd ref="524335166"/>
    <tag k="addr:city" v="Bridgeport"/>
    <tag k="attribution" v="Mono County GIS"/>
    <tag k="building" v="yes"/>
  </way>
  <way id="42154821" version="2" timestamp="2009-10-10T09:40:35Z" uid="20587" user="balrog-kun" changeset="2801655">
    <nd ref="524353072"/>
    <nd ref="524353225"/>
    <nd ref="524353241"/>
    <nd ref="524353258"/>
    <nd ref="524353274"/>
    <nd ref="524353292"/>
    <nd ref="524353392"/>
    <nd ref="524353433"/>
    <nd ref="524353416"/>
    <nd ref="524353371"/>
    <nd ref="524353343"/>
    <nd ref="524353359"/>
    <nd ref="524353041"/>
    <nd ref="524353058"/>
    <nd ref="524353072"/>
    <tag k="addr:city" v="Bridgeport"/>
    <tag k="addr:housenumber" v="345"/>
    <tag k="addr:street" v="Stock"/>
    <tag k="attribution" v="Mono County GIS"/>
    <tag k="building" v="yes"/>
  </way>
  <way id="42154823" version="2" timestamp="2009-10-10T09:40:35Z" uid="20587" user="balrog-kun" changeset="2801655">
    <nd ref="524335416"/>
    <nd ref="524335417"/>
    <nd ref="524335425"/>
    <nd ref="524335436"/>
    <nd ref="524335416"/>
    <tag k="addr:city" v="Bridgeport"/>
    <tag k="attribution" v="Mono County GIS"/>
    <tag k="building" v="yes"/>
  </way>
  <way id="42154824" version="2" timestamp="2009-10-10T09:40:31Z" uid="20587" user="balrog-kun" changeset="2801655">
    <nd ref="524336834"/>
    <nd ref="524336918"/>
    <nd ref="524336433"/>
    <nd ref="524336431"/>
    <nd ref="524336378"/>
    <nd ref="524336155"/>
    <nd ref="524336198"/>
    <nd ref="524336209"/>
    <nd ref="524336170"/>
    <nd ref="524336188"/>
    <nd ref="524336166"/>
    <nd ref="524336169"/>
    <nd ref="524336834"/>
    <tag k="addr:city" v="Bridgeport"/>
    <tag k="addr:housenumber" v="172"/>
    <tag k="addr:street" v="Emigrant"/>
    <tag k="attribution" v="Mono County GIS"/>
    <tag k="building" v="yes"/>
  </way>
  <way id="42154825" version="2" timestamp="2009-10-10T09:40:32Z" uid="20587" user="balrog-kun" changeset="2801655">
    <nd ref="524353136"/>
    <nd ref="524353082"/>
    <nd ref="524353097"/>
    <nd ref="524353115"/>
    <nd ref="524353136"/>
    <tag k="addr:city" v="Bridgeport"/>
    <tag k="attribution" v="Mono County GIS"/>
    <tag k="building" v="yes"/>
  </way>
  <way id="42154826" version="2" timestamp="2009-10-10T09:40:32Z" uid="20587" user="balrog-kun" changeset="2801655">
    <nd ref="524353450"/>
    <nd ref="524353464"/>
    <nd ref="524353470"/>
    <nd ref="524353490"/>
    <nd ref="524353450"/>
    <tag k="addr:city" v="Bridgeport"/>
    <tag k="attribution" v="Mono County GIS"/>
    <tag k="building" v="yes"/>
  </way>
  <way id="42154827" version="2" timestamp="2009-10-10T09:40:32Z" uid="20587" user="balrog-kun" changeset="2801655">
    <nd ref="524353156"/>
    <nd ref="524353202"/>
    <nd ref="524353177"/>
    <nd ref="524353217"/>
    <nd ref="524353156"/>
    <tag k="addr:city" v="Bridgeport"/>
    <tag k="addr:housenumber" v="351"/>
    <tag k="addr:street" v="Stock"/>
    <tag k="attribution" v="Mono County GIS"/>
    <tag k="building" v="yes"/>
  </way>
  <way id="42154828" version="2" timestamp="2009-10-10T09:40:33Z" uid="20587" user="balrog-kun" changeset="2801655">
    <nd ref="524352979"/>
    <nd ref="524352561"/>
    <nd ref="524352608"/>
    <nd ref="524353014"/>
    <nd ref="524352979"/>
    <tag k="addr:city" v="Bridgeport"/>
    <tag k="addr:housenumber" v="38"/>
    <tag k="addr:street" v="Emigrant"/>
    <tag k="attribution" v="Mono County GIS"/>
    <tag k="building" v="yes"/>
  </way>
  <way id="42154829" version="2" timestamp="2009-10-10T09:40:33Z" uid="20587" user="balrog-kun" changeset="2801655">
    <nd ref="524337088"/>
    <nd ref="524336744"/>
    <nd ref="524336781"/>
    <nd ref="524337098"/>
    <nd ref="524337088"/>
    <tag k="addr:city" v="Bridgeport"/>
    <tag k="attribution" v="Mono County GIS"/>
    <tag k="building" v="yes"/>
  </way>
  <way id="42154831" version="2" timestamp="2009-10-10T09:40:33Z" uid="20587" user="balrog-kun" changeset="2801655">
    <nd ref="524335461"/>
    <nd ref="524335445"/>
    <nd ref="524335193"/>
    <nd ref="524335043"/>
    <nd ref="524335041"/>
    <nd ref="524335080"/>
    <nd ref="524335096"/>
    <nd ref="524335105"/>
    <nd ref="524335461"/>
    <tag k="addr:city" v="Bridgeport"/>
    <tag k="attribution" v="Mono County GIS"/>
    <tag k="building" v="yes"/>
  </way>
  <way id="42154835" version="2" timestamp="2009-10-10T09:40:36Z" uid="20587" user="balrog-kun" changeset="2801655">
    <nd ref="524335536"/>
    <nd ref="524335523"/>
    <nd ref="524336877"/>
    <nd ref="524336856"/>
    <nd ref="524335536"/>
    <tag k="addr:city" v="Bridgeport"/>
    <tag k="attribution" v="Mono County GIS"/>
    <tag k="building" v="yes"/>
  </way>
  <way id="42154836" version="2" timestamp="2009-10-10T09:40:37Z" uid="20587" user="balrog-kun" changeset="2801655">
    <nd ref="524331880"/>
    <nd ref="524331864"/>
    <nd ref="524331854"/>
    <nd ref="524331839"/>
    <nd ref="524331880"/>
    <tag k="addr:city" v="Bridgeport"/>
    <tag k="addr:housenumber" v="355"/>
    <tag k="addr:street" v="Main"/>
    <tag k="attribution" v="Mono County GIS"/>
    <tag k="building" v="yes"/>
  </way>
  <way id="42154839" version="2" timestamp="2009-10-10T09:40:37Z" uid="20587" user="balrog-kun" changeset="2801655">
    <nd ref="524347647"/>
    <nd ref="524347632"/>
    <nd ref="524347420"/>
    <nd ref="524347402"/>
    <nd ref="524347647"/>
    <tag k="addr:housenumber" v="56"/>
    <tag k="addr:street" v="Kingsley"/>
    <tag k="attribution" v="Mono County GIS"/>
    <tag k="building" v="yes"/>
  </way>
  <way id="42154843" version="2" timestamp="2009-10-10T09:40:35Z" uid="20587" user="balrog-kun" changeset="2801655">
    <nd ref="524330710"/>
    <nd ref="524330698"/>
    <nd ref="524330688"/>
    <nd ref="524330677"/>
    <nd ref="524330710"/>
    <tag k="attribution" v="Mono County GIS"/>
    <tag k="building" v="yes"/>
  </way>
  <way id="42154846" version="2" timestamp="2009-10-10T09:40:36Z" uid="20587" user="balrog-kun" changeset="2801655">
    <nd ref="524344307"/>
    <nd ref="524344641"/>
    <nd ref="524352813"/>
    <nd ref="524352818"/>
    <nd ref="524344751"/>
    <nd ref="524344764"/>
    <nd ref="524344697"/>
    <nd ref="524344709"/>
    <nd ref="524344669"/>
    <nd ref="524344690"/>
    <nd ref="524344467"/>
    <nd ref="524344678"/>
    <nd ref="524344452"/>
    <nd ref="524344448"/>
    <nd ref="524344627"/>
    <nd ref="524344604"/>
    <nd ref="524344307"/>
    <tag k="addr:city" v="Bridgeport"/>
    <tag k="addr:housenumber" v="100"/>
    <tag k="addr:street" v="Bryant"/>
    <tag k="attribution" v="Mono County GIS"/>
    <tag k="building" v="yes"/>
    <tag k="name" v="Mono County Sheriff"/>
    <tag k="type" v="Public Facility"/>
  </way>
  <way id="42154848" version="2" timestamp="2009-10-10T09:40:39Z" uid="20587" user="balrog-kun" changeset="2801655">
    <nd ref="524335675"/>
    <nd ref="524335658"/>
    <nd ref="524335653"/>
    <nd ref="524335659"/>
    <nd ref="524335675"/>
    <tag k="addr:city" v="Bridgeport"/>
    <tag k="attribution" v="Mono County GIS"/>
    <tag k="building" v="yes"/>
  </way>
  <way id="42154850" version="2" timestamp="2009-10-10T09:40:39Z" uid="20587" user="balrog-kun" changeset="2801655">
    <nd ref="524368666"/>
    <nd ref="524368695"/>
    <nd ref="524368644"/>
    <nd ref="524368630"/>
    <nd ref="524368666"/>
    <tag k="addr:city" v="Bridgeport"/>
    <tag k="attribution" v="Mono County GIS"/>
    <tag k="building" v="yes"/>
  </way>
  <way id="42154854" version="2" timestamp="2009-10-10T09:40:39Z" uid="20587" user="balrog-kun" changeset="2801655">
    <nd ref="524333051"/>
    <nd ref="524333053"/>
    <nd ref="524333285"/>
    <nd ref="524333306"/>
    <nd ref="524333051"/>
    <tag k="addr:city" v="Bridgeport"/>
    <tag k="addr:housenumber" v="78"/>
    <tag k="addr:street" v="Kirkwood"/>
    <tag k="attribution" v="Mono County GIS"/>
    <tag k="building" v="yes"/>
  </way>
  <way id="42154855" version="2" timestamp="2009-10-10T09:40:40Z" uid="20587" user="balrog-kun" changeset="2801655">
    <nd ref="524329118"/>
    <nd ref="524332296"/>
    <nd ref="524332309"/>
    <nd ref="524329119"/>
    <nd ref="524329118"/>
    <tag k="addr:city" v="Bridgeport"/>
    <tag k="addr:housenumber" v="484"/>
    <tag k="addr:street" v="Main"/>
    <tag k="attribution" v="Mono County GIS"/>
    <tag k="building" v="yes"/>
  </way>
  <way id="42154856" version="2" timestamp="2009-10-10T09:40:38Z" uid="20587" user="balrog-kun" changeset="2801655">
    <nd ref="524335472"/>
    <nd ref="524335484"/>
    <nd ref="524335554"/>
    <nd ref="524335541"/>
    <nd ref="524335472"/>
    <tag k="addr:city" v="Bridgeport"/>
    <tag k="attribution" v="Mono County GIS"/>
    <tag k="building" v="yes"/>
  </way>
  <way id="42154857" version="2" timestamp="2009-10-10T09:40:38Z" uid="20587" user="balrog-kun" changeset="2801655">
    <nd ref="524335640"/>
    <nd ref="524335626"/>
    <nd ref="524335617"/>
    <nd ref="524335598"/>
    <nd ref="524335640"/>
    <tag k="addr:city" v="Bridgeport"/>
    <tag k="attribution" v="Mono County GIS"/>
    <tag k="building" v="yes"/>
  </way>
  <way id="42154859" version="2" timestamp="2009-10-10T09:40:37Z" uid="20587" user="balrog-kun" changeset="2801655">
    <nd ref="524335583"/>
    <nd ref="524335568"/>
    <nd ref="524335643"/>
    <nd ref="524335642"/>
    <nd ref="524335583"/>
    <tag k="addr:city" v="Bridgeport"/>
    <tag k="attribution" v="Mono County GIS"/>
    <tag k="building" v="yes"/>
  </way>
  <way id="42154861" version="2" timestamp="2009-10-10T09:40:39Z" uid="20587" user="balrog-kun" changeset="2801655">
    <nd ref="524353524"/>
    <nd ref="524353548"/>
    <nd ref="524353547"/>
    <nd ref="524353537"/>
    <nd ref="524353524"/>
    <tag k="addr:city" v="Bridgeport"/>
    <tag k="attribution" v="Mono County GIS"/>
    <tag k="building" v="yes"/>
  </way>
  <way id="42154863" version="2" timestamp="2009-10-10T09:40:38Z" uid="20587" user="balrog-kun" changeset="2801655">
    <nd ref="524336885"/>
    <nd ref="524336799"/>
    <nd ref="524336839"/>
    <nd ref="524336901"/>
    <nd ref="524336885"/>
    <tag k="addr:city" v="Bridgeport"/>
    <tag k="addr:housenumber" v="487"/>
    <tag k="addr:street" v="Stock"/>
    <tag k="attribution" v="Mono County GIS"/>
    <tag k="building" v="yes"/>
  </way>
  <way id="42154864" version="2" timestamp="2009-10-10T09:40:42Z" uid="20587" user="balrog-kun" changeset="2801655">
    <nd ref="524337162"/>
    <nd ref="524337206"/>
    <nd ref="524337205"/>
    <nd ref="524337188"/>
    <nd ref="524337179"/>
    <nd ref="524337145"/>
    <nd ref="524337127"/>
    <nd ref="524337110"/>
    <nd ref="524337162"/>
    <tag k="addr:city" v="Bridgeport"/>
    <tag k="addr:housenumber" v="140"/>
    <tag k="addr:street" v="Emigrant"/>
    <tag k="attribution" v="Mono County GIS"/>
    <tag k="building" v="yes"/>
  </way>
  <way id="42154865" version="2" timestamp="2009-10-10T09:40:42Z" uid="20587" user="balrog-kun" changeset="2801655">
    <nd ref="524368386"/>
    <nd ref="524368409"/>
    <nd ref="524368388"/>
    <nd ref="524368427"/>
    <nd ref="524368386"/>
    <tag k="addr:city" v="Bridgeport"/>
    <tag k="attribution" v="Mono County GIS"/>
    <tag k="building" v="yes"/>
  </way>
  <way id="42154866" version="2" timestamp="2009-10-10T09:40:42Z" uid="20587" user="balrog-kun" changeset="2801655">
    <nd ref="524335060"/>
    <nd ref="524335078"/>
    <nd ref="524335068"/>
    <nd ref="524335079"/>
    <nd ref="524335060"/>
    <tag k="addr:city" v="Bridgeport"/>
    <tag k="attribution" v="Mono County GIS"/>
    <tag k="building" v="yes"/>
  </way>
  <way id="42154868" version="2" timestamp="2009-10-10T09:40:42Z" uid="20587" user="balrog-kun" changeset="2801655">
    <nd ref="524344780"/>
    <nd ref="524345104"/>
    <nd ref="524343498"/>
    <nd ref="524343509"/>
    <nd ref="524343476"/>
    <nd ref="524343487"/>
    <nd ref="524343248"/>
    <nd ref="524343262"/>
    <nd ref="524343398"/>
    <nd ref="524343376"/>
    <nd ref="524343375"/>
    <nd ref="524343384"/>
    <nd ref="524344780"/>
    <tag k="addr:city" v="Bridgeport"/>
    <tag k="addr:housenumber" v="205"/>
    <tag k="addr:street" v="Main"/>
    <tag k="attribution" v="Mono County GIS"/>
    <tag k="building" v="yes"/>
  </way>
  <way id="42154875" version="2" timestamp="2009-10-10T09:40:40Z" uid="20587" user="balrog-kun" changeset="2801655">
    <nd ref="524347574"/>
    <nd ref="524347583"/>
    <nd ref="524347575"/>
    <nd ref="524347597"/>
    <nd ref="524347574"/>
    <tag k="addr:city" v="Bridgeport"/>
    <tag k="addr:housenumber" v="157"/>
    <tag k="addr:street" v="Main"/>
    <tag k="attribution" v="Mono County GIS"/>
    <tag k="building" v="yes"/>
  </way>
  <way id="42154878" version="2" timestamp="2009-10-10T09:40:41Z" uid="20587" user="balrog-kun" changeset="2801655">
    <nd ref="524343461"/>
    <nd ref="524345088"/>
    <nd ref="524345100"/>
    <nd ref="524345219"/>
    <nd ref="524345208"/>
    <nd ref="524345172"/>
    <nd ref="524345161"/>
    <nd ref="524345197"/>
    <nd ref="524345183"/>
    <nd ref="524345148"/>
    <nd ref="524345127"/>
    <nd ref="524343609"/>
    <nd ref="524343461"/>
    <tag k="addr:city" v="Bridgeport"/>
    <tag k="addr:housenumber" v="175"/>
    <tag k="addr:street" v="Main"/>
    <tag k="attribution" v="Mono County GIS"/>
    <tag k="building" v="yes"/>
  </way>
  <way id="42154879" version="2" timestamp="2009-10-10T09:40:41Z" uid="20587" user="balrog-kun" changeset="2801655">
    <nd ref="524332471"/>
    <nd ref="524332487"/>
    <nd ref="524332501"/>
    <nd ref="524332517"/>
    <nd ref="524332471"/>
    <tag k="addr:city" v="Bridgeport"/>
    <tag k="addr:housenumber" v="398"/>
    <tag k="addr:street" v="Main"/>
    <tag k="attribution" v="Mono County GIS"/>
    <tag k="building" v="yes"/>
  </way>
  <way id="42154882" version="2" timestamp="2009-10-10T09:40:44Z" uid="20587" user="balrog-kun" changeset="2801655">
    <nd ref="524349739"/>
    <nd ref="524349710"/>
    <nd ref="524349680"/>
    <nd ref="524349650"/>
    <nd ref="524349739"/>
    <tag k="addr:city" v="Bridgeport"/>
    <tag k="attribution" v="Mono County GIS"/>
    <tag k="building" v="yes"/>
  </way>
  <way id="42154883" version="2" timestamp="2009-10-10T09:40:44Z" uid="20587" user="balrog-kun" changeset="2801655">
    <nd ref="524343596"/>
    <nd ref="524343581"/>
    <nd ref="524343568"/>
    <nd ref="524345116"/>
    <nd ref="524345105"/>
    <nd ref="524343556"/>
    <nd ref="524343596"/>
    <tag k="addr:city" v="Bridgeport"/>
    <tag k="addr:housenumber" v="185"/>
    <tag k="addr:street" v="Main"/>
    <tag k="attribution" v="Mono County GIS"/>
    <tag k="building" v="yes"/>
  </way>
  <way id="42154885" version="2" timestamp="2009-10-10T09:40:43Z" uid="20587" user="balrog-kun" changeset="2801655">
    <nd ref="524332381"/>
    <nd ref="524332398"/>
    <nd ref="524332406"/>
    <nd ref="524332327"/>
    <nd ref="524332408"/>
    <nd ref="524332411"/>
    <nd ref="524332381"/>
    <tag k="addr:city" v="Bridgeport"/>
    <tag k="attribution" v="Mono County GIS"/>
    <tag k="building" v="yes"/>
  </way>
  <way id="42154886" version="2" timestamp="2009-10-10T09:40:43Z" uid="20587" user="balrog-kun" changeset="2801655">
    <nd ref="524332528"/>
    <nd ref="524332538"/>
    <nd ref="524332340"/>
    <nd ref="524332352"/>
    <nd ref="524332364"/>
    <nd ref="524332365"/>
    <nd ref="524332423"/>
    <nd ref="524332368"/>
    <nd ref="524332528"/>
    <tag k="addr:city" v="Bridgeport"/>
    <tag k="addr:housenumber" v="412"/>
    <tag k="addr:street" v="Main"/>
    <tag k="attribution" v="Mono County GIS"/>
    <tag k="building" v="yes"/>
  </way>
  <way id="42154890" version="2" timestamp="2009-10-10T09:40:45Z" uid="20587" user="balrog-kun" changeset="2801655">
    <nd ref="524333787"/>
    <nd ref="524333970"/>
    <nd ref="524333847"/>
    <nd ref="524333799"/>
    <nd ref="524333818"/>
    <nd ref="524333837"/>
    <nd ref="524333838"/>
    <nd ref="524333864"/>
    <nd ref="524333787"/>
    <tag k="addr:city" v="Bridgeport"/>
    <tag k="addr:housenumber" v="380"/>
    <tag k="addr:street" v="Main"/>
    <tag k="attribution" v="Mono County GIS"/>
    <tag k="building" v="yes"/>
  </way>
  <way id="42154891" version="2" timestamp="2009-10-10T09:40:45Z" uid="20587" user="balrog-kun" changeset="2801655">
    <nd ref="524349749"/>
    <nd ref="524349771"/>
    <nd ref="524349825"/>
    <nd ref="524347617"/>
    <nd ref="524347601"/>
    <nd ref="524349799"/>
    <nd ref="524349749"/>
    <tag k="addr:city" v="Bridgeport"/>
    <tag k="addr:housenumber" v="157"/>
    <tag k="addr:street" v="Main"/>
    <tag k="attribution" v="Mono County GIS"/>
    <tag k="building" v="yes"/>
  </way>
  <way id="42154893" version="2" timestamp="2009-10-10T09:40:45Z" uid="20587" user="balrog-kun" changeset="2801655">
    <nd ref="524332434"/>
    <nd ref="524332445"/>
    <nd ref="524332581"/>
    <nd ref="524332592"/>
    <nd ref="524332434"/>
    <tag k="addr:city" v="Bridgeport"/>
    <tag k="addr:housenumber" v="398"/>
    <tag k="addr:street" v="Main"/>
    <tag k="attribution" v="Mono County GIS"/>
    <tag k="building" v="yes"/>
  </way>
  <way id="42154897" version="2" timestamp="2009-10-10T09:40:46Z" uid="20587" user="balrog-kun" changeset="2801655">
    <nd ref="524332221"/>
    <nd ref="524332460"/>
    <nd ref="524332407"/>
    <nd ref="524332207"/>
    <nd ref="524332221"/>
    <tag k="addr:city" v="Bridgeport"/>
    <tag k="attribution" v="Mono County GIS"/>
    <tag k="building" v="yes"/>
  </way>
  <way id="42154898" version="2" timestamp="2009-10-10T09:40:47Z" uid="20587" user="balrog-kun" changeset="2801655">
    <nd ref="524332603"/>
    <nd ref="524332571"/>
    <nd ref="524332561"/>
    <nd ref="524332549"/>
    <nd ref="524332603"/>
    <tag k="addr:city" v="Bridgeport"/>
    <tag k="addr:housenumber" v="398"/>
    <tag k="addr:street" v="Main"/>
    <tag k="attribution" v="Mono County GIS"/>
    <tag k="building" v="yes"/>
  </way>
  <way id="42154901" version="2" timestamp="2009-10-10T09:40:46Z" uid="20587" user="balrog-kun" changeset="2801655">
    <nd ref="524333917"/>
    <nd ref="524333938"/>
    <nd ref="524333952"/>
    <nd ref="524333953"/>
    <nd ref="524333917"/>
    <tag k="addr:city" v="Bridgeport"/>
    <tag k="addr:housenumber" v="380"/>
    <tag k="addr:street" v="Main"/>
    <tag k="attribution" v="Mono County GIS"/>
    <tag k="building" v="yes"/>
  </way>
  <way id="42154902" version="2" timestamp="2009-10-10T09:40:46Z" uid="20587" user="balrog-kun" changeset="2801655">
    <nd ref="524334149"/>
    <nd ref="524334142"/>
    <nd ref="524333996"/>
    <nd ref="524333981"/>
    <nd ref="524334025"/>
    <nd ref="524334003"/>
    <nd ref="524334098"/>
    <nd ref="524334069"/>
    <nd ref="524334149"/>
    <tag k="addr:city" v="Bridgeport"/>
    <tag k="addr:housenumber" v="362"/>
    <tag k="addr:street" v="Main"/>
    <tag k="attribution" v="Mono County GIS"/>
    <tag k="building" v="yes"/>
  </way>
  <way id="42154903" version="2" timestamp="2009-10-10T09:40:46Z" uid="20587" user="balrog-kun" changeset="2801655">
    <nd ref="524334457"/>
    <nd ref="524334547"/>
    <nd ref="524334529"/>
    <nd ref="524334522"/>
    <nd ref="524334493"/>
    <nd ref="524334431"/>
    <nd ref="524334457"/>
    <tag k="addr:city" v="Bridgeport"/>
    <tag k="addr:housenumber" v="340"/>
    <tag k="addr:street" v="Main"/>
    <tag k="attribution" v="Mono County GIS"/>
    <tag k="building" v="yes"/>
  </way>
  <way id="42154904" version="2" timestamp="2009-10-10T09:40:48Z" uid="20587" user="balrog-kun" changeset="2801655">
    <nd ref="524343096"/>
    <nd ref="524343133"/>
    <nd ref="524343112"/>
    <nd ref="524343154"/>
    <nd ref="524343096"/>
    <tag k="addr:city" v="Bridgeport"/>
    <tag k="addr:housenumber" v="47"/>
    <tag k="addr:street" v="Sinclair"/>
    <tag k="attribution" v="Mono County GIS"/>
    <tag k="building" v="yes"/>
  </way>
  <way id="42154905" version="2" timestamp="2009-10-10T09:40:48Z" uid="20587" user="balrog-kun" changeset="2801655">
    <nd ref="524330517"/>
    <nd ref="524330282"/>
    <nd ref="524330826"/>
    <nd ref="524330847"/>
    <nd ref="524330791"/>
    <nd ref="524330810"/>
    <nd ref="524330766"/>
    <nd ref="524330756"/>
    <nd ref="524330743"/>
    <nd ref="524330732"/>
    <nd ref="524330778"/>
    <nd ref="524330721"/>
    <nd ref="524330517"/>
    <tag k="addr:city" v="Bridgeport"/>
    <tag k="addr:housenumber" v="425"/>
    <tag k="addr:street" v="Main"/>
    <tag k="attribution" v="Mono County GIS"/>
    <tag k="building" v="yes"/>
    <tag k="name" v="Hotel"/>
  </way>
  <way id="42154907" version="2" timestamp="2009-10-10T09:40:49Z" uid="20587" user="balrog-kun" changeset="2801655">
    <nd ref="524331834"/>
    <nd ref="524331835"/>
    <nd ref="524331964"/>
    <nd ref="524331828"/>
    <nd ref="524331834"/>
    <tag k="addr:city" v="Bridgeport"/>
    <tag k="addr:housenumber" v="377"/>
    <tag k="addr:street" v="Main"/>
    <tag k="attribution" v="Mono County GIS"/>
    <tag k="building" v="yes"/>
  </way>
  <way id="42154909" version="2" timestamp="2009-10-10T09:40:47Z" uid="20587" user="balrog-kun" changeset="2801655">
    <nd ref="524330553"/>
    <nd ref="524330554"/>
    <nd ref="524330577"/>
    <nd ref="524330592"/>
    <nd ref="524328769"/>
    <nd ref="524328720"/>
    <nd ref="524328740"/>
    <nd ref="524328687"/>
    <nd ref="524330553"/>
    <tag k="addr:city" v="Bridgeport"/>
    <tag k="addr:housenumber" v="453"/>
    <tag k="addr:street" v="Main"/>
    <tag k="attribution" v="Mono County GIS"/>
    <tag k="building" v="yes"/>
  </way>
  <way id="42154911" version="2" timestamp="2009-10-10T09:40:48Z" uid="20587" user="balrog-kun" changeset="2801655">
    <nd ref="524343081"/>
    <nd ref="524343358"/>
    <nd ref="524343374"/>
    <nd ref="524343033"/>
    <nd ref="524343051"/>
    <nd ref="524343067"/>
    <nd ref="524343081"/>
    <tag k="addr:city" v="Bridgeport"/>
    <tag k="addr:housenumber" v="47"/>
    <tag k="addr:street" v="Sinclair"/>
    <tag k="attribution" v="Mono County GIS"/>
    <tag k="building" v="yes"/>
  </way>
  <way id="42154916" version="2" timestamp="2009-10-10T09:40:49Z" uid="20587" user="balrog-kun" changeset="2801655">
    <nd ref="524349321"/>
    <nd ref="524349292"/>
    <nd ref="524349255"/>
    <nd ref="524349261"/>
    <nd ref="524349321"/>
    <tag k="addr:city" v="Bridgeport"/>
    <tag k="attribution" v="Mono County GIS"/>
    <tag k="building" v="yes"/>
  </way>
  <way id="42154921" version="2" timestamp="2009-10-10T09:40:50Z" uid="20587" user="balrog-kun" changeset="2801655">
    <nd ref="524331989"/>
    <nd ref="524332189"/>
    <nd ref="524332182"/>
    <nd ref="524331976"/>
    <nd ref="524331989"/>
    <tag k="addr:city" v="Bridgeport"/>
    <tag k="addr:housenumber" v="333"/>
    <tag k="addr:street" v="Main"/>
    <tag k="attribution" v="Mono County GIS"/>
    <tag k="building" v="yes"/>
    <tag k="name" v="Hotel"/>
  </way>
  <way id="42154925" version="2" timestamp="2009-10-10T09:40:50Z" uid="20587" user="balrog-kun" changeset="2801655">
    <nd ref="524328666"/>
    <nd ref="524328681"/>
    <nd ref="524328650"/>
    <nd ref="524328638"/>
    <nd ref="524328666"/>
    <tag k="addr:city" v="Bridgeport"/>
    <tag k="attribution" v="Mono County GIS"/>
    <tag k="building" v="yes"/>
  </way>
  <way id="42154939" version="2" timestamp="2009-10-10T09:40:52Z" uid="20587" user="balrog-kun" changeset="2801655">
    <nd ref="524343016"/>
    <nd ref="524343333"/>
    <nd ref="524343345"/>
    <nd ref="524343288"/>
    <nd ref="524343320"/>
    <nd ref="524343275"/>
    <nd ref="524343016"/>
    <tag k="addr:city" v="Bridgeport"/>
    <tag k="addr:housenumber" v="31"/>
    <tag k="addr:street" v="Sinclair"/>
    <tag k="attribution" v="Mono County GIS"/>
    <tag k="building" v="yes"/>
  </way>
  <way id="42154956" version="2" timestamp="2009-10-10T09:40:53Z" uid="20587" user="balrog-kun" changeset="2801655">
    <nd ref="524343545"/>
    <nd ref="524343520"/>
    <nd ref="524343532"/>
    <nd ref="524343451"/>
    <nd ref="524343545"/>
    <tag k="addr:city" v="Bridgeport"/>
    <tag k="attribution" v="Mono County GIS"/>
    <tag k="building" v="yes"/>
  </way>
  <way id="42154990" version="2" timestamp="2009-10-10T09:40:53Z" uid="20587" user="balrog-kun" changeset="2801655">
    <nd ref="524332147"/>
    <nd ref="524332146"/>
    <nd ref="524332172"/>
    <nd ref="524339957"/>
    <nd ref="524332163"/>
    <nd ref="524332154"/>
    <nd ref="524332147"/>
    <tag k="addr:city" v="Bridgeport"/>
    <tag k="addr:housenumber" v="323"/>
    <tag k="addr:street" v="Main"/>
    <tag k="attribution" v="Mono County GIS"/>
    <tag k="building" v="yes"/>
    <tag k="type" v="Commercial"/>
  </way>
</osm>
