<?xml version='1.0' encoding='UTF-8'?>
<osm version="0.6" generator="libosmium/2.20.0">
  <way id="42672501" version="3" timestamp="2011-03-21T18:55:45Z" uid="33382" user="de_muur" changeset="7630496">
    <nd ref="533620959"/>
    <nd ref="244630158"/>
    <nd ref="268146879"/>
    <tag k="highway" v="tertiary"/>
    <tag k="maxspeed" v="50"/>
    <tag k="name" v="Elbuferstraße"/>
    <tag k="postal_code" v="21502"/>
    <tag k="ref" v="K 63"/>
    <tag k="surface" v="paved"/>
  </way>
  <way id="42672502" version="2" timestamp="2010-08-25T20:27:04Z" uid="33382" user="de_muur" changeset="5593483">
    <nd ref="317842925"/>
    <nd ref="317843044"/>
    <nd ref="244630131"/>
    <nd ref="244630132"/>
    <nd ref="244630133"/>
    <nd ref="244630134"/>
    <nd ref="244630135"/>
    <nd ref="244630138"/>
    <nd ref="244630139"/>
    <nd ref="317843018"/>
    <nd ref="317843012"/>
    <nd ref="249778514"/>
    <nd ref="244630140"/>
    <nd ref="244630141"/>
    <nd ref="244630142"/>
    <nd ref="244630143"/>
    <nd ref="355274427"/>
    <nd ref="244630145"/>
    <nd ref="355274431"/>
    <nd ref="244630146"/>
    <nd ref="244630147"/>
    <nd ref="337699539"/>
    <nd ref="339937758"/>
    <tag k="highway" v="tertiary"/>
    <tag k="name" v="Elbuferstraße"/>
    <tag k="postal_code" v="21502"/>
    <tag k="ref" v="K 63"/>
    <tag k="surface" v="paved"/>
  </way>
  <way id="42672502" version="3" timestamp="2010-08-26T07:33:14Z" uid="33382" user="de_muur" changeset="5596488">
    <nd ref="317842925"/>
    <nd ref="317843044"/>
    <nd ref="244630131"/>
    <nd ref="244630132"/>
    <nd ref="244630133"/>
    <nd ref="244630134"/>
    <nd ref="244630135"/>
    <nd ref="244630138"/>
    <nd ref="244630139"/>
    <nd ref="317843018"/>
    <nd ref="317843012"/>
    <nd ref="355274138"/>
    <tag k="highway" v="tertiary"/>
    <tag k="name" v="Elbuferstraße"/>
    <tag k="postal_code" v="21502"/>
    <tag k="ref" v="K 63"/>
    <tag k="surface" v="paved"/>
  </way>
  <way id="42672502" version="4" timestamp="2010-08-26T07:49:00Z" uid="33382" user="de_muur" changeset="5596626">
    <nd ref="317842925"/>
    <nd ref="317843044"/>
    <nd ref="880264145"/>
    <nd ref="410916305"/>
    <tag k="highway" v="tertiary"/>
    <tag k="name" v="Elbuferstraße"/>
    <tag k="postal_code" v="21502"/>
    <tag k="ref" v="K 63"/>
    <tag k="surface" v="paved"/>
  </way>
  <way id="42672506" version="2" timestamp="2010-02-15T12:15:39Z" uid="74617" user="JohnSmith" changeset="3882541">
    <nd ref="533621013"/>
    <nd ref="533621012"/>
    <tag k="bicycle" v="yes"/>
    <tag k="embankment" v="yes"/>
    <tag k="foot" v="yes"/>
    <tag k="highway" v="path"/>
    <tag k="width" v="1"/>
  </way>
  <way id="42672506" version="3" timestamp="2010-05-27T01:16:47Z" uid="74617" user="JohnSmith" changeset="4818569"/>
</osm>
