<?xml version='1.0' encoding='UTF-8'?>
<osm version="0.6" generator="libosmium/2.20.0">
  <way id="42958302" version="9" timestamp="2009-11-29T19:31:09Z" uid="133281" user="beorn" changeset="3249541">
    <nd ref="538081477"/>
    <nd ref="574914720"/>
    <tag k="highway" v="residential"/>
  </way>
  <way id="42958628" version="3" timestamp="2010-04-04T01:31:44Z" uid="20587" user="balrog-kun" changeset="4318136">
    <nd ref="429285960"/>
    <nd ref="429274745"/>
    <nd ref="538086774"/>
    <nd ref="55804037"/>
    <nd ref="421247453"/>
    <nd ref="416558805"/>
    <nd ref="55751597"/>
    <nd ref="55802394"/>
    <nd ref="416808147"/>
    <nd ref="416808121"/>
    <nd ref="55804041"/>
    <nd ref="416808500"/>
    <nd ref="55804043"/>
    <nd ref="55804045"/>
    <nd ref="416808003"/>
    <nd ref="55804047"/>
    <nd ref="55804049"/>
    <nd ref="416558806"/>
    <nd ref="55750179"/>
    <nd ref="416558807"/>
    <nd ref="55804050"/>
    <nd ref="55804052"/>
    <nd ref="55804053"/>
    <nd ref="55804054"/>
    <nd ref="55734075"/>
    <nd ref="506868448"/>
    <nd ref="55734083"/>
    <nd ref="416559009"/>
    <nd ref="55769425"/>
    <nd ref="474249703"/>
    <nd ref="55804057"/>
    <nd ref="506868213"/>
    <nd ref="506868141"/>
    <tag k="highway" v="secondary"/>
    <tag k="name" v="Palmer Park Boulevard"/>
    <tag k="tiger:county" v="El Paso, CO"/>
    <tag k="tiger:name_base" v="Palmer Park"/>
    <tag k="tiger:name_type" v="Blvd"/>
    <tag k="tiger:separated" v="no"/>
    <tag k="tiger:source" v="tiger_import_dch_v0.6_20070809"/>
    <tag k="tiger:tlid" v="105535447:105523467:105523468:105535448:105537808:105523536:105523505:105523506:105523509:105523210:105523212:105523213:105523219:105523531:105523133:105523137:105523139:105523089:105523091:105523191:105523193:105522625:105522560:105522592:105522593:10552"/>
    <tag k="tiger:zip_left" v="80915"/>
    <tag k="tiger:zip_right" v="80915"/>
  </way>
  <way id="42958635" version="5" timestamp="2010-04-04T01:31:45Z" uid="20587" user="balrog-kun" changeset="4318136">
    <nd ref="429285960"/>
    <nd ref="538086532"/>
    <nd ref="538086544"/>
    <nd ref="538086531"/>
    <nd ref="55804035"/>
    <tag k="highway" v="secondary"/>
    <tag k="name" v="Palmer Park Boulevard"/>
    <tag k="oneway" v="yes"/>
    <tag k="tiger:county" v="El Paso, CO"/>
    <tag k="tiger:name_base" v="Palmer Park"/>
    <tag k="tiger:name_type" v="Blvd"/>
    <tag k="tiger:separated" v="no"/>
    <tag k="tiger:source" v="tiger_import_dch_v0.6_20070809"/>
    <tag k="tiger:tlid" v="105535447:105523467:105523468:105535448:105537808:105523536:105523505:105523506:105523509:105523210:105523212:105523213:105523219:105523531:105523133:105523137:105523139:105523089:105523091:105523191:105523193:105522625:105522560:105522592:105522593:10552"/>
    <tag k="tiger:zip_left" v="80915"/>
    <tag k="tiger:zip_right" v="80915"/>
  </way>
  <way id="42958636" version="6" timestamp="2010-04-04T01:31:45Z" uid="20587" user="balrog-kun" changeset="4318136">
    <nd ref="55804035"/>
    <nd ref="538086534"/>
    <nd ref="538086564"/>
    <nd ref="538086472"/>
    <nd ref="429285960"/>
    <tag k="highway" v="secondary"/>
    <tag k="name" v="Palmer Park Boulevard"/>
    <tag k="oneway" v="yes"/>
    <tag k="tiger:county" v="El Paso, CO"/>
    <tag k="tiger:name_base" v="Palmer Park"/>
    <tag k="tiger:name_type" v="Blvd"/>
    <tag k="tiger:separated" v="no"/>
    <tag k="tiger:source" v="tiger_import_dch_v0.6_20070809"/>
    <tag k="tiger:tlid" v="105535447:105523467:105523468:105535448:105537808:105523536:105523505:105523506:105523509:105523210:105523212:105523213:105523219:105523531:105523133:105523137:105523139:105523089:105523091:105523191:105523193:105522625:105522560:105522592:105522593:10552"/>
    <tag k="tiger:zip_left" v="80915"/>
    <tag k="tiger:zip_right" v="80915"/>
  </way>
  <way id="42958849" version="3" timestamp="2010-04-04T01:31:46Z" uid="20587" user="balrog-kun" changeset="4318136">
    <nd ref="538090748"/>
    <nd ref="538090750"/>
    <tag k="highway" v="residential"/>
    <tag k="name" v="Motel Road"/>
    <tag k="tiger:cfcc" v="A41"/>
    <tag k="tiger:county" v="El Paso, CO"/>
    <tag k="tiger:separated" v="no"/>
    <tag k="tiger:source" v="tiger_import_dch_v0.6_20070809"/>
    <tag k="tiger:tlid" v="105562026:105562031"/>
    <tag k="tiger:zip_left" v="80915"/>
    <tag k="tiger:zip_left_1" v="80915"/>
    <tag k="tiger:zip_right" v="80915"/>
    <tag k="tiger:zip_right_1" v="80915"/>
  </way>
  <way id="42958858" version="4" timestamp="2009-11-29T19:31:15Z" uid="133281" user="beorn" changeset="3249541">
    <nd ref="538090787"/>
    <nd ref="559726640"/>
    <nd ref="538090812"/>
    <tag k="highway" v="pedestrian"/>
    <tag k="name" v="Rådhustorget"/>
  </way>
  <way id="42958874" version="3" timestamp="2009-11-29T19:31:16Z" uid="133281" user="beorn" changeset="3249541"/>
  <way id="42958875" version="4" timestamp="2009-11-29T19:31:14Z" uid="133281" user="beorn" changeset="3249541">
    <nd ref="538091017"/>
    <nd ref="538091020"/>
    <tag k="highway" v="pedestrian"/>
    <tag k="name" v="Nygatan"/>
  </way>
  <way id="42958876" version="6" timestamp="2009-11-29T19:31:15Z" uid="133281" user="beorn" changeset="3249541">
    <nd ref="538083128"/>
    <nd ref="538083130"/>
    <nd ref="538092434"/>
    <nd ref="538083134"/>
    <nd ref="538092550"/>
    <nd ref="538083136"/>
    <tag k="highway" v="cycleway"/>
  </way>
  <way id="42958950" version="1" timestamp="2009-10-21T21:39:16Z" uid="30632" user="antblant" changeset="2917187">
    <nd ref="538091806"/>
    <nd ref="538091815"/>
    <tag k="highway" v="living_street"/>
    <tag k="name" v="26 Kwietnia"/>
  </way>
  <way id="42958951" version="1" timestamp="2009-10-21T21:39:16Z" uid="30632" user="antblant" changeset="2917187">
    <nd ref="538091836"/>
    <nd ref="538091837"/>
    <nd ref="538091839"/>
    <nd ref="538091840"/>
    <nd ref="538091824"/>
    <nd ref="538091825"/>
    <tag k="highway" v="living_street"/>
  </way>
  <way id="42958952" version="1" timestamp="2009-10-21T21:39:16Z" uid="30632" user="antblant" changeset="2917187">
    <nd ref="538091841"/>
    <nd ref="538091817"/>
    <tag k="highway" v="residential"/>
    <tag k="name" v="Santocka"/>
  </way>
  <way id="42958952" version="2" timestamp="2011-02-06T15:18:05Z" uid="30632" user="antblant" changeset="7204849">
    <nd ref="538091841"/>
    <nd ref="1139244948"/>
    <nd ref="538091817"/>
    <tag k="highway" v="residential"/>
    <tag k="name" v="Santocka"/>
  </way>
  <way id="42958953" version="1" timestamp="2009-10-21T21:39:16Z" uid="30632" user="antblant" changeset="2917187">
    <nd ref="267916293"/>
    <nd ref="538091813"/>
    <nd ref="538091814"/>
    <nd ref="538091780"/>
    <nd ref="538091781"/>
    <nd ref="538091782"/>
    <tag k="highway" v="living_street"/>
    <tag k="oneway" v="yes"/>
  </way>
  <way id="42958953" version="2" timestamp="2011-02-06T15:17:49Z" uid="30632" user="antblant" changeset="7204849">
    <nd ref="267916293"/>
    <nd ref="1139244944"/>
    <nd ref="538091813"/>
    <nd ref="538091814"/>
    <nd ref="538091780"/>
    <nd ref="538091781"/>
    <nd ref="538091782"/>
    <tag k="highway" v="living_street"/>
    <tag k="oneway" v="yes"/>
  </way>
  <way id="42958954" version="1" timestamp="2009-10-21T21:39:16Z" uid="30632" user="antblant" changeset="2917187">
    <nd ref="538091792"/>
    <nd ref="538091799"/>
    <nd ref="538091800"/>
    <tag k="highway" v="tertiary"/>
    <tag k="name" v="Stanisława Ignacego Witkiewicza"/>
    <tag k="oneway" v="yes"/>
  </way>
  <way id="42958955" version="1" timestamp="2009-10-21T21:39:16Z" uid="30632" user="antblant" changeset="2917187">
    <nd ref="538091832"/>
    <nd ref="538091828"/>
    <nd ref="538091827"/>
    <nd ref="538091842"/>
    <nd ref="538091845"/>
    <nd ref="538091843"/>
    <nd ref="538091832"/>
    <tag k="name" v="Targowisko &quot;Kalinka&quot;"/>
    <tag k="shop" v="mall"/>
    <tag k="type" v="outdoor"/>
  </way>
  <way id="42958955" version="2" timestamp="2009-11-02T21:51:03Z" uid="30632" user="antblant" changeset="3020380">
    <nd ref="538091832"/>
    <nd ref="538091828"/>
    <nd ref="538091827"/>
    <nd ref="538091842"/>
    <nd ref="538091845"/>
    <nd ref="538091843"/>
    <nd ref="538091832"/>
    <tag k="area" v="yes"/>
    <tag k="name" v="Targowisko &quot;Kalinka&quot;"/>
    <tag k="shop" v="mall"/>
    <tag k="type" v="outdoor"/>
  </way>
  <way id="42958955" version="3" timestamp="2010-03-22T14:42:31Z" uid="20587" user="balrog-kun" changeset="4203189">
    <nd ref="538091832"/>
    <nd ref="538091828"/>
    <nd ref="538091827"/>
    <nd ref="538091842"/>
    <nd ref="538091845"/>
    <nd ref="538091843"/>
    <nd ref="538091832"/>
    <tag k="amenity" v="marketplace"/>
    <tag k="area" v="yes"/>
    <tag k="landuse" v="retail"/>
    <tag k="name" v="Targowisko &quot;Kalinka&quot;"/>
    <tag k="shop" v="mall"/>
    <tag k="type" v="outdoor"/>
  </way>
  <way id="42958956" version="1" timestamp="2009-10-21T21:39:16Z" uid="30632" user="antblant" changeset="2917187">
    <nd ref="538091825"/>
    <nd ref="538091826"/>
    <nd ref="423480802"/>
    <tag k="highway" v="service"/>
  </way>
  <way id="42958957" version="1" timestamp="2009-10-21T21:39:16Z" uid="30632" user="antblant" changeset="2917187">
    <nd ref="538091777"/>
    <nd ref="538091783"/>
    <tag k="highway" v="residential"/>
    <tag k="name" v="Kosodrzewiny"/>
  </way>
  <way id="42958958" version="1" timestamp="2009-10-21T21:39:16Z" uid="30632" user="antblant" changeset="2917187">
    <nd ref="538091750"/>
    <nd ref="538091751"/>
    <nd ref="538091768"/>
    <nd ref="538091769"/>
    <tag k="highway" v="residential"/>
    <tag k="name" v="Świerszczowa"/>
  </way>
  <way id="42958959" version="1" timestamp="2009-10-21T21:39:16Z" uid="30632" user="antblant" changeset="2917187">
    <nd ref="538091770"/>
    <nd ref="538091771"/>
    <nd ref="538091773"/>
    <nd ref="538091774"/>
    <nd ref="538091784"/>
    <tag k="highway" v="residential"/>
    <tag k="name" v="Świerszczowa"/>
  </way>
  <way id="42958960" version="1" timestamp="2009-10-21T21:39:17Z" uid="30632" user="antblant" changeset="2917187">
    <nd ref="538091787"/>
    <nd ref="538091775"/>
    <nd ref="538091788"/>
    <nd ref="538091793"/>
    <nd ref="538091787"/>
    <tag k="amenity" v="school"/>
    <tag k="name" v="Gimnazjum nr 18 im. Noblistów Polskich"/>
    <tag k="website" v="http://gim18.szczecin.pl"/>
  </way>
  <way id="42958960" version="2" timestamp="2010-03-02T05:53:59Z" uid="30632" user="antblant" changeset="4014396">
    <nd ref="538091787"/>
    <nd ref="538091775"/>
    <nd ref="658983009"/>
    <nd ref="658983010"/>
    <nd ref="538091788"/>
    <nd ref="538091793"/>
    <nd ref="538091787"/>
    <tag k="amenity" v="school"/>
    <tag k="name" v="Gimnazjum nr 18 im. Noblistów Polskich"/>
    <tag k="website" v="http://gim18.szczecin.pl"/>
  </way>
  <way id="42958961" version="1" timestamp="2009-10-21T21:39:17Z" uid="30632" user="antblant" changeset="2917187">
    <nd ref="538091743"/>
    <nd ref="538091752"/>
    <nd ref="270967580"/>
    <tag k="highway" v="residential"/>
    <tag k="name" v="Jodłowa"/>
  </way>
  <way id="42958961" version="2" timestamp="2010-05-06T02:46:49Z" uid="20587" user="balrog-kun" changeset="4618389">
    <nd ref="538091743"/>
    <nd ref="538091752"/>
    <nd ref="723632719"/>
    <nd ref="723633364"/>
    <nd ref="270967580"/>
    <tag k="highway" v="residential"/>
    <tag k="name" v="Jodłowa"/>
  </way>
  <way id="42958962" version="1" timestamp="2009-10-21T21:39:17Z" uid="30632" user="antblant" changeset="2917187">
    <nd ref="538091745"/>
    <nd ref="538091754"/>
    <tag k="barrier" v="wall"/>
  </way>
  <way id="42958963" version="1" timestamp="2009-10-21T21:39:17Z" uid="30632" user="antblant" changeset="2917187">
    <nd ref="270967584"/>
    <nd ref="270967585"/>
    <nd ref="270967586"/>
    <tag k="highway" v="residential"/>
    <tag k="name" v="Jodłowa"/>
  </way>
  <way id="42958964" version="1" timestamp="2009-10-21T21:39:17Z" uid="30632" user="antblant" changeset="2917187">
    <nd ref="270967582"/>
    <nd ref="538091764"/>
    <nd ref="538091765"/>
    <nd ref="538091766"/>
    <nd ref="538091757"/>
    <nd ref="538091758"/>
    <tag k="highway" v="residential"/>
    <tag k="name" v="Kłosowa"/>
  </way>
  <way id="42958965" version="1" timestamp="2009-10-21T21:39:17Z" uid="30632" user="antblant" changeset="2917187">
    <nd ref="538091761"/>
    <nd ref="538091755"/>
    <nd ref="538091718"/>
    <nd ref="538091731"/>
    <nd ref="538091732"/>
    <nd ref="538091733"/>
    <nd ref="538091735"/>
    <tag k="highway" v="service"/>
  </way>
  <way id="42958966" version="1" timestamp="2009-10-21T21:39:18Z" uid="30632" user="antblant" changeset="2917187">
    <nd ref="269869533"/>
    <nd ref="538091719"/>
    <nd ref="538091720"/>
    <tag k="highway" v="residential"/>
    <tag k="name" v="Antoniego Kaliny"/>
  </way>
  <way id="42958967" version="1" timestamp="2009-10-21T21:39:18Z" uid="30632" user="antblant" changeset="2917187">
    <nd ref="538091720"/>
    <nd ref="538091721"/>
    <nd ref="538091723"/>
    <nd ref="538091738"/>
    <nd ref="270967577"/>
    <tag k="highway" v="residential"/>
    <tag k="name" v="Antoniego Kaliny"/>
    <tag k="oneway" v="yes"/>
  </way>
  <way id="42958968" version="1" timestamp="2009-10-21T21:39:18Z" uid="30632" user="antblant" changeset="2917187">
    <nd ref="538091719"/>
    <nd ref="538091724"/>
    <nd ref="538091725"/>
    <tag k="highway" v="residential"/>
    <tag k="name" v="Antoniego Kaliny"/>
    <tag k="oneway" v="yes"/>
  </way>
  <way id="42958968" version="2" timestamp="2009-11-07T18:43:50Z" uid="30632" user="antblant" changeset="3058028">
    <nd ref="538091719"/>
    <nd ref="538091724"/>
    <nd ref="538091725"/>
    <tag k="highway" v="residential"/>
    <tag k="name" v="Antoniego Kaliny"/>
  </way>
  <way id="42958969" version="1" timestamp="2009-10-21T21:39:18Z" uid="30632" user="antblant" changeset="2917187">
    <nd ref="538091727"/>
    <nd ref="538091728"/>
    <nd ref="538091739"/>
    <nd ref="538091740"/>
    <tag k="highway" v="service"/>
  </way>
  <way id="42958970" version="1" timestamp="2009-10-21T21:39:18Z" uid="30632" user="antblant" changeset="2917187">
    <nd ref="538091702"/>
    <nd ref="538091703"/>
    <nd ref="538091704"/>
    <tag k="highway" v="residential"/>
    <tag k="name" v="Hieronima Derdowskiego"/>
  </way>
  <way id="42958971" version="1" timestamp="2009-10-21T21:39:18Z" uid="30632" user="antblant" changeset="2917187">
    <nd ref="538091712"/>
    <nd ref="538091713"/>
    <tag k="highway" v="tertiary"/>
    <tag k="name" v="26 Kwietnia"/>
  </way>
  <way id="42958972" version="1" timestamp="2009-10-21T21:39:18Z" uid="30632" user="antblant" changeset="2917187">
    <nd ref="538091704"/>
    <nd ref="538091706"/>
    <nd ref="538091707"/>
    <nd ref="538091698"/>
    <nd ref="538091699"/>
    <nd ref="538091708"/>
    <nd ref="538091709"/>
    <nd ref="538091711"/>
    <nd ref="538091712"/>
    <tag k="highway" v="service"/>
  </way>
  <way id="42958973" version="1" timestamp="2009-10-21T21:39:18Z" uid="30632" user="antblant" changeset="2917187">
    <nd ref="538091747"/>
    <nd ref="538091714"/>
    <nd ref="538091729"/>
    <nd ref="538091756"/>
    <nd ref="538091747"/>
    <tag k="amenity" v="school"/>
    <tag k="name" v="Szkoła Podstawowa nr 51"/>
    <tag k="website" v="http://sp51.zp.pl/"/>
  </way>
  <way id="42958973" version="2" timestamp="2010-03-22T06:40:30Z" uid="20587" user="balrog-kun" changeset="4199371">
    <nd ref="538091747"/>
    <nd ref="538091714"/>
    <nd ref="538091729"/>
    <nd ref="538091756"/>
    <nd ref="538091747"/>
    <tag k="amenity" v="school"/>
    <tag k="name" v="Szkoła Podstawowa nr 51"/>
    <tag k="ref" v="SP51"/>
    <tag k="website" v="http://sp51.zp.pl/"/>
  </way>
</osm>
