<?xml version='1.0' encoding='UTF-8'?>
<osm version="0.6" generator="libosmium/2.20.0">
  <way id="43020420" version="2" timestamp="2010-07-06T18:40:04Z" uid="74617" user="JohnSmith" changeset="5152225">
    <nd ref="538909541"/>
    <nd ref="538909544"/>
    <tag k="highway" v="residential"/>
    <tag k="maxspeed" v="50"/>
    <tag k="maxspeed:source" v="default residential speed limit in Australia"/>
    <tag k="name" v="Donald Street"/>
  </way>
  <way id="43020422" version="2" timestamp="2010-07-06T18:37:50Z" uid="74617" user="JohnSmith" changeset="5152225">
    <nd ref="538909553"/>
    <nd ref="538909558"/>
    <tag k="highway" v="residential"/>
    <tag k="maxspeed" v="50"/>
    <tag k="maxspeed:source" v="default residential speed limit in Australia"/>
    <tag k="name" v="Northam Street"/>
  </way>
  <way id="43020425" version="2" timestamp="2010-07-06T18:40:03Z" uid="74617" user="JohnSmith" changeset="5152225">
    <nd ref="538909570"/>
    <nd ref="538909574"/>
    <tag k="highway" v="residential"/>
    <tag k="maxspeed" v="50"/>
    <tag k="maxspeed:source" v="default residential speed limit in Australia"/>
    <tag k="name" v="Instow Street"/>
  </way>
  <way id="43020430" version="2" timestamp="2010-07-06T18:39:28Z" uid="74617" user="JohnSmith" changeset="5152225">
    <nd ref="538909613"/>
    <nd ref="538909651"/>
    <tag k="highway" v="residential"/>
    <tag k="maxspeed" v="50"/>
    <tag k="maxspeed:source" v="default residential speed limit in Australia"/>
    <tag k="name" v="Jubb Street"/>
  </way>
  <way id="43020433" version="3" timestamp="2010-07-06T18:34:47Z" uid="74617" user="JohnSmith" changeset="5152225">
    <nd ref="538909704"/>
    <nd ref="538909719"/>
    <tag k="highway" v="residential"/>
    <tag k="maxspeed" v="50"/>
    <tag k="maxspeed:source" v="default residential speed limit in Australia"/>
    <tag k="name" v="Society Street"/>
  </way>
  <way id="43020440" version="2" timestamp="2010-07-06T18:35:19Z" uid="74617" user="JohnSmith" changeset="5152225">
    <nd ref="538909946"/>
    <nd ref="538909719"/>
    <nd ref="538909785"/>
    <tag k="highway" v="residential"/>
    <tag k="maxspeed" v="50"/>
    <tag k="maxspeed:source" v="default residential speed limit in Australia"/>
    <tag k="name" v="Mann Street"/>
  </way>
  <way id="43020440" version="3" timestamp="2010-07-14T23:36:40Z" uid="4467" user="Rosscoe" changeset="5222826">
    <nd ref="538909946"/>
    <nd ref="818106276"/>
    <nd ref="538909719"/>
    <nd ref="538909785"/>
    <tag k="highway" v="residential"/>
    <tag k="maxspeed" v="50"/>
    <tag k="maxspeed:source" v="default residential speed limit in Australia"/>
    <tag k="name" v="Mann Street"/>
  </way>
  <way id="43020441" version="2" timestamp="2010-07-06T18:36:42Z" uid="74617" user="JohnSmith" changeset="5152225">
    <nd ref="538909968"/>
    <nd ref="538909882"/>
    <tag k="highway" v="residential"/>
    <tag k="maxspeed" v="50"/>
    <tag k="maxspeed:source" v="default residential speed limit in Australia"/>
    <tag k="name" v="Wylie Street"/>
  </way>
  <way id="43020441" version="3" timestamp="2010-07-14T23:36:43Z" uid="4467" user="Rosscoe" changeset="5222826">
    <nd ref="538909968"/>
    <nd ref="21555318"/>
    <nd ref="538909704"/>
    <nd ref="538909882"/>
    <tag k="highway" v="residential"/>
    <tag k="maxspeed" v="50"/>
    <tag k="maxspeed:source" v="default residential speed limit in Australia"/>
    <tag k="name" v="Wylie Street"/>
  </way>
  <way id="43020899" version="2" timestamp="2009-10-23T13:24:03Z" uid="171838" user="argrath" changeset="2929799">
    <nd ref="534135501"/>
    <nd ref="538931967"/>
    <nd ref="538932013"/>
    <nd ref="421566017"/>
    <nd ref="538932020"/>
    <nd ref="413291853"/>
    <nd ref="413318909"/>
    <nd ref="538932042"/>
    <nd ref="538932047"/>
    <nd ref="538932051"/>
    <nd ref="538932057"/>
    <tag k="highway" v="primary"/>
    <tag k="name" v="城北公園通"/>
  </way>
</osm>
