<?xml version='1.0' encoding='UTF-8'?>
<osm version="0.6" generator="libosmium/2.20.0">
  <way id="43050002" version="2" timestamp="2010-03-28T11:05:53Z" uid="20587" user="balrog-kun" changeset="4254597">
    <nd ref="539309141"/>
    <nd ref="539309152"/>
    <tag k="abutters" v="residential"/>
    <tag k="highway" v="service"/>
    <tag k="name" v="26th Court"/>
    <tag k="service" v="alley"/>
    <tag k="source" v="Yahoo"/>
  </way>
  <way id="43050003" version="2" timestamp="2010-03-28T11:05:53Z" uid="20587" user="balrog-kun" changeset="4254597">
    <nd ref="539309140"/>
    <nd ref="539309154"/>
    <tag k="abutters" v="residential"/>
    <tag k="highway" v="service"/>
    <tag k="name" v="Princeton Court"/>
    <tag k="service" v="alley"/>
    <tag k="source" v="Yahoo"/>
  </way>
  <way id="43050004" version="3" timestamp="2010-03-28T11:05:53Z" uid="20587" user="balrog-kun" changeset="4254597">
    <nd ref="539312154"/>
    <nd ref="539309154"/>
    <nd ref="539309143"/>
    <tag k="abutters" v="retail"/>
    <tag k="highway" v="service"/>
    <tag k="name" v="Wilshire Place North"/>
    <tag k="service" v="alley"/>
    <tag k="source" v="Yahoo"/>
  </way>
  <way id="43050153" version="3" timestamp="2010-02-09T04:12:41Z" uid="18775" user="drlizau" changeset="3828926">
    <nd ref="539311990"/>
    <nd ref="539311926"/>
    <nd ref="539311991"/>
    <nd ref="539310647"/>
    <tag k="highway" v="track"/>
    <tag k="name" v="Charleville Road"/>
    <tag k="source" v="survey"/>
    <tag k="surface" v="unpaved"/>
    <tag k="tracktype" v="grade2"/>
  </way>
  <way id="43050166" version="2" timestamp="2010-03-28T11:05:53Z" uid="20587" user="balrog-kun" changeset="4254597">
    <nd ref="539312155"/>
    <nd ref="539312156"/>
    <tag k="abutters" v="residential"/>
    <tag k="highway" v="service"/>
    <tag k="name" v="Harvard Court"/>
    <tag k="service" v="alley"/>
    <tag k="source" v="Yahoo"/>
  </way>
  <way id="43050167" version="2" timestamp="2010-03-28T11:05:53Z" uid="20587" user="balrog-kun" changeset="4254597">
    <nd ref="539312156"/>
    <nd ref="539309143"/>
    <tag k="abutters" v="residential"/>
    <tag k="highway" v="service"/>
    <tag k="name" v="Wilshire Place North"/>
    <tag k="service" v="alley"/>
    <tag k="source" v="Yahoo"/>
  </way>
  <way id="43050168" version="2" timestamp="2010-03-28T11:05:53Z" uid="20587" user="balrog-kun" changeset="4254597">
    <nd ref="539312157"/>
    <nd ref="539312158"/>
    <nd ref="539312159"/>
    <tag k="abutters" v="residential"/>
    <tag k="highway" v="service"/>
    <tag k="name" v="Lipton Place"/>
    <tag k="service" v="alley"/>
    <tag k="source" v="Yahoo"/>
  </way>
  <way id="43050169" version="2" timestamp="2010-03-28T11:05:53Z" uid="20587" user="balrog-kun" changeset="4254597">
    <nd ref="539312160"/>
    <nd ref="539312158"/>
    <tag k="abutters" v="residential"/>
    <tag k="highway" v="service"/>
    <tag k="name" v="Yale Court"/>
    <tag k="service" v="alley"/>
    <tag k="source" v="Yahoo"/>
  </way>
  <way id="43050228" version="9" timestamp="2011-03-04T08:47:07Z" uid="4467" user="Rosscoe" changeset="7452585">
    <nd ref="539318468"/>
    <nd ref="539318469"/>
    <nd ref="539318470"/>
    <nd ref="539318471"/>
    <nd ref="539318472"/>
    <nd ref="539318473"/>
    <nd ref="539318474"/>
    <nd ref="539318475"/>
    <nd ref="539318476"/>
    <nd ref="539318477"/>
    <nd ref="539318478"/>
    <nd ref="539318479"/>
    <nd ref="539318480"/>
    <nd ref="539318481"/>
    <nd ref="539318482"/>
    <nd ref="539318483"/>
    <nd ref="539318484"/>
    <nd ref="539318485"/>
    <nd ref="539318486"/>
    <nd ref="539318487"/>
    <nd ref="539318488"/>
    <nd ref="539318489"/>
    <nd ref="539318490"/>
    <nd ref="539318491"/>
    <nd ref="539318492"/>
    <nd ref="539318493"/>
    <nd ref="539318494"/>
    <nd ref="539318495"/>
    <nd ref="539318496"/>
    <nd ref="539318497"/>
    <nd ref="539318498"/>
    <nd ref="539318499"/>
    <nd ref="539318500"/>
    <nd ref="539318501"/>
    <nd ref="539318502"/>
    <nd ref="539318503"/>
    <nd ref="539318504"/>
    <nd ref="539318505"/>
    <nd ref="539318506"/>
    <nd ref="539318507"/>
    <nd ref="539315999"/>
    <nd ref="539316000"/>
    <nd ref="539318332"/>
    <nd ref="539316001"/>
    <nd ref="539316322"/>
    <nd ref="539316002"/>
    <nd ref="539316003"/>
    <nd ref="539316004"/>
    <nd ref="539316005"/>
    <nd ref="539316006"/>
    <nd ref="539316007"/>
    <nd ref="539316008"/>
    <nd ref="539316009"/>
    <nd ref="539316010"/>
    <nd ref="539316011"/>
    <nd ref="539316012"/>
    <nd ref="539316013"/>
    <nd ref="539316014"/>
    <nd ref="539316015"/>
    <nd ref="539316016"/>
    <nd ref="539316017"/>
    <nd ref="539316018"/>
    <nd ref="539316019"/>
    <nd ref="539316020"/>
    <nd ref="539316021"/>
    <nd ref="539316022"/>
    <nd ref="539316023"/>
    <nd ref="539316024"/>
    <nd ref="539316025"/>
    <nd ref="539316026"/>
    <nd ref="539316027"/>
    <nd ref="539316028"/>
    <nd ref="539316029"/>
    <nd ref="668460744"/>
    <nd ref="539316030"/>
    <nd ref="539316031"/>
    <nd ref="539316032"/>
    <nd ref="539316033"/>
    <nd ref="539316034"/>
    <nd ref="539316035"/>
    <nd ref="539316036"/>
    <nd ref="539316037"/>
    <nd ref="539316038"/>
    <nd ref="539316039"/>
    <nd ref="539316040"/>
    <nd ref="539316041"/>
    <nd ref="539316042"/>
    <nd ref="539316043"/>
    <nd ref="539316044"/>
    <nd ref="539316045"/>
    <nd ref="539313522"/>
    <nd ref="539313523"/>
    <nd ref="539313524"/>
    <nd ref="539313526"/>
    <nd ref="539313527"/>
    <nd ref="539313529"/>
    <nd ref="539313530"/>
    <nd ref="539313531"/>
    <nd ref="539313533"/>
    <nd ref="539313534"/>
    <nd ref="539313535"/>
    <nd ref="539312734"/>
    <nd ref="539312735"/>
    <nd ref="539312736"/>
    <nd ref="539312737"/>
    <nd ref="539312733"/>
    <tag k="highway" v="track"/>
    <tag k="name" v="Smit Road"/>
    <tag k="source" v="survey"/>
    <tag k="surface" v="unpaved"/>
    <tag k="survey" v="GPS"/>
    <tag k="tracktype" v="grade2"/>
  </way>
  <way id="43050257" version="1" timestamp="2009-10-24T04:57:02Z" uid="30632" user="antblant" changeset="2934591">
    <nd ref="539313450"/>
    <nd ref="287857408"/>
    <nd ref="539313464"/>
    <tag k="highway" v="residential"/>
    <tag k="name" v="Starej Baśni"/>
  </way>
  <way id="43050258" version="1" timestamp="2009-10-24T04:57:02Z" uid="30632" user="antblant" changeset="2934591">
    <nd ref="539313473"/>
    <nd ref="539313466"/>
    <nd ref="539313469"/>
    <tag k="highway" v="residential"/>
    <tag k="name" v="Józefa Ignacego Kraszewskiego"/>
  </way>
  <way id="43050258" version="2" timestamp="2010-06-12T20:16:52Z" uid="20587" user="balrog-kun" changeset="4973443">
    <nd ref="539313473"/>
    <nd ref="539313466"/>
    <nd ref="770500426"/>
    <nd ref="539313469"/>
    <tag k="highway" v="residential"/>
    <tag k="name" v="Józefa Ignacego Kraszewskiego"/>
  </way>
  <way id="43050258" version="3" timestamp="2010-06-26T09:47:12Z" uid="30632" user="antblant" changeset="5079627">
    <nd ref="539313473"/>
    <nd ref="790901511"/>
    <tag k="highway" v="residential"/>
    <tag k="name" v="Józefa Ignacego Kraszewskiego"/>
  </way>
  <way id="43050259" version="1" timestamp="2009-10-24T04:57:02Z" uid="30632" user="antblant" changeset="2934591">
    <nd ref="539313465"/>
    <nd ref="539313466"/>
    <tag k="highway" v="residential"/>
    <tag k="name" v="plac Franciszka Mireckiego"/>
  </way>
  <way id="43050259" version="2" timestamp="2010-06-12T20:17:06Z" uid="20587" user="balrog-kun" changeset="4973443">
    <nd ref="539313465"/>
    <nd ref="539313466"/>
    <tag k="highway" v="residential"/>
    <tag k="name" v="Plac Franciszka Mireckiego"/>
  </way>
  <way id="43050260" version="1" timestamp="2009-10-24T04:57:02Z" uid="30632" user="antblant" changeset="2934591">
    <nd ref="539313467"/>
    <nd ref="539313451"/>
    <tag k="highway" v="residential"/>
    <tag k="name" v="Wisłocka"/>
  </way>
  <way id="43050261" version="1" timestamp="2009-10-24T04:57:03Z" uid="30632" user="antblant" changeset="2934591">
    <nd ref="539313457"/>
    <nd ref="539313458"/>
    <nd ref="539313461"/>
    <nd ref="539313439"/>
    <tag k="access" v="private"/>
    <tag k="highway" v="track"/>
    <tag k="name" v="(Jabłonowa)"/>
  </way>
  <way id="43050261" version="2" timestamp="2010-06-12T20:16:47Z" uid="20587" user="balrog-kun" changeset="4973443">
    <nd ref="539313457"/>
    <nd ref="539313458"/>
    <nd ref="539313461"/>
    <nd ref="770494621"/>
    <tag k="access" v="private"/>
    <tag k="highway" v="track"/>
    <tag k="name" v="Pilicka"/>
    <tag k="note" v="TODO"/>
    <tag k="old_name" v="(Jabłonowa)"/>
  </way>
  <way id="43050262" version="1" timestamp="2009-10-24T04:57:03Z" uid="30632" user="antblant" changeset="2934591">
    <nd ref="539313459"/>
    <nd ref="539313460"/>
    <nd ref="539313431"/>
    <tag k="access" v="private"/>
    <tag k="highway" v="track"/>
    <tag k="name" v="(Brzoskwiniowa)"/>
  </way>
  <way id="43050262" version="2" timestamp="2010-06-12T20:17:01Z" uid="20587" user="balrog-kun" changeset="4973443">
    <nd ref="539313459"/>
    <nd ref="539313460"/>
    <nd ref="770491138"/>
    <tag k="access" v="private"/>
    <tag k="highway" v="track"/>
    <tag k="note" v="TODO"/>
    <tag k="old_name" v="Bzurska"/>
  </way>
  <way id="43050263" version="1" timestamp="2009-10-24T04:57:03Z" uid="30632" user="antblant" changeset="2934591">
    <nd ref="539313452"/>
    <nd ref="539313453"/>
    <nd ref="539313432"/>
    <tag k="access" v="private"/>
    <tag k="highway" v="track"/>
  </way>
  <way id="43050263" version="2" timestamp="2009-10-24T04:59:57Z" uid="30632" user="antblant" changeset="2934595">
    <nd ref="539313452"/>
    <nd ref="539313453"/>
    <nd ref="539313432"/>
    <tag k="access" v="private"/>
    <tag k="highway" v="track"/>
    <tag k="name" v="(Czereśniowa)"/>
  </way>
  <way id="43050264" version="1" timestamp="2009-10-24T04:57:03Z" uid="30632" user="antblant" changeset="2934591">
    <nd ref="539313433"/>
    <nd ref="539313454"/>
    <nd ref="539313455"/>
    <tag k="access" v="private"/>
    <tag k="highway" v="track"/>
    <tag k="name" v="(Gruszkowa)"/>
  </way>
  <way id="43050265" version="1" timestamp="2009-10-24T04:57:03Z" uid="30632" user="antblant" changeset="2934591">
    <nd ref="538233987"/>
    <nd ref="539313448"/>
    <nd ref="539313449"/>
    <tag k="access" v="private"/>
    <tag k="highway" v="track"/>
  </way>
  <way id="43050265" version="2" timestamp="2009-10-24T04:59:57Z" uid="30632" user="antblant" changeset="2934595">
    <nd ref="538233987"/>
    <nd ref="539313448"/>
    <nd ref="539313449"/>
    <tag k="access" v="private"/>
    <tag k="highway" v="track"/>
  </way>
  <way id="43050266" version="1" timestamp="2009-10-24T04:57:03Z" uid="30632" user="antblant" changeset="2934591">
    <nd ref="539313405"/>
    <nd ref="539313408"/>
    <tag k="highway" v="service"/>
  </way>
  <way id="43050266" version="2" timestamp="2010-06-26T09:47:09Z" uid="30632" user="antblant" changeset="5079627">
    <nd ref="539313405"/>
    <nd ref="790901549"/>
    <nd ref="539313408"/>
    <tag k="highway" v="service"/>
  </way>
  <way id="43050267" version="1" timestamp="2009-10-24T04:57:03Z" uid="30632" user="antblant" changeset="2934591">
    <nd ref="539313441"/>
    <nd ref="539313442"/>
    <tag k="highway" v="service"/>
  </way>
  <way id="43050267" version="2" timestamp="2010-06-26T09:47:12Z" uid="30632" user="antblant" changeset="5079627">
    <nd ref="539313441"/>
    <nd ref="790901504"/>
    <nd ref="539313442"/>
    <tag k="highway" v="service"/>
  </way>
  <way id="43050268" version="1" timestamp="2009-10-24T04:57:03Z" uid="30632" user="antblant" changeset="2934591">
    <nd ref="539313409"/>
    <nd ref="539313410"/>
    <nd ref="539313411"/>
    <nd ref="539313434"/>
    <tag k="highway" v="residential"/>
  </way>
  <way id="43050268" version="2" timestamp="2010-06-26T09:47:16Z" uid="30632" user="antblant" changeset="5079627">
    <nd ref="539313409"/>
    <nd ref="790901515"/>
    <nd ref="539313410"/>
    <nd ref="539313411"/>
    <nd ref="539313434"/>
    <tag k="highway" v="residential"/>
  </way>
  <way id="43050269" version="1" timestamp="2009-10-24T04:57:03Z" uid="30632" user="antblant" changeset="2934591">
    <nd ref="539313412"/>
    <nd ref="539313413"/>
    <nd ref="539313414"/>
    <nd ref="539313415"/>
    <tag k="highway" v="residential"/>
    <tag k="name" v="Ekologiczna"/>
  </way>
  <way id="43050269" version="2" timestamp="2010-06-26T09:47:11Z" uid="30632" user="antblant" changeset="5079627">
    <nd ref="539313412"/>
    <nd ref="790901529"/>
    <nd ref="539313413"/>
    <nd ref="539313414"/>
    <nd ref="539313415"/>
    <tag k="highway" v="residential"/>
    <tag k="name" v="Ekologiczna"/>
  </way>
  <way id="43050270" version="1" timestamp="2009-10-24T04:57:03Z" uid="30632" user="antblant" changeset="2934591">
    <nd ref="539313413"/>
    <nd ref="539313398"/>
    <tag k="highway" v="residential"/>
    <tag k="name" v="Ekologiczna"/>
  </way>
  <way id="43050271" version="1" timestamp="2009-10-24T04:57:03Z" uid="30632" user="antblant" changeset="2934591">
    <nd ref="538233973"/>
    <nd ref="539313400"/>
    <nd ref="539313399"/>
    <nd ref="539313398"/>
    <nd ref="539313416"/>
    <tag k="highway" v="track"/>
  </way>
  <way id="43050271" version="2" timestamp="2010-06-26T09:47:09Z" uid="30632" user="antblant" changeset="5079627">
    <nd ref="538233973"/>
    <nd ref="539313400"/>
    <nd ref="539313399"/>
    <nd ref="539313398"/>
    <nd ref="790901481"/>
    <nd ref="539313416"/>
    <tag k="highway" v="track"/>
  </way>
  <way id="43050272" version="1" timestamp="2009-10-24T04:57:03Z" uid="30632" user="antblant" changeset="2934591">
    <nd ref="539313395"/>
    <nd ref="539313401"/>
    <tag k="highway" v="residential"/>
    <tag k="name" v="Szybowcowa"/>
  </way>
  <way id="43050272" version="2" timestamp="2010-06-26T09:47:16Z" uid="30632" user="antblant" changeset="5079627">
    <nd ref="539313395"/>
    <nd ref="790901570"/>
    <nd ref="539313401"/>
    <tag k="highway" v="residential"/>
    <tag k="name" v="Szybowcowa"/>
  </way>
  <way id="43050273" version="1" timestamp="2009-10-24T04:57:03Z" uid="30632" user="antblant" changeset="2934591">
    <nd ref="539313396"/>
    <nd ref="539313397"/>
    <tag k="highway" v="residential"/>
    <tag k="name" v="Szybowcowa"/>
  </way>
  <way id="43050273" version="2" timestamp="2010-06-26T09:47:11Z" uid="30632" user="antblant" changeset="5079627">
    <nd ref="539313396"/>
    <nd ref="790901543"/>
    <nd ref="539313397"/>
    <tag k="highway" v="residential"/>
    <tag k="name" v="Szybowcowa"/>
  </way>
  <way id="43050274" version="1" timestamp="2009-10-24T04:57:03Z" uid="30632" user="antblant" changeset="2934591">
    <nd ref="539313391"/>
    <nd ref="539313392"/>
    <tag k="highway" v="residential"/>
    <tag k="name" v="Szybowcowa"/>
  </way>
  <way id="43050274" version="2" timestamp="2010-06-26T09:47:15Z" uid="30632" user="antblant" changeset="5079627">
    <nd ref="539313391"/>
    <nd ref="790901526"/>
    <nd ref="539313392"/>
    <tag k="highway" v="residential"/>
    <tag k="name" v="Szybowcowa"/>
  </way>
  <way id="43050275" version="1" timestamp="2009-10-24T04:57:04Z" uid="30632" user="antblant" changeset="2934591">
    <nd ref="539313401"/>
    <nd ref="539313402"/>
    <nd ref="539313397"/>
    <tag k="highway" v="residential"/>
    <tag k="name" v="Szybowcowa"/>
  </way>
  <way id="43050276" version="1" timestamp="2009-10-24T04:57:04Z" uid="30632" user="antblant" changeset="2934591">
    <nd ref="287859004"/>
    <nd ref="539313393"/>
    <nd ref="539313394"/>
    <tag k="highway" v="residential"/>
    <tag k="name" v="Jeziorna"/>
  </way>
  <way id="43050276" version="2" timestamp="2010-06-26T09:47:12Z" uid="30632" user="antblant" changeset="5079627">
    <nd ref="287859004"/>
    <nd ref="790901487"/>
    <nd ref="790901545"/>
    <nd ref="539313393"/>
    <nd ref="539313394"/>
    <tag k="highway" v="residential"/>
    <tag k="name" v="Jeziorna"/>
  </way>
  <way id="43050277" version="1" timestamp="2009-10-24T04:57:04Z" uid="30632" user="antblant" changeset="2934591">
    <nd ref="539313394"/>
    <nd ref="539313389"/>
    <tag k="highway" v="track"/>
    <tag k="name" v="Jeziorna"/>
  </way>
  <way id="43050278" version="1" timestamp="2009-10-24T04:57:04Z" uid="30632" user="antblant" changeset="2934591">
    <nd ref="254068303"/>
    <nd ref="539313388"/>
    <nd ref="254068288"/>
    <tag k="highway" v="residential"/>
    <tag k="name" v="Albatrosów"/>
  </way>
  <way id="43050278" version="2" timestamp="2010-06-26T09:47:11Z" uid="30632" user="antblant" changeset="5079627">
    <nd ref="254068303"/>
    <nd ref="539313388"/>
    <nd ref="790901493"/>
    <nd ref="254068288"/>
    <tag k="highway" v="residential"/>
    <tag k="name" v="Albatrosów"/>
  </way>
  <way id="43050279" version="1" timestamp="2009-10-24T04:57:04Z" uid="30632" user="antblant" changeset="2934591">
    <nd ref="539313386"/>
    <nd ref="539313385"/>
    <tag k="highway" v="service"/>
  </way>
  <way id="43050280" version="1" timestamp="2009-10-24T04:57:04Z" uid="30632" user="antblant" changeset="2934591">
    <nd ref="539313403"/>
    <nd ref="539313404"/>
    <tag k="highway" v="residential"/>
  </way>
  <way id="43050281" version="1" timestamp="2009-10-24T04:57:04Z" uid="30632" user="antblant" changeset="2934591">
    <nd ref="287860803"/>
    <nd ref="287859987"/>
    <tag k="highway" v="footway"/>
  </way>
  <way id="43050282" version="1" timestamp="2009-10-24T04:57:04Z" uid="30632" user="antblant" changeset="2934591">
    <nd ref="254068933"/>
    <nd ref="539313418"/>
    <tag k="highway" v="footway"/>
  </way>
  <way id="43050283" version="1" timestamp="2009-10-24T04:57:04Z" uid="30632" user="antblant" changeset="2934591">
    <nd ref="539313418"/>
    <nd ref="539313419"/>
    <tag k="highway" v="residential"/>
  </way>
  <way id="43050284" version="1" timestamp="2009-10-24T04:57:04Z" uid="30632" user="antblant" changeset="2934591">
    <nd ref="539313420"/>
    <nd ref="539313417"/>
    <nd ref="539313421"/>
    <nd ref="539313422"/>
    <nd ref="539313420"/>
    <tag k="addr:housenumber" v="7"/>
    <tag k="addr:postcode" v="70-842"/>
    <tag k="addr:street" v="Bośniacka"/>
    <tag k="amenity" v="school"/>
    <tag k="name" v="Szkoła Podstawowa nr 71"/>
    <tag k="name:short" v="SP 71"/>
  </way>
  <way id="43050285" version="1" timestamp="2009-10-24T04:57:04Z" uid="30632" user="antblant" changeset="2934591">
    <nd ref="539313423"/>
    <nd ref="539313424"/>
    <nd ref="539313425"/>
    <nd ref="539313426"/>
    <nd ref="539313444"/>
    <nd ref="539313445"/>
    <tag k="highway" v="residential"/>
    <tag k="name" v="Sarajewska"/>
  </way>
  <way id="43050286" version="1" timestamp="2009-10-24T04:57:04Z" uid="30632" user="antblant" changeset="2934591">
    <nd ref="287859940"/>
    <nd ref="539313426"/>
    <tag k="highway" v="residential"/>
  </way>
  <way id="43050286" version="2" timestamp="2010-06-12T20:17:04Z" uid="20587" user="balrog-kun" changeset="4973443">
    <nd ref="287859940"/>
    <nd ref="770499395"/>
    <nd ref="539313426"/>
    <tag k="highway" v="residential"/>
  </way>
  <way id="43050287" version="1" timestamp="2009-10-24T04:57:05Z" uid="30632" user="antblant" changeset="2934591">
    <nd ref="539313445"/>
    <nd ref="539313446"/>
    <nd ref="539313447"/>
    <nd ref="287859939"/>
    <tag k="highway" v="residential"/>
    <tag k="name" v="Zagrzebska"/>
  </way>
  <way id="43050288" version="1" timestamp="2009-10-24T04:57:05Z" uid="30632" user="antblant" changeset="2934591">
    <nd ref="539313428"/>
    <nd ref="539313429"/>
    <nd ref="539313430"/>
    <tag k="bus" v="yes"/>
    <tag k="highway" v="service"/>
    <tag k="motorcar" v="no"/>
    <tag k="oneway" v="yes"/>
  </way>
  <way id="43050289" version="1" timestamp="2009-10-24T04:57:05Z" uid="30632" user="antblant" changeset="2934591">
    <nd ref="287859020"/>
    <nd ref="539313488"/>
    <nd ref="539313489"/>
    <tag k="highway" v="residential"/>
    <tag k="name" v="Nysy"/>
    <tag k="oneway" v="yes"/>
  </way>
  <way id="43050290" version="1" timestamp="2009-10-24T04:57:05Z" uid="30632" user="antblant" changeset="2934591">
    <nd ref="539313489"/>
    <nd ref="539313490"/>
    <tag k="highway" v="residential"/>
    <tag k="name" v="Nysy"/>
    <tag k="oneway" v="yes"/>
  </way>
  <way id="43050291" version="1" timestamp="2009-10-24T04:57:05Z" uid="30632" user="antblant" changeset="2934591">
    <nd ref="539313426"/>
    <nd ref="287857406"/>
    <tag k="highway" v="residential"/>
    <tag k="name" v="Dubrownicka"/>
  </way>
  <way id="43050292" version="1" timestamp="2009-10-24T04:57:05Z" uid="30632" user="antblant" changeset="2934591">
    <nd ref="539313443"/>
    <nd ref="287859939"/>
    <nd ref="287859940"/>
    <nd ref="287859019"/>
    <nd ref="287859941"/>
    <tag k="highway" v="residential"/>
    <tag k="name" v="Belgradzka"/>
  </way>
  <way id="43050293" version="1" timestamp="2009-10-24T04:57:05Z" uid="30632" user="antblant" changeset="2934591">
    <nd ref="539313471"/>
    <nd ref="539313472"/>
    <tag k="highway" v="residential"/>
    <tag k="name" v="Ińska"/>
    <tag k="oneway" v="yes"/>
  </way>
  <way id="43050294" version="1" timestamp="2009-10-24T04:57:05Z" uid="30632" user="antblant" changeset="2934591">
    <nd ref="287859020"/>
    <nd ref="287858658"/>
    <nd ref="539313474"/>
    <tag k="highway" v="residential"/>
    <tag k="name" v="Regalicka"/>
  </way>
  <way id="43050295" version="1" timestamp="2009-10-24T04:57:05Z" uid="30632" user="antblant" changeset="2934591">
    <nd ref="539313472"/>
    <nd ref="287858658"/>
    <tag k="highway" v="residential"/>
    <tag k="name" v="Ińska"/>
  </way>
  <way id="43050296" version="1" timestamp="2009-10-24T04:57:05Z" uid="30632" user="antblant" changeset="2934591">
    <nd ref="539313478"/>
    <nd ref="539313481"/>
    <nd ref="539313479"/>
    <nd ref="539313487"/>
    <tag k="highway" v="residential"/>
    <tag k="name" v="Regalicka"/>
  </way>
  <way id="43050297" version="1" timestamp="2009-10-24T04:57:05Z" uid="30632" user="antblant" changeset="2934591">
    <nd ref="539313489"/>
    <nd ref="539313491"/>
    <nd ref="539313492"/>
    <nd ref="539313480"/>
    <nd ref="539313478"/>
    <tag k="highway" v="track"/>
    <tag k="name" v="Notecka"/>
  </way>
  <way id="43050298" version="1" timestamp="2009-10-24T04:57:05Z" uid="30632" user="antblant" changeset="2934591">
    <nd ref="539313481"/>
    <nd ref="539313484"/>
    <nd ref="539313482"/>
    <tag k="highway" v="track"/>
  </way>
  <way id="43050299" version="1" timestamp="2009-10-24T04:57:06Z" uid="30632" user="antblant" changeset="2934591">
    <nd ref="539313482"/>
    <nd ref="539313483"/>
    <nd ref="539313501"/>
    <nd ref="539313470"/>
    <nd ref="539313476"/>
    <nd ref="539313482"/>
    <tag k="landuse" v="allotments"/>
    <tag k="name" v="Rodzinny Ogród Działkowy &quot;Nad Jeziorem&quot;"/>
  </way>
  <way id="43050299" version="2" timestamp="2010-06-26T09:47:16Z" uid="30632" user="antblant" changeset="5079627">
    <nd ref="539313482"/>
    <nd ref="539313483"/>
    <nd ref="539313501"/>
    <nd ref="539313470"/>
    <nd ref="790901509"/>
    <nd ref="539313476"/>
    <nd ref="539313482"/>
    <tag k="landuse" v="allotments"/>
    <tag k="name" v="Rodzinny Ogród Działkowy &quot;Nad Jeziorem&quot;"/>
  </way>
  <way id="43050300" version="1" timestamp="2009-10-24T04:57:06Z" uid="30632" user="antblant" changeset="2934591">
    <nd ref="539313484"/>
    <nd ref="539313485"/>
    <nd ref="539313486"/>
    <nd ref="539313477"/>
    <tag k="highway" v="track"/>
  </way>
  <way id="43050301" version="1" timestamp="2009-10-24T04:57:06Z" uid="30632" user="antblant" changeset="2934591">
    <nd ref="287859941"/>
    <nd ref="539313423"/>
    <tag k="highway" v="track"/>
  </way>
  <way id="43050302" version="1" timestamp="2009-10-24T04:57:06Z" uid="30632" user="antblant" changeset="2934591">
    <nd ref="539313406"/>
    <nd ref="539313405"/>
    <nd ref="539313441"/>
    <nd ref="539313440"/>
    <nd ref="287859006"/>
    <tag k="highway" v="service"/>
  </way>
  <way id="43050302" version="2" timestamp="2010-06-26T09:47:09Z" uid="30632" user="antblant" changeset="5079627">
    <nd ref="539313406"/>
    <nd ref="539313405"/>
    <nd ref="539313441"/>
    <nd ref="539313440"/>
    <nd ref="790901495"/>
    <nd ref="287859006"/>
    <tag k="highway" v="service"/>
  </way>
  <way id="43050303" version="1" timestamp="2009-10-24T04:57:06Z" uid="30632" user="antblant" changeset="2934591">
    <nd ref="539313406"/>
    <nd ref="539313435"/>
    <nd ref="539313436"/>
    <nd ref="539313437"/>
    <nd ref="539313438"/>
    <nd ref="539313433"/>
    <tag k="highway" v="track"/>
  </way>
  <way id="43050304" version="1" timestamp="2009-10-24T04:57:06Z" uid="30632" user="antblant" changeset="2934591">
    <nd ref="539313437"/>
    <nd ref="538233987"/>
  </way>
  <way id="43050305" version="1" timestamp="2009-10-24T04:57:06Z" uid="30632" user="antblant" changeset="2934591">
    <nd ref="539313384"/>
    <nd ref="539313377"/>
    <nd ref="539313383"/>
    <tag k="highway" v="residential"/>
    <tag k="name" v="Emilii Gierczak"/>
  </way>
  <way id="43050305" version="2" timestamp="2010-04-05T14:46:11Z" uid="30632" user="antblant" changeset="4334045">
    <nd ref="539313384"/>
    <nd ref="539313377"/>
    <nd ref="685337227"/>
    <nd ref="539313383"/>
    <tag k="highway" v="residential"/>
    <tag k="name" v="Emilii Gierczak"/>
  </way>
  <way id="43050306" version="1" timestamp="2009-10-24T04:57:06Z" uid="30632" user="antblant" changeset="2934591">
    <nd ref="539313383"/>
    <nd ref="509700498"/>
    <tag k="highway" v="residential"/>
    <tag k="name" v="Glazurowa"/>
  </way>
  <way id="43050307" version="1" timestamp="2009-10-24T04:57:06Z" uid="30632" user="antblant" changeset="2934591">
    <nd ref="539313377"/>
    <nd ref="539313378"/>
    <tag k="highway" v="service"/>
  </way>
  <way id="43050308" version="1" timestamp="2009-10-24T04:57:06Z" uid="30632" user="antblant" changeset="2934591">
    <nd ref="539313379"/>
    <nd ref="539313380"/>
    <nd ref="539313381"/>
    <nd ref="539313382"/>
    <nd ref="539313379"/>
    <tag k="amenity" v="parking"/>
  </way>
  <way id="43050309" version="1" timestamp="2009-10-24T04:57:06Z" uid="30632" user="antblant" changeset="2934591">
    <nd ref="539313502"/>
    <nd ref="539313503"/>
    <nd ref="539313495"/>
    <nd ref="539313496"/>
    <nd ref="539313497"/>
    <nd ref="539313498"/>
    <nd ref="539313499"/>
    <nd ref="539313500"/>
    <nd ref="539313493"/>
    <nd ref="539313489"/>
    <tag k="highway" v="track"/>
  </way>
  <way id="43050310" version="1" timestamp="2009-10-24T04:57:07Z" uid="30632" user="antblant" changeset="2934591">
    <nd ref="539313474"/>
    <nd ref="539313477"/>
    <nd ref="539313487"/>
    <tag k="highway" v="track"/>
  </way>
  <way id="43050311" version="1" timestamp="2009-10-24T04:57:07Z" uid="30632" user="antblant" changeset="2934591">
    <nd ref="539313487"/>
    <nd ref="539313475"/>
    <nd ref="287858658"/>
    <tag k="highway" v="residential"/>
    <tag k="name" v="Regalicka"/>
  </way>
  <way id="43050312" version="1" timestamp="2009-10-24T04:57:07Z" uid="30632" user="antblant" changeset="2934591">
    <nd ref="539313502"/>
    <nd ref="254068950"/>
    <tag k="highway" v="tertiary"/>
    <tag k="name" v="Lubczyńska"/>
    <tag k="oneway" v="yes"/>
  </way>
  <way id="43050313" version="1" timestamp="2009-10-24T04:57:07Z" uid="30632" user="antblant" changeset="2934591">
    <nd ref="539313504"/>
    <nd ref="539313502"/>
    <tag k="highway" v="tertiary"/>
    <tag k="name" v="Lubczyńska"/>
    <tag k="oneway" v="yes"/>
  </way>
  <way id="43050675" version="5" timestamp="2011-03-04T08:47:09Z" uid="4467" user="Rosscoe" changeset="7452585">
    <nd ref="539316046"/>
    <nd ref="539316385"/>
    <nd ref="539316047"/>
    <nd ref="539316048"/>
    <nd ref="539316049"/>
    <nd ref="539316050"/>
    <nd ref="539316051"/>
    <nd ref="539316052"/>
    <nd ref="539316004"/>
    <tag k="highway" v="track"/>
    <tag k="name" v="Tophers Road"/>
    <tag k="source" v="survey"/>
    <tag k="surface" v="unpaved"/>
    <tag k="survey" v="GPS"/>
    <tag k="tracktype" v="grade3"/>
  </way>
  <way id="43050724" version="2" timestamp="2011-03-04T08:47:09Z" uid="4467" user="Rosscoe" changeset="7452585">
    <nd ref="539316386"/>
    <nd ref="539316387"/>
    <nd ref="539316385"/>
    <tag k="highway" v="track"/>
    <tag k="source" v="survey"/>
    <tag k="surface" v="unpaved"/>
    <tag k="survey" v="GPS"/>
    <tag k="tracktype" v="grade4"/>
  </way>
  <way id="43050732" version="2" timestamp="2011-03-04T08:47:09Z" uid="4467" user="Rosscoe" changeset="7452585"/>
  <way id="43050809" version="2" timestamp="2010-03-28T11:05:54Z" uid="20587" user="balrog-kun" changeset="4254597">
    <nd ref="122684733"/>
    <nd ref="122684735"/>
    <tag k="highway" v="residential"/>
    <tag k="name" v="Melrose Avenue"/>
    <tag k="tiger:cfcc" v="A41"/>
    <tag k="tiger:county" v="Los Angeles, CA"/>
    <tag k="tiger:name_base" v="Melrose"/>
    <tag k="tiger:name_type" v="Ave"/>
    <tag k="tiger:reviewed" v="no"/>
    <tag k="tiger:separated" v="no"/>
    <tag k="tiger:source" v="tiger_import_dch_v0.6_20070809"/>
    <tag k="tiger:tlid" v="141645918:141645921"/>
    <tag k="tiger:zip_left" v="91016"/>
    <tag k="tiger:zip_right" v="91016"/>
  </way>
  <way id="43050918" version="7" timestamp="2010-07-08T19:49:57Z" uid="74617" user="JohnSmith" changeset="5168730">
    <nd ref="539318391"/>
    <nd ref="540660006"/>
    <nd ref="698555870"/>
    <nd ref="698552168"/>
    <nd ref="698552169"/>
    <nd ref="698554966"/>
    <nd ref="698552170"/>
    <nd ref="539318393"/>
    <tag k="highway" v="residential"/>
    <tag k="maxspeed" v="50"/>
    <tag k="maxspeed:source" v="default residential speed limit in Australia"/>
    <tag k="name" v="Edmondshaw Drive"/>
    <tag k="surface" v="asphalt"/>
  </way>
  <way id="43050919" version="4" timestamp="2010-07-08T19:51:33Z" uid="74617" user="JohnSmith" changeset="5168730">
    <nd ref="539318189"/>
    <nd ref="698550736"/>
    <nd ref="698550737"/>
    <nd ref="540660008"/>
    <nd ref="698550656"/>
    <tag k="highway" v="residential"/>
    <tag k="maxspeed" v="50"/>
    <tag k="maxspeed:source" v="default residential speed limit in Australia"/>
  </way>
  <way id="43050957" version="4" timestamp="2009-12-07T16:47:45Z" uid="23543" user="jkjk" changeset="3317294">
    <nd ref="560142912"/>
    <nd ref="560142909"/>
    <nd ref="539318623"/>
    <nd ref="560142902"/>
    <nd ref="560142904"/>
    <nd ref="560142906"/>
    <nd ref="539318539"/>
    <nd ref="582930682"/>
    <nd ref="582930680"/>
    <nd ref="582930681"/>
    <nd ref="582930679"/>
    <nd ref="582930678"/>
    <tag k="operator" v="ČEZ"/>
    <tag k="power" v="line"/>
    <tag k="voltage" v="110 kW"/>
  </way>
</osm>
