<?xml version='1.0' encoding='UTF-8'?>
<osm version="0.6" generator="libosmium/2.20.0">
  <way id="4322207" version="2" timestamp="2007-12-15T15:49:50Z" uid="4667" user="MapZ" changeset="314493">
    <nd ref="16346349"/>
    <nd ref="21334797"/>
    <nd ref="21334786"/>
    <tag k="created_by" v="JOSM"/>
    <tag k="highway" v="secondary"/>
    <tag k="layer" v="1"/>
    <tag k="oneway" v="yes"/>
  </way>
  <way id="4322208" version="2" timestamp="2007-12-15T15:49:50Z" uid="4667" user="MapZ" changeset="314493">
    <nd ref="21334798"/>
    <nd ref="21334787"/>
    <tag k="bridge" v="yes"/>
    <tag k="created_by" v="JOSM"/>
    <tag k="highway" v="secondary"/>
    <tag k="layer" v="1"/>
    <tag k="oneway" v="yes"/>
  </way>
  <way id="4322209" version="2" timestamp="2007-12-15T15:49:49Z" uid="4667" user="MapZ" changeset="314493">
    <nd ref="16346351"/>
    <nd ref="16346352"/>
    <tag k="bridge" v="yes"/>
    <tag k="created_by" v="JOSM"/>
    <tag k="highway" v="motorway_link"/>
    <tag k="layer" v="1"/>
    <tag k="oneway" v="yes"/>
  </way>
  <way id="4322211" version="2" timestamp="2007-12-14T19:35:25Z" uid="4667" user="MapZ" changeset="301026">
    <nd ref="21332220"/>
    <nd ref="169235744"/>
    <nd ref="169235751"/>
    <tag k="created_by" v="JOSM"/>
    <tag k="highway" v="secondary"/>
    <tag k="layer" v="1"/>
    <tag k="ref" v="L631"/>
  </way>
  <way id="4322211" version="3" timestamp="2007-12-15T15:51:01Z" uid="4667" user="MapZ" changeset="314493">
    <nd ref="21332220"/>
    <nd ref="169235744"/>
    <nd ref="169235751"/>
    <nd ref="21663148"/>
    <nd ref="51509530"/>
    <nd ref="51512548"/>
    <tag k="bridge" v="yes"/>
    <tag k="created_by" v="JOSM"/>
    <tag k="highway" v="secondary"/>
    <tag k="layer" v="1"/>
    <tag k="ref" v="L631"/>
  </way>
  <way id="4322211" version="4" timestamp="2007-12-15T15:52:26Z" uid="4667" user="MapZ" changeset="314493">
    <nd ref="21332220"/>
    <nd ref="171073653"/>
    <nd ref="169235744"/>
    <nd ref="169235751"/>
    <nd ref="21663148"/>
    <nd ref="51509530"/>
    <nd ref="51512548"/>
    <tag k="bridge" v="yes"/>
    <tag k="created_by" v="JOSM"/>
    <tag k="highway" v="secondary"/>
    <tag k="layer" v="1"/>
    <tag k="ref" v="L631"/>
  </way>
  <way id="4322247" version="7" timestamp="2008-05-07T22:06:18Z" uid="36809" user="pfoten_weg_!_" changeset="361175">
    <nd ref="21133522"/>
    <nd ref="83684067"/>
    <nd ref="21133523"/>
    <nd ref="26057177"/>
    <nd ref="26057178"/>
    <nd ref="21584116"/>
    <nd ref="237956759"/>
    <nd ref="69254963"/>
    <nd ref="28106625"/>
    <nd ref="585729"/>
    <tag k="created_by" v="Potlatch 0.8c"/>
    <tag k="cycleway" v="track"/>
    <tag k="highway" v="residential"/>
    <tag k="name" v="Siemensallee"/>
  </way>
  <way id="4322247" version="8" timestamp="2008-05-11T00:20:56Z" uid="36809" user="pfoten_weg_!_" changeset="402177">
    <nd ref="21133522"/>
    <nd ref="83684067"/>
    <nd ref="263568101"/>
    <nd ref="21133523"/>
    <nd ref="263568102"/>
    <nd ref="26057177"/>
    <nd ref="26057178"/>
    <nd ref="21584116"/>
    <nd ref="237956759"/>
    <nd ref="69254963"/>
    <nd ref="28106625"/>
    <nd ref="585729"/>
    <tag k="created_by" v="Potlatch 0.9"/>
    <tag k="cycleway" v="track"/>
    <tag k="highway" v="residential"/>
    <tag k="name" v="Siemensallee"/>
  </way>
  <way id="4322247" version="9" timestamp="2008-05-11T00:21:43Z" uid="36809" user="pfoten_weg_!_" changeset="402177">
    <nd ref="21133522"/>
    <nd ref="83684067"/>
    <nd ref="263568101"/>
    <nd ref="21133523"/>
    <nd ref="263568102"/>
    <nd ref="26057177"/>
    <nd ref="26057178"/>
    <nd ref="21584116"/>
    <nd ref="237956759"/>
    <nd ref="69254963"/>
    <nd ref="28106625"/>
    <nd ref="585729"/>
    <tag k="created_by" v="Potlatch 0.9"/>
    <tag k="cycleway" v="track"/>
    <tag k="highway" v="residential"/>
    <tag k="name" v="Siemensallee"/>
  </way>
  <way id="4322247" version="10" timestamp="2008-05-11T00:21:53Z" uid="36809" user="pfoten_weg_!_" changeset="402177">
    <nd ref="21133522"/>
    <nd ref="83684067"/>
    <nd ref="263568101"/>
    <nd ref="21133523"/>
    <nd ref="263568102"/>
    <nd ref="26057177"/>
    <nd ref="26057178"/>
    <nd ref="21584116"/>
    <nd ref="237956759"/>
    <nd ref="69254963"/>
    <nd ref="28106625"/>
    <nd ref="585729"/>
    <tag k="created_by" v="Potlatch 0.9"/>
    <tag k="cycleway" v="track"/>
    <tag k="highway" v="residential"/>
    <tag k="name" v="Siemensallee"/>
  </way>
  <way id="4322247" version="11" timestamp="2008-05-11T00:24:48Z" uid="36809" user="pfoten_weg_!_" changeset="402177">
    <nd ref="21133522"/>
    <nd ref="83684067"/>
    <nd ref="263568423"/>
    <nd ref="263568101"/>
    <nd ref="21133523"/>
    <nd ref="263568102"/>
    <nd ref="26057177"/>
    <nd ref="26057178"/>
    <nd ref="21584116"/>
    <nd ref="237956759"/>
    <nd ref="69254963"/>
    <nd ref="28106625"/>
    <nd ref="585729"/>
    <tag k="created_by" v="Potlatch 0.9"/>
    <tag k="cycleway" v="track"/>
    <tag k="highway" v="residential"/>
    <tag k="name" v="Siemensallee"/>
  </way>
  <way id="4322247" version="12" timestamp="2008-05-11T00:25:56Z" uid="36809" user="pfoten_weg_!_" changeset="402177">
    <nd ref="21133522"/>
    <nd ref="263568423"/>
    <tag k="created_by" v="Potlatch 0.9"/>
    <tag k="cycleway" v="track"/>
    <tag k="highway" v="residential"/>
    <tag k="name" v="Siemensallee"/>
  </way>
  <way id="4322247" version="13" timestamp="2008-05-11T00:26:14Z" uid="36809" user="pfoten_weg_!_" changeset="402177">
    <nd ref="263568423"/>
    <nd ref="21133522"/>
    <tag k="created_by" v="Potlatch 0.9"/>
    <tag k="highway" v="residential"/>
    <tag k="name" v="Siemensallee"/>
    <tag k="oneway" v="yes"/>
  </way>
  <way id="4322247" version="14" timestamp="2008-08-23T23:48:11Z" uid="36809" user="pfoten_weg_!_" changeset="384601">
    <nd ref="263568423"/>
    <nd ref="21133522"/>
    <tag k="created_by" v="RambaZamba"/>
    <tag k="highway" v="residential"/>
    <tag k="name" v="Siemensallee"/>
    <tag k="oneway" v="yes"/>
  </way>
  <way id="4322247" version="15" timestamp="2008-09-21T21:25:28Z" uid="36809" user="pfoten_weg_!_" changeset="676192">
    <nd ref="263568423"/>
    <nd ref="21133522"/>
    <tag k="created_by" v="RambaZamba"/>
    <tag k="highway" v="residential"/>
    <tag k="name" v="Siemensallee"/>
    <tag k="oneway" v="yes"/>
    <tag k="source" v="survey"/>
  </way>
  <way id="4322247" version="16" timestamp="2008-10-01T02:13:07Z" uid="36809" user="pfoten_weg_!_" changeset="5644">
    <nd ref="263568423"/>
    <nd ref="21133522"/>
    <tag k="created_by" v="RambaZamba"/>
    <tag k="highway" v="residential"/>
    <tag k="name" v="Siemensallee"/>
    <tag k="oneway" v="yes"/>
    <tag k="source" v="survey"/>
  </way>
  <way id="4322247" version="17" timestamp="2008-11-04T12:07:13Z" uid="36809" user="pfoten_weg_!_" changeset="676450">
    <nd ref="263568423"/>
    <nd ref="21133522"/>
    <tag k="created_by" v="RambaZamba"/>
    <tag k="highway" v="residential"/>
    <tag k="name" v="Siemensallee"/>
    <tag k="oneway" v="yes"/>
    <tag k="osmarender:renderName" v="no"/>
    <tag k="source" v="survey"/>
    <tag k="width" v="7"/>
  </way>
  <way id="4322247" version="19" timestamp="2008-11-21T16:34:15Z" uid="36809" user="pfoten_weg_!_" changeset="776421"/>
  <way id="4322286" version="15" timestamp="2008-12-29T15:19:50Z" uid="49111" user="Markus B" changeset="659731">
    <nd ref="26261846"/>
    <nd ref="26261847"/>
    <nd ref="26261848"/>
    <nd ref="26261849"/>
    <nd ref="26261850"/>
    <nd ref="26261851"/>
    <nd ref="26261853"/>
    <nd ref="26261854"/>
    <nd ref="26261855"/>
    <nd ref="26261856"/>
    <nd ref="26261858"/>
    <nd ref="322817066"/>
    <nd ref="266599764"/>
    <nd ref="322817068"/>
    <nd ref="26261859"/>
    <nd ref="253846940"/>
    <nd ref="322817065"/>
    <nd ref="26261860"/>
    <nd ref="322817069"/>
    <nd ref="249895467"/>
    <nd ref="111503627"/>
    <nd ref="26261861"/>
    <nd ref="286914336"/>
    <nd ref="26261862"/>
    <nd ref="322817070"/>
    <nd ref="111503630"/>
    <nd ref="322817071"/>
    <nd ref="26261863"/>
    <nd ref="322817072"/>
    <nd ref="322817074"/>
    <nd ref="26261864"/>
    <nd ref="322817073"/>
    <nd ref="256225570"/>
    <nd ref="111503634"/>
    <nd ref="26261866"/>
    <nd ref="322817075"/>
    <nd ref="321742718"/>
    <nd ref="26261867"/>
    <tag k="created_by" v="Potlatch 0.10b"/>
    <tag k="highway" v="secondary"/>
    <tag k="maxspeed" v="100"/>
    <tag k="ref" v="St 2401"/>
  </way>
  <way id="4322317" version="1" timestamp="2007-09-14T19:01:01Z" uid="8328" user="benpre" changeset="428989">
    <nd ref="19767458"/>
    <nd ref="19767308"/>
    <nd ref="19767322"/>
    <nd ref="19767364"/>
    <nd ref="19767277"/>
    <nd ref="19767288"/>
    <nd ref="19767257"/>
    <nd ref="19815841"/>
    <tag k="created_by" v="JOSM"/>
    <tag k="highway" v="unclassified"/>
    <tag k="name" v="An den Theklafeldern"/>
  </way>
  <way id="4322317" version="8" timestamp="2008-02-11T21:39:45Z" uid="13367" user="nubok" changeset="102193">
    <nd ref="188831219"/>
    <nd ref="191838801"/>
    <nd ref="19767458"/>
    <nd ref="188831939"/>
    <nd ref="188824717"/>
    <nd ref="19767308"/>
    <nd ref="19767322"/>
    <nd ref="19767364"/>
    <nd ref="247274258"/>
    <nd ref="19767277"/>
    <nd ref="206124173"/>
    <nd ref="19767288"/>
    <nd ref="19767257"/>
    <nd ref="194418243"/>
    <nd ref="19815841"/>
    <tag k="created_by" v="Potlatch 0.7"/>
    <tag k="highway" v="unclassified"/>
    <tag k="name" v="An den Theklafeldern"/>
  </way>
  <way id="4322342" version="4" timestamp="2008-07-10T00:40:49Z" uid="6975" user="ulfl" changeset="448234">
    <nd ref="26261977"/>
    <nd ref="26262004"/>
    <tag k="highway" v="living_street"/>
    <tag k="name" v="Brinkstraße"/>
    <tag k="ref" v="Fuß- und Radweg"/>
  </way>
  <way id="4322433" version="9" timestamp="2008-12-29T15:36:36Z" uid="49111" user="Markus B" changeset="659731">
    <nd ref="26262557"/>
    <nd ref="256225639"/>
    <nd ref="256226080"/>
    <nd ref="26262558"/>
    <nd ref="286911883"/>
    <nd ref="290227410"/>
    <nd ref="268200275"/>
    <nd ref="26262559"/>
    <nd ref="26262560"/>
    <nd ref="26262561"/>
    <nd ref="26262562"/>
    <nd ref="26262563"/>
    <nd ref="322821721"/>
    <nd ref="26262564"/>
    <nd ref="26262565"/>
    <nd ref="26262566"/>
    <tag k="created_by" v="Potlatch 0.10b"/>
    <tag k="highway" v="residential"/>
    <tag k="maxspeed" v="50"/>
    <tag k="name" v="Bahnhofsallee"/>
  </way>
  <way id="4322434" version="3" timestamp="2008-12-29T15:19:50Z" uid="49111" user="Markus B" changeset="659731">
    <nd ref="26262561"/>
    <nd ref="26262567"/>
    <nd ref="322817085"/>
    <nd ref="322817084"/>
    <nd ref="26262568"/>
    <nd ref="26262569"/>
    <nd ref="26262562"/>
    <tag k="created_by" v="JOSM"/>
    <tag k="highway" v="residential"/>
    <tag k="maxspeed" v="50"/>
    <tag k="name" v="Thersienstraße"/>
  </way>
  <way id="4322435" version="8" timestamp="2008-10-24T10:34:12Z" uid="49111" user="Markus B" changeset="547013">
    <nd ref="26261867"/>
    <nd ref="249895408"/>
    <nd ref="256225592"/>
    <nd ref="290940663"/>
    <nd ref="26262571"/>
    <nd ref="290940654"/>
    <nd ref="306936456"/>
    <nd ref="306936458"/>
    <nd ref="26262570"/>
    <nd ref="256225622"/>
    <nd ref="31052092"/>
    <nd ref="26262572"/>
    <tag k="created_by" v="Potlatch 0.10c"/>
    <tag k="highway" v="secondary"/>
    <tag k="maxspeed" v="50"/>
    <tag k="name" v="Burgthanner Straße"/>
    <tag k="ref" v="St 2401"/>
  </way>
  <way id="4322508" version="9" timestamp="2009-07-18T17:35:16Z" uid="123517" user="Qichina" changeset="1865658">
    <nd ref="26262832"/>
    <nd ref="26262833"/>
    <nd ref="415539789"/>
    <nd ref="415539790"/>
    <nd ref="415539791"/>
    <nd ref="415539792"/>
    <nd ref="443419256"/>
    <nd ref="415539793"/>
    <nd ref="323131675"/>
    <nd ref="316996801"/>
    <nd ref="323131674"/>
    <nd ref="323131672"/>
    <nd ref="415539794"/>
    <nd ref="26401429"/>
    <nd ref="26401356"/>
    <nd ref="26401357"/>
    <nd ref="26401355"/>
    <nd ref="26401354"/>
    <nd ref="26401353"/>
    <nd ref="26401351"/>
    <nd ref="26401350"/>
    <nd ref="26401349"/>
    <nd ref="26401348"/>
    <nd ref="26401347"/>
    <nd ref="26401345"/>
    <nd ref="26401344"/>
    <nd ref="26401312"/>
    <nd ref="26401311"/>
    <nd ref="26401309"/>
    <nd ref="26401278"/>
    <nd ref="26262834"/>
    <nd ref="26401255"/>
    <nd ref="26401254"/>
    <nd ref="26401252"/>
    <nd ref="26401251"/>
    <nd ref="26401250"/>
    <nd ref="26262835"/>
    <nd ref="26262836"/>
    <nd ref="26262837"/>
    <nd ref="26262826"/>
    <nd ref="26262827"/>
    <nd ref="26262828"/>
    <nd ref="26262829"/>
    <nd ref="26262830"/>
    <nd ref="26262831"/>
    <nd ref="26262832"/>
    <tag k="created_by" v="Potlatch 0.10f"/>
    <tag k="history" v="Retrieved from v5"/>
    <tag k="landuse" v="forest"/>
    <tag k="name" v="Norsey Woods"/>
    <tag k="natural" v="wood"/>
  </way>
  <way id="4322585" version="5" timestamp="2010-03-27T07:42:27Z" uid="20587" user="balrog-kun" changeset="4244079">
    <nd ref="26880643"/>
    <nd ref="88028415"/>
    <nd ref="26263653"/>
    <nd ref="26263655"/>
    <nd ref="26263656"/>
    <nd ref="26263657"/>
    <nd ref="26511762"/>
    <nd ref="122827271"/>
    <nd ref="26263658"/>
    <nd ref="27549547"/>
    <tag k="highway" v="residential"/>
    <tag k="name" v="Avenue 41"/>
  </way>
  <way id="4322586" version="3" timestamp="2010-03-27T07:42:27Z" uid="20587" user="balrog-kun" changeset="4244079">
    <nd ref="20189489"/>
    <nd ref="26263665"/>
    <nd ref="87622295"/>
    <nd ref="26263666"/>
    <nd ref="26263667"/>
    <nd ref="26263668"/>
    <tag k="created_by" v="JOSM"/>
    <tag k="highway" v="residential"/>
    <tag k="name" v="Round Top Drive"/>
  </way>
  <way id="4322587" version="2" timestamp="2010-03-27T07:42:27Z" uid="20587" user="balrog-kun" changeset="4244079">
    <nd ref="26263672"/>
    <nd ref="26263671"/>
    <nd ref="26263670"/>
    <nd ref="26263669"/>
    <nd ref="26263673"/>
    <tag k="created_by" v="JOSM"/>
    <tag k="highway" v="residential"/>
    <tag k="name" v="Verd Oaks Drive"/>
  </way>
  <way id="4322588" version="2" timestamp="2010-03-27T07:42:27Z" uid="20587" user="balrog-kun" changeset="4244079">
    <nd ref="26263671"/>
    <nd ref="26263674"/>
    <nd ref="26263675"/>
    <tag k="created_by" v="JOSM"/>
    <tag k="highway" v="residential"/>
    <tag k="name" v="High Line Drive"/>
  </way>
  <way id="4322589" version="3" timestamp="2010-03-27T07:42:27Z" uid="20587" user="balrog-kun" changeset="4244079">
    <nd ref="26263676"/>
    <nd ref="122622657"/>
    <nd ref="20189480"/>
    <nd ref="20189482"/>
    <tag k="created_by" v="JOSM"/>
    <tag k="highway" v="residential"/>
    <tag k="name" v="Plumas Street"/>
  </way>
  <way id="4322590" version="5" timestamp="2010-03-27T07:42:28Z" uid="20587" user="balrog-kun" changeset="4244079">
    <nd ref="21590093"/>
    <nd ref="26263677"/>
    <nd ref="122972184"/>
    <nd ref="28110220"/>
    <nd ref="123136030"/>
    <nd ref="26263678"/>
    <nd ref="28110221"/>
    <nd ref="35981815"/>
    <nd ref="35981817"/>
    <tag k="created_by" v="Potlatch 0.10f"/>
    <tag k="highway" v="residential"/>
    <tag k="name" v="Windsor Road"/>
  </way>
  <way id="4322591" version="3" timestamp="2010-03-27T07:42:28Z" uid="20587" user="balrog-kun" changeset="4244079">
    <nd ref="26263680"/>
    <nd ref="539534766"/>
    <nd ref="26263681"/>
    <tag k="highway" v="residential"/>
    <tag k="name" v="Maynard Street"/>
    <tag k="oneway" v="yes"/>
  </way>
  <way id="4322593" version="3" timestamp="2010-03-27T07:42:28Z" uid="20587" user="balrog-kun" changeset="4244079">
    <nd ref="26263686"/>
    <nd ref="123376757"/>
    <nd ref="26263687"/>
    <tag k="created_by" v="JOSM"/>
    <tag k="highway" v="residential"/>
    <tag k="name" v="Lukess Place"/>
  </way>
  <way id="4322595" version="3" timestamp="2010-03-27T07:42:28Z" uid="20587" user="balrog-kun" changeset="4244079">
    <nd ref="26263689"/>
    <nd ref="539537760"/>
    <nd ref="26263690"/>
    <tag k="highway" v="residential"/>
    <tag k="name" v="Carr Drive"/>
  </way>
  <way id="4322596" version="4" timestamp="2010-03-27T07:42:28Z" uid="20587" user="balrog-kun" changeset="4244079">
    <nd ref="26263690"/>
    <nd ref="539537784"/>
    <nd ref="26263681"/>
    <nd ref="539534765"/>
    <nd ref="26263691"/>
    <tag k="highway" v="residential"/>
    <tag k="name" v="Harvard Street"/>
  </way>
  <way id="4322597" version="2" timestamp="2010-03-27T07:42:28Z" uid="20587" user="balrog-kun" changeset="4244079">
    <nd ref="26263692"/>
    <nd ref="26263693"/>
    <tag k="created_by" v="JOSM"/>
    <tag k="highway" v="residential"/>
    <tag k="name" v="Orange Grove Avenue"/>
  </way>
  <way id="4322598" version="3" timestamp="2010-03-27T07:42:28Z" uid="20587" user="balrog-kun" changeset="4244079">
    <nd ref="26263691"/>
    <nd ref="26263692"/>
    <nd ref="26263682"/>
    <tag k="created_by" v="Potlatch 0.10f"/>
    <tag k="highway" v="residential"/>
    <tag k="name" v="Campus Street"/>
  </way>
  <way id="4322599" version="3" timestamp="2010-03-27T07:42:28Z" uid="20587" user="balrog-kun" changeset="4244079">
    <nd ref="26263695"/>
    <nd ref="26263698"/>
    <tag k="created_by" v="JOSM"/>
    <tag k="highway" v="residential"/>
    <tag k="name" v="Everano Avenue"/>
  </way>
  <way id="4322600" version="2" timestamp="2010-03-27T07:42:28Z" uid="20587" user="balrog-kun" changeset="4244079">
    <nd ref="26263697"/>
    <nd ref="26263699"/>
    <nd ref="26263700"/>
    <tag k="created_by" v="JOSM"/>
    <tag k="highway" v="residential"/>
    <tag k="name" v="Sumner Avenue"/>
  </way>
  <way id="4322601" version="3" timestamp="2010-03-27T07:42:29Z" uid="20587" user="balrog-kun" changeset="4244079">
    <nd ref="88391475"/>
    <nd ref="26263701"/>
    <nd ref="26263702"/>
    <tag k="created_by" v="JOSM"/>
    <tag k="highway" v="residential"/>
    <tag k="name" v="Live Oak View Drive"/>
  </way>
  <way id="4322602" version="4" timestamp="2010-03-27T07:42:29Z" uid="20587" user="balrog-kun" changeset="4244079">
    <nd ref="26263705"/>
    <nd ref="26263707"/>
    <nd ref="88391478"/>
    <tag k="created_by" v="Potlatch 0.10f"/>
    <tag k="highway" v="residential"/>
    <tag k="name" v="El Rio Avenue"/>
  </way>
  <way id="4322603" version="4" timestamp="2010-03-27T07:42:29Z" uid="20587" user="balrog-kun" changeset="4244079">
    <nd ref="88391477"/>
    <nd ref="122985972"/>
    <nd ref="26263707"/>
    <nd ref="123286284"/>
    <nd ref="26263708"/>
    <tag k="created_by" v="JOSM"/>
    <tag k="highway" v="residential"/>
    <tag k="name" v="Las Flores Drive"/>
  </way>
  <way id="4322604" version="3" timestamp="2010-03-27T07:42:29Z" uid="20587" user="balrog-kun" changeset="4244079">
    <nd ref="88622240"/>
    <nd ref="26263708"/>
    <nd ref="26263710"/>
    <nd ref="26263709"/>
    <tag k="created_by" v="JOSM"/>
    <tag k="highway" v="residential"/>
    <tag k="name" v="Eagle Rock Avenue"/>
  </way>
  <way id="4322605" version="4" timestamp="2010-03-27T07:42:29Z" uid="20587" user="balrog-kun" changeset="4244079">
    <nd ref="25904027"/>
    <nd ref="26263711"/>
    <nd ref="26263712"/>
    <nd ref="371955604"/>
    <nd ref="371955605"/>
    <nd ref="371955801"/>
    <nd ref="371955804"/>
    <nd ref="371955807"/>
    <nd ref="26263713"/>
    <tag k="created_by" v="Potlatch 0.10f"/>
    <tag k="highway" v="residential"/>
    <tag k="name" v="Neal Drive"/>
  </way>
  <way id="4322606" version="5" timestamp="2010-03-27T07:42:29Z" uid="20587" user="balrog-kun" changeset="4244079">
    <nd ref="26263714"/>
    <nd ref="371956210"/>
    <nd ref="371956211"/>
    <nd ref="88622169"/>
    <nd ref="371956212"/>
    <nd ref="371956214"/>
    <nd ref="26263715"/>
    <nd ref="371956215"/>
    <nd ref="371956216"/>
    <nd ref="371956218"/>
    <nd ref="26263716"/>
    <nd ref="371955905"/>
    <nd ref="371956222"/>
    <nd ref="371955910"/>
    <nd ref="26263713"/>
    <nd ref="26263717"/>
    <nd ref="26263718"/>
    <nd ref="26263719"/>
    <nd ref="88622176"/>
    <nd ref="26263720"/>
    <nd ref="26263721"/>
    <nd ref="26263722"/>
    <nd ref="26263723"/>
    <tag k="created_by" v="Potlatch 0.10f"/>
    <tag k="highway" v="residential"/>
    <tag k="name" v="Estes Road"/>
  </way>
  <way id="4322607" version="3" timestamp="2010-03-27T07:42:30Z" uid="20587" user="balrog-kun" changeset="4244079">
    <nd ref="26263723"/>
    <nd ref="26263724"/>
    <nd ref="26263726"/>
    <nd ref="25904031"/>
    <tag k="created_by" v="JOSM"/>
    <tag k="highway" v="residential"/>
    <tag k="name" v="Highland View Avenue"/>
  </way>
  <way id="4322610" version="3" timestamp="2010-03-27T07:42:30Z" uid="20587" user="balrog-kun" changeset="4244079">
    <nd ref="26263732"/>
    <nd ref="26263739"/>
    <nd ref="26263734"/>
    <nd ref="26263733"/>
    <nd ref="26263735"/>
    <nd ref="26263736"/>
    <nd ref="26263737"/>
    <tag k="created_by" v="JOSM"/>
    <tag k="highway" v="residential"/>
    <tag k="name" v="Townsend Avenue"/>
  </way>
  <way id="4322611" version="2" timestamp="2010-03-27T07:42:30Z" uid="20587" user="balrog-kun" changeset="4244079">
    <nd ref="26263735"/>
    <nd ref="26263740"/>
    <nd ref="26263741"/>
    <nd ref="26263742"/>
    <nd ref="26263743"/>
    <nd ref="26263744"/>
    <nd ref="26263731"/>
    <nd ref="26263745"/>
    <tag k="created_by" v="JOSM"/>
    <tag k="highway" v="residential"/>
    <tag k="name" v="Vincent Avenue"/>
  </way>
  <way id="4322612" version="2" timestamp="2010-03-27T07:42:30Z" uid="20587" user="balrog-kun" changeset="4244079">
    <nd ref="26263746"/>
    <nd ref="26263747"/>
    <nd ref="26263729"/>
    <nd ref="26263748"/>
    <nd ref="26263749"/>
    <nd ref="25904035"/>
    <nd ref="26263750"/>
    <nd ref="26263751"/>
    <nd ref="26263752"/>
    <tag k="created_by" v="JOSM"/>
    <tag k="highway" v="residential"/>
    <tag k="name" v="Argus Drive"/>
  </way>
  <way id="4322614" version="4" timestamp="2010-03-27T07:42:30Z" uid="20587" user="balrog-kun" changeset="4244079">
    <nd ref="26263757"/>
    <nd ref="26263758"/>
    <nd ref="26263759"/>
    <tag k="created_by" v="JOSM"/>
    <tag k="highway" v="residential"/>
    <tag k="name" v="Hepner Avenue"/>
  </way>
  <way id="4322615" version="3" timestamp="2010-03-27T07:42:30Z" uid="20587" user="balrog-kun" changeset="4244079">
    <nd ref="26263759"/>
    <nd ref="175528161"/>
    <nd ref="26263760"/>
    <tag k="created_by" v="JOSM"/>
    <tag k="highway" v="residential"/>
    <tag k="name" v="Wiota Street"/>
  </way>
  <way id="4322616" version="3" timestamp="2010-03-27T07:42:30Z" uid="20587" user="balrog-kun" changeset="4244079">
    <nd ref="26263760"/>
    <nd ref="26263761"/>
    <nd ref="26263762"/>
    <tag k="created_by" v="JOSM"/>
    <tag k="highway" v="residential"/>
    <tag k="name" v="Oak Grove Drive"/>
    <tag k="oneway" v="yes"/>
  </way>
  <way id="4322617" version="3" timestamp="2010-03-27T07:42:31Z" uid="20587" user="balrog-kun" changeset="4244079">
    <nd ref="26263779"/>
    <nd ref="26263780"/>
    <nd ref="174731709"/>
    <nd ref="26263781"/>
    <nd ref="26263782"/>
    <nd ref="26263783"/>
    <nd ref="26263784"/>
    <nd ref="26263785"/>
    <tag k="created_by" v="JOSM"/>
    <tag k="highway" v="residential"/>
    <tag k="name" v="Nolden Street"/>
  </way>
  <way id="4322618" version="3" timestamp="2010-03-27T07:42:31Z" uid="20587" user="balrog-kun" changeset="4244079">
    <nd ref="26263774"/>
    <nd ref="174667095"/>
    <nd ref="26263775"/>
    <nd ref="174667087"/>
    <nd ref="26263776"/>
    <nd ref="26263777"/>
    <tag k="created_by" v="JOSM"/>
    <tag k="highway" v="residential"/>
    <tag k="name" v="Raber Street"/>
  </way>
  <way id="4322619" version="5" timestamp="2010-03-27T07:42:31Z" uid="20587" user="balrog-kun" changeset="4244079">
    <nd ref="26263763"/>
    <nd ref="26263764"/>
    <nd ref="26263765"/>
    <nd ref="175527651"/>
    <nd ref="26263766"/>
    <nd ref="175527662"/>
    <nd ref="26263767"/>
    <nd ref="26263768"/>
    <nd ref="26263769"/>
    <nd ref="26263770"/>
    <nd ref="580314224"/>
    <nd ref="580314225"/>
    <nd ref="26263771"/>
    <nd ref="26263772"/>
    <nd ref="26263773"/>
    <nd ref="26263774"/>
    <tag k="highway" v="residential"/>
    <tag k="name" v="Buena Vista Terrace"/>
  </way>
  <way id="4322620" version="3" timestamp="2010-03-27T07:42:31Z" uid="20587" user="balrog-kun" changeset="4244079">
    <nd ref="26263792"/>
    <nd ref="26263793"/>
    <tag k="created_by" v="JOSM"/>
    <tag k="highway" v="residential"/>
    <tag k="name" v="La Prada Terrace"/>
  </way>
  <way id="4322621" version="2" timestamp="2010-03-27T07:42:31Z" uid="20587" user="balrog-kun" changeset="4244079">
    <nd ref="26263793"/>
    <nd ref="26263794"/>
    <nd ref="26263796"/>
    <tag k="created_by" v="JOSM"/>
    <tag k="highway" v="residential"/>
    <tag k="name" v="Delphi Street"/>
  </way>
  <way id="4322622" version="3" timestamp="2010-03-27T07:42:31Z" uid="20587" user="balrog-kun" changeset="4244079">
    <nd ref="26263797"/>
    <nd ref="26263798"/>
    <nd ref="26263799"/>
    <tag k="highway" v="residential"/>
    <tag k="name" v="Hamlet Street"/>
  </way>
  <way id="4322623" version="2" timestamp="2010-03-27T07:42:31Z" uid="20587" user="balrog-kun" changeset="4244079">
    <nd ref="26263798"/>
    <nd ref="26263801"/>
    <nd ref="26263803"/>
    <nd ref="26263802"/>
    <tag k="created_by" v="JOSM"/>
    <tag k="highway" v="residential"/>
    <tag k="name" v="Newland Street"/>
  </way>
  <way id="4322624" version="3" timestamp="2010-03-27T07:42:31Z" uid="20587" user="balrog-kun" changeset="4244079">
    <nd ref="26263804"/>
    <nd ref="175623891"/>
    <nd ref="26263805"/>
    <tag k="created_by" v="JOSM"/>
    <tag k="highway" v="residential"/>
    <tag k="name" v="Meridian Terrace"/>
  </way>
  <way id="4322625" version="3" timestamp="2010-03-27T07:42:32Z" uid="20587" user="balrog-kun" changeset="4244079">
    <nd ref="26263806"/>
    <nd ref="122897210"/>
    <nd ref="26263807"/>
    <nd ref="26263808"/>
    <tag k="created_by" v="JOSM"/>
    <tag k="highway" v="residential"/>
    <tag k="name" v="Weaver Street"/>
  </way>
  <way id="4322855" version="2" timestamp="2010-06-29T19:10:25Z" uid="74617" user="JohnSmith" changeset="5108182">
    <nd ref="26264852"/>
    <nd ref="26264845"/>
    <nd ref="26264846"/>
    <nd ref="26264849"/>
    <nd ref="26264852"/>
    <tag k="fixme" v="sport=football is ambiguous, see http://wiki.osm.org/wiki/Football for more details"/>
    <tag k="sport" v="football"/>
  </way>
</osm>
