<?xml version='1.0' encoding='UTF-8'?>
<osm version="0.6" generator="libosmium/2.20.0">
  <way id="43284079" version="2" timestamp="2009-10-29T19:48:07Z" uid="36809" user="pfoten_weg_!_" changeset="2983914">
    <nd ref="278748543"/>
    <nd ref="278750918"/>
    <nd ref="278750866"/>
    <nd ref="278751420"/>
    <nd ref="278750234"/>
    <nd ref="278748599"/>
    <nd ref="278751113"/>
    <nd ref="278751421"/>
    <tag k="highway" v="cycleway"/>
    <tag k="name" v="Glimkestraße"/>
    <tag k="surface" v="paved"/>
  </way>
  <way id="43284091" version="6" timestamp="2010-04-07T13:59:54Z" uid="20587" user="balrog-kun" changeset="4353646">
    <nd ref="151775178"/>
    <nd ref="151775175"/>
    <nd ref="151775172"/>
    <nd ref="151775168"/>
    <nd ref="543655651"/>
    <tag k="highway" v="residential"/>
    <tag k="name" v="Goss Street"/>
    <tag k="tiger:cfcc" v="A41"/>
    <tag k="tiger:county" v="Kerr, TX"/>
    <tag k="tiger:name_base" v="Goss"/>
    <tag k="tiger:name_type" v="St"/>
    <tag k="tiger:separated" v="no"/>
    <tag k="tiger:source" v="tiger_import_dch_v0.6_20070830"/>
    <tag k="tiger:tlid" v="176894408:176894407:176894409"/>
    <tag k="tiger:zip_left" v="78028"/>
    <tag k="tiger:zip_right" v="78028"/>
  </way>
  <way id="43284125" version="1" timestamp="2009-10-28T15:07:55Z" uid="43967" user="railsnail" changeset="2973819">
    <nd ref="543656711"/>
    <nd ref="543656713"/>
    <nd ref="543656715"/>
    <nd ref="543656716"/>
    <nd ref="543656718"/>
    <nd ref="543656719"/>
    <nd ref="543656721"/>
    <nd ref="543656722"/>
    <nd ref="543656724"/>
    <nd ref="543656725"/>
    <nd ref="543656727"/>
    <nd ref="543656711"/>
    <tag k="natural" v="water"/>
  </way>
  <way id="43284282" version="7" timestamp="2010-04-07T13:59:54Z" uid="20587" user="balrog-kun" changeset="4353646">
    <nd ref="543655654"/>
    <nd ref="565107824"/>
    <nd ref="543658864"/>
    <nd ref="551087503"/>
    <nd ref="543655648"/>
    <tag k="addr:city" v="Kerrville, TX"/>
    <tag k="addr:country" v="US"/>
    <tag k="addr:postcode" v="78028"/>
    <tag k="addr:street" v="Jennings Blvd"/>
    <tag k="highway" v="residential"/>
    <tag k="name" v="Jennings Boulevard"/>
    <tag k="name_base" v="Jennings"/>
    <tag k="name_type" v="Blvd"/>
  </way>
  <way id="43284283" version="7" timestamp="2010-04-07T13:59:55Z" uid="20587" user="balrog-kun" changeset="4353646">
    <nd ref="543658864"/>
    <nd ref="549213103"/>
    <nd ref="549213109"/>
    <nd ref="543658872"/>
    <nd ref="549213116"/>
    <nd ref="543658874"/>
    <nd ref="543655655"/>
    <tag k="highway" v="residential"/>
    <tag k="name" v="Patriot Drive"/>
    <tag k="name_base" v="Patriot"/>
    <tag k="name_type" v="Dr"/>
  </way>
  <way id="43284361" version="3" timestamp="2009-12-12T14:16:16Z" uid="171838" user="argrath" changeset="3356000">
    <nd ref="541348803"/>
    <nd ref="541348833"/>
    <nd ref="543662865"/>
    <nd ref="541348835"/>
    <nd ref="541348825"/>
    <nd ref="541348826"/>
    <nd ref="541348823"/>
    <nd ref="541348827"/>
    <nd ref="541348828"/>
    <nd ref="543662891"/>
    <nd ref="543662883"/>
    <nd ref="541348837"/>
    <nd ref="541348838"/>
    <nd ref="541348854"/>
    <nd ref="543662878"/>
    <nd ref="543662890"/>
    <nd ref="543662887"/>
    <nd ref="543662885"/>
    <nd ref="543662900"/>
    <nd ref="543662899"/>
    <nd ref="543662898"/>
    <nd ref="543662896"/>
    <nd ref="543709983"/>
    <nd ref="543662902"/>
    <nd ref="543662895"/>
    <nd ref="543662894"/>
    <nd ref="543662884"/>
    <nd ref="543662864"/>
    <nd ref="543662861"/>
    <nd ref="543662855"/>
    <nd ref="543662853"/>
    <nd ref="543662852"/>
    <nd ref="543662858"/>
    <nd ref="543662857"/>
    <nd ref="543709907"/>
    <nd ref="543662856"/>
    <nd ref="543709881"/>
    <nd ref="543709886"/>
    <nd ref="543709891"/>
    <nd ref="543662868"/>
    <nd ref="543662867"/>
    <nd ref="543709909"/>
    <nd ref="543709936"/>
    <nd ref="543709976"/>
    <nd ref="543709961"/>
    <nd ref="543709958"/>
    <nd ref="543709978"/>
    <nd ref="587709663"/>
    <nd ref="541348803"/>
    <tag k="landuse" v="grass"/>
  </way>
  <way id="43284407" version="2" timestamp="2010-06-15T19:28:13Z" uid="151899" user="Bikeman2000" changeset="4994628">
    <nd ref="253877435"/>
    <nd ref="773216758"/>
    <nd ref="73599404"/>
    <tag k="highway" v="primary_link"/>
    <tag k="layer" v="-1"/>
    <tag k="motorroad" v="yes"/>
    <tag k="oneway" v="yes"/>
    <tag k="ref" v="B 1"/>
    <tag k="tunnel" v="yes"/>
  </way>
  <way id="43284409" version="2" timestamp="2010-06-15T19:28:12Z" uid="151899" user="Bikeman2000" changeset="4994628">
    <nd ref="253906720"/>
    <nd ref="773216743"/>
    <nd ref="5278499"/>
    <tag k="highway" v="primary_link"/>
    <tag k="layer" v="-1"/>
    <tag k="motorroad" v="yes"/>
    <tag k="oneway" v="yes"/>
    <tag k="ref" v="B 1"/>
    <tag k="tunnel" v="yes"/>
  </way>
  <way id="43284970" version="3" timestamp="2011-06-11T21:14:35Z" uid="9581" user="Lobelt" changeset="8410133">
    <nd ref="543696126"/>
    <nd ref="460352825"/>
    <nd ref="269814683"/>
    <nd ref="269814680"/>
    <nd ref="892733357"/>
    <nd ref="269814677"/>
    <nd ref="269814674"/>
    <nd ref="269814670"/>
    <nd ref="269814667"/>
    <nd ref="269814661"/>
    <nd ref="269814658"/>
    <nd ref="269814655"/>
    <nd ref="269814653"/>
    <nd ref="269814650"/>
    <nd ref="269814647"/>
    <nd ref="269814643"/>
    <nd ref="269814640"/>
    <nd ref="269814637"/>
    <nd ref="269814634"/>
    <nd ref="269814631"/>
    <nd ref="269814587"/>
    <nd ref="269814584"/>
    <nd ref="269814581"/>
    <nd ref="269814578"/>
    <nd ref="269814575"/>
    <nd ref="269814572"/>
    <nd ref="269814569"/>
    <nd ref="269814565"/>
    <nd ref="269814562"/>
    <nd ref="269814559"/>
    <nd ref="269814557"/>
    <nd ref="269814553"/>
    <nd ref="269814550"/>
    <nd ref="1320859127"/>
    <tag k="name" v="京广线"/>
    <tag k="name:en" v="Jingguang Line"/>
    <tag k="name:zh" v="京广线"/>
    <tag k="railway" v="rail"/>
  </way>
</osm>
