<?xml version='1.0' encoding='UTF-8'?>
<osm version="0.6" generator="libosmium/2.20.0">
  <way id="4328006" version="5" timestamp="2010-02-14T17:15:08Z" uid="74617" user="JohnSmith" changeset="3875836">
    <nd ref="26334967"/>
    <nd ref="26334966"/>
    <nd ref="26334965"/>
    <nd ref="26334964"/>
    <nd ref="26334938"/>
    <nd ref="26334905"/>
    <nd ref="26334903"/>
    <nd ref="26334902"/>
    <nd ref="255791669"/>
    <tag k="highway" v="service"/>
    <tag k="maxspeed" v="50"/>
    <tag k="oneway" v="yes"/>
  </way>
  <way id="4328015" version="11" timestamp="2009-08-11T11:04:00Z" uid="4467" user="Rosscoe" changeset="2107049">
    <nd ref="75900433"/>
    <nd ref="111438816"/>
    <nd ref="21478936"/>
    <nd ref="255793116"/>
    <nd ref="297893994"/>
    <tag k="highway" v="primary"/>
    <tag k="is_in" v="Brisbane, QLD, Queensland, Australia"/>
    <tag k="name" v="Brunswick Street"/>
    <tag k="oneway" v="yes"/>
    <tag k="ref" v="S15"/>
  </way>
  <way id="4328015" version="12" timestamp="2010-02-14T17:16:29Z" uid="74617" user="JohnSmith" changeset="3875836">
    <nd ref="75900433"/>
    <nd ref="111438816"/>
    <nd ref="21478936"/>
    <nd ref="255793116"/>
    <nd ref="297893994"/>
    <tag k="highway" v="primary"/>
    <tag k="name" v="Brunswick Street"/>
    <tag k="oneway" v="yes"/>
    <tag k="ref" v="S15"/>
  </way>
  <way id="4328015" version="13" timestamp="2010-03-20T16:39:32Z" uid="74617" user="JohnSmith" changeset="4181787">
    <nd ref="75900433"/>
    <nd ref="111438816"/>
    <nd ref="21478936"/>
    <nd ref="255793116"/>
    <nd ref="297893994"/>
    <tag k="highway" v="primary"/>
    <tag k="name" v="Brunswick Street"/>
    <tag k="oneway" v="yes"/>
  </way>
  <way id="4328018" version="6" timestamp="2010-02-14T17:15:06Z" uid="74617" user="JohnSmith" changeset="3875836">
    <nd ref="26335046"/>
    <nd ref="26335044"/>
    <nd ref="26335045"/>
    <nd ref="75138575"/>
    <nd ref="75141909"/>
    <nd ref="26335042"/>
    <tag k="highway" v="residential"/>
    <tag k="maxspeed" v="50"/>
    <tag k="name" v="York Parade"/>
  </way>
  <way id="4328020" version="6" timestamp="2010-02-14T17:13:41Z" uid="74617" user="JohnSmith" changeset="3875836">
    <nd ref="26334591"/>
    <nd ref="322733179"/>
    <nd ref="75209465"/>
    <tag k="highway" v="residential"/>
    <tag k="maxspeed" v="50"/>
    <tag k="name" v="Kennigo Street"/>
  </way>
  <way id="4328021" version="14" timestamp="2010-02-14T17:13:41Z" uid="74617" user="JohnSmith" changeset="3875836">
    <nd ref="26334577"/>
    <nd ref="255791670"/>
    <nd ref="255791669"/>
    <nd ref="26334969"/>
    <nd ref="255792213"/>
    <nd ref="26334968"/>
    <nd ref="26334967"/>
    <nd ref="255791913"/>
    <nd ref="26334970"/>
    <nd ref="26334971"/>
    <nd ref="75207474"/>
    <nd ref="255791952"/>
    <nd ref="75207475"/>
    <nd ref="26334591"/>
    <tag k="highway" v="primary"/>
    <tag k="name" v="Gregory Terrace"/>
    <tag k="oneway" v="yes"/>
    <tag k="ref" v="S10"/>
  </way>
  <way id="4328021" version="15" timestamp="2010-03-20T16:51:09Z" uid="74617" user="JohnSmith" changeset="4181944">
    <nd ref="26334577"/>
    <nd ref="255791670"/>
    <nd ref="255791669"/>
    <nd ref="26334969"/>
    <nd ref="255792213"/>
    <nd ref="26334968"/>
    <nd ref="26334967"/>
    <nd ref="255791913"/>
    <nd ref="26334970"/>
    <nd ref="26334971"/>
    <nd ref="75207474"/>
    <nd ref="255791952"/>
    <nd ref="75207475"/>
    <nd ref="26334591"/>
    <tag k="highway" v="primary"/>
    <tag k="name" v="Gregory Terrace"/>
    <tag k="oneway" v="yes"/>
  </way>
  <way id="4328022" version="9" timestamp="2010-02-14T17:13:40Z" uid="74617" user="JohnSmith" changeset="3875836">
    <nd ref="26334593"/>
    <nd ref="255792147"/>
    <nd ref="322733180"/>
    <nd ref="322731902"/>
    <nd ref="111438864"/>
    <tag k="highway" v="residential"/>
    <tag k="maxspeed" v="50"/>
    <tag k="name" v="Warry Street"/>
  </way>
  <way id="4328028" version="7" timestamp="2010-02-14T17:14:59Z" uid="74617" user="JohnSmith" changeset="3875836">
    <nd ref="26334576"/>
    <nd ref="26335042"/>
    <nd ref="75142446"/>
    <tag k="highway" v="residential"/>
    <tag k="maxspeed" v="50"/>
    <tag k="name" v="Victoria Street"/>
  </way>
  <way id="4328035" version="13" timestamp="2010-02-14T17:16:07Z" uid="74617" user="JohnSmith" changeset="3875836">
    <nd ref="26334601"/>
    <nd ref="26335004"/>
    <nd ref="255792846"/>
    <nd ref="21478937"/>
    <nd ref="75900427"/>
    <tag k="highway" v="primary"/>
    <tag k="name" v="Gregory Terrace"/>
    <tag k="oneway" v="yes"/>
    <tag k="ref" v="S10"/>
  </way>
  <way id="4328035" version="14" timestamp="2010-03-20T16:50:12Z" uid="74617" user="JohnSmith" changeset="4181928">
    <nd ref="26334601"/>
    <nd ref="26335004"/>
    <nd ref="255792846"/>
    <nd ref="21478937"/>
    <nd ref="75900427"/>
    <tag k="highway" v="primary"/>
    <tag k="name" v="Gregory Terrace"/>
    <tag k="oneway" v="yes"/>
  </way>
  <way id="4328039" version="12" timestamp="2010-02-14T17:15:37Z" uid="74617" user="JohnSmith" changeset="3875836">
    <nd ref="152506936"/>
    <nd ref="152585484"/>
    <nd ref="152583541"/>
    <nd ref="26335026"/>
    <nd ref="322732592"/>
    <nd ref="322732594"/>
    <tag k="highway" v="primary"/>
    <tag k="name" v="Gipps Street"/>
    <tag k="oneway" v="yes"/>
  </way>
  <way id="4328040" version="5" timestamp="2010-02-14T17:15:37Z" uid="74617" user="JohnSmith" changeset="3875836">
    <nd ref="26335089"/>
    <nd ref="322732210"/>
    <nd ref="26335026"/>
    <tag k="highway" v="residential"/>
    <tag k="maxspeed" v="50"/>
    <tag k="name" v="Agnes Street"/>
  </way>
  <way id="4328041" version="8" timestamp="2010-02-14T17:15:08Z" uid="74617" user="JohnSmith" changeset="3875836">
    <nd ref="26334598"/>
    <nd ref="255791783"/>
    <nd ref="322733176"/>
    <nd ref="322733177"/>
    <nd ref="322731766"/>
    <nd ref="75208539"/>
    <tag k="highway" v="residential"/>
    <tag k="maxspeed" v="50"/>
    <tag k="name" v="Park Street"/>
  </way>
  <way id="4328042" version="7" timestamp="2010-02-14T17:16:27Z" uid="74617" user="JohnSmith" changeset="3875836">
    <nd ref="26335015"/>
    <nd ref="26335103"/>
    <nd ref="26335065"/>
    <nd ref="26335063"/>
    <tag k="highway" v="residential"/>
    <tag k="maxspeed" v="50"/>
    <tag k="name" v="Costin Street"/>
    <tag k="oneway" v="yes"/>
  </way>
  <way id="4328044" version="8" timestamp="2010-02-14T17:16:29Z" uid="74617" user="JohnSmith" changeset="3875836">
    <nd ref="26335100"/>
    <nd ref="75900439"/>
    <nd ref="26335058"/>
    <nd ref="26335060"/>
    <nd ref="26335061"/>
    <nd ref="247137443"/>
    <nd ref="26335063"/>
    <tag k="highway" v="unclassified"/>
    <tag k="maxspeed" v="50"/>
    <tag k="name" v="Water Street"/>
    <tag k="oneway" v="yes"/>
  </way>
  <way id="4328053" version="9" timestamp="2010-02-14T17:14:04Z" uid="74617" user="JohnSmith" changeset="3875836">
    <nd ref="26334584"/>
    <nd ref="322729950"/>
    <nd ref="26335147"/>
    <nd ref="26335141"/>
    <nd ref="84025938"/>
    <nd ref="289068634"/>
    <nd ref="84025123"/>
    <tag k="highway" v="residential"/>
    <tag k="maxspeed" v="50"/>
    <tag k="name" v="Warren Street"/>
  </way>
  <way id="4328055" version="5" timestamp="2010-02-14T17:15:05Z" uid="74617" user="JohnSmith" changeset="3875836">
    <nd ref="26335110"/>
    <nd ref="21478932"/>
    <tag k="highway" v="residential"/>
    <tag k="maxspeed" v="50"/>
    <tag k="name" v="Dickens Street"/>
  </way>
  <way id="4328056" version="9" timestamp="2010-02-14T17:14:04Z" uid="74617" user="JohnSmith" changeset="3875836">
    <nd ref="26334573"/>
    <nd ref="111439163"/>
    <nd ref="26335046"/>
    <nd ref="111438669"/>
    <nd ref="75132649"/>
    <nd ref="26335110"/>
    <nd ref="75124482"/>
    <tag k="highway" v="tertiary"/>
    <tag k="name" v="Fortescue Street"/>
  </way>
  <way id="4328060" version="5" timestamp="2010-02-14T17:14:56Z" uid="74617" user="JohnSmith" changeset="3875836">
    <nd ref="26335121"/>
    <nd ref="288421802"/>
    <nd ref="21478928"/>
    <tag k="highway" v="secondary"/>
    <tag k="name" v="Little Edward Street"/>
  </way>
  <way id="4328062" version="4" timestamp="2010-02-14T17:13:41Z" uid="74617" user="JohnSmith" changeset="3875836">
    <nd ref="26334604"/>
    <nd ref="26335057"/>
    <nd ref="26334665"/>
    <nd ref="77701272"/>
    <tag k="highway" v="unclassified"/>
    <tag k="maxspeed" v="50"/>
    <tag k="name" v="Amelia Street"/>
  </way>
  <way id="4328065" version="9" timestamp="2010-02-14T17:15:23Z" uid="74617" user="JohnSmith" changeset="3875836">
    <nd ref="73087191"/>
    <nd ref="288423836"/>
    <nd ref="26335143"/>
    <tag k="highway" v="unclassified"/>
    <tag k="maxspeed" v="50"/>
    <tag k="name" v="School Street"/>
    <tag k="oneway" v="yes"/>
  </way>
  <way id="4328066" version="4" timestamp="2010-02-14T17:15:42Z" uid="74617" user="JohnSmith" changeset="3875836">
    <nd ref="26335146"/>
    <nd ref="26335147"/>
    <tag k="highway" v="residential"/>
    <tag k="maxspeed" v="50"/>
    <tag k="name" v="Thornbury Street"/>
  </way>
  <way id="4328067" version="7" timestamp="2010-02-14T17:14:03Z" uid="74617" user="JohnSmith" changeset="3875836">
    <nd ref="26334672"/>
    <nd ref="26335144"/>
    <nd ref="26335146"/>
    <nd ref="322729336"/>
    <nd ref="259017740"/>
    <nd ref="130095047"/>
    <nd ref="259017742"/>
    <nd ref="322730664"/>
    <tag k="highway" v="residential"/>
    <tag k="maxspeed" v="50"/>
    <tag k="name" v="Gloucester Street"/>
  </way>
  <way id="4328068" version="5" timestamp="2010-02-14T17:14:03Z" uid="74617" user="JohnSmith" changeset="3875836">
    <nd ref="75153739"/>
    <nd ref="26335144"/>
    <tag k="highway" v="residential"/>
    <tag k="maxspeed" v="50"/>
    <tag k="name" v="Phillips Street"/>
  </way>
  <way id="4328070" version="5" timestamp="2010-02-14T17:14:03Z" uid="74617" user="JohnSmith" changeset="3875836">
    <nd ref="75141108"/>
    <nd ref="26335106"/>
    <tag k="highway" v="residential"/>
    <tag k="maxspeed" v="50"/>
    <tag k="name" v="Rosa Street"/>
  </way>
  <way id="4328072" version="6" timestamp="2010-02-14T17:15:03Z" uid="74617" user="JohnSmith" changeset="3875836">
    <nd ref="26335045"/>
    <nd ref="111438795"/>
    <nd ref="75139108"/>
    <tag k="highway" v="residential"/>
    <tag k="maxspeed" v="50"/>
    <tag k="name" v="Isaac Street"/>
  </way>
  <way id="4328073" version="5" timestamp="2010-02-14T17:14:04Z" uid="74617" user="JohnSmith" changeset="3875836">
    <nd ref="75124478"/>
    <nd ref="289063009"/>
    <nd ref="26334572"/>
    <tag k="highway" v="unclassified"/>
    <tag k="maxspeed" v="50"/>
    <tag k="name" v="Torrington Street"/>
  </way>
  <way id="4328074" version="11" timestamp="2010-02-14T17:14:34Z" uid="74617" user="JohnSmith" changeset="3875836">
    <nd ref="26334566"/>
    <nd ref="75118012"/>
    <nd ref="60979965"/>
    <nd ref="75128694"/>
    <nd ref="60810891"/>
    <nd ref="26335115"/>
    <tag k="highway" v="secondary"/>
    <tag k="name" v="Wickham Terrace"/>
    <tag k="oneway" v="yes"/>
  </way>
  <way id="4328074" version="16" timestamp="2010-07-22T04:49:59Z" uid="4467" user="Rosscoe" changeset="5284012">
    <nd ref="26334566"/>
    <nd ref="788370339"/>
    <nd ref="75118012"/>
    <nd ref="788371911"/>
    <nd ref="788371926"/>
    <nd ref="60979965"/>
    <nd ref="75128694"/>
    <nd ref="60810891"/>
    <nd ref="26335115"/>
    <tag k="highway" v="secondary"/>
    <tag k="name" v="Wickham Terrace"/>
    <tag k="oneway" v="yes"/>
  </way>
  <way id="4328078" version="15" timestamp="2010-02-14T17:15:44Z" uid="74617" user="JohnSmith" changeset="3875836">
    <nd ref="74039701"/>
    <nd ref="77698010"/>
    <tag k="highway" v="primary"/>
    <tag k="name" v="Gipps Street"/>
    <tag k="oneway" v="yes"/>
    <tag k="ref" v="S15"/>
  </way>
  <way id="4328078" version="16" timestamp="2010-03-20T16:39:30Z" uid="74617" user="JohnSmith" changeset="4181787">
    <nd ref="74039701"/>
    <nd ref="77698010"/>
    <tag k="highway" v="primary"/>
    <tag k="name" v="Gipps Street"/>
    <tag k="oneway" v="yes"/>
  </way>
  <way id="4328079" version="4" timestamp="2010-02-14T17:14:34Z" uid="74617" user="JohnSmith" changeset="3875836">
    <nd ref="26335115"/>
    <nd ref="75124479"/>
    <tag k="highway" v="unclassified"/>
    <tag k="maxspeed" v="50"/>
    <tag k="name" v="North Street"/>
  </way>
  <way id="4328085" version="9" timestamp="2010-02-14T17:14:03Z" uid="74617" user="JohnSmith" changeset="3875836">
    <nd ref="75154397"/>
    <nd ref="288422577"/>
    <nd ref="288428859"/>
    <nd ref="130095049"/>
    <nd ref="26335167"/>
    <tag k="highway" v="unclassified"/>
    <tag k="maxspeed" v="50"/>
    <tag k="name" v="Bowen Street"/>
    <tag k="oneway" v="yes"/>
  </way>
  <way id="4328086" version="7" timestamp="2009-08-11T11:04:04Z" uid="4467" user="Rosscoe" changeset="2107049">
    <nd ref="26335122"/>
    <nd ref="288421988"/>
    <nd ref="75140133"/>
    <tag k="highway" v="unclassified"/>
    <tag k="is_in" v="Brisbane, QLD, Queensland, Australia"/>
    <tag k="name" v="Hope Street"/>
  </way>
  <way id="4328086" version="8" timestamp="2010-02-14T17:14:55Z" uid="74617" user="JohnSmith" changeset="3875836">
    <nd ref="26335122"/>
    <nd ref="288421988"/>
    <nd ref="75140133"/>
    <tag k="highway" v="unclassified"/>
    <tag k="maxspeed" v="50"/>
    <tag k="name" v="Hope Street"/>
  </way>
  <way id="4328089" version="5" timestamp="2010-02-14T17:15:01Z" uid="74617" user="JohnSmith" changeset="3875836">
    <nd ref="75124475"/>
    <nd ref="26334570"/>
    <tag k="highway" v="unclassified"/>
    <tag k="maxspeed" v="50"/>
    <tag k="name" v="Parish Street"/>
    <tag k="oneway" v="yes"/>
  </way>
  <way id="4328093" version="8" timestamp="2010-02-14T17:14:15Z" uid="74617" user="JohnSmith" changeset="3875836">
    <nd ref="26335234"/>
    <nd ref="289380814"/>
    <nd ref="75158623"/>
    <nd ref="288421546"/>
    <nd ref="288421547"/>
    <nd ref="288421549"/>
    <nd ref="75158524"/>
    <tag k="highway" v="unclassified"/>
    <tag k="maxspeed" v="50"/>
    <tag k="name" v="Astor Terrace"/>
  </way>
  <way id="4328097" version="7" timestamp="2009-07-25T15:49:16Z" uid="74617" user="JohnSmith" changeset="1935589">
    <nd ref="21477661"/>
    <nd ref="315273754"/>
    <nd ref="248484816"/>
    <tag k="railway" v="rail"/>
  </way>
  <way id="4328170" version="13" timestamp="2010-02-14T17:10:10Z" uid="74617" user="JohnSmith" changeset="3875836">
    <nd ref="26336121"/>
    <nd ref="256018508"/>
    <tag k="railway" v="rail"/>
  </way>
  <way id="4328178" version="8" timestamp="2010-02-14T17:15:36Z" uid="74617" user="JohnSmith" changeset="3875836">
    <nd ref="26336268"/>
    <nd ref="255791222"/>
    <nd ref="255791223"/>
    <nd ref="26336269"/>
    <nd ref="255791224"/>
    <nd ref="26335068"/>
    <tag k="railway" v="rail"/>
  </way>
  <way id="4328179" version="9" timestamp="2010-02-14T17:15:37Z" uid="74617" user="JohnSmith" changeset="3875836">
    <nd ref="26335068"/>
    <nd ref="72650517"/>
    <nd ref="26336270"/>
    <tag k="layer" v="-1"/>
    <tag k="railway" v="rail"/>
    <tag k="tunnel" v="yes"/>
  </way>
  <way id="4328180" version="12" timestamp="2010-02-14T17:13:39Z" uid="74617" user="JohnSmith" changeset="3875836">
    <nd ref="26336270"/>
    <nd ref="26336333"/>
    <nd ref="77688975"/>
    <nd ref="26336334"/>
    <nd ref="26336563"/>
    <nd ref="26336564"/>
    <nd ref="359350834"/>
    <nd ref="359350847"/>
    <nd ref="359350798"/>
    <nd ref="359350774"/>
    <tag k="railway" v="rail"/>
  </way>
  <way id="4328204" version="5" timestamp="2010-02-14T17:16:40Z" uid="74617" user="JohnSmith" changeset="3875836">
    <nd ref="200968745"/>
    <nd ref="200960782"/>
    <nd ref="200960783"/>
    <nd ref="200960784"/>
    <nd ref="200960786"/>
    <nd ref="200960788"/>
    <nd ref="200960789"/>
    <nd ref="26336835"/>
    <nd ref="26336836"/>
    <tag k="note" v="Whilst on Yahoo imagery, no longer in existence due to interchange works."/>
  </way>
  <way id="4328209" version="11" timestamp="2010-02-14T15:45:38Z" uid="74617" user="JohnSmith" changeset="3874884">
    <nd ref="26336537"/>
    <nd ref="26336538"/>
    <nd ref="26336965"/>
    <tag k="highway" v="tertiary"/>
    <tag k="name" v="Thompson Street"/>
  </way>
  <way id="4328210" version="7" timestamp="2010-02-14T15:44:51Z" uid="74617" user="JohnSmith" changeset="3874884">
    <nd ref="26336978"/>
    <nd ref="279073942"/>
    <nd ref="26336979"/>
    <nd ref="198402294"/>
    <nd ref="26336980"/>
    <nd ref="198402296"/>
    <nd ref="26336981"/>
    <nd ref="198402298"/>
    <nd ref="26336982"/>
    <tag k="highway" v="residential"/>
    <tag k="maxspeed" v="50"/>
    <tag k="name" v="Cartwright Street"/>
  </way>
  <way id="4328212" version="5" timestamp="2010-01-31T14:04:24Z" uid="74617" user="JohnSmith" changeset="3759373"/>
  <way id="4328220" version="14" timestamp="2010-02-26T18:11:59Z" uid="74617" user="JohnSmith" changeset="3982383">
    <nd ref="255764778"/>
    <nd ref="654188180"/>
    <nd ref="450415679"/>
    <nd ref="200964741"/>
    <nd ref="26337011"/>
    <nd ref="26337012"/>
    <tag k="alt_name" v="Clem Jones Tunnel; Clem 7"/>
    <tag k="completion" v="2010"/>
    <tag k="construction" v="motorway"/>
    <tag k="highway" v="construction"/>
    <tag k="layer" v="-5"/>
    <tag k="name" v="M7"/>
  </way>
  <way id="4328222" version="7" timestamp="2010-02-14T17:16:46Z" uid="74617" user="JohnSmith" changeset="3875836">
    <nd ref="26337013"/>
    <nd ref="26336834"/>
    <tag k="alt_name" v="Clem Jones Tunnel; Clem 7"/>
    <tag k="bridge" v="yes"/>
    <tag k="completion" v="2010"/>
    <tag k="construction" v="motorway"/>
    <tag k="highway" v="construction"/>
    <tag k="layer" v="-5"/>
    <tag k="name" v="M7"/>
  </way>
  <way id="4328224" version="3" timestamp="2010-02-14T15:44:53Z" uid="74617" user="JohnSmith" changeset="3874884">
    <nd ref="26337018"/>
    <nd ref="26336980"/>
    <tag k="highway" v="residential"/>
    <tag k="maxspeed" v="50"/>
    <tag k="name" v="Algar Street"/>
  </way>
  <way id="4328244" version="4" timestamp="2010-02-14T17:13:45Z" uid="74617" user="JohnSmith" changeset="3875836">
    <nd ref="26336889"/>
    <nd ref="26336891"/>
    <tag k="highway" v="unclassified"/>
    <tag k="maxspeed" v="50"/>
    <tag k="name" v="Roche Avenue"/>
  </way>
  <way id="4328245" version="5" timestamp="2010-07-06T09:47:41Z" uid="74617" user="JohnSmith" changeset="5147679">
    <nd ref="26337167"/>
    <nd ref="21590269"/>
    <tag k="highway" v="unclassified"/>
    <tag k="maxspeed" v="50"/>
    <tag k="maxspeed:source" v="default residential speed limit in Australia"/>
    <tag k="name" v="Agnes Street"/>
  </way>
  <way id="4328246" version="5" timestamp="2010-02-14T17:17:25Z" uid="74617" user="JohnSmith" changeset="3875836">
    <nd ref="26336797"/>
    <nd ref="344809291"/>
    <nd ref="26336804"/>
    <tag k="highway" v="unclassified"/>
    <tag k="maxspeed" v="50"/>
    <tag k="name" v="Maud Street"/>
    <tag k="note" v="Maybe Maude Street - sign perhaps vandalised."/>
  </way>
  <way id="4328247" version="6" timestamp="2010-02-14T17:17:25Z" uid="74617" user="JohnSmith" changeset="3875836">
    <nd ref="26336789"/>
    <nd ref="26336805"/>
    <tag k="highway" v="unclassified"/>
    <tag k="maxspeed" v="50"/>
    <tag k="name" v="Austin Street"/>
  </way>
  <way id="4328248" version="7" timestamp="2010-02-14T17:17:24Z" uid="74617" user="JohnSmith" changeset="3875836">
    <nd ref="200815159"/>
    <nd ref="26336761"/>
    <nd ref="26336882"/>
    <nd ref="26336884"/>
    <nd ref="26336615"/>
    <nd ref="26336589"/>
    <tag k="highway" v="residential"/>
    <tag k="maxspeed" v="50"/>
    <tag k="name" v="Evelyn Street"/>
  </way>
  <way id="4328249" version="5" timestamp="2010-02-14T17:17:25Z" uid="74617" user="JohnSmith" changeset="3875836">
    <nd ref="26336615"/>
    <nd ref="26336642"/>
    <tag k="highway" v="unclassified"/>
    <tag k="maxspeed" v="50"/>
    <tag k="name" v="Gordon Street"/>
  </way>
  <way id="4328251" version="5" timestamp="2010-02-14T17:17:36Z" uid="74617" user="JohnSmith" changeset="3875836">
    <nd ref="26336807"/>
    <nd ref="344809295"/>
    <nd ref="344808997"/>
    <nd ref="344808977"/>
    <nd ref="26336806"/>
    <tag k="highway" v="unclassified"/>
    <tag k="maxspeed" v="50"/>
    <tag k="name" v="Newstead Avenue"/>
  </way>
  <way id="4328253" version="4" timestamp="2010-02-14T17:17:25Z" uid="74617" user="JohnSmith" changeset="3875836">
    <nd ref="26336882"/>
    <nd ref="26336883"/>
    <tag k="highway" v="unclassified"/>
    <tag k="maxspeed" v="50"/>
    <tag k="name" v="Creswell Street"/>
  </way>
  <way id="4328255" version="9" timestamp="2010-02-14T17:13:24Z" uid="74617" user="JohnSmith" changeset="3875836">
    <nd ref="26336533"/>
    <nd ref="198466243"/>
    <nd ref="198462723"/>
    <nd ref="26336799"/>
    <tag k="highway" v="tertiary"/>
    <tag k="name" v="Ross Street"/>
  </way>
  <way id="4328256" version="6" timestamp="2010-02-14T17:13:23Z" uid="74617" user="JohnSmith" changeset="3875836">
    <nd ref="26336799"/>
    <nd ref="198459602"/>
    <nd ref="26336798"/>
    <tag k="highway" v="tertiary"/>
    <tag k="name" v="Edmund Street"/>
  </way>
  <way id="4328257" version="4" timestamp="2010-02-14T17:17:37Z" uid="74617" user="JohnSmith" changeset="3875836">
    <nd ref="26336800"/>
    <nd ref="344809316"/>
    <nd ref="359311562"/>
    <nd ref="26336802"/>
    <tag k="highway" v="unclassified"/>
    <tag k="maxspeed" v="50"/>
    <tag k="name" v="Durong Street"/>
  </way>
  <way id="4328262" version="12" timestamp="2010-02-14T17:13:44Z" uid="74617" user="JohnSmith" changeset="3875836">
    <nd ref="26336544"/>
    <nd ref="26336865"/>
    <nd ref="26336866"/>
    <nd ref="26336867"/>
    <nd ref="72560723"/>
    <tag k="highway" v="primary"/>
    <tag k="name" v="Montpelier Road"/>
    <tag k="ref" v="S10"/>
  </way>
  <way id="4328262" version="14" timestamp="2010-03-20T16:50:12Z" uid="74617" user="JohnSmith" changeset="4181928">
    <nd ref="26336544"/>
    <nd ref="660102267"/>
    <nd ref="660102268"/>
    <nd ref="26336865"/>
    <nd ref="26336866"/>
    <nd ref="26336867"/>
    <nd ref="72560723"/>
    <tag k="highway" v="primary"/>
    <tag k="name" v="Montpelier Road"/>
  </way>
  <way id="4328264" version="8" timestamp="2010-02-14T17:17:26Z" uid="74617" user="JohnSmith" changeset="3875836">
    <nd ref="26336883"/>
    <nd ref="200814061"/>
    <tag k="highway" v="unclassified"/>
    <tag k="maxspeed" v="50"/>
    <tag k="name" v="Waterloo Street"/>
    <tag k="oneway" v="yes"/>
  </way>
  <way id="4328265" version="3" timestamp="2010-02-14T17:17:25Z" uid="74617" user="JohnSmith" changeset="3875836">
    <nd ref="26336884"/>
    <nd ref="26336668"/>
    <tag k="highway" v="unclassified"/>
    <tag k="maxspeed" v="50"/>
    <tag k="name" v="Byres Street"/>
  </way>
  <way id="4328268" version="6" timestamp="2010-02-14T15:44:34Z" uid="74617" user="JohnSmith" changeset="3874884">
    <nd ref="198402298"/>
    <nd ref="26337169"/>
    <nd ref="26337170"/>
    <nd ref="26337171"/>
    <nd ref="26337172"/>
    <nd ref="198397446"/>
    <nd ref="26337178"/>
    <nd ref="26337179"/>
    <tag k="foot" v="yes"/>
    <tag k="highway" v="cycleway"/>
  </way>
  <way id="4328269" version="5" timestamp="2010-02-14T15:44:47Z" uid="74617" user="JohnSmith" changeset="3874884">
    <nd ref="26336933"/>
    <nd ref="292864612"/>
    <nd ref="198397995"/>
    <nd ref="198397997"/>
    <nd ref="26337176"/>
    <nd ref="26337177"/>
    <nd ref="198397998"/>
    <nd ref="26337178"/>
    <tag k="foot" v="yes"/>
    <tag k="highway" v="cycleway"/>
  </way>
  <way id="4328278" version="5" timestamp="2011-02-11T15:58:39Z" uid="4467" user="Rosscoe" changeset="7256478"/>
  <way id="4328279" version="5" timestamp="2010-02-14T15:44:48Z" uid="74617" user="JohnSmith" changeset="3874884">
    <nd ref="26336929"/>
    <nd ref="614559552"/>
    <nd ref="26336932"/>
    <tag k="highway" v="residential"/>
    <tag k="maxspeed" v="50"/>
    <tag k="name" v="Morris Street"/>
  </way>
  <way id="4328329" version="4" timestamp="2010-02-14T15:45:26Z" uid="74617" user="JohnSmith" changeset="3874884">
    <nd ref="26337437"/>
    <nd ref="26337436"/>
    <tag k="highway" v="residential"/>
    <tag k="maxspeed" v="50"/>
    <tag k="name" v="Thondley Street"/>
  </way>
  <way id="4328336" version="3" timestamp="2010-02-14T15:44:53Z" uid="74617" user="JohnSmith" changeset="3874884">
    <nd ref="26336979"/>
    <nd ref="26337478"/>
    <tag k="highway" v="residential"/>
    <tag k="maxspeed" v="50"/>
    <tag k="name" v="Lyons Terrace"/>
  </way>
  <way id="4328337" version="4" timestamp="2010-02-14T15:45:26Z" uid="74617" user="JohnSmith" changeset="3874884">
    <nd ref="26337433"/>
    <nd ref="26337432"/>
    <tag k="highway" v="residential"/>
    <tag k="maxspeed" v="50"/>
    <tag k="name" v="Robert Lane"/>
  </way>
  <way id="4328362" version="3" timestamp="2010-02-14T15:44:57Z" uid="74617" user="JohnSmith" changeset="3874884">
    <nd ref="26337713"/>
    <nd ref="26337712"/>
    <tag k="highway" v="residential"/>
    <tag k="maxspeed" v="50"/>
    <tag k="name" v="Maurice Street"/>
  </way>
  <way id="4328406" version="13" timestamp="2010-02-14T15:49:58Z" uid="74617" user="JohnSmith" changeset="3874884">
    <nd ref="26338168"/>
    <nd ref="70820997"/>
    <tag k="highway" v="tertiary"/>
    <tag k="name" v="Chalk Street"/>
  </way>
  <way id="4328408" version="4" timestamp="2010-02-14T15:45:44Z" uid="74617" user="JohnSmith" changeset="3874884">
    <nd ref="26338325"/>
    <nd ref="198440695"/>
    <tag k="highway" v="unclassified"/>
    <tag k="maxspeed" v="50"/>
    <tag k="name" v="Merehaye Street"/>
  </way>
  <way id="4328409" version="4" timestamp="2010-02-14T15:44:27Z" uid="74617" user="JohnSmith" changeset="3874884">
    <nd ref="26338197"/>
    <nd ref="26338488"/>
    <tag k="highway" v="unclassified"/>
    <tag k="maxspeed" v="50"/>
    <tag k="name" v="Morris Street"/>
  </way>
  <way id="4328410" version="3" timestamp="2010-02-14T15:45:34Z" uid="74617" user="JohnSmith" changeset="3874884">
    <nd ref="26338195"/>
    <nd ref="26338306"/>
    <tag k="highway" v="residential"/>
    <tag k="maxspeed" v="50"/>
    <tag k="name" v="Willmington Street"/>
  </way>
  <way id="4328411" version="7" timestamp="2010-02-14T02:42:50Z" uid="74617" user="JohnSmith" changeset="3870274">
    <nd ref="26338194"/>
    <nd ref="198441539"/>
    <nd ref="26338308"/>
    <nd ref="26338307"/>
    <nd ref="26338312"/>
    <nd ref="26338321"/>
    <nd ref="26338319"/>
    <nd ref="26338481"/>
    <nd ref="26337663"/>
    <nd ref="333663671"/>
    <nd ref="26337400"/>
    <tag k="highway" v="tertiary"/>
    <tag k="name" v="McLennan Street"/>
  </way>
  <way id="4328412" version="5" timestamp="2010-02-14T15:44:27Z" uid="74617" user="JohnSmith" changeset="3874884">
    <nd ref="26338307"/>
    <nd ref="26338306"/>
    <nd ref="26338488"/>
    <nd ref="26338324"/>
    <tag k="highway" v="residential"/>
    <tag k="maxspeed" v="50"/>
    <tag k="name" v="Marne Road"/>
  </way>
  <way id="4328413" version="8" timestamp="2010-02-14T15:45:36Z" uid="74617" user="JohnSmith" changeset="3874884">
    <nd ref="26338160"/>
    <nd ref="158165602"/>
    <tag k="highway" v="residential"/>
    <tag k="maxspeed" v="50"/>
    <tag k="name" v="Stoneleigh Street"/>
    <tag k="oneway" v="yes"/>
  </way>
  <way id="4328414" version="4" timestamp="2010-02-14T15:44:27Z" uid="74617" user="JohnSmith" changeset="3874884">
    <nd ref="26338321"/>
    <nd ref="26338322"/>
    <tag k="highway" v="residential"/>
    <tag k="maxspeed" v="50"/>
    <tag k="name" v="Grove Street"/>
  </way>
  <way id="4328414" version="5" timestamp="2010-07-22T01:36:36Z" uid="4467" user="Rosscoe" changeset="5283627">
    <nd ref="26338321"/>
    <nd ref="828392444"/>
    <nd ref="26338322"/>
    <tag k="highway" v="residential"/>
    <tag k="maxspeed" v="50"/>
    <tag k="name" v="Grove Street"/>
  </way>
  <way id="4328415" version="3" timestamp="2010-02-14T15:44:27Z" uid="74617" user="JohnSmith" changeset="3874884">
    <nd ref="26338481"/>
    <nd ref="26337668"/>
    <tag k="highway" v="residential"/>
    <tag k="maxspeed" v="50"/>
    <tag k="name" v="Wakefield Street"/>
  </way>
  <way id="4328415" version="4" timestamp="2010-07-22T01:38:15Z" uid="4467" user="Rosscoe" changeset="5283627">
    <nd ref="26338481"/>
    <nd ref="828392427"/>
    <nd ref="26337668"/>
    <tag k="highway" v="residential"/>
    <tag k="maxspeed" v="50"/>
    <tag k="name" v="Wakefield Street"/>
  </way>
  <way id="4328416" version="3" timestamp="2010-02-14T15:44:27Z" uid="74617" user="JohnSmith" changeset="3874884">
    <nd ref="26337663"/>
    <nd ref="26337665"/>
    <tag k="highway" v="residential"/>
    <tag k="maxspeed" v="50"/>
    <tag k="name" v="Bale Street"/>
  </way>
  <way id="4328416" version="4" timestamp="2010-07-22T01:37:19Z" uid="4467" user="Rosscoe" changeset="5283627">
    <nd ref="26337663"/>
    <nd ref="828392473"/>
    <nd ref="26337665"/>
    <tag k="highway" v="residential"/>
    <tag k="maxspeed" v="50"/>
    <tag k="name" v="Bale Street"/>
  </way>
  <way id="4328419" version="3" timestamp="2010-02-14T15:45:02Z" uid="74617" user="JohnSmith" changeset="3874884">
    <nd ref="26338320"/>
    <nd ref="26338319"/>
    <tag k="highway" v="residential"/>
    <tag k="maxspeed" v="50"/>
    <tag k="name" v="Storkey Street"/>
  </way>
  <way id="4328420" version="4" timestamp="2010-02-14T15:45:34Z" uid="74617" user="JohnSmith" changeset="3874884">
    <nd ref="26338159"/>
    <nd ref="26338314"/>
    <tag k="highway" v="residential"/>
    <tag k="maxspeed" v="50"/>
    <tag k="name" v="Ada Street"/>
  </way>
  <way id="4328422" version="11" timestamp="2010-02-14T15:50:36Z" uid="74617" user="JohnSmith" changeset="3874884">
    <nd ref="26338451"/>
    <nd ref="523761168"/>
    <nd ref="523761171"/>
    <nd ref="523761173"/>
    <nd ref="26338224"/>
    <tag k="highway" v="residential"/>
    <tag k="maxspeed" v="50"/>
    <tag k="name" v="Wride Street"/>
  </way>
  <way id="4328424" version="5" timestamp="2010-02-14T02:40:31Z" uid="74617" user="JohnSmith" changeset="3870264">
    <nd ref="26338166"/>
    <nd ref="278952136"/>
    <nd ref="26338414"/>
    <nd ref="26338408"/>
    <tag k="highway" v="residential"/>
    <tag k="name" v="Lowerson Street"/>
  </way>
  <way id="4328424" version="6" timestamp="2010-02-14T15:45:34Z" uid="74617" user="JohnSmith" changeset="3874884">
    <nd ref="26338166"/>
    <nd ref="278952136"/>
    <nd ref="26338414"/>
    <nd ref="26338408"/>
    <tag k="highway" v="residential"/>
    <tag k="maxspeed" v="50"/>
    <tag k="name" v="Lowerson Street"/>
  </way>
  <way id="4328425" version="3" timestamp="2010-02-14T15:45:36Z" uid="74617" user="JohnSmith" changeset="3874884">
    <nd ref="26338158"/>
    <nd ref="333664327"/>
    <tag k="highway" v="residential"/>
    <tag k="maxspeed" v="50"/>
    <tag k="name" v="Annie Street"/>
    <tag k="oneway" v="yes"/>
  </way>
  <way id="4328426" version="6" timestamp="2010-02-14T15:45:26Z" uid="74617" user="JohnSmith" changeset="3874884">
    <nd ref="26338316"/>
    <nd ref="321726412"/>
    <nd ref="26338157"/>
    <nd ref="72470629"/>
    <tag k="highway" v="residential"/>
    <tag k="maxspeed" v="50"/>
    <tag k="name" v="Fosbery Street"/>
  </way>
  <way id="4328427" version="4" timestamp="2010-07-06T09:52:14Z" uid="74617" user="JohnSmith" changeset="5147679">
    <nd ref="26338326"/>
    <nd ref="26338257"/>
    <tag k="highway" v="residential"/>
    <tag k="maxspeed" v="50"/>
    <tag k="maxspeed:source" v="default residential speed limit in Australia"/>
    <tag k="name" v="Cromwell Street"/>
  </way>
  <way id="4328428" version="8" timestamp="2010-07-06T09:52:06Z" uid="74617" user="JohnSmith" changeset="5147679">
    <nd ref="26338519"/>
    <nd ref="197321773"/>
    <tag k="highway" v="residential"/>
    <tag k="maxspeed" v="50"/>
    <tag k="maxspeed:source" v="default residential speed limit in Australia"/>
    <tag k="name" v="Riverton Street"/>
  </way>
  <way id="4328437" version="4" timestamp="2010-07-06T09:53:01Z" uid="74617" user="JohnSmith" changeset="5147679">
    <nd ref="26338246"/>
    <nd ref="204699846"/>
    <nd ref="26338241"/>
    <tag k="highway" v="residential"/>
    <tag k="maxspeed" v="50"/>
    <tag k="maxspeed:source" v="default residential speed limit in Australia"/>
    <tag k="name" v="Milne Street"/>
  </way>
  <way id="4328440" version="9" timestamp="2010-07-06T09:49:18Z" uid="74617" user="JohnSmith" changeset="5147679">
    <nd ref="26338230"/>
    <nd ref="26338231"/>
    <nd ref="26338232"/>
    <tag k="highway" v="residential"/>
    <tag k="maxspeed" v="50"/>
    <tag k="maxspeed:source" v="default residential speed limit in Australia"/>
    <tag k="name" v="Stopford Street"/>
  </way>
  <way id="4328443" version="6" timestamp="2010-07-06T09:47:33Z" uid="74617" user="JohnSmith" changeset="5147679">
    <nd ref="179470888"/>
    <nd ref="26338339"/>
    <tag k="highway" v="residential"/>
    <tag k="maxspeed" v="50"/>
    <tag k="maxspeed:source" v="default residential speed limit in Australia"/>
    <tag k="name" v="Jolly Street"/>
  </way>
  <way id="4328446" version="35" timestamp="2010-03-20T12:34:09Z" uid="74617" user="JohnSmith" changeset="4179241">
    <nd ref="75209203"/>
    <nd ref="26337588"/>
    <nd ref="26337662"/>
    <nd ref="198547144"/>
    <nd ref="198590885"/>
    <nd ref="26337589"/>
    <nd ref="198590887"/>
    <nd ref="26337590"/>
    <nd ref="198590889"/>
    <nd ref="26337529"/>
    <nd ref="26337591"/>
    <nd ref="198593319"/>
    <nd ref="26337592"/>
    <nd ref="26337593"/>
    <nd ref="26337594"/>
    <nd ref="26338632"/>
    <nd ref="610685420"/>
    <nd ref="26338645"/>
    <nd ref="26337960"/>
    <nd ref="359311620"/>
    <nd ref="26338244"/>
    <nd ref="204699882"/>
    <nd ref="359311379"/>
    <nd ref="26338397"/>
    <nd ref="75163489"/>
    <nd ref="75163510"/>
    <nd ref="26338242"/>
    <nd ref="197253539"/>
    <nd ref="197319868"/>
    <nd ref="26338520"/>
    <nd ref="197322016"/>
    <nd ref="26338521"/>
    <tag k="highway" v="primary"/>
    <tag k="name" v="Sandgate Road"/>
  </way>
  <way id="4328446" version="36" timestamp="2010-07-22T01:47:06Z" uid="4467" user="Rosscoe" changeset="5283651">
    <nd ref="75209203"/>
    <nd ref="26337588"/>
    <nd ref="26337662"/>
    <nd ref="198547144"/>
    <nd ref="198590885"/>
    <nd ref="26337589"/>
    <nd ref="198590887"/>
    <nd ref="26337590"/>
    <nd ref="198590889"/>
    <nd ref="26337529"/>
    <nd ref="828396353"/>
    <nd ref="26337591"/>
    <nd ref="828396363"/>
    <nd ref="198593319"/>
    <nd ref="26337592"/>
    <nd ref="26337593"/>
    <nd ref="26337594"/>
    <nd ref="26338632"/>
    <nd ref="610685420"/>
    <nd ref="26338645"/>
    <nd ref="26337960"/>
    <nd ref="359311620"/>
    <nd ref="26338244"/>
    <nd ref="204699882"/>
    <nd ref="359311379"/>
    <nd ref="26338397"/>
    <nd ref="75163489"/>
    <nd ref="75163510"/>
    <nd ref="26338242"/>
    <nd ref="197253539"/>
    <nd ref="197319868"/>
    <nd ref="26338520"/>
    <nd ref="197322016"/>
    <nd ref="26338521"/>
    <tag k="highway" v="primary"/>
    <tag k="name" v="Sandgate Road"/>
  </way>
  <way id="4328447" version="4" timestamp="2010-02-14T15:45:34Z" uid="74617" user="JohnSmith" changeset="3874884">
    <nd ref="26338164"/>
    <nd ref="26338403"/>
    <tag k="highway" v="residential"/>
    <tag k="maxspeed" v="50"/>
    <tag k="name" v="East Street"/>
  </way>
  <way id="4328448" version="4" timestamp="2010-02-14T15:45:34Z" uid="74617" user="JohnSmith" changeset="3874884">
    <nd ref="333664340"/>
    <nd ref="26338161"/>
    <tag k="highway" v="residential"/>
    <tag k="maxspeed" v="50"/>
    <tag k="name" v="High Street"/>
    <tag k="oneway" v="yes"/>
  </way>
  <way id="4328448" version="5" timestamp="2010-02-14T16:03:46Z" uid="74617" user="JohnSmith" changeset="3875130">
    <nd ref="333664340"/>
    <nd ref="639077742"/>
    <nd ref="26338161"/>
    <tag k="highway" v="residential"/>
    <tag k="maxspeed" v="50"/>
    <tag k="name" v="High Street"/>
    <tag k="oneway" v="yes"/>
  </way>
  <way id="4328449" version="3" timestamp="2010-02-14T15:45:02Z" uid="74617" user="JohnSmith" changeset="3874884">
    <nd ref="26338495"/>
    <nd ref="26338320"/>
    <nd ref="26338318"/>
    <nd ref="26337399"/>
    <tag k="highway" v="residential"/>
    <tag k="maxspeed" v="50"/>
    <tag k="name" v="Salt Street"/>
  </way>
  <way id="4328450" version="4" timestamp="2010-02-14T15:45:02Z" uid="74617" user="JohnSmith" changeset="3874884">
    <nd ref="26338313"/>
    <nd ref="26338314"/>
    <nd ref="26338315"/>
    <nd ref="26338317"/>
    <nd ref="26338316"/>
    <tag k="highway" v="residential"/>
    <tag k="maxspeed" v="50"/>
    <tag k="name" v="Campbell Street"/>
  </way>
  <way id="4328451" version="3" timestamp="2010-02-14T15:45:33Z" uid="74617" user="JohnSmith" changeset="3874884">
    <nd ref="26338317"/>
    <nd ref="26338318"/>
    <tag k="highway" v="residential"/>
    <tag k="maxspeed" v="50"/>
    <tag k="name" v="Martha Street"/>
  </way>
  <way id="4328455" version="4" timestamp="2010-02-14T15:45:34Z" uid="74617" user="JohnSmith" changeset="3874884">
    <nd ref="26338309"/>
    <nd ref="26338311"/>
    <nd ref="26338310"/>
    <tag k="highway" v="residential"/>
    <tag k="maxspeed" v="50"/>
    <tag k="name" v="Kenneth Street"/>
  </way>
  <way id="4328456" version="5" timestamp="2010-02-14T15:45:35Z" uid="74617" user="JohnSmith" changeset="3874884">
    <nd ref="321726416"/>
    <nd ref="26338309"/>
    <nd ref="26338308"/>
    <tag k="highway" v="residential"/>
    <tag k="maxspeed" v="50"/>
    <tag k="name" v="Conon Street"/>
  </way>
  <way id="4328457" version="6" timestamp="2010-02-14T02:40:30Z" uid="74617" user="JohnSmith" changeset="3870264">
    <nd ref="26338193"/>
    <nd ref="638866860"/>
    <nd ref="638866861"/>
    <nd ref="638866862"/>
    <nd ref="26338494"/>
    <nd ref="198441539"/>
    <tag k="highway" v="residential"/>
    <tag k="name" v="Florrie Street"/>
  </way>
  <way id="4328457" version="7" timestamp="2010-02-14T02:41:14Z" uid="74617" user="JohnSmith" changeset="3870269">
    <nd ref="26338193"/>
    <nd ref="638866860"/>
    <nd ref="638866861"/>
    <nd ref="638866862"/>
    <nd ref="638866969"/>
    <nd ref="26338494"/>
    <nd ref="198441539"/>
    <tag k="highway" v="residential"/>
    <tag k="name" v="Florrie Street"/>
  </way>
  <way id="4328457" version="8" timestamp="2010-02-14T15:42:02Z" uid="74617" user="JohnSmith" changeset="3874884">
    <nd ref="26338193"/>
    <nd ref="638866860"/>
    <nd ref="638866861"/>
    <nd ref="638866862"/>
    <nd ref="638866969"/>
    <nd ref="26338494"/>
    <nd ref="198441539"/>
    <tag k="highway" v="residential"/>
    <tag k="maxspeed" v="50"/>
    <tag k="name" v="Florrie Street"/>
  </way>
  <way id="4328533" version="8" timestamp="2009-08-11T11:04:09Z" uid="4467" user="Rosscoe" changeset="2107049">
    <nd ref="26339487"/>
    <nd ref="26339489"/>
    <nd ref="410182187"/>
    <nd ref="410182186"/>
    <tag k="highway" v="primary"/>
    <tag k="is_in" v="Brisbane, QLD, Queensland, Australia"/>
    <tag k="name" v="Airport Drive"/>
    <tag k="oneway" v="yes"/>
    <tag k="ref" v="S20"/>
  </way>
  <way id="4328551" version="1" timestamp="2007-09-22T21:16:35Z" uid="8328" user="benpre" changeset="496172">
    <nd ref="26338859"/>
    <nd ref="29574065"/>
    <nd ref="26338861"/>
    <nd ref="26338862"/>
    <nd ref="26338863"/>
    <nd ref="26338941"/>
    <nd ref="26338864"/>
    <nd ref="26338865"/>
    <nd ref="26338866"/>
    <nd ref="26338867"/>
    <nd ref="26338868"/>
    <nd ref="26338869"/>
    <nd ref="32920909"/>
    <nd ref="26338870"/>
    <nd ref="32920896"/>
    <nd ref="32920908"/>
    <nd ref="26338967"/>
    <nd ref="26338871"/>
    <nd ref="26338872"/>
    <nd ref="26338873"/>
    <nd ref="26338874"/>
    <nd ref="26338875"/>
    <tag k="created_by" v="Potlatch alpha"/>
    <tag k="highway" v="trunk"/>
    <tag k="name" v="Murckowska"/>
  </way>
  <way id="4328611" version="3" timestamp="2010-01-29T01:36:55Z" uid="20587" user="balrog-kun" changeset="3740483">
    <nd ref="21943120"/>
    <nd ref="21943059"/>
    <nd ref="21943148"/>
    <nd ref="622204636"/>
    <nd ref="21947451"/>
    <nd ref="21947464"/>
    <nd ref="21951406"/>
    <tag k="highway" v="residential"/>
    <tag k="name" v="Calle de LavapiÃ©s"/>
    <tag k="oneway" v="yes"/>
  </way>
  <way id="4328630" version="7" timestamp="2010-08-16T06:44:51Z" uid="4467" user="Rosscoe" changeset="5506551">
    <nd ref="250535228"/>
    <nd ref="250535229"/>
    <nd ref="250535230"/>
    <nd ref="26339508"/>
    <nd ref="26339507"/>
    <nd ref="862817241"/>
    <nd ref="26339509"/>
    <tag k="highway" v="track"/>
    <tag k="surface" v="unpaved"/>
  </way>
  <way id="4328680" version="16" timestamp="2010-02-14T15:47:43Z" uid="74617" user="JohnSmith" changeset="3874884">
    <nd ref="306312830"/>
    <nd ref="306312831"/>
    <nd ref="306312832"/>
    <nd ref="182171303"/>
    <nd ref="182171305"/>
    <nd ref="182171306"/>
    <nd ref="182171307"/>
    <nd ref="182171309"/>
    <nd ref="182171310"/>
    <nd ref="182171312"/>
    <nd ref="182171313"/>
    <nd ref="182171314"/>
    <nd ref="182171315"/>
    <nd ref="182171316"/>
    <nd ref="182171317"/>
    <nd ref="182171318"/>
    <nd ref="143263613"/>
    <nd ref="306157043"/>
    <tag k="boat" v="no"/>
    <tag k="waterway" v="stream"/>
  </way>
  <way id="4328683" version="16" timestamp="2010-07-06T09:21:39Z" uid="74617" user="JohnSmith" changeset="5147679">
    <nd ref="249948961"/>
    <nd ref="86111325"/>
    <tag k="highway" v="residential"/>
    <tag k="maxspeed" v="50"/>
    <tag k="maxspeed:source" v="default residential speed limit in Australia"/>
    <tag k="name" v="Fraser Street"/>
  </way>
  <way id="4328683" version="17" timestamp="2011-02-04T14:11:16Z" uid="4467" user="Rosscoe" changeset="7183600">
    <nd ref="249948961"/>
    <nd ref="1135662684"/>
    <nd ref="1135662674"/>
    <tag k="highway" v="residential"/>
    <tag k="maxspeed" v="50"/>
    <tag k="maxspeed:source" v="default residential speed limit in Australia"/>
    <tag k="name" v="Fraser Street"/>
  </way>
  <way id="4328723" version="3" timestamp="2009-12-24T01:46:40Z" uid="6975" user="ulfl" changeset="3439477">
    <nd ref="26341025"/>
    <nd ref="26341024"/>
    <nd ref="26341023"/>
    <nd ref="26341022"/>
    <nd ref="26341025"/>
    <tag k="aeroway" v="runway"/>
    <tag k="use_status" v="disused"/>
  </way>
  <way id="4328770" version="4" timestamp="2010-01-29T01:36:55Z" uid="20587" user="balrog-kun" changeset="3740483">
    <nd ref="21951427"/>
    <nd ref="21947541"/>
    <nd ref="21947518"/>
    <nd ref="21947554"/>
    <nd ref="21941676"/>
    <nd ref="21941619"/>
    <tag k="highway" v="residential"/>
    <tag k="name" v="Calle del Olivar"/>
    <tag k="oneway" v="yes"/>
  </way>
  <way id="4328782" version="8" timestamp="2010-01-29T01:36:55Z" uid="20587" user="balrog-kun" changeset="3740483">
    <nd ref="26487767"/>
    <nd ref="21968406"/>
    <nd ref="21968384"/>
    <nd ref="21968375"/>
    <nd ref="21968380"/>
    <nd ref="21968352"/>
    <tag k="access" v="destination"/>
    <tag k="highway" v="residential"/>
    <tag k="name" v="Calle del Prado"/>
    <tag k="oneway" v="yes"/>
  </way>
  <way id="4328805" version="9" timestamp="2009-08-11T23:08:39Z" uid="4467" user="Rosscoe" changeset="2113772">
    <nd ref="26341031"/>
    <nd ref="454710830"/>
    <nd ref="26341030"/>
    <nd ref="26340984"/>
    <nd ref="26340983"/>
    <nd ref="311427765"/>
    <nd ref="26340982"/>
    <nd ref="81318615"/>
    <nd ref="26340981"/>
    <nd ref="21590380"/>
    <tag k="highway" v="primary"/>
    <tag k="is_in" v="Brisbane, QLD, Queensland, Australia"/>
    <tag k="name" v="Airport Drive"/>
    <tag k="oneway" v="yes"/>
    <tag k="ref" v="S20"/>
  </way>
  <way id="4328805" version="10" timestamp="2009-08-12T00:28:18Z" uid="4467" user="Rosscoe" changeset="2113991">
    <nd ref="26340988"/>
    <nd ref="26341031"/>
    <nd ref="454710830"/>
    <nd ref="26341030"/>
    <nd ref="26340984"/>
    <nd ref="26340983"/>
    <nd ref="311427765"/>
    <nd ref="26340982"/>
    <nd ref="81318615"/>
    <nd ref="26340981"/>
    <nd ref="21590380"/>
    <tag k="highway" v="primary"/>
    <tag k="is_in" v="Brisbane, QLD, Queensland, Australia"/>
    <tag k="name" v="Airport Drive"/>
    <tag k="oneway" v="yes"/>
    <tag k="ref" v="S20"/>
  </way>
  <way id="4328805" version="13" timestamp="2010-03-20T16:02:43Z" uid="74617" user="JohnSmith" changeset="4181375">
    <nd ref="26340988"/>
    <nd ref="465175676"/>
    <nd ref="26341031"/>
    <nd ref="454710830"/>
    <nd ref="26341030"/>
    <nd ref="26340984"/>
    <nd ref="474981721"/>
    <nd ref="26340983"/>
    <nd ref="311427765"/>
    <nd ref="26340982"/>
    <nd ref="81318615"/>
    <nd ref="26340981"/>
    <nd ref="21590380"/>
    <tag k="highway" v="primary"/>
    <tag k="name" v="Airport Drive"/>
    <tag k="oneway" v="yes"/>
  </way>
  <way id="4328814" version="15" timestamp="2010-07-06T09:21:01Z" uid="74617" user="JohnSmith" changeset="5147679">
    <nd ref="26340995"/>
    <nd ref="243173330"/>
    <nd ref="775819055"/>
    <nd ref="775819056"/>
    <nd ref="476137961"/>
    <nd ref="775819019"/>
    <nd ref="775820352"/>
    <nd ref="775819021"/>
    <nd ref="775819024"/>
    <nd ref="26340997"/>
    <nd ref="410182076"/>
    <nd ref="476137988"/>
    <nd ref="775817773"/>
    <nd ref="775817772"/>
    <nd ref="410182078"/>
    <nd ref="775821840"/>
    <nd ref="476137994"/>
    <nd ref="775821870"/>
    <nd ref="410182081"/>
    <nd ref="476137995"/>
    <nd ref="410182087"/>
    <nd ref="476138004"/>
    <nd ref="243173424"/>
    <nd ref="410182090"/>
    <nd ref="476138001"/>
    <nd ref="476138006"/>
    <nd ref="616232826"/>
    <nd ref="616232833"/>
    <nd ref="474981871"/>
    <nd ref="616232854"/>
    <nd ref="243172952"/>
    <tag k="highway" v="unclassified"/>
    <tag k="maxspeed" v="50"/>
    <tag k="maxspeed:source" v="default residential speed limit in Australia"/>
    <tag k="name" v="Qantas Drive"/>
    <tag k="oneway" v="yes"/>
  </way>
  <way id="4328815" version="6" timestamp="2010-07-06T09:49:37Z" uid="74617" user="JohnSmith" changeset="5147679">
    <nd ref="26340997"/>
    <nd ref="243173261"/>
    <nd ref="775818825"/>
    <nd ref="243173266"/>
    <tag k="highway" v="unclassified"/>
    <tag k="maxspeed" v="50"/>
    <tag k="maxspeed:source" v="default residential speed limit in Australia"/>
    <tag k="name" v="Litsea Street"/>
  </way>
  <way id="4328834" version="10" timestamp="2008-06-05T19:30:59Z" uid="27600" user="Islanit" changeset="61853">
    <nd ref="26334521"/>
    <nd ref="26334522"/>
    <nd ref="248787722"/>
    <nd ref="26334523"/>
    <nd ref="26334524"/>
    <nd ref="26334525"/>
    <nd ref="26334526"/>
    <nd ref="26334527"/>
    <nd ref="248789841"/>
    <nd ref="248787815"/>
    <tag k="created_by" v="Potlatch 0.7b"/>
    <tag k="highway" v="tertiary"/>
    <tag k="lanes" v="true"/>
    <tag k="name" v="Siedenfelder Weg"/>
  </way>
  <way id="4328902" version="7" timestamp="2010-01-31T13:02:21Z" uid="74617" user="JohnSmith" changeset="3758822">
    <nd ref="26341766"/>
    <nd ref="623967555"/>
    <nd ref="623967559"/>
    <nd ref="26341769"/>
    <nd ref="623967568"/>
    <nd ref="26341773"/>
    <nd ref="623967575"/>
    <nd ref="623967574"/>
    <nd ref="26341719"/>
    <nd ref="26341774"/>
    <nd ref="359337948"/>
    <nd ref="623967601"/>
    <nd ref="26341779"/>
    <nd ref="623967610"/>
    <nd ref="403638271"/>
    <nd ref="623967604"/>
    <nd ref="623967618"/>
    <nd ref="359337530"/>
    <nd ref="623960396"/>
    <nd ref="623960390"/>
    <nd ref="359337524"/>
    <nd ref="623960401"/>
    <nd ref="359337519"/>
    <nd ref="623960400"/>
    <nd ref="623960411"/>
    <nd ref="623960412"/>
    <nd ref="359337515"/>
    <nd ref="623960416"/>
    <nd ref="359337510"/>
    <nd ref="623949860"/>
    <nd ref="623949853"/>
    <nd ref="623949881"/>
    <nd ref="623949862"/>
    <nd ref="623949894"/>
    <nd ref="623949904"/>
    <nd ref="359337487"/>
    <nd ref="623949912"/>
    <nd ref="623949907"/>
    <nd ref="623949936"/>
    <nd ref="623949924"/>
    <nd ref="623949948"/>
    <nd ref="623949949"/>
    <nd ref="623949946"/>
    <nd ref="623949961"/>
    <tag k="railway" v="rail"/>
    <tag k="source" v="nearmap"/>
  </way>
  <way id="4328904" version="13" timestamp="2010-07-06T09:16:11Z" uid="74617" user="JohnSmith" changeset="5147679">
    <nd ref="75916518"/>
    <nd ref="26342258"/>
    <nd ref="77986122"/>
    <nd ref="26342261"/>
    <nd ref="777378063"/>
    <nd ref="26342269"/>
    <tag k="highway" v="residential"/>
    <tag k="maxspeed" v="50"/>
    <tag k="maxspeed:source" v="default residential speed limit in Australia"/>
    <tag k="name" v="Henry Street"/>
  </way>
  <way id="4328906" version="5" timestamp="2010-07-06T09:17:40Z" uid="74617" user="JohnSmith" changeset="5147679">
    <nd ref="26341945"/>
    <nd ref="26342099"/>
    <nd ref="346152559"/>
    <tag k="highway" v="residential"/>
    <tag k="maxspeed" v="50"/>
    <tag k="maxspeed:source" v="default residential speed limit in Australia"/>
    <tag k="name" v="Wongara Street"/>
  </way>
  <way id="4328907" version="5" timestamp="2010-07-06T09:23:17Z" uid="74617" user="JohnSmith" changeset="5147679">
    <nd ref="26342099"/>
    <nd ref="26342092"/>
    <nd ref="26341964"/>
    <nd ref="26341960"/>
    <nd ref="179836830"/>
    <tag k="highway" v="residential"/>
    <tag k="maxspeed" v="50"/>
    <tag k="maxspeed:source" v="default residential speed limit in Australia"/>
    <tag k="name" v="Franz Road"/>
  </way>
  <way id="4328909" version="10" timestamp="2010-07-06T09:51:04Z" uid="74617" user="JohnSmith" changeset="5147679">
    <nd ref="26342168"/>
    <nd ref="26341960"/>
    <nd ref="439993850"/>
    <tag k="highway" v="residential"/>
    <tag k="maxspeed" v="50"/>
    <tag k="maxspeed:source" v="default residential speed limit in Australia"/>
    <tag k="name" v="Gellibrand Street"/>
  </way>
  <way id="4328910" version="5" timestamp="2010-07-06T09:14:07Z" uid="74617" user="JohnSmith" changeset="5147679">
    <nd ref="26342161"/>
    <nd ref="26341964"/>
    <nd ref="26341681"/>
    <tag k="highway" v="residential"/>
    <tag k="maxspeed" v="50"/>
    <tag k="maxspeed:source" v="default residential speed limit in Australia"/>
    <tag k="name" v="Eliza Street"/>
  </way>
  <way id="4328911" version="4" timestamp="2010-07-06T09:20:28Z" uid="74617" user="JohnSmith" changeset="5147679">
    <nd ref="26342061"/>
    <nd ref="26342092"/>
    <nd ref="26341680"/>
    <tag k="highway" v="residential"/>
    <tag k="maxspeed" v="50"/>
    <tag k="maxspeed:source" v="default residential speed limit in Australia"/>
    <tag k="name" v="Noble Street"/>
  </way>
  <way id="4328912" version="3" timestamp="2010-07-06T09:22:01Z" uid="74617" user="JohnSmith" changeset="5147679">
    <nd ref="26341910"/>
    <nd ref="26341903"/>
    <nd ref="26342082"/>
    <tag k="highway" v="residential"/>
    <tag k="maxspeed" v="50"/>
    <tag k="maxspeed:source" v="default residential speed limit in Australia"/>
    <tag k="name" v="Maxwell Street"/>
  </way>
  <way id="4328913" version="3" timestamp="2010-07-06T09:17:54Z" uid="74617" user="JohnSmith" changeset="5147679">
    <nd ref="26341882"/>
    <nd ref="26341884"/>
    <tag k="highway" v="residential"/>
    <tag k="maxspeed" v="50"/>
    <tag k="maxspeed:source" v="default residential speed limit in Australia"/>
    <tag k="name" v="Howie Street"/>
  </way>
  <way id="4328914" version="6" timestamp="2010-07-06T09:13:03Z" uid="74617" user="JohnSmith" changeset="5147679">
    <nd ref="77983411"/>
    <nd ref="26342698"/>
    <tag k="highway" v="residential"/>
    <tag k="maxspeed" v="50"/>
    <tag k="maxspeed:source" v="default residential speed limit in Australia"/>
    <tag k="name" v="McGregor Street"/>
  </way>
  <way id="4328915" version="6" timestamp="2010-07-06T09:19:33Z" uid="74617" user="JohnSmith" changeset="5147679">
    <nd ref="26341824"/>
    <nd ref="777377938"/>
    <nd ref="777377939"/>
    <nd ref="26341823"/>
    <nd ref="26341828"/>
    <tag k="highway" v="residential"/>
    <tag k="maxspeed" v="50"/>
    <tag k="maxspeed:source" v="default residential speed limit in Australia"/>
    <tag k="name" v="Kalinga Street"/>
  </way>
  <way id="4328916" version="3" timestamp="2010-07-06T09:19:08Z" uid="74617" user="JohnSmith" changeset="5147679">
    <nd ref="26341828"/>
    <nd ref="26342698"/>
    <nd ref="26341829"/>
    <tag k="highway" v="residential"/>
    <tag k="maxspeed" v="50"/>
    <tag k="maxspeed:source" v="default residential speed limit in Australia"/>
    <tag k="name" v="Kalinga Street"/>
  </way>
  <way id="4328917" version="3" timestamp="2010-07-06T09:14:26Z" uid="74617" user="JohnSmith" changeset="5147679">
    <nd ref="26341841"/>
    <nd ref="26342664"/>
    <nd ref="26341998"/>
    <tag k="highway" v="residential"/>
    <tag k="maxspeed" v="50"/>
    <tag k="maxspeed:source" v="default residential speed limit in Australia"/>
    <tag k="name" v="Millman Street"/>
  </way>
  <way id="4328918" version="7" timestamp="2010-07-06T09:20:53Z" uid="74617" user="JohnSmith" changeset="5147679">
    <nd ref="26341691"/>
    <nd ref="80811307"/>
    <nd ref="26341881"/>
    <nd ref="26341884"/>
    <nd ref="351940401"/>
    <nd ref="26341890"/>
    <tag k="highway" v="residential"/>
    <tag k="maxspeed" v="50"/>
    <tag k="maxspeed:source" v="default residential speed limit in Australia"/>
    <tag k="name" v="Jackson Street"/>
  </way>
  <way id="4328919" version="4" timestamp="2010-07-06T09:16:38Z" uid="74617" user="JohnSmith" changeset="5147679">
    <nd ref="26341915"/>
    <nd ref="26341912"/>
    <nd ref="26341910"/>
    <nd ref="26341689"/>
    <tag k="highway" v="residential"/>
    <tag k="maxspeed" v="50"/>
    <tag k="maxspeed:source" v="default residential speed limit in Australia"/>
    <tag k="name" v="Hockings Street"/>
  </way>
  <way id="4328923" version="15" timestamp="2009-02-14T01:19:07Z" uid="36809" user="pfoten_weg_!_" changeset="423851">
    <nd ref="26342319"/>
    <nd ref="26341850"/>
    <nd ref="26342170"/>
    <nd ref="26341804"/>
    <nd ref="26342238"/>
    <nd ref="26341836"/>
    <nd ref="26342436"/>
    <nd ref="26341886"/>
    <nd ref="257881404"/>
    <nd ref="26342187"/>
    <nd ref="26341820"/>
    <nd ref="26341976"/>
    <nd ref="257881390"/>
    <nd ref="26341831"/>
    <nd ref="26341993"/>
    <nd ref="90252825"/>
    <nd ref="26341756"/>
    <nd ref="26341965"/>
    <nd ref="26341737"/>
    <nd ref="26341788"/>
    <nd ref="26342056"/>
    <nd ref="276517306"/>
    <nd ref="257881423"/>
    <nd ref="26341810"/>
    <nd ref="270494005"/>
    <nd ref="26341858"/>
    <nd ref="26341803"/>
    <nd ref="26342012"/>
    <nd ref="276517305"/>
    <nd ref="26341795"/>
    <nd ref="26342165"/>
    <nd ref="257881460"/>
    <nd ref="257881459"/>
    <nd ref="26342425"/>
    <nd ref="26341894"/>
    <nd ref="26342022"/>
    <nd ref="26341764"/>
    <nd ref="26342234"/>
    <nd ref="257881548"/>
    <nd ref="26341830"/>
    <nd ref="26342191"/>
    <nd ref="26341780"/>
    <nd ref="26341720"/>
    <nd ref="26342005"/>
    <nd ref="26341758"/>
    <nd ref="26342001"/>
    <nd ref="26341740"/>
    <nd ref="21557310"/>
    <tag k="created_by" v="RambaZamba"/>
    <tag k="highway" v="primary"/>
    <tag k="ref" v="B 11"/>
    <tag k="source" v="survey"/>
  </way>
  <way id="4328936" version="4" timestamp="2010-07-06T09:20:50Z" uid="74617" user="JohnSmith" changeset="5147679">
    <nd ref="26342680"/>
    <nd ref="26342664"/>
    <nd ref="26341994"/>
    <tag k="highway" v="residential"/>
    <tag k="maxspeed" v="50"/>
    <tag k="maxspeed:source" v="default residential speed limit in Australia"/>
    <tag k="name" v="Fitzroy Street"/>
  </way>
  <way id="4328937" version="9" timestamp="2010-07-06T09:16:32Z" uid="74617" user="JohnSmith" changeset="5147679">
    <nd ref="191065866"/>
    <nd ref="351941751"/>
    <nd ref="351942428"/>
    <nd ref="26341903"/>
    <nd ref="26341688"/>
    <tag k="highway" v="residential"/>
    <tag k="maxspeed" v="50"/>
    <tag k="maxspeed:source" v="default residential speed limit in Australia"/>
    <tag k="name" v="Elliott Street"/>
  </way>
  <way id="4328969" version="11" timestamp="2010-07-06T09:14:11Z" uid="74617" user="JohnSmith" changeset="5147679">
    <nd ref="351941486"/>
    <nd ref="351941770"/>
    <nd ref="26341933"/>
    <nd ref="351942365"/>
    <nd ref="26342082"/>
    <nd ref="26341687"/>
    <tag k="highway" v="residential"/>
    <tag k="maxspeed" v="50"/>
    <tag k="maxspeed:source" v="default residential speed limit in Australia"/>
    <tag k="name" v="Stuckey Road"/>
  </way>
  <way id="4328970" version="6" timestamp="2010-07-06T09:20:35Z" uid="74617" user="JohnSmith" changeset="5147679">
    <nd ref="26342435"/>
    <nd ref="26341875"/>
    <nd ref="26341881"/>
    <tag k="highway" v="residential"/>
    <tag k="maxspeed" v="50"/>
    <tag k="maxspeed:source" v="default residential speed limit in Australia"/>
    <tag k="name" v="Sydney Street"/>
  </way>
  <way id="4328970" version="7" timestamp="2010-07-24T05:20:02Z" uid="4467" user="Rosscoe" changeset="5300812">
    <nd ref="26342435"/>
    <nd ref="26341875"/>
    <nd ref="26341881"/>
    <tag k="highway" v="residential"/>
    <tag k="maxspeed" v="50"/>
    <tag k="maxspeed:source" v="default residential speed limit in Australia"/>
    <tag k="name" v="Sydney Street"/>
  </way>
  <way id="4328971" version="4" timestamp="2010-07-06T09:16:19Z" uid="74617" user="JohnSmith" changeset="5147679">
    <nd ref="26341856"/>
    <nd ref="26341855"/>
    <nd ref="26341853"/>
    <nd ref="26341846"/>
    <nd ref="26341842"/>
    <tag k="highway" v="residential"/>
    <tag k="maxspeed" v="50"/>
    <tag k="maxspeed:source" v="default residential speed limit in Australia"/>
    <tag k="name" v="Stewart Street"/>
  </way>
  <way id="4328972" version="7" timestamp="2010-07-06T09:15:47Z" uid="74617" user="JohnSmith" changeset="5147679">
    <nd ref="26342261"/>
    <nd ref="26342288"/>
    <nd ref="403638095"/>
    <tag k="highway" v="residential"/>
    <tag k="maxspeed" v="50"/>
    <tag k="maxspeed:source" v="default residential speed limit in Australia"/>
    <tag k="name" v="Bertha Street"/>
  </way>
  <way id="4328977" version="1" timestamp="2007-08-02T18:02:08Z" uid="8328" user="benpre" changeset="184147">
    <nd ref="26342815"/>
    <nd ref="26342809"/>
    <nd ref="26342811"/>
    <nd ref="26342808"/>
    <nd ref="26342807"/>
    <nd ref="26342806"/>
    <nd ref="26342805"/>
    <nd ref="26342812"/>
    <nd ref="26342804"/>
    <nd ref="26342813"/>
    <nd ref="26342814"/>
    <nd ref="26342834"/>
    <nd ref="26342832"/>
    <nd ref="26342831"/>
    <nd ref="26342835"/>
    <nd ref="26342836"/>
    <nd ref="26342830"/>
    <nd ref="26342828"/>
    <nd ref="26342833"/>
    <nd ref="26342816"/>
    <nd ref="26342815"/>
    <tag k="created_by" v="JOSM"/>
    <tag k="leisure" v="park"/>
  </way>
  <way id="4328978" version="1" timestamp="2007-08-02T18:02:07Z" uid="8328" user="benpre" changeset="184147">
    <nd ref="26342834"/>
    <nd ref="26342832"/>
    <nd ref="26342831"/>
    <nd ref="26342835"/>
    <nd ref="26342836"/>
    <nd ref="26342830"/>
    <nd ref="26342828"/>
    <nd ref="26342833"/>
    <nd ref="26342816"/>
    <nd ref="26342817"/>
    <nd ref="26342818"/>
    <nd ref="26342819"/>
    <nd ref="26342820"/>
    <nd ref="26342821"/>
    <nd ref="26342903"/>
    <nd ref="26342822"/>
    <nd ref="26342823"/>
    <nd ref="26342916"/>
    <nd ref="26342915"/>
    <nd ref="26342824"/>
    <nd ref="26342825"/>
    <nd ref="26342914"/>
    <nd ref="26342826"/>
    <nd ref="26342827"/>
    <nd ref="26212780"/>
    <nd ref="26342814"/>
    <nd ref="26342834"/>
    <tag k="created_by" v="JOSM"/>
    <tag k="leisure" v="common"/>
  </way>
  <way id="4328980" version="2" timestamp="2010-01-31T01:35:30Z" uid="20587" user="balrog-kun" changeset="3756004">
    <nd ref="26342858"/>
    <nd ref="26342862"/>
    <nd ref="26342861"/>
    <nd ref="26342860"/>
    <nd ref="26342859"/>
    <nd ref="26342858"/>
    <tag k="amenity" v="fountain"/>
    <tag k="natural" v="water"/>
  </way>
  <way id="4328981" version="2" timestamp="2010-01-31T01:35:30Z" uid="20587" user="balrog-kun" changeset="3756004">
    <nd ref="26342855"/>
    <nd ref="26342854"/>
    <nd ref="26342853"/>
    <nd ref="26342857"/>
    <nd ref="26342856"/>
    <nd ref="26342855"/>
    <tag k="amenity" v="fountain"/>
    <tag k="natural" v="water"/>
  </way>
  <way id="4328983" version="1" timestamp="2007-08-02T18:02:08Z" uid="8328" user="benpre" changeset="184147">
    <nd ref="26342865"/>
    <nd ref="26342887"/>
    <nd ref="26342872"/>
    <nd ref="26342871"/>
    <nd ref="26342888"/>
    <nd ref="26342864"/>
    <nd ref="26342865"/>
    <tag k="amenity" v="parking"/>
    <tag k="created_by" v="JOSM"/>
  </way>
  <way id="4328986" version="1" timestamp="2007-08-02T18:02:10Z" uid="8328" user="benpre" changeset="184147">
    <nd ref="26342913"/>
    <nd ref="26342912"/>
    <nd ref="26342911"/>
    <nd ref="26342910"/>
    <nd ref="26342909"/>
    <nd ref="26342908"/>
    <nd ref="26342907"/>
    <nd ref="26342906"/>
    <nd ref="26342905"/>
    <nd ref="26342904"/>
    <nd ref="26342887"/>
    <nd ref="26342872"/>
    <nd ref="26342871"/>
    <nd ref="26342888"/>
    <nd ref="26342889"/>
    <nd ref="26342890"/>
    <nd ref="26342891"/>
    <nd ref="26342892"/>
    <nd ref="26342893"/>
    <nd ref="26342894"/>
    <nd ref="26342895"/>
    <nd ref="26342896"/>
    <nd ref="26342897"/>
    <nd ref="26342898"/>
    <nd ref="26342899"/>
    <nd ref="26342900"/>
    <nd ref="26342901"/>
    <nd ref="26342902"/>
    <nd ref="26342903"/>
    <nd ref="26342822"/>
    <nd ref="26342823"/>
    <nd ref="26342916"/>
    <nd ref="26342915"/>
    <nd ref="26342824"/>
    <nd ref="26342825"/>
    <nd ref="26342914"/>
    <nd ref="26342913"/>
    <tag k="amenity" v="public_building"/>
    <tag k="building" v="yes"/>
    <tag k="created_by" v="JOSM"/>
  </way>
  <way id="4328990" version="4" timestamp="2010-01-31T13:02:21Z" uid="74617" user="JohnSmith" changeset="3758822">
    <nd ref="26338303"/>
    <nd ref="623967513"/>
    <nd ref="623967508"/>
    <nd ref="623967521"/>
    <nd ref="26342928"/>
    <nd ref="26342930"/>
    <nd ref="623967542"/>
    <nd ref="623967543"/>
    <nd ref="623967547"/>
    <nd ref="26341766"/>
    <tag k="railway" v="rail"/>
  </way>
  <way id="4328991" version="5" timestamp="2008-07-05T22:35:22Z" uid="16922" user="amai" changeset="404756">
    <nd ref="2453518"/>
    <nd ref="266559879"/>
    <nd ref="2453519"/>
    <tag k="bridge" v="yes"/>
    <tag k="created_by" v="Potlatch 0.9c"/>
    <tag k="highway" v="secondary"/>
    <tag k="layer" v="1"/>
    <tag k="loc_ref" v="K 128"/>
  </way>
  <way id="4328992" version="3" timestamp="2010-01-31T13:02:21Z" uid="74617" user="JohnSmith" changeset="3758822">
    <nd ref="623967600"/>
    <nd ref="623967610"/>
    <nd ref="26341786"/>
    <nd ref="623967619"/>
    <nd ref="26341729"/>
    <nd ref="623967614"/>
    <nd ref="623967613"/>
    <nd ref="623967611"/>
    <nd ref="623967612"/>
    <nd ref="623967623"/>
    <nd ref="26342931"/>
    <nd ref="26342932"/>
    <nd ref="26342933"/>
    <nd ref="403638248"/>
    <nd ref="26342934"/>
    <nd ref="403638247"/>
    <nd ref="403638246"/>
    <nd ref="26342935"/>
    <nd ref="26342936"/>
    <tag k="railway" v="rail"/>
  </way>
  <way id="4328992" version="4" timestamp="2010-01-31T13:20:13Z" uid="74617" user="JohnSmith" changeset="3758955">
    <nd ref="623967600"/>
    <nd ref="623967610"/>
    <nd ref="623977356"/>
    <nd ref="26341786"/>
    <nd ref="623967619"/>
    <nd ref="26341729"/>
    <nd ref="623967614"/>
    <nd ref="623967613"/>
    <nd ref="623967611"/>
    <nd ref="623967612"/>
    <nd ref="623967623"/>
    <nd ref="26342931"/>
    <nd ref="26342932"/>
    <nd ref="26342933"/>
    <nd ref="403638248"/>
    <nd ref="26342934"/>
    <nd ref="403638247"/>
    <nd ref="403638246"/>
    <nd ref="26342935"/>
    <nd ref="26342936"/>
    <tag k="railway" v="rail"/>
  </way>
  <way id="4328996" version="3" timestamp="2010-07-06T09:47:46Z" uid="74617" user="JohnSmith" changeset="5147679">
    <nd ref="26342952"/>
    <nd ref="26342950"/>
    <tag k="highway" v="residential"/>
    <tag k="maxspeed" v="50"/>
    <tag k="maxspeed:source" v="default residential speed limit in Australia"/>
    <tag k="name" v="Winfred Street"/>
  </way>
  <way id="4328997" version="15" timestamp="2010-07-06T09:51:33Z" uid="74617" user="JohnSmith" changeset="5147679">
    <nd ref="26341755"/>
    <nd ref="200042692"/>
    <nd ref="78014317"/>
    <nd ref="78014319"/>
    <nd ref="204681298"/>
    <nd ref="26341724"/>
    <tag k="highway" v="residential"/>
    <tag k="maxspeed" v="50"/>
    <tag k="maxspeed:source" v="default residential speed limit in Australia"/>
    <tag k="name" v="Norman Parade"/>
  </way>
  <way id="4328997" version="16" timestamp="2010-07-24T05:20:42Z" uid="4467" user="Rosscoe" changeset="5300812">
    <nd ref="78014317"/>
    <nd ref="830903649"/>
    <nd ref="200042692"/>
    <tag k="highway" v="residential"/>
    <tag k="maxspeed" v="50"/>
    <tag k="maxspeed:source" v="default residential speed limit in Australia"/>
    <tag k="name" v="Norman Parade"/>
  </way>
  <way id="4328998" version="16" timestamp="2010-03-20T16:06:47Z" uid="74617" user="JohnSmith" changeset="4181421"/>
  <way id="4328999" version="6" timestamp="2010-07-06T09:52:14Z" uid="74617" user="JohnSmith" changeset="5147679">
    <nd ref="179835701"/>
    <nd ref="26342998"/>
    <tag k="highway" v="residential"/>
    <tag k="maxspeed" v="50"/>
    <tag k="maxspeed:source" v="default residential speed limit in Australia"/>
    <tag k="name" v="Childs Street"/>
  </way>
</osm>
