<?xml version='1.0' encoding='UTF-8'?>
<osm version="0.6" generator="libosmium/2.20.0">
  <way id="43401896" version="1" timestamp="2009-10-30T21:12:52Z" uid="33382" user="de_muur" changeset="2992810">
    <nd ref="546881416"/>
    <nd ref="82662757"/>
    <nd ref="82662760"/>
    <nd ref="82662761"/>
    <nd ref="82662763"/>
    <nd ref="82666353"/>
    <nd ref="244494368"/>
    <nd ref="82666354"/>
    <nd ref="82666356"/>
    <nd ref="82666357"/>
    <nd ref="82666358"/>
    <nd ref="82666363"/>
    <nd ref="82666366"/>
    <nd ref="82666369"/>
    <tag k="fixme" v="Name"/>
    <tag k="highway" v="secondary"/>
    <tag k="name" v="Steller Chaussee; Lüneburger Straße; Gehrdener Deich"/>
    <tag k="old_ref" v="B 4"/>
    <tag k="ref" v="K 86"/>
    <tag k="surface" v="paved"/>
  </way>
  <way id="43401897" version="1" timestamp="2009-10-30T21:12:52Z" uid="33382" user="de_muur" changeset="2992810">
    <nd ref="546881419"/>
    <nd ref="244493905"/>
    <nd ref="244493667"/>
    <nd ref="244492843"/>
    <nd ref="244493668"/>
    <nd ref="244493669"/>
    <nd ref="244492793"/>
    <nd ref="244493670"/>
    <nd ref="244493671"/>
    <nd ref="244494237"/>
    <nd ref="244493672"/>
    <nd ref="409033607"/>
    <nd ref="244493458"/>
    <nd ref="95966308"/>
    <nd ref="95966307"/>
    <nd ref="95966306"/>
    <nd ref="95966305"/>
    <tag k="highway" v="tertiary"/>
    <tag k="name" v="Unter den Linden"/>
    <tag k="ref" v="K 22"/>
    <tag k="surface" v="paved"/>
  </way>
  <way id="43401898" version="1" timestamp="2009-10-30T21:12:52Z" uid="33382" user="de_muur" changeset="2992810">
    <nd ref="82662754"/>
    <nd ref="546881421"/>
    <nd ref="546881419"/>
    <nd ref="546881423"/>
    <nd ref="546881416"/>
    <nd ref="546881426"/>
    <nd ref="244493666"/>
    <nd ref="546881428"/>
    <nd ref="82662754"/>
    <tag k="highway" v="secondary"/>
    <tag k="junction" v="roundabout"/>
    <tag k="name" v="Harburger Straße"/>
    <tag k="old_ref" v="B 4"/>
    <tag k="oneway" v="yes"/>
    <tag k="ref" v="K 86"/>
    <tag k="surface" v="paved"/>
  </way>
  <way id="43401926" version="3" timestamp="2010-10-08T18:49:03Z" uid="9581" user="Lobelt" changeset="5988352">
    <nd ref="495573299"/>
    <nd ref="546884350"/>
    <nd ref="546884354"/>
    <nd ref="546884356"/>
    <tag k="highway" v="service"/>
    <tag k="service" v="alley"/>
    <tag k="surface" v="paved"/>
    <tag k="width" v="2.5"/>
  </way>
</osm>
