<?xml version='1.0' encoding='UTF-8'?>
<osm version="0.6" generator="libosmium/2.20.0">
  <way id="43436056" version="2" timestamp="2010-07-09T08:05:36Z" uid="74617" user="JohnSmith" changeset="5171412">
    <nd ref="547816648"/>
    <nd ref="547816650"/>
    <tag k="highway" v="residential"/>
    <tag k="maxspeed" v="50"/>
    <tag k="maxspeed:source" v="default residential speed limit in Australia"/>
    <tag k="name" v="Islington Street"/>
  </way>
  <way id="43436057" version="2" timestamp="2010-07-08T17:24:18Z" uid="74617" user="JohnSmith" changeset="5167338">
    <nd ref="547816654"/>
    <nd ref="547816656"/>
    <tag k="highway" v="residential"/>
    <tag k="maxspeed" v="50"/>
    <tag k="maxspeed:source" v="default residential speed limit in Australia"/>
    <tag k="name" v="McLaren Court"/>
  </way>
  <way id="43436057" version="3" timestamp="2010-12-30T14:43:26Z" uid="4467" user="Rosscoe" changeset="6810166">
    <nd ref="547816654"/>
    <nd ref="547816656"/>
    <tag k="highway" v="residential"/>
    <tag k="maxspeed" v="50"/>
    <tag k="name" v="McLaren Court"/>
    <tag k="source:maxspeed" v="default residential speed limit in Australia"/>
  </way>
  <way id="43436058" version="2" timestamp="2010-07-08T17:21:53Z" uid="74617" user="JohnSmith" changeset="5167338">
    <nd ref="547816658"/>
    <nd ref="547816660"/>
    <tag k="highway" v="residential"/>
    <tag k="maxspeed" v="50"/>
    <tag k="maxspeed:source" v="default residential speed limit in Australia"/>
    <tag k="name" v="Champagne Court"/>
  </way>
  <way id="43436058" version="3" timestamp="2010-12-30T14:43:18Z" uid="4467" user="Rosscoe" changeset="6810166">
    <nd ref="547816658"/>
    <nd ref="547816660"/>
    <tag k="highway" v="residential"/>
    <tag k="maxspeed" v="50"/>
    <tag k="name" v="Champagne Court"/>
    <tag k="source:maxspeed" v="default residential speed limit in Australia"/>
  </way>
  <way id="43436060" version="2" timestamp="2010-07-08T17:25:06Z" uid="74617" user="JohnSmith" changeset="5167338">
    <nd ref="547816668"/>
    <nd ref="494903464"/>
    <tag k="highway" v="residential"/>
    <tag k="maxspeed" v="50"/>
    <tag k="maxspeed:source" v="default residential speed limit in Australia"/>
    <tag k="name" v="Barossa Court"/>
  </way>
  <way id="43436060" version="3" timestamp="2010-12-30T14:43:21Z" uid="4467" user="Rosscoe" changeset="6810166">
    <nd ref="547816668"/>
    <nd ref="494903464"/>
    <tag k="highway" v="residential"/>
    <tag k="maxspeed" v="50"/>
    <tag k="name" v="Barossa Court"/>
    <tag k="source:maxspeed" v="default residential speed limit in Australia"/>
  </way>
  <way id="43436061" version="2" timestamp="2010-07-08T17:22:35Z" uid="74617" user="JohnSmith" changeset="5167338">
    <nd ref="547816669"/>
    <nd ref="547816670"/>
    <nd ref="547816671"/>
    <nd ref="547816674"/>
    <nd ref="547816675"/>
    <nd ref="547816672"/>
    <nd ref="547816673"/>
    <tag k="highway" v="residential"/>
    <tag k="maxspeed" v="50"/>
    <tag k="maxspeed:source" v="default residential speed limit in Australia"/>
    <tag k="name" v="Tuscan Court"/>
  </way>
  <way id="43436061" version="3" timestamp="2010-12-30T14:43:32Z" uid="4467" user="Rosscoe" changeset="6810166">
    <nd ref="547816669"/>
    <nd ref="547816670"/>
    <nd ref="547816671"/>
    <nd ref="547816674"/>
    <nd ref="547816675"/>
    <nd ref="547816672"/>
    <nd ref="547816673"/>
    <tag k="highway" v="residential"/>
    <tag k="maxspeed" v="50"/>
    <tag k="name" v="Tuscan Court"/>
    <tag k="source:maxspeed" v="default residential speed limit in Australia"/>
  </way>
  <way id="43436063" version="2" timestamp="2010-07-08T17:18:06Z" uid="74617" user="JohnSmith" changeset="5167338">
    <nd ref="547816662"/>
    <nd ref="547816664"/>
    <tag k="highway" v="residential"/>
    <tag k="maxspeed" v="50"/>
    <tag k="maxspeed:source" v="default residential speed limit in Australia"/>
    <tag k="name" v="Moyston Lane"/>
  </way>
  <way id="43436063" version="3" timestamp="2010-12-30T14:43:35Z" uid="4467" user="Rosscoe" changeset="6810166">
    <nd ref="547816662"/>
    <nd ref="547816664"/>
    <tag k="highway" v="residential"/>
    <tag k="maxspeed" v="50"/>
    <tag k="name" v="Moyston Lane"/>
    <tag k="source:maxspeed" v="default residential speed limit in Australia"/>
  </way>
  <way id="43436064" version="2" timestamp="2010-07-08T17:21:21Z" uid="74617" user="JohnSmith" changeset="5167338">
    <nd ref="547816677"/>
    <nd ref="547816664"/>
    <nd ref="547816666"/>
    <tag k="highway" v="residential"/>
    <tag k="maxspeed" v="50"/>
    <tag k="maxspeed:source" v="default residential speed limit in Australia"/>
    <tag k="name" v="Chandon Court"/>
  </way>
  <way id="43436064" version="3" timestamp="2010-12-30T14:43:31Z" uid="4467" user="Rosscoe" changeset="6810166">
    <nd ref="547816677"/>
    <nd ref="547816664"/>
    <nd ref="547816666"/>
    <tag k="highway" v="residential"/>
    <tag k="maxspeed" v="50"/>
    <tag k="name" v="Chandon Court"/>
    <tag k="source:maxspeed" v="default residential speed limit in Australia"/>
  </way>
  <way id="43436295" version="4" timestamp="2010-05-13T23:26:31Z" uid="4467" user="Rosscoe" changeset="4691614">
    <nd ref="542944527"/>
    <nd ref="542944528"/>
    <nd ref="542944524"/>
    <tag k="highway" v="residential"/>
    <tag k="name" v="Banks Street"/>
    <tag k="surface" v="paved"/>
  </way>
  <way id="43436295" version="5" timestamp="2010-07-09T06:08:22Z" uid="74617" user="JohnSmith" changeset="5171128">
    <nd ref="542944527"/>
    <nd ref="542944528"/>
    <nd ref="542944524"/>
    <tag k="highway" v="residential"/>
    <tag k="maxspeed" v="50"/>
    <tag k="maxspeed:source" v="default residential speed limit in Australia"/>
    <tag k="name" v="Banks Street"/>
    <tag k="surface" v="paved"/>
  </way>
  <way id="43436302" version="5" timestamp="2010-05-13T23:26:38Z" uid="4467" user="Rosscoe" changeset="4691614">
    <nd ref="367137740"/>
    <nd ref="367137882"/>
    <nd ref="542944521"/>
    <nd ref="367136282"/>
    <tag k="highway" v="residential"/>
    <tag k="name" v="Ashwell Street"/>
    <tag k="surface" v="paved"/>
  </way>
  <way id="43436302" version="6" timestamp="2010-07-09T06:07:04Z" uid="74617" user="JohnSmith" changeset="5171128">
    <nd ref="367137740"/>
    <nd ref="367137882"/>
    <nd ref="542944521"/>
    <nd ref="367136282"/>
    <tag k="highway" v="residential"/>
    <tag k="maxspeed" v="50"/>
    <tag k="maxspeed:source" v="default residential speed limit in Australia"/>
    <tag k="name" v="Ashwell Street"/>
    <tag k="surface" v="paved"/>
  </way>
  <way id="43436308" version="3" timestamp="2010-05-13T23:26:31Z" uid="4467" user="Rosscoe" changeset="4691614">
    <nd ref="367137751"/>
    <nd ref="542944514"/>
    <nd ref="367137744"/>
    <tag k="highway" v="residential"/>
    <tag k="name" v="Ashford Street"/>
    <tag k="surface" v="paved"/>
  </way>
  <way id="43436308" version="4" timestamp="2010-07-09T06:08:20Z" uid="74617" user="JohnSmith" changeset="5171128">
    <nd ref="367137751"/>
    <nd ref="542944514"/>
    <nd ref="367137744"/>
    <tag k="highway" v="residential"/>
    <tag k="maxspeed" v="50"/>
    <tag k="maxspeed:source" v="default residential speed limit in Australia"/>
    <tag k="name" v="Ashford Street"/>
    <tag k="surface" v="paved"/>
  </way>
  <way id="43436311" version="4" timestamp="2010-05-13T23:27:14Z" uid="4467" user="Rosscoe" changeset="4691614">
    <nd ref="368145960"/>
    <nd ref="542944558"/>
    <nd ref="368124420"/>
    <tag k="highway" v="residential"/>
    <tag k="name" v="Barrass Road"/>
    <tag k="surface" v="unpaved"/>
  </way>
  <way id="43436311" version="5" timestamp="2010-07-09T06:06:27Z" uid="74617" user="JohnSmith" changeset="5171128">
    <nd ref="368145960"/>
    <nd ref="542944558"/>
    <nd ref="368124420"/>
    <tag k="highway" v="residential"/>
    <tag k="maxspeed" v="50"/>
    <tag k="maxspeed:source" v="default residential speed limit in Australia"/>
    <tag k="name" v="Barrass Road"/>
    <tag k="surface" v="unpaved"/>
  </way>
  <way id="43436311" version="6" timestamp="2010-08-14T12:34:20Z" uid="4467" user="Rosscoe" changeset="5490161">
    <nd ref="368145960"/>
    <nd ref="542944558"/>
    <nd ref="368124420"/>
    <tag k="highway" v="residential"/>
    <tag k="maxspeed" v="50"/>
    <tag k="name" v="Barrass Road"/>
    <tag k="source:maxspeed" v="default residential speed limit in Australia"/>
    <tag k="surface" v="unpaved"/>
  </way>
  <way id="43436316" version="5" timestamp="2010-05-13T23:26:50Z" uid="4467" user="Rosscoe" changeset="4691614">
    <nd ref="367136246"/>
    <nd ref="367137609"/>
    <nd ref="367137601"/>
    <nd ref="542951537"/>
    <nd ref="542951523"/>
    <nd ref="542944553"/>
    <nd ref="367137575"/>
    <tag k="highway" v="residential"/>
    <tag k="name" v="Barker Road"/>
    <tag k="surface" v="paved"/>
  </way>
  <way id="43436316" version="6" timestamp="2010-07-09T06:07:36Z" uid="74617" user="JohnSmith" changeset="5171128">
    <nd ref="367136246"/>
    <nd ref="367137609"/>
    <nd ref="367137601"/>
    <nd ref="542951537"/>
    <nd ref="542951523"/>
    <nd ref="542944553"/>
    <nd ref="367137575"/>
    <tag k="highway" v="residential"/>
    <tag k="maxspeed" v="50"/>
    <tag k="maxspeed:source" v="default residential speed limit in Australia"/>
    <tag k="name" v="Barker Road"/>
    <tag k="surface" v="paved"/>
  </way>
  <way id="43436318" version="6" timestamp="2010-05-13T23:27:22Z" uid="4467" user="Rosscoe" changeset="4691614">
    <nd ref="367137869"/>
    <nd ref="542944535"/>
    <nd ref="542944538"/>
    <nd ref="367137860"/>
    <nd ref="542951104"/>
    <nd ref="367137615"/>
    <tag k="highway" v="residential"/>
    <tag k="name" v="Bardley Road"/>
    <tag k="surface" v="paved"/>
  </way>
  <way id="43436318" version="7" timestamp="2010-07-09T06:08:37Z" uid="74617" user="JohnSmith" changeset="5171128">
    <nd ref="367137869"/>
    <nd ref="542944535"/>
    <nd ref="542944538"/>
    <nd ref="367137860"/>
    <nd ref="542951104"/>
    <nd ref="367137615"/>
    <tag k="highway" v="residential"/>
    <tag k="maxspeed" v="50"/>
    <tag k="maxspeed:source" v="default residential speed limit in Australia"/>
    <tag k="name" v="Bardley Road"/>
    <tag k="surface" v="paved"/>
  </way>
  <way id="43436322" version="3" timestamp="2010-05-13T23:27:03Z" uid="4467" user="Rosscoe" changeset="4691614">
    <nd ref="542944526"/>
    <nd ref="542944532"/>
    <nd ref="542944254"/>
    <tag k="highway" v="residential"/>
    <tag k="name" v="Banks Street"/>
    <tag k="surface" v="paved"/>
  </way>
  <way id="43436322" version="4" timestamp="2010-07-09T06:06:53Z" uid="74617" user="JohnSmith" changeset="5171128">
    <nd ref="542944526"/>
    <nd ref="542944532"/>
    <nd ref="542944254"/>
    <tag k="highway" v="residential"/>
    <tag k="maxspeed" v="50"/>
    <tag k="maxspeed:source" v="default residential speed limit in Australia"/>
    <tag k="name" v="Banks Street"/>
    <tag k="surface" v="paved"/>
  </way>
  <way id="43436326" version="4" timestamp="2010-05-13T23:26:25Z" uid="4467" user="Rosscoe" changeset="4691614">
    <nd ref="367137636"/>
    <nd ref="542944588"/>
    <tag k="name" v="Bay Street"/>
  </way>
  <way id="43436326" version="5" timestamp="2010-08-14T12:29:19Z" uid="4467" user="Rosscoe" changeset="5490115">
    <nd ref="542944596"/>
    <nd ref="367137636"/>
    <nd ref="542944588"/>
    <tag k="highway" v="residential"/>
    <tag k="maxspeed" v="50"/>
    <tag k="name" v="Bay Street"/>
    <tag k="source:maxspeed" v="default residential speed limit in Australia"/>
  </way>
  <way id="43436330" version="5" timestamp="2010-05-13T23:25:43Z" uid="4467" user="Rosscoe" changeset="4691614">
    <nd ref="542944582"/>
    <nd ref="542944583"/>
    <nd ref="367137699"/>
    <tag k="highway" v="residential"/>
    <tag k="name" v="Baudin Place"/>
    <tag k="surface" v="paved"/>
  </way>
  <way id="43436330" version="6" timestamp="2010-07-09T06:06:02Z" uid="74617" user="JohnSmith" changeset="5171128">
    <nd ref="542944582"/>
    <nd ref="542944583"/>
    <nd ref="367137699"/>
    <tag k="highway" v="residential"/>
    <tag k="maxspeed" v="50"/>
    <tag k="maxspeed:source" v="default residential speed limit in Australia"/>
    <tag k="name" v="Baudin Place"/>
    <tag k="surface" v="paved"/>
  </way>
  <way id="43436334" version="6" timestamp="2010-05-13T23:26:46Z" uid="4467" user="Rosscoe" changeset="4691614">
    <nd ref="542944573"/>
    <nd ref="542944574"/>
    <nd ref="367137721"/>
    <nd ref="367137940"/>
    <tag k="highway" v="residential"/>
    <tag k="name" v="Bathurst Street"/>
    <tag k="surface" v="paved"/>
  </way>
  <way id="43436334" version="7" timestamp="2010-07-09T06:07:27Z" uid="74617" user="JohnSmith" changeset="5171128">
    <nd ref="542944573"/>
    <nd ref="542944574"/>
    <nd ref="367137721"/>
    <nd ref="367137940"/>
    <tag k="highway" v="residential"/>
    <tag k="maxspeed" v="50"/>
    <tag k="maxspeed:source" v="default residential speed limit in Australia"/>
    <tag k="name" v="Bathurst Street"/>
    <tag k="surface" v="paved"/>
  </way>
  <way id="43436337" version="5" timestamp="2010-05-13T23:25:53Z" uid="4467" user="Rosscoe" changeset="4691614">
    <nd ref="542944565"/>
    <nd ref="542944566"/>
    <nd ref="542944569"/>
    <nd ref="542950657"/>
    <tag k="highway" v="residential"/>
    <tag k="name" v="Barrett Street"/>
    <tag k="surface" v="paved"/>
  </way>
  <way id="43436337" version="6" timestamp="2010-07-09T06:07:55Z" uid="74617" user="JohnSmith" changeset="5171128">
    <nd ref="542944565"/>
    <nd ref="542944566"/>
    <nd ref="542944569"/>
    <nd ref="542950657"/>
    <tag k="highway" v="residential"/>
    <tag k="maxspeed" v="50"/>
    <tag k="maxspeed:source" v="default residential speed limit in Australia"/>
    <tag k="name" v="Barrett Street"/>
    <tag k="surface" v="paved"/>
  </way>
  <way id="43436342" version="5" timestamp="2010-05-13T23:27:09Z" uid="4467" user="Rosscoe" changeset="4691614">
    <nd ref="542951502"/>
    <nd ref="542944608"/>
    <nd ref="542944609"/>
    <nd ref="542944610"/>
    <nd ref="542944614"/>
    <tag k="highway" v="residential"/>
    <tag k="name" v="Bellingham Street"/>
    <tag k="surface" v="paved"/>
  </way>
  <way id="43436342" version="6" timestamp="2010-07-09T06:06:14Z" uid="74617" user="JohnSmith" changeset="5171128">
    <nd ref="542951502"/>
    <nd ref="542944608"/>
    <nd ref="542944609"/>
    <nd ref="542944610"/>
    <nd ref="542944614"/>
    <tag k="highway" v="residential"/>
    <tag k="maxspeed" v="50"/>
    <tag k="maxspeed:source" v="default residential speed limit in Australia"/>
    <tag k="name" v="Bellingham Street"/>
    <tag k="surface" v="paved"/>
  </way>
  <way id="43436347" version="5" timestamp="2010-05-13T23:26:46Z" uid="4467" user="Rosscoe" changeset="4691614">
    <nd ref="542953141"/>
    <nd ref="542944601"/>
    <nd ref="367140450"/>
    <nd ref="542944628"/>
    <tag k="highway" v="residential"/>
    <tag k="name" v="Beauchamp Street"/>
    <tag k="surface" v="paved"/>
  </way>
  <way id="43436347" version="6" timestamp="2010-07-09T06:08:09Z" uid="74617" user="JohnSmith" changeset="5171128">
    <nd ref="542953141"/>
    <nd ref="542944601"/>
    <nd ref="367140450"/>
    <nd ref="542944628"/>
    <tag k="highway" v="residential"/>
    <tag k="maxspeed" v="50"/>
    <tag k="maxspeed:source" v="default residential speed limit in Australia"/>
    <tag k="name" v="Beauchamp Street"/>
    <tag k="surface" v="paved"/>
  </way>
  <way id="43436350" version="5" timestamp="2010-05-13T23:25:51Z" uid="4467" user="Rosscoe" changeset="4691614">
    <nd ref="542944596"/>
    <nd ref="542944597"/>
    <nd ref="367137636"/>
    <tag k="highway" v="residential"/>
    <tag k="name" v="Bay Street"/>
    <tag k="surface" v="paved"/>
  </way>
  <way id="43436350" version="6" timestamp="2010-07-09T06:08:59Z" uid="74617" user="JohnSmith" changeset="5171128">
    <nd ref="542944596"/>
    <nd ref="542944597"/>
    <nd ref="367137636"/>
    <tag k="highway" v="residential"/>
    <tag k="maxspeed" v="50"/>
    <tag k="maxspeed:source" v="default residential speed limit in Australia"/>
    <tag k="name" v="Bay Street"/>
    <tag k="surface" v="paved"/>
  </way>
  <way id="43436350" version="7" timestamp="2010-08-14T12:29:44Z" uid="4467" user="Rosscoe" changeset="5490115"/>
  <way id="43436355" version="5" timestamp="2010-05-13T23:25:48Z" uid="4467" user="Rosscoe" changeset="4691614">
    <nd ref="542944589"/>
    <nd ref="367137639"/>
    <nd ref="367137648"/>
    <tag k="highway" v="residential"/>
    <tag k="name" v="Bay Street"/>
    <tag k="surface" v="paved"/>
  </way>
  <way id="43436355" version="6" timestamp="2010-07-09T06:06:21Z" uid="74617" user="JohnSmith" changeset="5171128">
    <nd ref="542944589"/>
    <nd ref="367137639"/>
    <nd ref="367137648"/>
    <tag k="highway" v="residential"/>
    <tag k="maxspeed" v="50"/>
    <tag k="maxspeed:source" v="default residential speed limit in Australia"/>
    <tag k="name" v="Bay Street"/>
    <tag k="surface" v="paved"/>
  </way>
  <way id="43436355" version="7" timestamp="2010-08-14T12:29:23Z" uid="4467" user="Rosscoe" changeset="5490115">
    <nd ref="542944589"/>
    <nd ref="367137639"/>
    <nd ref="367137648"/>
    <tag k="highway" v="residential"/>
    <tag k="maxspeed" v="50"/>
    <tag k="name" v="Bay Street"/>
    <tag k="source:maxspeed" v="default residential speed limit in Australia"/>
    <tag k="surface" v="paved"/>
  </way>
  <way id="43436359" version="5" timestamp="2010-05-13T23:26:49Z" uid="4467" user="Rosscoe" changeset="4691614">
    <nd ref="542989741"/>
    <nd ref="542944631"/>
    <nd ref="542944632"/>
    <nd ref="542944634"/>
    <nd ref="542944637"/>
    <nd ref="542944638"/>
    <tag k="highway" v="residential"/>
    <tag k="name" v="Bohemia Road"/>
    <tag k="surface" v="paved"/>
  </way>
  <way id="43436359" version="6" timestamp="2010-07-09T06:07:44Z" uid="74617" user="JohnSmith" changeset="5171128">
    <nd ref="542989741"/>
    <nd ref="542944631"/>
    <nd ref="542944632"/>
    <nd ref="542944634"/>
    <nd ref="542944637"/>
    <nd ref="542944638"/>
    <tag k="highway" v="residential"/>
    <tag k="maxspeed" v="50"/>
    <tag k="maxspeed:source" v="default residential speed limit in Australia"/>
    <tag k="name" v="Bohemia Road"/>
    <tag k="surface" v="paved"/>
  </way>
  <way id="43436366" version="6" timestamp="2010-05-13T23:26:55Z" uid="4467" user="Rosscoe" changeset="4691614">
    <nd ref="542944639"/>
    <nd ref="542944640"/>
    <nd ref="542944642"/>
    <nd ref="542944645"/>
    <nd ref="331962847"/>
    <nd ref="367137970"/>
    <nd ref="367137976"/>
    <nd ref="542944657"/>
    <nd ref="542944659"/>
    <nd ref="367137993"/>
    <nd ref="542944709"/>
    <tag k="highway" v="residential"/>
    <tag k="name" v="Bolt Terrace"/>
    <tag k="surface" v="paved"/>
  </way>
  <way id="43436366" version="7" timestamp="2010-07-09T06:06:22Z" uid="74617" user="JohnSmith" changeset="5171128">
    <nd ref="542944639"/>
    <nd ref="542944640"/>
    <nd ref="542944642"/>
    <nd ref="542944645"/>
    <nd ref="331962847"/>
    <nd ref="367137970"/>
    <nd ref="367137976"/>
    <nd ref="542944657"/>
    <nd ref="542944659"/>
    <nd ref="367137993"/>
    <nd ref="542944709"/>
    <tag k="highway" v="residential"/>
    <tag k="maxspeed" v="50"/>
    <tag k="maxspeed:source" v="default residential speed limit in Australia"/>
    <tag k="name" v="Bolt Terrace"/>
    <tag k="surface" v="paved"/>
  </way>
  <way id="43436372" version="5" timestamp="2010-05-13T23:26:48Z" uid="4467" user="Rosscoe" changeset="4691614">
    <nd ref="542953146"/>
    <nd ref="542944616"/>
    <nd ref="367137961"/>
    <nd ref="542944621"/>
    <tag k="highway" v="residential"/>
    <tag k="name" v="Beresford Street"/>
    <tag k="surface" v="paved"/>
  </way>
  <way id="43436372" version="6" timestamp="2010-07-09T06:07:42Z" uid="74617" user="JohnSmith" changeset="5171128">
    <nd ref="542953146"/>
    <nd ref="542944616"/>
    <nd ref="367137961"/>
    <nd ref="542944621"/>
    <tag k="highway" v="residential"/>
    <tag k="maxspeed" v="50"/>
    <tag k="maxspeed:source" v="default residential speed limit in Australia"/>
    <tag k="name" v="Beresford Street"/>
    <tag k="surface" v="paved"/>
  </way>
  <way id="43436377" version="5" timestamp="2010-05-13T23:26:26Z" uid="4467" user="Rosscoe" changeset="4691614">
    <nd ref="367137940"/>
    <nd ref="542944623"/>
    <nd ref="542944625"/>
    <nd ref="542944626"/>
    <nd ref="542944628"/>
    <nd ref="542944629"/>
    <tag k="highway" v="residential"/>
    <tag k="name" v="Bluff Street"/>
    <tag k="surface" v="paved"/>
  </way>
  <way id="43436377" version="6" timestamp="2010-07-09T06:06:03Z" uid="74617" user="JohnSmith" changeset="5171128">
    <nd ref="367137940"/>
    <nd ref="542944623"/>
    <nd ref="542944625"/>
    <nd ref="542944626"/>
    <nd ref="542944628"/>
    <nd ref="542944629"/>
    <tag k="highway" v="residential"/>
    <tag k="maxspeed" v="50"/>
    <tag k="maxspeed:source" v="default residential speed limit in Australia"/>
    <tag k="name" v="Bluff Street"/>
    <tag k="surface" v="paved"/>
  </way>
  <way id="43436384" version="5" timestamp="2010-05-13T23:26:51Z" uid="4467" user="Rosscoe" changeset="4691614">
    <nd ref="542944679"/>
    <nd ref="542944680"/>
    <nd ref="542944686"/>
    <nd ref="542944691"/>
    <nd ref="542944696"/>
    <tag k="highway" v="residential"/>
    <tag k="name" v="Bridges Street"/>
    <tag k="surface" v="paved"/>
  </way>
  <way id="43436384" version="6" timestamp="2010-07-09T06:08:33Z" uid="74617" user="JohnSmith" changeset="5171128">
    <nd ref="542944679"/>
    <nd ref="542944680"/>
    <nd ref="542944686"/>
    <nd ref="542944691"/>
    <nd ref="542944696"/>
    <tag k="highway" v="residential"/>
    <tag k="maxspeed" v="50"/>
    <tag k="maxspeed:source" v="default residential speed limit in Australia"/>
    <tag k="name" v="Bridges Street"/>
    <tag k="surface" v="paved"/>
  </way>
  <way id="43436394" version="5" timestamp="2010-05-13T23:26:07Z" uid="4467" user="Rosscoe" changeset="4691614">
    <nd ref="542944665"/>
    <nd ref="542944666"/>
    <nd ref="542944669"/>
    <nd ref="542944670"/>
    <nd ref="542944673"/>
    <tag k="highway" v="residential"/>
    <tag k="name" v="Boronia Street"/>
    <tag k="surface" v="paved"/>
  </way>
  <way id="43436394" version="6" timestamp="2010-07-09T06:08:50Z" uid="74617" user="JohnSmith" changeset="5171128">
    <nd ref="542944665"/>
    <nd ref="542944666"/>
    <nd ref="542944669"/>
    <nd ref="542944670"/>
    <nd ref="542944673"/>
    <tag k="highway" v="residential"/>
    <tag k="maxspeed" v="50"/>
    <tag k="maxspeed:source" v="default residential speed limit in Australia"/>
    <tag k="name" v="Boronia Street"/>
    <tag k="surface" v="paved"/>
  </way>
  <way id="43436400" version="4" timestamp="2010-05-13T23:25:56Z" uid="4467" user="Rosscoe" changeset="4691614">
    <nd ref="542944521"/>
    <nd ref="542944675"/>
    <nd ref="542944676"/>
    <tag k="highway" v="residential"/>
    <tag k="name" v="Bourke Street"/>
    <tag k="surface" v="paved"/>
  </way>
  <way id="43436400" version="5" timestamp="2010-07-09T06:06:38Z" uid="74617" user="JohnSmith" changeset="5171128">
    <nd ref="542944521"/>
    <nd ref="542944675"/>
    <nd ref="542944676"/>
    <tag k="highway" v="residential"/>
    <tag k="maxspeed" v="50"/>
    <tag k="maxspeed:source" v="default residential speed limit in Australia"/>
    <tag k="name" v="Bourke Street"/>
    <tag k="surface" v="paved"/>
  </way>
  <way id="43436405" version="4" timestamp="2010-05-13T23:27:14Z" uid="4467" user="Rosscoe" changeset="4691614">
    <nd ref="542944720"/>
    <nd ref="542944721"/>
    <nd ref="542944723"/>
    <tag k="highway" v="residential"/>
    <tag k="name" v="Bryson Street"/>
    <tag k="surface" v="paved"/>
  </way>
  <way id="43436405" version="5" timestamp="2010-07-09T06:08:32Z" uid="74617" user="JohnSmith" changeset="5171128">
    <nd ref="542944720"/>
    <nd ref="542944721"/>
    <nd ref="542944723"/>
    <tag k="highway" v="residential"/>
    <tag k="maxspeed" v="50"/>
    <tag k="maxspeed:source" v="default residential speed limit in Australia"/>
    <tag k="name" v="Bryson Street"/>
    <tag k="surface" v="paved"/>
  </way>
  <way id="43436409" version="5" timestamp="2010-05-13T23:26:37Z" uid="4467" user="Rosscoe" changeset="4691614">
    <nd ref="542944723"/>
    <nd ref="542944724"/>
    <nd ref="542944726"/>
    <nd ref="542944728"/>
    <tag k="highway" v="residential"/>
    <tag k="name" v="Bryson Street"/>
    <tag k="surface" v="unpaved"/>
  </way>
  <way id="43436409" version="6" timestamp="2010-07-09T06:06:24Z" uid="74617" user="JohnSmith" changeset="5171128">
    <nd ref="542944723"/>
    <nd ref="542944724"/>
    <nd ref="542944726"/>
    <nd ref="542944728"/>
    <tag k="highway" v="residential"/>
    <tag k="maxspeed" v="50"/>
    <tag k="maxspeed:source" v="default residential speed limit in Australia"/>
    <tag k="name" v="Bryson Street"/>
    <tag k="surface" v="unpaved"/>
  </way>
  <way id="43436418" version="4" timestamp="2010-05-13T23:25:53Z" uid="4467" user="Rosscoe" changeset="4691614">
    <nd ref="542944697"/>
    <nd ref="542944699"/>
    <tag k="highway" v="residential"/>
    <tag k="name" v="Bridges Street"/>
    <tag k="surface" v="paved"/>
  </way>
  <way id="43436418" version="5" timestamp="2010-07-09T06:07:54Z" uid="74617" user="JohnSmith" changeset="5171128">
    <nd ref="542944697"/>
    <nd ref="542944699"/>
    <tag k="highway" v="residential"/>
    <tag k="maxspeed" v="50"/>
    <tag k="maxspeed:source" v="default residential speed limit in Australia"/>
    <tag k="name" v="Bridges Street"/>
    <tag k="surface" v="paved"/>
  </way>
  <way id="43436424" version="5" timestamp="2010-05-13T23:27:24Z" uid="4467" user="Rosscoe" changeset="4691614">
    <nd ref="542944699"/>
    <nd ref="542944700"/>
    <nd ref="367138839"/>
    <nd ref="542944709"/>
    <nd ref="367142380"/>
    <nd ref="542952392"/>
    <tag k="highway" v="residential"/>
    <tag k="name" v="Brunswick Road"/>
    <tag k="surface" v="paved"/>
  </way>
  <way id="43436424" version="6" timestamp="2010-07-09T06:05:59Z" uid="74617" user="JohnSmith" changeset="5171128">
    <nd ref="542944699"/>
    <nd ref="542944700"/>
    <nd ref="367138839"/>
    <nd ref="542944709"/>
    <nd ref="367142380"/>
    <nd ref="542952392"/>
    <tag k="highway" v="residential"/>
    <tag k="maxspeed" v="50"/>
    <tag k="maxspeed:source" v="default residential speed limit in Australia"/>
    <tag k="name" v="Brunswick Road"/>
    <tag k="surface" v="paved"/>
  </way>
  <way id="43436431" version="5" timestamp="2010-05-13T23:25:51Z" uid="4467" user="Rosscoe" changeset="4691614">
    <nd ref="542952796"/>
    <nd ref="542944770"/>
    <nd ref="542944777"/>
    <nd ref="542944781"/>
    <tag k="highway" v="residential"/>
    <tag k="name" v="Burt Street"/>
    <tag k="surface" v="paved"/>
  </way>
  <way id="43436431" version="6" timestamp="2010-07-09T06:08:58Z" uid="74617" user="JohnSmith" changeset="5171128">
    <nd ref="542952796"/>
    <nd ref="542944770"/>
    <nd ref="542944777"/>
    <nd ref="542944781"/>
    <tag k="highway" v="residential"/>
    <tag k="maxspeed" v="50"/>
    <tag k="maxspeed:source" v="default residential speed limit in Australia"/>
    <tag k="name" v="Burt Street"/>
    <tag k="surface" v="paved"/>
  </way>
  <way id="43436437" version="5" timestamp="2010-05-13T23:27:23Z" uid="4467" user="Rosscoe" changeset="4691614">
    <nd ref="542944783"/>
    <nd ref="542951872"/>
    <nd ref="542944786"/>
    <nd ref="542944790"/>
    <nd ref="542944794"/>
    <tag k="highway" v="residential"/>
    <tag k="name" v="Burt Street"/>
    <tag k="surface" v="paved"/>
  </way>
  <way id="43436437" version="6" timestamp="2010-07-09T06:06:47Z" uid="74617" user="JohnSmith" changeset="5171128">
    <nd ref="542944783"/>
    <nd ref="542951872"/>
    <nd ref="542944786"/>
    <nd ref="542944790"/>
    <nd ref="542944794"/>
    <tag k="highway" v="residential"/>
    <tag k="maxspeed" v="50"/>
    <tag k="maxspeed:source" v="default residential speed limit in Australia"/>
    <tag k="name" v="Burt Street"/>
    <tag k="surface" v="paved"/>
  </way>
  <way id="43436443" version="5" timestamp="2010-05-13T23:27:15Z" uid="4467" user="Rosscoe" changeset="4691614">
    <nd ref="542944679"/>
    <nd ref="542944730"/>
    <nd ref="542944736"/>
    <nd ref="542944922"/>
    <nd ref="542944998"/>
    <nd ref="542944752"/>
    <nd ref="542952907"/>
    <nd ref="542944764"/>
    <tag k="highway" v="residential"/>
    <tag k="name" v="Burgoyne Road"/>
    <tag k="surface" v="paved"/>
  </way>
  <way id="43436443" version="6" timestamp="2010-07-09T06:05:35Z" uid="74617" user="JohnSmith" changeset="5171128">
    <nd ref="542944679"/>
    <nd ref="542944730"/>
    <nd ref="542944736"/>
    <nd ref="542944922"/>
    <nd ref="542944998"/>
    <nd ref="542944752"/>
    <nd ref="542952907"/>
    <nd ref="542944764"/>
    <tag k="highway" v="residential"/>
    <tag k="maxspeed" v="50"/>
    <tag k="maxspeed:source" v="default residential speed limit in Australia"/>
    <tag k="name" v="Burgoyne Road"/>
    <tag k="surface" v="paved"/>
  </way>
  <way id="43436450" version="5" timestamp="2010-05-13T23:26:03Z" uid="4467" user="Rosscoe" changeset="4691614">
    <nd ref="542951517"/>
    <nd ref="542951504"/>
    <tag k="highway" v="trunk_link"/>
    <tag k="name" v="Albany Highway"/>
    <tag k="surface" v="paved"/>
  </way>
  <way id="43436450" version="6" timestamp="2010-05-14T00:13:24Z" uid="4467" user="Rosscoe" changeset="4691796"/>
  <way id="43436453" version="4" timestamp="2010-05-13T23:26:48Z" uid="4467" user="Rosscoe" changeset="4691614">
    <nd ref="367136247"/>
    <nd ref="367136457"/>
    <tag k="highway" v="trunk_link"/>
    <tag k="name" v="Albany Highway"/>
    <tag k="surface" v="paved"/>
  </way>
  <way id="43436453" version="5" timestamp="2010-05-14T00:13:25Z" uid="4467" user="Rosscoe" changeset="4691796"/>
  <way id="43436455" version="4" timestamp="2010-05-13T23:27:18Z" uid="4467" user="Rosscoe" changeset="4691614">
    <nd ref="542944173"/>
    <nd ref="542944133"/>
    <tag k="highway" v="trunk_link"/>
    <tag k="name" v="Albany Highway"/>
    <tag k="surface" v="paved"/>
  </way>
  <way id="43436455" version="5" timestamp="2010-05-14T00:13:25Z" uid="4467" user="Rosscoe" changeset="4691796"/>
  <way id="43436459" version="5" timestamp="2010-05-13T23:26:41Z" uid="4467" user="Rosscoe" changeset="4691614">
    <nd ref="542944137"/>
    <nd ref="542944175"/>
    <tag k="highway" v="trunk_link"/>
    <tag k="name" v="Albany Highway"/>
    <tag k="surface" v="paved"/>
  </way>
  <way id="43436459" version="6" timestamp="2010-05-14T00:13:19Z" uid="4467" user="Rosscoe" changeset="4691796">
    <nd ref="542946872"/>
    <nd ref="542946892"/>
    <nd ref="542946301"/>
    <nd ref="542946305"/>
    <nd ref="542944137"/>
    <nd ref="542944175"/>
    <tag k="highway" v="residential"/>
    <tag k="name" v="Lion Street"/>
    <tag k="surface" v="paved"/>
  </way>
  <way id="43436459" version="7" timestamp="2010-07-09T06:08:01Z" uid="74617" user="JohnSmith" changeset="5171128">
    <nd ref="542946872"/>
    <nd ref="542946892"/>
    <nd ref="542946301"/>
    <nd ref="542946305"/>
    <nd ref="542944137"/>
    <nd ref="542944175"/>
    <tag k="highway" v="residential"/>
    <tag k="maxspeed" v="50"/>
    <tag k="maxspeed:source" v="default residential speed limit in Australia"/>
    <tag k="name" v="Lion Street"/>
    <tag k="surface" v="paved"/>
  </way>
  <way id="43436463" version="5" timestamp="2010-05-13T23:26:02Z" uid="4467" user="Rosscoe" changeset="4691614">
    <nd ref="542974430"/>
    <nd ref="542944220"/>
    <tag k="highway" v="trunk_link"/>
    <tag k="name" v="Albany Highway"/>
    <tag k="surface" v="paved"/>
  </way>
  <way id="43436463" version="6" timestamp="2010-05-14T00:13:09Z" uid="4467" user="Rosscoe" changeset="4691796">
    <nd ref="542974430"/>
    <nd ref="542944220"/>
    <tag k="highway" v="trunk"/>
    <tag k="surface" v="paved"/>
  </way>
  <way id="43436466" version="6" timestamp="2010-05-13T23:26:47Z" uid="4467" user="Rosscoe" changeset="4691614">
    <nd ref="542950666"/>
    <nd ref="542944216"/>
    <tag k="highway" v="trunk_link"/>
    <tag k="name" v="Albany Highway"/>
    <tag k="oneway" v="yes"/>
    <tag k="surface" v="paved"/>
  </way>
  <way id="43436466" version="7" timestamp="2010-05-14T00:13:25Z" uid="4467" user="Rosscoe" changeset="4691796"/>
  <way id="43436480" version="4" timestamp="2010-05-13T23:27:21Z" uid="4467" user="Rosscoe" changeset="4691614">
    <nd ref="367136580"/>
    <nd ref="542944240"/>
    <nd ref="367136594"/>
    <tag k="highway" v="residential"/>
    <tag k="name" v="Aberdeen Street"/>
    <tag k="surface" v="paved"/>
  </way>
  <way id="43436480" version="5" timestamp="2010-05-14T00:13:23Z" uid="4467" user="Rosscoe" changeset="4691796">
    <nd ref="367136580"/>
    <nd ref="367136594"/>
    <tag k="highway" v="residential"/>
    <tag k="name" v="Aberdeen Street"/>
    <tag k="surface" v="paved"/>
  </way>
  <way id="43436480" version="6" timestamp="2010-07-09T06:06:07Z" uid="74617" user="JohnSmith" changeset="5171128">
    <nd ref="367136580"/>
    <nd ref="367136594"/>
    <tag k="highway" v="residential"/>
    <tag k="maxspeed" v="50"/>
    <tag k="maxspeed:source" v="default residential speed limit in Australia"/>
    <tag k="name" v="Aberdeen Street"/>
    <tag k="surface" v="paved"/>
  </way>
  <way id="43436483" version="5" timestamp="2010-05-13T23:26:29Z" uid="4467" user="Rosscoe" changeset="4691614">
    <nd ref="367136577"/>
    <nd ref="542944233"/>
    <nd ref="542944234"/>
    <nd ref="367136542"/>
    <nd ref="367136585"/>
    <tag k="highway" v="residential"/>
    <tag k="name" v="Aberdeen Street"/>
    <tag k="surface" v="paved"/>
  </way>
  <way id="43436483" version="6" timestamp="2010-05-14T00:13:15Z" uid="4467" user="Rosscoe" changeset="4691796">
    <nd ref="367136577"/>
    <nd ref="542944234"/>
    <nd ref="367136542"/>
    <nd ref="367136585"/>
    <tag k="highway" v="residential"/>
    <tag k="name" v="Aberdeen Street"/>
    <tag k="surface" v="paved"/>
  </way>
  <way id="43436483" version="7" timestamp="2010-07-09T06:07:47Z" uid="74617" user="JohnSmith" changeset="5171128">
    <nd ref="367136577"/>
    <nd ref="542944234"/>
    <nd ref="367136542"/>
    <nd ref="367136585"/>
    <tag k="highway" v="residential"/>
    <tag k="maxspeed" v="50"/>
    <tag k="maxspeed:source" v="default residential speed limit in Australia"/>
    <tag k="name" v="Aberdeen Street"/>
    <tag k="surface" v="paved"/>
  </way>
  <way id="43436486" version="3" timestamp="2010-05-13T23:27:14Z" uid="4467" user="Rosscoe" changeset="4691614">
    <nd ref="542944247"/>
    <nd ref="542944248"/>
    <tag k="highway" v="residential"/>
    <tag k="name" v="Adams Place"/>
    <tag k="surface" v="paved"/>
  </way>
  <way id="43436486" version="4" timestamp="2010-07-09T06:08:31Z" uid="74617" user="JohnSmith" changeset="5171128">
    <nd ref="542944247"/>
    <nd ref="542944248"/>
    <tag k="highway" v="residential"/>
    <tag k="maxspeed" v="50"/>
    <tag k="maxspeed:source" v="default residential speed limit in Australia"/>
    <tag k="name" v="Adams Place"/>
    <tag k="surface" v="paved"/>
  </way>
  <way id="43436489" version="3" timestamp="2010-05-13T23:26:21Z" uid="4467" user="Rosscoe" changeset="4691614">
    <nd ref="542944229"/>
    <nd ref="542944245"/>
    <nd ref="367136523"/>
    <tag k="highway" v="residential"/>
    <tag k="name" v="Aberdeen Street"/>
    <tag k="surface" v="paved"/>
  </way>
  <way id="43436489" version="4" timestamp="2010-07-09T06:05:47Z" uid="74617" user="JohnSmith" changeset="5171128">
    <nd ref="542944229"/>
    <nd ref="542944245"/>
    <nd ref="367136523"/>
    <tag k="highway" v="residential"/>
    <tag k="maxspeed" v="50"/>
    <tag k="maxspeed:source" v="default residential speed limit in Australia"/>
    <tag k="name" v="Aberdeen Street"/>
    <tag k="surface" v="paved"/>
  </way>
  <way id="43436495" version="4" timestamp="2010-05-13T23:26:14Z" uid="4467" user="Rosscoe" changeset="4691614">
    <nd ref="542944252"/>
    <nd ref="542944253"/>
    <nd ref="542944254"/>
    <nd ref="542944255"/>
    <nd ref="542944256"/>
    <nd ref="542944258"/>
    <nd ref="542944259"/>
    <nd ref="542988188"/>
    <tag k="highway" v="residential"/>
    <tag k="name" v="Admiral Street"/>
    <tag k="surface" v="paved"/>
  </way>
  <way id="43436495" version="5" timestamp="2010-07-09T06:08:16Z" uid="74617" user="JohnSmith" changeset="5171128">
    <nd ref="542944252"/>
    <nd ref="542944253"/>
    <nd ref="542944254"/>
    <nd ref="542944255"/>
    <nd ref="542944256"/>
    <nd ref="542944258"/>
    <nd ref="542944259"/>
    <nd ref="542988188"/>
    <tag k="highway" v="residential"/>
    <tag k="maxspeed" v="50"/>
    <tag k="maxspeed:source" v="default residential speed limit in Australia"/>
    <tag k="name" v="Admiral Street"/>
    <tag k="surface" v="paved"/>
  </way>
  <way id="43436498" version="3" timestamp="2010-05-13T23:26:56Z" uid="4467" user="Rosscoe" changeset="4691614">
    <nd ref="542944249"/>
    <nd ref="367136672"/>
    <tag k="highway" v="residential"/>
    <tag k="name" v="Adelaide Place"/>
    <tag k="surface" v="paved"/>
  </way>
  <way id="43436498" version="4" timestamp="2010-07-09T06:08:44Z" uid="74617" user="JohnSmith" changeset="5171128">
    <nd ref="542944249"/>
    <nd ref="367136672"/>
    <tag k="highway" v="residential"/>
    <tag k="maxspeed" v="50"/>
    <tag k="maxspeed:source" v="default residential speed limit in Australia"/>
    <tag k="name" v="Adelaide Place"/>
    <tag k="surface" v="paved"/>
  </way>
  <way id="43436503" version="3" timestamp="2010-05-13T23:26:36Z" uid="4467" user="Rosscoe" changeset="4691614">
    <nd ref="367136636"/>
    <nd ref="542944262"/>
    <nd ref="367136648"/>
    <tag k="highway" v="residential"/>
    <tag k="name" v="Albert Street"/>
    <tag k="surface" v="paved"/>
  </way>
  <way id="43436503" version="4" timestamp="2010-07-09T06:07:13Z" uid="74617" user="JohnSmith" changeset="5171128">
    <nd ref="367136636"/>
    <nd ref="542944262"/>
    <nd ref="367136648"/>
    <tag k="highway" v="residential"/>
    <tag k="maxspeed" v="50"/>
    <tag k="maxspeed:source" v="default residential speed limit in Australia"/>
    <tag k="name" v="Albert Street"/>
    <tag k="surface" v="paved"/>
  </way>
  <way id="43436506" version="5" timestamp="2010-05-13T23:27:19Z" uid="4467" user="Rosscoe" changeset="4691614">
    <nd ref="542944264"/>
    <nd ref="542944265"/>
    <nd ref="367136614"/>
    <tag k="highway" v="residential"/>
    <tag k="name" v="Aldex Street"/>
    <tag k="surface" v="paved"/>
  </way>
  <way id="43436506" version="6" timestamp="2010-07-09T06:08:02Z" uid="74617" user="JohnSmith" changeset="5171128">
    <nd ref="542944264"/>
    <nd ref="542944265"/>
    <nd ref="367136614"/>
    <tag k="highway" v="residential"/>
    <tag k="maxspeed" v="50"/>
    <tag k="maxspeed:source" v="default residential speed limit in Australia"/>
    <tag k="name" v="Aldex Street"/>
    <tag k="surface" v="paved"/>
  </way>
  <way id="43436513" version="5" timestamp="2010-05-13T23:26:09Z" uid="4467" user="Rosscoe" changeset="4691614">
    <nd ref="542944271"/>
    <nd ref="542944272"/>
    <nd ref="542944275"/>
    <tag k="highway" v="residential"/>
    <tag k="name" v="Alexander Street"/>
    <tag k="surface" v="paved"/>
  </way>
  <way id="43436513" version="6" timestamp="2010-07-09T06:07:01Z" uid="74617" user="JohnSmith" changeset="5171128">
    <nd ref="542944271"/>
    <nd ref="542944272"/>
    <nd ref="542944275"/>
    <tag k="highway" v="residential"/>
    <tag k="maxspeed" v="50"/>
    <tag k="maxspeed:source" v="default residential speed limit in Australia"/>
    <tag k="name" v="Alexander Street"/>
    <tag k="surface" v="paved"/>
  </way>
  <way id="43436517" version="4" timestamp="2010-05-13T23:27:09Z" uid="4467" user="Rosscoe" changeset="4691614">
    <nd ref="367136145"/>
    <nd ref="542944277"/>
    <nd ref="367137152"/>
    <tag k="highway" v="residential"/>
    <tag k="name" v="Alicia Street"/>
    <tag k="surface" v="paved"/>
  </way>
  <way id="43436517" version="5" timestamp="2010-07-09T06:08:19Z" uid="74617" user="JohnSmith" changeset="5171128">
    <nd ref="367136145"/>
    <nd ref="542944277"/>
    <nd ref="367137152"/>
    <tag k="highway" v="residential"/>
    <tag k="maxspeed" v="50"/>
    <tag k="maxspeed:source" v="default residential speed limit in Australia"/>
    <tag k="name" v="Alicia Street"/>
    <tag k="surface" v="paved"/>
  </way>
  <way id="43436517" version="6" timestamp="2010-08-14T12:28:41Z" uid="4467" user="Rosscoe" changeset="5490115">
    <nd ref="367136145"/>
    <nd ref="542944277"/>
    <nd ref="367137152"/>
    <tag k="highway" v="residential"/>
    <tag k="maxspeed" v="50"/>
    <tag k="name" v="Alicia Street"/>
    <tag k="source:maxspeed" v="default residential speed limit in Australia"/>
    <tag k="surface" v="paved"/>
  </way>
  <way id="43436521" version="5" timestamp="2010-05-13T23:26:31Z" uid="4467" user="Rosscoe" changeset="4691614">
    <nd ref="368131028"/>
    <nd ref="542944286"/>
    <nd ref="367137095"/>
    <nd ref="542944297"/>
    <nd ref="367137173"/>
    <nd ref="378013560"/>
    <tag k="highway" v="residential"/>
    <tag k="name" v="Amity Quays"/>
    <tag k="surface" v="paved"/>
  </way>
  <way id="43436521" version="6" timestamp="2010-07-09T06:06:11Z" uid="74617" user="JohnSmith" changeset="5171128">
    <nd ref="368131028"/>
    <nd ref="542944286"/>
    <nd ref="367137095"/>
    <nd ref="542944297"/>
    <nd ref="367137173"/>
    <nd ref="378013560"/>
    <tag k="highway" v="residential"/>
    <tag k="maxspeed" v="50"/>
    <tag k="maxspeed:source" v="default residential speed limit in Australia"/>
    <tag k="name" v="Amity Quays"/>
    <tag k="surface" v="paved"/>
  </way>
  <way id="43436521" version="7" timestamp="2010-08-14T12:28:37Z" uid="4467" user="Rosscoe" changeset="5490115">
    <nd ref="368131028"/>
    <nd ref="542944286"/>
    <nd ref="367137095"/>
    <nd ref="542944297"/>
    <nd ref="367137173"/>
    <nd ref="378013560"/>
    <tag k="highway" v="residential"/>
    <tag k="maxspeed" v="50"/>
    <tag k="name" v="Amity Quays"/>
    <tag k="source:maxspeed" v="default residential speed limit in Australia"/>
    <tag k="surface" v="paved"/>
  </way>
  <way id="43436526" version="4" timestamp="2010-05-13T23:26:08Z" uid="4467" user="Rosscoe" changeset="4691614">
    <nd ref="367137161"/>
    <nd ref="542944308"/>
    <nd ref="542944313"/>
    <nd ref="367137095"/>
    <tag k="highway" v="residential"/>
    <tag k="name" v="Amity Quays"/>
    <tag k="surface" v="paved"/>
  </way>
  <way id="43436526" version="5" timestamp="2010-07-09T06:08:07Z" uid="74617" user="JohnSmith" changeset="5171128">
    <nd ref="367137161"/>
    <nd ref="542944308"/>
    <nd ref="542944313"/>
    <nd ref="367137095"/>
    <tag k="highway" v="residential"/>
    <tag k="maxspeed" v="50"/>
    <tag k="maxspeed:source" v="default residential speed limit in Australia"/>
    <tag k="name" v="Amity Quays"/>
    <tag k="surface" v="paved"/>
  </way>
  <way id="43436526" version="6" timestamp="2010-08-14T12:28:43Z" uid="4467" user="Rosscoe" changeset="5490115">
    <nd ref="367137161"/>
    <nd ref="542944308"/>
    <nd ref="542944313"/>
    <nd ref="367137095"/>
    <tag k="highway" v="residential"/>
    <tag k="maxspeed" v="50"/>
    <tag k="name" v="Amity Quays"/>
    <tag k="source:maxspeed" v="default residential speed limit in Australia"/>
    <tag k="surface" v="paved"/>
  </way>
  <way id="43436532" version="4" timestamp="2010-05-13T23:25:57Z" uid="4467" user="Rosscoe" changeset="4691614">
    <nd ref="367137208"/>
    <nd ref="367137187"/>
    <nd ref="367137161"/>
    <nd ref="542944343"/>
    <tag k="highway" v="residential"/>
    <tag k="name" v="Amity Quays"/>
    <tag k="surface" v="paved"/>
  </way>
  <way id="43436532" version="5" timestamp="2010-07-09T06:05:50Z" uid="74617" user="JohnSmith" changeset="5171128">
    <nd ref="367137208"/>
    <nd ref="367137187"/>
    <nd ref="367137161"/>
    <nd ref="542944343"/>
    <tag k="highway" v="residential"/>
    <tag k="maxspeed" v="50"/>
    <tag k="maxspeed:source" v="default residential speed limit in Australia"/>
    <tag k="name" v="Amity Quays"/>
    <tag k="surface" v="paved"/>
  </way>
  <way id="43436532" version="6" timestamp="2010-08-14T12:28:58Z" uid="4467" user="Rosscoe" changeset="5490115">
    <nd ref="367137208"/>
    <nd ref="367137187"/>
    <nd ref="367137161"/>
    <nd ref="542944343"/>
    <tag k="highway" v="residential"/>
    <tag k="maxspeed" v="50"/>
    <tag k="name" v="Amity Quays"/>
    <tag k="source:maxspeed" v="default residential speed limit in Australia"/>
    <tag k="surface" v="paved"/>
  </way>
  <way id="43436536" version="5" timestamp="2010-05-13T23:26:58Z" uid="4467" user="Rosscoe" changeset="4691614">
    <nd ref="542953145"/>
    <nd ref="542944345"/>
    <nd ref="367137216"/>
    <tag k="highway" v="residential"/>
    <tag k="name" v="Anderson Place"/>
    <tag k="surface" v="paved"/>
  </way>
  <way id="43436536" version="6" timestamp="2010-07-09T06:07:19Z" uid="74617" user="JohnSmith" changeset="5171128">
    <nd ref="542953145"/>
    <nd ref="542944345"/>
    <nd ref="367137216"/>
    <tag k="highway" v="residential"/>
    <tag k="maxspeed" v="50"/>
    <tag k="maxspeed:source" v="default residential speed limit in Australia"/>
    <tag k="name" v="Anderson Place"/>
    <tag k="surface" v="paved"/>
  </way>
  <way id="43436547" version="5" timestamp="2010-05-13T23:26:47Z" uid="4467" user="Rosscoe" changeset="4691614">
    <nd ref="367137021"/>
    <nd ref="542944355"/>
    <nd ref="542951692"/>
    <nd ref="367137000"/>
    <nd ref="367136975"/>
    <tag k="highway" v="residential"/>
    <tag k="name" v="Angove Road"/>
    <tag k="surface" v="paved"/>
  </way>
  <way id="43436547" version="6" timestamp="2010-07-09T06:05:40Z" uid="74617" user="JohnSmith" changeset="5171128">
    <nd ref="367137021"/>
    <nd ref="542944355"/>
    <nd ref="542951692"/>
    <nd ref="367137000"/>
    <nd ref="367136975"/>
    <tag k="highway" v="residential"/>
    <tag k="maxspeed" v="50"/>
    <tag k="maxspeed:source" v="default residential speed limit in Australia"/>
    <tag k="name" v="Angove Road"/>
    <tag k="surface" v="paved"/>
  </way>
  <way id="43436555" version="6" timestamp="2010-05-13T23:27:11Z" uid="4467" user="Rosscoe" changeset="4691614">
    <nd ref="367136921"/>
    <nd ref="542944371"/>
    <nd ref="367136958"/>
    <nd ref="542944375"/>
    <nd ref="367137073"/>
    <nd ref="367137057"/>
    <nd ref="367137053"/>
    <tag k="highway" v="secondary"/>
    <tag k="name" v="Angove Road"/>
    <tag k="surface" v="paved"/>
  </way>
  <way id="43436562" version="4" timestamp="2010-05-13T23:27:17Z" uid="4467" user="Rosscoe" changeset="4691614">
    <nd ref="367137037"/>
    <nd ref="542944385"/>
    <nd ref="367136271"/>
    <tag k="highway" v="residential"/>
    <tag k="name" v="Angus Street"/>
    <tag k="surface" v="paved"/>
  </way>
  <way id="43436562" version="5" timestamp="2010-07-09T06:06:50Z" uid="74617" user="JohnSmith" changeset="5171128">
    <nd ref="367137037"/>
    <nd ref="542944385"/>
    <nd ref="367136271"/>
    <tag k="highway" v="residential"/>
    <tag k="maxspeed" v="50"/>
    <tag k="maxspeed:source" v="default residential speed limit in Australia"/>
    <tag k="name" v="Angus Street"/>
    <tag k="surface" v="paved"/>
  </way>
  <way id="43436567" version="5" timestamp="2010-05-13T23:26:53Z" uid="4467" user="Rosscoe" changeset="4691614">
    <nd ref="542944389"/>
    <nd ref="542944390"/>
    <nd ref="542944393"/>
    <nd ref="367137461"/>
    <nd ref="542944402"/>
    <nd ref="367137527"/>
    <nd ref="367137539"/>
    <tag k="highway" v="residential"/>
    <tag k="name" v="Anuaka Road"/>
    <tag k="surface" v="paved"/>
  </way>
  <way id="43436567" version="6" timestamp="2010-07-09T06:08:41Z" uid="74617" user="JohnSmith" changeset="5171128">
    <nd ref="542944389"/>
    <nd ref="542944390"/>
    <nd ref="542944393"/>
    <nd ref="367137461"/>
    <nd ref="542944402"/>
    <nd ref="367137527"/>
    <nd ref="367137539"/>
    <tag k="highway" v="residential"/>
    <tag k="maxspeed" v="50"/>
    <tag k="maxspeed:source" v="default residential speed limit in Australia"/>
    <tag k="name" v="Anuaka Road"/>
    <tag k="surface" v="paved"/>
  </way>
  <way id="43436570" version="8" timestamp="2010-05-13T23:25:59Z" uid="4467" user="Rosscoe" changeset="4691614">
    <nd ref="542952361"/>
    <nd ref="542944420"/>
    <nd ref="367137281"/>
    <nd ref="367137268"/>
    <nd ref="367137271"/>
    <nd ref="367137299"/>
    <nd ref="367137340"/>
    <nd ref="367137371"/>
    <nd ref="367137400"/>
    <nd ref="367137385"/>
    <nd ref="367137425"/>
    <nd ref="367137819"/>
    <nd ref="367137410"/>
    <nd ref="367137449"/>
    <nd ref="367137444"/>
    <nd ref="367137439"/>
    <nd ref="367137433"/>
    <nd ref="367137819"/>
    <tag k="highway" v="residential"/>
    <tag k="name" v="Apex Drive"/>
    <tag k="surface" v="paved"/>
  </way>
  <way id="43436570" version="9" timestamp="2010-07-09T06:05:59Z" uid="74617" user="JohnSmith" changeset="5171128">
    <nd ref="542952361"/>
    <nd ref="542944420"/>
    <nd ref="367137281"/>
    <nd ref="367137268"/>
    <nd ref="367137271"/>
    <nd ref="367137299"/>
    <nd ref="367137340"/>
    <nd ref="367137371"/>
    <nd ref="367137400"/>
    <nd ref="367137385"/>
    <nd ref="367137425"/>
    <nd ref="367137819"/>
    <nd ref="367137410"/>
    <nd ref="367137449"/>
    <nd ref="367137444"/>
    <nd ref="367137439"/>
    <nd ref="367137433"/>
    <nd ref="367137819"/>
    <tag k="highway" v="residential"/>
    <tag k="maxspeed" v="50"/>
    <tag k="maxspeed:source" v="default residential speed limit in Australia"/>
    <tag k="name" v="Apex Drive"/>
    <tag k="surface" v="paved"/>
  </way>
  <way id="43436578" version="6" timestamp="2010-05-13T23:26:42Z" uid="4467" user="Rosscoe" changeset="4691614">
    <nd ref="542944502"/>
    <nd ref="542944500"/>
    <nd ref="542944499"/>
    <nd ref="542944495"/>
    <tag k="highway" v="residential"/>
    <tag k="name" v="Ardeana Cresent"/>
    <tag k="surface" v="paved"/>
  </way>
  <way id="43436578" version="7" timestamp="2010-07-09T06:09:05Z" uid="74617" user="JohnSmith" changeset="5171128">
    <nd ref="542944502"/>
    <nd ref="542944500"/>
    <nd ref="542944499"/>
    <nd ref="542944495"/>
    <tag k="highway" v="residential"/>
    <tag k="maxspeed" v="50"/>
    <tag k="maxspeed:source" v="default residential speed limit in Australia"/>
    <tag k="name" v="Ardeana Cresent"/>
    <tag k="surface" v="paved"/>
  </way>
  <way id="43436582" version="6" timestamp="2010-05-13T23:26:04Z" uid="4467" user="Rosscoe" changeset="4691614">
    <nd ref="542989749"/>
    <nd ref="542944504"/>
    <nd ref="542944508"/>
    <nd ref="542944502"/>
    <tag k="highway" v="residential"/>
    <tag k="name" v="Ardeana Cresent"/>
    <tag k="surface" v="paved"/>
  </way>
  <way id="43436582" version="7" timestamp="2010-07-09T06:06:57Z" uid="74617" user="JohnSmith" changeset="5171128">
    <nd ref="542989749"/>
    <nd ref="542944504"/>
    <nd ref="542944508"/>
    <nd ref="542944502"/>
    <tag k="highway" v="residential"/>
    <tag k="maxspeed" v="50"/>
    <tag k="maxspeed:source" v="default residential speed limit in Australia"/>
    <tag k="name" v="Ardeana Cresent"/>
    <tag k="surface" v="paved"/>
  </way>
  <way id="43436591" version="3" timestamp="2010-05-13T23:26:41Z" uid="4467" user="Rosscoe" changeset="4691614">
    <nd ref="542943747"/>
    <nd ref="542943748"/>
    <tag k="highway" v="residential"/>
    <tag k="name" v="Bouer Street"/>
    <tag k="surface" v="unpaved"/>
  </way>
  <way id="43436672" version="4" timestamp="2010-05-13T23:26:41Z" uid="4467" user="Rosscoe" changeset="4691614">
    <nd ref="542944038"/>
    <nd ref="542944040"/>
    <tag k="highway" v="residential"/>
    <tag k="name" v="Windsor Road"/>
    <tag k="surface" v="unpaved"/>
  </way>
  <way id="43436679" version="4" timestamp="2010-05-13T23:26:48Z" uid="4467" user="Rosscoe" changeset="4691614">
    <nd ref="542930278"/>
    <nd ref="542944054"/>
    <nd ref="542944037"/>
    <nd ref="542944038"/>
    <tag k="highway" v="residential"/>
    <tag k="name" v="Windsor Road"/>
    <tag k="surface" v="paved"/>
  </way>
  <way id="43436702" version="5" timestamp="2010-05-13T23:26:00Z" uid="4467" user="Rosscoe" changeset="4691614">
    <nd ref="542930279"/>
    <nd ref="542943770"/>
    <nd ref="542943755"/>
    <nd ref="542943773"/>
    <nd ref="542943747"/>
    <nd ref="542943779"/>
    <nd ref="542943783"/>
    <nd ref="542944037"/>
    <tag k="highway" v="residential"/>
    <tag k="name" v="Steedman Street"/>
    <tag k="surface" v="unpaved"/>
  </way>
  <way id="43436707" version="5" timestamp="2010-05-13T23:15:17Z" uid="4467" user="Rosscoe" changeset="4691581">
    <nd ref="542907447"/>
    <nd ref="542943759"/>
    <nd ref="542943760"/>
    <nd ref="542944051"/>
    <nd ref="542943764"/>
    <nd ref="542943765"/>
    <nd ref="542907451"/>
    <tag k="highway" v="primary"/>
    <tag k="surface" v="paved"/>
  </way>
  <way id="43436715" version="3" timestamp="2010-05-13T23:26:20Z" uid="4467" user="Rosscoe" changeset="4691614">
    <nd ref="542907446"/>
    <nd ref="542930278"/>
    <tag k="highway" v="residential"/>
    <tag k="name" v="Sandalwood Road"/>
    <tag k="surface" v="paved"/>
  </way>
  <way id="43436722" version="3" timestamp="2010-05-13T23:26:28Z" uid="4467" user="Rosscoe" changeset="4691614">
    <nd ref="542943753"/>
    <nd ref="542943754"/>
    <nd ref="542943755"/>
    <tag k="highway" v="residential"/>
    <tag k="name" v="Lehman Avenue"/>
    <tag k="surface" v="unpaved"/>
  </way>
  <way id="43436744" version="5" timestamp="2010-05-13T23:15:17Z" uid="4467" user="Rosscoe" changeset="4691581">
    <nd ref="542944051"/>
    <nd ref="542944054"/>
    <tag k="highway" v="residential"/>
    <tag k="myid" v="107575"/>
    <tag k="name" v="Baxter Road"/>
    <tag k="surface" v="paved"/>
  </way>
  <way id="43436744" version="6" timestamp="2010-05-13T23:27:22Z" uid="4467" user="Rosscoe" changeset="4691614">
    <nd ref="542944051"/>
    <nd ref="542944054"/>
    <tag k="highway" v="residential"/>
    <tag k="name" v="Baxter Road"/>
    <tag k="surface" v="paved"/>
  </way>
  <way id="43436757" version="3" timestamp="2010-05-13T23:27:21Z" uid="4467" user="Rosscoe" changeset="4691614">
    <nd ref="542907452"/>
    <nd ref="542944038"/>
    <tag k="highway" v="residential"/>
    <tag k="name" v="Wilf Road"/>
    <tag k="surface" v="paved"/>
  </way>
  <way id="43436761" version="7" timestamp="2010-05-13T23:26:43Z" uid="4467" user="Rosscoe" changeset="4691614">
    <nd ref="542944205"/>
    <nd ref="542944204"/>
    <nd ref="542944207"/>
    <nd ref="367136457"/>
    <nd ref="542944196"/>
    <nd ref="542944192"/>
    <nd ref="367136280"/>
    <nd ref="367136282"/>
    <nd ref="542951517"/>
    <nd ref="367136271"/>
    <nd ref="545617986"/>
    <nd ref="542944176"/>
    <nd ref="542944175"/>
    <nd ref="542944174"/>
    <nd ref="542944173"/>
    <nd ref="542944170"/>
    <nd ref="542952094"/>
    <tag k="highway" v="trunk"/>
    <tag k="name" v="Albany Highway"/>
    <tag k="oneway" v="yes"/>
    <tag k="ref" v="30"/>
    <tag k="surface" v="paved"/>
  </way>
  <way id="43436767" version="5" timestamp="2010-05-13T23:26:37Z" uid="4467" user="Rosscoe" changeset="4691614">
    <nd ref="367136241"/>
    <nd ref="542944207"/>
    <tag k="highway" v="trunk_link"/>
    <tag k="name" v="Albany Highway"/>
    <tag k="surface" v="paved"/>
  </way>
  <way id="43436767" version="6" timestamp="2010-05-14T00:13:16Z" uid="4467" user="Rosscoe" changeset="4691796">
    <nd ref="367136241"/>
    <nd ref="542944207"/>
    <nd ref="542946603"/>
    <nd ref="367148790"/>
    <tag k="highway" v="residential"/>
    <tag k="name" v="Meyers Way"/>
    <tag k="surface" v="paved"/>
  </way>
  <way id="43436767" version="7" timestamp="2010-07-09T06:08:34Z" uid="74617" user="JohnSmith" changeset="5171128">
    <nd ref="367136241"/>
    <nd ref="542944207"/>
    <nd ref="542946603"/>
    <nd ref="367148790"/>
    <tag k="highway" v="residential"/>
    <tag k="maxspeed" v="50"/>
    <tag k="maxspeed:source" v="default residential speed limit in Australia"/>
    <tag k="name" v="Meyers Way"/>
    <tag k="surface" v="paved"/>
  </way>
  <way id="43436770" version="4" timestamp="2010-05-13T23:26:02Z" uid="4467" user="Rosscoe" changeset="4691614">
    <nd ref="367136194"/>
    <nd ref="367136193"/>
    <tag k="highway" v="trunk_link"/>
    <tag k="name" v="Albany Highway"/>
    <tag k="surface" v="paved"/>
  </way>
  <way id="43436774" version="8" timestamp="2010-05-13T23:27:02Z" uid="4467" user="Rosscoe" changeset="4691614">
    <nd ref="172822302"/>
    <nd ref="542944126"/>
    <nd ref="542944130"/>
    <nd ref="542944133"/>
    <nd ref="542944137"/>
    <nd ref="542951504"/>
    <nd ref="367136231"/>
    <nd ref="367136246"/>
    <nd ref="367136247"/>
    <nd ref="367136241"/>
    <nd ref="542944164"/>
    <tag k="highway" v="trunk"/>
    <tag k="name" v="Albany Highway"/>
    <tag k="oneway" v="yes"/>
    <tag k="ref" v="30"/>
    <tag k="surface" v="paved"/>
  </way>
  <way id="43436778" version="4" timestamp="2010-05-13T23:26:24Z" uid="4467" user="Rosscoe" changeset="4691614">
    <nd ref="367136180"/>
    <nd ref="367136189"/>
    <tag k="highway" v="trunk_link"/>
    <tag k="name" v="Albany Highway"/>
    <tag k="surface" v="paved"/>
  </way>
  <way id="43436778" version="5" timestamp="2010-05-14T00:13:14Z" uid="4467" user="Rosscoe" changeset="4691796">
    <nd ref="367136180"/>
    <nd ref="367136189"/>
    <tag k="highway" v="trunk_link"/>
    <tag k="surface" v="paved"/>
  </way>
  <way id="43436780" version="5" timestamp="2010-05-13T23:26:53Z" uid="4467" user="Rosscoe" changeset="4691614">
    <nd ref="542944120"/>
    <nd ref="367136187"/>
    <tag k="highway" v="trunk_link"/>
    <tag k="name" v="Albany Highway"/>
    <tag k="surface" v="paved"/>
  </way>
  <way id="43436780" version="6" timestamp="2010-05-14T00:13:19Z" uid="4467" user="Rosscoe" changeset="4691796">
    <nd ref="542945120"/>
    <nd ref="542945121"/>
    <nd ref="542944120"/>
    <nd ref="367136187"/>
    <tag k="highway" v="residential"/>
    <tag k="name" v="Elizabeth Street"/>
    <tag k="surface" v="paved"/>
  </way>
  <way id="43436780" version="7" timestamp="2010-07-09T06:05:39Z" uid="74617" user="JohnSmith" changeset="5171128">
    <nd ref="542945120"/>
    <nd ref="542945121"/>
    <nd ref="542944120"/>
    <nd ref="367136187"/>
    <tag k="highway" v="residential"/>
    <tag k="maxspeed" v="50"/>
    <tag k="maxspeed:source" v="default residential speed limit in Australia"/>
    <tag k="name" v="Elizabeth Street"/>
    <tag k="surface" v="paved"/>
  </way>
  <way id="43436780" version="8" timestamp="2010-08-14T12:29:04Z" uid="4467" user="Rosscoe" changeset="5490115">
    <nd ref="542945120"/>
    <nd ref="542945121"/>
    <nd ref="542944120"/>
    <nd ref="367136187"/>
    <tag k="highway" v="residential"/>
    <tag k="maxspeed" v="50"/>
    <tag k="name" v="Elizabeth Street"/>
    <tag k="source:maxspeed" v="default residential speed limit in Australia"/>
    <tag k="surface" v="paved"/>
  </way>
  <way id="43436783" version="9" timestamp="2010-05-13T23:26:00Z" uid="4467" user="Rosscoe" changeset="4691614">
    <nd ref="364875386"/>
    <nd ref="542944098"/>
    <nd ref="367136152"/>
    <nd ref="542944091"/>
    <nd ref="367136189"/>
    <nd ref="542944120"/>
    <nd ref="367136145"/>
    <nd ref="367136142"/>
    <nd ref="367136194"/>
    <nd ref="542944082"/>
    <nd ref="542944075"/>
    <tag k="highway" v="trunk"/>
    <tag k="name" v="Albany Highway"/>
    <tag k="oneway" v="yes"/>
    <tag k="ref" v="30"/>
    <tag k="surface" v="paved"/>
  </way>
  <way id="43436787" version="8" timestamp="2010-05-13T23:27:00Z" uid="4467" user="Rosscoe" changeset="4691614">
    <nd ref="542944100"/>
    <nd ref="542944101"/>
    <nd ref="367136193"/>
    <nd ref="367136187"/>
    <nd ref="640454141"/>
    <nd ref="367136180"/>
    <nd ref="367136186"/>
    <nd ref="542944116"/>
    <tag k="highway" v="trunk"/>
    <tag k="name" v="Albany Highway"/>
    <tag k="oneway" v="yes"/>
    <tag k="ref" v="30"/>
    <tag k="surface" v="paved"/>
  </way>
  <way id="43436832" version="4" timestamp="2011-01-15T13:56:16Z" uid="4467" user="Rosscoe" changeset="6977163">
    <nd ref="542940186"/>
    <nd ref="542940187"/>
    <nd ref="542940188"/>
    <nd ref="542940189"/>
    <nd ref="542940190"/>
    <nd ref="542940191"/>
    <nd ref="542940192"/>
    <tag k="highway" v="residential"/>
    <tag k="name" v="Migo Place"/>
    <tag k="surface" v="unpaved"/>
  </way>
  <way id="43436846" version="4" timestamp="2011-01-15T13:56:15Z" uid="4467" user="Rosscoe" changeset="6977163">
    <nd ref="542939950"/>
    <nd ref="542939951"/>
    <nd ref="542939952"/>
    <nd ref="542939953"/>
    <nd ref="542939954"/>
    <nd ref="542939955"/>
    <nd ref="542939956"/>
    <nd ref="542939957"/>
    <nd ref="542939958"/>
    <nd ref="542939959"/>
    <nd ref="542939960"/>
    <nd ref="542939961"/>
    <nd ref="542939962"/>
    <nd ref="542939963"/>
    <nd ref="542939964"/>
    <nd ref="542939965"/>
    <nd ref="542940186"/>
    <tag k="highway" v="residential"/>
    <tag k="name" v="Forsyth Glade"/>
    <tag k="surface" v="unpaved"/>
  </way>
  <way id="43436850" version="3" timestamp="2010-04-04T01:35:15Z" uid="20587" user="balrog-kun" changeset="4318136">
    <nd ref="55746001"/>
    <nd ref="547824432"/>
    <nd ref="276850685"/>
    <nd ref="276850686"/>
    <nd ref="55746003"/>
    <nd ref="55746004"/>
    <tag k="highway" v="tertiary"/>
    <tag k="name" v="Vincent Drive"/>
    <tag k="tiger:cfcc" v="A41"/>
    <tag k="tiger:county" v="El Paso, CO"/>
    <tag k="tiger:name_base" v="Vincent"/>
    <tag k="tiger:name_type" v="Dr"/>
    <tag k="tiger:reviewed" v="no"/>
    <tag k="tiger:separated" v="no"/>
    <tag k="tiger:source" v="tiger_import_dch_v0.6_20070809"/>
    <tag k="tiger:tlid" v="105509577:105509546:105509551:105509554:105526880"/>
    <tag k="tiger:zip_left" v="80918"/>
    <tag k="tiger:zip_right" v="80918"/>
  </way>
  <way id="43436873" version="6" timestamp="2010-08-13T13:55:48Z" uid="4467" user="Rosscoe" changeset="5482260">
    <nd ref="542941187"/>
    <nd ref="542941176"/>
    <nd ref="542941207"/>
    <nd ref="542941211"/>
    <nd ref="542941241"/>
    <nd ref="542941228"/>
    <nd ref="542941230"/>
    <tag k="highway" v="residential"/>
    <tag k="name" v="Yaralla Road"/>
    <tag k="surface" v="unpaved"/>
  </way>
  <way id="43436879" version="2" timestamp="2010-04-04T01:35:15Z" uid="20587" user="balrog-kun" changeset="4318136">
    <nd ref="547824857"/>
    <nd ref="55746001"/>
    <tag k="bridge" v="yes"/>
    <tag k="highway" v="residential"/>
    <tag k="name" v="Vincent Drive"/>
    <tag k="tiger:cfcc" v="A41"/>
    <tag k="tiger:county" v="El Paso, CO"/>
    <tag k="tiger:name_base" v="Vincent"/>
    <tag k="tiger:name_type" v="Dr"/>
    <tag k="tiger:reviewed" v="no"/>
    <tag k="tiger:separated" v="no"/>
    <tag k="tiger:source" v="tiger_import_dch_v0.6_20070809"/>
    <tag k="tiger:tlid" v="105509577:105509546:105509551:105509554:105526880"/>
    <tag k="tiger:zip_left" v="80918"/>
    <tag k="tiger:zip_right" v="80918"/>
  </way>
</osm>
