<?xml version='1.0' encoding='UTF-8'?>
<osm version="0.6" generator="libosmium/2.20.0">
  <way id="43437074" version="8" timestamp="2010-08-13T13:55:41Z" uid="4467" user="Rosscoe" changeset="5482260">
    <nd ref="542940861"/>
    <nd ref="542940871"/>
    <nd ref="542940880"/>
    <nd ref="542940888"/>
    <nd ref="542940892"/>
    <nd ref="542940901"/>
    <nd ref="542940904"/>
    <nd ref="542940913"/>
    <nd ref="542940916"/>
    <nd ref="542940922"/>
    <nd ref="542940943"/>
    <nd ref="542940948"/>
    <nd ref="542940950"/>
    <nd ref="542940953"/>
    <nd ref="542940957"/>
    <nd ref="542940960"/>
    <nd ref="542940961"/>
    <nd ref="542940977"/>
    <nd ref="542940991"/>
    <nd ref="542940995"/>
    <nd ref="542940998"/>
    <nd ref="542941143"/>
    <nd ref="542941139"/>
    <nd ref="542941132"/>
    <nd ref="542941128"/>
    <nd ref="542941125"/>
    <nd ref="542941122"/>
    <nd ref="542941118"/>
    <nd ref="545625801"/>
    <nd ref="542941107"/>
    <nd ref="542941105"/>
    <nd ref="542941103"/>
    <nd ref="542941099"/>
    <nd ref="542941095"/>
    <nd ref="542941090"/>
    <nd ref="542941087"/>
    <nd ref="542941080"/>
    <nd ref="362059275"/>
    <tag k="highway" v="residential"/>
    <tag k="name" v="Woogenellup Road North"/>
    <tag k="surface" v="unpaved"/>
  </way>
  <way id="43437137" version="6" timestamp="2010-05-13T23:26:40Z" uid="4467" user="Rosscoe" changeset="4691614">
    <nd ref="367148013"/>
    <nd ref="367148014"/>
    <nd ref="367148015"/>
    <nd ref="367148021"/>
    <nd ref="542946352"/>
    <nd ref="367148034"/>
    <nd ref="542944953"/>
    <nd ref="542946363"/>
    <tag k="highway" v="residential"/>
    <tag k="name" v="Lockyer Avenue"/>
    <tag k="surface" v="paved"/>
  </way>
  <way id="43437137" version="7" timestamp="2010-07-09T06:07:05Z" uid="74617" user="JohnSmith" changeset="5171128">
    <nd ref="367148013"/>
    <nd ref="367148014"/>
    <nd ref="367148015"/>
    <nd ref="367148021"/>
    <nd ref="542946352"/>
    <nd ref="367148034"/>
    <nd ref="542944953"/>
    <nd ref="542946363"/>
    <tag k="highway" v="residential"/>
    <tag k="maxspeed" v="50"/>
    <tag k="maxspeed:source" v="default residential speed limit in Australia"/>
    <tag k="name" v="Lockyer Avenue"/>
    <tag k="surface" v="paved"/>
  </way>
  <way id="43437143" version="6" timestamp="2010-05-13T23:26:32Z" uid="4467" user="Rosscoe" changeset="4691614">
    <nd ref="542946389"/>
    <nd ref="542946390"/>
    <nd ref="542946407"/>
    <nd ref="542944275"/>
    <nd ref="542946406"/>
    <nd ref="367147962"/>
    <tag k="highway" v="residential"/>
    <tag k="name" v="Lockyer Avenue"/>
    <tag k="surface" v="paved"/>
  </way>
  <way id="43437143" version="7" timestamp="2010-07-09T06:05:58Z" uid="74617" user="JohnSmith" changeset="5171128">
    <nd ref="542946389"/>
    <nd ref="542946390"/>
    <nd ref="542946407"/>
    <nd ref="542944275"/>
    <nd ref="542946406"/>
    <nd ref="367147962"/>
    <tag k="highway" v="residential"/>
    <tag k="maxspeed" v="50"/>
    <tag k="maxspeed:source" v="default residential speed limit in Australia"/>
    <tag k="name" v="Lockyer Avenue"/>
    <tag k="surface" v="paved"/>
  </way>
  <way id="43437145" version="7" timestamp="2010-05-13T23:27:01Z" uid="4467" user="Rosscoe" changeset="4691614">
    <nd ref="542946388"/>
    <nd ref="542946387"/>
    <nd ref="542946384"/>
    <nd ref="542946405"/>
    <nd ref="545618115"/>
    <nd ref="367147968"/>
    <tag k="highway" v="residential"/>
    <tag k="name" v="Lockyer Avenue"/>
    <tag k="surface" v="paved"/>
  </way>
  <way id="43437145" version="8" timestamp="2010-07-09T06:06:15Z" uid="74617" user="JohnSmith" changeset="5171128">
    <nd ref="542946388"/>
    <nd ref="542946387"/>
    <nd ref="542946384"/>
    <nd ref="542946405"/>
    <nd ref="545618115"/>
    <nd ref="367147968"/>
    <tag k="highway" v="residential"/>
    <tag k="maxspeed" v="50"/>
    <tag k="maxspeed:source" v="default residential speed limit in Australia"/>
    <tag k="name" v="Lockyer Avenue"/>
    <tag k="surface" v="paved"/>
  </way>
  <way id="43437149" version="4" timestamp="2010-05-13T23:26:24Z" uid="4467" user="Rosscoe" changeset="4691614">
    <nd ref="542946407"/>
    <nd ref="542946408"/>
    <nd ref="545618115"/>
    <tag k="highway" v="residential"/>
    <tag k="name" v="Lockyer Avenue"/>
    <tag k="surface" v="paved"/>
  </way>
  <way id="43437149" version="5" timestamp="2010-05-14T00:13:13Z" uid="4467" user="Rosscoe" changeset="4691796">
    <nd ref="542946407"/>
    <nd ref="545618115"/>
    <tag k="highway" v="residential"/>
    <tag k="name" v="Lockyer Avenue"/>
    <tag k="surface" v="paved"/>
  </way>
  <way id="43437149" version="6" timestamp="2010-07-09T06:07:40Z" uid="74617" user="JohnSmith" changeset="5171128">
    <nd ref="542946407"/>
    <nd ref="545618115"/>
    <tag k="highway" v="residential"/>
    <tag k="maxspeed" v="50"/>
    <tag k="maxspeed:source" v="default residential speed limit in Australia"/>
    <tag k="name" v="Lockyer Avenue"/>
    <tag k="surface" v="paved"/>
  </way>
  <way id="43437153" version="4" timestamp="2010-05-13T23:26:05Z" uid="4467" user="Rosscoe" changeset="4691614">
    <nd ref="542946405"/>
    <nd ref="542946406"/>
    <tag k="highway" v="residential"/>
    <tag k="name" v="Lockyer Avenue"/>
    <tag k="surface" v="paved"/>
  </way>
  <way id="43437153" version="5" timestamp="2010-07-09T06:05:47Z" uid="74617" user="JohnSmith" changeset="5171128">
    <nd ref="542946405"/>
    <nd ref="542946406"/>
    <tag k="highway" v="residential"/>
    <tag k="maxspeed" v="50"/>
    <tag k="maxspeed:source" v="default residential speed limit in Australia"/>
    <tag k="name" v="Lockyer Avenue"/>
    <tag k="surface" v="paved"/>
  </way>
  <way id="43437156" version="5" timestamp="2010-05-13T23:26:49Z" uid="4467" user="Rosscoe" changeset="4691614">
    <nd ref="542946416"/>
    <nd ref="542946417"/>
    <nd ref="367147916"/>
    <nd ref="542946426"/>
    <tag k="highway" v="residential"/>
    <tag k="name" v="Lockyer Avenue"/>
    <tag k="surface" v="paved"/>
  </way>
  <way id="43437156" version="6" timestamp="2010-07-09T06:06:39Z" uid="74617" user="JohnSmith" changeset="5171128">
    <nd ref="542946416"/>
    <nd ref="542946417"/>
    <nd ref="367147916"/>
    <nd ref="542946426"/>
    <tag k="highway" v="residential"/>
    <tag k="maxspeed" v="50"/>
    <tag k="maxspeed:source" v="default residential speed limit in Australia"/>
    <tag k="name" v="Lockyer Avenue"/>
    <tag k="surface" v="paved"/>
  </way>
  <way id="43437156" version="7" timestamp="2010-08-14T12:28:53Z" uid="4467" user="Rosscoe" changeset="5490115">
    <nd ref="542946416"/>
    <nd ref="542946417"/>
    <nd ref="367147916"/>
    <nd ref="542946426"/>
    <tag k="highway" v="residential"/>
    <tag k="maxspeed" v="50"/>
    <tag k="name" v="Lockyer Avenue"/>
    <tag k="source:maxspeed" v="default residential speed limit in Australia"/>
    <tag k="surface" v="paved"/>
  </way>
  <way id="43437159" version="5" timestamp="2010-05-13T23:25:55Z" uid="4467" user="Rosscoe" changeset="4691614">
    <nd ref="580304749"/>
    <nd ref="542946411"/>
    <nd ref="367147916"/>
    <tag k="highway" v="residential"/>
    <tag k="name" v="Lockyer Avenue"/>
    <tag k="surface" v="paved"/>
  </way>
  <way id="43437159" version="6" timestamp="2010-07-09T06:08:15Z" uid="74617" user="JohnSmith" changeset="5171128">
    <nd ref="580304749"/>
    <nd ref="542946411"/>
    <nd ref="367147916"/>
    <tag k="highway" v="residential"/>
    <tag k="maxspeed" v="50"/>
    <tag k="maxspeed:source" v="default residential speed limit in Australia"/>
    <tag k="name" v="Lockyer Avenue"/>
    <tag k="surface" v="paved"/>
  </way>
  <way id="43437159" version="7" timestamp="2010-08-14T12:29:38Z" uid="4467" user="Rosscoe" changeset="5490115">
    <nd ref="580304749"/>
    <nd ref="542946411"/>
    <nd ref="367147916"/>
    <tag k="highway" v="residential"/>
    <tag k="maxspeed" v="50"/>
    <tag k="name" v="Lockyer Avenue"/>
    <tag k="source:maxspeed" v="default residential speed limit in Australia"/>
    <tag k="surface" v="paved"/>
  </way>
  <way id="43437162" version="5" timestamp="2010-05-13T23:26:42Z" uid="4467" user="Rosscoe" changeset="4691614">
    <nd ref="542946313"/>
    <nd ref="542950897"/>
    <nd ref="542950842"/>
    <nd ref="542946317"/>
    <nd ref="542988172"/>
    <tag k="highway" v="residential"/>
    <tag k="name" v="Little Oxford Street"/>
    <tag k="surface" v="paved"/>
  </way>
  <way id="43437162" version="6" timestamp="2010-07-09T06:09:06Z" uid="74617" user="JohnSmith" changeset="5171128">
    <nd ref="542946313"/>
    <nd ref="542950897"/>
    <nd ref="542950842"/>
    <nd ref="542946317"/>
    <nd ref="542988172"/>
    <tag k="highway" v="residential"/>
    <tag k="maxspeed" v="50"/>
    <tag k="maxspeed:source" v="default residential speed limit in Australia"/>
    <tag k="name" v="Little Oxford Street"/>
    <tag k="surface" v="paved"/>
  </way>
  <way id="43437166" version="4" timestamp="2010-05-13T23:26:03Z" uid="4467" user="Rosscoe" changeset="4691614">
    <nd ref="542944175"/>
    <nd ref="542946481"/>
    <nd ref="542946311"/>
    <nd ref="542946312"/>
    <tag k="highway" v="residential"/>
    <tag k="name" v="Lion Street"/>
    <tag k="surface" v="paved"/>
  </way>
  <way id="43437166" version="5" timestamp="2010-07-09T06:06:58Z" uid="74617" user="JohnSmith" changeset="5171128">
    <nd ref="542944175"/>
    <nd ref="542946481"/>
    <nd ref="542946311"/>
    <nd ref="542946312"/>
    <tag k="highway" v="residential"/>
    <tag k="maxspeed" v="50"/>
    <tag k="maxspeed:source" v="default residential speed limit in Australia"/>
    <tag k="name" v="Lion Street"/>
    <tag k="surface" v="paved"/>
  </way>
  <way id="43437173" version="4" timestamp="2010-05-13T23:26:12Z" uid="4467" user="Rosscoe" changeset="4691614">
    <nd ref="542946320"/>
    <nd ref="542946327"/>
    <nd ref="545617052"/>
    <nd ref="542946331"/>
    <tag k="highway" v="residential"/>
    <tag k="name" v="Little Oxford Street"/>
    <tag k="surface" v="unpaved"/>
  </way>
  <way id="43437173" version="5" timestamp="2010-07-09T06:08:45Z" uid="74617" user="JohnSmith" changeset="5171128">
    <nd ref="542946320"/>
    <nd ref="542946327"/>
    <nd ref="545617052"/>
    <nd ref="542946331"/>
    <tag k="highway" v="residential"/>
    <tag k="maxspeed" v="50"/>
    <tag k="maxspeed:source" v="default residential speed limit in Australia"/>
    <tag k="name" v="Little Oxford Street"/>
    <tag k="surface" v="unpaved"/>
  </way>
  <way id="43437192" version="4" timestamp="2010-05-13T23:26:21Z" uid="4467" user="Rosscoe" changeset="4691614">
    <nd ref="542944869"/>
    <nd ref="367148379"/>
    <tag k="highway" v="residential"/>
    <tag k="name" v="Knight Street"/>
    <tag k="surface" v="paved"/>
  </way>
  <way id="43437192" version="5" timestamp="2010-07-09T06:06:12Z" uid="74617" user="JohnSmith" changeset="5171128">
    <nd ref="542944869"/>
    <nd ref="367148379"/>
    <tag k="highway" v="residential"/>
    <tag k="maxspeed" v="50"/>
    <tag k="maxspeed:source" v="default residential speed limit in Australia"/>
    <tag k="name" v="Knight Street"/>
    <tag k="surface" v="paved"/>
  </way>
  <way id="43437196" version="3" timestamp="2010-05-13T23:27:21Z" uid="4467" user="Rosscoe" changeset="4691614">
    <nd ref="367148410"/>
    <nd ref="367148801"/>
    <nd ref="367148417"/>
    <tag k="highway" v="residential"/>
    <tag k="name" v="Knight Street"/>
    <tag k="surface" v="unpaved"/>
  </way>
  <way id="43437196" version="4" timestamp="2010-07-09T06:07:38Z" uid="74617" user="JohnSmith" changeset="5171128">
    <nd ref="367148410"/>
    <nd ref="367148801"/>
    <nd ref="367148417"/>
    <tag k="highway" v="residential"/>
    <tag k="maxspeed" v="50"/>
    <tag k="maxspeed:source" v="default residential speed limit in Australia"/>
    <tag k="name" v="Knight Street"/>
    <tag k="surface" v="unpaved"/>
  </way>
  <way id="43437200" version="5" timestamp="2010-05-13T23:26:43Z" uid="4467" user="Rosscoe" changeset="4691614">
    <nd ref="542944527"/>
    <nd ref="542946257"/>
    <nd ref="542946259"/>
    <nd ref="542951485"/>
    <nd ref="542946592"/>
    <nd ref="542946266"/>
    <nd ref="542946286"/>
    <tag k="highway" v="residential"/>
    <tag k="name" v="Lambert Street"/>
    <tag k="surface" v="paved"/>
  </way>
  <way id="43437200" version="6" timestamp="2010-07-09T06:08:35Z" uid="74617" user="JohnSmith" changeset="5171128">
    <nd ref="542944527"/>
    <nd ref="542946257"/>
    <nd ref="542946259"/>
    <nd ref="542951485"/>
    <nd ref="542946592"/>
    <nd ref="542946266"/>
    <nd ref="542946286"/>
    <tag k="highway" v="residential"/>
    <tag k="maxspeed" v="50"/>
    <tag k="maxspeed:source" v="default residential speed limit in Australia"/>
    <tag k="name" v="Lambert Street"/>
    <tag k="surface" v="paved"/>
  </way>
  <way id="43437204" version="5" timestamp="2010-05-13T23:26:06Z" uid="4467" user="Rosscoe" changeset="4691614">
    <nd ref="542982431"/>
    <nd ref="542946272"/>
    <nd ref="542946274"/>
    <nd ref="542944877"/>
    <tag k="highway" v="residential"/>
    <tag k="name" v="Lennard Street"/>
    <tag k="surface" v="paved"/>
  </way>
  <way id="43437204" version="6" timestamp="2010-07-09T06:06:27Z" uid="74617" user="JohnSmith" changeset="5171128">
    <nd ref="542982431"/>
    <nd ref="542946272"/>
    <nd ref="542946274"/>
    <nd ref="542944877"/>
    <tag k="highway" v="residential"/>
    <tag k="maxspeed" v="50"/>
    <tag k="maxspeed:source" v="default residential speed limit in Australia"/>
    <tag k="name" v="Lennard Street"/>
    <tag k="surface" v="paved"/>
  </way>
  <way id="43437209" version="5" timestamp="2010-05-13T23:27:21Z" uid="4467" user="Rosscoe" changeset="4691614">
    <nd ref="542944256"/>
    <nd ref="542946278"/>
    <nd ref="542946279"/>
    <nd ref="542946281"/>
    <nd ref="542945085"/>
    <nd ref="542946284"/>
    <nd ref="542946286"/>
    <tag k="highway" v="residential"/>
    <tag k="name" v="Leschenault Street"/>
    <tag k="surface" v="paved"/>
  </way>
  <way id="43437209" version="6" timestamp="2010-07-09T06:08:20Z" uid="74617" user="JohnSmith" changeset="5171128">
    <nd ref="542944256"/>
    <nd ref="542946278"/>
    <nd ref="542946279"/>
    <nd ref="542946281"/>
    <nd ref="542945085"/>
    <nd ref="542946284"/>
    <nd ref="542946286"/>
    <tag k="highway" v="residential"/>
    <tag k="maxspeed" v="50"/>
    <tag k="maxspeed:source" v="default residential speed limit in Australia"/>
    <tag k="name" v="Leschenault Street"/>
    <tag k="surface" v="paved"/>
  </way>
  <way id="43437214" version="5" timestamp="2010-05-13T23:26:56Z" uid="4467" user="Rosscoe" changeset="4691614">
    <nd ref="542946867"/>
    <nd ref="542946288"/>
    <nd ref="542946290"/>
    <nd ref="542945676"/>
    <nd ref="542946705"/>
    <nd ref="542946294"/>
    <tag k="highway" v="residential"/>
    <tag k="name" v="Leslie Street"/>
    <tag k="surface" v="paved"/>
  </way>
  <way id="43437214" version="6" timestamp="2010-05-14T00:13:25Z" uid="4467" user="Rosscoe" changeset="4691796"/>
  <way id="43437218" version="5" timestamp="2010-05-13T23:26:40Z" uid="4467" user="Rosscoe" changeset="4691614">
    <nd ref="542945072"/>
    <nd ref="542946296"/>
    <nd ref="542946299"/>
    <tag k="highway" v="residential"/>
    <tag k="name" v="Lindfield Cresent"/>
    <tag k="surface" v="paved"/>
  </way>
  <way id="43437218" version="6" timestamp="2010-07-09T06:08:26Z" uid="74617" user="JohnSmith" changeset="5171128">
    <nd ref="542945072"/>
    <nd ref="542946296"/>
    <nd ref="542946299"/>
    <tag k="highway" v="residential"/>
    <tag k="maxspeed" v="50"/>
    <tag k="maxspeed:source" v="default residential speed limit in Australia"/>
    <tag k="name" v="Lindfield Cresent"/>
    <tag k="surface" v="paved"/>
  </way>
  <way id="43437222" version="5" timestamp="2010-05-13T23:25:59Z" uid="4467" user="Rosscoe" changeset="4691614">
    <nd ref="542946892"/>
    <nd ref="542946301"/>
    <nd ref="542946305"/>
    <nd ref="542944137"/>
    <tag k="highway" v="residential"/>
    <tag k="name" v="Lion Street"/>
    <tag k="surface" v="paved"/>
  </way>
  <way id="43437222" version="6" timestamp="2010-05-14T00:13:24Z" uid="4467" user="Rosscoe" changeset="4691796"/>
  <way id="43437225" version="4" timestamp="2010-05-13T23:26:45Z" uid="4467" user="Rosscoe" changeset="4691614">
    <nd ref="542946203"/>
    <nd ref="542946204"/>
    <nd ref="542944196"/>
    <tag k="highway" v="residential"/>
    <tag k="name" v="Jeffries Street"/>
    <tag k="surface" v="paved"/>
  </way>
  <way id="43437225" version="5" timestamp="2010-07-09T06:07:09Z" uid="74617" user="JohnSmith" changeset="5171128">
    <nd ref="542946203"/>
    <nd ref="542946204"/>
    <nd ref="542944196"/>
    <tag k="highway" v="residential"/>
    <tag k="maxspeed" v="50"/>
    <tag k="maxspeed:source" v="default residential speed limit in Australia"/>
    <tag k="name" v="Jeffries Street"/>
    <tag k="surface" v="paved"/>
  </way>
  <way id="43437227" version="5" timestamp="2010-05-13T23:27:16Z" uid="4467" user="Rosscoe" changeset="4691614">
    <nd ref="367148264"/>
    <nd ref="367148259"/>
    <nd ref="367148260"/>
    <nd ref="367148250"/>
    <nd ref="542944192"/>
    <tag k="highway" v="residential"/>
    <tag k="name" v="JohnSton Street"/>
    <tag k="surface" v="paved"/>
  </way>
  <way id="43437227" version="6" timestamp="2010-07-09T06:08:11Z" uid="74617" user="JohnSmith" changeset="5171128">
    <nd ref="367148264"/>
    <nd ref="367148259"/>
    <nd ref="367148260"/>
    <nd ref="367148250"/>
    <nd ref="542944192"/>
    <tag k="highway" v="residential"/>
    <tag k="maxspeed" v="50"/>
    <tag k="maxspeed:source" v="default residential speed limit in Australia"/>
    <tag k="name" v="JohnSton Street"/>
    <tag k="surface" v="paved"/>
  </way>
  <way id="43437232" version="5" timestamp="2010-05-13T23:26:52Z" uid="4467" user="Rosscoe" changeset="4691614">
    <nd ref="367148283"/>
    <nd ref="542944495"/>
    <nd ref="367148281"/>
    <nd ref="367148280"/>
    <nd ref="542946217"/>
    <nd ref="542944264"/>
    <nd ref="367148270"/>
    <nd ref="542951342"/>
    <nd ref="367148292"/>
    <tag k="highway" v="residential"/>
    <tag k="name" v="Kampong Road"/>
    <tag k="surface" v="paved"/>
  </way>
  <way id="43437232" version="6" timestamp="2010-05-14T00:13:25Z" uid="4467" user="Rosscoe" changeset="4691796"/>
  <way id="43437236" version="4" timestamp="2010-05-13T23:26:16Z" uid="4467" user="Rosscoe" changeset="4691614">
    <nd ref="367148057"/>
    <nd ref="367148134"/>
    <nd ref="367148123"/>
    <nd ref="367148138"/>
    <nd ref="367148188"/>
    <tag k="highway" v="residential"/>
    <tag k="name" v="King Street"/>
    <tag k="surface" v="paved"/>
  </way>
  <way id="43437236" version="5" timestamp="2010-07-09T06:06:49Z" uid="74617" user="JohnSmith" changeset="5171128">
    <nd ref="367148057"/>
    <nd ref="367148134"/>
    <nd ref="367148123"/>
    <nd ref="367148138"/>
    <nd ref="367148188"/>
    <tag k="highway" v="residential"/>
    <tag k="maxspeed" v="50"/>
    <tag k="maxspeed:source" v="default residential speed limit in Australia"/>
    <tag k="name" v="King Street"/>
    <tag k="surface" v="paved"/>
  </way>
  <way id="43437242" version="5" timestamp="2010-05-13T23:26:08Z" uid="4467" user="Rosscoe" changeset="4691614">
    <nd ref="367148188"/>
    <nd ref="542946240"/>
    <nd ref="542952796"/>
    <tag k="highway" v="residential"/>
    <tag k="name" v="King Street"/>
    <tag k="surface" v="unpaved"/>
  </way>
  <way id="43437242" version="6" timestamp="2010-07-09T06:05:37Z" uid="74617" user="JohnSmith" changeset="5171128">
    <nd ref="367148188"/>
    <nd ref="542946240"/>
    <nd ref="542952796"/>
    <tag k="highway" v="residential"/>
    <tag k="maxspeed" v="50"/>
    <tag k="maxspeed:source" v="default residential speed limit in Australia"/>
    <tag k="name" v="King Street"/>
    <tag k="surface" v="unpaved"/>
  </way>
  <way id="43437253" version="4" timestamp="2010-05-13T23:25:54Z" uid="4467" user="Rosscoe" changeset="4691614">
    <nd ref="367148324"/>
    <nd ref="542944625"/>
    <tag k="highway" v="residential"/>
    <tag k="name" v="Knight Street"/>
    <tag k="surface" v="paved"/>
  </way>
  <way id="43437253" version="5" timestamp="2010-07-09T06:08:13Z" uid="74617" user="JohnSmith" changeset="5171128">
    <nd ref="367148324"/>
    <nd ref="542944625"/>
    <tag k="highway" v="residential"/>
    <tag k="maxspeed" v="50"/>
    <tag k="maxspeed:source" v="default residential speed limit in Australia"/>
    <tag k="name" v="Knight Street"/>
    <tag k="surface" v="paved"/>
  </way>
  <way id="43437254" version="4" timestamp="2010-05-13T23:26:12Z" uid="4467" user="Rosscoe" changeset="4691614">
    <nd ref="542946722"/>
    <nd ref="542946175"/>
    <nd ref="542946176"/>
    <nd ref="542946177"/>
    <tag k="highway" v="residential"/>
    <tag k="name" v="Howson Street"/>
    <tag k="surface" v="paved"/>
  </way>
  <way id="43437254" version="5" timestamp="2010-07-09T06:08:45Z" uid="74617" user="JohnSmith" changeset="5171128">
    <nd ref="542946722"/>
    <nd ref="542946175"/>
    <nd ref="542946176"/>
    <nd ref="542946177"/>
    <tag k="highway" v="residential"/>
    <tag k="maxspeed" v="50"/>
    <tag k="maxspeed:source" v="default residential speed limit in Australia"/>
    <tag k="name" v="Howson Street"/>
    <tag k="surface" v="paved"/>
  </way>
  <way id="43437256" version="5" timestamp="2010-05-13T23:26:41Z" uid="4467" user="Rosscoe" changeset="4691614">
    <nd ref="542944971"/>
    <nd ref="542946162"/>
    <nd ref="542946164"/>
    <nd ref="542946166"/>
    <nd ref="542946170"/>
    <nd ref="542946929"/>
    <tag k="highway" v="residential"/>
    <tag k="name" v="Hotchin Avenue"/>
    <tag k="surface" v="paved"/>
  </way>
  <way id="43437256" version="6" timestamp="2010-07-09T06:09:03Z" uid="74617" user="JohnSmith" changeset="5171128">
    <nd ref="542944971"/>
    <nd ref="542946162"/>
    <nd ref="542946164"/>
    <nd ref="542946166"/>
    <nd ref="542946170"/>
    <nd ref="542946929"/>
    <tag k="highway" v="residential"/>
    <tag k="maxspeed" v="50"/>
    <tag k="maxspeed:source" v="default residential speed limit in Australia"/>
    <tag k="name" v="Hotchin Avenue"/>
    <tag k="surface" v="paved"/>
  </way>
  <way id="43437256" version="7" timestamp="2010-08-14T12:29:10Z" uid="4467" user="Rosscoe" changeset="5490115">
    <nd ref="542944971"/>
    <nd ref="542946162"/>
    <nd ref="542946164"/>
    <nd ref="542946166"/>
    <nd ref="542946170"/>
    <nd ref="542946929"/>
    <tag k="highway" v="residential"/>
    <tag k="maxspeed" v="50"/>
    <tag k="name" v="Hotchin Avenue"/>
    <tag k="source:maxspeed" v="default residential speed limit in Australia"/>
    <tag k="surface" v="paved"/>
  </way>
  <way id="43437259" version="5" timestamp="2010-05-13T23:25:45Z" uid="4467" user="Rosscoe" changeset="4691614">
    <nd ref="542950731"/>
    <nd ref="542946156"/>
    <nd ref="542946160"/>
    <tag k="highway" v="residential"/>
    <tag k="name" v="Hordern Street"/>
    <tag k="surface" v="unpaved"/>
  </way>
  <way id="43437259" version="6" timestamp="2010-07-09T06:07:14Z" uid="74617" user="JohnSmith" changeset="5171128">
    <nd ref="542950731"/>
    <nd ref="542946156"/>
    <nd ref="542946160"/>
    <tag k="highway" v="residential"/>
    <tag k="maxspeed" v="50"/>
    <tag k="maxspeed:source" v="default residential speed limit in Australia"/>
    <tag k="name" v="Hordern Street"/>
    <tag k="surface" v="unpaved"/>
  </way>
  <way id="43437264" version="5" timestamp="2010-05-13T23:27:03Z" uid="4467" user="Rosscoe" changeset="4691614">
    <nd ref="542945129"/>
    <nd ref="542946151"/>
    <nd ref="542946154"/>
    <tag k="highway" v="residential"/>
    <tag k="name" v="Hordern Street"/>
    <tag k="surface" v="unpaved"/>
  </way>
  <way id="43437264" version="6" timestamp="2010-07-09T06:07:58Z" uid="74617" user="JohnSmith" changeset="5171128">
    <nd ref="542945129"/>
    <nd ref="542946151"/>
    <nd ref="542946154"/>
    <tag k="highway" v="residential"/>
    <tag k="maxspeed" v="50"/>
    <tag k="maxspeed:source" v="default residential speed limit in Australia"/>
    <tag k="name" v="Hordern Street"/>
    <tag k="surface" v="unpaved"/>
  </way>
  <way id="43437267" version="5" timestamp="2010-05-13T23:26:11Z" uid="4467" user="Rosscoe" changeset="4691614">
    <nd ref="542944923"/>
    <nd ref="542946192"/>
    <nd ref="542944696"/>
    <tag k="highway" v="residential"/>
    <tag k="name" v="Innes Street"/>
    <tag k="surface" v="paved"/>
  </way>
  <way id="43437267" version="6" timestamp="2010-07-09T06:06:00Z" uid="74617" user="JohnSmith" changeset="5171128">
    <nd ref="542944923"/>
    <nd ref="542946192"/>
    <nd ref="542944696"/>
    <tag k="highway" v="residential"/>
    <tag k="maxspeed" v="50"/>
    <tag k="maxspeed:source" v="default residential speed limit in Australia"/>
    <tag k="name" v="Innes Street"/>
    <tag k="surface" v="paved"/>
  </way>
  <way id="43437271" version="5" timestamp="2010-05-13T23:27:11Z" uid="4467" user="Rosscoe" changeset="4691614">
    <nd ref="542951758"/>
    <nd ref="542946186"/>
    <nd ref="542944271"/>
    <nd ref="542946190"/>
    <tag k="highway" v="residential"/>
    <tag k="name" v="Hymus Street"/>
    <tag k="surface" v="paved"/>
  </way>
  <way id="43437271" version="6" timestamp="2010-07-09T06:07:25Z" uid="74617" user="JohnSmith" changeset="5171128">
    <nd ref="542951758"/>
    <nd ref="542946186"/>
    <nd ref="542944271"/>
    <nd ref="542946190"/>
    <tag k="highway" v="residential"/>
    <tag k="maxspeed" v="50"/>
    <tag k="maxspeed:source" v="default residential speed limit in Australia"/>
    <tag k="name" v="Hymus Street"/>
    <tag k="surface" v="paved"/>
  </way>
  <way id="43437273" version="5" timestamp="2010-05-13T23:26:01Z" uid="4467" user="Rosscoe" changeset="4691614">
    <nd ref="542988187"/>
    <nd ref="542946181"/>
    <nd ref="542946182"/>
    <nd ref="542944945"/>
    <tag k="highway" v="residential"/>
    <tag k="name" v="Humphreys Street"/>
    <tag k="surface" v="paved"/>
  </way>
  <way id="43437273" version="6" timestamp="2010-07-09T06:07:41Z" uid="74617" user="JohnSmith" changeset="5171128">
    <nd ref="542988187"/>
    <nd ref="542946181"/>
    <nd ref="542946182"/>
    <nd ref="542944945"/>
    <tag k="highway" v="residential"/>
    <tag k="maxspeed" v="50"/>
    <tag k="maxspeed:source" v="default residential speed limit in Australia"/>
    <tag k="name" v="Humphreys Street"/>
    <tag k="surface" v="paved"/>
  </way>
  <way id="43437278" version="4" timestamp="2010-05-13T23:27:17Z" uid="4467" user="Rosscoe" changeset="4691614">
    <nd ref="542944608"/>
    <nd ref="542946179"/>
    <tag k="highway" v="residential"/>
    <tag k="name" v="Hugel Place"/>
    <tag k="surface" v="paved"/>
  </way>
  <way id="43437278" version="5" timestamp="2010-07-09T06:06:03Z" uid="74617" user="JohnSmith" changeset="5171128">
    <nd ref="542944608"/>
    <nd ref="542946179"/>
    <tag k="highway" v="residential"/>
    <tag k="maxspeed" v="50"/>
    <tag k="maxspeed:source" v="default residential speed limit in Australia"/>
    <tag k="name" v="Hugel Place"/>
    <tag k="surface" v="paved"/>
  </way>
  <way id="43437282" version="4" timestamp="2010-05-13T23:26:57Z" uid="4467" user="Rosscoe" changeset="4691614">
    <nd ref="542946073"/>
    <nd ref="542946074"/>
    <tag k="highway" v="residential"/>
    <tag k="name" v="Helen Street"/>
    <tag k="surface" v="paved"/>
  </way>
  <way id="43437282" version="5" timestamp="2010-07-09T06:07:48Z" uid="74617" user="JohnSmith" changeset="5171128">
    <nd ref="542946073"/>
    <nd ref="542946074"/>
    <tag k="highway" v="residential"/>
    <tag k="maxspeed" v="50"/>
    <tag k="maxspeed:source" v="default residential speed limit in Australia"/>
    <tag k="name" v="Helen Street"/>
    <tag k="surface" v="paved"/>
  </way>
  <way id="43437285" version="2" timestamp="2010-07-08T17:19:00Z" uid="74617" user="JohnSmith" changeset="5167338">
    <nd ref="547829263"/>
    <nd ref="547829265"/>
    <nd ref="547829267"/>
    <nd ref="547829269"/>
    <nd ref="547829271"/>
    <nd ref="547829273"/>
    <nd ref="547829275"/>
    <nd ref="547829276"/>
    <tag k="highway" v="residential"/>
    <tag k="maxspeed" v="50"/>
    <tag k="maxspeed:source" v="default residential speed limit in Australia"/>
    <tag k="name" v="Acacia Court"/>
  </way>
  <way id="43437285" version="4" timestamp="2010-12-30T14:43:17Z" uid="4467" user="Rosscoe" changeset="6810166">
    <nd ref="547829263"/>
    <nd ref="547829265"/>
    <nd ref="547829267"/>
    <nd ref="547829269"/>
    <nd ref="547829271"/>
    <nd ref="889922627"/>
    <nd ref="547829273"/>
    <nd ref="547829275"/>
    <nd ref="547829276"/>
    <tag k="highway" v="residential"/>
    <tag k="maxspeed" v="50"/>
    <tag k="name" v="Acacia Court"/>
    <tag k="source:maxspeed" v="default residential speed limit in Australia"/>
  </way>
  <way id="43437286" version="2" timestamp="2010-07-08T17:17:02Z" uid="74617" user="JohnSmith" changeset="5167338">
    <nd ref="547829278"/>
    <nd ref="547829276"/>
    <nd ref="547829280"/>
    <tag k="highway" v="residential"/>
    <tag k="maxspeed" v="50"/>
    <tag k="maxspeed:source" v="default residential speed limit in Australia"/>
    <tag k="name" v="Acacia Court"/>
  </way>
  <way id="43437286" version="3" timestamp="2010-12-30T14:43:33Z" uid="4467" user="Rosscoe" changeset="6810166">
    <nd ref="547829278"/>
    <nd ref="547829276"/>
    <nd ref="547829280"/>
    <tag k="highway" v="residential"/>
    <tag k="maxspeed" v="50"/>
    <tag k="name" v="Acacia Court"/>
    <tag k="source:maxspeed" v="default residential speed limit in Australia"/>
  </way>
  <way id="43437287" version="2" timestamp="2010-07-08T17:25:30Z" uid="74617" user="JohnSmith" changeset="5167338">
    <nd ref="355819502"/>
    <nd ref="547829284"/>
    <nd ref="547829286"/>
    <nd ref="547829288"/>
    <nd ref="547829290"/>
    <nd ref="547829292"/>
    <nd ref="547829294"/>
    <tag k="highway" v="residential"/>
    <tag k="maxspeed" v="50"/>
    <tag k="maxspeed:source" v="default residential speed limit in Australia"/>
    <tag k="name" v="Jarra Place"/>
  </way>
  <way id="43437287" version="3" timestamp="2010-12-30T14:43:19Z" uid="4467" user="Rosscoe" changeset="6810166">
    <nd ref="355819502"/>
    <nd ref="547829284"/>
    <nd ref="547829286"/>
    <nd ref="547829288"/>
    <nd ref="547829290"/>
    <nd ref="547829292"/>
    <nd ref="547829294"/>
    <tag k="highway" v="residential"/>
    <tag k="maxspeed" v="50"/>
    <tag k="name" v="Jarra Place"/>
    <tag k="source:maxspeed" v="default residential speed limit in Australia"/>
  </way>
  <way id="43437288" version="2" timestamp="2010-07-08T17:15:53Z" uid="74617" user="JohnSmith" changeset="5167338">
    <nd ref="547829243"/>
    <nd ref="547829246"/>
    <nd ref="547829248"/>
    <nd ref="547829250"/>
    <nd ref="547829221"/>
    <nd ref="547829223"/>
    <nd ref="547829225"/>
    <nd ref="547829226"/>
    <nd ref="547829228"/>
    <nd ref="547829230"/>
    <nd ref="547829232"/>
    <nd ref="547829233"/>
    <nd ref="547829235"/>
    <nd ref="547829236"/>
    <nd ref="547829253"/>
    <nd ref="547829252"/>
    <tag k="highway" v="residential"/>
    <tag k="maxspeed" v="50"/>
    <tag k="maxspeed:source" v="default residential speed limit in Australia"/>
    <tag k="name" v="Blackheath Mews"/>
  </way>
  <way id="43437288" version="4" timestamp="2010-12-30T14:43:40Z" uid="4467" user="Rosscoe" changeset="6810166">
    <nd ref="547829243"/>
    <nd ref="889914462"/>
    <nd ref="547829246"/>
    <nd ref="547829248"/>
    <nd ref="547829250"/>
    <nd ref="547829221"/>
    <nd ref="547829223"/>
    <nd ref="547829225"/>
    <nd ref="547829226"/>
    <nd ref="547829228"/>
    <nd ref="547829230"/>
    <nd ref="547829232"/>
    <nd ref="547829233"/>
    <nd ref="547829235"/>
    <nd ref="547829236"/>
    <nd ref="547829253"/>
    <nd ref="547829252"/>
    <nd ref="889914465"/>
    <nd ref="889914438"/>
    <nd ref="1072960419"/>
    <tag k="highway" v="residential"/>
    <tag k="maxspeed" v="50"/>
    <tag k="name" v="Blackheath Mews"/>
    <tag k="source:maxspeed" v="default residential speed limit in Australia"/>
  </way>
  <way id="43437290" version="2" timestamp="2010-07-08T17:21:40Z" uid="74617" user="JohnSmith" changeset="5167338">
    <nd ref="547829253"/>
    <nd ref="547829255"/>
    <tag k="highway" v="residential"/>
    <tag k="maxspeed" v="50"/>
    <tag k="maxspeed:source" v="default residential speed limit in Australia"/>
    <tag k="name" v="Cork Place"/>
  </way>
  <way id="43437290" version="3" timestamp="2010-12-30T14:43:19Z" uid="4467" user="Rosscoe" changeset="6810166">
    <nd ref="547829253"/>
    <nd ref="547829255"/>
    <tag k="highway" v="residential"/>
    <tag k="maxspeed" v="50"/>
    <tag k="name" v="Cork Place"/>
    <tag k="source:maxspeed" v="default residential speed limit in Australia"/>
  </way>
  <way id="43437291" version="2" timestamp="2010-07-08T17:19:17Z" uid="74617" user="JohnSmith" changeset="5167338">
    <nd ref="547829250"/>
    <nd ref="547829237"/>
    <nd ref="547829238"/>
    <nd ref="547829239"/>
    <tag k="highway" v="residential"/>
    <tag k="maxspeed" v="50"/>
    <tag k="maxspeed:source" v="default residential speed limit in Australia"/>
    <tag k="name" v="Blackheath Mews"/>
  </way>
  <way id="43437291" version="3" timestamp="2010-12-30T14:43:31Z" uid="4467" user="Rosscoe" changeset="6810166">
    <nd ref="547829250"/>
    <nd ref="547829237"/>
    <nd ref="547829238"/>
    <nd ref="547829239"/>
    <tag k="highway" v="residential"/>
    <tag k="maxspeed" v="50"/>
    <tag k="name" v="Blackheath Mews"/>
    <tag k="source:maxspeed" v="default residential speed limit in Australia"/>
  </way>
  <way id="43437293" version="2" timestamp="2010-07-08T17:22:17Z" uid="74617" user="JohnSmith" changeset="5167338">
    <nd ref="547829230"/>
    <nd ref="547829240"/>
    <nd ref="547829241"/>
    <nd ref="547829242"/>
    <tag k="highway" v="residential"/>
    <tag k="maxspeed" v="50"/>
    <tag k="maxspeed:source" v="default residential speed limit in Australia"/>
    <tag k="name" v="Blackheath Mews"/>
  </way>
  <way id="43437293" version="3" timestamp="2010-12-30T14:43:33Z" uid="4467" user="Rosscoe" changeset="6810166">
    <nd ref="547829230"/>
    <nd ref="547829240"/>
    <nd ref="547829241"/>
    <nd ref="547829242"/>
    <tag k="highway" v="residential"/>
    <tag k="maxspeed" v="50"/>
    <tag k="name" v="Blackheath Mews"/>
    <tag k="source:maxspeed" v="default residential speed limit in Australia"/>
  </way>
  <way id="43437294" version="2" timestamp="2010-07-08T17:20:09Z" uid="74617" user="JohnSmith" changeset="5167338">
    <nd ref="547829282"/>
    <nd ref="547829258"/>
    <tag k="highway" v="residential"/>
    <tag k="maxspeed" v="50"/>
    <tag k="maxspeed:source" v="default residential speed limit in Australia"/>
    <tag k="name" v="Huon Court"/>
  </way>
  <way id="43437294" version="4" timestamp="2010-12-30T14:43:22Z" uid="4467" user="Rosscoe" changeset="6810166">
    <nd ref="547829282"/>
    <nd ref="889922663"/>
    <nd ref="889922648"/>
    <nd ref="547829258"/>
    <tag k="highway" v="residential"/>
    <tag k="maxspeed" v="50"/>
    <tag k="name" v="Huon Court"/>
    <tag k="source:maxspeed" v="default residential speed limit in Australia"/>
  </way>
  <way id="43437295" version="2" timestamp="2010-07-08T17:17:54Z" uid="74617" user="JohnSmith" changeset="5167338">
    <nd ref="547829259"/>
    <nd ref="547829258"/>
    <nd ref="547829261"/>
    <tag k="highway" v="residential"/>
    <tag k="maxspeed" v="50"/>
    <tag k="maxspeed:source" v="default residential speed limit in Australia"/>
    <tag k="name" v="Huon Court"/>
  </way>
  <way id="43437295" version="3" timestamp="2010-12-30T14:43:35Z" uid="4467" user="Rosscoe" changeset="6810166">
    <nd ref="547829259"/>
    <nd ref="547829258"/>
    <nd ref="547829261"/>
    <tag k="highway" v="residential"/>
    <tag k="maxspeed" v="50"/>
    <tag k="name" v="Huon Court"/>
    <tag k="source:maxspeed" v="default residential speed limit in Australia"/>
  </way>
  <way id="43437296" version="2" timestamp="2010-07-08T17:16:43Z" uid="74617" user="JohnSmith" changeset="5167338">
    <nd ref="547829299"/>
    <nd ref="547829296"/>
    <tag k="highway" v="residential"/>
    <tag k="maxspeed" v="50"/>
    <tag k="maxspeed:source" v="default residential speed limit in Australia"/>
    <tag k="name" v="Tree Street"/>
  </way>
  <way id="43437296" version="4" timestamp="2010-12-30T14:43:32Z" uid="4467" user="Rosscoe" changeset="6810166">
    <nd ref="547829299"/>
    <nd ref="889914451"/>
    <nd ref="547829296"/>
    <tag k="highway" v="residential"/>
    <tag k="maxspeed" v="50"/>
    <tag k="name" v="Tree Street"/>
    <tag k="source:maxspeed" v="default residential speed limit in Australia"/>
  </way>
  <way id="43437297" version="2" timestamp="2010-07-08T17:25:06Z" uid="74617" user="JohnSmith" changeset="5167338">
    <nd ref="547829301"/>
    <nd ref="547829297"/>
    <tag k="highway" v="residential"/>
    <tag k="maxspeed" v="50"/>
    <tag k="maxspeed:source" v="default residential speed limit in Australia"/>
    <tag k="name" v="Ferment Way"/>
  </way>
  <way id="43437297" version="4" timestamp="2010-12-30T14:43:18Z" uid="4467" user="Rosscoe" changeset="6810166">
    <nd ref="547829301"/>
    <nd ref="889914464"/>
    <nd ref="547829297"/>
    <tag k="highway" v="residential"/>
    <tag k="maxspeed" v="50"/>
    <tag k="name" v="Ferment Way"/>
    <tag k="source:maxspeed" v="default residential speed limit in Australia"/>
  </way>
  <way id="43437300" version="4" timestamp="2010-05-13T23:26:36Z" uid="4467" user="Rosscoe" changeset="4691614">
    <nd ref="542951854"/>
    <nd ref="542946070"/>
    <tag k="highway" v="residential"/>
    <tag k="name" v="Helen Street"/>
    <tag k="surface" v="paved"/>
  </way>
  <way id="43437300" version="5" timestamp="2010-07-09T06:06:07Z" uid="74617" user="JohnSmith" changeset="5171128">
    <nd ref="542951854"/>
    <nd ref="542946070"/>
    <tag k="highway" v="residential"/>
    <tag k="maxspeed" v="50"/>
    <tag k="maxspeed:source" v="default residential speed limit in Australia"/>
    <tag k="name" v="Helen Street"/>
    <tag k="surface" v="paved"/>
  </way>
  <way id="43437303" version="4" timestamp="2010-05-13T23:27:19Z" uid="4467" user="Rosscoe" changeset="4691614">
    <nd ref="542946074"/>
    <nd ref="542946070"/>
    <tag k="name" v="Helen Street"/>
  </way>
  <way id="43437306" version="5" timestamp="2010-05-13T23:26:28Z" uid="4467" user="Rosscoe" changeset="4691614">
    <nd ref="367148123"/>
    <nd ref="542944777"/>
    <nd ref="542946056"/>
    <nd ref="542946058"/>
    <nd ref="542945835"/>
    <nd ref="367148702"/>
    <tag k="highway" v="residential"/>
    <tag k="name" v="Hay Street"/>
    <tag k="surface" v="paved"/>
  </way>
  <way id="43437306" version="6" timestamp="2010-07-09T06:08:32Z" uid="74617" user="JohnSmith" changeset="5171128">
    <nd ref="367148123"/>
    <nd ref="542944777"/>
    <nd ref="542946056"/>
    <nd ref="542946058"/>
    <nd ref="542945835"/>
    <nd ref="367148702"/>
    <tag k="highway" v="residential"/>
    <tag k="maxspeed" v="50"/>
    <tag k="maxspeed:source" v="default residential speed limit in Australia"/>
    <tag k="name" v="Hay Street"/>
    <tag k="surface" v="paved"/>
  </way>
  <way id="43437311" version="5" timestamp="2010-05-13T23:26:03Z" uid="4467" user="Rosscoe" changeset="4691614">
    <nd ref="542944508"/>
    <nd ref="542946122"/>
    <nd ref="542946125"/>
    <nd ref="542946127"/>
    <nd ref="542946130"/>
    <nd ref="542946132"/>
    <nd ref="542946135"/>
    <nd ref="542946138"/>
    <nd ref="542946141"/>
    <nd ref="542946145"/>
    <nd ref="545618073"/>
    <nd ref="542944500"/>
    <tag k="highway" v="residential"/>
    <tag k="name" v="Hofrad Court"/>
    <tag k="surface" v="paved"/>
  </way>
  <way id="43437311" version="6" timestamp="2010-07-09T06:06:58Z" uid="74617" user="JohnSmith" changeset="5171128">
    <nd ref="542944508"/>
    <nd ref="542946122"/>
    <nd ref="542946125"/>
    <nd ref="542946127"/>
    <nd ref="542946130"/>
    <nd ref="542946132"/>
    <nd ref="542946135"/>
    <nd ref="542946138"/>
    <nd ref="542946141"/>
    <nd ref="542946145"/>
    <nd ref="545618073"/>
    <nd ref="542944500"/>
    <tag k="highway" v="residential"/>
    <tag k="maxspeed" v="50"/>
    <tag k="maxspeed:source" v="default residential speed limit in Australia"/>
    <tag k="name" v="Hofrad Court"/>
    <tag k="surface" v="paved"/>
  </way>
  <way id="43437314" version="5" timestamp="2010-05-13T23:27:09Z" uid="4467" user="Rosscoe" changeset="4691614">
    <nd ref="542946114"/>
    <nd ref="542946939"/>
    <nd ref="542944862"/>
    <nd ref="542946119"/>
    <nd ref="542944987"/>
    <tag k="highway" v="residential"/>
    <tag k="name" v="Hillman Street"/>
    <tag k="surface" v="paved"/>
  </way>
  <way id="43437314" version="6" timestamp="2010-07-09T06:05:56Z" uid="74617" user="JohnSmith" changeset="5171128">
    <nd ref="542946114"/>
    <nd ref="542946939"/>
    <nd ref="542944862"/>
    <nd ref="542946119"/>
    <nd ref="542944987"/>
    <tag k="highway" v="residential"/>
    <tag k="maxspeed" v="50"/>
    <tag k="maxspeed:source" v="default residential speed limit in Australia"/>
    <tag k="name" v="Hillman Street"/>
    <tag k="surface" v="paved"/>
  </way>
  <way id="43437322" version="5" timestamp="2010-05-13T23:25:50Z" uid="4467" user="Rosscoe" changeset="4691614">
    <nd ref="542946090"/>
    <nd ref="542946091"/>
    <nd ref="542946096"/>
    <nd ref="542946101"/>
    <nd ref="542946103"/>
    <nd ref="542946108"/>
    <nd ref="542945035"/>
    <tag k="highway" v="residential"/>
    <tag k="name" v="Hill Street"/>
    <tag k="surface" v="unpaved"/>
  </way>
  <way id="43437322" version="6" timestamp="2010-07-09T06:08:40Z" uid="74617" user="JohnSmith" changeset="5171128">
    <nd ref="542946090"/>
    <nd ref="542946091"/>
    <nd ref="542946096"/>
    <nd ref="542946101"/>
    <nd ref="542946103"/>
    <nd ref="542946108"/>
    <nd ref="542945035"/>
    <tag k="highway" v="residential"/>
    <tag k="maxspeed" v="50"/>
    <tag k="maxspeed:source" v="default residential speed limit in Australia"/>
    <tag k="name" v="Hill Street"/>
    <tag k="surface" v="unpaved"/>
  </way>
  <way id="43437328" version="5" timestamp="2010-05-13T23:27:22Z" uid="4467" user="Rosscoe" changeset="4691614">
    <nd ref="542951077"/>
    <nd ref="542945212"/>
    <nd ref="542946078"/>
    <nd ref="542945734"/>
    <nd ref="542946081"/>
    <nd ref="542946083"/>
    <nd ref="542946090"/>
    <tag k="highway" v="residential"/>
    <tag k="name" v="Hill Street"/>
    <tag k="surface" v="paved"/>
  </way>
  <way id="43437328" version="6" timestamp="2010-07-09T06:06:28Z" uid="74617" user="JohnSmith" changeset="5171128">
    <nd ref="542951077"/>
    <nd ref="542945212"/>
    <nd ref="542946078"/>
    <nd ref="542945734"/>
    <nd ref="542946081"/>
    <nd ref="542946083"/>
    <nd ref="542946090"/>
    <tag k="highway" v="residential"/>
    <tag k="maxspeed" v="50"/>
    <tag k="maxspeed:source" v="default residential speed limit in Australia"/>
    <tag k="name" v="Hill Street"/>
    <tag k="surface" v="paved"/>
  </way>
  <way id="43437333" version="5" timestamp="2010-05-13T23:26:58Z" uid="4467" user="Rosscoe" changeset="4691614">
    <nd ref="542945744"/>
    <nd ref="542945745"/>
    <nd ref="542945748"/>
    <tag k="highway" v="residential"/>
    <tag k="name" v="Hanover Place"/>
    <tag k="surface" v="paved"/>
  </way>
  <way id="43437333" version="6" timestamp="2010-07-09T06:08:21Z" uid="74617" user="JohnSmith" changeset="5171128">
    <nd ref="542945744"/>
    <nd ref="542945745"/>
    <nd ref="542945748"/>
    <tag k="highway" v="residential"/>
    <tag k="maxspeed" v="50"/>
    <tag k="maxspeed:source" v="default residential speed limit in Australia"/>
    <tag k="name" v="Hanover Place"/>
    <tag k="surface" v="paved"/>
  </way>
  <way id="43437340" version="10" timestamp="2010-05-13T23:27:06Z" uid="4467" user="Rosscoe" changeset="4691614">
    <nd ref="580304482"/>
    <nd ref="542945736"/>
    <nd ref="542945738"/>
    <nd ref="367146955"/>
    <tag k="highway" v="residential"/>
    <tag k="name" v="Grey Street East"/>
    <tag k="surface" v="paved"/>
  </way>
  <way id="43437340" version="11" timestamp="2010-07-09T06:07:04Z" uid="74617" user="JohnSmith" changeset="5171128">
    <nd ref="580304482"/>
    <nd ref="542945736"/>
    <nd ref="542945738"/>
    <nd ref="367146955"/>
    <tag k="highway" v="residential"/>
    <tag k="maxspeed" v="50"/>
    <tag k="maxspeed:source" v="default residential speed limit in Australia"/>
    <tag k="name" v="Grey Street East"/>
    <tag k="surface" v="paved"/>
  </way>
  <way id="43437340" version="12" timestamp="2010-08-14T12:29:28Z" uid="4467" user="Rosscoe" changeset="5490115">
    <nd ref="580304482"/>
    <nd ref="542945736"/>
    <nd ref="542945738"/>
    <nd ref="367146955"/>
    <tag k="highway" v="residential"/>
    <tag k="maxspeed" v="50"/>
    <tag k="name" v="Grey Street East"/>
    <tag k="source:maxspeed" v="default residential speed limit in Australia"/>
    <tag k="surface" v="paved"/>
  </way>
  <way id="43437344" version="4" timestamp="2010-05-13T23:26:47Z" uid="4467" user="Rosscoe" changeset="4691614">
    <nd ref="542945742"/>
    <nd ref="542944176"/>
    <tag k="highway" v="residential"/>
    <tag k="name" v="Halifax Street"/>
    <tag k="surface" v="paved"/>
  </way>
  <way id="43437344" version="5" timestamp="2010-07-09T06:08:43Z" uid="74617" user="JohnSmith" changeset="5171128">
    <nd ref="542945742"/>
    <nd ref="542944176"/>
    <tag k="highway" v="residential"/>
    <tag k="maxspeed" v="50"/>
    <tag k="maxspeed:source" v="default residential speed limit in Australia"/>
    <tag k="name" v="Halifax Street"/>
    <tag k="surface" v="paved"/>
  </way>
  <way id="43437348" version="5" timestamp="2010-05-13T23:26:10Z" uid="4467" user="Rosscoe" changeset="4691614">
    <nd ref="542944794"/>
    <nd ref="542945819"/>
    <nd ref="542945823"/>
    <nd ref="542945825"/>
    <nd ref="542945832"/>
    <nd ref="542945835"/>
    <nd ref="542952486"/>
    <nd ref="542953173"/>
    <nd ref="542953008"/>
    <nd ref="542953233"/>
    <nd ref="542953264"/>
    <nd ref="542946031"/>
    <nd ref="542946041"/>
    <nd ref="542946046"/>
    <nd ref="542946051"/>
    <tag k="highway" v="residential"/>
    <tag k="name" v="Hare Street"/>
    <tag k="surface" v="paved"/>
  </way>
  <way id="43437348" version="6" timestamp="2010-05-28T14:40:27Z" uid="4467" user="Rosscoe" changeset="4831644">
    <nd ref="542944794"/>
    <nd ref="542945819"/>
    <nd ref="542945823"/>
    <nd ref="542945825"/>
    <nd ref="542945832"/>
    <nd ref="542945835"/>
    <nd ref="542952486"/>
    <nd ref="542953173"/>
    <nd ref="542953008"/>
    <nd ref="542953233"/>
    <nd ref="542953264"/>
    <nd ref="542946041"/>
    <nd ref="542946046"/>
    <nd ref="542946051"/>
    <tag k="highway" v="residential"/>
    <tag k="name" v="Hare Street"/>
    <tag k="surface" v="paved"/>
  </way>
  <way id="43437348" version="7" timestamp="2010-07-09T06:06:35Z" uid="74617" user="JohnSmith" changeset="5171128">
    <nd ref="542944794"/>
    <nd ref="542945819"/>
    <nd ref="542945823"/>
    <nd ref="542945825"/>
    <nd ref="542945832"/>
    <nd ref="542945835"/>
    <nd ref="542952486"/>
    <nd ref="542953173"/>
    <nd ref="542953008"/>
    <nd ref="542953233"/>
    <nd ref="542953264"/>
    <nd ref="542946041"/>
    <nd ref="542946046"/>
    <nd ref="542946051"/>
    <tag k="highway" v="residential"/>
    <tag k="maxspeed" v="50"/>
    <tag k="maxspeed:source" v="default residential speed limit in Australia"/>
    <tag k="name" v="Hare Street"/>
    <tag k="surface" v="paved"/>
  </way>
  <way id="43437353" version="4" timestamp="2010-05-13T23:27:25Z" uid="4467" user="Rosscoe" changeset="4691614">
    <nd ref="367148260"/>
    <nd ref="542946053"/>
    <tag k="highway" v="residential"/>
    <tag k="name" v="Harry Street"/>
    <tag k="surface" v="paved"/>
  </way>
  <way id="43437353" version="5" timestamp="2010-07-09T06:08:29Z" uid="74617" user="JohnSmith" changeset="5171128">
    <nd ref="367148260"/>
    <nd ref="542946053"/>
    <tag k="highway" v="residential"/>
    <tag k="maxspeed" v="50"/>
    <tag k="maxspeed:source" v="default residential speed limit in Australia"/>
    <tag k="name" v="Harry Street"/>
    <tag k="surface" v="paved"/>
  </way>
  <way id="43437356" version="6" timestamp="2010-05-13T23:26:33Z" uid="4467" user="Rosscoe" changeset="4691614">
    <nd ref="542945751"/>
    <nd ref="542945752"/>
    <nd ref="542945754"/>
    <nd ref="542945757"/>
    <nd ref="542945768"/>
    <nd ref="542945772"/>
    <nd ref="542945775"/>
    <nd ref="542945777"/>
    <nd ref="542945779"/>
    <nd ref="542945780"/>
    <nd ref="542945781"/>
    <nd ref="542945784"/>
    <nd ref="147905674"/>
    <tag k="highway" v="secondary"/>
    <tag k="name" v="Hanrahan Road"/>
    <tag k="surface" v="paved"/>
  </way>
  <way id="43437363" version="6" timestamp="2010-05-13T23:26:40Z" uid="4467" user="Rosscoe" changeset="4691614">
    <nd ref="542944375"/>
    <nd ref="542945788"/>
    <nd ref="542945789"/>
    <nd ref="542945790"/>
    <nd ref="542945791"/>
    <nd ref="542945794"/>
    <nd ref="542945797"/>
    <nd ref="542953235"/>
    <nd ref="542945802"/>
    <nd ref="542945806"/>
    <nd ref="542954176"/>
    <nd ref="542954167"/>
    <nd ref="542945814"/>
    <nd ref="542954109"/>
    <nd ref="542945817"/>
    <tag k="highway" v="residential"/>
    <tag k="name" v="Hardie Road"/>
    <tag k="surface" v="paved"/>
  </way>
  <way id="43437363" version="7" timestamp="2010-07-09T06:08:25Z" uid="74617" user="JohnSmith" changeset="5171128">
    <nd ref="542944375"/>
    <nd ref="542945788"/>
    <nd ref="542945789"/>
    <nd ref="542945790"/>
    <nd ref="542945791"/>
    <nd ref="542945794"/>
    <nd ref="542945797"/>
    <nd ref="542953235"/>
    <nd ref="542945802"/>
    <nd ref="542945806"/>
    <nd ref="542954176"/>
    <nd ref="542954167"/>
    <nd ref="542945814"/>
    <nd ref="542954109"/>
    <nd ref="542945817"/>
    <tag k="highway" v="residential"/>
    <tag k="maxspeed" v="50"/>
    <tag k="maxspeed:source" v="default residential speed limit in Australia"/>
    <tag k="name" v="Hardie Road"/>
    <tag k="surface" v="paved"/>
  </way>
  <way id="43437363" version="8" timestamp="2011-01-15T03:28:04Z" uid="4467" user="Rosscoe" changeset="6973523">
    <nd ref="542944375"/>
    <nd ref="542945788"/>
    <nd ref="542945789"/>
    <nd ref="542945790"/>
    <nd ref="542945791"/>
    <nd ref="542945794"/>
    <nd ref="542945797"/>
    <nd ref="542953235"/>
    <nd ref="542945802"/>
    <nd ref="542945806"/>
    <nd ref="542954176"/>
    <nd ref="542954167"/>
    <nd ref="1104211048"/>
    <nd ref="542945814"/>
    <nd ref="542954109"/>
    <nd ref="542945817"/>
    <tag k="highway" v="residential"/>
    <tag k="maxspeed" v="50"/>
    <tag k="maxspeed:source" v="default residential speed limit in Australia"/>
    <tag k="name" v="Hardie Road"/>
    <tag k="surface" v="paved"/>
  </way>
  <way id="43437372" version="6" timestamp="2010-05-13T23:27:16Z" uid="4467" user="Rosscoe" changeset="4691614">
    <nd ref="542944899"/>
    <nd ref="542944913"/>
    <nd ref="542945692"/>
    <nd ref="542944588"/>
    <nd ref="542945697"/>
    <tag k="highway" v="residential"/>
    <tag k="name" v="Grey Street W"/>
    <tag k="surface" v="paved"/>
  </way>
  <way id="43437372" version="7" timestamp="2010-07-09T06:07:26Z" uid="74617" user="JohnSmith" changeset="5171128">
    <nd ref="542944899"/>
    <nd ref="542944913"/>
    <nd ref="542945692"/>
    <nd ref="542944588"/>
    <nd ref="542945697"/>
    <tag k="highway" v="residential"/>
    <tag k="maxspeed" v="50"/>
    <tag k="maxspeed:source" v="default residential speed limit in Australia"/>
    <tag k="name" v="Grey Street W"/>
    <tag k="surface" v="paved"/>
  </way>
  <way id="43437372" version="8" timestamp="2010-08-14T12:29:16Z" uid="4467" user="Rosscoe" changeset="5490115">
    <nd ref="542944898"/>
    <nd ref="542944913"/>
    <nd ref="542945692"/>
    <nd ref="542944588"/>
    <tag k="highway" v="residential"/>
    <tag k="maxspeed" v="50"/>
    <tag k="name" v="Grey Street West"/>
    <tag k="source:maxspeed" v="default residential speed limit in Australia"/>
    <tag k="surface" v="paved"/>
  </way>
  <way id="43437375" version="4" timestamp="2010-05-13T23:26:23Z" uid="4467" user="Rosscoe" changeset="4691614">
    <nd ref="542945677"/>
    <nd ref="542945678"/>
    <nd ref="542945681"/>
    <nd ref="542945684"/>
    <tag k="highway" v="residential"/>
    <tag k="name" v="Gillam Place"/>
    <tag k="surface" v="paved"/>
  </way>
  <way id="43437375" version="5" timestamp="2010-07-09T06:09:01Z" uid="74617" user="JohnSmith" changeset="5171128">
    <nd ref="542945677"/>
    <nd ref="542945678"/>
    <nd ref="542945681"/>
    <nd ref="542945684"/>
    <tag k="highway" v="residential"/>
    <tag k="maxspeed" v="50"/>
    <tag k="maxspeed:source" v="default residential speed limit in Australia"/>
    <tag k="name" v="Gillam Place"/>
    <tag k="surface" v="paved"/>
  </way>
  <way id="43437378" version="4" timestamp="2010-05-13T23:25:47Z" uid="4467" user="Rosscoe" changeset="4691614">
    <nd ref="542944553"/>
    <nd ref="542945686"/>
    <nd ref="542945687"/>
    <tag k="highway" v="residential"/>
    <tag k="name" v="Graham Street"/>
    <tag k="surface" v="paved"/>
  </way>
  <way id="43437378" version="5" timestamp="2010-07-09T06:08:46Z" uid="74617" user="JohnSmith" changeset="5171128">
    <nd ref="542944553"/>
    <nd ref="542945686"/>
    <nd ref="542945687"/>
    <tag k="highway" v="residential"/>
    <tag k="maxspeed" v="50"/>
    <tag k="maxspeed:source" v="default residential speed limit in Australia"/>
    <tag k="name" v="Graham Street"/>
    <tag k="surface" v="paved"/>
  </way>
  <way id="43437386" version="7" timestamp="2010-05-13T23:26:13Z" uid="4467" user="Rosscoe" changeset="4691614">
    <nd ref="542945723"/>
    <nd ref="542945729"/>
    <nd ref="542945732"/>
    <nd ref="542945733"/>
    <nd ref="542945734"/>
    <tag k="highway" v="residential"/>
    <tag k="name" v="Grey Street East"/>
    <tag k="surface" v="paved"/>
  </way>
  <way id="43437386" version="8" timestamp="2010-07-09T06:08:02Z" uid="74617" user="JohnSmith" changeset="5171128">
    <nd ref="542945723"/>
    <nd ref="542945729"/>
    <nd ref="542945732"/>
    <nd ref="542945733"/>
    <nd ref="542945734"/>
    <tag k="highway" v="residential"/>
    <tag k="maxspeed" v="50"/>
    <tag k="maxspeed:source" v="default residential speed limit in Australia"/>
    <tag k="name" v="Grey Street East"/>
    <tag k="surface" v="paved"/>
  </way>
  <way id="43437389" version="5" timestamp="2010-05-13T23:26:55Z" uid="4467" user="Rosscoe" changeset="4691614">
    <nd ref="542944898"/>
    <nd ref="542945710"/>
    <nd ref="542945713"/>
    <nd ref="542945715"/>
    <nd ref="542945719"/>
    <nd ref="542944588"/>
    <tag k="highway" v="residential"/>
    <tag k="name" v="Grey Street W"/>
    <tag k="surface" v="paved"/>
  </way>
  <way id="43437389" version="6" timestamp="2010-07-09T06:08:48Z" uid="74617" user="JohnSmith" changeset="5171128">
    <nd ref="542944898"/>
    <nd ref="542945710"/>
    <nd ref="542945713"/>
    <nd ref="542945715"/>
    <nd ref="542945719"/>
    <nd ref="542944588"/>
    <tag k="highway" v="residential"/>
    <tag k="maxspeed" v="50"/>
    <tag k="maxspeed:source" v="default residential speed limit in Australia"/>
    <tag k="name" v="Grey Street W"/>
    <tag k="surface" v="paved"/>
  </way>
  <way id="43437389" version="7" timestamp="2010-08-14T12:28:46Z" uid="4467" user="Rosscoe" changeset="5490115">
    <nd ref="542944588"/>
    <nd ref="542945719"/>
    <nd ref="542945715"/>
    <nd ref="542945713"/>
    <nd ref="542945710"/>
    <nd ref="542944898"/>
    <tag k="highway" v="residential"/>
    <tag k="maxspeed" v="50"/>
    <tag k="name" v="Grey Street West"/>
    <tag k="source:maxspeed" v="default residential speed limit in Australia"/>
    <tag k="surface" v="paved"/>
  </way>
  <way id="43437400" version="6" timestamp="2010-05-13T23:26:25Z" uid="4467" user="Rosscoe" changeset="4691614">
    <nd ref="542945659"/>
    <nd ref="542945660"/>
    <nd ref="542945661"/>
    <nd ref="542944614"/>
    <nd ref="542945667"/>
    <tag k="highway" v="residential"/>
    <tag k="name" v="Gairdner Road"/>
    <tag k="surface" v="paved"/>
  </way>
  <way id="43437400" version="7" timestamp="2010-07-09T06:08:29Z" uid="74617" user="JohnSmith" changeset="5171128">
    <nd ref="542945659"/>
    <nd ref="542945660"/>
    <nd ref="542945661"/>
    <nd ref="542944614"/>
    <nd ref="542945667"/>
    <tag k="highway" v="residential"/>
    <tag k="maxspeed" v="50"/>
    <tag k="maxspeed:source" v="default residential speed limit in Australia"/>
    <tag k="name" v="Gairdner Road"/>
    <tag k="surface" v="paved"/>
  </way>
  <way id="43437403" version="4" timestamp="2010-05-13T23:27:12Z" uid="4467" user="Rosscoe" changeset="4691614">
    <nd ref="542945674"/>
    <nd ref="542945675"/>
    <nd ref="542945676"/>
    <tag k="highway" v="residential"/>
    <tag k="name" v="George Street"/>
    <tag k="surface" v="paved"/>
  </way>
  <way id="43437403" version="5" timestamp="2010-07-09T06:06:35Z" uid="74617" user="JohnSmith" changeset="5171128">
    <nd ref="542945674"/>
    <nd ref="542945675"/>
    <nd ref="542945676"/>
    <tag k="highway" v="residential"/>
    <tag k="maxspeed" v="50"/>
    <tag k="maxspeed:source" v="default residential speed limit in Australia"/>
    <tag k="name" v="George Street"/>
    <tag k="surface" v="paved"/>
  </way>
  <way id="43437406" version="5" timestamp="2010-05-13T23:26:19Z" uid="4467" user="Rosscoe" changeset="4691614">
    <nd ref="542945670"/>
    <nd ref="542944860"/>
    <nd ref="542945673"/>
    <tag k="highway" v="residential"/>
    <tag k="name" v="Geake Street"/>
    <tag k="surface" v="paved"/>
  </way>
  <way id="43437406" version="6" timestamp="2010-07-09T06:07:30Z" uid="74617" user="JohnSmith" changeset="5171128">
    <nd ref="542945670"/>
    <nd ref="542944860"/>
    <nd ref="542945673"/>
    <tag k="highway" v="residential"/>
    <tag k="maxspeed" v="50"/>
    <tag k="maxspeed:source" v="default residential speed limit in Australia"/>
    <tag k="name" v="Geake Street"/>
    <tag k="surface" v="paved"/>
  </way>
  <way id="43437414" version="5" timestamp="2010-05-13T23:26:57Z" uid="4467" user="Rosscoe" changeset="4691614">
    <nd ref="542945212"/>
    <nd ref="542945213"/>
    <nd ref="542945217"/>
    <tag k="highway" v="residential"/>
    <tag k="name" v="Finlay Street"/>
    <tag k="surface" v="paved"/>
  </way>
  <way id="43437414" version="6" timestamp="2010-07-09T06:07:00Z" uid="74617" user="JohnSmith" changeset="5171128">
    <nd ref="542945212"/>
    <nd ref="542945213"/>
    <nd ref="542945217"/>
    <tag k="highway" v="residential"/>
    <tag k="maxspeed" v="50"/>
    <tag k="maxspeed:source" v="default residential speed limit in Australia"/>
    <tag k="name" v="Finlay Street"/>
    <tag k="surface" v="paved"/>
  </way>
  <way id="43437419" version="12" timestamp="2010-05-13T23:26:38Z" uid="4467" user="Rosscoe" changeset="4691614">
    <nd ref="542945751"/>
    <nd ref="542945657"/>
    <nd ref="542945656"/>
    <nd ref="542945655"/>
    <nd ref="542945651"/>
    <nd ref="542945646"/>
    <nd ref="542951283"/>
    <nd ref="542945638"/>
    <nd ref="542945635"/>
    <nd ref="368146586"/>
    <nd ref="542945628"/>
    <nd ref="542945625"/>
    <nd ref="542945617"/>
    <nd ref="542945614"/>
    <nd ref="542945608"/>
    <nd ref="542945604"/>
    <nd ref="542945600"/>
    <nd ref="368146138"/>
    <nd ref="542945593"/>
    <nd ref="542945589"/>
    <nd ref="378013187"/>
    <tag k="highway" v="secondary"/>
    <tag k="name" v="Frenchman Bay Road"/>
    <tag k="surface" v="paved"/>
  </way>
  <way id="43437422" version="4" timestamp="2010-03-28T11:07:59Z" uid="20587" user="balrog-kun" changeset="4254597">
    <nd ref="165419020"/>
    <nd ref="165418989"/>
    <nd ref="165418993"/>
    <nd ref="165418995"/>
    <nd ref="547830998"/>
    <nd ref="165418997"/>
    <nd ref="165418999"/>
    <nd ref="165419000"/>
    <nd ref="165168626"/>
    <nd ref="221731592"/>
    <tag k="highway" v="secondary"/>
    <tag k="name" v="North Turnpike Road"/>
    <tag k="oneway" v="yes"/>
    <tag k="tiger:cfcc" v="A45"/>
    <tag k="tiger:county" v="Santa Barbara, CA"/>
    <tag k="tiger:name_base" v="Turnpike"/>
    <tag k="tiger:name_direction_prefix" v="N"/>
    <tag k="tiger:name_type" v="Rd"/>
    <tag k="tiger:reviewed" v="no"/>
    <tag k="tiger:separated" v="yes"/>
    <tag k="tiger:source" v="tiger_import_dch_v0.6_20070809"/>
    <tag k="tiger:tlid" v="108667898:108667899:108670722:108667919:108670608:108670607:108670558:108670609:108667920:108670737:108670738:108670618"/>
    <tag k="tiger:zip_left" v="93111"/>
  </way>
  <way id="43437439" version="5" timestamp="2010-05-13T23:26:43Z" uid="4467" user="Rosscoe" changeset="4691614">
    <nd ref="542945220"/>
    <nd ref="542945221"/>
    <nd ref="542945223"/>
    <nd ref="542945226"/>
    <nd ref="542944679"/>
    <tag k="highway" v="residential"/>
    <tag k="name" v="Frederick Street"/>
    <tag k="surface" v="paved"/>
  </way>
  <way id="43437439" version="6" timestamp="2010-07-09T06:08:17Z" uid="74617" user="JohnSmith" changeset="5171128">
    <nd ref="542945220"/>
    <nd ref="542945221"/>
    <nd ref="542945223"/>
    <nd ref="542945226"/>
    <nd ref="542944679"/>
    <tag k="highway" v="residential"/>
    <tag k="maxspeed" v="50"/>
    <tag k="maxspeed:source" v="default residential speed limit in Australia"/>
    <tag k="name" v="Frederick Street"/>
    <tag k="surface" v="paved"/>
  </way>
  <way id="43437443" version="5" timestamp="2010-05-13T23:26:24Z" uid="4467" user="Rosscoe" changeset="4691614">
    <nd ref="542945145"/>
    <nd ref="542945146"/>
    <nd ref="542945148"/>
    <nd ref="542945151"/>
    <nd ref="542945154"/>
    <nd ref="542945160"/>
    <nd ref="542945211"/>
    <nd ref="542944596"/>
    <nd ref="542945168"/>
    <nd ref="542945200"/>
    <nd ref="542945174"/>
    <nd ref="542945178"/>
    <nd ref="542945182"/>
    <nd ref="542945186"/>
    <nd ref="542945190"/>
    <tag k="highway" v="residential"/>
    <tag k="name" v="FeSting Street"/>
    <tag k="surface" v="paved"/>
  </way>
  <way id="43437443" version="6" timestamp="2010-07-09T06:07:55Z" uid="74617" user="JohnSmith" changeset="5171128">
    <nd ref="542945145"/>
    <nd ref="542945146"/>
    <nd ref="542945148"/>
    <nd ref="542945151"/>
    <nd ref="542945154"/>
    <nd ref="542945160"/>
    <nd ref="542945211"/>
    <nd ref="542944596"/>
    <nd ref="542945168"/>
    <nd ref="542945200"/>
    <nd ref="542945174"/>
    <nd ref="542945178"/>
    <nd ref="542945182"/>
    <nd ref="542945186"/>
    <nd ref="542945190"/>
    <tag k="highway" v="residential"/>
    <tag k="maxspeed" v="50"/>
    <tag k="maxspeed:source" v="default residential speed limit in Australia"/>
    <tag k="name" v="FeSting Street"/>
    <tag k="surface" v="paved"/>
  </way>
  <way id="43437443" version="7" timestamp="2010-08-14T12:29:12Z" uid="4467" user="Rosscoe" changeset="5490115">
    <nd ref="542945145"/>
    <nd ref="542945146"/>
    <nd ref="542945148"/>
    <nd ref="542945151"/>
    <nd ref="542945154"/>
    <nd ref="542945160"/>
    <nd ref="542945211"/>
    <nd ref="542944596"/>
    <nd ref="542945168"/>
    <nd ref="542945200"/>
    <nd ref="542945174"/>
    <nd ref="542945178"/>
    <nd ref="542945182"/>
    <nd ref="542945186"/>
    <nd ref="542945190"/>
    <tag k="highway" v="residential"/>
    <tag k="maxspeed" v="50"/>
    <tag k="name" v="FeSting Street"/>
    <tag k="source:maxspeed" v="default residential speed limit in Australia"/>
    <tag k="surface" v="paved"/>
  </way>
  <way id="43437447" version="5" timestamp="2010-05-13T23:27:23Z" uid="4467" user="Rosscoe" changeset="4691614">
    <nd ref="542951878"/>
    <nd ref="542945126"/>
    <nd ref="542945129"/>
    <nd ref="545617050"/>
    <nd ref="542945136"/>
    <nd ref="542945144"/>
    <tag k="highway" v="residential"/>
    <tag k="name" v="Elphinstone Road"/>
    <tag k="surface" v="unpaved"/>
  </way>
  <way id="43437447" version="6" timestamp="2010-07-09T06:05:39Z" uid="74617" user="JohnSmith" changeset="5171128">
    <nd ref="542951878"/>
    <nd ref="542945126"/>
    <nd ref="542945129"/>
    <nd ref="545617050"/>
    <nd ref="542945136"/>
    <nd ref="542945144"/>
    <tag k="highway" v="residential"/>
    <tag k="maxspeed" v="50"/>
    <tag k="maxspeed:source" v="default residential speed limit in Australia"/>
    <tag k="name" v="Elphinstone Road"/>
    <tag k="surface" v="unpaved"/>
  </way>
  <way id="43437453" version="5" timestamp="2010-05-13T23:27:15Z" uid="4467" user="Rosscoe" changeset="4691614">
    <nd ref="542945201"/>
    <nd ref="542945203"/>
    <nd ref="542945205"/>
    <nd ref="542945207"/>
    <nd ref="542945211"/>
    <tag k="highway" v="residential"/>
    <tag k="name" v="FeSting Street"/>
    <tag k="surface" v="paved"/>
  </way>
  <way id="43437453" version="6" timestamp="2010-07-09T06:07:26Z" uid="74617" user="JohnSmith" changeset="5171128">
    <nd ref="542945201"/>
    <nd ref="542945203"/>
    <nd ref="542945205"/>
    <nd ref="542945207"/>
    <nd ref="542945211"/>
    <tag k="highway" v="residential"/>
    <tag k="maxspeed" v="50"/>
    <tag k="maxspeed:source" v="default residential speed limit in Australia"/>
    <tag k="name" v="FeSting Street"/>
    <tag k="surface" v="paved"/>
  </way>
  <way id="43437453" version="7" timestamp="2010-08-14T12:29:25Z" uid="4467" user="Rosscoe" changeset="5490115">
    <nd ref="542945201"/>
    <nd ref="542945203"/>
    <nd ref="542945205"/>
    <nd ref="542945207"/>
    <nd ref="542945211"/>
    <tag k="highway" v="residential"/>
    <tag k="maxspeed" v="50"/>
    <tag k="name" v="FeSting Street"/>
    <tag k="source:maxspeed" v="default residential speed limit in Australia"/>
    <tag k="surface" v="paved"/>
  </way>
  <way id="43437456" version="5" timestamp="2010-05-13T23:26:23Z" uid="4467" user="Rosscoe" changeset="4691614">
    <nd ref="542944596"/>
    <nd ref="542945192"/>
    <nd ref="542945196"/>
    <nd ref="542945200"/>
    <tag k="highway" v="residential"/>
    <tag k="name" v="FeSting Street"/>
    <tag k="surface" v="paved"/>
  </way>
  <way id="43437456" version="6" timestamp="2010-07-09T06:07:53Z" uid="74617" user="JohnSmith" changeset="5171128">
    <nd ref="542944596"/>
    <nd ref="542945192"/>
    <nd ref="542945196"/>
    <nd ref="542945200"/>
    <tag k="highway" v="residential"/>
    <tag k="maxspeed" v="50"/>
    <tag k="maxspeed:source" v="default residential speed limit in Australia"/>
    <tag k="name" v="FeSting Street"/>
    <tag k="surface" v="paved"/>
  </way>
  <way id="43437456" version="7" timestamp="2010-08-14T12:28:52Z" uid="4467" user="Rosscoe" changeset="5490115">
    <nd ref="542944596"/>
    <nd ref="542945192"/>
    <nd ref="542945196"/>
    <nd ref="542945200"/>
    <tag k="highway" v="residential"/>
    <tag k="maxspeed" v="50"/>
    <tag k="name" v="FeSting Street"/>
    <tag k="source:maxspeed" v="default residential speed limit in Australia"/>
    <tag k="surface" v="paved"/>
  </way>
  <way id="43437461" version="4" timestamp="2010-05-13T23:25:58Z" uid="4467" user="Rosscoe" changeset="4691614">
    <nd ref="542945105"/>
    <nd ref="542945106"/>
    <nd ref="542945107"/>
    <tag k="highway" v="residential"/>
    <tag k="name" v="Durman Place"/>
    <tag k="surface" v="paved"/>
  </way>
  <way id="43437461" version="5" timestamp="2010-07-09T06:06:13Z" uid="74617" user="JohnSmith" changeset="5171128">
    <nd ref="542945105"/>
    <nd ref="542945106"/>
    <nd ref="542945107"/>
    <tag k="highway" v="residential"/>
    <tag k="maxspeed" v="50"/>
    <tag k="maxspeed:source" v="default residential speed limit in Australia"/>
    <tag k="name" v="Durman Place"/>
    <tag k="surface" v="paved"/>
  </way>
  <way id="43437466" version="6" timestamp="2010-05-13T23:27:15Z" uid="4467" user="Rosscoe" changeset="4691614">
    <nd ref="542945102"/>
    <nd ref="542945103"/>
    <nd ref="542945104"/>
    <tag k="highway" v="residential"/>
    <tag k="name" v="Duke Street"/>
    <tag k="surface" v="paved"/>
  </way>
  <way id="43437466" version="7" timestamp="2010-07-09T06:08:09Z" uid="74617" user="JohnSmith" changeset="5171128">
    <nd ref="542945102"/>
    <nd ref="542945103"/>
    <nd ref="542945104"/>
    <tag k="highway" v="residential"/>
    <tag k="maxspeed" v="50"/>
    <tag k="maxspeed:source" v="default residential speed limit in Australia"/>
    <tag k="name" v="Duke Street"/>
    <tag k="surface" v="paved"/>
  </way>
  <way id="43437466" version="8" timestamp="2010-08-14T12:29:07Z" uid="4467" user="Rosscoe" changeset="5490115">
    <nd ref="542945102"/>
    <nd ref="542945103"/>
    <nd ref="542945104"/>
    <tag k="highway" v="residential"/>
    <tag k="maxspeed" v="50"/>
    <tag k="name" v="Duke Street"/>
    <tag k="source:maxspeed" v="default residential speed limit in Australia"/>
    <tag k="surface" v="paved"/>
  </way>
  <way id="43437471" version="5" timestamp="2010-05-13T23:26:51Z" uid="4467" user="Rosscoe" changeset="4691614">
    <nd ref="542945120"/>
    <nd ref="542945121"/>
    <nd ref="542944120"/>
    <tag k="highway" v="residential"/>
    <tag k="name" v="Elizabeth Street"/>
    <tag k="surface" v="paved"/>
  </way>
  <way id="43437471" version="6" timestamp="2010-05-14T00:13:25Z" uid="4467" user="Rosscoe" changeset="4691796"/>
  <way id="43437474" version="5" timestamp="2010-05-13T23:26:19Z" uid="4467" user="Rosscoe" changeset="4691614">
    <nd ref="542944234"/>
    <nd ref="542945109"/>
    <nd ref="542945111"/>
    <nd ref="542945113"/>
    <nd ref="542945114"/>
    <nd ref="542944696"/>
    <tag k="highway" v="residential"/>
    <tag k="name" v="Earl Street"/>
    <tag k="surface" v="paved"/>
  </way>
  <way id="43437474" version="6" timestamp="2010-07-09T06:07:45Z" uid="74617" user="JohnSmith" changeset="5171128">
    <nd ref="542944234"/>
    <nd ref="542945109"/>
    <nd ref="542945111"/>
    <nd ref="542945113"/>
    <nd ref="542945114"/>
    <nd ref="542944696"/>
    <tag k="highway" v="residential"/>
    <tag k="maxspeed" v="50"/>
    <tag k="maxspeed:source" v="default residential speed limit in Australia"/>
    <tag k="name" v="Earl Street"/>
    <tag k="surface" v="paved"/>
  </way>
  <way id="43437477" version="3" timestamp="2010-05-13T23:27:04Z" uid="4467" user="Rosscoe" changeset="4691614">
    <nd ref="542944527"/>
    <nd ref="545617054"/>
    <tag k="name" v="Drummond Street"/>
  </way>
  <way id="43437480" version="4" timestamp="2010-05-13T23:26:11Z" uid="4467" user="Rosscoe" changeset="4691614">
    <nd ref="542944527"/>
    <nd ref="542945084"/>
    <nd ref="542945085"/>
    <nd ref="542945079"/>
    <tag k="highway" v="residential"/>
    <tag k="name" v="Drummond Street"/>
    <tag k="surface" v="paved"/>
  </way>
  <way id="43437480" version="5" timestamp="2010-07-09T06:05:46Z" uid="74617" user="JohnSmith" changeset="5171128">
    <nd ref="542944527"/>
    <nd ref="542945084"/>
    <nd ref="542945085"/>
    <nd ref="542945079"/>
    <tag k="highway" v="residential"/>
    <tag k="maxspeed" v="50"/>
    <tag k="maxspeed:source" v="default residential speed limit in Australia"/>
    <tag k="name" v="Drummond Street"/>
    <tag k="surface" v="paved"/>
  </way>
  <way id="43437483" version="5" timestamp="2010-05-13T23:26:54Z" uid="4467" user="Rosscoe" changeset="4691614">
    <nd ref="542945087"/>
    <nd ref="542951499"/>
    <nd ref="542945089"/>
    <nd ref="542951583"/>
    <nd ref="545617054"/>
    <nd ref="542945099"/>
    <tag k="highway" v="residential"/>
    <tag k="name" v="Drummond Street"/>
    <tag k="surface" v="paved"/>
  </way>
  <way id="43437483" version="6" timestamp="2010-07-09T06:07:32Z" uid="74617" user="JohnSmith" changeset="5171128">
    <nd ref="542945087"/>
    <nd ref="542951499"/>
    <nd ref="542945089"/>
    <nd ref="542951583"/>
    <nd ref="545617054"/>
    <nd ref="542945099"/>
    <tag k="highway" v="residential"/>
    <tag k="maxspeed" v="50"/>
    <tag k="maxspeed:source" v="default residential speed limit in Australia"/>
    <tag k="name" v="Drummond Street"/>
    <tag k="surface" v="paved"/>
  </way>
  <way id="43437490" version="5" timestamp="2010-05-13T23:27:03Z" uid="4467" user="Rosscoe" changeset="4691614">
    <nd ref="542945066"/>
    <nd ref="542945067"/>
    <nd ref="542945070"/>
    <tag k="highway" v="residential"/>
    <tag k="name" v="Dicks Street"/>
    <tag k="surface" v="paved"/>
  </way>
  <way id="43437490" version="6" timestamp="2010-07-09T06:05:41Z" uid="74617" user="JohnSmith" changeset="5171128">
    <nd ref="542945066"/>
    <nd ref="542945067"/>
    <nd ref="542945070"/>
    <tag k="highway" v="residential"/>
    <tag k="maxspeed" v="50"/>
    <tag k="maxspeed:source" v="default residential speed limit in Australia"/>
    <tag k="name" v="Dicks Street"/>
    <tag k="surface" v="paved"/>
  </way>
  <way id="43437492" version="5" timestamp="2010-03-28T11:07:59Z" uid="20587" user="balrog-kun" changeset="4254597">
    <nd ref="165419020"/>
    <nd ref="547831195"/>
    <nd ref="165419022"/>
    <nd ref="165321686"/>
    <nd ref="165419026"/>
    <nd ref="165419028"/>
    <nd ref="165419030"/>
    <nd ref="165419032"/>
    <nd ref="165419034"/>
    <nd ref="165419036"/>
    <nd ref="165419038"/>
    <nd ref="165419042"/>
    <nd ref="165419043"/>
    <nd ref="165419044"/>
    <nd ref="165419045"/>
    <nd ref="165419046"/>
    <nd ref="165419047"/>
    <nd ref="165419049"/>
    <nd ref="165419051"/>
    <nd ref="165419053"/>
    <nd ref="165419055"/>
    <nd ref="165325312"/>
    <tag k="highway" v="secondary"/>
    <tag k="name" v="North Turnpike Road"/>
    <tag k="tiger:cfcc" v="A45"/>
    <tag k="tiger:county" v="Santa Barbara, CA"/>
    <tag k="tiger:name_base" v="Turnpike"/>
    <tag k="tiger:name_direction_prefix" v="N"/>
    <tag k="tiger:name_type" v="Rd"/>
    <tag k="tiger:reviewed" v="no"/>
    <tag k="tiger:separated" v="yes"/>
    <tag k="tiger:source" v="tiger_import_dch_v0.6_20070809"/>
    <tag k="tiger:tlid" v="108602274:108602281:108602363:108602365:108602368:108602373:108659304:108659305:108602305"/>
  </way>
  <way id="43437493" version="4" timestamp="2010-05-13T23:26:10Z" uid="4467" user="Rosscoe" changeset="4691614">
    <nd ref="542945071"/>
    <nd ref="542945072"/>
    <nd ref="542945790"/>
    <tag k="highway" v="residential"/>
    <tag k="name" v="Dickson Street"/>
    <tag k="surface" v="paved"/>
  </way>
  <way id="43437493" version="5" timestamp="2010-07-09T06:06:34Z" uid="74617" user="JohnSmith" changeset="5171128">
    <nd ref="542945071"/>
    <nd ref="542945072"/>
    <nd ref="542945790"/>
    <tag k="highway" v="residential"/>
    <tag k="maxspeed" v="50"/>
    <tag k="maxspeed:source" v="default residential speed limit in Australia"/>
    <tag k="name" v="Dickson Street"/>
    <tag k="surface" v="paved"/>
  </way>
  <way id="43437496" version="4" timestamp="2010-05-13T23:26:53Z" uid="4467" user="Rosscoe" changeset="4691614">
    <nd ref="542945074"/>
    <nd ref="542945075"/>
    <nd ref="542945076"/>
    <nd ref="542945077"/>
    <nd ref="542945078"/>
    <tag k="highway" v="residential"/>
    <tag k="name" v="Douglas Street"/>
    <tag k="surface" v="paved"/>
  </way>
  <way id="43437496" version="5" timestamp="2010-07-09T06:07:29Z" uid="74617" user="JohnSmith" changeset="5171128">
    <nd ref="542945074"/>
    <nd ref="542945075"/>
    <nd ref="542945076"/>
    <nd ref="542945077"/>
    <nd ref="542945078"/>
    <tag k="highway" v="residential"/>
    <tag k="maxspeed" v="50"/>
    <tag k="maxspeed:source" v="default residential speed limit in Australia"/>
    <tag k="name" v="Douglas Street"/>
    <tag k="surface" v="paved"/>
  </way>
  <way id="43437503" version="4" timestamp="2010-05-13T23:27:01Z" uid="4467" user="Rosscoe" changeset="4691614">
    <nd ref="542945103"/>
    <nd ref="542945033"/>
    <nd ref="542945034"/>
    <tag k="highway" v="residential"/>
    <tag k="name" v="Cuthbert Street"/>
    <tag k="surface" v="paved"/>
  </way>
  <way id="43437503" version="5" timestamp="2010-07-09T06:06:54Z" uid="74617" user="JohnSmith" changeset="5171128">
    <nd ref="542945103"/>
    <nd ref="542945033"/>
    <nd ref="542945034"/>
    <tag k="highway" v="residential"/>
    <tag k="maxspeed" v="50"/>
    <tag k="maxspeed:source" v="default residential speed limit in Australia"/>
    <tag k="name" v="Cuthbert Street"/>
    <tag k="surface" v="paved"/>
  </way>
  <way id="43437503" version="6" timestamp="2010-08-14T12:29:02Z" uid="4467" user="Rosscoe" changeset="5490115">
    <nd ref="542945103"/>
    <nd ref="542945033"/>
    <nd ref="542945034"/>
    <tag k="highway" v="residential"/>
    <tag k="maxspeed" v="50"/>
    <tag k="name" v="Cuthbert Street"/>
    <tag k="source:maxspeed" v="default residential speed limit in Australia"/>
    <tag k="surface" v="paved"/>
  </way>
  <way id="43437507" version="5" timestamp="2010-05-13T23:26:43Z" uid="4467" user="Rosscoe" changeset="4691614">
    <nd ref="542945035"/>
    <nd ref="542945036"/>
    <nd ref="542945048"/>
    <tag k="highway" v="residential"/>
    <tag k="name" v="Darling Street"/>
    <tag k="surface" v="unpaved"/>
  </way>
  <way id="43437507" version="6" timestamp="2010-07-09T06:07:16Z" uid="74617" user="JohnSmith" changeset="5171128">
    <nd ref="542945035"/>
    <nd ref="542945036"/>
    <nd ref="542945048"/>
    <tag k="highway" v="residential"/>
    <tag k="maxspeed" v="50"/>
    <tag k="maxspeed:source" v="default residential speed limit in Australia"/>
    <tag k="name" v="Darling Street"/>
    <tag k="surface" v="unpaved"/>
  </way>
  <way id="43437511" version="5" timestamp="2010-05-13T23:26:06Z" uid="4467" user="Rosscoe" changeset="4691614">
    <nd ref="542945049"/>
    <nd ref="542945050"/>
    <nd ref="542945055"/>
    <nd ref="542944861"/>
    <nd ref="542945059"/>
    <nd ref="542945061"/>
    <nd ref="542944986"/>
    <tag k="highway" v="residential"/>
    <tag k="name" v="David Street"/>
    <tag k="surface" v="paved"/>
  </way>
  <way id="43437511" version="6" timestamp="2010-07-09T06:08:32Z" uid="74617" user="JohnSmith" changeset="5171128">
    <nd ref="542945049"/>
    <nd ref="542945050"/>
    <nd ref="542945055"/>
    <nd ref="542944861"/>
    <nd ref="542945059"/>
    <nd ref="542945061"/>
    <nd ref="542944986"/>
    <tag k="highway" v="residential"/>
    <tag k="maxspeed" v="50"/>
    <tag k="maxspeed:source" v="default residential speed limit in Australia"/>
    <tag k="name" v="David Street"/>
    <tag k="surface" v="paved"/>
  </way>
  <way id="43437514" version="4" timestamp="2010-05-13T23:26:49Z" uid="4467" user="Rosscoe" changeset="4691614">
    <nd ref="542951674"/>
    <nd ref="542945064"/>
    <nd ref="542944610"/>
    <tag k="highway" v="residential"/>
    <tag k="name" v="De Hamel Place"/>
    <tag k="surface" v="paved"/>
  </way>
  <way id="43437514" version="5" timestamp="2010-07-09T06:05:49Z" uid="74617" user="JohnSmith" changeset="5171128">
    <nd ref="542951674"/>
    <nd ref="542945064"/>
    <nd ref="542944610"/>
    <tag k="highway" v="residential"/>
    <tag k="maxspeed" v="50"/>
    <tag k="maxspeed:source" v="default residential speed limit in Australia"/>
    <tag k="name" v="De Hamel Place"/>
    <tag k="surface" v="paved"/>
  </way>
  <way id="43437518" version="5" timestamp="2010-05-13T23:26:13Z" uid="4467" user="Rosscoe" changeset="4691614">
    <nd ref="367142380"/>
    <nd ref="542944998"/>
    <tag k="highway" v="residential"/>
    <tag k="name" v="Cuddihy Avenue"/>
    <tag k="surface" v="paved"/>
  </way>
  <way id="43437518" version="6" timestamp="2010-07-09T06:07:18Z" uid="74617" user="JohnSmith" changeset="5171128">
    <nd ref="367142380"/>
    <nd ref="542944998"/>
    <tag k="highway" v="residential"/>
    <tag k="maxspeed" v="50"/>
    <tag k="maxspeed:source" v="default residential speed limit in Australia"/>
    <tag k="name" v="Cuddihy Avenue"/>
    <tag k="surface" v="paved"/>
  </way>
  <way id="43437521" version="5" timestamp="2010-05-13T23:26:55Z" uid="4467" user="Rosscoe" changeset="4691614">
    <nd ref="542988178"/>
    <nd ref="542945000"/>
    <nd ref="542945001"/>
    <nd ref="542945003"/>
    <nd ref="542945004"/>
    <nd ref="542945007"/>
    <tag k="highway" v="residential"/>
    <tag k="name" v="Cull Road"/>
    <tag k="surface" v="paved"/>
  </way>
  <way id="43437521" version="6" timestamp="2010-07-09T06:07:45Z" uid="74617" user="JohnSmith" changeset="5171128">
    <nd ref="542988178"/>
    <nd ref="542945000"/>
    <nd ref="542945001"/>
    <nd ref="542945003"/>
    <nd ref="542945004"/>
    <nd ref="542945007"/>
    <tag k="highway" v="residential"/>
    <tag k="maxspeed" v="50"/>
    <tag k="maxspeed:source" v="default residential speed limit in Australia"/>
    <tag k="name" v="Cull Road"/>
    <tag k="surface" v="paved"/>
  </way>
  <way id="43437523" version="4" timestamp="2010-05-13T23:25:47Z" uid="4467" user="Rosscoe" changeset="4691614">
    <nd ref="542945008"/>
    <nd ref="542945009"/>
    <nd ref="542945012"/>
    <nd ref="542945007"/>
    <tag k="highway" v="residential"/>
    <tag k="name" v="Cull Road"/>
    <tag k="surface" v="unpaved"/>
  </way>
  <way id="43437523" version="5" timestamp="2010-07-09T06:08:45Z" uid="74617" user="JohnSmith" changeset="5171128">
    <nd ref="542945008"/>
    <nd ref="542945009"/>
    <nd ref="542945012"/>
    <nd ref="542945007"/>
    <tag k="highway" v="residential"/>
    <tag k="maxspeed" v="50"/>
    <tag k="maxspeed:source" v="default residential speed limit in Australia"/>
    <tag k="name" v="Cull Road"/>
    <tag k="surface" v="unpaved"/>
  </way>
  <way id="43437527" version="5" timestamp="2010-05-13T23:26:48Z" uid="4467" user="Rosscoe" changeset="4691614">
    <nd ref="542944402"/>
    <nd ref="542945027"/>
    <nd ref="542945031"/>
    <tag k="highway" v="residential"/>
    <tag k="name" v="Curringa Court"/>
    <tag k="surface" v="paved"/>
  </way>
  <way id="43437527" version="6" timestamp="2010-07-09T06:06:37Z" uid="74617" user="JohnSmith" changeset="5171128">
    <nd ref="542944402"/>
    <nd ref="542945027"/>
    <nd ref="542945031"/>
    <tag k="highway" v="residential"/>
    <tag k="maxspeed" v="50"/>
    <tag k="maxspeed:source" v="default residential speed limit in Australia"/>
    <tag k="name" v="Curringa Court"/>
    <tag k="surface" v="paved"/>
  </way>
  <way id="43437529" version="4" timestamp="2010-05-13T23:27:18Z" uid="4467" user="Rosscoe" changeset="4691614">
    <nd ref="542944993"/>
    <nd ref="542944994"/>
    <nd ref="542944995"/>
    <nd ref="542944082"/>
    <tag k="highway" v="residential"/>
    <tag k="name" v="Crossman Street"/>
    <tag k="surface" v="paved"/>
  </way>
  <way id="43437529" version="5" timestamp="2010-07-09T06:06:56Z" uid="74617" user="JohnSmith" changeset="5171128">
    <nd ref="542944993"/>
    <nd ref="542944994"/>
    <nd ref="542944995"/>
    <nd ref="542944082"/>
    <tag k="highway" v="residential"/>
    <tag k="maxspeed" v="50"/>
    <tag k="maxspeed:source" v="default residential speed limit in Australia"/>
    <tag k="name" v="Crossman Street"/>
    <tag k="surface" v="paved"/>
  </way>
  <way id="43437529" version="6" timestamp="2010-08-14T12:29:31Z" uid="4467" user="Rosscoe" changeset="5490115">
    <nd ref="542944993"/>
    <nd ref="542944994"/>
    <nd ref="542944995"/>
    <nd ref="542944082"/>
    <tag k="highway" v="residential"/>
    <tag k="maxspeed" v="50"/>
    <tag k="name" v="Crossman Street"/>
    <tag k="source:maxspeed" v="default residential speed limit in Australia"/>
    <tag k="surface" v="paved"/>
  </way>
  <way id="43437531" version="4" timestamp="2010-05-13T23:26:12Z" uid="4467" user="Rosscoe" changeset="4691614">
    <nd ref="542944393"/>
    <nd ref="542944991"/>
    <nd ref="542944992"/>
    <tag k="highway" v="residential"/>
    <tag k="name" v="Cooma Court"/>
    <tag k="surface" v="paved"/>
  </way>
  <way id="43437531" version="5" timestamp="2010-07-09T06:08:02Z" uid="74617" user="JohnSmith" changeset="5171128">
    <nd ref="542944393"/>
    <nd ref="542944991"/>
    <nd ref="542944992"/>
    <tag k="highway" v="residential"/>
    <tag k="maxspeed" v="50"/>
    <tag k="maxspeed:source" v="default residential speed limit in Australia"/>
    <tag k="name" v="Cooma Court"/>
    <tag k="surface" v="paved"/>
  </way>
  <way id="43437532" version="6" timestamp="2010-05-13T23:26:27Z" uid="4467" user="Rosscoe" changeset="4691614">
    <nd ref="542944621"/>
    <nd ref="542944980"/>
    <nd ref="542944983"/>
    <nd ref="542953176"/>
    <nd ref="542944986"/>
    <nd ref="542944987"/>
    <nd ref="367142678"/>
    <tag k="highway" v="residential"/>
    <tag k="name" v="Collingwood Road"/>
    <tag k="surface" v="paved"/>
  </way>
  <way id="43437532" version="7" timestamp="2010-07-09T06:07:47Z" uid="74617" user="JohnSmith" changeset="5171128">
    <nd ref="542944621"/>
    <nd ref="542944980"/>
    <nd ref="542944983"/>
    <nd ref="542953176"/>
    <nd ref="542944986"/>
    <nd ref="542944987"/>
    <nd ref="367142678"/>
    <tag k="highway" v="residential"/>
    <tag k="maxspeed" v="50"/>
    <tag k="maxspeed:source" v="default residential speed limit in Australia"/>
    <tag k="name" v="Collingwood Road"/>
    <tag k="surface" v="paved"/>
  </way>
  <way id="43437536" version="5" timestamp="2010-05-13T23:26:08Z" uid="4467" user="Rosscoe" changeset="4691614">
    <nd ref="542944970"/>
    <nd ref="542944971"/>
    <nd ref="542944972"/>
    <nd ref="542944974"/>
    <nd ref="542944975"/>
    <nd ref="542944977"/>
    <nd ref="542944978"/>
    <tag k="highway" v="residential"/>
    <tag k="name" v="Collie Street"/>
    <tag k="surface" v="paved"/>
  </way>
  <way id="43437536" version="6" timestamp="2010-07-09T06:05:52Z" uid="74617" user="JohnSmith" changeset="5171128">
    <nd ref="542944970"/>
    <nd ref="542944971"/>
    <nd ref="542944972"/>
    <nd ref="542944974"/>
    <nd ref="542944975"/>
    <nd ref="542944977"/>
    <nd ref="542944978"/>
    <tag k="highway" v="residential"/>
    <tag k="maxspeed" v="50"/>
    <tag k="maxspeed:source" v="default residential speed limit in Australia"/>
    <tag k="name" v="Collie Street"/>
    <tag k="surface" v="paved"/>
  </way>
  <way id="43437536" version="7" timestamp="2010-08-14T12:28:47Z" uid="4467" user="Rosscoe" changeset="5490115">
    <nd ref="542944970"/>
    <nd ref="542944971"/>
    <nd ref="542944972"/>
    <nd ref="542944974"/>
    <nd ref="542944975"/>
    <nd ref="542944977"/>
    <nd ref="542944978"/>
    <tag k="highway" v="residential"/>
    <tag k="maxspeed" v="50"/>
    <tag k="name" v="Collie Street"/>
    <tag k="source:maxspeed" v="default residential speed limit in Australia"/>
    <tag k="surface" v="paved"/>
  </way>
  <way id="43437539" version="5" timestamp="2010-05-13T23:26:52Z" uid="4467" user="Rosscoe" changeset="4691614">
    <nd ref="542944962"/>
    <nd ref="542944964"/>
    <nd ref="542944968"/>
    <nd ref="542951351"/>
    <tag k="highway" v="residential"/>
    <tag k="name" v="Collie Street"/>
    <tag k="surface" v="paved"/>
  </way>
  <way id="43437539" version="6" timestamp="2010-07-09T06:07:36Z" uid="74617" user="JohnSmith" changeset="5171128">
    <nd ref="542944962"/>
    <nd ref="542944964"/>
    <nd ref="542944968"/>
    <nd ref="542951351"/>
    <tag k="highway" v="residential"/>
    <tag k="maxspeed" v="50"/>
    <tag k="maxspeed:source" v="default residential speed limit in Australia"/>
    <tag k="name" v="Collie Street"/>
    <tag k="surface" v="paved"/>
  </way>
  <way id="43437539" version="7" timestamp="2010-08-14T12:29:33Z" uid="4467" user="Rosscoe" changeset="5490115">
    <nd ref="542944962"/>
    <nd ref="542944964"/>
    <nd ref="542944968"/>
    <nd ref="542951351"/>
    <tag k="highway" v="residential"/>
    <tag k="maxspeed" v="50"/>
    <tag k="name" v="Collie Street"/>
    <tag k="source:maxspeed" v="default residential speed limit in Australia"/>
    <tag k="surface" v="paved"/>
  </way>
  <way id="43437545" version="5" timestamp="2010-05-13T23:26:44Z" uid="4467" user="Rosscoe" changeset="4691614">
    <nd ref="542944953"/>
    <nd ref="542944954"/>
    <nd ref="542944956"/>
    <nd ref="542944957"/>
    <nd ref="542944959"/>
    <tag k="highway" v="residential"/>
    <tag k="name" v="Cockburn Road"/>
    <tag k="surface" v="paved"/>
  </way>
  <way id="43437545" version="6" timestamp="2010-07-09T06:05:35Z" uid="74617" user="JohnSmith" changeset="5171128">
    <nd ref="542944953"/>
    <nd ref="542944954"/>
    <nd ref="542944956"/>
    <nd ref="542944957"/>
    <nd ref="542944959"/>
    <tag k="highway" v="residential"/>
    <tag k="maxspeed" v="50"/>
    <tag k="maxspeed:source" v="default residential speed limit in Australia"/>
    <tag k="name" v="Cockburn Road"/>
    <tag k="surface" v="paved"/>
  </way>
  <way id="43437548" version="4" timestamp="2010-05-13T23:25:50Z" uid="4467" user="Rosscoe" changeset="4691614">
    <nd ref="542944626"/>
    <nd ref="542944952"/>
    <tag k="highway" v="residential"/>
    <tag k="name" v="Cockburn Road"/>
    <tag k="surface" v="paved"/>
  </way>
  <way id="43437548" version="5" timestamp="2010-07-09T06:06:29Z" uid="74617" user="JohnSmith" changeset="5171128">
    <nd ref="542944626"/>
    <nd ref="542944952"/>
    <tag k="highway" v="residential"/>
    <tag k="maxspeed" v="50"/>
    <tag k="maxspeed:source" v="default residential speed limit in Australia"/>
    <tag k="name" v="Cockburn Road"/>
    <tag k="surface" v="paved"/>
  </way>
  <way id="43437556" version="4" timestamp="2010-05-13T23:26:15Z" uid="4467" user="Rosscoe" changeset="4691614">
    <nd ref="542944942"/>
    <nd ref="542944943"/>
    <nd ref="542944945"/>
    <nd ref="542944255"/>
    <tag k="highway" v="residential"/>
    <tag k="name" v="Clifton Street"/>
    <tag k="surface" v="paved"/>
  </way>
  <way id="43437556" version="5" timestamp="2010-07-09T06:08:50Z" uid="74617" user="JohnSmith" changeset="5171128">
    <nd ref="542944942"/>
    <nd ref="542944943"/>
    <nd ref="542944945"/>
    <nd ref="542944255"/>
    <tag k="highway" v="residential"/>
    <tag k="maxspeed" v="50"/>
    <tag k="maxspeed:source" v="default residential speed limit in Australia"/>
    <tag k="name" v="Clifton Street"/>
    <tag k="surface" v="paved"/>
  </way>
  <way id="43437558" version="5" timestamp="2010-05-13T23:26:44Z" uid="4467" user="Rosscoe" changeset="4691614">
    <nd ref="542944934"/>
    <nd ref="542944935"/>
    <nd ref="542944937"/>
    <nd ref="542951769"/>
    <tag k="highway" v="residential"/>
    <tag k="name" v="Cliff Way"/>
    <tag k="surface" v="paved"/>
  </way>
  <way id="43437558" version="6" timestamp="2010-07-09T06:06:26Z" uid="74617" user="JohnSmith" changeset="5171128">
    <nd ref="542944934"/>
    <nd ref="542944935"/>
    <nd ref="542944937"/>
    <nd ref="542951769"/>
    <tag k="highway" v="residential"/>
    <tag k="maxspeed" v="50"/>
    <tag k="maxspeed:source" v="default residential speed limit in Australia"/>
    <tag k="name" v="Cliff Way"/>
    <tag k="surface" v="paved"/>
  </way>
  <way id="43437558" version="7" timestamp="2010-08-14T12:29:42Z" uid="4467" user="Rosscoe" changeset="5490115">
    <nd ref="542944934"/>
    <nd ref="542944935"/>
    <nd ref="542944937"/>
    <nd ref="542951769"/>
    <tag k="highway" v="residential"/>
    <tag k="maxspeed" v="50"/>
    <tag k="name" v="Cliff Way"/>
    <tag k="source:maxspeed" v="default residential speed limit in Australia"/>
    <tag k="surface" v="paved"/>
  </way>
  <way id="43437561" version="5" timestamp="2010-05-13T23:25:49Z" uid="4467" user="Rosscoe" changeset="4691614">
    <nd ref="545617923"/>
    <nd ref="542944925"/>
    <nd ref="542951769"/>
    <tag k="highway" v="residential"/>
    <tag k="name" v="Cliff Street"/>
    <tag k="surface" v="paved"/>
  </way>
  <way id="43437561" version="6" timestamp="2010-07-09T06:07:20Z" uid="74617" user="JohnSmith" changeset="5171128">
    <nd ref="545617923"/>
    <nd ref="542944925"/>
    <nd ref="542951769"/>
    <tag k="highway" v="residential"/>
    <tag k="maxspeed" v="50"/>
    <tag k="maxspeed:source" v="default residential speed limit in Australia"/>
    <tag k="name" v="Cliff Street"/>
    <tag k="surface" v="paved"/>
  </way>
  <way id="43437561" version="7" timestamp="2010-08-14T12:29:17Z" uid="4467" user="Rosscoe" changeset="5490115">
    <nd ref="545617923"/>
    <nd ref="542944925"/>
    <nd ref="542951769"/>
    <tag k="highway" v="residential"/>
    <tag k="maxspeed" v="50"/>
    <tag k="name" v="Cliff Street"/>
    <tag k="source:maxspeed" v="default residential speed limit in Australia"/>
    <tag k="surface" v="paved"/>
  </way>
  <way id="43437567" version="4" timestamp="2010-05-13T23:27:21Z" uid="4467" user="Rosscoe" changeset="4691614">
    <nd ref="542944922"/>
    <nd ref="542944923"/>
    <tag k="highway" v="residential"/>
    <tag k="name" v="Clarence Street"/>
    <tag k="surface" v="paved"/>
  </way>
  <way id="43437567" version="5" timestamp="2010-07-09T06:06:10Z" uid="74617" user="JohnSmith" changeset="5171128">
    <nd ref="542944922"/>
    <nd ref="542944923"/>
    <tag k="highway" v="residential"/>
    <tag k="maxspeed" v="50"/>
    <tag k="maxspeed:source" v="default residential speed limit in Australia"/>
    <tag k="name" v="Clarence Street"/>
    <tag k="surface" v="paved"/>
  </way>
  <way id="43437571" version="4" timestamp="2010-05-13T23:27:02Z" uid="4467" user="Rosscoe" changeset="4691614">
    <nd ref="542944919"/>
    <nd ref="542944920"/>
    <nd ref="542944921"/>
    <tag k="highway" v="residential"/>
    <tag k="name" v="Chevalier Street"/>
    <tag k="surface" v="paved"/>
  </way>
  <way id="43437571" version="5" timestamp="2010-07-09T06:08:42Z" uid="74617" user="JohnSmith" changeset="5171128">
    <nd ref="542944919"/>
    <nd ref="542944920"/>
    <nd ref="542944921"/>
    <tag k="highway" v="residential"/>
    <tag k="maxspeed" v="50"/>
    <tag k="maxspeed:source" v="default residential speed limit in Australia"/>
    <tag k="name" v="Chevalier Street"/>
    <tag k="surface" v="paved"/>
  </way>
  <way id="43437579" version="3" timestamp="2010-05-13T23:27:24Z" uid="4467" user="Rosscoe" changeset="4691614">
    <nd ref="367140448"/>
    <nd ref="542944915"/>
    <nd ref="367140450"/>
    <tag k="highway" v="residential"/>
    <tag k="name" v="Champion Street"/>
    <tag k="surface" v="paved"/>
  </way>
  <way id="43437579" version="4" timestamp="2010-07-09T06:08:00Z" uid="74617" user="JohnSmith" changeset="5171128">
    <nd ref="367140448"/>
    <nd ref="542944915"/>
    <nd ref="367140450"/>
    <tag k="highway" v="residential"/>
    <tag k="maxspeed" v="50"/>
    <tag k="maxspeed:source" v="default residential speed limit in Australia"/>
    <tag k="name" v="Champion Street"/>
    <tag k="surface" v="paved"/>
  </way>
  <way id="43437583" version="5" timestamp="2010-05-13T23:26:45Z" uid="4467" user="Rosscoe" changeset="4691614">
    <nd ref="542944884"/>
    <nd ref="368124467"/>
    <nd ref="542944888"/>
    <nd ref="368124528"/>
    <nd ref="368124616"/>
    <nd ref="542944898"/>
    <nd ref="542944899"/>
    <tag k="highway" v="residential"/>
    <tag k="name" v="Carlisle Street"/>
    <tag k="surface" v="paved"/>
  </way>
  <way id="43437583" version="6" timestamp="2010-07-09T06:05:44Z" uid="74617" user="JohnSmith" changeset="5171128">
    <nd ref="542944884"/>
    <nd ref="368124467"/>
    <nd ref="542944888"/>
    <nd ref="368124528"/>
    <nd ref="368124616"/>
    <nd ref="542944898"/>
    <nd ref="542944899"/>
    <tag k="highway" v="residential"/>
    <tag k="maxspeed" v="50"/>
    <tag k="maxspeed:source" v="default residential speed limit in Australia"/>
    <tag k="name" v="Carlisle Street"/>
    <tag k="surface" v="paved"/>
  </way>
  <way id="43437583" version="7" timestamp="2010-08-14T12:29:26Z" uid="4467" user="Rosscoe" changeset="5490115">
    <nd ref="542944884"/>
    <nd ref="368124467"/>
    <nd ref="542944888"/>
    <nd ref="368124528"/>
    <nd ref="368124616"/>
    <nd ref="542944898"/>
    <tag k="highway" v="residential"/>
    <tag k="maxspeed" v="50"/>
    <tag k="name" v="Carlisle Street"/>
    <tag k="source:maxspeed" v="default residential speed limit in Australia"/>
    <tag k="surface" v="paved"/>
  </way>
  <way id="43437589" version="6" timestamp="2010-05-13T23:26:39Z" uid="4467" user="Rosscoe" changeset="4691614">
    <nd ref="368124528"/>
    <nd ref="542944901"/>
    <nd ref="378013433"/>
    <tag k="highway" v="residential"/>
    <tag k="name" v="Carlisle Street"/>
    <tag k="surface" v="unpaved"/>
  </way>
  <way id="43437589" version="7" timestamp="2010-07-09T06:07:08Z" uid="74617" user="JohnSmith" changeset="5171128">
    <nd ref="368124528"/>
    <nd ref="542944901"/>
    <nd ref="378013433"/>
    <tag k="highway" v="residential"/>
    <tag k="maxspeed" v="50"/>
    <tag k="maxspeed:source" v="default residential speed limit in Australia"/>
    <tag k="name" v="Carlisle Street"/>
    <tag k="surface" v="unpaved"/>
  </way>
  <way id="43437589" version="8" timestamp="2010-08-14T12:29:37Z" uid="4467" user="Rosscoe" changeset="5490115">
    <nd ref="368124528"/>
    <nd ref="542944901"/>
    <nd ref="378013433"/>
    <tag k="highway" v="residential"/>
    <tag k="maxspeed" v="50"/>
    <tag k="name" v="Carlisle Street"/>
    <tag k="source:maxspeed" v="default residential speed limit in Australia"/>
    <tag k="surface" v="unpaved"/>
  </way>
  <way id="43437592" version="3" timestamp="2010-05-13T23:27:23Z" uid="4467" user="Rosscoe" changeset="4691614">
    <nd ref="367140061"/>
    <nd ref="542944875"/>
    <nd ref="542944845"/>
    <tag k="highway" v="secondary"/>
    <tag k="name" v="Campbell Road"/>
    <tag k="surface" v="paved"/>
  </way>
  <way id="43437594" version="4" timestamp="2010-05-13T23:26:16Z" uid="4467" user="Rosscoe" changeset="4691614">
    <nd ref="542944877"/>
    <nd ref="542944878"/>
    <nd ref="542944883"/>
    <tag k="highway" v="residential"/>
    <tag k="name" v="Canning Street"/>
    <tag k="surface" v="paved"/>
  </way>
  <way id="43437594" version="5" timestamp="2010-07-09T06:09:00Z" uid="74617" user="JohnSmith" changeset="5171128">
    <nd ref="542944877"/>
    <nd ref="542944878"/>
    <nd ref="542944883"/>
    <tag k="highway" v="residential"/>
    <tag k="maxspeed" v="50"/>
    <tag k="maxspeed:source" v="default residential speed limit in Australia"/>
    <tag k="name" v="Canning Street"/>
    <tag k="surface" v="paved"/>
  </way>
  <way id="43437599" version="5" timestamp="2010-05-13T23:25:51Z" uid="4467" user="Rosscoe" changeset="4691614">
    <nd ref="367140058"/>
    <nd ref="542944859"/>
    <nd ref="542944860"/>
    <nd ref="542944861"/>
    <nd ref="542944862"/>
    <nd ref="367140121"/>
    <tag k="highway" v="secondary"/>
    <tag k="name" v="Campbell Road"/>
    <tag k="surface" v="paved"/>
  </way>
  <way id="43437603" version="6" timestamp="2010-05-13T23:27:13Z" uid="4467" user="Rosscoe" changeset="4691614">
    <nd ref="367140042"/>
    <nd ref="542944866"/>
    <nd ref="542944869"/>
    <nd ref="542944573"/>
    <nd ref="367140051"/>
    <tag k="highway" v="secondary"/>
    <tag k="name" v="Campbell Road"/>
    <tag k="surface" v="paved"/>
  </way>
  <way id="43437609" version="5" timestamp="2010-05-13T23:27:04Z" uid="4467" user="Rosscoe" changeset="4691614">
    <nd ref="367140079"/>
    <nd ref="542944849"/>
    <nd ref="367140067"/>
    <nd ref="367140000"/>
    <nd ref="367140076"/>
    <tag k="highway" v="residential"/>
    <tag k="name" v="Campbell Road"/>
    <tag k="surface" v="paved"/>
  </way>
  <way id="43437609" version="6" timestamp="2010-07-09T06:07:18Z" uid="74617" user="JohnSmith" changeset="5171128">
    <nd ref="367140079"/>
    <nd ref="542944849"/>
    <nd ref="367140067"/>
    <nd ref="367140000"/>
    <nd ref="367140076"/>
    <tag k="highway" v="residential"/>
    <tag k="maxspeed" v="50"/>
    <tag k="maxspeed:source" v="default residential speed limit in Australia"/>
    <tag k="name" v="Campbell Road"/>
    <tag k="surface" v="paved"/>
  </way>
  <way id="43437617" version="5" timestamp="2010-05-13T23:25:46Z" uid="4467" user="Rosscoe" changeset="4691614">
    <nd ref="542944994"/>
    <nd ref="367140097"/>
    <nd ref="542944825"/>
    <nd ref="367140133"/>
    <nd ref="367136142"/>
    <tag k="highway" v="residential"/>
    <tag k="name" v="Camfield Street"/>
    <tag k="surface" v="paved"/>
  </way>
  <way id="43437617" version="6" timestamp="2010-07-09T06:06:06Z" uid="74617" user="JohnSmith" changeset="5171128">
    <nd ref="542944994"/>
    <nd ref="367140097"/>
    <nd ref="542944825"/>
    <nd ref="367140133"/>
    <nd ref="367136142"/>
    <tag k="highway" v="residential"/>
    <tag k="maxspeed" v="50"/>
    <tag k="maxspeed:source" v="default residential speed limit in Australia"/>
    <tag k="name" v="Camfield Street"/>
    <tag k="surface" v="paved"/>
  </way>
  <way id="43437617" version="7" timestamp="2010-08-14T12:29:29Z" uid="4467" user="Rosscoe" changeset="5490115">
    <nd ref="542944994"/>
    <nd ref="367140097"/>
    <nd ref="542944825"/>
    <nd ref="367140133"/>
    <nd ref="367136142"/>
    <tag k="highway" v="residential"/>
    <tag k="maxspeed" v="50"/>
    <tag k="name" v="Camfield Street"/>
    <tag k="source:maxspeed" v="default residential speed limit in Australia"/>
    <tag k="surface" v="paved"/>
  </way>
  <way id="43437625" version="5" timestamp="2010-05-13T23:26:11Z" uid="4467" user="Rosscoe" changeset="4691614">
    <nd ref="542944808"/>
    <nd ref="542944809"/>
    <nd ref="542944813"/>
    <nd ref="542944815"/>
    <tag k="highway" v="residential"/>
    <tag k="name" v="Burt Street"/>
    <tag k="surface" v="paved"/>
  </way>
  <way id="43437625" version="6" timestamp="2010-07-09T06:08:47Z" uid="74617" user="JohnSmith" changeset="5171128">
    <nd ref="542944808"/>
    <nd ref="542944809"/>
    <nd ref="542944813"/>
    <nd ref="542944815"/>
    <tag k="highway" v="residential"/>
    <tag k="maxspeed" v="50"/>
    <tag k="maxspeed:source" v="default residential speed limit in Australia"/>
    <tag k="name" v="Burt Street"/>
    <tag k="surface" v="paved"/>
  </way>
  <way id="43437629" version="5" timestamp="2010-05-13T23:27:11Z" uid="4467" user="Rosscoe" changeset="4691614">
    <nd ref="542944794"/>
    <nd ref="542944817"/>
    <nd ref="542944820"/>
    <nd ref="542944781"/>
    <tag k="highway" v="residential"/>
    <tag k="name" v="Burt Street"/>
    <tag k="surface" v="unpaved"/>
  </way>
  <way id="43437629" version="6" timestamp="2010-07-09T06:06:39Z" uid="74617" user="JohnSmith" changeset="5171128">
    <nd ref="542944794"/>
    <nd ref="542944817"/>
    <nd ref="542944820"/>
    <nd ref="542944781"/>
    <tag k="highway" v="residential"/>
    <tag k="maxspeed" v="50"/>
    <tag k="maxspeed:source" v="default residential speed limit in Australia"/>
    <tag k="name" v="Burt Street"/>
    <tag k="surface" v="unpaved"/>
  </way>
  <way id="43437633" version="5" timestamp="2010-05-13T23:26:50Z" uid="4467" user="Rosscoe" changeset="4691614">
    <nd ref="367140079"/>
    <nd ref="542944797"/>
    <nd ref="542944799"/>
    <nd ref="542944765"/>
    <tag k="highway" v="residential"/>
    <tag k="name" v="Burt Street"/>
    <tag k="surface" v="paved"/>
  </way>
  <way id="43437633" version="6" timestamp="2010-07-09T06:07:00Z" uid="74617" user="JohnSmith" changeset="5171128">
    <nd ref="367140079"/>
    <nd ref="542944797"/>
    <nd ref="542944799"/>
    <nd ref="542944765"/>
    <tag k="highway" v="residential"/>
    <tag k="maxspeed" v="50"/>
    <tag k="maxspeed:source" v="default residential speed limit in Australia"/>
    <tag k="name" v="Burt Street"/>
    <tag k="surface" v="paved"/>
  </way>
  <way id="43437639" version="5" timestamp="2010-05-13T23:26:43Z" uid="4467" user="Rosscoe" changeset="4691614">
    <nd ref="542944767"/>
    <nd ref="542944805"/>
    <nd ref="542944665"/>
    <tag k="highway" v="residential"/>
    <tag k="name" v="Burt Street"/>
    <tag k="surface" v="paved"/>
  </way>
  <way id="43437639" version="6" timestamp="2010-07-09T06:05:51Z" uid="74617" user="JohnSmith" changeset="5171128">
    <nd ref="542944767"/>
    <nd ref="542944805"/>
    <nd ref="542944665"/>
    <tag k="highway" v="residential"/>
    <tag k="maxspeed" v="50"/>
    <tag k="maxspeed:source" v="default residential speed limit in Australia"/>
    <tag k="name" v="Burt Street"/>
    <tag k="surface" v="paved"/>
  </way>
  <way id="43437643" version="5" timestamp="2010-05-13T23:26:06Z" uid="4467" user="Rosscoe" changeset="4691614">
    <nd ref="542946730"/>
    <nd ref="542947388"/>
    <nd ref="542947390"/>
    <nd ref="542947512"/>
    <nd ref="542947384"/>
    <tag k="highway" v="residential"/>
    <tag k="name" v="Serpentine Road"/>
    <tag k="surface" v="paved"/>
  </way>
  <way id="43437643" version="6" timestamp="2010-07-09T06:07:21Z" uid="74617" user="JohnSmith" changeset="5171128">
    <nd ref="542946730"/>
    <nd ref="542947388"/>
    <nd ref="542947390"/>
    <nd ref="542947512"/>
    <nd ref="542947384"/>
    <tag k="highway" v="residential"/>
    <tag k="maxspeed" v="50"/>
    <tag k="maxspeed:source" v="default residential speed limit in Australia"/>
    <tag k="name" v="Serpentine Road"/>
    <tag k="surface" v="paved"/>
  </way>
  <way id="43437646" version="5" timestamp="2010-05-13T23:26:50Z" uid="4467" user="Rosscoe" changeset="4691614">
    <nd ref="542947849"/>
    <nd ref="542947396"/>
    <nd ref="542947386"/>
    <tag k="highway" v="residential"/>
    <tag k="name" v="Serpentine Road"/>
    <tag k="surface" v="paved"/>
  </way>
  <way id="43437646" version="6" timestamp="2010-07-09T06:08:06Z" uid="74617" user="JohnSmith" changeset="5171128">
    <nd ref="542947849"/>
    <nd ref="542947396"/>
    <nd ref="542947386"/>
    <tag k="highway" v="residential"/>
    <tag k="maxspeed" v="50"/>
    <tag k="maxspeed:source" v="default residential speed limit in Australia"/>
    <tag k="name" v="Serpentine Road"/>
    <tag k="surface" v="paved"/>
  </way>
  <way id="43437646" version="7" timestamp="2010-08-14T12:28:40Z" uid="4467" user="Rosscoe" changeset="5490115">
    <nd ref="542947849"/>
    <nd ref="542947396"/>
    <nd ref="542947386"/>
    <tag k="highway" v="residential"/>
    <tag k="maxspeed" v="50"/>
    <tag k="name" v="Serpentine Road"/>
    <tag k="source:maxspeed" v="default residential speed limit in Australia"/>
    <tag k="surface" v="paved"/>
  </way>
  <way id="43437661" version="6" timestamp="2010-05-13T23:27:19Z" uid="4467" user="Rosscoe" changeset="4691614">
    <nd ref="542945780"/>
    <nd ref="542947400"/>
    <nd ref="542945677"/>
    <nd ref="542947405"/>
    <nd ref="542944247"/>
    <nd ref="542946312"/>
    <nd ref="542945742"/>
    <nd ref="542947415"/>
    <nd ref="367137740"/>
    <nd ref="542947699"/>
    <nd ref="542945105"/>
    <nd ref="367148259"/>
    <nd ref="542946203"/>
    <nd ref="542947432"/>
    <nd ref="542945066"/>
    <nd ref="542947698"/>
    <nd ref="542947435"/>
    <nd ref="367148898"/>
    <nd ref="542944993"/>
    <nd ref="542951241"/>
    <nd ref="367157909"/>
    <nd ref="542947447"/>
    <nd ref="367137152"/>
    <nd ref="542946920"/>
    <nd ref="542945120"/>
    <nd ref="542947459"/>
    <nd ref="542947462"/>
    <nd ref="542944970"/>
    <nd ref="542951103"/>
    <nd ref="355783138"/>
    <tag k="highway" v="residential"/>
    <tag k="name" v="Serpentine Road"/>
    <tag k="surface" v="paved"/>
  </way>
  <way id="43437661" version="7" timestamp="2010-05-14T00:13:25Z" uid="4467" user="Rosscoe" changeset="4691796"/>
  <way id="43437677" version="5" timestamp="2010-05-13T23:26:45Z" uid="4467" user="Rosscoe" changeset="4691614">
    <nd ref="542947700"/>
    <nd ref="542947470"/>
    <nd ref="542947474"/>
    <tag k="highway" v="residential"/>
    <tag k="name" v="Serpentine Road"/>
    <tag k="surface" v="paved"/>
  </way>
  <way id="43437677" version="6" timestamp="2010-07-09T06:07:56Z" uid="74617" user="JohnSmith" changeset="5171128">
    <nd ref="542947700"/>
    <nd ref="542947470"/>
    <nd ref="542947474"/>
    <tag k="highway" v="residential"/>
    <tag k="maxspeed" v="50"/>
    <tag k="maxspeed:source" v="default residential speed limit in Australia"/>
    <tag k="name" v="Serpentine Road"/>
    <tag k="surface" v="paved"/>
  </way>
  <way id="43437681" version="5" timestamp="2010-05-13T23:26:08Z" uid="4467" user="Rosscoe" changeset="4691614">
    <nd ref="542947432"/>
    <nd ref="542947476"/>
    <nd ref="542947478"/>
    <tag k="highway" v="residential"/>
    <tag k="name" v="Sherratt Street"/>
    <tag k="surface" v="paved"/>
  </way>
  <way id="43437681" version="6" timestamp="2010-07-09T06:08:53Z" uid="74617" user="JohnSmith" changeset="5171128">
    <nd ref="542947432"/>
    <nd ref="542947476"/>
    <nd ref="542947478"/>
    <tag k="highway" v="residential"/>
    <tag k="maxspeed" v="50"/>
    <tag k="maxspeed:source" v="default residential speed limit in Australia"/>
    <tag k="name" v="Sherratt Street"/>
    <tag k="surface" v="paved"/>
  </way>
  <way id="43437686" version="4" timestamp="2010-05-13T23:27:22Z" uid="4467" user="Rosscoe" changeset="4691614">
    <nd ref="542946279"/>
    <nd ref="542947480"/>
    <nd ref="542944532"/>
    <nd ref="542946726"/>
    <tag k="highway" v="residential"/>
    <tag k="name" v="Sims Street"/>
    <tag k="surface" v="paved"/>
  </way>
  <way id="43437686" version="5" timestamp="2010-07-09T06:07:22Z" uid="74617" user="JohnSmith" changeset="5171128">
    <nd ref="542946279"/>
    <nd ref="542947480"/>
    <nd ref="542944532"/>
    <nd ref="542946726"/>
    <tag k="highway" v="residential"/>
    <tag k="maxspeed" v="50"/>
    <tag k="maxspeed:source" v="default residential speed limit in Australia"/>
    <tag k="name" v="Sims Street"/>
    <tag k="surface" v="paved"/>
  </way>
  <way id="43437689" version="5" timestamp="2010-05-13T23:26:30Z" uid="4467" user="Rosscoe" changeset="4691614">
    <nd ref="542947649"/>
    <nd ref="542947487"/>
    <nd ref="542946177"/>
    <nd ref="542944253"/>
    <tag k="highway" v="residential"/>
    <tag k="name" v="Sinclair Street"/>
    <tag k="surface" v="paved"/>
  </way>
  <way id="43437689" version="6" timestamp="2010-07-09T06:08:07Z" uid="74617" user="JohnSmith" changeset="5171128">
    <nd ref="542947649"/>
    <nd ref="542947487"/>
    <nd ref="542946177"/>
    <nd ref="542944253"/>
    <tag k="highway" v="residential"/>
    <tag k="maxspeed" v="50"/>
    <tag k="maxspeed:source" v="default residential speed limit in Australia"/>
    <tag k="name" v="Sinclair Street"/>
    <tag k="surface" v="paved"/>
  </way>
  <way id="43437696" version="4" timestamp="2010-05-13T23:26:54Z" uid="4467" user="Rosscoe" changeset="4691614">
    <nd ref="542947405"/>
    <nd ref="542947498"/>
    <nd ref="542947501"/>
    <nd ref="542947505"/>
    <nd ref="542947508"/>
    <nd ref="542947511"/>
    <tag k="highway" v="residential"/>
    <tag k="name" v="Spearwood Road"/>
    <tag k="surface" v="paved"/>
  </way>
  <way id="43437696" version="5" timestamp="2010-07-09T06:08:30Z" uid="74617" user="JohnSmith" changeset="5171128">
    <nd ref="542947405"/>
    <nd ref="542947498"/>
    <nd ref="542947501"/>
    <nd ref="542947505"/>
    <nd ref="542947508"/>
    <nd ref="542947511"/>
    <tag k="highway" v="residential"/>
    <tag k="maxspeed" v="50"/>
    <tag k="maxspeed:source" v="default residential speed limit in Australia"/>
    <tag k="name" v="Spearwood Road"/>
    <tag k="surface" v="paved"/>
  </way>
  <way id="43437702" version="5" timestamp="2010-05-13T23:26:47Z" uid="4467" user="Rosscoe" changeset="4691614">
    <nd ref="542947512"/>
    <nd ref="542947513"/>
    <nd ref="542945732"/>
    <nd ref="542945111"/>
    <nd ref="542947520"/>
    <nd ref="542945223"/>
    <nd ref="542947523"/>
    <tag k="highway" v="residential"/>
    <tag k="name" v="Spencer Street"/>
    <tag k="surface" v="paved"/>
  </way>
  <way id="43437702" version="6" timestamp="2010-07-09T06:07:31Z" uid="74617" user="JohnSmith" changeset="5171128">
    <nd ref="542947512"/>
    <nd ref="542947513"/>
    <nd ref="542945732"/>
    <nd ref="542945111"/>
    <nd ref="542947520"/>
    <nd ref="542945223"/>
    <nd ref="542947523"/>
    <tag k="highway" v="residential"/>
    <tag k="maxspeed" v="50"/>
    <tag k="maxspeed:source" v="default residential speed limit in Australia"/>
    <tag k="name" v="Spencer Street"/>
    <tag k="surface" v="paved"/>
  </way>
  <way id="43437713" version="4" timestamp="2010-05-13T23:26:18Z" uid="4467" user="Rosscoe" changeset="4691614">
    <nd ref="542946175"/>
    <nd ref="542947525"/>
    <nd ref="542947527"/>
    <tag k="highway" v="residential"/>
    <tag k="name" v="Staines Street"/>
    <tag k="surface" v="unpaved"/>
  </way>
  <way id="43437713" version="5" timestamp="2010-07-09T06:07:10Z" uid="74617" user="JohnSmith" changeset="5171128">
    <nd ref="542946175"/>
    <nd ref="542947525"/>
    <nd ref="542947527"/>
    <tag k="highway" v="residential"/>
    <tag k="maxspeed" v="50"/>
    <tag k="maxspeed:source" v="default residential speed limit in Australia"/>
    <tag k="name" v="Staines Street"/>
    <tag k="surface" v="unpaved"/>
  </way>
  <way id="43437730" version="5" timestamp="2010-05-13T23:25:56Z" uid="4467" user="Rosscoe" changeset="4691614">
    <nd ref="542947528"/>
    <nd ref="545617986"/>
    <tag k="highway" v="residential"/>
    <tag k="name" v="Stanley Street"/>
    <tag k="surface" v="paved"/>
  </way>
  <way id="43437730" version="6" timestamp="2010-07-09T06:06:25Z" uid="74617" user="JohnSmith" changeset="5171128">
    <nd ref="542947528"/>
    <nd ref="545617986"/>
    <tag k="highway" v="residential"/>
    <tag k="maxspeed" v="50"/>
    <tag k="maxspeed:source" v="default residential speed limit in Australia"/>
    <tag k="name" v="Stanley Street"/>
    <tag k="surface" v="paved"/>
  </way>
  <way id="43437766" version="5" timestamp="2010-05-13T23:27:08Z" uid="4467" user="Rosscoe" changeset="4691614">
    <nd ref="542947537"/>
    <nd ref="542947538"/>
    <nd ref="542947619"/>
    <nd ref="542947541"/>
    <tag k="highway" v="residential"/>
    <tag k="name" v="Stead Road"/>
    <tag k="surface" v="paved"/>
  </way>
  <way id="43437766" version="6" timestamp="2010-07-09T06:06:45Z" uid="74617" user="JohnSmith" changeset="5171128">
    <nd ref="542947537"/>
    <nd ref="542947538"/>
    <nd ref="542947619"/>
    <nd ref="542947541"/>
    <tag k="highway" v="residential"/>
    <tag k="maxspeed" v="50"/>
    <tag k="maxspeed:source" v="default residential speed limit in Australia"/>
    <tag k="name" v="Stead Road"/>
    <tag k="surface" v="paved"/>
  </way>
  <way id="43437774" version="5" timestamp="2010-05-13T23:25:50Z" uid="4467" user="Rosscoe" changeset="4691614">
    <nd ref="542947536"/>
    <nd ref="542946190"/>
    <nd ref="542944919"/>
    <nd ref="542947545"/>
    <nd ref="542947533"/>
    <tag k="highway" v="residential"/>
    <tag k="name" v="Stead Road"/>
    <tag k="surface" v="paved"/>
  </way>
  <way id="43437774" version="6" timestamp="2010-07-09T06:05:55Z" uid="74617" user="JohnSmith" changeset="5171128">
    <nd ref="542947536"/>
    <nd ref="542946190"/>
    <nd ref="542944919"/>
    <nd ref="542947545"/>
    <nd ref="542947533"/>
    <tag k="highway" v="residential"/>
    <tag k="maxspeed" v="50"/>
    <tag k="maxspeed:source" v="default residential speed limit in Australia"/>
    <tag k="name" v="Stead Road"/>
    <tag k="surface" v="paved"/>
  </way>
  <way id="43437783" version="5" timestamp="2010-05-13T23:26:29Z" uid="4467" user="Rosscoe" changeset="4691614">
    <nd ref="367137601"/>
    <nd ref="542947549"/>
    <nd ref="542947552"/>
    <nd ref="542947556"/>
    <nd ref="542947534"/>
    <tag k="highway" v="residential"/>
    <tag k="name" v="Stead Road"/>
    <tag k="surface" v="paved"/>
  </way>
  <way id="43437783" version="6" timestamp="2010-07-09T06:08:50Z" uid="74617" user="JohnSmith" changeset="5171128">
    <nd ref="367137601"/>
    <nd ref="542947549"/>
    <nd ref="542947552"/>
    <nd ref="542947556"/>
    <nd ref="542947534"/>
    <tag k="highway" v="residential"/>
    <tag k="maxspeed" v="50"/>
    <tag k="maxspeed:source" v="default residential speed limit in Australia"/>
    <tag k="name" v="Stead Road"/>
    <tag k="surface" v="paved"/>
  </way>
  <way id="43437787" version="5" timestamp="2010-05-13T23:25:48Z" uid="4467" user="Rosscoe" changeset="4691614">
    <nd ref="542947596"/>
    <nd ref="542945074"/>
    <nd ref="595963130"/>
    <nd ref="367148021"/>
    <tag k="highway" v="residential"/>
    <tag k="name" v="Prior Street"/>
    <tag k="surface" v="paved"/>
  </way>
  <way id="43437787" version="6" timestamp="2010-07-09T06:06:43Z" uid="74617" user="JohnSmith" changeset="5171128">
    <nd ref="542947596"/>
    <nd ref="542945074"/>
    <nd ref="595963130"/>
    <nd ref="367148021"/>
    <tag k="highway" v="residential"/>
    <tag k="maxspeed" v="50"/>
    <tag k="maxspeed:source" v="default residential speed limit in Australia"/>
    <tag k="name" v="Prior Street"/>
    <tag k="surface" v="paved"/>
  </way>
  <way id="43437791" version="4" timestamp="2010-05-13T23:26:50Z" uid="4467" user="Rosscoe" changeset="4691614">
    <nd ref="368130518"/>
    <nd ref="542947259"/>
    <nd ref="542947261"/>
    <nd ref="542945657"/>
    <tag k="name" v="Princess Royal Drive"/>
    <tag k="surface" v="paved"/>
  </way>
  <way id="43437795" version="5" timestamp="2010-05-13T23:26:33Z" uid="4467" user="Rosscoe" changeset="4691614">
    <nd ref="542945791"/>
    <nd ref="542947271"/>
    <nd ref="542947274"/>
    <nd ref="542953085"/>
    <nd ref="542947279"/>
    <nd ref="542953071"/>
    <nd ref="542954235"/>
    <nd ref="542953247"/>
    <tag k="highway" v="residential"/>
    <tag k="name" v="Reidy Drive"/>
    <tag k="surface" v="paved"/>
  </way>
  <way id="43437795" version="6" timestamp="2010-07-09T06:06:15Z" uid="74617" user="JohnSmith" changeset="5171128">
    <nd ref="542945791"/>
    <nd ref="542947271"/>
    <nd ref="542947274"/>
    <nd ref="542953085"/>
    <nd ref="542947279"/>
    <nd ref="542953071"/>
    <nd ref="542954235"/>
    <nd ref="542953247"/>
    <tag k="highway" v="residential"/>
    <tag k="maxspeed" v="50"/>
    <tag k="maxspeed:source" v="default residential speed limit in Australia"/>
    <tag k="name" v="Reidy Drive"/>
    <tag k="surface" v="paved"/>
  </way>
  <way id="43437801" version="4" timestamp="2010-05-13T23:26:24Z" uid="4467" user="Rosscoe" changeset="4691614">
    <nd ref="367148250"/>
    <nd ref="542947269"/>
    <tag k="highway" v="residential"/>
    <tag k="name" v="Ranford Street"/>
    <tag k="surface" v="paved"/>
  </way>
  <way id="43437801" version="5" timestamp="2010-07-09T06:07:58Z" uid="74617" user="JohnSmith" changeset="5171128">
    <nd ref="367148250"/>
    <nd ref="542947269"/>
    <tag k="highway" v="residential"/>
    <tag k="maxspeed" v="50"/>
    <tag k="maxspeed:source" v="default residential speed limit in Australia"/>
    <tag k="name" v="Ranford Street"/>
    <tag k="surface" v="paved"/>
  </way>
  <way id="43437807" version="5" timestamp="2010-05-13T23:26:17Z" uid="4467" user="Rosscoe" changeset="4691614">
    <nd ref="542946058"/>
    <nd ref="542947295"/>
    <nd ref="542947302"/>
    <nd ref="542947305"/>
    <nd ref="542952800"/>
    <tag k="highway" v="residential"/>
    <tag k="name" v="Robert Street"/>
    <tag k="surface" v="paved"/>
  </way>
  <way id="43437807" version="6" timestamp="2010-07-09T06:06:53Z" uid="74617" user="JohnSmith" changeset="5171128">
    <nd ref="542946058"/>
    <nd ref="542947295"/>
    <nd ref="542947302"/>
    <nd ref="542947305"/>
    <nd ref="542952800"/>
    <tag k="highway" v="residential"/>
    <tag k="maxspeed" v="50"/>
    <tag k="maxspeed:source" v="default residential speed limit in Australia"/>
    <tag k="name" v="Robert Street"/>
    <tag k="surface" v="paved"/>
  </way>
  <way id="43437828" version="6" timestamp="2010-05-13T23:26:55Z" uid="4467" user="Rosscoe" changeset="4691614">
    <nd ref="542945190"/>
    <nd ref="542947287"/>
    <nd ref="542947289"/>
    <nd ref="648792521"/>
    <nd ref="542947213"/>
    <tag k="highway" v="secondary"/>
    <tag k="name" v="Residency Road"/>
    <tag k="surface" v="paved"/>
  </way>
  <way id="43437828" version="7" timestamp="2010-05-29T07:20:25Z" uid="4467" user="Rosscoe" changeset="4840034">
    <nd ref="542947212"/>
    <nd ref="542947213"/>
    <nd ref="648792521"/>
    <nd ref="542947289"/>
    <nd ref="542947287"/>
    <nd ref="542945190"/>
    <tag k="highway" v="secondary"/>
    <tag k="name" v="Residency Road"/>
    <tag k="surface" v="paved"/>
  </way>
  <way id="43437835" version="5" timestamp="2010-05-13T23:27:04Z" uid="4467" user="Rosscoe" changeset="4691614">
    <nd ref="542945070"/>
    <nd ref="542947316"/>
    <nd ref="367148910"/>
    <tag k="highway" v="residential"/>
    <tag k="name" v="Robinson Street"/>
    <tag k="surface" v="unpaved"/>
  </way>
  <way id="43437835" version="6" timestamp="2010-07-09T06:07:17Z" uid="74617" user="JohnSmith" changeset="5171128">
    <nd ref="542945070"/>
    <nd ref="542947316"/>
    <nd ref="367148910"/>
    <tag k="highway" v="residential"/>
    <tag k="maxspeed" v="50"/>
    <tag k="maxspeed:source" v="default residential speed limit in Australia"/>
    <tag k="name" v="Robinson Street"/>
    <tag k="surface" v="unpaved"/>
  </way>
  <way id="43437835" version="7" timestamp="2010-08-14T12:29:15Z" uid="4467" user="Rosscoe" changeset="5490115">
    <nd ref="542945070"/>
    <nd ref="542947316"/>
    <nd ref="367148910"/>
    <tag k="highway" v="residential"/>
    <tag k="maxspeed" v="50"/>
    <tag k="name" v="Robinson Street"/>
    <tag k="source:maxspeed" v="default residential speed limit in Australia"/>
    <tag k="surface" v="unpaved"/>
  </way>
  <way id="43437841" version="5" timestamp="2010-05-13T23:26:54Z" uid="4467" user="Rosscoe" changeset="4691614">
    <nd ref="542947308"/>
    <nd ref="542947478"/>
    <nd ref="542945070"/>
    <tag k="highway" v="residential"/>
    <tag k="name" v="Robinson Street"/>
    <tag k="surface" v="paved"/>
  </way>
  <way id="43437841" version="6" timestamp="2010-07-09T06:08:30Z" uid="74617" user="JohnSmith" changeset="5171128">
    <nd ref="542947308"/>
    <nd ref="542947478"/>
    <nd ref="542945070"/>
    <tag k="highway" v="residential"/>
    <tag k="maxspeed" v="50"/>
    <tag k="maxspeed:source" v="default residential speed limit in Australia"/>
    <tag k="name" v="Robinson Street"/>
    <tag k="surface" v="paved"/>
  </way>
  <way id="43437846" version="5" timestamp="2010-05-13T23:26:34Z" uid="4467" user="Rosscoe" changeset="4691614">
    <nd ref="542946668"/>
    <nd ref="542947335"/>
    <nd ref="542947339"/>
    <tag k="highway" v="residential"/>
    <tag k="name" v="St Werburghs L"/>
    <tag k="surface" v="paved"/>
  </way>
  <way id="43437846" version="6" timestamp="2010-06-01T02:52:43Z" uid="4467" user="Rosscoe" changeset="4871101">
    <nd ref="542946668"/>
    <nd ref="542947335"/>
    <nd ref="542947339"/>
    <tag k="highway" v="residential"/>
    <tag k="name" v="St Werburghs Lane"/>
    <tag k="surface" v="paved"/>
  </way>
  <way id="43437846" version="7" timestamp="2010-07-09T06:06:56Z" uid="74617" user="JohnSmith" changeset="5171128">
    <nd ref="542946668"/>
    <nd ref="542947335"/>
    <nd ref="542947339"/>
    <tag k="highway" v="residential"/>
    <tag k="maxspeed" v="50"/>
    <tag k="maxspeed:source" v="default residential speed limit in Australia"/>
    <tag k="name" v="St Werburghs Lane"/>
    <tag k="surface" v="paved"/>
  </way>
  <way id="43437861" version="5" timestamp="2010-05-13T23:27:21Z" uid="4467" user="Rosscoe" changeset="4691614">
    <nd ref="542947324"/>
    <nd ref="542945217"/>
    <nd ref="542945733"/>
    <nd ref="542945114"/>
    <tag k="highway" v="residential"/>
    <tag k="name" v="Rowley Street"/>
    <tag k="surface" v="paved"/>
  </way>
  <way id="43437861" version="6" timestamp="2010-07-09T06:08:36Z" uid="74617" user="JohnSmith" changeset="5171128">
    <nd ref="542947324"/>
    <nd ref="542945217"/>
    <nd ref="542945733"/>
    <nd ref="542945114"/>
    <tag k="highway" v="residential"/>
    <tag k="maxspeed" v="50"/>
    <tag k="maxspeed:source" v="default residential speed limit in Australia"/>
    <tag k="name" v="Rowley Street"/>
    <tag k="surface" v="paved"/>
  </way>
  <way id="43437880" version="6" timestamp="2010-05-13T23:27:13Z" uid="4467" user="Rosscoe" changeset="4691614">
    <nd ref="542947356"/>
    <nd ref="542947357"/>
    <nd ref="542946717"/>
    <nd ref="542947361"/>
    <tag k="highway" v="residential"/>
    <tag k="name" v="Sanford Road"/>
    <tag k="surface" v="paved"/>
  </way>
  <way id="43437880" version="7" timestamp="2010-07-09T06:07:35Z" uid="74617" user="JohnSmith" changeset="5171128">
    <nd ref="542947356"/>
    <nd ref="542947357"/>
    <nd ref="542946717"/>
    <nd ref="542947361"/>
    <tag k="highway" v="residential"/>
    <tag k="maxspeed" v="50"/>
    <tag k="maxspeed:source" v="default residential speed limit in Australia"/>
    <tag k="name" v="Sanford Road"/>
    <tag k="surface" v="paved"/>
  </way>
  <way id="43437883" version="6" timestamp="2010-05-13T23:26:20Z" uid="4467" user="Rosscoe" changeset="4691614">
    <nd ref="542947345"/>
    <nd ref="542946764"/>
    <nd ref="542946706"/>
    <nd ref="367137751"/>
    <nd ref="542945687"/>
    <nd ref="542947350"/>
    <nd ref="542946852"/>
    <tag k="highway" v="residential"/>
    <tag k="name" v="Sanford Road"/>
    <tag k="surface" v="paved"/>
  </way>
  <way id="43437883" version="7" timestamp="2010-05-14T00:13:13Z" uid="4467" user="Rosscoe" changeset="4691796">
    <nd ref="542947345"/>
    <nd ref="542946764"/>
    <nd ref="542946706"/>
    <nd ref="367137751"/>
    <nd ref="542945687"/>
    <nd ref="542947350"/>
    <nd ref="542946852"/>
    <nd ref="542946830"/>
    <tag k="highway" v="residential"/>
    <tag k="name" v="Sanford Road"/>
    <tag k="surface" v="paved"/>
  </way>
  <way id="43437883" version="8" timestamp="2010-07-09T06:05:31Z" uid="74617" user="JohnSmith" changeset="5171128">
    <nd ref="542947345"/>
    <nd ref="542946764"/>
    <nd ref="542946706"/>
    <nd ref="367137751"/>
    <nd ref="542945687"/>
    <nd ref="542947350"/>
    <nd ref="542946852"/>
    <nd ref="542946830"/>
    <tag k="highway" v="residential"/>
    <tag k="maxspeed" v="50"/>
    <tag k="maxspeed:source" v="default residential speed limit in Australia"/>
    <tag k="name" v="Sanford Road"/>
    <tag k="surface" v="paved"/>
  </way>
  <way id="43437900" version="5" timestamp="2010-05-13T23:25:58Z" uid="4467" user="Rosscoe" changeset="4691614">
    <nd ref="542947435"/>
    <nd ref="542947363"/>
    <nd ref="542947365"/>
    <nd ref="542947367"/>
    <nd ref="542947370"/>
    <nd ref="542947373"/>
    <nd ref="542947378"/>
    <nd ref="542947381"/>
    <nd ref="542947383"/>
    <tag k="highway" v="residential"/>
    <tag k="name" v="Serpentine Cresent"/>
    <tag k="surface" v="paved"/>
  </way>
  <way id="43437900" version="6" timestamp="2010-07-09T06:06:14Z" uid="74617" user="JohnSmith" changeset="5171128">
    <nd ref="542947435"/>
    <nd ref="542947363"/>
    <nd ref="542947365"/>
    <nd ref="542947367"/>
    <nd ref="542947370"/>
    <nd ref="542947373"/>
    <nd ref="542947378"/>
    <nd ref="542947381"/>
    <nd ref="542947383"/>
    <tag k="highway" v="residential"/>
    <tag k="maxspeed" v="50"/>
    <tag k="maxspeed:source" v="default residential speed limit in Australia"/>
    <tag k="name" v="Serpentine Cresent"/>
    <tag k="surface" v="paved"/>
  </way>
  <way id="43437911" version="4" timestamp="2010-05-13T23:27:07Z" uid="4467" user="Rosscoe" changeset="4691614">
    <nd ref="542946281"/>
    <nd ref="542947026"/>
    <tag k="highway" v="residential"/>
    <tag k="name" v="Preiss Street"/>
    <tag k="surface" v="paved"/>
  </way>
  <way id="43437911" version="5" timestamp="2010-07-09T06:06:45Z" uid="74617" user="JohnSmith" changeset="5171128">
    <nd ref="542946281"/>
    <nd ref="542947026"/>
    <tag k="highway" v="residential"/>
    <tag k="maxspeed" v="50"/>
    <tag k="maxspeed:source" v="default residential speed limit in Australia"/>
    <tag k="name" v="Preiss Street"/>
    <tag k="surface" v="paved"/>
  </way>
  <way id="43437920" version="5" timestamp="2010-05-13T23:26:25Z" uid="4467" user="Rosscoe" changeset="4691614">
    <nd ref="542946888"/>
    <nd ref="542947005"/>
    <nd ref="367149284"/>
    <nd ref="542946305"/>
    <nd ref="367149311"/>
    <nd ref="542951514"/>
    <tag k="highway" v="residential"/>
    <tag k="name" v="Pioneer Road"/>
    <tag k="surface" v="paved"/>
  </way>
  <way id="43437920" version="6" timestamp="2010-07-09T06:06:02Z" uid="74617" user="JohnSmith" changeset="5171128">
    <nd ref="542946888"/>
    <nd ref="542947005"/>
    <nd ref="367149284"/>
    <nd ref="542946305"/>
    <nd ref="367149311"/>
    <nd ref="542951514"/>
    <tag k="highway" v="residential"/>
    <tag k="maxspeed" v="50"/>
    <tag k="maxspeed:source" v="default residential speed limit in Australia"/>
    <tag k="name" v="Pioneer Road"/>
    <tag k="surface" v="paved"/>
  </way>
  <way id="43437938" version="4" timestamp="2010-05-13T23:26:00Z" uid="4467" user="Rosscoe" changeset="4691614">
    <nd ref="542988193"/>
    <nd ref="542946949"/>
    <tag k="highway" v="residential"/>
    <tag k="name" v="Playne Street"/>
    <tag k="surface" v="paved"/>
  </way>
  <way id="43437938" version="5" timestamp="2010-07-09T06:08:40Z" uid="74617" user="JohnSmith" changeset="5171128">
    <nd ref="542988193"/>
    <nd ref="542946949"/>
    <tag k="highway" v="residential"/>
    <tag k="maxspeed" v="50"/>
    <tag k="maxspeed:source" v="default residential speed limit in Australia"/>
    <tag k="name" v="Playne Street"/>
    <tag k="surface" v="paved"/>
  </way>
  <way id="43437955" version="5" timestamp="2010-05-13T23:27:19Z" uid="4467" user="Rosscoe" changeset="4691614">
    <nd ref="367149344"/>
    <nd ref="542947046"/>
    <nd ref="545617784"/>
    <nd ref="542947213"/>
    <nd ref="367149340"/>
    <nd ref="542947242"/>
    <nd ref="542947804"/>
    <nd ref="542947785"/>
    <nd ref="542947856"/>
    <nd ref="542947071"/>
    <nd ref="542947206"/>
    <nd ref="542947205"/>
    <nd ref="542947081"/>
    <nd ref="542947087"/>
    <nd ref="542947090"/>
    <nd ref="542944639"/>
    <nd ref="542947097"/>
    <nd ref="542947102"/>
    <nd ref="542947106"/>
    <nd ref="542947110"/>
    <nd ref="542947115"/>
    <nd ref="542947122"/>
    <nd ref="542947125"/>
    <nd ref="542947127"/>
    <nd ref="542952423"/>
    <tag k="highway" v="secondary"/>
    <tag k="name" v="Princess Royal Drive"/>
    <tag k="surface" v="paved"/>
  </way>
  <way id="43437955" version="6" timestamp="2010-05-29T07:20:16Z" uid="4467" user="Rosscoe" changeset="4840034">
    <nd ref="367149344"/>
    <nd ref="542947046"/>
    <nd ref="545617784"/>
    <nd ref="542947213"/>
    <nd ref="367149340"/>
    <nd ref="542947242"/>
    <nd ref="542947804"/>
    <nd ref="542947785"/>
    <nd ref="542947856"/>
    <nd ref="542947071"/>
    <nd ref="542947206"/>
    <nd ref="542947205"/>
    <nd ref="542947081"/>
    <nd ref="542947087"/>
    <nd ref="542947090"/>
    <nd ref="542944639"/>
    <nd ref="542947097"/>
    <nd ref="542947102"/>
    <nd ref="542947106"/>
    <nd ref="542947110"/>
    <nd ref="542947115"/>
    <nd ref="542947122"/>
    <nd ref="542947125"/>
    <nd ref="542947127"/>
    <nd ref="542952423"/>
    <tag k="highway" v="secondary"/>
    <tag k="name" v="Princess Royal Drive"/>
    <tag k="oneway" v="yes"/>
    <tag k="surface" v="paved"/>
  </way>
  <way id="43437975" version="5" timestamp="2010-05-13T23:25:46Z" uid="4467" user="Rosscoe" changeset="4691614">
    <nd ref="368130654"/>
    <nd ref="542947133"/>
    <nd ref="542947250"/>
    <nd ref="542944884"/>
    <nd ref="368131211"/>
    <nd ref="542947239"/>
    <nd ref="542945145"/>
    <nd ref="542947154"/>
    <nd ref="368131085"/>
    <nd ref="542944343"/>
    <nd ref="542947163"/>
    <nd ref="368131028"/>
    <nd ref="368131008"/>
    <nd ref="367149344"/>
    <nd ref="542947176"/>
    <nd ref="542947212"/>
    <nd ref="542947184"/>
    <nd ref="542947186"/>
    <nd ref="542947211"/>
    <nd ref="542947208"/>
    <nd ref="368130818"/>
    <nd ref="368130831"/>
    <nd ref="542951518"/>
    <nd ref="542947205"/>
    <tag k="highway" v="secondary"/>
    <tag k="name" v="Princess Royal Drive"/>
    <tag k="surface" v="paved"/>
  </way>
  <way id="43437975" version="6" timestamp="2010-05-29T07:20:21Z" uid="4467" user="Rosscoe" changeset="4840034">
    <nd ref="542947205"/>
    <nd ref="542951518"/>
    <nd ref="368130831"/>
    <nd ref="368130818"/>
    <nd ref="542947208"/>
    <nd ref="542947211"/>
    <nd ref="542947186"/>
    <nd ref="542947184"/>
    <nd ref="542947212"/>
    <nd ref="542947176"/>
    <nd ref="367149344"/>
    <nd ref="368131008"/>
    <nd ref="368131028"/>
    <nd ref="542947163"/>
    <nd ref="542944343"/>
    <nd ref="368131085"/>
    <nd ref="542947154"/>
    <nd ref="542945145"/>
    <nd ref="542947239"/>
    <nd ref="368131211"/>
    <nd ref="542944884"/>
    <nd ref="542947250"/>
    <nd ref="542947133"/>
    <nd ref="368130654"/>
    <tag k="highway" v="secondary"/>
    <tag k="name" v="Princess Royal Drive"/>
    <tag k="oneway" v="yes"/>
    <tag k="surface" v="paved"/>
  </way>
  <way id="43437985" version="6" timestamp="2010-05-13T23:26:58Z" uid="4467" user="Rosscoe" changeset="4691614">
    <nd ref="542946727"/>
    <nd ref="542951572"/>
    <nd ref="542947029"/>
    <nd ref="542951577"/>
    <nd ref="542947024"/>
    <tag k="highway" v="residential"/>
    <tag k="name" v="Preiss Street"/>
    <tag k="surface" v="paved"/>
  </way>
  <way id="43437985" version="7" timestamp="2010-07-09T06:08:38Z" uid="74617" user="JohnSmith" changeset="5171128">
    <nd ref="542946727"/>
    <nd ref="542951572"/>
    <nd ref="542947029"/>
    <nd ref="542951577"/>
    <nd ref="542947024"/>
    <tag k="highway" v="residential"/>
    <tag k="maxspeed" v="50"/>
    <tag k="maxspeed:source" v="default residential speed limit in Australia"/>
    <tag k="name" v="Preiss Street"/>
    <tag k="surface" v="paved"/>
  </way>
</osm>
