<?xml version='1.0' encoding='UTF-8'?>
<osm version="0.6" generator="libosmium/2.20.0">
  <way id="4344077" version="1" timestamp="2007-09-23T18:57:51Z" uid="8328" user="benpre" changeset="506234">
    <nd ref="27584919"/>
    <nd ref="26405574"/>
    <nd ref="26405572"/>
    <nd ref="26405542"/>
    <nd ref="26405573"/>
    <nd ref="26405544"/>
    <nd ref="26418511"/>
    <nd ref="26458971"/>
    <nd ref="26063732"/>
    <tag k="created_by" v="JOSM"/>
    <tag k="highway" v="secondary"/>
    <tag k="name" v="Okulickiego"/>
  </way>
  <way id="4344077" version="2" timestamp="2008-11-12T01:08:42Z" uid="20587" user="balrog-kun" changeset="736670">
    <nd ref="27584919"/>
    <nd ref="26405574"/>
    <nd ref="26405572"/>
    <nd ref="26405542"/>
    <nd ref="311426150"/>
    <nd ref="26405573"/>
    <nd ref="26405544"/>
    <nd ref="26418511"/>
    <nd ref="26458971"/>
    <nd ref="26063732"/>
    <tag k="created_by" v="JOSM"/>
    <tag k="highway" v="secondary"/>
    <tag k="name" v="Okulickiego"/>
  </way>
  <way id="4344077" version="3" timestamp="2009-12-31T13:56:54Z" uid="20587" user="balrog-kun" changeset="3500924">
    <nd ref="27584919"/>
    <nd ref="26405574"/>
    <nd ref="26405572"/>
    <nd ref="26405542"/>
    <nd ref="311426150"/>
    <nd ref="26405573"/>
    <nd ref="26405544"/>
    <nd ref="26418511"/>
    <nd ref="26458971"/>
    <nd ref="26063732"/>
    <tag k="highway" v="secondary"/>
    <tag k="maxspeed" v="40"/>
    <tag k="name" v="Okulickiego"/>
  </way>
  <way id="4344077" version="4" timestamp="2011-01-01T18:01:22Z" uid="20587" user="balrog-kun" changeset="6830339">
    <nd ref="27584919"/>
    <nd ref="26405574"/>
    <nd ref="1077201984"/>
    <nd ref="26405572"/>
    <nd ref="26405542"/>
    <nd ref="311426150"/>
    <nd ref="26405573"/>
    <nd ref="26405544"/>
    <nd ref="26418511"/>
    <nd ref="26458971"/>
    <nd ref="26063732"/>
    <tag k="highway" v="secondary"/>
    <tag k="maxspeed" v="40"/>
    <tag k="name" v="Generała Leopolda Okulickiego"/>
  </way>
  <way id="4344077" version="5" timestamp="2011-02-05T18:36:19Z" uid="20587" user="balrog-kun" changeset="7195763">
    <nd ref="27584919"/>
    <nd ref="26405574"/>
    <nd ref="1077201984"/>
    <nd ref="26405572"/>
    <nd ref="26405542"/>
    <nd ref="311426150"/>
    <nd ref="26405573"/>
    <nd ref="26405544"/>
    <tag k="highway" v="secondary"/>
    <tag k="maxspeed" v="40"/>
    <tag k="name" v="Generała Leopolda Okulickiego"/>
  </way>
  <way id="4344078" version="2" timestamp="2008-11-12T01:08:42Z" uid="20587" user="balrog-kun" changeset="736670">
    <nd ref="26405535"/>
    <nd ref="26405537"/>
    <nd ref="26405538"/>
    <nd ref="26405539"/>
    <nd ref="26405540"/>
    <nd ref="26405543"/>
    <nd ref="26405541"/>
    <nd ref="311426152"/>
    <nd ref="26405542"/>
    <tag k="created_by" v="JOSM"/>
    <tag k="highway" v="secondary_link"/>
  </way>
  <way id="4344078" version="5" timestamp="2009-10-20T22:45:42Z" uid="20587" user="balrog-kun" changeset="2908055">
    <nd ref="26405535"/>
    <nd ref="26405537"/>
    <nd ref="26405538"/>
    <nd ref="26405539"/>
    <nd ref="26405540"/>
    <nd ref="26405543"/>
    <nd ref="26405541"/>
    <nd ref="311426152"/>
    <nd ref="26405542"/>
    <tag k="highway" v="secondary_link"/>
    <tag k="oneway" v="yes"/>
    <tag k="ref" v="721"/>
  </way>
  <way id="4344090" version="3" timestamp="2009-02-02T00:35:39Z" uid="20587" user="balrog-kun" changeset="47521">
    <nd ref="26405569"/>
    <nd ref="339919367"/>
    <nd ref="26206597"/>
    <nd ref="26459045"/>
    <nd ref="33072861"/>
    <nd ref="33072858"/>
    <nd ref="33072855"/>
    <nd ref="33072862"/>
    <tag k="created_by" v="Potlatch 0.7b"/>
    <tag k="highway" v="residential"/>
    <tag k="name" v="Łagiewnicka"/>
  </way>
  <way id="4344091" version="3" timestamp="2008-11-12T01:08:42Z" uid="20587" user="balrog-kun" changeset="736670">
    <nd ref="26405570"/>
    <nd ref="26206600"/>
    <nd ref="311426085"/>
    <nd ref="26459046"/>
    <tag k="created_by" v="Potlatch 0.7b"/>
    <tag k="highway" v="residential"/>
    <tag k="name" v="Aleksandra Kostki Napierskiego"/>
  </way>
  <way id="4344091" version="4" timestamp="2009-02-02T00:35:38Z" uid="20587" user="balrog-kun" changeset="47521">
    <nd ref="26405570"/>
    <nd ref="339919364"/>
    <nd ref="26206600"/>
    <nd ref="339919293"/>
    <nd ref="311426085"/>
    <nd ref="26459046"/>
    <tag k="created_by" v="Potlatch 0.7b"/>
    <tag k="highway" v="residential"/>
    <tag k="name" v="Aleksandra Kostki Napierskiego"/>
  </way>
  <way id="4344339" version="1" timestamp="2007-08-05T20:31:40Z" uid="8328" user="benpre" changeset="191776">
    <nd ref="26461172"/>
    <nd ref="26461173"/>
    <nd ref="26461177"/>
    <nd ref="26461340"/>
    <nd ref="26461174"/>
    <nd ref="26461178"/>
    <tag k="created_by" v="JOSM"/>
    <tag k="highway" v="residential"/>
    <tag k="name" v="Am Welzenstein"/>
  </way>
  <way id="4344364" version="3" timestamp="2008-12-10T20:22:52Z" uid="42564" user="Max sonnelid" changeset="304221">
    <nd ref="20917775"/>
    <nd ref="26461398"/>
    <nd ref="26461393"/>
    <nd ref="26461394"/>
    <nd ref="26461395"/>
    <tag k="created_by" v="Potlatch 0.10f"/>
    <tag k="highway" v="residential"/>
    <tag k="name" v="Herrgårdsgatan"/>
  </way>
  <way id="4344376" version="3" timestamp="2008-08-09T01:21:46Z" uid="6269" user="Mueck" changeset="154032">
    <nd ref="18921305"/>
    <nd ref="18916096"/>
    <nd ref="286039645"/>
    <nd ref="18916098"/>
    <nd ref="18916100"/>
    <tag k="created_by" v="Potlatch 0.10b"/>
    <tag k="highway" v="residential"/>
    <tag k="name" v="Hallesche Allee"/>
  </way>
  <way id="4344451" version="3" timestamp="2008-07-07T18:15:55Z" uid="6975" user="ulfl" changeset="420350">
    <nd ref="26461818"/>
    <nd ref="26461081"/>
    <tag k="hgv" v="no"/>
    <tag k="highway" v="residential"/>
    <tag k="maxspeed" v="30"/>
    <tag k="name" v="Gässle"/>
  </way>
  <way id="4344716" version="10" timestamp="2010-03-27T07:42:46Z" uid="20587" user="balrog-kun" changeset="4244079">
    <nd ref="268372789"/>
    <nd ref="279070971"/>
    <nd ref="268372702"/>
    <nd ref="26524627"/>
    <nd ref="122859125"/>
    <nd ref="26462442"/>
    <nd ref="26462445"/>
    <tag k="highway" v="tertiary"/>
    <tag k="name" v="Alpine Street"/>
    <tag k="source" v="survey;image;usgs_imagery"/>
    <tag k="source_ref" v="AM909_DSCR9583"/>
  </way>
</osm>
