<?xml version='1.0' encoding='UTF-8'?>
<osm version="0.6" generator="libosmium/2.20.0">
  <way id="43496344" version="2" timestamp="2010-03-17T14:08:32Z" uid="43967" user="railsnail" changeset="4153315">
    <nd ref="463544412"/>
    <nd ref="549137945"/>
    <nd ref="667947985"/>
    <nd ref="549138002"/>
    <tag k="highway" v="residential"/>
    <tag k="layer" v="0"/>
    <tag k="name" v="Pestalozzistraße"/>
    <tag k="surface" v="asphalt"/>
  </way>
  <way id="43496348" version="2" timestamp="2010-03-17T14:05:34Z" uid="43967" user="railsnail" changeset="4153315">
    <nd ref="549138012"/>
    <nd ref="549138014"/>
    <nd ref="667947363"/>
    <nd ref="667947364"/>
    <tag k="highway" v="residential"/>
    <tag k="layer" v="0"/>
    <tag k="name" v="Kirchplatzstraße"/>
    <tag k="surface" v="asphalt"/>
  </way>
  <way id="43496349" version="2" timestamp="2009-11-07T19:41:03Z" uid="43967" user="railsnail" changeset="3058474">
    <nd ref="549138020"/>
    <nd ref="549138022"/>
    <nd ref="559167360"/>
    <nd ref="549138025"/>
    <nd ref="549138029"/>
    <nd ref="549138020"/>
    <tag k="area" v="yes"/>
    <tag k="leisure" v="park"/>
    <tag k="name" v="Toni-Egger-Park"/>
  </way>
</osm>
