<?xml version='1.0' encoding='UTF-8'?>
<osm version="0.6" generator="libosmium/2.20.0">
  <way id="4361084" version="4" timestamp="2007-10-25T20:12:28Z" uid="8328" user="benpre" changeset="314650">
    <nd ref="73007809"/>
    <nd ref="29487858"/>
    <nd ref="26580601"/>
    <tag k="created_by" v="Potlatch alpha"/>
    <tag k="highway" v="residential"/>
    <tag k="name" v="Loreto"/>
  </way>
  <way id="4361087" version="7" timestamp="2007-10-25T19:38:00Z" uid="8328" user="benpre" changeset="314650">
    <nd ref="26580593"/>
    <nd ref="68108214"/>
    <nd ref="73007248"/>
    <nd ref="73008536"/>
    <nd ref="79641847"/>
    <nd ref="26580594"/>
    <nd ref="29487857"/>
    <tag k="created_by" v="Potlatch alpha"/>
    <tag k="highway" v="residential"/>
    <tag k="name" v="Firmeza"/>
  </way>
  <way id="4361089" version="8" timestamp="2007-10-25T19:38:00Z" uid="8328" user="benpre" changeset="314650">
    <nd ref="26580590"/>
    <nd ref="73020037"/>
    <nd ref="61090370"/>
    <nd ref="79641678"/>
    <nd ref="26580591"/>
    <nd ref="73018955"/>
    <nd ref="73018649"/>
    <nd ref="26580592"/>
    <tag k="created_by" v="Potlatch alpha"/>
    <tag k="highway" v="residential"/>
    <tag k="name" v="Fajardo"/>
  </way>
  <way id="4361215" version="6" timestamp="2010-07-09T02:53:31Z" uid="74617" user="JohnSmith" changeset="5170713">
    <nd ref="26582456"/>
    <nd ref="26582472"/>
    <nd ref="26582471"/>
    <tag k="highway" v="residential"/>
    <tag k="maxspeed" v="50"/>
    <tag k="maxspeed:source" v="default residential speed limit in Australia"/>
    <tag k="name" v="Commercial Road"/>
  </way>
  <way id="4361216" version="4" timestamp="2010-07-09T02:48:59Z" uid="74617" user="JohnSmith" changeset="5170713">
    <nd ref="26582472"/>
    <nd ref="605155445"/>
    <tag k="highway" v="residential"/>
    <tag k="maxspeed" v="50"/>
    <tag k="maxspeed:source" v="default residential speed limit in Australia"/>
    <tag k="name" v="Industrial Avenue"/>
  </way>
  <way id="4361217" version="8" timestamp="2010-07-06T09:26:32Z" uid="4467" user="Rosscoe" changeset="5148673">
    <nd ref="26582448"/>
    <nd ref="803470529"/>
    <nd ref="138859308"/>
    <tag k="cycleway" v="lane"/>
    <tag k="highway" v="residential"/>
    <tag k="name" v="Gardiner Road"/>
    <tag k="oneway" v="yes"/>
  </way>
  <way id="4361217" version="9" timestamp="2010-07-09T02:52:08Z" uid="74617" user="JohnSmith" changeset="5170713">
    <nd ref="26582448"/>
    <nd ref="803470529"/>
    <nd ref="138859308"/>
    <tag k="cycleway" v="lane"/>
    <tag k="highway" v="residential"/>
    <tag k="maxspeed" v="50"/>
    <tag k="maxspeed:source" v="default residential speed limit in Australia"/>
    <tag k="name" v="Gardiner Road"/>
    <tag k="oneway" v="yes"/>
  </way>
  <way id="4361218" version="4" timestamp="2010-07-09T02:44:06Z" uid="74617" user="JohnSmith" changeset="5170713">
    <nd ref="26582445"/>
    <nd ref="588088800"/>
    <nd ref="26582442"/>
    <tag k="highway" v="residential"/>
    <tag k="maxspeed" v="50"/>
    <tag k="maxspeed:source" v="default residential speed limit in Australia"/>
    <tag k="name" v="Hilltop Avenue"/>
  </way>
  <way id="4361219" version="4" timestamp="2010-07-09T02:46:23Z" uid="74617" user="JohnSmith" changeset="5170713">
    <nd ref="26582444"/>
    <nd ref="26582443"/>
    <tag k="highway" v="residential"/>
    <tag k="maxspeed" v="50"/>
    <tag k="maxspeed:source" v="default residential speed limit in Australia"/>
    <tag k="name" v="Florence Avenue"/>
  </way>
  <way id="4361220" version="6" timestamp="2010-07-09T02:47:12Z" uid="74617" user="JohnSmith" changeset="5170713">
    <nd ref="26582445"/>
    <nd ref="727958733"/>
    <nd ref="588088803"/>
    <nd ref="606296080"/>
    <nd ref="26582444"/>
    <nd ref="26582446"/>
    <tag k="highway" v="residential"/>
    <tag k="maxspeed" v="50"/>
    <tag k="maxspeed:source" v="default residential speed limit in Australia"/>
    <tag k="name" v="Carlson Avenue"/>
  </way>
  <way id="4361221" version="6" timestamp="2010-07-09T02:49:47Z" uid="74617" user="JohnSmith" changeset="5170713">
    <nd ref="26582447"/>
    <nd ref="311214403"/>
    <nd ref="30338624"/>
    <nd ref="30338623"/>
    <nd ref="26582446"/>
    <nd ref="30338625"/>
    <nd ref="30338628"/>
    <nd ref="26582439"/>
    <nd ref="30338629"/>
    <nd ref="585125701"/>
    <tag k="highway" v="residential"/>
    <tag k="maxspeed" v="50"/>
    <tag k="maxspeed:source" v="default residential speed limit in Australia"/>
    <tag k="name" v="Bayview Avenue"/>
  </way>
  <way id="4361317" version="2" timestamp="2007-11-01T03:26:34Z" uid="6975" user="ulfl" changeset="376795">
    <nd ref="15848399"/>
    <nd ref="26583544"/>
    <nd ref="26583538"/>
    <nd ref="26583539"/>
    <nd ref="26583540"/>
    <nd ref="26583541"/>
    <nd ref="26583542"/>
    <nd ref="26583543"/>
    <tag k="created_by" v="fixbot"/>
    <tag k="highway" v="motorway_link"/>
    <tag k="oneway" v="true"/>
  </way>
  <way id="4361317" version="3" timestamp="2007-11-08T20:12:28Z" uid="6975" user="ulfl" changeset="441742">
    <nd ref="15848399"/>
    <nd ref="26583544"/>
    <nd ref="102843070"/>
    <tag k="bridge" v="yes"/>
    <tag k="created_by" v="fixbot"/>
    <tag k="highway" v="motorway_link"/>
    <tag k="layer" v="1"/>
    <tag k="oneway" v="true"/>
  </way>
  <way id="4361318" version="2" timestamp="2007-11-01T03:26:35Z" uid="6975" user="ulfl" changeset="376795">
    <nd ref="26583542"/>
    <nd ref="32913231"/>
    <nd ref="32913232"/>
    <tag k="created_by" v="fixbot"/>
    <tag k="highway" v="motorway_link"/>
    <tag k="oneway" v="true"/>
  </way>
  <way id="4361319" version="2" timestamp="2007-11-01T03:26:35Z" uid="6975" user="ulfl" changeset="376795"/>
  <way id="4361320" version="2" timestamp="2007-11-01T03:26:34Z" uid="6975" user="ulfl" changeset="376795">
    <nd ref="21317651"/>
    <nd ref="21317650"/>
    <nd ref="21317649"/>
    <nd ref="21317648"/>
    <nd ref="21317647"/>
    <nd ref="21317646"/>
    <nd ref="21317645"/>
    <nd ref="21317644"/>
    <nd ref="21317643"/>
    <tag k="created_by" v="fixbot"/>
    <tag k="highway" v="motorway_link"/>
    <tag k="oneway" v="true"/>
  </way>
  <way id="4361343" version="2" timestamp="2007-10-27T02:38:23Z" uid="6454" user="B10xxx" changeset="330590">
    <nd ref="26568668"/>
    <nd ref="26568671"/>
    <nd ref="26568675"/>
    <nd ref="30739429"/>
    <nd ref="26568679"/>
    <nd ref="26568703"/>
    <nd ref="26568699"/>
    <nd ref="26570074"/>
    <nd ref="33775684"/>
    <nd ref="30739050"/>
    <nd ref="26570017"/>
    <nd ref="30738979"/>
    <nd ref="26570022"/>
    <nd ref="88593182"/>
    <nd ref="26570024"/>
    <tag k="created_by" v="Potlatch alpha"/>
    <tag k="highway" v="secondary"/>
    <tag k="name" v="Malteser Straße"/>
  </way>
  <way id="4361350" version="1" timestamp="2007-06-29T19:34:45Z" uid="6454" user="B10xxx" changeset="119303">
    <nd ref="30006603"/>
    <nd ref="26582893"/>
    <nd ref="26583011"/>
    <nd ref="26582898"/>
    <nd ref="26582903"/>
    <nd ref="26583005"/>
    <nd ref="26582909"/>
    <nd ref="26583002"/>
    <nd ref="26582933"/>
    <nd ref="31050952"/>
    <nd ref="29739444"/>
    <nd ref="26583012"/>
    <tag k="created_by" v="Potlatch alpha"/>
    <tag k="highway" v="secondary"/>
    <tag k="name" v="Motzener Straße"/>
  </way>
  <way id="4361372" version="1" timestamp="2007-09-26T07:56:23Z" uid="5871" user="Banny" changeset="519343">
    <nd ref="25704762"/>
    <nd ref="25704761"/>
    <nd ref="29264238"/>
    <nd ref="25704757"/>
    <nd ref="25704756"/>
    <nd ref="27590897"/>
    <nd ref="25704700"/>
    <nd ref="25704690"/>
    <tag k="created_by" v="JOSM"/>
    <tag k="highway" v="secondary"/>
    <tag k="name" v="Lustheide"/>
    <tag k="reg_ref" v="L136"/>
  </way>
  <way id="4361372" version="2" timestamp="2008-01-14T16:03:39Z" uid="5871" user="Banny" changeset="631293">
    <nd ref="25704762"/>
    <nd ref="25704761"/>
    <nd ref="29264238"/>
    <nd ref="25704757"/>
    <nd ref="25704756"/>
    <nd ref="27590897"/>
    <nd ref="25704700"/>
    <nd ref="226540409"/>
    <nd ref="25704690"/>
    <tag k="created_by" v="JOSM"/>
    <tag k="highway" v="secondary"/>
    <tag k="name" v="Lustheide"/>
    <tag k="reg_ref" v="L136"/>
  </way>
  <way id="4361390" version="1" timestamp="2007-03-17T12:56:27Z" uid="5871" user="Banny" changeset="237628">
    <nd ref="25721359"/>
    <nd ref="25721365"/>
    <nd ref="25721366"/>
    <nd ref="25708259"/>
    <tag k="created_by" v="JOSM"/>
    <tag k="highway" v="residential"/>
    <tag k="name" v="Om Rodde"/>
  </way>
  <way id="4361390" version="2" timestamp="2007-11-30T08:48:12Z" uid="5871" user="Banny" changeset="651513">
    <nd ref="25721359"/>
    <nd ref="25721365"/>
    <nd ref="25721366"/>
    <nd ref="25708259"/>
    <tag k="created_by" v="JOSM"/>
    <tag k="highway" v="residential"/>
    <tag k="maxspeed" v="30"/>
    <tag k="name" v="Om Rodde"/>
  </way>
  <way id="4361391" version="1" timestamp="2007-03-17T12:58:55Z" uid="5871" user="Banny" changeset="237628">
    <nd ref="25704768"/>
    <nd ref="25704769"/>
    <nd ref="26510198"/>
    <nd ref="25704707"/>
    <tag k="created_by" v="JOSM"/>
    <tag k="highway" v="residential"/>
    <tag k="name" v="Am Anger"/>
  </way>
  <way id="4361391" version="2" timestamp="2007-11-28T21:37:58Z" uid="5871" user="Banny" changeset="641167">
    <nd ref="25704768"/>
    <nd ref="25704769"/>
    <nd ref="26510198"/>
    <nd ref="25704707"/>
    <tag k="created_by" v="JOSM"/>
    <tag k="highway" v="residential"/>
    <tag k="maxspeed" v="7"/>
    <tag k="name" v="Am Anger"/>
  </way>
  <way id="4361391" version="3" timestamp="2008-03-13T08:42:22Z" uid="5871" user="Banny" changeset="317042">
    <nd ref="25704768"/>
    <nd ref="25704769"/>
    <nd ref="26510198"/>
    <nd ref="25704707"/>
    <tag k="created_by" v="JOSM"/>
    <tag k="highway" v="living_street"/>
    <tag k="name" v="Am Anger"/>
  </way>
  <way id="4361417" version="1" timestamp="2007-08-12T09:09:20Z" uid="5871" user="Banny" changeset="205835">
    <nd ref="18313624"/>
    <nd ref="18313627"/>
    <nd ref="18313630"/>
    <nd ref="18313631"/>
    <nd ref="26631689"/>
    <nd ref="25869692"/>
    <tag k="created_by" v="pyosmeditor"/>
    <tag k="highway" v="secondary"/>
    <tag k="name" v="Paffrather Straße"/>
  </way>
  <way id="4361418" version="1" timestamp="2007-07-04T17:50:37Z" uid="5871" user="Banny" changeset="126514">
    <nd ref="26631687"/>
    <nd ref="18313637"/>
    <nd ref="14882062"/>
    <nd ref="14882071"/>
    <nd ref="14882080"/>
    <nd ref="14882081"/>
    <nd ref="14882082"/>
    <nd ref="14882085"/>
    <nd ref="16048045"/>
    <nd ref="16048047"/>
    <nd ref="16048051"/>
    <nd ref="16048052"/>
    <nd ref="16048056"/>
    <nd ref="26661683"/>
    <nd ref="26661685"/>
    <nd ref="26661686"/>
    <nd ref="26661682"/>
    <tag k="created_by" v="pyosmeditor"/>
    <tag k="highway" v="secondary"/>
    <tag k="name" v="Paffrather Straße"/>
  </way>
  <way id="4361418" version="2" timestamp="2008-01-14T13:33:31Z" uid="5871" user="Banny" changeset="630696">
    <nd ref="26631687"/>
    <nd ref="18313637"/>
    <nd ref="14882062"/>
    <nd ref="14882071"/>
    <nd ref="14882080"/>
    <nd ref="14882081"/>
    <nd ref="14882082"/>
    <nd ref="14882085"/>
    <nd ref="16048045"/>
    <nd ref="16048047"/>
    <nd ref="16048051"/>
    <nd ref="16048052"/>
    <nd ref="16048056"/>
    <nd ref="26661683"/>
    <nd ref="26661685"/>
    <nd ref="26661686"/>
    <nd ref="226235491"/>
    <nd ref="26661682"/>
    <tag k="created_by" v="pyosmeditor"/>
    <tag k="highway" v="secondary"/>
    <tag k="name" v="Paffrather Straße"/>
  </way>
  <way id="4361543" version="3" timestamp="2010-06-29T19:07:18Z" uid="74617" user="JohnSmith" changeset="5108182">
    <nd ref="26584880"/>
    <nd ref="26584881"/>
    <nd ref="26584882"/>
    <nd ref="26584879"/>
    <nd ref="26584880"/>
    <tag k="fixme" v="sport=football is ambiguous, see http://wiki.osm.org/wiki/Football for more details"/>
    <tag k="leisure" v="pitch"/>
    <tag k="sport" v="football"/>
  </way>
  <way id="4361547" version="3" timestamp="2010-06-29T19:11:55Z" uid="74617" user="JohnSmith" changeset="5108182">
    <nd ref="26584894"/>
    <nd ref="26584895"/>
    <nd ref="26584896"/>
    <nd ref="26584897"/>
    <nd ref="26584898"/>
    <nd ref="26584899"/>
    <nd ref="26584900"/>
    <nd ref="26584901"/>
    <nd ref="26584892"/>
    <nd ref="26584893"/>
    <nd ref="26584894"/>
    <tag k="fixme" v="sport=football is ambiguous, see http://wiki.osm.org/wiki/Football for more details"/>
    <tag k="leisure" v="pitch"/>
    <tag k="sport" v="football"/>
  </way>
  <way id="4361749" version="1" timestamp="2007-05-17T18:11:41Z" uid="5871" user="Banny" changeset="54781">
    <nd ref="25718960"/>
    <nd ref="25721363"/>
    <nd ref="25721364"/>
    <nd ref="25721359"/>
    <nd ref="25721360"/>
    <nd ref="25721361"/>
    <nd ref="25721362"/>
    <tag k="created_by" v="JOSM"/>
    <tag k="highway" v="residential"/>
    <tag k="name" v="Hüttenfeld"/>
  </way>
  <way id="4361749" version="2" timestamp="2007-11-30T08:48:14Z" uid="5871" user="Banny" changeset="651513">
    <nd ref="25718960"/>
    <nd ref="25721363"/>
    <nd ref="25721364"/>
    <nd ref="25721359"/>
    <nd ref="25721360"/>
    <nd ref="25721361"/>
    <nd ref="25721362"/>
    <tag k="created_by" v="JOSM"/>
    <tag k="highway" v="residential"/>
    <tag k="maxspeed" v="30"/>
    <tag k="name" v="Hüttenfeld"/>
  </way>
  <way id="4361786" version="1" timestamp="2007-03-17T14:48:38Z" uid="5871" user="Banny" changeset="237794">
    <nd ref="586301"/>
    <nd ref="586303"/>
    <nd ref="586306"/>
    <nd ref="586308"/>
    <nd ref="586310"/>
    <tag k="created_by" v="JOSM"/>
    <tag k="highway" v="motorway"/>
    <tag k="name" v="A4"/>
    <tag k="oneway" v="yes"/>
  </way>
  <way id="4361786" version="2" timestamp="2007-10-11T12:41:47Z" uid="5871" user="Banny" changeset="100946">
    <nd ref="586301"/>
    <nd ref="586303"/>
    <tag k="created_by" v="JOSM"/>
    <tag k="highway" v="motorway"/>
    <tag k="name" v="A4"/>
    <tag k="oneway" v="yes"/>
  </way>
  <way id="4361786" version="3" timestamp="2008-02-20T21:26:28Z" uid="5871" user="Banny" changeset="165215"/>
  <way id="4361787" version="1" timestamp="2007-03-17T14:48:44Z" uid="5871" user="Banny" changeset="237794">
    <nd ref="586302"/>
    <nd ref="585313"/>
    <nd ref="585311"/>
    <tag k="created_by" v="JOSM"/>
    <tag k="highway" v="motorway"/>
    <tag k="name" v="A4"/>
    <tag k="oneway" v="true"/>
  </way>
  <way id="4361787" version="3" timestamp="2008-02-20T21:15:33Z" uid="5871" user="Banny" changeset="165215">
    <nd ref="586302"/>
    <nd ref="585313"/>
    <nd ref="585311"/>
    <tag k="created_by" v="JOSM"/>
    <tag k="highway" v="motorway"/>
    <tag k="layer" v="1"/>
    <tag k="name" v="A4"/>
    <tag k="oneway" v="true"/>
  </way>
  <way id="4361787" version="4" timestamp="2008-02-20T21:26:27Z" uid="5871" user="Banny" changeset="165215">
    <nd ref="586304"/>
    <nd ref="586302"/>
    <nd ref="248574499"/>
    <tag k="created_by" v="JOSM"/>
    <tag k="highway" v="motorway"/>
    <tag k="name" v="A4"/>
    <tag k="oneway" v="true"/>
  </way>
  <way id="4361788" version="1" timestamp="2007-03-17T14:48:47Z" uid="5871" user="Banny" changeset="237794">
    <nd ref="586341"/>
    <nd ref="586339"/>
    <nd ref="586337"/>
    <nd ref="586335"/>
    <nd ref="586333"/>
    <nd ref="586331"/>
    <nd ref="586330"/>
    <nd ref="586328"/>
    <nd ref="586326"/>
    <nd ref="586324"/>
    <nd ref="586322"/>
    <nd ref="586320"/>
    <nd ref="586318"/>
    <nd ref="586316"/>
    <nd ref="586314"/>
    <nd ref="586311"/>
    <tag k="created_by" v="JOSM"/>
    <tag k="highway" v="motorway"/>
    <tag k="name" v="A4"/>
    <tag k="oneway" v="true"/>
  </way>
  <way id="4361788" version="2" timestamp="2007-10-07T19:19:09Z" uid="5871" user="Banny" changeset="54896">
    <nd ref="586341"/>
    <nd ref="586339"/>
    <nd ref="586337"/>
    <nd ref="586335"/>
    <nd ref="586333"/>
    <nd ref="586331"/>
    <nd ref="586330"/>
    <nd ref="586328"/>
    <nd ref="60948410"/>
    <tag k="created_by" v="JOSM"/>
    <tag k="highway" v="motorway"/>
    <tag k="name" v="A4"/>
    <tag k="oneway" v="true"/>
  </way>
  <way id="4361790" version="1" timestamp="2007-03-17T14:48:54Z" uid="5871" user="Banny" changeset="237794">
    <nd ref="586383"/>
    <nd ref="586381"/>
    <nd ref="586379"/>
    <nd ref="586377"/>
    <tag k="created_by" v="JOSM"/>
    <tag k="highway" v="motorway"/>
    <tag k="name" v="A4"/>
    <tag k="oneway" v="true"/>
  </way>
  <way id="4361790" version="2" timestamp="2007-10-11T13:13:19Z" uid="5871" user="Banny" changeset="100946">
    <nd ref="586383"/>
    <nd ref="586381"/>
    <tag k="bridge" v="true"/>
    <tag k="created_by" v="JOSM"/>
    <tag k="highway" v="motorway"/>
    <tag k="layer" v="1"/>
    <tag k="name" v="A4"/>
    <tag k="oneway" v="true"/>
  </way>
  <way id="4361791" version="1" timestamp="2007-03-17T14:48:56Z" uid="5871" user="Banny" changeset="237794">
    <nd ref="586382"/>
    <nd ref="586384"/>
    <nd ref="586386"/>
    <nd ref="25731203"/>
    <tag k="created_by" v="JOSM"/>
    <tag k="highway" v="motorway"/>
    <tag k="name" v="A4"/>
    <tag k="oneway" v="true"/>
  </way>
  <way id="4361791" version="2" timestamp="2007-10-11T13:13:19Z" uid="5871" user="Banny" changeset="100946">
    <nd ref="586382"/>
    <nd ref="586384"/>
    <tag k="bridge" v="true"/>
    <tag k="created_by" v="JOSM"/>
    <tag k="highway" v="motorway"/>
    <tag k="layer" v="1"/>
    <tag k="name" v="A4"/>
    <tag k="oneway" v="true"/>
  </way>
  <way id="4361792" version="1" timestamp="2007-03-17T14:48:59Z" uid="5871" user="Banny" changeset="237794">
    <nd ref="586351"/>
    <nd ref="586349"/>
    <nd ref="586347"/>
    <nd ref="586345"/>
    <nd ref="586343"/>
    <nd ref="586341"/>
    <tag k="created_by" v="JOSM"/>
    <tag k="highway" v="motorway"/>
    <tag k="name" v="A4"/>
    <tag k="oneway" v="true"/>
  </way>
  <way id="4361793" version="1" timestamp="2007-03-17T14:49:00Z" uid="5871" user="Banny" changeset="237794">
    <nd ref="586342"/>
    <nd ref="586344"/>
    <nd ref="586346"/>
    <nd ref="586348"/>
    <nd ref="586350"/>
    <nd ref="586352"/>
    <tag k="created_by" v="JOSM"/>
    <tag k="highway" v="motorway"/>
    <tag k="name" v="A4"/>
    <tag k="oneway" v="true"/>
  </way>
  <way id="4361793" version="2" timestamp="2008-06-28T20:56:10Z" uid="5871" user="Banny" changeset="323962">
    <nd ref="586342"/>
    <nd ref="586344"/>
    <nd ref="586346"/>
    <nd ref="586348"/>
    <nd ref="586350"/>
    <nd ref="586352"/>
    <tag k="created_by" v="JOSM"/>
    <tag k="highway" v="motorway"/>
    <tag k="maxspeed" v="100"/>
    <tag k="name" v="A4"/>
    <tag k="oneway" v="true"/>
  </way>
  <way id="4361794" version="1" timestamp="2007-03-17T14:49:00Z" uid="5871" user="Banny" changeset="237794">
    <nd ref="25777403"/>
    <nd ref="25777400"/>
    <nd ref="25777399"/>
    <nd ref="25777766"/>
    <tag k="created_by" v="JOSM"/>
    <tag k="highway" v="motorway"/>
    <tag k="name" v="A4"/>
    <tag k="oneway" v="true"/>
  </way>
  <way id="4361794" version="2" timestamp="2007-12-28T13:23:54Z" uid="5871" user="Banny" changeset="449378">
    <nd ref="25777403"/>
    <nd ref="25777400"/>
    <tag k="created_by" v="JOSM"/>
    <tag k="highway" v="motorway"/>
    <tag k="name" v="A4"/>
    <tag k="oneway" v="true"/>
  </way>
  <way id="4361795" version="1" timestamp="2007-03-17T14:49:00Z" uid="5871" user="Banny" changeset="237794">
    <nd ref="25777396"/>
    <nd ref="25777398"/>
    <tag k="created_by" v="JOSM"/>
    <tag k="highway" v="motorway"/>
    <tag k="name" v="A4"/>
    <tag k="oneway" v="true"/>
  </way>
  <way id="4361796" version="1" timestamp="2007-03-17T14:49:01Z" uid="5871" user="Banny" changeset="237794">
    <nd ref="25777442"/>
    <nd ref="25777440"/>
    <nd ref="25777439"/>
    <nd ref="25777437"/>
    <tag k="created_by" v="JOSM"/>
    <tag k="highway" v="motorway"/>
    <tag k="name" v="A4"/>
    <tag k="oneway" v="true"/>
  </way>
  <way id="4361796" version="3" timestamp="2008-07-10T19:21:31Z" uid="5871" user="Banny" changeset="452709">
    <nd ref="25777442"/>
    <nd ref="25777440"/>
    <tag k="created_by" v="JOSM"/>
    <tag k="day_off" v="Saturday"/>
    <tag k="day_on" v="Monday"/>
    <tag k="highway" v="motorway"/>
    <tag k="hour_off" v="10"/>
    <tag k="hour_on" v="6"/>
    <tag k="maxspeed" v="100"/>
    <tag k="name" v="A4"/>
    <tag k="oneway" v="true"/>
  </way>
  <way id="4361797" version="1" timestamp="2007-03-17T14:49:01Z" uid="5871" user="Banny" changeset="237794">
    <nd ref="25777434"/>
    <nd ref="25777436"/>
    <nd ref="25777438"/>
    <tag k="created_by" v="JOSM"/>
    <tag k="highway" v="motorway"/>
    <tag k="name" v="A4"/>
    <tag k="oneway" v="true"/>
  </way>
  <way id="4361840" version="3" timestamp="2008-07-10T19:21:30Z" uid="5871" user="Banny" changeset="452709">
    <nd ref="25777438"/>
    <nd ref="25777441"/>
    <tag k="bridge" v="true"/>
    <tag k="created_by" v="JOSM"/>
    <tag k="highway" v="motorway"/>
    <tag k="layer" v="1"/>
    <tag k="name" v="A4"/>
    <tag k="oneway" v="true"/>
  </way>
  <way id="4361841" version="1" timestamp="2007-03-17T15:25:17Z" uid="5871" user="Banny" changeset="237794">
    <nd ref="25844851"/>
    <nd ref="24913279"/>
    <nd ref="24933850"/>
    <nd ref="24933856"/>
    <nd ref="25777494"/>
    <nd ref="24933864"/>
    <nd ref="24933869"/>
    <nd ref="25777489"/>
    <nd ref="25777487"/>
    <nd ref="25777485"/>
    <nd ref="25777483"/>
    <nd ref="25777480"/>
    <nd ref="25777478"/>
    <nd ref="25777477"/>
    <nd ref="25777475"/>
    <nd ref="25777473"/>
    <nd ref="25777470"/>
    <nd ref="25777469"/>
    <nd ref="25777467"/>
    <nd ref="25777465"/>
    <nd ref="25777462"/>
    <nd ref="25777460"/>
    <nd ref="25777459"/>
    <nd ref="25777456"/>
    <nd ref="25777455"/>
    <nd ref="25777453"/>
    <nd ref="25777451"/>
    <nd ref="25777448"/>
    <nd ref="25777446"/>
    <nd ref="25777444"/>
    <nd ref="25777442"/>
    <tag k="created_by" v="JOSM"/>
    <tag k="highway" v="motorway"/>
    <tag k="name" v="A4"/>
    <tag k="oneway" v="true"/>
  </way>
  <way id="4361841" version="5" timestamp="2008-08-14T20:34:41Z" uid="6975" user="ulfl" changeset="264731">
    <nd ref="25844851"/>
    <nd ref="24913279"/>
    <nd ref="24933850"/>
    <nd ref="24933856"/>
    <nd ref="25777494"/>
    <nd ref="24933864"/>
    <nd ref="24933869"/>
    <nd ref="25777489"/>
    <nd ref="25777487"/>
    <nd ref="25777485"/>
    <tag k="highway" v="motorway"/>
    <tag k="lanes" v="3"/>
    <tag k="oneway" v="true"/>
    <tag k="ref" v="A 4"/>
  </way>
  <way id="4361867" version="1" timestamp="2007-03-17T15:29:13Z" uid="5871" user="Banny" changeset="237794">
    <nd ref="24913282"/>
    <nd ref="25844857"/>
    <nd ref="24913283"/>
    <nd ref="24913284"/>
    <nd ref="25844860"/>
    <nd ref="24913285"/>
    <nd ref="24913270"/>
    <nd ref="24913271"/>
    <nd ref="24913272"/>
    <nd ref="24913273"/>
    <nd ref="25844866"/>
    <nd ref="24913262"/>
    <nd ref="25844862"/>
    <nd ref="24913263"/>
    <nd ref="25844864"/>
    <nd ref="24913264"/>
    <nd ref="24913265"/>
    <nd ref="25844868"/>
    <nd ref="24913253"/>
    <nd ref="25844869"/>
    <nd ref="24913254"/>
    <nd ref="25844871"/>
    <nd ref="24913255"/>
    <nd ref="24913256"/>
    <nd ref="25844873"/>
    <nd ref="24913257"/>
    <nd ref="24913243"/>
    <nd ref="24913244"/>
    <nd ref="24913245"/>
    <nd ref="24913246"/>
    <nd ref="25844876"/>
    <nd ref="24913247"/>
    <nd ref="24913234"/>
    <nd ref="25844878"/>
    <nd ref="24913235"/>
    <nd ref="25844880"/>
    <nd ref="24913236"/>
    <nd ref="24913237"/>
    <nd ref="24913208"/>
    <nd ref="24913218"/>
    <nd ref="25844881"/>
    <nd ref="24913227"/>
    <tag k="created_by" v="JOSM"/>
    <tag k="highway" v="motorway"/>
    <tag k="name" v="A4"/>
    <tag k="oneway" v="true"/>
  </way>
  <way id="4361876" version="1" timestamp="2007-03-17T15:35:56Z" uid="5871" user="Banny" changeset="237794">
    <nd ref="24913227"/>
    <nd ref="24913228"/>
    <nd ref="25844883"/>
    <tag k="created_by" v="JOSM"/>
    <tag k="highway" v="motorway"/>
    <tag k="name" v="A4"/>
    <tag k="oneway" v="true"/>
  </way>
  <way id="4361877" version="1" timestamp="2007-03-17T15:37:10Z" uid="5871" user="Banny" changeset="237794">
    <nd ref="25844884"/>
    <nd ref="24913204"/>
    <nd ref="24913205"/>
    <tag k="created_by" v="JOSM"/>
    <tag k="highway" v="motorway"/>
    <tag k="name" v="A4"/>
    <tag k="oneway" v="true"/>
  </way>
  <way id="4361888" version="1" timestamp="2007-08-12T08:16:34Z" uid="5871" user="Banny" changeset="205835">
    <nd ref="24913199"/>
    <nd ref="24913200"/>
    <nd ref="25844917"/>
    <nd ref="24913201"/>
    <nd ref="24913202"/>
    <nd ref="24913186"/>
    <nd ref="24913188"/>
    <nd ref="24913189"/>
    <nd ref="25844942"/>
    <tag k="created_by" v="JOSM"/>
    <tag k="highway" v="motorway"/>
    <tag k="name" v="A4"/>
    <tag k="oneway" v="true"/>
  </way>
  <way id="4361889" version="1" timestamp="2007-08-12T08:16:34Z" uid="5871" user="Banny" changeset="205835">
    <nd ref="25844943"/>
    <nd ref="24913183"/>
    <nd ref="24913184"/>
    <nd ref="24913185"/>
    <nd ref="24913195"/>
    <nd ref="24913196"/>
    <nd ref="25844916"/>
    <nd ref="24913197"/>
    <nd ref="24913198"/>
    <tag k="created_by" v="JOSM"/>
    <tag k="highway" v="motorway"/>
    <tag k="name" v="A4"/>
    <tag k="oneway" v="true"/>
  </way>
  <way id="4361890" version="1" timestamp="2007-03-17T15:42:41Z" uid="5871" user="Banny" changeset="237794">
    <nd ref="25844942"/>
    <nd ref="24913190"/>
    <nd ref="25844918"/>
    <tag k="created_by" v="JOSM"/>
    <tag k="highway" v="motorway"/>
    <tag k="name" v="A4"/>
    <tag k="oneway" v="true"/>
  </way>
  <way id="4361891" version="1" timestamp="2007-03-17T15:42:49Z" uid="5871" user="Banny" changeset="237794">
    <nd ref="25844919"/>
    <nd ref="24913182"/>
    <nd ref="25844943"/>
    <tag k="created_by" v="JOSM"/>
    <tag k="highway" v="motorway"/>
    <tag k="name" v="A4"/>
    <tag k="oneway" v="true"/>
  </way>
  <way id="4361895" version="1" timestamp="2007-08-12T08:16:35Z" uid="5871" user="Banny" changeset="205835">
    <nd ref="25844918"/>
    <nd ref="24913191"/>
    <nd ref="24913173"/>
    <nd ref="24913176"/>
    <nd ref="25844944"/>
    <nd ref="24913177"/>
    <nd ref="24913154"/>
    <nd ref="24913149"/>
    <nd ref="25844946"/>
    <nd ref="24913150"/>
    <nd ref="24913151"/>
    <nd ref="25844949"/>
    <nd ref="24913152"/>
    <nd ref="25844951"/>
    <nd ref="24913141"/>
    <nd ref="25844953"/>
    <nd ref="25844955"/>
    <tag k="created_by" v="JOSM"/>
    <tag k="highway" v="motorway"/>
    <tag k="name" v="A4"/>
    <tag k="oneway" v="true"/>
  </way>
  <way id="4361896" version="1" timestamp="2007-03-17T15:48:03Z" uid="5871" user="Banny" changeset="237794">
    <nd ref="25844954"/>
    <nd ref="25844952"/>
    <nd ref="24913140"/>
    <nd ref="25844950"/>
    <nd ref="24913145"/>
    <nd ref="25844948"/>
    <nd ref="24913146"/>
    <nd ref="24913147"/>
    <nd ref="25844947"/>
    <nd ref="24913148"/>
    <nd ref="24913153"/>
    <nd ref="24913159"/>
    <nd ref="25844945"/>
    <nd ref="24913167"/>
    <nd ref="24913170"/>
    <nd ref="24913181"/>
    <nd ref="25844919"/>
    <tag k="created_by" v="JOSM"/>
    <tag k="highway" v="motorway"/>
    <tag k="name" v="A4"/>
    <tag k="oneway" v="true"/>
  </way>
  <way id="4361896" version="5" timestamp="2008-07-11T12:03:04Z" uid="5871" user="Banny" changeset="460767">
    <nd ref="25844954"/>
    <nd ref="25844952"/>
    <nd ref="24913140"/>
    <nd ref="25844950"/>
    <nd ref="24913145"/>
    <nd ref="25844948"/>
    <nd ref="24913146"/>
    <nd ref="24913147"/>
    <nd ref="25844947"/>
    <nd ref="24913148"/>
    <nd ref="24913153"/>
    <nd ref="24913159"/>
    <nd ref="25844945"/>
    <nd ref="24913167"/>
    <nd ref="24913170"/>
    <nd ref="265077752"/>
    <tag k="created_by" v="Potlatch 0.9a"/>
    <tag k="highway" v="motorway"/>
    <tag k="nat_ref" v="A4"/>
    <tag k="oneway" v="true"/>
    <tag k="ref" v="A4"/>
  </way>
  <way id="4361897" version="1" timestamp="2007-08-12T08:16:35Z" uid="5871" user="Banny" changeset="205835">
    <nd ref="25844955"/>
    <nd ref="24913142"/>
    <nd ref="24913158"/>
    <nd ref="24913143"/>
    <nd ref="25844992"/>
    <tag k="bridge" v="true"/>
    <tag k="created_by" v="JOSM"/>
    <tag k="highway" v="motorway"/>
    <tag k="layer" v="1"/>
    <tag k="name" v="A4"/>
    <tag k="oneway" v="true"/>
  </way>
  <way id="4361898" version="1" timestamp="2007-08-12T08:16:35Z" uid="5871" user="Banny" changeset="205835">
    <nd ref="25844991"/>
    <nd ref="24913138"/>
    <nd ref="24913157"/>
    <nd ref="24913139"/>
    <nd ref="25844954"/>
    <tag k="bridge" v="true"/>
    <tag k="created_by" v="JOSM"/>
    <tag k="highway" v="motorway"/>
    <tag k="layer" v="1"/>
    <tag k="name" v="A4"/>
    <tag k="oneway" v="true"/>
  </way>
</osm>
