<?xml version='1.0' encoding='UTF-8'?>
<osm version="0.6" generator="libosmium/2.20.0">
  <way id="43747537" version="2" timestamp="2010-07-08T20:19:08Z" uid="74617" user="JohnSmith" changeset="5168730">
    <nd ref="303465058"/>
    <nd ref="553816215"/>
    <nd ref="553816220"/>
    <tag k="highway" v="residential"/>
    <tag k="maxspeed" v="50"/>
    <tag k="maxspeed:source" v="default residential speed limit in Australia"/>
    <tag k="name" v="George Street"/>
    <tag k="source" v="Yahoo"/>
    <tag k="source:name" v="photo"/>
  </way>
  <way id="43747544" version="2" timestamp="2010-07-09T03:56:00Z" uid="74617" user="JohnSmith" changeset="5170838">
    <nd ref="553816267"/>
    <nd ref="553816272"/>
    <tag k="highway" v="unclassified"/>
    <tag k="maxspeed" v="50"/>
    <tag k="maxspeed:source" v="default residential speed limit in Australia"/>
    <tag k="name" v="Williams Street"/>
    <tag k="source" v="Yahoo"/>
    <tag k="source:name" v="photo"/>
  </way>
  <way id="43747553" version="2" timestamp="2010-07-08T20:15:55Z" uid="74617" user="JohnSmith" changeset="5168730">
    <nd ref="553816328"/>
    <nd ref="553816389"/>
    <nd ref="553816393"/>
    <tag k="highway" v="residential"/>
    <tag k="maxspeed" v="50"/>
    <tag k="maxspeed:source" v="default residential speed limit in Australia"/>
    <tag k="name" v="Meaden Street"/>
    <tag k="source" v="Yahoo"/>
    <tag k="source:name" v="photo"/>
  </way>
  <way id="43747554" version="2" timestamp="2010-07-08T20:18:01Z" uid="74617" user="JohnSmith" changeset="5168730">
    <nd ref="361405047"/>
    <nd ref="553816406"/>
    <tag k="highway" v="residential"/>
    <tag k="maxspeed" v="50"/>
    <tag k="maxspeed:source" v="default residential speed limit in Australia"/>
    <tag k="name" v="Haig Street"/>
    <tag k="source" v="Yahoo"/>
    <tag k="source:name" v="photo"/>
  </way>
  <way id="43747558" version="2" timestamp="2010-07-08T20:17:06Z" uid="74617" user="JohnSmith" changeset="5168730">
    <nd ref="553816449"/>
    <nd ref="553816454"/>
    <tag k="highway" v="residential"/>
    <tag k="maxspeed" v="50"/>
    <tag k="maxspeed:source" v="default residential speed limit in Australia"/>
    <tag k="name" v="Kerr Street"/>
    <tag k="source" v="Yahoo"/>
  </way>
  <way id="43747579" version="6" timestamp="2010-07-08T20:19:19Z" uid="74617" user="JohnSmith" changeset="5168730">
    <nd ref="196913363"/>
    <nd ref="591316595"/>
    <nd ref="714741627"/>
    <nd ref="571730312"/>
    <nd ref="553816742"/>
    <nd ref="553816747"/>
    <nd ref="553816752"/>
    <nd ref="553816758"/>
    <nd ref="553816767"/>
    <nd ref="553816770"/>
    <nd ref="553816775"/>
    <tag k="highway" v="residential"/>
    <tag k="maxspeed" v="50"/>
    <tag k="maxspeed:source" v="default residential speed limit in Australia"/>
    <tag k="name" v="Whiteman Street"/>
    <tag k="source" v="Yahoo"/>
    <tag k="source:name" v="photo"/>
  </way>
  <way id="43747581" version="2" timestamp="2010-07-08T20:15:11Z" uid="74617" user="JohnSmith" changeset="5168730">
    <nd ref="553816871"/>
    <nd ref="553816389"/>
    <tag k="highway" v="residential"/>
    <tag k="maxspeed" v="50"/>
    <tag k="maxspeed:source" v="default residential speed limit in Australia"/>
    <tag k="name" v="Douglas Street"/>
    <tag k="source" v="Yahoo"/>
    <tag k="source:name" v="photo"/>
  </way>
  <way id="43747993" version="3" timestamp="2010-07-08T20:17:59Z" uid="74617" user="JohnSmith" changeset="5168730">
    <nd ref="553840532"/>
    <nd ref="636902109"/>
    <nd ref="636902112"/>
    <nd ref="553840537"/>
    <nd ref="553840544"/>
    <tag k="highway" v="residential"/>
    <tag k="maxspeed" v="50"/>
    <tag k="maxspeed:source" v="default residential speed limit in Australia"/>
    <tag k="name" v="Blakeney Place"/>
    <tag k="source" v="Yahoo"/>
    <tag k="source:name" v="photo"/>
  </way>
  <way id="43747994" version="2" timestamp="2010-07-08T20:13:55Z" uid="74617" user="JohnSmith" changeset="5168730">
    <nd ref="553840577"/>
    <nd ref="553840605"/>
    <tag k="highway" v="residential"/>
    <tag k="maxspeed" v="50"/>
    <tag k="maxspeed:source" v="default residential speed limit in Australia"/>
    <tag k="name" v="Blakeney Place"/>
  </way>
</osm>
