<?xml version='1.0' encoding='UTF-8'?>
<osm version="0.6" generator="libosmium/2.20.0">
  <way id="43852024" version="2" timestamp="2010-04-02T17:52:54Z" uid="20587" user="balrog-kun" changeset="4304500">
    <nd ref="51041814"/>
    <nd ref="506167571"/>
    <nd ref="51058510"/>
    <nd ref="556628815"/>
    <nd ref="506167573"/>
    <nd ref="506167575"/>
    <nd ref="50924571"/>
    <nd ref="50930200"/>
    <tag k="highway" v="residential"/>
    <tag k="name" v="West Boone Avenue"/>
    <tag k="tiger:cfcc" v="A41"/>
    <tag k="tiger:county" v="Spokane, WA"/>
    <tag k="tiger:name_base" v="Boone"/>
    <tag k="tiger:name_direction_prefix" v="W"/>
    <tag k="tiger:name_type" v="Ave"/>
    <tag k="tiger:reviewed" v="no"/>
    <tag k="tiger:separated" v="no"/>
    <tag k="tiger:source" v="tiger_import_dch_v0.6_20070830"/>
    <tag k="tiger:tlid" v="189871298:189902319:189871306:189871312:189873374:189873379:189873495:189873496:189873498:189873392:189873505:189873805:189873808:189873836:189873957:189873959:189873968:189873814:189873507:189913913:189874962:189874990:189874991:189875084:189875088:18987"/>
    <tag k="tiger:zip_left" v="99201"/>
    <tag k="tiger:zip_right" v="99201"/>
  </way>
  <way id="43852034" version="1" timestamp="2009-11-05T15:02:15Z" uid="49111" user="Markus B" changeset="3041055">
    <nd ref="556629352"/>
    <nd ref="556629380"/>
    <nd ref="556629399"/>
    <nd ref="556629411"/>
    <nd ref="556629352"/>
    <tag k="addr:housenumber" v="20"/>
    <tag k="addr:street" v="Altdorferstrasse"/>
    <tag k="building" v="yes"/>
    <tag k="name" v="Heindel Stadel"/>
  </way>
</osm>
