<?xml version='1.0' encoding='UTF-8'?>
<osm version="0.6" generator="libosmium/2.20.0">
  <way id="4393133" version="5" timestamp="2009-09-04T21:15:08Z" uid="36809" user="pfoten_weg_!_" changeset="2374562">
    <nd ref="26007650"/>
    <nd ref="26007657"/>
    <nd ref="325807440"/>
    <nd ref="26007658"/>
    <nd ref="26007659"/>
    <nd ref="26007660"/>
    <tag k="highway" v="residential"/>
    <tag k="name" v="Arnimstraße"/>
    <tag k="oneway" v="yes"/>
  </way>
  <way id="4393138" version="3" timestamp="2009-08-26T09:58:52Z" uid="36809" user="pfoten_weg_!_" changeset="2265457">
    <nd ref="26346572"/>
    <nd ref="295283148"/>
    <nd ref="26346570"/>
    <nd ref="26346581"/>
    <nd ref="26346584"/>
    <tag k="highway" v="residential"/>
    <tag k="name" v="Euckenstraße"/>
  </way>
  <way id="4393222" version="2" timestamp="2008-05-31T21:27:44Z" uid="36809" user="pfoten_weg_!_" changeset="564056">
    <nd ref="26125579"/>
    <nd ref="26125629"/>
    <nd ref="26125628"/>
    <nd ref="26125627"/>
    <nd ref="26491557"/>
    <nd ref="26125652"/>
    <nd ref="26125651"/>
    <nd ref="26125650"/>
    <nd ref="26125647"/>
    <nd ref="26491549"/>
    <nd ref="26491562"/>
    <nd ref="26125654"/>
    <tag k="created_by" v="Potlatch 0.9c"/>
    <tag k="highway" v="residential"/>
    <tag k="maxspeed" v="30"/>
    <tag k="name" v="Aichacher Straße"/>
  </way>
  <way id="4393222" version="4" timestamp="2008-09-22T01:29:53Z" uid="36809" user="pfoten_weg_!_" changeset="678890">
    <nd ref="26125579"/>
    <nd ref="295787822"/>
    <nd ref="26125629"/>
    <nd ref="26125628"/>
    <nd ref="26125627"/>
    <nd ref="26491557"/>
    <nd ref="26125652"/>
    <nd ref="26125651"/>
    <nd ref="26125650"/>
    <nd ref="26125647"/>
    <nd ref="26491549"/>
    <nd ref="26491562"/>
    <nd ref="26125654"/>
    <tag k="created_by" v="Potlatch 0.9c"/>
    <tag k="highway" v="residential"/>
    <tag k="maxspeed" v="30"/>
    <tag k="name" v="Aichacher Straße"/>
  </way>
  <way id="4393222" version="5" timestamp="2008-11-23T15:44:54Z" uid="36809" user="pfoten_weg_!_" changeset="784011">
    <nd ref="26125579"/>
    <nd ref="295787822"/>
    <nd ref="26125629"/>
    <nd ref="26125628"/>
    <nd ref="26125627"/>
    <nd ref="26491557"/>
    <nd ref="26125652"/>
    <nd ref="26125651"/>
    <nd ref="26125650"/>
    <nd ref="26125647"/>
    <nd ref="26491549"/>
    <nd ref="26491562"/>
    <nd ref="26125654"/>
    <tag k="created_by" v="RambaZamba"/>
    <tag k="highway" v="residential"/>
    <tag k="maxspeed" v="30"/>
    <tag k="name" v="Aichacher Straße"/>
    <tag k="source" v="survey"/>
  </way>
  <way id="4393222" version="7" timestamp="2009-09-04T21:13:00Z" uid="36809" user="pfoten_weg_!_" changeset="2374562">
    <nd ref="26125579"/>
    <nd ref="295787822"/>
    <nd ref="26125629"/>
    <nd ref="26125628"/>
    <nd ref="26125627"/>
    <nd ref="26491557"/>
    <nd ref="26125652"/>
    <nd ref="26125651"/>
    <nd ref="26125650"/>
    <nd ref="26125647"/>
    <nd ref="26491549"/>
    <nd ref="26491562"/>
    <nd ref="26125654"/>
    <tag k="highway" v="residential"/>
    <tag k="maxspeed" v="30"/>
    <tag k="name" v="Aichacher Straße"/>
    <tag k="source" v="survey"/>
  </way>
  <way id="4393223" version="2" timestamp="2008-05-31T21:29:23Z" uid="36809" user="pfoten_weg_!_" changeset="564056">
    <nd ref="26125652"/>
    <nd ref="26125653"/>
    <nd ref="26125649"/>
    <tag k="created_by" v="Potlatch 0.9c"/>
    <tag k="highway" v="residential"/>
    <tag k="maxspeed" v="30"/>
    <tag k="name" v="Aichacher Platz"/>
  </way>
  <way id="4393223" version="3" timestamp="2008-11-23T15:44:53Z" uid="36809" user="pfoten_weg_!_" changeset="784011">
    <nd ref="26125652"/>
    <nd ref="26125653"/>
    <nd ref="26125649"/>
    <tag k="created_by" v="RambaZamba"/>
    <tag k="highway" v="residential"/>
    <tag k="maxspeed" v="30"/>
    <tag k="name" v="Aichacher Platz"/>
    <tag k="source" v="survey"/>
  </way>
  <way id="4393223" version="5" timestamp="2009-09-04T21:16:06Z" uid="36809" user="pfoten_weg_!_" changeset="2374562">
    <nd ref="26125652"/>
    <nd ref="26125653"/>
    <nd ref="26125649"/>
    <tag k="highway" v="residential"/>
    <tag k="maxspeed" v="30"/>
    <tag k="name" v="Aichacher Platz"/>
    <tag k="source" v="survey"/>
  </way>
  <way id="4393227" version="2" timestamp="2008-05-31T21:28:39Z" uid="36809" user="pfoten_weg_!_" changeset="564056">
    <nd ref="26125654"/>
    <nd ref="26125655"/>
    <tag k="created_by" v="Potlatch 0.9c"/>
    <tag k="highway" v="residential"/>
    <tag k="maxspeed" v="30"/>
    <tag k="name" v="Kuhfluchtstraße"/>
  </way>
  <way id="4393227" version="3" timestamp="2009-02-15T13:14:00Z" uid="36809" user="pfoten_weg_!_" changeset="463903">
    <nd ref="26125654"/>
    <nd ref="26125655"/>
    <tag k="created_by" v="RambaZamba"/>
    <tag k="highway" v="residential"/>
    <tag k="maxspeed" v="30"/>
    <tag k="name" v="Kuhfluchtstraße"/>
    <tag k="source" v="survey"/>
  </way>
  <way id="4393227" version="5" timestamp="2009-09-04T21:12:59Z" uid="36809" user="pfoten_weg_!_" changeset="2374562">
    <nd ref="26125654"/>
    <nd ref="26125655"/>
    <tag k="highway" v="residential"/>
    <tag k="maxspeed" v="30"/>
    <tag k="name" v="Kuhfluchtstraße"/>
    <tag k="source" v="survey"/>
  </way>
  <way id="4393540" version="4" timestamp="2010-07-08T19:42:09Z" uid="74617" user="JohnSmith" changeset="5168688">
    <nd ref="26828395"/>
    <nd ref="26828396"/>
    <nd ref="26828394"/>
    <tag k="highway" v="residential"/>
    <tag k="maxspeed" v="50"/>
    <tag k="maxspeed:source" v="default residential speed limit in Australia"/>
  </way>
  <way id="4393548" version="4" timestamp="2010-03-27T07:43:27Z" uid="20587" user="balrog-kun" changeset="4244079">
    <nd ref="26848191"/>
    <nd ref="26848205"/>
    <tag k="highway" v="residential"/>
    <tag k="name" v="Crestlake Avenue"/>
  </way>
  <way id="4393549" version="4" timestamp="2010-03-27T07:43:27Z" uid="20587" user="balrog-kun" changeset="4244079">
    <nd ref="123303791"/>
    <nd ref="26848205"/>
    <nd ref="26848219"/>
    <tag k="highway" v="residential"/>
    <tag k="name" v="Elmpark Street"/>
    <tag k="tiger:cfcc" v="A41"/>
    <tag k="tiger:county" v="Los Angeles, CA"/>
    <tag k="tiger:name_base" v="Elmpark"/>
    <tag k="tiger:name_type" v="St"/>
    <tag k="tiger:separated" v="no"/>
    <tag k="tiger:source" v="tiger_import_dch_v0.6_20070809"/>
    <tag k="tiger:tlid" v="141630476:141630481"/>
    <tag k="tiger:zip_left" v="91030"/>
    <tag k="tiger:zip_right" v="91030"/>
  </way>
  <way id="4393551" version="6" timestamp="2010-03-27T07:43:27Z" uid="20587" user="balrog-kun" changeset="4244079">
    <nd ref="26848224"/>
    <nd ref="26848236"/>
    <nd ref="28992167"/>
    <tag k="highway" v="residential"/>
    <tag k="name" v="Maple Street"/>
  </way>
  <way id="4393947" version="10" timestamp="2010-03-27T07:43:27Z" uid="20587" user="balrog-kun" changeset="4244079">
    <nd ref="14854394"/>
    <nd ref="122680051"/>
    <nd ref="34632175"/>
    <nd ref="373499008"/>
    <nd ref="21507140"/>
    <nd ref="17737744"/>
    <nd ref="598450753"/>
    <nd ref="180282919"/>
    <nd ref="544328707"/>
    <nd ref="598450758"/>
    <nd ref="544328708"/>
    <nd ref="598450762"/>
    <nd ref="21703047"/>
    <nd ref="10618107"/>
    <nd ref="598450735"/>
    <nd ref="26795165"/>
    <nd ref="598450766"/>
    <nd ref="10618108"/>
    <nd ref="598450776"/>
    <nd ref="598450777"/>
    <nd ref="123243768"/>
    <nd ref="598450778"/>
    <nd ref="598450779"/>
    <nd ref="10618109"/>
    <nd ref="598450780"/>
    <nd ref="10618110"/>
    <nd ref="28992167"/>
    <nd ref="26848249"/>
    <nd ref="567604456"/>
    <nd ref="14854400"/>
    <nd ref="567604457"/>
    <nd ref="567604458"/>
    <nd ref="14854399"/>
    <nd ref="567604459"/>
    <nd ref="567604460"/>
    <nd ref="122881514"/>
    <nd ref="14854398"/>
    <nd ref="567604461"/>
    <nd ref="180283012"/>
    <nd ref="567604462"/>
    <nd ref="14854397"/>
    <nd ref="16219402"/>
    <nd ref="552472994"/>
    <nd ref="178795499"/>
    <nd ref="569424669"/>
    <nd ref="588193389"/>
    <nd ref="16219401"/>
    <tag k="highway" v="primary"/>
    <tag k="name" v="Huntington Drive"/>
    <tag k="oneway" v="yes"/>
  </way>
  <way id="4393948" version="4" timestamp="2010-03-27T07:43:28Z" uid="20587" user="balrog-kun" changeset="4244079">
    <nd ref="26848267"/>
    <nd ref="532084287"/>
    <nd ref="532084311"/>
    <nd ref="532084356"/>
    <nd ref="26849778"/>
    <nd ref="532084368"/>
    <nd ref="76367925"/>
    <nd ref="26849785"/>
    <tag k="highway" v="residential"/>
    <tag k="name" v="Berkshire Avenue"/>
  </way>
  <way id="4393949" version="6" timestamp="2010-03-27T07:43:28Z" uid="20587" user="balrog-kun" changeset="4244079">
    <nd ref="26849786"/>
    <nd ref="532083975"/>
    <nd ref="532084011"/>
    <nd ref="532084030"/>
    <nd ref="26849778"/>
    <nd ref="532084077"/>
    <nd ref="532084098"/>
    <nd ref="532084115"/>
    <nd ref="532084163"/>
    <nd ref="598665322"/>
    <nd ref="26849780"/>
    <nd ref="598665321"/>
    <nd ref="598665320"/>
    <nd ref="598665319"/>
    <nd ref="26849781"/>
    <nd ref="598665318"/>
    <nd ref="527550501"/>
    <nd ref="26849782"/>
    <tag k="highway" v="residential"/>
    <tag k="name" v="Berkshire Drive"/>
  </way>
  <way id="4393950" version="3" timestamp="2010-03-27T07:43:28Z" uid="20587" user="balrog-kun" changeset="4244079">
    <nd ref="20350964"/>
    <nd ref="122879789"/>
    <nd ref="26849783"/>
    <tag k="created_by" v="JOSM"/>
    <tag k="highway" v="residential"/>
    <tag k="name" v="Valley VIew Road"/>
  </way>
  <way id="4393951" version="4" timestamp="2010-03-27T07:43:28Z" uid="20587" user="balrog-kun" changeset="4244079">
    <nd ref="26849783"/>
    <nd ref="122879778"/>
    <nd ref="26849784"/>
    <tag k="highway" v="residential"/>
    <tag k="name" v="Berkshire Avenue"/>
  </way>
  <way id="4393952" version="3" timestamp="2010-03-27T07:43:28Z" uid="20587" user="balrog-kun" changeset="4244079">
    <nd ref="26849789"/>
    <nd ref="527668558"/>
    <nd ref="26849791"/>
    <nd ref="527668566"/>
    <tag k="highway" v="residential"/>
    <tag k="name" v="Moffit Street"/>
  </way>
  <way id="4393953" version="5" timestamp="2010-03-27T07:43:28Z" uid="20587" user="balrog-kun" changeset="4244079">
    <nd ref="26849790"/>
    <nd ref="26849791"/>
    <tag k="highway" v="residential"/>
    <tag k="name" v="Maycrest Avenue"/>
  </way>
  <way id="4393954" version="4" timestamp="2010-03-27T07:43:28Z" uid="20587" user="balrog-kun" changeset="4244079">
    <nd ref="26849799"/>
    <nd ref="179289409"/>
    <nd ref="179289332"/>
    <nd ref="26849800"/>
    <nd ref="26849801"/>
    <nd ref="26849802"/>
    <nd ref="178887774"/>
    <nd ref="26849803"/>
    <nd ref="178887752"/>
    <nd ref="26849804"/>
    <nd ref="178887754"/>
    <nd ref="26849805"/>
    <nd ref="26849806"/>
    <nd ref="26849807"/>
    <tag k="created_by" v="JOSM"/>
    <tag k="highway" v="residential"/>
    <tag k="name" v="Portola Avenue"/>
  </way>
  <way id="4393955" version="5" timestamp="2010-03-27T07:43:29Z" uid="20587" user="balrog-kun" changeset="4244079">
    <nd ref="14854403"/>
    <nd ref="576866600"/>
    <nd ref="26849796"/>
    <nd ref="26849797"/>
    <nd ref="122739405"/>
    <nd ref="26849798"/>
    <nd ref="76368401"/>
    <nd ref="76367971"/>
    <nd ref="26849799"/>
    <tag k="highway" v="residential"/>
    <tag k="name" v="Portola Avenue"/>
  </way>
  <way id="4393956" version="3" timestamp="2010-03-27T07:43:29Z" uid="20587" user="balrog-kun" changeset="4244079">
    <nd ref="26849808"/>
    <nd ref="26849806"/>
    <nd ref="26849809"/>
    <nd ref="26849810"/>
    <tag k="created_by" v="JOSM"/>
    <tag k="highway" v="residential"/>
    <tag k="name" v="Lathrop Street"/>
  </way>
  <way id="4393958" version="3" timestamp="2010-03-27T07:43:29Z" uid="20587" user="balrog-kun" changeset="4244079">
    <nd ref="26849811"/>
    <nd ref="26849813"/>
    <nd ref="178887758"/>
    <nd ref="178887760"/>
    <nd ref="26849814"/>
    <nd ref="178887766"/>
    <nd ref="26849815"/>
    <nd ref="26849816"/>
    <nd ref="26849817"/>
    <tag k="created_by" v="JOSM"/>
    <tag k="highway" v="residential"/>
    <tag k="name" v="Remstoy Street"/>
  </way>
  <way id="4393959" version="3" timestamp="2010-03-27T07:43:29Z" uid="20587" user="balrog-kun" changeset="4244079">
    <nd ref="26849817"/>
    <nd ref="180282606"/>
    <nd ref="26849818"/>
    <tag k="created_by" v="JOSM"/>
    <tag k="highway" v="residential"/>
    <tag k="name" v="Remstoy Street"/>
  </way>
  <way id="4393960" version="3" timestamp="2010-03-27T07:43:29Z" uid="20587" user="balrog-kun" changeset="4244079">
    <nd ref="26849818"/>
    <nd ref="122693643"/>
    <nd ref="26849819"/>
    <tag k="created_by" v="JOSM"/>
    <tag k="highway" v="residential"/>
    <tag k="name" v="Lathrop Street"/>
  </way>
</osm>
