<?xml version='1.0' encoding='UTF-8'?>
<osm version="0.6" generator="libosmium/2.20.0">
  <way id="43949188" version="1" timestamp="2009-11-07T15:27:57Z" uid="30632" user="antblant" changeset="3056481">
    <nd ref="370650148"/>
    <nd ref="558921305"/>
    <nd ref="558921315"/>
    <nd ref="558921307"/>
    <nd ref="370650145"/>
    <nd ref="370650150"/>
    <nd ref="370650148"/>
    <tag k="addr:housenumber" v="4"/>
    <tag k="addr:street" v="Targ Rybny"/>
    <tag k="building" v="yes"/>
    <tag k="source" v="gis.um.szczecin.pl"/>
  </way>
  <way id="43949188" version="2" timestamp="2010-03-25T08:51:33Z" uid="20587" user="balrog-kun" changeset="4227478"/>
  <way id="43949189" version="1" timestamp="2009-11-07T15:27:58Z" uid="30632" user="antblant" changeset="3056481">
    <nd ref="558921305"/>
    <nd ref="558921308"/>
    <nd ref="558921310"/>
    <nd ref="558921312"/>
    <nd ref="558921314"/>
    <nd ref="558921315"/>
    <nd ref="558921305"/>
    <tag k="addr:housenumber" v="3"/>
    <tag k="addr:street" v="Targ Rybny"/>
    <tag k="building" v="yes"/>
    <tag k="source" v="gis.um.szczecin.pl"/>
  </way>
  <way id="43949189" version="2" timestamp="2010-03-25T08:51:33Z" uid="20587" user="balrog-kun" changeset="4227478"/>
  <way id="43949191" version="1" timestamp="2009-11-07T15:27:58Z" uid="30632" user="antblant" changeset="3056481">
    <nd ref="558921284"/>
    <nd ref="558921289"/>
    <nd ref="558921290"/>
    <nd ref="558921293"/>
    <nd ref="558921292"/>
    <nd ref="558921284"/>
    <tag k="addr:housenumber" v="1"/>
    <tag k="addr:street" v="Targ Rybny"/>
    <tag k="building" v="yes"/>
    <tag k="source" v="gis.um.szczecin.pl"/>
  </way>
  <way id="43949191" version="2" timestamp="2010-03-25T08:51:33Z" uid="20587" user="balrog-kun" changeset="4227478"/>
  <way id="43949192" version="1" timestamp="2009-11-07T15:27:58Z" uid="30632" user="antblant" changeset="3056481">
    <nd ref="558921293"/>
    <nd ref="558921295"/>
    <nd ref="558921296"/>
    <nd ref="558921292"/>
    <nd ref="558921293"/>
    <tag k="addr:housenumber" v="15a"/>
    <tag k="addr:street" v="Kurza Stopka"/>
    <tag k="building" v="yes"/>
    <tag k="source" v="gis.um.szczecin.pl"/>
  </way>
  <way id="43949192" version="2" timestamp="2010-03-25T08:51:33Z" uid="20587" user="balrog-kun" changeset="4227478"/>
  <way id="43949193" version="1" timestamp="2009-11-07T15:27:58Z" uid="30632" user="antblant" changeset="3056481">
    <nd ref="558921296"/>
    <nd ref="558921297"/>
    <nd ref="558921301"/>
    <nd ref="558921299"/>
    <nd ref="558921300"/>
    <nd ref="558921295"/>
    <nd ref="558921296"/>
    <tag k="addr:housenumber" v="15"/>
    <tag k="addr:street" v="Kurza Stopka"/>
    <tag k="building" v="yes"/>
    <tag k="source" v="gis.um.szczecin.pl"/>
  </way>
  <way id="43949193" version="2" timestamp="2010-03-25T08:51:33Z" uid="20587" user="balrog-kun" changeset="4227478"/>
  <way id="43949195" version="1" timestamp="2009-11-07T15:27:58Z" uid="30632" user="antblant" changeset="3056481">
    <nd ref="370650159"/>
    <nd ref="558921301"/>
    <nd ref="558921297"/>
    <nd ref="370650157"/>
    <nd ref="370650159"/>
    <tag k="addr:housenumber" v="14"/>
    <tag k="addr:street" v="Kurza Stopka"/>
    <tag k="building" v="yes"/>
    <tag k="source" v="gis.um.szczecin.pl"/>
  </way>
  <way id="43949195" version="2" timestamp="2010-03-25T08:51:33Z" uid="20587" user="balrog-kun" changeset="4227478"/>
  <way id="43949196" version="1" timestamp="2009-11-07T15:27:58Z" uid="30632" user="antblant" changeset="3056481">
    <nd ref="558921258"/>
    <nd ref="558921245"/>
    <nd ref="558921260"/>
    <nd ref="558921304"/>
    <nd ref="558921303"/>
    <nd ref="558921258"/>
    <tag k="addr:housenumber" v="5"/>
    <tag k="addr:street" v="Kurza Stopka"/>
    <tag k="building" v="yes"/>
    <tag k="source" v="gis.um.szczecin.pl"/>
  </way>
  <way id="43949196" version="2" timestamp="2010-03-25T08:51:32Z" uid="20587" user="balrog-kun" changeset="4227478"/>
  <way id="43949197" version="1" timestamp="2009-11-07T15:27:58Z" uid="30632" user="antblant" changeset="3056481">
    <nd ref="558921304"/>
    <nd ref="558921273"/>
    <nd ref="558921277"/>
    <nd ref="558921274"/>
    <nd ref="558921260"/>
    <nd ref="558921304"/>
    <tag k="addr:housenumber" v="3;4"/>
    <tag k="addr:street" v="Kurza Stopka"/>
    <tag k="building" v="yes"/>
    <tag k="source" v="gis.um.szczecin.pl"/>
  </way>
  <way id="43949197" version="2" timestamp="2010-03-25T08:51:32Z" uid="20587" user="balrog-kun" changeset="4227478"/>
  <way id="43949198" version="1" timestamp="2009-11-07T15:27:58Z" uid="30632" user="antblant" changeset="3056481">
    <nd ref="558921273"/>
    <nd ref="558921285"/>
    <nd ref="558921275"/>
    <nd ref="558921280"/>
    <nd ref="558921277"/>
    <nd ref="558921273"/>
    <tag k="addr:housenumber" v="2"/>
    <tag k="addr:street" v="Kurza Stopka"/>
    <tag k="building" v="yes"/>
    <tag k="source" v="gis.um.szczecin.pl"/>
  </way>
  <way id="43949198" version="2" timestamp="2010-03-25T08:51:32Z" uid="20587" user="balrog-kun" changeset="4227478"/>
  <way id="43949200" version="1" timestamp="2009-11-07T15:27:58Z" uid="30632" user="antblant" changeset="3056481">
    <nd ref="558921285"/>
    <nd ref="558921287"/>
    <nd ref="558921271"/>
    <nd ref="558921275"/>
    <nd ref="558921285"/>
    <tag k="addr:housenumber" v="7"/>
    <tag k="addr:street" v="Rynek Nowy"/>
    <tag k="building" v="yes"/>
    <tag k="source" v="gis.um.szczecin.pl"/>
  </way>
  <way id="43949200" version="2" timestamp="2010-03-25T08:51:32Z" uid="20587" user="balrog-kun" changeset="4227478"/>
  <way id="43949201" version="1" timestamp="2009-11-07T15:27:58Z" uid="30632" user="antblant" changeset="3056481">
    <nd ref="558921271"/>
    <nd ref="558921263"/>
    <nd ref="558921283"/>
    <nd ref="558921278"/>
    <nd ref="558921280"/>
    <nd ref="558921275"/>
    <nd ref="558921271"/>
    <tag k="addr:housenumber" v="6"/>
    <tag k="addr:street" v="Rynek Nowy"/>
    <tag k="building" v="yes"/>
    <tag k="source" v="gis.um.szczecin.pl"/>
  </way>
  <way id="43949201" version="2" timestamp="2010-03-25T08:51:32Z" uid="20587" user="balrog-kun" changeset="4227478"/>
  <way id="43949202" version="1" timestamp="2009-11-07T15:27:59Z" uid="30632" user="antblant" changeset="3056481">
    <nd ref="558921263"/>
    <nd ref="558921265"/>
    <nd ref="558921281"/>
    <nd ref="558921283"/>
    <nd ref="558921263"/>
    <tag k="addr:housenumber" v="5"/>
    <tag k="addr:street" v="Rynek Nowy"/>
    <tag k="building" v="yes"/>
    <tag k="source" v="gis.um.szczecin.pl"/>
  </way>
  <way id="43949202" version="2" timestamp="2010-03-25T08:51:32Z" uid="20587" user="balrog-kun" changeset="4227478"/>
  <way id="43949203" version="1" timestamp="2009-11-07T15:27:59Z" uid="30632" user="antblant" changeset="3056481">
    <nd ref="558921265"/>
    <nd ref="558921267"/>
    <nd ref="558921268"/>
    <nd ref="558921281"/>
    <nd ref="558921265"/>
    <tag k="addr:housenumber" v="4"/>
    <tag k="addr:street" v="Rynek Nowy"/>
    <tag k="building" v="yes"/>
    <tag k="source" v="gis.um.szczecin.pl"/>
  </way>
  <way id="43949203" version="2" timestamp="2010-03-25T08:51:32Z" uid="20587" user="balrog-kun" changeset="4227478"/>
  <way id="43949204" version="1" timestamp="2009-11-07T15:27:59Z" uid="30632" user="antblant" changeset="3056481">
    <nd ref="558921267"/>
    <nd ref="558921247"/>
    <nd ref="558921249"/>
    <nd ref="558921268"/>
    <nd ref="558921267"/>
    <tag k="addr:housenumber" v="3"/>
    <tag k="addr:street" v="Rynek Nowy"/>
    <tag k="building" v="yes"/>
    <tag k="source" v="gis.um.szczecin.pl"/>
  </way>
  <way id="43949204" version="2" timestamp="2010-03-25T08:51:32Z" uid="20587" user="balrog-kun" changeset="4227478"/>
  <way id="43949206" version="1" timestamp="2009-11-07T15:27:59Z" uid="30632" user="antblant" changeset="3056481">
    <nd ref="370650161"/>
    <nd ref="558921261"/>
    <nd ref="558921250"/>
    <nd ref="558921256"/>
    <nd ref="558921251"/>
    <nd ref="558921245"/>
    <nd ref="558921258"/>
    <nd ref="370650161"/>
    <tag k="addr:housenumber" v="19"/>
    <tag k="addr:street" v="Mała Odrzańska"/>
    <tag k="building" v="yes"/>
    <tag k="source" v="gis.um.szczecin.pl"/>
  </way>
  <way id="43949206" version="2" timestamp="2010-03-25T08:51:32Z" uid="20587" user="balrog-kun" changeset="4227478"/>
  <way id="43949207" version="1" timestamp="2009-11-07T15:27:59Z" uid="30632" user="antblant" changeset="3056481">
    <nd ref="558921250"/>
    <nd ref="558921253"/>
    <nd ref="558921254"/>
    <nd ref="558921256"/>
    <nd ref="558921250"/>
    <tag k="addr:housenumber" v="2"/>
    <tag k="addr:street" v="Opłotki"/>
    <tag k="building" v="yes"/>
    <tag k="source" v="gis.um.szczecin.pl"/>
  </way>
  <way id="43949207" version="2" timestamp="2010-03-25T08:51:32Z" uid="20587" user="balrog-kun" changeset="4227478"/>
  <way id="43949208" version="1" timestamp="2009-11-07T15:27:59Z" uid="30632" user="antblant" changeset="3056481">
    <nd ref="558921253"/>
    <nd ref="558921249"/>
    <nd ref="558921268"/>
    <nd ref="558921257"/>
    <nd ref="558921254"/>
    <nd ref="558921253"/>
    <tag k="addr:housenumber" v="1"/>
    <tag k="addr:street" v="Opłotki"/>
    <tag k="building" v="yes"/>
    <tag k="source" v="gis.um.szczecin.pl"/>
  </way>
  <way id="43949208" version="2" timestamp="2010-03-25T08:51:32Z" uid="20587" user="balrog-kun" changeset="4227478"/>
  <way id="43949395" version="2" timestamp="2010-04-02T20:39:29Z" uid="20587" user="balrog-kun" changeset="4306764">
    <nd ref="558910272"/>
    <nd ref="558922723"/>
    <nd ref="558922727"/>
    <nd ref="558922728"/>
    <nd ref="558922730"/>
    <nd ref="558922735"/>
    <nd ref="558922737"/>
    <nd ref="558922740"/>
    <nd ref="558922742"/>
    <nd ref="140656217"/>
    <tag k="highway" v="residential"/>
    <tag k="name" v="West Zolezzi Lane"/>
    <tag k="name_1" v="Zolezzi Lane"/>
    <tag k="oneway" v="yes"/>
    <tag k="tiger:cfcc" v="A41"/>
    <tag k="tiger:county" v="Washoe, NV"/>
    <tag k="tiger:name_base" v="Zolezzi"/>
    <tag k="tiger:name_base_1" v="Zolezzi"/>
    <tag k="tiger:name_direction_prefix" v="W"/>
    <tag k="tiger:name_type" v="Ln"/>
    <tag k="tiger:name_type_1" v="Ln"/>
    <tag k="tiger:reviewed" v="yes"/>
    <tag k="tiger:separated" v="no"/>
    <tag k="tiger:source" v="tiger_import_dch_v0.6_20070828"/>
    <tag k="tiger:tlid" v="107054788"/>
    <tag k="tiger:zip_left" v="89511"/>
  </way>
  <way id="43949511" version="3" timestamp="2010-12-19T15:37:51Z" uid="9581" user="Lobelt" changeset="6707130">
    <nd ref="144399030"/>
    <nd ref="558925618"/>
    <nd ref="658794786"/>
    <nd ref="658794787"/>
    <nd ref="658794789"/>
    <nd ref="658794792"/>
    <nd ref="25778376"/>
    <tag k="highway" v="track"/>
    <tag k="tracktype" v="grade5"/>
  </way>
  <way id="43949512" version="3" timestamp="2010-12-19T15:37:54Z" uid="9581" user="Lobelt" changeset="6707130"/>
  <way id="43949976" version="1" timestamp="2009-11-07T15:40:29Z" uid="74617" user="JohnSmith" changeset="3056575">
    <nd ref="558933395"/>
    <nd ref="111403331"/>
    <tag k="bridge" v="yes"/>
    <tag k="highway" v="primary"/>
    <tag k="layer" v="1"/>
    <tag k="name" v="Dayboro Road"/>
    <tag k="ref" v="S58"/>
    <tag k="source" v="nearmap"/>
  </way>
  <way id="43949976" version="2" timestamp="2010-03-15T02:39:07Z" uid="74617" user="JohnSmith" changeset="4131596">
    <nd ref="558933395"/>
    <nd ref="111403331"/>
    <tag k="bridge" v="yes"/>
    <tag k="highway" v="primary"/>
    <tag k="layer" v="1"/>
    <tag k="source" v="nearmap"/>
  </way>
  <way id="43949977" version="1" timestamp="2009-11-07T15:40:29Z" uid="74617" user="JohnSmith" changeset="3056575">
    <nd ref="111403331"/>
    <nd ref="558933398"/>
    <nd ref="111403332"/>
    <nd ref="558933390"/>
    <nd ref="558933388"/>
    <nd ref="558933387"/>
    <nd ref="111403334"/>
    <nd ref="558876930"/>
    <nd ref="558876929"/>
    <nd ref="111403335"/>
    <nd ref="558876931"/>
    <nd ref="344877353"/>
    <nd ref="111403337"/>
    <nd ref="558876948"/>
    <nd ref="558876940"/>
    <nd ref="111403338"/>
    <nd ref="558876938"/>
    <nd ref="558876939"/>
    <nd ref="193373275"/>
    <nd ref="193373298"/>
    <tag k="highway" v="primary"/>
    <tag k="name" v="Dayboro Road"/>
    <tag k="ref" v="S58"/>
  </way>
  <way id="43949977" version="2" timestamp="2010-03-15T02:39:07Z" uid="74617" user="JohnSmith" changeset="4131596">
    <nd ref="111403331"/>
    <nd ref="558933398"/>
    <nd ref="111403332"/>
    <nd ref="558933390"/>
    <nd ref="558933388"/>
    <nd ref="558933387"/>
    <nd ref="111403334"/>
    <nd ref="558876930"/>
    <nd ref="558876929"/>
    <nd ref="111403335"/>
    <nd ref="558876931"/>
    <nd ref="344877353"/>
    <nd ref="111403337"/>
    <nd ref="558876948"/>
    <nd ref="558876940"/>
    <nd ref="111403338"/>
    <nd ref="558876938"/>
    <nd ref="558876939"/>
    <nd ref="193373275"/>
    <nd ref="193373298"/>
    <tag k="highway" v="primary"/>
    <tag k="name" v="Dayboro Road"/>
  </way>
  <way id="43949999" version="2" timestamp="2010-04-02T17:52:58Z" uid="20587" user="balrog-kun" changeset="4304500">
    <nd ref="50938607"/>
    <nd ref="558911773"/>
    <nd ref="50944439"/>
    <nd ref="50870893"/>
    <nd ref="50944444"/>
    <nd ref="50944446"/>
    <nd ref="50944448"/>
    <nd ref="50944450"/>
    <nd ref="50944452"/>
    <nd ref="50944454"/>
    <tag k="highway" v="residential"/>
    <tag k="name" v="North Helena Street"/>
    <tag k="tiger:cfcc" v="A41"/>
    <tag k="tiger:county" v="Spokane, WA"/>
    <tag k="tiger:name_base" v="Helena"/>
    <tag k="tiger:name_direction_prefix" v="N"/>
    <tag k="tiger:name_type" v="St"/>
    <tag k="tiger:reviewed" v="no"/>
    <tag k="tiger:separated" v="no"/>
    <tag k="tiger:source" v="tiger_import_dch_v0.6_20070830"/>
    <tag k="tiger:tlid" v="189879066:189879068:189879077:189879081:189879079:189880840:189880842:189880844:189880855:189880858:189880860:189880896:189880898:189880861:189880900:189880902:189880904:189880845"/>
    <tag k="tiger:zip_left" v="99202"/>
    <tag k="tiger:zip_right" v="99202"/>
  </way>
</osm>
