<?xml version='1.0' encoding='UTF-8'?>
<osm version="0.6" generator="libosmium/2.20.0">
  <way id="43997074" version="1" timestamp="2009-11-08T11:31:07Z" uid="7617" user="Franc" changeset="3062741">
    <nd ref="559440615"/>
    <nd ref="559440619"/>
    <tag k="highway" v="pedestrian"/>
    <tag k="source" v="extrapolation"/>
  </way>
  <way id="43997076" version="1" timestamp="2009-11-08T11:31:07Z" uid="7617" user="Franc" changeset="3062741">
    <nd ref="559440617"/>
    <nd ref="559440618"/>
    <tag k="highway" v="service"/>
    <tag k="name" v="Wellington Place"/>
    <tag k="source" v="survey"/>
  </way>
  <way id="43997078" version="1" timestamp="2009-11-08T11:31:07Z" uid="7617" user="Franc" changeset="3062741">
    <nd ref="559440631"/>
    <nd ref="559440628"/>
    <nd ref="559440624"/>
    <nd ref="559440625"/>
    <nd ref="559440627"/>
    <nd ref="60716721"/>
    <tag k="highway" v="service"/>
    <tag k="name" v="Cutler Street"/>
    <tag k="source" v="survey"/>
  </way>
  <way id="43997080" version="1" timestamp="2009-11-08T11:31:07Z" uid="7617" user="Franc" changeset="3062741">
    <nd ref="559440628"/>
    <nd ref="559440632"/>
    <tag k="highway" v="service"/>
    <tag k="name" v="Denham Lane"/>
    <tag k="source" v="survey"/>
  </way>
  <way id="43997082" version="1" timestamp="2009-11-08T11:31:08Z" uid="7617" user="Franc" changeset="3062741">
    <nd ref="559440619"/>
    <nd ref="559440623"/>
    <nd ref="559440621"/>
    <nd ref="559440629"/>
    <tag k="highway" v="service"/>
    <tag k="name" v="Castlefield Lane"/>
    <tag k="source" v="survey"/>
  </way>
  <way id="43997083" version="1" timestamp="2009-11-08T11:31:08Z" uid="7617" user="Franc" changeset="3062741">
    <nd ref="559440622"/>
    <nd ref="559440623"/>
    <tag k="highway" v="service"/>
    <tag k="source" v="survey"/>
  </way>
  <way id="43997083" version="2" timestamp="2010-10-23T02:44:33Z" uid="7617" user="Franc" changeset="6141823">
    <nd ref="559440622"/>
    <nd ref="559440623"/>
    <tag k="fixme:sign:no" v="20101010"/>
    <tag k="highway" v="service"/>
    <tag k="source" v="survey"/>
  </way>
  <way id="43997084" version="1" timestamp="2009-11-08T11:31:08Z" uid="7617" user="Franc" changeset="3062741">
    <nd ref="559440652"/>
    <nd ref="559440653"/>
    <tag k="highway" v="residential"/>
    <tag k="name" v="Glasgow Avenue"/>
    <tag k="oneway" v="yes"/>
    <tag k="source" v="survey"/>
  </way>
  <way id="43997084" version="2" timestamp="2010-07-07T21:49:49Z" uid="74617" user="JohnSmith" changeset="5161069">
    <nd ref="559440652"/>
    <nd ref="559440653"/>
    <tag k="highway" v="residential"/>
    <tag k="maxspeed" v="50"/>
    <tag k="maxspeed:source" v="default residential speed limit in Australia"/>
    <tag k="name" v="Glasgow Avenue"/>
    <tag k="oneway" v="yes"/>
    <tag k="source" v="survey"/>
  </way>
  <way id="43997085" version="1" timestamp="2009-11-08T11:31:08Z" uid="7617" user="Franc" changeset="3062741">
    <nd ref="559440636"/>
    <nd ref="559440637"/>
    <nd ref="559440630"/>
    <tag k="highway" v="service"/>
    <tag k="name" v="Francis Street"/>
    <tag k="source" v="survey"/>
  </way>
  <way id="43997087" version="1" timestamp="2009-11-08T11:31:08Z" uid="7617" user="Franc" changeset="3062741">
    <nd ref="264814644"/>
    <nd ref="20979884"/>
    <nd ref="65806655"/>
    <tag k="highway" v="residential"/>
    <tag k="name" v="Lamrock Avenue"/>
  </way>
  <way id="43997087" version="2" timestamp="2010-01-05T22:21:22Z" uid="7617" user="Franc" changeset="3549545">
    <nd ref="264814644"/>
    <nd ref="20979884"/>
    <nd ref="606173464"/>
    <nd ref="65806655"/>
    <tag k="highway" v="residential"/>
    <tag k="name" v="Lamrock Avenue"/>
  </way>
  <way id="43997087" version="4" timestamp="2010-07-07T21:53:29Z" uid="74617" user="JohnSmith" changeset="5161069">
    <nd ref="264814644"/>
    <nd ref="654735300"/>
    <tag k="cycleway" v="lane"/>
    <tag k="highway" v="residential"/>
    <tag k="lcn" v="yes"/>
    <tag k="maxspeed" v="50"/>
    <tag k="maxspeed:source" v="default residential speed limit in Australia"/>
    <tag k="name" v="Lamrock Avenue"/>
  </way>
  <way id="43997089" version="1" timestamp="2009-11-08T11:31:08Z" uid="7617" user="Franc" changeset="3062741">
    <nd ref="559440641"/>
    <nd ref="559440643"/>
    <nd ref="559440642"/>
    <nd ref="559440645"/>
    <nd ref="60716849"/>
    <tag k="highway" v="residential"/>
    <tag k="name" v="Cox Avenue"/>
    <tag k="source" v="survey"/>
  </way>
  <way id="43997089" version="2" timestamp="2010-07-07T21:51:15Z" uid="74617" user="JohnSmith" changeset="5161069">
    <nd ref="559440641"/>
    <nd ref="559440643"/>
    <nd ref="559440642"/>
    <nd ref="559440645"/>
    <nd ref="60716849"/>
    <tag k="highway" v="residential"/>
    <tag k="maxspeed" v="50"/>
    <tag k="maxspeed:source" v="default residential speed limit in Australia"/>
    <tag k="name" v="Cox Avenue"/>
    <tag k="source" v="survey"/>
  </way>
  <way id="43997089" version="3" timestamp="2010-10-16T05:27:09Z" uid="7617" user="Franc" changeset="6054570">
    <nd ref="559440641"/>
    <nd ref="559440642"/>
    <nd ref="559440645"/>
    <nd ref="60716849"/>
    <tag k="highway" v="residential"/>
    <tag k="maxspeed" v="50"/>
    <tag k="maxspeed:source" v="default residential speed limit in Australia"/>
    <tag k="name" v="Cox Avenue"/>
    <tag k="source" v="survey"/>
  </way>
  <way id="43997093" version="1" timestamp="2009-11-08T11:31:08Z" uid="7617" user="Franc" changeset="3062741">
    <nd ref="559440639"/>
    <nd ref="559440640"/>
    <tag k="highway" v="service"/>
    <tag k="name" v="Rudolph Lane"/>
    <tag k="source" v="survey"/>
  </way>
  <way id="43997095" version="1" timestamp="2009-11-08T11:31:08Z" uid="7617" user="Franc" changeset="3062741">
    <nd ref="559440647"/>
    <nd ref="559440648"/>
    <nd ref="559440649"/>
    <nd ref="559440650"/>
    <nd ref="559440651"/>
    <nd ref="559440633"/>
    <nd ref="559440634"/>
    <tag k="highway" v="service"/>
    <tag k="name" v="Lamrock Place"/>
    <tag k="source" v="survey"/>
  </way>
  <way id="43997095" version="2" timestamp="2009-11-09T06:25:53Z" uid="30201" user="rrankin" changeset="3070916">
    <nd ref="559440647"/>
    <nd ref="559440648"/>
    <nd ref="559440649"/>
    <nd ref="559440650"/>
    <nd ref="559440651"/>
    <nd ref="559440633"/>
    <nd ref="559440634"/>
    <tag k="highway" v="service"/>
    <tag k="name" v="Lamrock Place"/>
    <tag k="oneway" v="yes"/>
    <tag k="service" v="alley"/>
    <tag k="source" v="survey"/>
  </way>
  <way id="43997097" version="1" timestamp="2009-11-08T11:31:08Z" uid="7617" user="Franc" changeset="3062741">
    <nd ref="20979849"/>
    <nd ref="20979851"/>
    <tag k="abutters" v="residential"/>
    <tag k="highway" v="residential"/>
    <tag k="name" v="Hastings Parade"/>
    <tag k="oneway" v="yes"/>
  </way>
  <way id="43997097" version="2" timestamp="2009-12-23T05:07:56Z" uid="30201" user="rrankin" changeset="3431995">
    <nd ref="20979849"/>
    <nd ref="20979851"/>
    <tag k="highway" v="residential"/>
    <tag k="name" v="Hastings Parade"/>
    <tag k="oneway" v="yes"/>
  </way>
  <way id="43997097" version="3" timestamp="2010-07-07T21:55:38Z" uid="74617" user="JohnSmith" changeset="5161069">
    <nd ref="20979849"/>
    <nd ref="20979851"/>
    <tag k="highway" v="residential"/>
    <tag k="maxspeed" v="50"/>
    <tag k="maxspeed:source" v="default residential speed limit in Australia"/>
    <tag k="name" v="Hastings Parade"/>
    <tag k="oneway" v="yes"/>
  </way>
  <way id="43997100" version="1" timestamp="2009-11-08T11:31:09Z" uid="7617" user="Franc" changeset="3062741">
    <nd ref="20979849"/>
    <nd ref="559440655"/>
    <nd ref="559440656"/>
    <tag k="highway" v="residential"/>
    <tag k="source" v="survey"/>
  </way>
  <way id="43997100" version="2" timestamp="2010-07-07T21:52:22Z" uid="74617" user="JohnSmith" changeset="5161069">
    <nd ref="20979849"/>
    <nd ref="559440655"/>
    <nd ref="559440656"/>
    <tag k="highway" v="residential"/>
    <tag k="maxspeed" v="50"/>
    <tag k="maxspeed:source" v="default residential speed limit in Australia"/>
    <tag k="source" v="survey"/>
  </way>
  <way id="43997103" version="1" timestamp="2009-11-08T11:31:09Z" uid="7617" user="Franc" changeset="3062741">
    <nd ref="20979851"/>
    <nd ref="20979850"/>
    <tag k="abutters" v="residential"/>
    <tag k="highway" v="residential"/>
    <tag k="name" v="Hastings Parade"/>
  </way>
  <way id="43997103" version="2" timestamp="2009-12-23T05:07:56Z" uid="30201" user="rrankin" changeset="3431995">
    <nd ref="20979851"/>
    <nd ref="20979850"/>
    <tag k="highway" v="residential"/>
    <tag k="name" v="Hastings Parade"/>
  </way>
  <way id="43997103" version="3" timestamp="2010-07-07T21:48:03Z" uid="74617" user="JohnSmith" changeset="5161069">
    <nd ref="20979851"/>
    <nd ref="20979850"/>
    <tag k="highway" v="residential"/>
    <tag k="maxspeed" v="50"/>
    <tag k="maxspeed:source" v="default residential speed limit in Australia"/>
    <tag k="name" v="Hastings Parade"/>
  </way>
  <way id="43997105" version="1" timestamp="2009-11-08T11:31:09Z" uid="7617" user="Franc" changeset="3062741">
    <nd ref="14697006"/>
    <nd ref="14696993"/>
    <tag k="abutters" v="residential"/>
    <tag k="highway" v="residential"/>
    <tag k="name" v="Brighton Boulevard"/>
    <tag k="source" v="survey"/>
  </way>
  <way id="43997105" version="2" timestamp="2009-12-23T05:07:59Z" uid="30201" user="rrankin" changeset="3431995">
    <nd ref="14697006"/>
    <nd ref="14696993"/>
    <tag k="highway" v="residential"/>
    <tag k="name" v="Brighton Boulevard"/>
    <tag k="source" v="survey"/>
  </way>
  <way id="43997105" version="3" timestamp="2010-07-07T21:53:38Z" uid="74617" user="JohnSmith" changeset="5161069">
    <nd ref="14697006"/>
    <nd ref="14696993"/>
    <tag k="highway" v="residential"/>
    <tag k="maxspeed" v="50"/>
    <tag k="maxspeed:source" v="default residential speed limit in Australia"/>
    <tag k="name" v="Brighton Boulevard"/>
    <tag k="source" v="survey"/>
  </way>
  <way id="43997107" version="1" timestamp="2009-11-08T11:31:09Z" uid="7617" user="Franc" changeset="3062741">
    <nd ref="559440654"/>
    <nd ref="14697008"/>
    <nd ref="14697007"/>
    <nd ref="14697006"/>
    <tag k="abutters" v="residential"/>
    <tag k="highway" v="residential"/>
    <tag k="name" v="Brighton Boulevard"/>
    <tag k="oneway" v="yes"/>
    <tag k="source" v="survey"/>
  </way>
  <way id="43997107" version="2" timestamp="2009-12-23T05:07:58Z" uid="30201" user="rrankin" changeset="3431995">
    <nd ref="559440654"/>
    <nd ref="14697008"/>
    <nd ref="14697007"/>
    <nd ref="14697006"/>
    <tag k="highway" v="residential"/>
    <tag k="name" v="Brighton Boulevard"/>
    <tag k="oneway" v="yes"/>
    <tag k="source" v="survey"/>
  </way>
  <way id="43997107" version="3" timestamp="2010-07-07T21:51:52Z" uid="74617" user="JohnSmith" changeset="5161069">
    <nd ref="559440654"/>
    <nd ref="14697008"/>
    <nd ref="14697007"/>
    <nd ref="14697006"/>
    <tag k="highway" v="residential"/>
    <tag k="maxspeed" v="50"/>
    <tag k="maxspeed:source" v="default residential speed limit in Australia"/>
    <tag k="name" v="Brighton Boulevard"/>
    <tag k="oneway" v="yes"/>
    <tag k="source" v="survey"/>
  </way>
  <way id="43997110" version="1" timestamp="2009-11-08T11:31:09Z" uid="7617" user="Franc" changeset="3062741">
    <nd ref="14696995"/>
    <nd ref="14697000"/>
    <tag k="abutters" v="residential"/>
    <tag k="highway" v="residential"/>
    <tag k="name" v="Hastings Pde."/>
  </way>
  <way id="43997110" version="2" timestamp="2009-12-23T05:07:57Z" uid="30201" user="rrankin" changeset="3431995">
    <nd ref="14696995"/>
    <nd ref="14697000"/>
    <tag k="highway" v="residential"/>
    <tag k="name" v="Hastings Pde."/>
  </way>
  <way id="43997110" version="3" timestamp="2010-06-02T07:51:35Z" uid="4467" user="Rosscoe" changeset="4881629">
    <nd ref="14696995"/>
    <nd ref="14697000"/>
    <tag k="highway" v="residential"/>
    <tag k="name" v="Hastings Parade"/>
  </way>
  <way id="43997110" version="4" timestamp="2010-07-07T21:49:54Z" uid="74617" user="JohnSmith" changeset="5161069">
    <nd ref="14696995"/>
    <nd ref="14697000"/>
    <tag k="highway" v="residential"/>
    <tag k="maxspeed" v="50"/>
    <tag k="maxspeed:source" v="default residential speed limit in Australia"/>
    <tag k="name" v="Hastings Parade"/>
  </way>
  <way id="43997409" version="2" timestamp="2010-07-08T09:22:45Z" uid="74617" user="JohnSmith" changeset="5164427">
    <nd ref="60455570"/>
    <nd ref="270683195"/>
    <nd ref="60570890"/>
    <tag k="highway" v="residential"/>
    <tag k="maxspeed" v="50"/>
    <tag k="maxspeed:source" v="default residential speed limit in Australia"/>
    <tag k="name" v="Albert Street"/>
    <tag k="oneway" v="yes"/>
    <tag k="source" v="survey"/>
  </way>
  <way id="43997412" version="2" timestamp="2010-07-08T09:19:13Z" uid="74617" user="JohnSmith" changeset="5164427">
    <nd ref="60567338"/>
    <nd ref="165968001"/>
    <nd ref="163286064"/>
    <tag k="highway" v="residential"/>
    <tag k="maxspeed" v="50"/>
    <tag k="maxspeed:source" v="default residential speed limit in Australia"/>
    <tag k="name" v="Archer Street"/>
    <tag k="source" v="survey"/>
  </way>
  <way id="43997416" version="2" timestamp="2010-07-08T09:21:54Z" uid="74617" user="JohnSmith" changeset="5164427">
    <nd ref="59720310"/>
    <nd ref="158227739"/>
    <nd ref="158227667"/>
    <nd ref="158227544"/>
    <nd ref="158227606"/>
    <nd ref="158227842"/>
    <nd ref="158227863"/>
    <nd ref="170776160"/>
    <nd ref="158034751"/>
    <nd ref="170776216"/>
    <nd ref="158035457"/>
    <tag k="highway" v="residential"/>
    <tag k="maxspeed" v="50"/>
    <tag k="maxspeed:source" v="default residential speed limit in Australia"/>
    <tag k="name" v="Derby Street"/>
    <tag k="source" v="survey"/>
  </way>
  <way id="43997418" version="2" timestamp="2010-07-08T09:24:42Z" uid="74617" user="JohnSmith" changeset="5164427">
    <nd ref="59720308"/>
    <nd ref="158227739"/>
    <nd ref="158227772"/>
    <nd ref="158227795"/>
    <nd ref="158227816"/>
    <tag k="highway" v="residential"/>
    <tag k="maxspeed" v="50"/>
    <tag k="maxspeed:source" v="default residential speed limit in Australia"/>
    <tag k="name" v="Murray Street"/>
    <tag k="source" v="survey"/>
  </way>
  <way id="43997419" version="2" timestamp="2010-07-08T09:23:32Z" uid="74617" user="JohnSmith" changeset="5164427">
    <nd ref="158035065"/>
    <nd ref="158035177"/>
    <nd ref="158035151"/>
    <tag k="highway" v="residential"/>
    <tag k="maxspeed" v="50"/>
    <tag k="maxspeed:source" v="default residential speed limit in Australia"/>
    <tag k="name" v="William Street"/>
    <tag k="oneway" v="yes"/>
    <tag k="source" v="survey"/>
  </way>
  <way id="43997423" version="2" timestamp="2010-07-08T09:18:47Z" uid="74617" user="JohnSmith" changeset="5164427">
    <nd ref="84064679"/>
    <nd ref="158227527"/>
    <nd ref="158227585"/>
    <nd ref="158228318"/>
    <nd ref="82193074"/>
    <nd ref="158228356"/>
    <nd ref="82193120"/>
    <nd ref="170776708"/>
    <nd ref="158035045"/>
    <tag k="highway" v="residential"/>
    <tag k="maxspeed" v="50"/>
    <tag k="maxspeed:source" v="default residential speed limit in Australia"/>
    <tag k="name" v="Denham Street"/>
    <tag k="source" v="survey"/>
  </way>
  <way id="43997732" version="4" timestamp="2010-07-20T01:44:50Z" uid="4467" user="Rosscoe" changeset="5266591">
    <nd ref="59610415"/>
    <nd ref="559448914"/>
    <nd ref="559448915"/>
    <nd ref="559448916"/>
    <nd ref="559448918"/>
    <nd ref="559448919"/>
    <nd ref="559448921"/>
    <nd ref="559448922"/>
    <nd ref="559448923"/>
    <nd ref="559448924"/>
    <nd ref="559448925"/>
    <nd ref="559448926"/>
    <nd ref="559448928"/>
    <nd ref="559448929"/>
    <nd ref="559448930"/>
    <nd ref="559448931"/>
    <nd ref="559448933"/>
    <nd ref="559448934"/>
    <nd ref="559448936"/>
    <nd ref="559448937"/>
    <nd ref="559448938"/>
    <nd ref="559448939"/>
    <nd ref="559448940"/>
    <nd ref="559448941"/>
    <nd ref="559448942"/>
    <nd ref="559448943"/>
    <nd ref="559448944"/>
    <nd ref="559448946"/>
    <nd ref="559448947"/>
    <nd ref="559448948"/>
    <nd ref="559448950"/>
    <nd ref="559448951"/>
    <nd ref="559448952"/>
    <nd ref="559448954"/>
    <nd ref="559448955"/>
    <nd ref="567200074"/>
    <nd ref="559448957"/>
    <nd ref="559448959"/>
    <nd ref="559448960"/>
    <nd ref="559448961"/>
    <nd ref="559448964"/>
    <nd ref="559448969"/>
    <nd ref="559448972"/>
    <nd ref="559448973"/>
    <nd ref="559448974"/>
    <nd ref="559448976"/>
    <nd ref="559448977"/>
    <nd ref="559448978"/>
    <nd ref="559448979"/>
    <nd ref="559448981"/>
    <nd ref="559448982"/>
    <nd ref="559448983"/>
    <nd ref="559448984"/>
    <nd ref="559448986"/>
    <nd ref="559448987"/>
    <nd ref="559448989"/>
    <nd ref="559448990"/>
    <nd ref="559448991"/>
    <nd ref="559448992"/>
    <nd ref="559448994"/>
    <nd ref="559448996"/>
    <nd ref="559448997"/>
    <nd ref="559449001"/>
    <nd ref="559449003"/>
    <nd ref="559450413"/>
    <nd ref="825347793"/>
    <nd ref="559450415"/>
    <nd ref="559449013"/>
    <tag k="foot" v="yes"/>
    <tag k="highway" v="footway"/>
    <tag k="surface" v="paved"/>
  </way>
  <way id="43997854" version="1" timestamp="2009-11-08T11:59:48Z" uid="30632" user="antblant" changeset="3062961">
    <nd ref="559449943"/>
    <nd ref="559449944"/>
    <nd ref="559449942"/>
    <nd ref="559449941"/>
    <nd ref="559449930"/>
    <tag k="highway" v="living_street"/>
    <tag k="name" v="Magnacka"/>
    <tag k="oneway" v="yes"/>
    <tag k="source" v="norc.pl"/>
  </way>
  <way id="43997855" version="1" timestamp="2009-11-08T11:59:48Z" uid="30632" user="antblant" changeset="3062961">
    <nd ref="559449913"/>
    <nd ref="559449938"/>
    <tag k="highway" v="living_street"/>
    <tag k="source" v="norc.pl"/>
  </way>
  <way id="43997856" version="1" timestamp="2009-11-08T11:59:48Z" uid="30632" user="antblant" changeset="3062961">
    <nd ref="559449942"/>
    <nd ref="559449917"/>
    <tag k="highway" v="living_street"/>
    <tag k="name" v="Szlachecka"/>
    <tag k="oneway" v="yes"/>
    <tag k="source" v="norc.pl"/>
  </way>
  <way id="43997857" version="1" timestamp="2009-11-08T11:59:48Z" uid="30632" user="antblant" changeset="3062961">
    <nd ref="559449944"/>
    <nd ref="559449939"/>
    <nd ref="559449940"/>
    <nd ref="559449919"/>
    <tag k="highway" v="living_street"/>
    <tag k="source" v="norc.pl"/>
  </way>
  <way id="43997858" version="1" timestamp="2009-11-08T11:59:48Z" uid="30632" user="antblant" changeset="3062961">
    <nd ref="559449922"/>
    <nd ref="559449924"/>
    <nd ref="559449917"/>
    <nd ref="559449913"/>
    <nd ref="559449915"/>
    <nd ref="559449919"/>
    <nd ref="559449916"/>
    <tag k="highway" v="living_street"/>
    <tag k="name" v="Herbowa"/>
    <tag k="oneway" v="yes"/>
    <tag k="source" v="norc.pl"/>
  </way>
  <way id="43997859" version="1" timestamp="2009-11-08T11:59:48Z" uid="30632" user="antblant" changeset="3062961">
    <nd ref="559449930"/>
    <nd ref="559449932"/>
    <nd ref="559449905"/>
    <nd ref="559449909"/>
    <nd ref="559449911"/>
    <nd ref="559449921"/>
    <tag k="highway" v="living_street"/>
    <tag k="name" v="Królewska"/>
    <tag k="source" v="norc.pl"/>
  </way>
  <way id="43997860" version="1" timestamp="2009-11-08T11:59:48Z" uid="30632" user="antblant" changeset="3062961">
    <nd ref="559449932"/>
    <nd ref="559449933"/>
    <tag k="highway" v="service"/>
  </way>
  <way id="43997861" version="1" timestamp="2009-11-08T11:59:48Z" uid="30632" user="antblant" changeset="3062961">
    <nd ref="559449934"/>
    <nd ref="559449935"/>
    <nd ref="559449936"/>
    <nd ref="559449937"/>
    <nd ref="559449933"/>
    <nd ref="559449934"/>
    <tag k="amenity" v="parking"/>
  </way>
  <way id="43997862" version="1" timestamp="2009-11-08T11:59:48Z" uid="30632" user="antblant" changeset="3062961">
    <nd ref="559449920"/>
    <nd ref="559449927"/>
    <nd ref="559449945"/>
    <tag k="cables" v="3"/>
    <tag k="power" v="line"/>
    <tag k="voltage" v="110000"/>
    <tag k="wires" v="single"/>
  </way>
  <way id="43997863" version="1" timestamp="2009-11-08T11:59:48Z" uid="30632" user="antblant" changeset="3062961">
    <nd ref="559449930"/>
    <nd ref="559449921"/>
    <nd ref="559449922"/>
    <tag k="highway" v="living_street"/>
    <tag k="name" v="Królewska"/>
    <tag k="oneway" v="yes"/>
    <tag k="source" v="norc.pl"/>
  </way>
</osm>
