<?xml version='1.0' encoding='UTF-8'?>
<osm version="0.6" generator="libosmium/2.20.0">
  <way id="44152725" version="3" timestamp="2010-03-28T11:18:14Z" uid="20587" user="balrog-kun" changeset="4254597">
    <nd ref="324039422"/>
    <nd ref="122894415"/>
    <tag k="highway" v="primary"/>
    <tag k="name" v="West Foothill Boulevard"/>
    <tag k="name_1" v="State Highway 30"/>
    <tag k="ref" v="CA 66"/>
    <tag k="tiger:cfcc" v="A31"/>
    <tag k="tiger:county" v="Los Angeles, CA"/>
    <tag k="tiger:name_base" v="Foothill"/>
    <tag k="tiger:name_base_1" v="State Highway 30"/>
    <tag k="tiger:name_direction_prefix" v="W"/>
    <tag k="tiger:name_type" v="Blvd"/>
    <tag k="tiger:reviewed" v="no"/>
    <tag k="tiger:separated" v="no"/>
    <tag k="tiger:source" v="tiger_import_dch_v0.6_20070809"/>
    <tag k="tiger:tlid" v="141726726"/>
  </way>
  <way id="44152726" version="5" timestamp="2010-03-28T11:18:15Z" uid="20587" user="balrog-kun" changeset="4254597">
    <nd ref="122448637"/>
    <nd ref="324038948"/>
    <nd ref="122455755"/>
    <nd ref="324041403"/>
    <nd ref="123244415"/>
    <nd ref="122468586"/>
    <nd ref="122413380"/>
    <nd ref="122588972"/>
    <nd ref="123271215"/>
    <nd ref="122960036"/>
    <nd ref="122688852"/>
    <nd ref="123271221"/>
    <nd ref="123271224"/>
    <nd ref="123271226"/>
    <nd ref="123271230"/>
    <nd ref="123271231"/>
    <nd ref="123136206"/>
    <nd ref="123087719"/>
    <nd ref="122943342"/>
    <nd ref="122823842"/>
    <nd ref="123271237"/>
    <nd ref="123271240"/>
    <nd ref="123271242"/>
    <nd ref="123271247"/>
    <tag k="highway" v="primary"/>
    <tag k="name" v="Foothill Boulevard"/>
    <tag k="name_1" v="State Highway 66"/>
    <tag k="ref" v="CA 66"/>
    <tag k="tiger:cfcc" v="A25"/>
    <tag k="tiger:county" v="Los Angeles, CA"/>
    <tag k="tiger:name_base" v="Foothill"/>
    <tag k="tiger:name_base_1" v="State Highway 66"/>
    <tag k="tiger:name_type" v="Blvd"/>
    <tag k="tiger:reviewed" v="no"/>
    <tag k="tiger:separated" v="yes"/>
    <tag k="tiger:source" v="tiger_import_dch_v0.6_20070809"/>
    <tag k="tiger:tlid" v="142243918:141727184:142675200:141798616:141727077:141771579:141771583:141771587:141771589:141726823:141726872:141726874:141726884:141726886:141726733:141726737:141726757:141726761:141726763:141727110:141727112:141727162"/>
    <tag k="tiger:zip_left" v="91750"/>
    <tag k="tiger:zip_right" v="91750"/>
  </way>
  <way id="44152730" version="5" timestamp="2010-03-28T11:18:15Z" uid="20587" user="balrog-kun" changeset="4254597">
    <nd ref="324040246"/>
    <nd ref="560927121"/>
    <nd ref="122448629"/>
    <nd ref="324039422"/>
    <tag k="highway" v="primary"/>
    <tag k="name" v="West Foothill Boulevard"/>
    <tag k="ref" v="CA 66"/>
    <tag k="tiger:cfcc" v="A31"/>
    <tag k="tiger:county" v="Los Angeles, CA"/>
    <tag k="tiger:name_base" v="Foothill"/>
    <tag k="tiger:name_base_1" v="State Highway 30"/>
    <tag k="tiger:name_direction_prefix" v="W"/>
    <tag k="tiger:name_type" v="Blvd"/>
    <tag k="tiger:separated" v="no"/>
    <tag k="tiger:source" v="tiger_import_dch_v0.6_20070809"/>
    <tag k="tiger:tlid" v="141726726"/>
  </way>
  <way id="44152732" version="3" timestamp="2010-03-28T11:18:16Z" uid="20587" user="balrog-kun" changeset="4254597">
    <nd ref="367091649"/>
    <nd ref="667883"/>
    <tag k="bridge" v="yes"/>
    <tag k="highway" v="motorway"/>
    <tag k="layer" v="1"/>
    <tag k="name" v="Foothill Freeway"/>
    <tag k="oneway" v="yes"/>
    <tag k="ref" v="CA 210"/>
  </way>
  <way id="44152733" version="3" timestamp="2010-03-28T11:18:16Z" uid="20587" user="balrog-kun" changeset="4254597">
    <nd ref="667883"/>
    <nd ref="367091648"/>
    <nd ref="667882"/>
    <nd ref="667881"/>
    <nd ref="324041505"/>
    <tag k="highway" v="motorway"/>
    <tag k="layer" v="1"/>
    <tag k="name" v="Foothill Freeway"/>
    <tag k="oneway" v="yes"/>
    <tag k="ref" v="CA 210"/>
  </way>
  <way id="44152776" version="2" timestamp="2010-04-02T17:53:16Z" uid="20587" user="balrog-kun" changeset="4304500">
    <nd ref="51025629"/>
    <nd ref="51025630"/>
    <nd ref="51025631"/>
    <nd ref="51011164"/>
    <nd ref="50970012"/>
    <nd ref="50969992"/>
    <nd ref="50981728"/>
    <nd ref="50981742"/>
    <nd ref="51025632"/>
    <nd ref="50950925"/>
    <tag k="highway" v="residential"/>
    <tag k="name" v="East Montgomery Avenue"/>
    <tag k="tiger:cfcc" v="A41"/>
    <tag k="tiger:county" v="Spokane, WA"/>
    <tag k="tiger:name_base" v="Montgomery"/>
    <tag k="tiger:name_direction_prefix" v="E"/>
    <tag k="tiger:name_type" v="Ave"/>
    <tag k="tiger:reviewed" v="no"/>
    <tag k="tiger:separated" v="no"/>
    <tag k="tiger:source" v="tiger_import_dch_v0.6_20070830"/>
    <tag k="tiger:tlid" v="189878701:189878702:189878709:189879015:189878688:189878691:189878611:189878612:189878618:189875385:189878578:189878585:189875355:189875378:189875295:189916220"/>
    <tag k="tiger:zip_left" v="99207"/>
    <tag k="tiger:zip_right" v="99207"/>
  </way>
</osm>
