<?xml version='1.0' encoding='UTF-8'?>
<osm version="0.6" generator="libosmium/2.20.0">
  <way id="44201947" version="1" timestamp="2009-11-12T20:24:38Z" uid="43967" user="railsnail" changeset="3101389">
    <nd ref="561401556"/>
    <nd ref="561401558"/>
    <nd ref="561401546"/>
    <nd ref="561401561"/>
    <nd ref="561401563"/>
    <nd ref="561401571"/>
    <nd ref="561401574"/>
    <tag k="operator" v="TIWAG"/>
    <tag k="power" v="line"/>
    <tag k="voltage" v="380000"/>
  </way>
  <way id="44201947" version="2" timestamp="2009-11-13T14:53:18Z" uid="43967" user="railsnail" changeset="3106394">
    <nd ref="561401556"/>
    <nd ref="561401558"/>
    <nd ref="561401546"/>
    <nd ref="561401561"/>
    <nd ref="561401563"/>
    <nd ref="561401571"/>
    <nd ref="561401574"/>
    <tag k="cables" v="6"/>
    <tag k="operator" v="TIWAG"/>
    <tag k="power" v="line"/>
    <tag k="voltage" v="380000"/>
    <tag k="wires" v="double"/>
  </way>
  <way id="44201947" version="3" timestamp="2009-11-13T17:10:41Z" uid="43967" user="railsnail" changeset="3107251">
    <nd ref="563111211"/>
    <nd ref="561401556"/>
    <nd ref="561401558"/>
    <nd ref="561401546"/>
    <nd ref="561401561"/>
    <nd ref="561401563"/>
    <nd ref="561401571"/>
    <nd ref="561401574"/>
    <tag k="cables" v="6"/>
    <tag k="operator" v="TIWAG"/>
    <tag k="power" v="line"/>
    <tag k="voltage" v="380000"/>
    <tag k="wires" v="double"/>
  </way>
  <way id="44201947" version="5" timestamp="2010-03-17T16:35:36Z" uid="43967" user="railsnail" changeset="4154477">
    <nd ref="563111211"/>
    <nd ref="561401556"/>
    <nd ref="561401558"/>
    <nd ref="561401546"/>
    <nd ref="561401561"/>
    <nd ref="561401563"/>
    <nd ref="561401571"/>
    <nd ref="668002922"/>
    <tag k="cables" v="6"/>
    <tag k="operator" v="TIWAG"/>
    <tag k="power" v="line"/>
    <tag k="voltage" v="380000"/>
    <tag k="wires" v="double"/>
  </way>
  <way id="44201947" version="6" timestamp="2010-04-24T12:22:27Z" uid="43967" user="railsnail" changeset="4511432">
    <nd ref="563111211"/>
    <nd ref="561401556"/>
    <nd ref="561401558"/>
    <nd ref="561401546"/>
    <nd ref="561401561"/>
    <nd ref="561401563"/>
    <nd ref="561401571"/>
    <nd ref="668002922"/>
    <nd ref="705090644"/>
    <nd ref="705090645"/>
    <tag k="cables" v="6"/>
    <tag k="operator" v="TIWAG"/>
    <tag k="power" v="line"/>
    <tag k="voltage" v="380000"/>
    <tag k="wires" v="double"/>
  </way>
  <way id="44201947" version="7" timestamp="2010-04-28T13:45:28Z" uid="43967" user="railsnail" changeset="4549722">
    <nd ref="563111211"/>
    <nd ref="561401556"/>
    <nd ref="561401558"/>
    <nd ref="561401546"/>
    <nd ref="561401561"/>
    <nd ref="561401563"/>
    <nd ref="561401571"/>
    <nd ref="668002922"/>
    <nd ref="710525376"/>
    <nd ref="705090644"/>
    <nd ref="705090645"/>
    <tag k="cables" v="6"/>
    <tag k="operator" v="TIWAG"/>
    <tag k="power" v="line"/>
    <tag k="voltage" v="380000"/>
    <tag k="wires" v="double"/>
  </way>
  <way id="44201948" version="1" timestamp="2009-11-12T20:24:38Z" uid="43967" user="railsnail" changeset="3101389">
    <nd ref="561401566"/>
    <nd ref="561401565"/>
    <nd ref="561401549"/>
    <nd ref="561401552"/>
    <nd ref="561401559"/>
    <nd ref="561401555"/>
    <tag k="operator" v="TIWAG"/>
    <tag k="power" v="line"/>
    <tag k="voltage" v="110000"/>
  </way>
  <way id="44201948" version="2" timestamp="2009-11-13T14:53:18Z" uid="43967" user="railsnail" changeset="3106394">
    <nd ref="561401566"/>
    <nd ref="561401565"/>
    <nd ref="561401549"/>
    <nd ref="561401552"/>
    <nd ref="561401559"/>
    <nd ref="561401555"/>
    <tag k="cables" v="3"/>
    <tag k="operator" v="TIWAG"/>
    <tag k="power" v="line"/>
    <tag k="voltage" v="110000"/>
    <tag k="wires" v="single"/>
  </way>
  <way id="44201948" version="3" timestamp="2009-11-13T17:08:15Z" uid="43967" user="railsnail" changeset="3107529">
    <nd ref="561401566"/>
    <nd ref="561401565"/>
    <nd ref="561401549"/>
    <nd ref="561401552"/>
    <nd ref="561401559"/>
    <nd ref="561401555"/>
    <nd ref="563113218"/>
    <nd ref="563113224"/>
    <nd ref="563113222"/>
    <tag k="cables" v="3"/>
    <tag k="operator" v="TIWAG"/>
    <tag k="power" v="line"/>
    <tag k="voltage" v="110000"/>
    <tag k="wires" v="single"/>
  </way>
  <way id="44201948" version="4" timestamp="2009-11-15T15:46:35Z" uid="43967" user="railsnail" changeset="3123122">
    <nd ref="561401566"/>
    <nd ref="561401565"/>
    <nd ref="561401549"/>
    <nd ref="561401552"/>
    <nd ref="561401559"/>
    <nd ref="561401555"/>
    <nd ref="563113218"/>
    <nd ref="563113224"/>
    <nd ref="563113222"/>
    <tag k="cables" v="3"/>
    <tag k="name" v="VG Lienz - KW Kalserbach"/>
    <tag k="operator" v="TIWAG"/>
    <tag k="power" v="line"/>
    <tag k="voltage" v="110000"/>
    <tag k="wires" v="single"/>
  </way>
  <way id="44201948" version="5" timestamp="2009-12-02T15:55:16Z" uid="43967" user="railsnail" changeset="3273178">
    <nd ref="561401566"/>
    <nd ref="561401565"/>
    <nd ref="561401549"/>
    <nd ref="561401552"/>
    <nd ref="561401559"/>
    <nd ref="561401555"/>
    <nd ref="563113218"/>
    <nd ref="563113224"/>
    <nd ref="563113222"/>
    <nd ref="577746424"/>
    <nd ref="577746414"/>
    <nd ref="577746405"/>
    <nd ref="577746392"/>
    <tag k="cables" v="3"/>
    <tag k="name" v="VG Lienz - KW Kalserbach"/>
    <tag k="operator" v="TIWAG"/>
    <tag k="power" v="line"/>
    <tag k="voltage" v="110000"/>
    <tag k="wires" v="single"/>
  </way>
  <way id="44201948" version="6" timestamp="2010-03-07T16:50:13Z" uid="43967" user="railsnail" changeset="4062960">
    <nd ref="561401566"/>
    <nd ref="561401565"/>
    <nd ref="561401549"/>
    <nd ref="561401552"/>
    <nd ref="561401559"/>
    <nd ref="561401555"/>
    <nd ref="563113218"/>
    <nd ref="563113224"/>
    <nd ref="563113222"/>
    <nd ref="577746424"/>
    <nd ref="577746414"/>
    <nd ref="577746405"/>
    <nd ref="577746392"/>
    <nd ref="662352154"/>
    <tag k="cables" v="3"/>
    <tag k="name" v="VG Lienz - KW Kalserbach"/>
    <tag k="operator" v="TIWAG"/>
    <tag k="power" v="line"/>
    <tag k="voltage" v="110000"/>
    <tag k="wires" v="single"/>
  </way>
  <way id="44201948" version="7" timestamp="2010-03-17T16:35:35Z" uid="43967" user="railsnail" changeset="4154477">
    <nd ref="668002921"/>
    <nd ref="561401566"/>
    <nd ref="561401565"/>
    <nd ref="561401549"/>
    <nd ref="561401552"/>
    <nd ref="561401559"/>
    <nd ref="561401555"/>
    <nd ref="563113218"/>
    <nd ref="563113224"/>
    <nd ref="563113222"/>
    <nd ref="577746424"/>
    <nd ref="577746414"/>
    <nd ref="577746405"/>
    <nd ref="577746392"/>
    <nd ref="662352154"/>
    <tag k="cables" v="3"/>
    <tag k="name" v="VG Lienz - KW Kalserbach"/>
    <tag k="operator" v="TIWAG"/>
    <tag k="power" v="line"/>
    <tag k="voltage" v="110000"/>
    <tag k="wires" v="single"/>
  </way>
  <way id="44201948" version="8" timestamp="2010-03-24T15:59:25Z" uid="43967" user="railsnail" changeset="4222203">
    <nd ref="668002921"/>
    <nd ref="561401566"/>
    <nd ref="561401565"/>
    <nd ref="561401549"/>
    <nd ref="561401552"/>
    <nd ref="561401559"/>
    <nd ref="561401555"/>
    <nd ref="563113218"/>
    <nd ref="563113224"/>
    <nd ref="563113222"/>
    <nd ref="577746424"/>
    <nd ref="577746414"/>
    <nd ref="577746405"/>
    <nd ref="577746392"/>
    <nd ref="662352154"/>
    <nd ref="673448495"/>
    <nd ref="673448492"/>
    <nd ref="673448490"/>
    <tag k="cables" v="3"/>
    <tag k="name" v="VG Lienz - KW Kalserbach"/>
    <tag k="operator" v="TIWAG"/>
    <tag k="power" v="line"/>
    <tag k="voltage" v="110000"/>
    <tag k="wires" v="single"/>
  </way>
  <way id="44201948" version="9" timestamp="2010-04-28T13:44:01Z" uid="43967" user="railsnail" changeset="4549702">
    <nd ref="710521826"/>
    <nd ref="710521834"/>
    <nd ref="710521837"/>
    <nd ref="710521833"/>
    <nd ref="668002921"/>
    <nd ref="561401566"/>
    <nd ref="561401565"/>
    <nd ref="561401549"/>
    <nd ref="561401552"/>
    <nd ref="561401559"/>
    <nd ref="561401555"/>
    <nd ref="563113218"/>
    <nd ref="563113224"/>
    <nd ref="563113222"/>
    <nd ref="577746424"/>
    <nd ref="577746414"/>
    <nd ref="577746405"/>
    <nd ref="577746392"/>
    <nd ref="662352154"/>
    <nd ref="673448495"/>
    <nd ref="673448492"/>
    <nd ref="673448490"/>
    <tag k="cables" v="3"/>
    <tag k="name" v="VG Lienz - KW Kalserbach"/>
    <tag k="operator" v="TIWAG"/>
    <tag k="power" v="line"/>
    <tag k="voltage" v="110000"/>
    <tag k="wires" v="single"/>
  </way>
  <way id="44201948" version="10" timestamp="2010-05-10T13:06:40Z" uid="43967" user="railsnail" changeset="4659071">
    <nd ref="710521826"/>
    <nd ref="710521834"/>
    <nd ref="710521837"/>
    <nd ref="710521833"/>
    <nd ref="668002921"/>
    <nd ref="561401566"/>
    <nd ref="561401565"/>
    <nd ref="561401549"/>
    <nd ref="561401552"/>
    <nd ref="561401559"/>
    <nd ref="561401555"/>
    <nd ref="563113218"/>
    <nd ref="563113224"/>
    <nd ref="563113222"/>
    <nd ref="577746424"/>
    <nd ref="577746414"/>
    <nd ref="577746405"/>
    <nd ref="577746392"/>
    <nd ref="662352154"/>
    <nd ref="673448495"/>
    <nd ref="673448492"/>
    <nd ref="673448490"/>
    <nd ref="728452222"/>
    <tag k="cables" v="3"/>
    <tag k="name" v="VG Lienz - KW Kalserbach"/>
    <tag k="operator" v="TIWAG"/>
    <tag k="power" v="line"/>
    <tag k="voltage" v="110000"/>
    <tag k="wires" v="single"/>
  </way>
  <way id="44201948" version="11" timestamp="2010-05-11T17:19:41Z" uid="43967" user="railsnail" changeset="4670434">
    <nd ref="710521826"/>
    <nd ref="710521834"/>
    <nd ref="710521837"/>
    <nd ref="710521833"/>
    <nd ref="668002921"/>
    <nd ref="561401566"/>
    <nd ref="561401565"/>
    <nd ref="561401549"/>
    <nd ref="561401552"/>
    <nd ref="561401559"/>
    <nd ref="561401555"/>
    <nd ref="563113218"/>
    <nd ref="563113224"/>
    <nd ref="563113222"/>
    <nd ref="577746424"/>
    <nd ref="577746414"/>
    <nd ref="577746405"/>
    <nd ref="577746392"/>
    <nd ref="662352154"/>
    <nd ref="673448495"/>
    <nd ref="673448492"/>
    <nd ref="673448490"/>
    <nd ref="728452222"/>
    <nd ref="729792457"/>
    <nd ref="729792464"/>
    <tag k="cables" v="3"/>
    <tag k="name" v="VG Lienz - KW Kalserbach"/>
    <tag k="operator" v="TIWAG"/>
    <tag k="power" v="line"/>
    <tag k="voltage" v="110000"/>
    <tag k="wires" v="single"/>
  </way>
  <way id="44201948" version="12" timestamp="2010-05-11T17:29:51Z" uid="43967" user="railsnail" changeset="4670465">
    <nd ref="710521826"/>
    <nd ref="710521834"/>
    <nd ref="710521837"/>
    <nd ref="710521833"/>
    <nd ref="668002921"/>
    <nd ref="561401566"/>
    <nd ref="561401565"/>
    <nd ref="561401549"/>
    <nd ref="561401552"/>
    <nd ref="561401559"/>
    <nd ref="561401555"/>
    <nd ref="563113218"/>
    <nd ref="563113224"/>
    <nd ref="563113222"/>
    <nd ref="577746424"/>
    <nd ref="577746414"/>
    <nd ref="577746405"/>
    <nd ref="577746392"/>
    <nd ref="662352154"/>
    <nd ref="673448495"/>
    <nd ref="673448492"/>
    <nd ref="673448490"/>
    <nd ref="728452222"/>
    <nd ref="729792457"/>
    <tag k="cables" v="3"/>
    <tag k="name" v="VG Lienz - KW Kalserbach"/>
    <tag k="operator" v="TIWAG"/>
    <tag k="power" v="line"/>
    <tag k="voltage" v="110000"/>
    <tag k="wires" v="single"/>
  </way>
  <way id="44201948" version="13" timestamp="2010-05-11T17:30:04Z" uid="43967" user="railsnail" changeset="4670465">
    <nd ref="710521826"/>
    <nd ref="710521834"/>
    <nd ref="710521837"/>
    <nd ref="710521833"/>
    <nd ref="668002921"/>
    <nd ref="561401566"/>
    <nd ref="561401565"/>
    <nd ref="561401549"/>
    <nd ref="561401552"/>
    <nd ref="561401559"/>
    <nd ref="561401555"/>
    <nd ref="563113218"/>
    <nd ref="563113224"/>
    <nd ref="563113222"/>
    <nd ref="577746424"/>
    <nd ref="577746414"/>
    <nd ref="577746405"/>
    <nd ref="577746392"/>
    <nd ref="662352154"/>
    <nd ref="673448495"/>
    <nd ref="673448492"/>
    <nd ref="673448490"/>
    <nd ref="728452222"/>
    <nd ref="729803390"/>
    <nd ref="729792457"/>
    <tag k="cables" v="3"/>
    <tag k="name" v="VG Lienz - KW Kalserbach"/>
    <tag k="operator" v="TIWAG"/>
    <tag k="power" v="line"/>
    <tag k="voltage" v="110000"/>
    <tag k="wires" v="single"/>
  </way>
  <way id="44201948" version="14" timestamp="2010-05-11T17:37:47Z" uid="43967" user="railsnail" changeset="4670465">
    <nd ref="710521826"/>
    <nd ref="710521834"/>
    <nd ref="710521837"/>
    <nd ref="710521833"/>
    <nd ref="668002921"/>
    <nd ref="561401566"/>
    <nd ref="561401565"/>
    <nd ref="561401549"/>
    <nd ref="561401552"/>
    <nd ref="561401559"/>
    <nd ref="561401555"/>
    <nd ref="563113218"/>
    <nd ref="563113224"/>
    <nd ref="563113222"/>
    <nd ref="577746424"/>
    <nd ref="577746414"/>
    <nd ref="577746405"/>
    <nd ref="577746392"/>
    <nd ref="662352154"/>
    <nd ref="673448495"/>
    <nd ref="673448492"/>
    <nd ref="673448490"/>
    <nd ref="728452222"/>
    <nd ref="729807214"/>
    <nd ref="729803390"/>
    <nd ref="729792457"/>
    <tag k="cables" v="3"/>
    <tag k="name" v="VG Lienz - KW Kalserbach"/>
    <tag k="operator" v="TIWAG"/>
    <tag k="power" v="line"/>
    <tag k="voltage" v="110000"/>
    <tag k="wires" v="single"/>
  </way>
  <way id="44201948" version="15" timestamp="2010-05-11T17:38:28Z" uid="43967" user="railsnail" changeset="4670465">
    <nd ref="710521826"/>
    <nd ref="710521834"/>
    <nd ref="710521837"/>
    <nd ref="710521833"/>
    <nd ref="668002921"/>
    <nd ref="561401566"/>
    <nd ref="561401565"/>
    <nd ref="561401549"/>
    <nd ref="561401552"/>
    <nd ref="561401559"/>
    <nd ref="561401555"/>
    <nd ref="563113218"/>
    <nd ref="563113224"/>
    <nd ref="563113222"/>
    <nd ref="577746424"/>
    <nd ref="577746414"/>
    <nd ref="577746405"/>
    <nd ref="577746392"/>
    <nd ref="662352154"/>
    <nd ref="673448495"/>
    <nd ref="673448492"/>
    <nd ref="673448490"/>
    <nd ref="728452222"/>
    <nd ref="729807231"/>
    <nd ref="729807214"/>
    <nd ref="729803390"/>
    <nd ref="729792457"/>
    <tag k="cables" v="3"/>
    <tag k="name" v="VG Lienz - KW Kalserbach"/>
    <tag k="operator" v="TIWAG"/>
    <tag k="power" v="line"/>
    <tag k="voltage" v="110000"/>
    <tag k="wires" v="single"/>
  </way>
  <way id="44201948" version="16" timestamp="2010-11-01T09:40:27Z" uid="43967" user="railsnail" changeset="6252835">
    <nd ref="710521826"/>
    <nd ref="710521834"/>
    <nd ref="710521837"/>
    <nd ref="710521833"/>
    <nd ref="668002921"/>
    <nd ref="561401566"/>
    <nd ref="561401565"/>
    <nd ref="561401549"/>
    <nd ref="561401552"/>
    <nd ref="561401559"/>
    <nd ref="561401555"/>
    <nd ref="563113218"/>
    <nd ref="563113224"/>
    <nd ref="563113222"/>
    <nd ref="577746424"/>
    <nd ref="577746414"/>
    <nd ref="577746405"/>
    <nd ref="577746392"/>
    <nd ref="662352154"/>
    <nd ref="673448495"/>
    <nd ref="673448492"/>
    <nd ref="673448490"/>
    <nd ref="728452222"/>
    <nd ref="729807231"/>
    <nd ref="729807214"/>
    <nd ref="729803390"/>
    <nd ref="729792457"/>
    <tag k="cables" v="3"/>
    <tag k="name" v="VG Lienz - KW Kalserbach"/>
    <tag k="operator" v="TIWAG"/>
    <tag k="power" v="line"/>
    <tag k="voltage" v="110000"/>
    <tag k="wires" v="single"/>
  </way>
  <way id="44201991" version="2" timestamp="2010-03-22T07:34:54Z" uid="20587" user="balrog-kun" changeset="4199043">
    <nd ref="561340887"/>
    <nd ref="561402644"/>
    <nd ref="561402649"/>
    <tag k="highway" v="tertiary"/>
    <tag k="name" v="Cobb Lane South"/>
  </way>
</osm>
