<?xml version='1.0' encoding='UTF-8'?>
<osm version="0.6" generator="libosmium/2.20.0">
  <way id="44387158" version="5" timestamp="2010-09-16T12:52:08Z" uid="115477" user="wowik" changeset="5795138">
    <nd ref="282539309"/>
    <nd ref="914440634"/>
    <tag k="addr:postcode" v="236039"/>
    <tag k="cladr:code" v="39000001000059300"/>
    <tag k="cladr:name" v="Октябрьская"/>
    <tag k="cladr:suffix" v="Улица"/>
    <tag k="highway" v="secondary"/>
    <tag k="lanes" v="2"/>
    <tag k="name" v="Октябрьская улица"/>
  </way>
  <way id="44387398" version="2" timestamp="2010-07-09T18:25:12Z" uid="74617" user="JohnSmith" changeset="5175636">
    <nd ref="564152001"/>
    <nd ref="564152003"/>
    <nd ref="564152005"/>
    <tag k="highway" v="residential"/>
    <tag k="maxspeed" v="50"/>
    <tag k="maxspeed:source" v="default residential speed limit in Australia"/>
  </way>
  <way id="44387870" version="2" timestamp="2009-11-26T18:19:09Z" uid="20587" user="balrog-kun" changeset="3222155">
    <nd ref="244002008"/>
    <nd ref="244002009"/>
    <nd ref="244002010"/>
    <nd ref="299939019"/>
    <nd ref="299938997"/>
    <tag k="highway" v="secondary"/>
    <tag k="ref" v="196"/>
  </way>
</osm>
