<?xml version='1.0' encoding='UTF-8'?>
<osm version="0.6" generator="libosmium/2.20.0">
  <way id="44445049" version="2" timestamp="2010-01-14T08:03:42Z" uid="27600" user="Islanit" changeset="3615258">
    <nd ref="564889030"/>
    <nd ref="564888979"/>
    <nd ref="564888980"/>
    <tag k="highway" v="residential"/>
    <tag k="name" v="Rue Seloauti Mohamed"/>
  </way>
  <way id="44445049" version="3" timestamp="2010-01-14T08:05:02Z" uid="27600" user="Islanit" changeset="3615258">
    <nd ref="564889030"/>
    <nd ref="613348994"/>
    <nd ref="564888979"/>
    <nd ref="564888980"/>
    <tag k="highway" v="residential"/>
    <tag k="name" v="Rue Seloauti Mohamed"/>
  </way>
  <way id="44445055" version="2" timestamp="2010-01-14T08:04:39Z" uid="27600" user="Islanit" changeset="3615258">
    <nd ref="613348987"/>
    <nd ref="564888995"/>
    <nd ref="564888997"/>
    <tag k="highway" v="residential"/>
    <tag k="name" v="Rue Kellouche Hadjadi"/>
  </way>
  <way id="44445056" version="2" timestamp="2010-01-14T08:04:39Z" uid="27600" user="Islanit" changeset="3615258">
    <nd ref="321697032"/>
    <nd ref="613348987"/>
    <nd ref="321697031"/>
    <nd ref="456721603"/>
    <nd ref="321697017"/>
    <tag k="highway" v="residential"/>
    <tag k="name" v="Rue BoussaÃ¯d Belkacem"/>
  </way>
  <way id="44445259" version="2" timestamp="2010-03-28T11:22:25Z" uid="20587" user="balrog-kun" changeset="4254597">
    <nd ref="123105946"/>
    <nd ref="122649131"/>
    <tag k="bridge" v="yes"/>
    <tag k="highway" v="motorway"/>
    <tag k="layer" v="1"/>
    <tag k="name" v="South Imperial Highway"/>
    <tag k="name_1" v="Richard M Nixon Highway"/>
    <tag k="name_2" v="State Highway 90"/>
    <tag k="ref" v="CA 90"/>
    <tag k="tiger:cfcc" v="A21"/>
    <tag k="tiger:county" v="Orange, CA"/>
    <tag k="tiger:name_base" v="Imperial"/>
    <tag k="tiger:name_base_1" v="Richard M Nixon"/>
    <tag k="tiger:name_base_2" v="State Highway 90"/>
    <tag k="tiger:name_direction_prefix" v="S"/>
    <tag k="tiger:name_type" v="Hwy"/>
    <tag k="tiger:name_type_1" v="Hwy"/>
    <tag k="tiger:reviewed" v="no"/>
    <tag k="tiger:separated" v="no"/>
    <tag k="tiger:source" v="tiger_import_dch_v0.6_20070809"/>
    <tag k="tiger:tlid" v="144116536:144116541:143996438:144079890:144079892:144128762:144128765:144128771:144128774:144128776:144128777:144128780:144128782:144128783:144128785:144128786:144423695:144413754:144138246:144032437:144119856"/>
  </way>
  <way id="44445261" version="2" timestamp="2010-03-28T11:22:26Z" uid="20587" user="balrog-kun" changeset="4254597">
    <nd ref="122774980"/>
    <nd ref="564890759"/>
    <nd ref="564890758"/>
    <nd ref="564890757"/>
    <nd ref="564890756"/>
    <nd ref="564890742"/>
    <tag k="highway" v="motorway"/>
    <tag k="name" v="Imperial Highway"/>
    <tag k="ref" v="CA 90"/>
  </way>
  <way id="44445262" version="2" timestamp="2010-03-28T11:22:26Z" uid="20587" user="balrog-kun" changeset="4254597">
    <nd ref="564890749"/>
    <nd ref="564890744"/>
    <tag k="bridge" v="yes"/>
    <tag k="highway" v="motorway"/>
    <tag k="layer" v="1"/>
    <tag k="name" v="Imperial Highway"/>
    <tag k="ref" v="CA 90"/>
  </way>
  <way id="44445263" version="3" timestamp="2010-03-28T11:22:26Z" uid="20587" user="balrog-kun" changeset="4254597">
    <nd ref="564890744"/>
    <nd ref="564890751"/>
    <nd ref="564890752"/>
    <nd ref="564894832"/>
    <nd ref="564894831"/>
    <nd ref="123105902"/>
    <tag k="highway" v="motorway"/>
    <tag k="name" v="Imperial Highway"/>
    <tag k="oneway" v="yes"/>
    <tag k="ref" v="CA 90"/>
  </way>
  <way id="44445264" version="2" timestamp="2010-03-28T11:22:26Z" uid="20587" user="balrog-kun" changeset="4254597">
    <nd ref="564890742"/>
    <nd ref="564890743"/>
    <tag k="bridge" v="yes"/>
    <tag k="highway" v="motorway"/>
    <tag k="layer" v="1"/>
    <tag k="name" v="Imperial Highway"/>
    <tag k="ref" v="CA 90"/>
  </way>
  <way id="44445266" version="2" timestamp="2010-03-28T11:22:26Z" uid="20587" user="balrog-kun" changeset="4254597">
    <nd ref="564890743"/>
    <nd ref="564890737"/>
    <nd ref="564890738"/>
    <nd ref="564890739"/>
    <nd ref="564890734"/>
    <nd ref="564890747"/>
    <nd ref="564890748"/>
    <nd ref="564890745"/>
    <nd ref="564890749"/>
    <tag k="highway" v="motorway"/>
    <tag k="name" v="Imperial Highway"/>
    <tag k="ref" v="CA 90"/>
  </way>
  <way id="44445267" version="2" timestamp="2010-03-28T11:22:26Z" uid="20587" user="balrog-kun" changeset="4254597">
    <nd ref="564890753"/>
    <nd ref="564890755"/>
    <tag k="bridge" v="yes"/>
    <tag k="highway" v="residential"/>
    <tag k="layer" v="2"/>
    <tag k="name" v="Lakeview Avenue"/>
    <tag k="tiger:cfcc" v="A41"/>
    <tag k="tiger:county" v="Orange, CA"/>
    <tag k="tiger:name_base" v="Lakeview"/>
    <tag k="tiger:name_type" v="Ave"/>
    <tag k="tiger:reviewed" v="no"/>
    <tag k="tiger:separated" v="no"/>
    <tag k="tiger:source" v="tiger_import_dch_v0.6_20070809"/>
    <tag k="tiger:tlid" v="143996165:143996170:143996172:143996175:143995022:143996261:143996265:143996266:143996269:143996271:143996273:143996281:144411451:144411452"/>
    <tag k="tiger:zip_left" v="92886"/>
    <tag k="tiger:zip_right" v="92886"/>
  </way>
  <way id="44445268" version="2" timestamp="2010-03-28T11:22:26Z" uid="20587" user="balrog-kun" changeset="4254597">
    <nd ref="564890755"/>
    <nd ref="122597603"/>
    <nd ref="122906930"/>
    <nd ref="122841890"/>
    <nd ref="122945191"/>
    <tag k="highway" v="residential"/>
    <tag k="name" v="Lakeview Avenue"/>
    <tag k="tiger:cfcc" v="A41"/>
    <tag k="tiger:county" v="Orange, CA"/>
    <tag k="tiger:name_base" v="Lakeview"/>
    <tag k="tiger:name_type" v="Ave"/>
    <tag k="tiger:reviewed" v="no"/>
    <tag k="tiger:separated" v="no"/>
    <tag k="tiger:source" v="tiger_import_dch_v0.6_20070809"/>
    <tag k="tiger:tlid" v="143996165:143996170:143996172:143996175:143995022:143996261:143996265:143996266:143996269:143996271:143996273:143996281:144411451:144411452"/>
    <tag k="tiger:zip_left" v="92886"/>
    <tag k="tiger:zip_right" v="92886"/>
  </way>
  <way id="44445711" version="2" timestamp="2010-03-28T11:22:27Z" uid="20587" user="balrog-kun" changeset="4254597">
    <nd ref="123105902"/>
    <nd ref="564894830"/>
    <nd ref="123105912"/>
    <nd ref="122564846"/>
    <nd ref="123105930"/>
    <tag k="highway" v="motorway"/>
    <tag k="name" v="South Imperial Highway"/>
    <tag k="name_1" v="Richard M Nixon Highway"/>
    <tag k="name_2" v="State Highway 90"/>
    <tag k="oneway" v="yes"/>
    <tag k="ref" v="CA 90"/>
    <tag k="tiger:cfcc" v="A21"/>
    <tag k="tiger:county" v="Orange, CA"/>
    <tag k="tiger:name_base" v="Imperial"/>
    <tag k="tiger:name_base_1" v="Richard M Nixon"/>
    <tag k="tiger:name_base_2" v="State Highway 90"/>
    <tag k="tiger:name_direction_prefix" v="S"/>
    <tag k="tiger:name_type" v="Hwy"/>
    <tag k="tiger:name_type_1" v="Hwy"/>
    <tag k="tiger:reviewed" v="no"/>
    <tag k="tiger:separated" v="no"/>
    <tag k="tiger:source" v="tiger_import_dch_v0.6_20070809"/>
    <tag k="tiger:tlid" v="144116536:144116541:143996438:144079890:144079892:144128762:144128765:144128771:144128774:144128776:144128777:144128780:144128782:144128783:144128785:144128786:144423695:144413754:144138246:144032437:144119856"/>
  </way>
</osm>
