<?xml version='1.0' encoding='UTF-8'?>
<osm version="0.6" generator="libosmium/2.20.0">
  <way id="44555412" version="2" timestamp="2010-04-23T05:18:55Z" uid="4467" user="Rosscoe" changeset="4500615">
    <nd ref="565892045"/>
    <nd ref="565892278"/>
    <nd ref="565892279"/>
    <nd ref="565892280"/>
    <nd ref="565892281"/>
    <nd ref="565892283"/>
    <tag k="access" v="permissive"/>
    <tag k="foot" v="yes"/>
    <tag k="highway" v="footway"/>
  </way>
  <way id="44555548" version="2" timestamp="2010-04-23T05:18:56Z" uid="4467" user="Rosscoe" changeset="4500615">
    <nd ref="565892388"/>
    <nd ref="565892414"/>
    <tag k="access" v="permissive"/>
    <tag k="foot" v="yes"/>
    <tag k="highway" v="footway"/>
  </way>
  <way id="44555597" version="3" timestamp="2010-03-28T11:24:01Z" uid="20587" user="balrog-kun" changeset="4254597">
    <nd ref="122751045"/>
    <nd ref="122751051"/>
    <tag k="highway" v="secondary"/>
    <tag k="layer" v="-1"/>
    <tag k="name" v="Peck Road"/>
    <tag k="source" v="survey;image;usgs_imagery"/>
    <tag k="source_ref" v="AM909_DSCQ1153"/>
    <tag k="tiger:cfcc" v="A41"/>
    <tag k="tiger:county" v="Los Angeles, CA"/>
    <tag k="tiger:name_base" v="Peck"/>
    <tag k="tiger:name_direction_prefix" v="N"/>
    <tag k="tiger:name_type" v="Rd"/>
    <tag k="tiger:separated" v="no"/>
    <tag k="tiger:source" v="tiger_import_dch_v0.6_20070809"/>
    <tag k="tiger:tlid" v="141647064:141650703:141650704:141650706:141650709:141650710:141650713:141650715:141650719:141650721:141650722:141650724:141649216:141795261:141795262:141649228:141649230:141649232:141795264:141797407:141797427:141797437"/>
    <tag k="tiger:zip_left" v="91732"/>
    <tag k="tiger:zip_right" v="91732"/>
  </way>
  <way id="44555598" version="4" timestamp="2010-03-28T11:24:02Z" uid="20587" user="balrog-kun" changeset="4254597">
    <nd ref="122751051"/>
    <nd ref="122751054"/>
    <nd ref="122751057"/>
    <nd ref="462756273"/>
    <nd ref="462756276"/>
    <nd ref="122751060"/>
    <nd ref="462756279"/>
    <nd ref="462756280"/>
    <nd ref="122751064"/>
    <nd ref="462756104"/>
    <nd ref="122646704"/>
    <nd ref="122751067"/>
    <nd ref="122751069"/>
    <nd ref="122751071"/>
    <nd ref="122475008"/>
    <nd ref="122622484"/>
    <nd ref="122484727"/>
    <nd ref="504936225"/>
    <nd ref="122751074"/>
    <nd ref="122751076"/>
    <nd ref="122489632"/>
    <nd ref="122751080"/>
    <nd ref="122751084"/>
    <nd ref="122751087"/>
    <nd ref="122751090"/>
    <nd ref="122751094"/>
    <nd ref="122751097"/>
    <nd ref="122751101"/>
    <nd ref="122751102"/>
    <nd ref="598226919"/>
    <nd ref="122751104"/>
    <nd ref="122751106"/>
    <nd ref="122751108"/>
    <nd ref="122661050"/>
    <nd ref="122751109"/>
    <nd ref="122751113"/>
    <tag k="highway" v="secondary"/>
    <tag k="name" v="Peck Road"/>
    <tag k="source" v="survey;image;usgs_imagery"/>
    <tag k="source_ref" v="AM909_DSCQ1153"/>
    <tag k="tiger:cfcc" v="A41"/>
    <tag k="tiger:county" v="Los Angeles, CA"/>
    <tag k="tiger:name_base" v="Peck"/>
    <tag k="tiger:name_direction_prefix" v="N"/>
    <tag k="tiger:name_type" v="Rd"/>
    <tag k="tiger:separated" v="no"/>
    <tag k="tiger:source" v="tiger_import_dch_v0.6_20070809"/>
    <tag k="tiger:tlid" v="141647064:141650703:141650704:141650706:141650709:141650710:141650713:141650715:141650719:141650721:141650722:141650724:141649216:141795261:141795262:141649228:141649230:141649232:141795264:141797407:141797427:141797437"/>
    <tag k="tiger:zip_left" v="91732"/>
    <tag k="tiger:zip_right" v="91732"/>
  </way>
  <way id="44555612" version="3" timestamp="2010-03-28T11:24:02Z" uid="20587" user="balrog-kun" changeset="4254597">
    <nd ref="579457965"/>
    <nd ref="579457962"/>
    <nd ref="565893429"/>
    <nd ref="565893380"/>
    <nd ref="565893383"/>
    <tag k="highway" v="unclassified"/>
    <tag k="name" v="Palm Drive"/>
    <tag k="source" v="survey;image;usgs_imagery;LACA"/>
    <tag k="source_ref" v="AM909_DSCQ1108;ABK8579-026"/>
  </way>
  <way id="44555628" version="3" timestamp="2010-03-28T11:24:02Z" uid="20587" user="balrog-kun" changeset="4254597">
    <nd ref="122751039"/>
    <nd ref="565824397"/>
    <nd ref="123017936"/>
    <nd ref="123017939"/>
    <nd ref="122825545"/>
    <nd ref="123017945"/>
    <nd ref="123017947"/>
    <nd ref="123017949"/>
    <nd ref="123017951"/>
    <tag k="highway" v="tertiary"/>
    <tag k="name" v="Asher Street"/>
    <tag k="tiger:cfcc" v="A41"/>
    <tag k="tiger:county" v="Los Angeles, CA"/>
    <tag k="tiger:name_base" v="Asher"/>
    <tag k="tiger:name_type" v="St"/>
    <tag k="tiger:separated" v="no"/>
    <tag k="tiger:source" v="tiger_import_dch_v0.6_20070809"/>
    <tag k="tiger:tlid" v="141649597:141649600:141649613:141649615:141813527:141813530:141813531:141813528"/>
    <tag k="tiger:zip_left" v="91732"/>
    <tag k="tiger:zip_right" v="91732"/>
  </way>
  <way id="44555629" version="2" timestamp="2010-03-28T11:24:03Z" uid="20587" user="balrog-kun" changeset="4254597">
    <nd ref="565893313"/>
    <nd ref="310907617"/>
    <tag k="bridge" v="yes"/>
    <tag k="highway" v="motorway"/>
    <tag k="layer" v="1"/>
    <tag k="name" v="San Bernardino Freeway"/>
    <tag k="oneway" v="yes"/>
    <tag k="ref" v="I 10"/>
  </way>
  <way id="44555630" version="2" timestamp="2010-03-28T11:24:03Z" uid="20587" user="balrog-kun" changeset="4254597">
    <nd ref="310907617"/>
    <nd ref="310907620"/>
    <nd ref="653814"/>
    <tag k="highway" v="motorway"/>
    <tag k="layer" v="1"/>
    <tag k="name" v="San Bernardino Freeway"/>
    <tag k="oneway" v="yes"/>
    <tag k="ref" v="I 10"/>
  </way>
  <way id="44555631" version="2" timestamp="2010-03-28T11:24:03Z" uid="20587" user="balrog-kun" changeset="4254597">
    <nd ref="565893314"/>
    <nd ref="565893315"/>
    <tag k="bridge" v="yes"/>
    <tag k="highway" v="motorway"/>
    <tag k="layer" v="1"/>
    <tag k="name" v="San Bernardino Freeway"/>
    <tag k="oneway" v="yes"/>
    <tag k="ref" v="I 10"/>
  </way>
  <way id="44555634" version="2" timestamp="2010-03-28T11:24:03Z" uid="20587" user="balrog-kun" changeset="4254597">
    <nd ref="565893356"/>
    <nd ref="565893357"/>
    <tag k="bridge" v="yes"/>
    <tag k="highway" v="motorway_link"/>
    <tag k="layer" v="1"/>
    <tag k="name" v="Santa Anita Ave offramp via Brockway Street"/>
    <tag k="oneway" v="yes"/>
    <tag k="ref" v="Exit 28 from I-10 West"/>
    <tag k="source" v="survey;image;usgs_imagery;CDOT"/>
    <tag k="source_ref" v="AM909_DSCP8898"/>
  </way>
  <way id="44555635" version="2" timestamp="2010-03-28T11:24:03Z" uid="20587" user="balrog-kun" changeset="4254597">
    <nd ref="565893357"/>
    <nd ref="310903943"/>
    <tag k="highway" v="motorway_link"/>
    <tag k="name" v="Santa Anita Ave offramp via Brockway Street"/>
    <tag k="oneway" v="yes"/>
    <tag k="ref" v="Exit 28 from I-10 West"/>
    <tag k="source" v="survey;image;usgs_imagery;CDOT"/>
    <tag k="source_ref" v="AM909_DSCP8898"/>
  </way>
  <way id="44555636" version="2" timestamp="2010-03-28T11:24:03Z" uid="20587" user="balrog-kun" changeset="4254597">
    <nd ref="653814"/>
    <nd ref="310501864"/>
    <tag k="bridge" v="yes"/>
    <tag k="highway" v="motorway"/>
    <tag k="layer" v="1"/>
    <tag k="name" v="San Bernardino Freeway"/>
    <tag k="oneway" v="yes"/>
    <tag k="ref" v="I 10"/>
  </way>
  <way id="44555637" version="2" timestamp="2010-03-28T11:24:03Z" uid="20587" user="balrog-kun" changeset="4254597">
    <nd ref="310501864"/>
    <nd ref="653815"/>
    <nd ref="565824399"/>
    <tag k="highway" v="motorway"/>
    <tag k="layer" v="1"/>
    <tag k="name" v="San Bernardino Freeway"/>
    <tag k="oneway" v="yes"/>
    <tag k="ref" v="I 10"/>
  </way>
  <way id="44555638" version="2" timestamp="2010-03-28T11:24:03Z" uid="20587" user="balrog-kun" changeset="4254597">
    <nd ref="565893433"/>
    <nd ref="25266719"/>
    <tag k="bridge" v="yes"/>
    <tag k="highway" v="motorway"/>
    <tag k="layer" v="1"/>
    <tag k="name" v="San Bernardino Freeway"/>
    <tag k="oneway" v="yes"/>
    <tag k="ref" v="I 10"/>
  </way>
  <way id="44555639" version="2" timestamp="2010-03-28T11:24:03Z" uid="20587" user="balrog-kun" changeset="4254597">
    <nd ref="25266719"/>
    <nd ref="25266721"/>
    <nd ref="565893314"/>
    <tag k="highway" v="motorway"/>
    <tag k="layer" v="1"/>
    <tag k="name" v="San Bernardino Freeway"/>
    <tag k="oneway" v="yes"/>
    <tag k="ref" v="I 10"/>
  </way>
  <way id="44555644" version="3" timestamp="2010-03-28T11:24:04Z" uid="20587" user="balrog-kun" changeset="4254597">
    <nd ref="303385357"/>
    <nd ref="268542666"/>
    <tag k="bridge" v="yes"/>
    <tag k="highway" v="motorway"/>
    <tag k="name" v="San Bernardino Freeway"/>
    <tag k="oneway" v="yes"/>
    <tag k="ref" v="I 10"/>
  </way>
  <way id="44555645" version="3" timestamp="2010-03-28T11:24:04Z" uid="20587" user="balrog-kun" changeset="4254597">
    <nd ref="565893352"/>
    <nd ref="268542625"/>
    <nd ref="303385355"/>
    <nd ref="303385356"/>
    <nd ref="303385357"/>
    <tag k="highway" v="motorway"/>
    <tag k="layer" v="1"/>
    <tag k="name" v="San Bernardino Freeway"/>
    <tag k="oneway" v="yes"/>
    <tag k="ref" v="I 10"/>
  </way>
  <way id="44555646" version="2" timestamp="2010-03-28T11:24:04Z" uid="20587" user="balrog-kun" changeset="4254597">
    <nd ref="565893345"/>
    <nd ref="268541784"/>
    <tag k="highway" v="motorway"/>
    <tag k="layer" v="1"/>
    <tag k="name" v="San Bernardino Freeway"/>
    <tag k="oneway" v="yes"/>
    <tag k="ref" v="I 10"/>
  </way>
  <way id="44555647" version="3" timestamp="2010-03-28T11:24:04Z" uid="20587" user="balrog-kun" changeset="4254597">
    <nd ref="565893344"/>
    <nd ref="565893352"/>
    <tag k="bridge" v="yes"/>
    <tag k="highway" v="motorway"/>
    <tag k="layer" v="1"/>
    <tag k="name" v="San Bernardino Freeway"/>
    <tag k="oneway" v="yes"/>
    <tag k="ref" v="I 10"/>
  </way>
  <way id="44555653" version="2" timestamp="2010-03-28T11:24:04Z" uid="20587" user="balrog-kun" changeset="4254597">
    <nd ref="268541687"/>
    <nd ref="565893351"/>
    <tag k="bridge" v="yes"/>
    <tag k="highway" v="motorway"/>
    <tag k="layer" v="1"/>
    <tag k="name" v="San Bernardino Freeway"/>
    <tag k="oneway" v="yes"/>
    <tag k="ref" v="I 10"/>
  </way>
  <way id="44555654" version="2" timestamp="2010-03-28T11:24:04Z" uid="20587" user="balrog-kun" changeset="4254597">
    <nd ref="565893351"/>
    <nd ref="268541688"/>
    <nd ref="565893348"/>
    <nd ref="268541689"/>
    <nd ref="268541690"/>
    <nd ref="268541691"/>
    <nd ref="268541692"/>
    <tag k="highway" v="motorway"/>
    <tag k="layer" v="1"/>
    <tag k="name" v="San Bernardino Freeway"/>
    <tag k="oneway" v="yes"/>
    <tag k="ref" v="I 10"/>
  </way>
  <way id="44555661" version="3" timestamp="2010-03-28T11:24:04Z" uid="20587" user="balrog-kun" changeset="4254597">
    <nd ref="565893335"/>
    <nd ref="565893331"/>
    <tag k="bridge" v="yes"/>
    <tag k="bridge_ref" v="53-0656R/OC"/>
    <tag k="highway" v="motorway"/>
    <tag k="is_in:state_code" v="CA"/>
    <tag k="lanes" v="4"/>
    <tag k="layer" v="1"/>
    <tag k="name" v="San Bernardino Freeway"/>
    <tag k="oneway" v="yes"/>
    <tag k="ref" v="I 10"/>
    <tag k="source" v="usgs_imagery;CDOT"/>
    <tag k="source_ref" v="AM909_DSCP8900"/>
  </way>
  <way id="44555662" version="3" timestamp="2010-03-28T11:24:04Z" uid="20587" user="balrog-kun" changeset="4254597">
    <nd ref="565893331"/>
    <nd ref="268542640"/>
    <nd ref="122482699"/>
    <nd ref="28311348"/>
    <nd ref="269061263"/>
    <nd ref="269061344"/>
    <tag k="highway" v="motorway"/>
    <tag k="lanes" v="4"/>
    <tag k="layer" v="1"/>
    <tag k="name" v="San Bernardino Freeway"/>
    <tag k="oneway" v="yes"/>
    <tag k="ref" v="I 10"/>
  </way>
  <way id="44555663" version="2" timestamp="2010-03-28T11:24:05Z" uid="20587" user="balrog-kun" changeset="4254597">
    <nd ref="565893330"/>
    <nd ref="268541685"/>
    <tag k="bridge" v="yes"/>
    <tag k="bridge_ref" v="53-0656L/OC"/>
    <tag k="highway" v="motorway"/>
    <tag k="is_in:state_code" v="CA"/>
    <tag k="layer" v="1"/>
    <tag k="name" v="San Bernardino Freeway"/>
    <tag k="oneway" v="yes"/>
    <tag k="ref" v="I 10"/>
    <tag k="source" v="usgs_imagery;CDOT"/>
  </way>
  <way id="44555664" version="2" timestamp="2010-03-28T11:24:05Z" uid="20587" user="balrog-kun" changeset="4254597">
    <nd ref="268541685"/>
    <nd ref="268541686"/>
    <nd ref="268541687"/>
    <tag k="highway" v="motorway"/>
    <tag k="layer" v="1"/>
    <tag k="name" v="San Bernardino Freeway"/>
    <tag k="oneway" v="yes"/>
    <tag k="ref" v="I 10"/>
  </way>
  <way id="44555672" version="2" timestamp="2010-03-28T11:24:05Z" uid="20587" user="balrog-kun" changeset="4254597">
    <nd ref="123176407"/>
    <nd ref="565893334"/>
    <tag k="bridge" v="yes"/>
    <tag k="bridge_ref" v="53-0656L/OC"/>
    <tag k="highway" v="residential"/>
    <tag k="is_in:state_code" v="CA"/>
    <tag k="name" v="Flair Drive"/>
    <tag k="source" v="usgs_imagery;CDOT"/>
    <tag k="tiger:cfcc" v="A41"/>
    <tag k="tiger:county" v="Los Angeles, CA"/>
    <tag k="tiger:name_base" v="Flair"/>
    <tag k="tiger:name_type" v="Dr"/>
    <tag k="tiger:separated" v="no"/>
    <tag k="tiger:source" v="tiger_import_dch_v0.6_20070809"/>
    <tag k="tiger:tlid" v="141648498:141648499:141648352:141648371:141648378:141641572"/>
    <tag k="tiger:zip_left" v="91731"/>
    <tag k="tiger:zip_right" v="91731"/>
  </way>
  <way id="44555673" version="3" timestamp="2010-03-28T11:24:05Z" uid="20587" user="balrog-kun" changeset="4254597">
    <nd ref="565893334"/>
    <nd ref="122787538"/>
    <nd ref="566119174"/>
    <nd ref="268541710"/>
    <nd ref="268541711"/>
    <nd ref="268541712"/>
    <nd ref="268541713"/>
    <nd ref="268541714"/>
    <nd ref="268541715"/>
    <nd ref="268541719"/>
    <nd ref="268541720"/>
    <nd ref="268541721"/>
    <tag k="highway" v="residential"/>
    <tag k="name" v="Flair Drive"/>
    <tag k="tiger:cfcc" v="A41"/>
    <tag k="tiger:county" v="Los Angeles, CA"/>
    <tag k="tiger:name_base" v="Flair"/>
    <tag k="tiger:name_type" v="Dr"/>
    <tag k="tiger:separated" v="no"/>
    <tag k="tiger:source" v="tiger_import_dch_v0.6_20070809"/>
    <tag k="tiger:tlid" v="141648498:141648499:141648352:141648371:141648378:141641572"/>
    <tag k="tiger:zip_left" v="91731"/>
    <tag k="tiger:zip_right" v="91731"/>
  </way>
</osm>
