<?xml version='1.0' encoding='UTF-8'?>
<osm version="0.6" generator="libosmium/2.20.0">
  <way id="44641480" version="1" timestamp="2009-11-18T16:54:51Z" uid="55964" user="Evan Sebire" changeset="3152293">
    <nd ref="278609935"/>
    <nd ref="566670881"/>
    <nd ref="566670882"/>
    <nd ref="566670883"/>
    <nd ref="566670884"/>
    <nd ref="566670885"/>
    <nd ref="566670886"/>
    <nd ref="566670887"/>
    <nd ref="566670888"/>
    <nd ref="566670889"/>
    <tag k="highway" v="residential"/>
    <tag k="name" v="Delaneys Road"/>
    <tag k="source" v="nearmap"/>
  </way>
  <way id="44641480" version="2" timestamp="2010-07-09T05:03:28Z" uid="74617" user="JohnSmith" changeset="5170986">
    <nd ref="278609935"/>
    <nd ref="566670881"/>
    <nd ref="566670882"/>
    <nd ref="566670883"/>
    <nd ref="566670884"/>
    <nd ref="566670885"/>
    <nd ref="566670886"/>
    <nd ref="566670887"/>
    <nd ref="566670888"/>
    <nd ref="566670889"/>
    <tag k="highway" v="residential"/>
    <tag k="maxspeed" v="50"/>
    <tag k="maxspeed:source" v="default residential speed limit in Australia"/>
    <tag k="name" v="Delaneys Road"/>
    <tag k="source" v="nearmap"/>
  </way>
  <way id="44641482" version="1" timestamp="2009-11-18T16:54:54Z" uid="55964" user="Evan Sebire" changeset="3152293">
    <nd ref="566670899"/>
    <nd ref="566670900"/>
    <nd ref="566670901"/>
    <nd ref="566670902"/>
    <tag k="highway" v="residential"/>
    <tag k="name" v="Vanessa Court"/>
    <tag k="source" v="nearmap"/>
  </way>
  <way id="44641482" version="2" timestamp="2010-07-09T05:00:17Z" uid="74617" user="JohnSmith" changeset="5170986">
    <nd ref="566670899"/>
    <nd ref="566670900"/>
    <nd ref="566670901"/>
    <nd ref="566670902"/>
    <tag k="highway" v="residential"/>
    <tag k="maxspeed" v="50"/>
    <tag k="maxspeed:source" v="default residential speed limit in Australia"/>
    <tag k="name" v="Vanessa Court"/>
    <tag k="source" v="nearmap"/>
  </way>
  <way id="44641483" version="1" timestamp="2009-11-18T16:54:55Z" uid="55964" user="Evan Sebire" changeset="3152293">
    <nd ref="566670903"/>
    <nd ref="566670902"/>
    <nd ref="566670904"/>
    <tag k="highway" v="residential"/>
  </way>
  <way id="44641483" version="2" timestamp="2010-07-09T05:06:58Z" uid="74617" user="JohnSmith" changeset="5170986">
    <nd ref="566670903"/>
    <nd ref="566670902"/>
    <nd ref="566670904"/>
    <tag k="highway" v="residential"/>
    <tag k="maxspeed" v="50"/>
    <tag k="maxspeed:source" v="default residential speed limit in Australia"/>
  </way>
  <way id="44641484" version="1" timestamp="2009-11-18T16:54:56Z" uid="55964" user="Evan Sebire" changeset="3152293">
    <nd ref="566670905"/>
    <nd ref="566670906"/>
    <nd ref="566670907"/>
    <nd ref="566670908"/>
    <tag k="highway" v="residential"/>
    <tag k="name" v="Regency Terrace"/>
    <tag k="source" v="nearmap"/>
  </way>
  <way id="44641484" version="2" timestamp="2010-07-09T05:05:04Z" uid="74617" user="JohnSmith" changeset="5170986">
    <nd ref="566670905"/>
    <nd ref="566670906"/>
    <nd ref="566670907"/>
    <nd ref="566670908"/>
    <tag k="highway" v="residential"/>
    <tag k="maxspeed" v="50"/>
    <tag k="maxspeed:source" v="default residential speed limit in Australia"/>
    <tag k="name" v="Regency Terrace"/>
    <tag k="source" v="nearmap"/>
  </way>
  <way id="44641485" version="1" timestamp="2009-11-18T16:54:57Z" uid="55964" user="Evan Sebire" changeset="3152293">
    <nd ref="566670909"/>
    <nd ref="566670908"/>
    <nd ref="566670910"/>
    <tag k="highway" v="residential"/>
  </way>
  <way id="44641485" version="2" timestamp="2010-07-09T05:02:59Z" uid="74617" user="JohnSmith" changeset="5170986">
    <nd ref="566670909"/>
    <nd ref="566670908"/>
    <nd ref="566670910"/>
    <tag k="highway" v="residential"/>
    <tag k="maxspeed" v="50"/>
    <tag k="maxspeed:source" v="default residential speed limit in Australia"/>
  </way>
  <way id="44641486" version="1" timestamp="2009-11-18T16:55:02Z" uid="55964" user="Evan Sebire" changeset="3152293">
    <nd ref="566670911"/>
    <nd ref="566670912"/>
    <nd ref="566670913"/>
    <nd ref="566670914"/>
    <nd ref="566670915"/>
    <nd ref="566670916"/>
    <nd ref="566670917"/>
    <nd ref="566670919"/>
    <nd ref="566670920"/>
    <nd ref="566670921"/>
    <nd ref="566670911"/>
    <tag k="addr:city" v="Warranwood"/>
    <tag k="addr:country" v="au"/>
    <tag k="addr:housenumber" v="4"/>
    <tag k="addr:postcode" v="3134"/>
    <tag k="addr:street" v="Regency Terrace"/>
    <tag k="building" v="yes"/>
  </way>
  <way id="44641487" version="1" timestamp="2009-11-18T16:55:04Z" uid="55964" user="Evan Sebire" changeset="3152293">
    <nd ref="566670922"/>
    <nd ref="566670923"/>
    <nd ref="566670924"/>
    <nd ref="566670925"/>
    <nd ref="566670922"/>
    <tag k="addr:city" v="Warranwood"/>
    <tag k="addr:country" v="au"/>
    <tag k="addr:postcode" v="3134"/>
    <tag k="addr:street" v="Regency Terrace"/>
    <tag k="building" v="yes"/>
  </way>
  <way id="44641488" version="1" timestamp="2009-11-18T16:55:07Z" uid="55964" user="Evan Sebire" changeset="3152293">
    <nd ref="566670929"/>
    <nd ref="566670932"/>
    <nd ref="566670933"/>
    <nd ref="566670934"/>
    <tag k="highway" v="residential"/>
    <tag k="name" v="Alexander Court"/>
    <tag k="source" v="nearmap"/>
  </way>
  <way id="44641488" version="2" timestamp="2010-07-09T05:02:48Z" uid="74617" user="JohnSmith" changeset="5170986">
    <nd ref="566670929"/>
    <nd ref="566670932"/>
    <nd ref="566670933"/>
    <nd ref="566670934"/>
    <tag k="highway" v="residential"/>
    <tag k="maxspeed" v="50"/>
    <tag k="maxspeed:source" v="default residential speed limit in Australia"/>
    <tag k="name" v="Alexander Court"/>
    <tag k="source" v="nearmap"/>
  </way>
  <way id="44641491" version="1" timestamp="2009-11-18T16:55:12Z" uid="55964" user="Evan Sebire" changeset="3152293">
    <nd ref="566670937"/>
    <nd ref="566670940"/>
    <nd ref="566670942"/>
    <nd ref="566670943"/>
    <nd ref="566670944"/>
    <tag k="highway" v="residential"/>
    <tag k="name" v="Reids Lane"/>
    <tag k="source" v="nearmap"/>
  </way>
  <way id="44641491" version="2" timestamp="2010-07-09T05:06:11Z" uid="74617" user="JohnSmith" changeset="5170986">
    <nd ref="566670937"/>
    <nd ref="566670940"/>
    <nd ref="566670942"/>
    <nd ref="566670943"/>
    <nd ref="566670944"/>
    <tag k="highway" v="residential"/>
    <tag k="maxspeed" v="50"/>
    <tag k="maxspeed:source" v="default residential speed limit in Australia"/>
    <tag k="name" v="Reids Lane"/>
    <tag k="source" v="nearmap"/>
  </way>
  <way id="44641492" version="1" timestamp="2009-11-18T16:55:16Z" uid="55964" user="Evan Sebire" changeset="3152293">
    <nd ref="566670942"/>
    <nd ref="566670945"/>
    <nd ref="566670947"/>
    <nd ref="566670948"/>
    <tag k="highway" v="residential"/>
    <tag k="name" v="Eliza Close"/>
    <tag k="source" v="nearmap"/>
  </way>
  <way id="44641492" version="2" timestamp="2010-07-09T05:04:14Z" uid="74617" user="JohnSmith" changeset="5170986">
    <nd ref="566670942"/>
    <nd ref="566670945"/>
    <nd ref="566670947"/>
    <nd ref="566670948"/>
    <tag k="highway" v="residential"/>
    <tag k="maxspeed" v="50"/>
    <tag k="maxspeed:source" v="default residential speed limit in Australia"/>
    <tag k="name" v="Eliza Close"/>
    <tag k="source" v="nearmap"/>
  </way>
  <way id="44641500" version="2" timestamp="2009-12-14T19:45:08Z" uid="9581" user="Lobelt" changeset="3374487">
    <nd ref="566671118"/>
    <nd ref="566671119"/>
    <nd ref="590714552"/>
    <nd ref="566671120"/>
    <nd ref="566671121"/>
    <nd ref="566671122"/>
    <nd ref="566671123"/>
    <nd ref="566671124"/>
    <nd ref="566671125"/>
    <nd ref="590715322"/>
    <nd ref="566671127"/>
    <tag k="highway" v="residential"/>
    <tag k="name" v="Leberstraße"/>
  </way>
  <way id="44641503" version="2" timestamp="2009-12-14T19:45:07Z" uid="9581" user="Lobelt" changeset="3374487">
    <nd ref="566671127"/>
    <nd ref="566671128"/>
    <nd ref="566671112"/>
    <nd ref="566671129"/>
    <nd ref="566671130"/>
    <nd ref="566671133"/>
    <nd ref="566671137"/>
    <nd ref="566671141"/>
    <nd ref="566671145"/>
    <nd ref="566671167"/>
    <nd ref="566671129"/>
    <tag k="highway" v="residential"/>
    <tag k="name" v="Leberstraße"/>
  </way>
  <way id="44641643" version="2" timestamp="2010-10-14T15:22:22Z" uid="96874" user="Quedel" changeset="6040209">
    <nd ref="317448898"/>
    <nd ref="541005329"/>
    <tag k="bridge" v="yes"/>
    <tag k="embankment" v="no"/>
    <tag k="highway" v="residential"/>
    <tag k="layer" v="1"/>
    <tag k="name" v="Neuer Stadtweg"/>
    <tag k="surface" v="cobblestone"/>
    <tag k="width" v="5"/>
  </way>
  <way id="44641673" version="3" timestamp="2010-10-24T16:55:46Z" uid="9581" user="Lobelt" changeset="6158967">
    <nd ref="266390150"/>
    <nd ref="566673629"/>
    <nd ref="566673626"/>
    <nd ref="566673625"/>
    <nd ref="266390152"/>
    <nd ref="566673687"/>
    <nd ref="266390153"/>
    <nd ref="266390154"/>
    <nd ref="266390155"/>
    <nd ref="266390157"/>
    <nd ref="566673689"/>
    <nd ref="266390158"/>
    <nd ref="266390159"/>
    <nd ref="266390160"/>
    <nd ref="266390161"/>
    <nd ref="266390162"/>
    <nd ref="266390163"/>
    <nd ref="266390164"/>
    <tag k="highway" v="track"/>
    <tag k="mtb:scale" v="0"/>
    <tag k="tracktype" v="grade3"/>
  </way>
  <way id="44641749" version="3" timestamp="2010-04-03T13:56:44Z" uid="20587" user="balrog-kun" changeset="4312927">
    <nd ref="83652340"/>
    <nd ref="83733722"/>
    <nd ref="83733724"/>
    <nd ref="83733726"/>
    <nd ref="83733728"/>
    <nd ref="83733731"/>
    <nd ref="83733732"/>
    <nd ref="83733735"/>
    <nd ref="83733738"/>
    <nd ref="83733742"/>
    <nd ref="83733744"/>
    <nd ref="83733746"/>
    <nd ref="83733749"/>
    <nd ref="83733751"/>
    <nd ref="83733752"/>
    <nd ref="83733754"/>
    <nd ref="83683325"/>
    <nd ref="83733755"/>
    <nd ref="83733759"/>
    <nd ref="83733762"/>
    <nd ref="83733764"/>
    <nd ref="83733766"/>
    <nd ref="567496922"/>
    <nd ref="83733768"/>
    <nd ref="83733770"/>
    <nd ref="567496923"/>
    <nd ref="83733773"/>
    <nd ref="83733775"/>
    <nd ref="83651934"/>
    <tag k="highway" v="tertiary"/>
    <tag k="name" v="Indian Route 6440"/>
    <tag k="name_1" v="County Road 447"/>
    <tag k="name_2" v="Gypsum Creek Road"/>
    <tag k="surface" v="dirt"/>
    <tag k="tiger:cfcc" v="A41"/>
    <tag k="tiger:county" v="San Juan, UT"/>
    <tag k="tiger:name_base" v="Indian Rte 6440"/>
    <tag k="tiger:name_base_1" v="C R 447"/>
    <tag k="tiger:name_base_2" v="Gypsum Creek"/>
    <tag k="tiger:name_type_2" v="Rd"/>
    <tag k="tiger:reviewed" v="no"/>
    <tag k="tiger:separated" v="no"/>
    <tag k="tiger:source" v="tiger_import_dch_v0.6_20070830"/>
    <tag k="tiger:tlid" v="177044281:177044240:177044243"/>
  </way>
</osm>
