<?xml version='1.0' encoding='UTF-8'?>
<osm version="0.6" generator="libosmium/2.20.0">
  <way id="44642014" version="2" timestamp="2010-07-09T21:00:59Z" uid="74617" user="JohnSmith" changeset="5176956">
    <nd ref="566677464"/>
    <nd ref="566677469"/>
    <nd ref="566677468"/>
    <tag k="highway" v="residential"/>
    <tag k="maxspeed" v="50"/>
    <tag k="maxspeed:source" v="default residential speed limit in Australia"/>
    <tag k="source" v="nearmap"/>
  </way>
  <way id="44642918" version="4" timestamp="2011-04-20T17:41:17Z" uid="115477" user="wowik" changeset="7918311">
    <nd ref="566683848"/>
    <nd ref="367890889"/>
    <nd ref="367890890"/>
    <nd ref="963867812"/>
    <nd ref="963867731"/>
    <nd ref="963868200"/>
    <nd ref="963867199"/>
    <nd ref="963867569"/>
    <nd ref="963866810"/>
    <nd ref="963868968"/>
    <nd ref="566683850"/>
    <nd ref="566683851"/>
    <nd ref="963867927"/>
    <nd ref="566683852"/>
    <nd ref="566683854"/>
    <nd ref="963869396"/>
    <nd ref="963869785"/>
    <nd ref="963867155"/>
    <nd ref="963867048"/>
    <nd ref="566683848"/>
    <tag k="addr:city" v="Москва"/>
    <tag k="addr:country" v="RU"/>
    <tag k="building" v="yes"/>
    <tag k="cladr:code" v="77000000000178600"/>
  </way>
  <way id="44642919" version="6" timestamp="2011-04-20T12:59:54Z" uid="115477" user="wowik" changeset="7916018">
    <nd ref="566683862"/>
    <nd ref="916076811"/>
    <nd ref="566683865"/>
    <nd ref="566683867"/>
    <nd ref="566683869"/>
    <nd ref="566683870"/>
    <nd ref="566683871"/>
    <nd ref="566683873"/>
    <nd ref="566683875"/>
    <nd ref="566683877"/>
    <nd ref="566683879"/>
    <nd ref="566683862"/>
    <tag k="addr:city" v="Москва"/>
    <tag k="addr:country" v="RU"/>
    <tag k="addr:housenumber" v="9 с1"/>
    <tag k="amenity" v="university"/>
    <tag k="building" v="yes"/>
    <tag k="int_name" v="MSU - Faculty of Journalism"/>
    <tag k="name" v="Факультет журналистики МГУ"/>
  </way>
  <way id="44642920" version="6" timestamp="2011-04-20T12:59:37Z" uid="115477" user="wowik" changeset="7916018">
    <nd ref="566683885"/>
    <nd ref="566683886"/>
    <nd ref="1145199316"/>
    <nd ref="566683888"/>
    <nd ref="1145199266"/>
    <nd ref="1145199246"/>
    <nd ref="566683891"/>
    <nd ref="566683893"/>
    <nd ref="566683885"/>
    <tag k="addr:city" v="Москва"/>
    <tag k="addr:country" v="RU"/>
    <tag k="addr:housenumber" v="13 с1"/>
    <tag k="building" v="yes"/>
  </way>
  <way id="44642920" version="7" timestamp="2011-04-20T14:15:46Z" uid="115477" user="wowik" changeset="7916622">
    <nd ref="566683885"/>
    <nd ref="566683886"/>
    <nd ref="1145199316"/>
    <nd ref="566683888"/>
    <nd ref="1145199266"/>
    <nd ref="1145199246"/>
    <nd ref="566683891"/>
    <nd ref="566683893"/>
    <nd ref="566683885"/>
    <tag k="addr:city" v="Москва"/>
    <tag k="addr:country" v="RU"/>
    <tag k="addr:housenumber" v="13 с1"/>
    <tag k="addr:street" v="Моховая улица"/>
    <tag k="building" v="yes"/>
  </way>
</osm>
