<?xml version='1.0' encoding='UTF-8'?>
<osm version="0.6" generator="libosmium/2.20.0">
  <way id="44943495" version="2" timestamp="2010-04-04T01:41:47Z" uid="20587" user="balrog-kun" changeset="4318136">
    <nd ref="569878432"/>
    <nd ref="569878433"/>
    <nd ref="569878434"/>
    <nd ref="569878435"/>
    <nd ref="569878436"/>
    <nd ref="569878437"/>
    <nd ref="569878438"/>
    <nd ref="569878439"/>
    <tag k="name" v="Little Dry Creek"/>
    <tag k="waterway" v="stream"/>
  </way>
  <way id="44943496" version="2" timestamp="2010-04-04T01:41:48Z" uid="20587" user="balrog-kun" changeset="4318136">
    <nd ref="569861766"/>
    <nd ref="569878432"/>
    <tag k="name" v="Little Dry Creek"/>
    <tag k="tunnel" v="yes"/>
    <tag k="waterway" v="stream"/>
  </way>
  <way id="44943502" version="3" timestamp="2010-04-04T01:41:48Z" uid="20587" user="balrog-kun" changeset="4318136">
    <nd ref="569878451"/>
    <nd ref="569878452"/>
    <nd ref="569878453"/>
    <nd ref="569878454"/>
    <nd ref="569878455"/>
    <nd ref="569878456"/>
    <nd ref="569878457"/>
    <nd ref="569878458"/>
    <nd ref="569878459"/>
    <nd ref="569878460"/>
    <nd ref="569878461"/>
    <nd ref="569878462"/>
    <nd ref="569878463"/>
    <nd ref="569878464"/>
    <nd ref="569878465"/>
    <nd ref="569878466"/>
    <nd ref="569878467"/>
    <nd ref="569884112"/>
    <nd ref="569884051"/>
    <tag k="name" v="Little Dry Creek"/>
    <tag k="waterway" v="stream"/>
  </way>
  <way id="44943503" version="2" timestamp="2010-04-04T01:41:48Z" uid="20587" user="balrog-kun" changeset="4318136">
    <nd ref="569878439"/>
    <nd ref="569878451"/>
    <tag k="name" v="Little Dry Creek"/>
    <tag k="tunnel" v="yes"/>
    <tag k="waterway" v="stream"/>
  </way>
  <way id="44943682" version="2" timestamp="2010-03-28T11:26:43Z" uid="20587" user="balrog-kun" changeset="4254597">
    <nd ref="122637079"/>
    <nd ref="517703146"/>
    <nd ref="517703150"/>
    <nd ref="517703154"/>
    <nd ref="517703158"/>
    <nd ref="178684378"/>
    <nd ref="517703165"/>
    <nd ref="569878475"/>
    <nd ref="517703169"/>
    <nd ref="122637082"/>
    <tag k="highway" v="residential"/>
    <tag k="name" v="Raymondale Drive"/>
    <tag k="oneway" v="yes"/>
    <tag k="tiger:cfcc" v="A41"/>
    <tag k="tiger:county" v="Los Angeles, CA"/>
    <tag k="tiger:name_base" v="Raymondale"/>
    <tag k="tiger:name_type" v="Dr"/>
    <tag k="tiger:separated" v="no"/>
    <tag k="tiger:source" v="tiger_import_dch_v0.6_20070809"/>
    <tag k="tiger:tlid" v="141630278:141630293"/>
    <tag k="tiger:zip_left" v="91030"/>
    <tag k="tiger:zip_right" v="91030"/>
  </way>
  <way id="44943685" version="2" timestamp="2010-03-28T11:26:43Z" uid="20587" user="balrog-kun" changeset="4254597">
    <nd ref="122637082"/>
    <nd ref="569878476"/>
    <nd ref="569878477"/>
    <nd ref="569878478"/>
    <nd ref="569878479"/>
    <nd ref="569878481"/>
    <nd ref="569878482"/>
    <nd ref="569878483"/>
    <nd ref="569878484"/>
    <nd ref="569878485"/>
    <nd ref="569878486"/>
    <nd ref="122637079"/>
    <tag k="highway" v="residential"/>
    <tag k="name" v="Raymondale Drive"/>
    <tag k="oneway" v="yes"/>
    <tag k="tiger:cfcc" v="A41"/>
    <tag k="tiger:county" v="Los Angeles, CA"/>
    <tag k="tiger:name_base" v="Raymondale"/>
    <tag k="tiger:name_type" v="Dr"/>
    <tag k="tiger:separated" v="no"/>
    <tag k="tiger:source" v="tiger_import_dch_v0.6_20070809"/>
    <tag k="tiger:tlid" v="141630278:141630293"/>
    <tag k="tiger:zip_left" v="91030"/>
    <tag k="tiger:zip_right" v="91030"/>
  </way>
  <way id="44943720" version="1" timestamp="2009-11-24T02:11:27Z" uid="20587" user="balrog-kun" changeset="3201348">
    <nd ref="569878589"/>
    <nd ref="569878587"/>
    <nd ref="569878588"/>
    <nd ref="569878568"/>
    <nd ref="569878522"/>
    <nd ref="569878523"/>
    <tag k="man_made" v="pipeline"/>
    <tag k="note" v="Wejscie z drenów"/>
    <tag k="oneway" v="1"/>
    <tag k="source" v="http://ump.waw.pl/ retrieved 01:42:10 11/24/09 (UMP-Warszawa/src/WARSZAWA.filtry.txt)"/>
  </way>
  <way id="44943721" version="1" timestamp="2009-11-24T02:11:27Z" uid="20587" user="balrog-kun" changeset="3201348">
    <nd ref="569878509"/>
    <nd ref="569878510"/>
    <nd ref="569878563"/>
    <nd ref="569878564"/>
    <nd ref="569878565"/>
    <tag k="man_made" v="pipeline"/>
    <tag k="oneway" v="1"/>
    <tag k="source" v="http://ump.waw.pl/ retrieved 01:42:10 11/24/09 (UMP-Warszawa/src/WARSZAWA.filtry.txt)"/>
  </way>
  <way id="44943722" version="1" timestamp="2009-11-24T02:11:27Z" uid="20587" user="balrog-kun" changeset="3201348">
    <nd ref="569878556"/>
    <nd ref="569878532"/>
    <nd ref="569878544"/>
    <nd ref="569878545"/>
    <nd ref="569878535"/>
    <nd ref="569878556"/>
    <tag k="building" v="industrial"/>
    <tag k="building:levels" v="1"/>
    <tag k="name" v="Zbiornik wody czystej"/>
    <tag k="source" v="http://ump.waw.pl/ retrieved 01:42:10 11/24/09 (UMP-Warszawa/src/WARSZAWA.filtry.txt)"/>
  </way>
  <way id="44943724" version="1" timestamp="2009-11-24T02:11:27Z" uid="20587" user="balrog-kun" changeset="3201348">
    <nd ref="569878535"/>
    <nd ref="569878557"/>
    <tag k="man_made" v="pipeline"/>
    <tag k="oneway" v="1"/>
    <tag k="source" v="http://ump.waw.pl/ retrieved 01:42:10 11/24/09 (UMP-Warszawa/src/WARSZAWA.filtry.txt)"/>
  </way>
  <way id="44943725" version="1" timestamp="2009-11-24T02:11:27Z" uid="20587" user="balrog-kun" changeset="3201348">
    <nd ref="569878580"/>
    <nd ref="569878581"/>
    <nd ref="569878579"/>
    <nd ref="569878562"/>
    <nd ref="569878507"/>
    <nd ref="569878506"/>
    <tag k="man_made" v="pipeline"/>
    <tag k="name" v="Wejście z osadników"/>
    <tag k="oneway" v="1"/>
    <tag k="source" v="http://ump.waw.pl/ retrieved 01:42:10 11/24/09 (UMP-Warszawa/src/WARSZAWA.filtry.txt)"/>
  </way>
  <way id="44943726" version="1" timestamp="2009-11-24T02:11:27Z" uid="20587" user="balrog-kun" changeset="3201348">
    <nd ref="569878499"/>
    <nd ref="569878500"/>
    <nd ref="569878555"/>
    <nd ref="569878557"/>
    <nd ref="569878554"/>
    <nd ref="569878558"/>
    <tag k="man_made" v="pipeline"/>
    <tag k="oneway" v="1"/>
    <tag k="source" v="http://ump.waw.pl/ retrieved 01:42:10 11/24/09 (UMP-Warszawa/src/WARSZAWA.filtry.txt)"/>
  </way>
  <way id="44943727" version="1" timestamp="2009-11-24T02:11:28Z" uid="20587" user="balrog-kun" changeset="3201348">
    <nd ref="569878526"/>
    <nd ref="569878496"/>
    <nd ref="569878498"/>
    <nd ref="569878527"/>
    <nd ref="569878526"/>
    <tag k="building:levels" v="1"/>
    <tag k="landuse" v="construction"/>
    <tag k="name" v="Filtry powolne 7"/>
    <tag k="name:en" v="Slow filters"/>
  </way>
  <way id="44943727" version="2" timestamp="2010-12-20T19:51:45Z" uid="20587" user="balrog-kun" changeset="6719279">
    <nd ref="569878526"/>
    <nd ref="569878496"/>
    <nd ref="569878498"/>
    <nd ref="569878527"/>
    <nd ref="569878526"/>
    <tag k="building" v="industrial"/>
    <tag k="building:levels" v="1"/>
    <tag k="name" v="Filtry powolne 7"/>
    <tag k="name:en" v="Slow filters"/>
  </way>
  <way id="44943728" version="1" timestamp="2009-11-24T02:11:28Z" uid="20587" user="balrog-kun" changeset="3201348">
    <nd ref="569878503"/>
    <nd ref="569878497"/>
    <nd ref="569878506"/>
    <nd ref="569878505"/>
    <nd ref="312053724"/>
    <nd ref="569878515"/>
    <nd ref="569878513"/>
    <nd ref="569878514"/>
    <nd ref="569878501"/>
    <nd ref="569878502"/>
    <nd ref="569878503"/>
    <tag k="building" v="industrial"/>
    <tag k="building:levels" v="1"/>
    <tag k="name" v="Pulsator"/>
    <tag k="source" v="http://ump.waw.pl/ retrieved 01:42:10 11/24/09 (UMP-Warszawa/src/WARSZAWA.filtry.txt)"/>
  </way>
  <way id="44943729" version="1" timestamp="2009-11-24T02:11:28Z" uid="20587" user="balrog-kun" changeset="3201348">
    <nd ref="569878538"/>
    <nd ref="312053738"/>
    <nd ref="569878524"/>
    <nd ref="569878525"/>
    <nd ref="569878537"/>
    <nd ref="569878538"/>
    <tag k="building" v="industrial"/>
    <tag k="building:levels" v="3"/>
    <tag k="name" v="Zakład chlorowania"/>
    <tag k="source" v="http://ump.waw.pl/ retrieved 01:42:10 11/24/09 (UMP-Warszawa/src/WARSZAWA.filtry.txt)"/>
  </way>
  <way id="44943730" version="1" timestamp="2009-11-24T02:11:28Z" uid="20587" user="balrog-kun" changeset="3201348">
    <nd ref="569878487"/>
    <nd ref="569878488"/>
    <nd ref="569878491"/>
    <nd ref="569878495"/>
    <nd ref="569878493"/>
    <nd ref="569878494"/>
    <nd ref="569878490"/>
    <nd ref="569878492"/>
    <nd ref="569878489"/>
    <nd ref="569878487"/>
    <tag k="building" v="residential"/>
  </way>
  <way id="44943731" version="1" timestamp="2009-11-24T02:11:28Z" uid="20587" user="balrog-kun" changeset="3201348">
    <nd ref="569878512"/>
    <nd ref="569878504"/>
    <nd ref="569878509"/>
    <nd ref="569878508"/>
    <nd ref="569878521"/>
    <nd ref="569878523"/>
    <nd ref="569878512"/>
    <tag k="building" v="industrial"/>
    <tag k="building:levels" v="1"/>
    <tag k="name" v="Osadnik wody surowej"/>
    <tag k="source" v="http://ump.waw.pl/ retrieved 01:42:10 11/24/09 (UMP-Warszawa/src/WARSZAWA.filtry.txt)"/>
  </way>
  <way id="44943732" version="1" timestamp="2009-11-24T02:11:28Z" uid="20587" user="balrog-kun" changeset="3201348">
    <nd ref="569878516"/>
    <nd ref="569878511"/>
    <nd ref="569878520"/>
    <nd ref="569878519"/>
    <nd ref="569878518"/>
    <nd ref="569878517"/>
    <nd ref="569878516"/>
    <tag k="building" v="industrial"/>
    <tag k="building:levels" v="1"/>
    <tag k="name" v="Zakład wapnowania"/>
    <tag k="source" v="http://ump.waw.pl/ retrieved 01:42:10 11/24/09 (UMP-Warszawa/src/WARSZAWA.filtry.txt)"/>
  </way>
  <way id="44943733" version="1" timestamp="2009-11-24T02:11:28Z" uid="20587" user="balrog-kun" changeset="3201348">
    <nd ref="569878546"/>
    <nd ref="569878551"/>
    <nd ref="569878552"/>
    <nd ref="569878550"/>
    <nd ref="569878553"/>
    <nd ref="569878547"/>
    <nd ref="569878546"/>
    <tag k="building" v="industrial"/>
    <tag k="building:levels" v="2"/>
    <tag k="name" v="Pompownia"/>
    <tag k="name:en" v="Old pumps"/>
    <tag k="source" v="http://ump.waw.pl/ retrieved 01:42:10 11/24/09 (UMP-Warszawa/src/WARSZAWA.filtry.txt)"/>
    <tag k="tourism" v="museum"/>
  </way>
  <way id="44943734" version="1" timestamp="2009-11-24T02:11:29Z" uid="20587" user="balrog-kun" changeset="3201348">
    <nd ref="569878549"/>
    <nd ref="569878539"/>
    <nd ref="569878540"/>
    <nd ref="569878548"/>
    <nd ref="569878549"/>
    <tag k="building" v="industrial"/>
    <tag k="building:levels" v="1"/>
    <tag k="name" v="Filtry powolne"/>
    <tag k="name:en" v="Slow filters"/>
    <tag k="source" v="http://ump.waw.pl/ retrieved 01:42:10 11/24/09 (UMP-Warszawa/src/WARSZAWA.filtry.txt)"/>
  </way>
  <way id="44943735" version="1" timestamp="2009-11-24T02:11:29Z" uid="20587" user="balrog-kun" changeset="3201348">
    <nd ref="569878541"/>
    <nd ref="569878534"/>
    <nd ref="569878530"/>
    <nd ref="569878536"/>
    <nd ref="569878543"/>
    <nd ref="569878542"/>
    <nd ref="569878541"/>
    <tag k="building" v="industrial"/>
    <tag k="building:levels" v="1"/>
    <tag k="name" v="Filtry powolne"/>
    <tag k="name:en" v="Slow filters"/>
    <tag k="source" v="http://ump.waw.pl/ retrieved 01:42:10 11/24/09 (UMP-Warszawa/src/WARSZAWA.filtry.txt)"/>
  </way>
  <way id="44943737" version="1" timestamp="2009-11-24T02:11:29Z" uid="20587" user="balrog-kun" changeset="3201348">
    <nd ref="569878531"/>
    <nd ref="569878528"/>
    <nd ref="569878529"/>
    <nd ref="569878533"/>
    <nd ref="569878531"/>
    <tag k="building" v="industrial"/>
    <tag k="building:levels" v="1"/>
    <tag k="name" v="Filtry powolne"/>
    <tag k="name:en" v="Slow filters"/>
    <tag k="source" v="http://ump.waw.pl/ retrieved 01:42:10 11/24/09 (UMP-Warszawa/src/WARSZAWA.filtry.txt)"/>
  </way>
  <way id="44943738" version="1" timestamp="2009-11-24T02:11:29Z" uid="20587" user="balrog-kun" changeset="3201348">
    <nd ref="569878614"/>
    <nd ref="569878575"/>
    <nd ref="569878576"/>
    <nd ref="569878585"/>
    <nd ref="569878623"/>
    <nd ref="569878625"/>
    <nd ref="569878614"/>
    <tag k="building" v="industrial"/>
    <tag k="building:levels" v="1"/>
    <tag k="name" v="Filtry powolne 1"/>
    <tag k="name:en" v="Slow filters"/>
    <tag k="source" v="http://ump.waw.pl/ retrieved 01:42:10 11/24/09 (UMP-Warszawa/src/WARSZAWA.filtry.txt)"/>
  </way>
  <way id="44943739" version="1" timestamp="2009-11-24T02:11:29Z" uid="20587" user="balrog-kun" changeset="3201348">
    <nd ref="569878604"/>
    <nd ref="569878569"/>
    <nd ref="569878577"/>
    <nd ref="569878620"/>
    <nd ref="569878604"/>
    <tag k="building" v="industrial"/>
    <tag k="building:levels" v="1"/>
    <tag k="name" v="Filtry powolne"/>
    <tag k="name:en" v="Slow filters"/>
    <tag k="source" v="http://ump.waw.pl/ retrieved 01:42:10 11/24/09 (UMP-Warszawa/src/WARSZAWA.filtry.txt)"/>
  </way>
  <way id="44943740" version="1" timestamp="2009-11-24T02:11:29Z" uid="20587" user="balrog-kun" changeset="3201348">
    <nd ref="569878626"/>
    <nd ref="569878586"/>
    <nd ref="569878590"/>
    <nd ref="569878629"/>
    <nd ref="569878626"/>
    <tag k="building" v="industrial"/>
    <tag k="building:levels" v="1"/>
    <tag k="name" v="Filtry powolne"/>
    <tag k="name:en" v="Slow filters"/>
    <tag k="source" v="http://ump.waw.pl/ retrieved 01:42:10 11/24/09 (UMP-Warszawa/src/WARSZAWA.filtry.txt)"/>
  </way>
  <way id="44943742" version="1" timestamp="2009-11-24T02:11:29Z" uid="20587" user="balrog-kun" changeset="3201348">
    <nd ref="569878566"/>
    <nd ref="569878559"/>
    <nd ref="569878560"/>
    <nd ref="569878570"/>
    <nd ref="569878567"/>
    <nd ref="569878566"/>
    <tag k="building" v="industrial"/>
    <tag k="building:levels" v="1"/>
    <tag k="name" v="Osadniki wody surowej"/>
    <tag k="source" v="http://ump.waw.pl/ retrieved 01:42:10 11/24/09 (UMP-Warszawa/src/WARSZAWA.filtry.txt)"/>
  </way>
  <way id="44943743" version="1" timestamp="2009-11-24T02:11:30Z" uid="20587" user="balrog-kun" changeset="3201348">
    <nd ref="569878571"/>
    <nd ref="569878561"/>
    <nd ref="569878565"/>
    <nd ref="569878578"/>
    <nd ref="569878582"/>
    <nd ref="569878572"/>
    <nd ref="569878571"/>
    <tag k="building" v="industrial"/>
    <tag k="building:levels" v="2"/>
    <tag k="name" v="Filtry pospieszne"/>
    <tag k="name:en" v="Express filters"/>
    <tag k="source" v="http://ump.waw.pl/ retrieved 01:42:10 11/24/09 (UMP-Warszawa/src/WARSZAWA.filtry.txt)"/>
  </way>
  <way id="44943744" version="1" timestamp="2009-11-24T02:11:30Z" uid="20587" user="balrog-kun" changeset="3201348">
    <nd ref="569878568"/>
    <nd ref="569878567"/>
    <tag k="man_made" v="pipeline"/>
    <tag k="oneway" v="1"/>
    <tag k="source" v="http://ump.waw.pl/ retrieved 01:42:10 11/24/09 (UMP-Warszawa/src/WARSZAWA.filtry.txt)"/>
  </way>
  <way id="44943745" version="1" timestamp="2009-11-24T02:11:30Z" uid="20587" user="balrog-kun" changeset="3201348">
    <nd ref="569878574"/>
    <nd ref="569878573"/>
    <nd ref="569878583"/>
    <nd ref="569878584"/>
    <nd ref="569878574"/>
    <tag k="building" v="industrial"/>
    <tag k="building:levels" v="1"/>
    <tag k="name" v="Laboratorium"/>
    <tag k="source" v="http://ump.waw.pl/ retrieved 01:42:10 11/24/09 (UMP-Warszawa/src/WARSZAWA.filtry.txt)"/>
  </way>
  <way id="44943747" version="1" timestamp="2009-11-24T02:11:30Z" uid="20587" user="balrog-kun" changeset="3201348">
    <nd ref="569878572"/>
    <nd ref="569878576"/>
    <tag k="man_made" v="pipeline"/>
    <tag k="oneway" v="1"/>
    <tag k="source" v="http://ump.waw.pl/ retrieved 01:42:10 11/24/09 (UMP-Warszawa/src/WARSZAWA.filtry.txt)"/>
  </way>
  <way id="44943748" version="1" timestamp="2009-11-24T02:11:30Z" uid="20587" user="balrog-kun" changeset="3201348">
    <nd ref="569878617"/>
    <nd ref="569878616"/>
    <tag k="man_made" v="pipeline"/>
    <tag k="oneway" v="1"/>
    <tag k="source" v="http://ump.waw.pl/ retrieved 01:42:10 11/24/09 (UMP-Warszawa/src/WARSZAWA.filtry.txt)"/>
  </way>
  <way id="44943749" version="1" timestamp="2009-11-24T02:11:30Z" uid="20587" user="balrog-kun" changeset="3201348">
    <nd ref="569878625"/>
    <nd ref="569878624"/>
    <tag k="man_made" v="pipeline"/>
    <tag k="oneway" v="1"/>
    <tag k="source" v="http://ump.waw.pl/ retrieved 01:42:10 11/24/09 (UMP-Warszawa/src/WARSZAWA.filtry.txt)"/>
  </way>
  <way id="44943750" version="1" timestamp="2009-11-24T02:11:30Z" uid="20587" user="balrog-kun" changeset="3201348">
    <nd ref="569878622"/>
    <nd ref="569878617"/>
    <nd ref="569878618"/>
    <nd ref="569878624"/>
    <nd ref="569878627"/>
    <nd ref="569878630"/>
    <nd ref="569878622"/>
    <tag k="building" v="industrial"/>
    <tag k="building:levels" v="1"/>
    <tag k="name" v="Zbiorniki wody czystej"/>
    <tag k="name:en" v="Clean water containers"/>
    <tag k="source" v="http://ump.waw.pl/ retrieved 01:42:10 11/24/09 (UMP-Warszawa/src/WARSZAWA.filtry.txt)"/>
  </way>
  <way id="44943751" version="1" timestamp="2009-11-24T02:11:30Z" uid="20587" user="balrog-kun" changeset="3201348">
    <nd ref="569878610"/>
    <nd ref="569878602"/>
    <nd ref="569878603"/>
    <nd ref="569878601"/>
    <nd ref="569878619"/>
    <nd ref="569878616"/>
    <nd ref="569878621"/>
    <nd ref="569878608"/>
    <nd ref="569878609"/>
    <nd ref="569878605"/>
    <nd ref="569878610"/>
    <tag k="building" v="industrial"/>
    <tag k="building:levels" v="2"/>
    <tag k="name" v="Pompy"/>
    <tag k="name:en" v="Pumps"/>
    <tag k="source" v="http://ump.waw.pl/ retrieved 01:42:10 11/24/09 (UMP-Warszawa/src/WARSZAWA.filtry.txt)"/>
  </way>
  <way id="44943753" version="1" timestamp="2009-11-24T02:11:31Z" uid="20587" user="balrog-kun" changeset="3201348">
    <nd ref="569878605"/>
    <nd ref="569878606"/>
    <nd ref="569878607"/>
    <tag k="man_made" v="pipeline"/>
    <tag k="note" v="jedno z wyjsc"/>
    <tag k="oneway" v="1"/>
    <tag k="source" v="http://ump.waw.pl/ retrieved 01:42:10 11/24/09 (UMP-Warszawa/src/WARSZAWA.filtry.txt)"/>
  </way>
</osm>
