<?xml version='1.0' encoding='UTF-8'?>
<osm version="0.6" generator="libosmium/2.20.0">
  <way id="4498107" version="10" timestamp="2008-07-05T14:15:42Z" uid="6975" user="ulfl" changeset="398437">
    <nd ref="27587221"/>
    <nd ref="27587220"/>
    <nd ref="27587219"/>
    <nd ref="27587218"/>
    <nd ref="27587217"/>
    <nd ref="27587216"/>
    <nd ref="27587215"/>
    <nd ref="27587214"/>
    <nd ref="27587213"/>
    <nd ref="27587211"/>
    <nd ref="27587210"/>
    <nd ref="27587209"/>
    <nd ref="27587208"/>
    <nd ref="27587207"/>
    <nd ref="27587206"/>
    <nd ref="27587205"/>
    <nd ref="27587204"/>
    <nd ref="275387367"/>
    <nd ref="27587203"/>
    <nd ref="27587200"/>
    <nd ref="27587199"/>
    <nd ref="242396945"/>
    <nd ref="27587198"/>
    <nd ref="242396946"/>
    <nd ref="242396947"/>
    <nd ref="242396948"/>
    <nd ref="27595004"/>
    <nd ref="242396949"/>
    <nd ref="242396950"/>
    <nd ref="27587197"/>
    <nd ref="27587196"/>
    <nd ref="133012785"/>
    <nd ref="27587195"/>
    <nd ref="242396951"/>
    <nd ref="27587194"/>
    <nd ref="27587193"/>
    <nd ref="27587192"/>
    <nd ref="197540706"/>
    <nd ref="27587191"/>
    <nd ref="27587190"/>
    <nd ref="27587189"/>
    <nd ref="27587187"/>
    <nd ref="27587186"/>
    <nd ref="27587185"/>
    <nd ref="27587184"/>
    <nd ref="27587183"/>
    <nd ref="27587182"/>
    <nd ref="27587181"/>
    <nd ref="27587180"/>
    <nd ref="248545521"/>
    <nd ref="248545523"/>
    <nd ref="27587179"/>
    <nd ref="27587178"/>
    <nd ref="27587176"/>
    <nd ref="248545522"/>
    <nd ref="265782604"/>
    <nd ref="27587175"/>
    <nd ref="248545520"/>
    <nd ref="248545518"/>
    <nd ref="27587174"/>
    <nd ref="248545519"/>
    <nd ref="27587173"/>
    <nd ref="27587172"/>
    <nd ref="27587171"/>
    <nd ref="27587170"/>
    <nd ref="33081309"/>
    <nd ref="197540664"/>
    <nd ref="27587169"/>
    <nd ref="27587167"/>
    <nd ref="27587229"/>
    <nd ref="27595064"/>
    <nd ref="33081299"/>
    <nd ref="33081300"/>
    <nd ref="33081310"/>
    <nd ref="27587228"/>
    <nd ref="33081311"/>
    <nd ref="33081312"/>
    <nd ref="33081313"/>
    <nd ref="33081315"/>
    <nd ref="27587227"/>
    <nd ref="33081317"/>
    <nd ref="27595047"/>
    <nd ref="27587226"/>
    <nd ref="33081318"/>
    <nd ref="27587224"/>
    <nd ref="27595017"/>
    <nd ref="27587223"/>
    <nd ref="27587222"/>
    <nd ref="27587221"/>
    <tag k="leisure" v="park"/>
    <tag k="name" v="Hampstead Heath"/>
    <tag k="natural" v="heath"/>
  </way>
  <way id="4498195" version="18" timestamp="2009-07-26T08:39:42Z" uid="49111" user="Markus B" changeset="1942025">
    <nd ref="27587924"/>
    <nd ref="448142285"/>
    <nd ref="448142286"/>
    <nd ref="448142308"/>
    <nd ref="448142310"/>
    <nd ref="448142287"/>
    <nd ref="448142288"/>
    <nd ref="448142289"/>
    <nd ref="448142333"/>
    <nd ref="318916970"/>
    <nd ref="280128561"/>
    <nd ref="268496272"/>
    <nd ref="268496270"/>
    <nd ref="268496269"/>
    <nd ref="268496267"/>
    <nd ref="268496266"/>
    <nd ref="268496271"/>
    <nd ref="268496265"/>
    <nd ref="268496264"/>
    <nd ref="268496263"/>
    <nd ref="301136828"/>
    <nd ref="27587920"/>
    <nd ref="357504477"/>
    <nd ref="357503853"/>
    <nd ref="357503775"/>
    <nd ref="357503440"/>
    <nd ref="27587921"/>
    <nd ref="27587922"/>
    <nd ref="29384169"/>
    <nd ref="29384231"/>
    <nd ref="331180244"/>
    <nd ref="27587923"/>
    <nd ref="27587925"/>
    <nd ref="27587924"/>
    <tag k="name" v="Limmat"/>
    <tag k="natural" v="water"/>
    <tag k="waterway" v="riverbank"/>
  </way>
  <way id="4498195" version="19" timestamp="2009-07-26T08:52:32Z" uid="49111" user="Markus B" changeset="1942133">
    <nd ref="27587924"/>
    <nd ref="448145058"/>
    <nd ref="448142285"/>
    <nd ref="448142286"/>
    <nd ref="448142308"/>
    <nd ref="448142310"/>
    <nd ref="448142287"/>
    <nd ref="448142288"/>
    <nd ref="448142289"/>
    <nd ref="448142333"/>
    <nd ref="448145063"/>
    <nd ref="280128561"/>
    <nd ref="268496272"/>
    <nd ref="268496270"/>
    <nd ref="268496269"/>
    <nd ref="268496267"/>
    <nd ref="268496266"/>
    <nd ref="268496271"/>
    <nd ref="268496265"/>
    <nd ref="268496264"/>
    <nd ref="268496263"/>
    <nd ref="301136828"/>
    <nd ref="27587920"/>
    <nd ref="357504477"/>
    <nd ref="357503853"/>
    <nd ref="357503775"/>
    <nd ref="357503440"/>
    <nd ref="27587921"/>
    <nd ref="27587922"/>
    <nd ref="29384169"/>
    <nd ref="29384231"/>
    <nd ref="331180244"/>
    <nd ref="27587923"/>
    <nd ref="27587925"/>
    <nd ref="27587924"/>
    <tag k="name" v="Limmat"/>
    <tag k="natural" v="water"/>
    <tag k="waterway" v="riverbank"/>
  </way>
  <way id="4498552" version="1" timestamp="2007-04-24T17:56:37Z" uid="5871" user="Banny" changeset="24429">
    <nd ref="27590897"/>
    <nd ref="27590896"/>
    <nd ref="28114659"/>
    <nd ref="27590895"/>
    <nd ref="25704701"/>
    <tag k="created_by" v="JOSM"/>
    <tag k="highway" v="service"/>
    <tag k="name" v="Flehbachmühlenweg"/>
  </way>
  <way id="4498576" version="1" timestamp="2007-08-05T08:37:34Z" uid="5871" user="Banny" changeset="190372">
    <nd ref="27590956"/>
    <nd ref="27537676"/>
    <nd ref="27537677"/>
    <nd ref="32563737"/>
    <nd ref="33541128"/>
    <nd ref="27537678"/>
    <nd ref="27537679"/>
    <nd ref="27537680"/>
    <nd ref="27537681"/>
    <nd ref="27537683"/>
    <nd ref="27537682"/>
    <nd ref="27537684"/>
    <nd ref="28901059"/>
    <tag k="created_by" v="JOSM"/>
    <tag k="highway" v="secondary"/>
    <tag k="name" v="Rather Mauspfad"/>
  </way>
  <way id="4498576" version="2" timestamp="2007-10-07T19:13:48Z" uid="5871" user="Banny" changeset="54896">
    <nd ref="27590956"/>
    <nd ref="27537676"/>
    <nd ref="27537677"/>
    <nd ref="32563737"/>
    <nd ref="33541128"/>
    <nd ref="27537678"/>
    <nd ref="27537679"/>
    <nd ref="27537680"/>
    <nd ref="27537681"/>
    <nd ref="27537683"/>
    <nd ref="27537682"/>
    <nd ref="27537684"/>
    <nd ref="28901059"/>
    <tag k="created_by" v="JOSM"/>
    <tag k="highway" v="secondary"/>
    <tag k="name" v="Rather Mauspfad"/>
    <tag k="reg_ref" v="L73"/>
  </way>
  <way id="4498576" version="4" timestamp="2008-04-19T13:44:15Z" uid="16579" user="bjk" changeset="186334">
    <nd ref="27590956"/>
    <nd ref="27537676"/>
    <nd ref="27537677"/>
    <nd ref="32563737"/>
    <nd ref="33541128"/>
    <nd ref="27537678"/>
    <nd ref="27537679"/>
    <nd ref="27537680"/>
    <nd ref="27537681"/>
    <nd ref="27537683"/>
    <nd ref="27537682"/>
    <nd ref="258552662"/>
    <nd ref="27537684"/>
    <nd ref="28901059"/>
    <tag k="created_by" v="fixbot"/>
    <tag k="highway" v="secondary"/>
    <tag k="name" v="Rather Mauspfad"/>
    <tag k="ref" v="L73"/>
  </way>
  <way id="4498576" version="5" timestamp="2008-04-19T14:28:36Z" uid="16579" user="bjk" changeset="186334">
    <nd ref="27590956"/>
    <nd ref="27537676"/>
    <nd ref="27537677"/>
    <nd ref="32563737"/>
    <nd ref="258570055"/>
    <nd ref="33541128"/>
    <nd ref="27537678"/>
    <nd ref="27537679"/>
    <nd ref="27537680"/>
    <nd ref="27537681"/>
    <nd ref="27537683"/>
    <nd ref="27537682"/>
    <nd ref="258552662"/>
    <nd ref="27537684"/>
    <nd ref="28901059"/>
    <tag k="created_by" v="fixbot"/>
    <tag k="highway" v="secondary"/>
    <tag k="name" v="Rather Mauspfad"/>
    <tag k="ref" v="L73"/>
  </way>
  <way id="4498576" version="6" timestamp="2008-04-19T15:13:29Z" uid="16579" user="bjk" changeset="186334">
    <nd ref="27590956"/>
    <nd ref="27537676"/>
    <nd ref="27537677"/>
    <nd ref="32563737"/>
    <nd ref="258570055"/>
    <nd ref="33541128"/>
    <nd ref="27537678"/>
    <nd ref="258577514"/>
    <nd ref="27537679"/>
    <nd ref="27537680"/>
    <nd ref="27537681"/>
    <nd ref="27537683"/>
    <nd ref="27537682"/>
    <nd ref="258552662"/>
    <nd ref="27537684"/>
    <nd ref="28901059"/>
    <tag k="created_by" v="fixbot"/>
    <tag k="highway" v="secondary"/>
    <tag k="name" v="Rather Mauspfad"/>
    <tag k="ref" v="L73"/>
  </way>
  <way id="4498576" version="7" timestamp="2008-04-19T16:29:41Z" uid="16579" user="bjk" changeset="192149">
    <nd ref="27590956"/>
    <nd ref="27537676"/>
    <nd ref="27537677"/>
    <nd ref="258594688"/>
    <nd ref="32563737"/>
    <nd ref="258570055"/>
    <nd ref="33541128"/>
    <nd ref="27537678"/>
    <nd ref="258577514"/>
    <nd ref="27537679"/>
    <nd ref="27537680"/>
    <nd ref="27537681"/>
    <nd ref="27537683"/>
    <nd ref="258594693"/>
    <nd ref="27537682"/>
    <nd ref="258552662"/>
    <nd ref="258594694"/>
    <nd ref="27537684"/>
    <nd ref="28901059"/>
    <tag k="created_by" v="fixbot"/>
    <tag k="highway" v="secondary"/>
    <tag k="name" v="Rather Mauspfad"/>
    <tag k="ref" v="L73"/>
  </way>
  <way id="4498576" version="8" timestamp="2008-04-19T17:26:07Z" uid="16579" user="bjk" changeset="192149">
    <nd ref="27590956"/>
    <nd ref="27537676"/>
    <nd ref="27537677"/>
    <nd ref="258594688"/>
    <nd ref="32563737"/>
    <nd ref="258570055"/>
    <nd ref="33541128"/>
    <nd ref="27537678"/>
    <nd ref="258577514"/>
    <nd ref="27537679"/>
    <nd ref="27537680"/>
    <nd ref="27537681"/>
    <nd ref="27537683"/>
    <nd ref="258594693"/>
    <nd ref="27537682"/>
    <nd ref="258552662"/>
    <nd ref="258594694"/>
    <nd ref="258604885"/>
    <nd ref="27537684"/>
    <nd ref="28901059"/>
    <tag k="created_by" v="fixbot"/>
    <tag k="highway" v="secondary"/>
    <tag k="name" v="Rather Mauspfad"/>
    <tag k="ref" v="L73"/>
  </way>
  <way id="4498582" version="1" timestamp="2007-04-24T18:06:06Z" uid="5871" user="Banny" changeset="24429">
    <nd ref="27537679"/>
    <nd ref="27537685"/>
    <tag k="created_by" v="JOSM"/>
    <tag k="highway" v="residential"/>
    <tag k="name" v="Baldurstraße"/>
  </way>
  <way id="4498584" version="1" timestamp="2007-04-24T18:06:27Z" uid="5871" user="Banny" changeset="24429">
    <nd ref="27537685"/>
    <nd ref="27537686"/>
    <nd ref="27537690"/>
    <tag k="created_by" v="JOSM"/>
    <tag k="highway" v="residential"/>
    <tag k="name" v="Baldurstraße"/>
    <tag k="oneway" v="true"/>
  </way>
  <way id="4498586" version="1" timestamp="2007-04-24T18:06:46Z" uid="5871" user="Banny" changeset="24429">
    <nd ref="27537688"/>
    <nd ref="27537687"/>
    <nd ref="27537685"/>
    <tag k="created_by" v="JOSM"/>
    <tag k="highway" v="residential"/>
    <tag k="name" v="Baldurstraße"/>
    <tag k="oneway" v="true"/>
  </way>
  <way id="4498600" version="2" timestamp="2008-04-19T16:29:42Z" uid="16579" user="bjk" changeset="192149">
    <nd ref="27537689"/>
    <nd ref="29384852"/>
    <nd ref="258594699"/>
    <nd ref="27537691"/>
    <nd ref="27537692"/>
    <tag k="created_by" v="JOSM"/>
    <tag k="highway" v="residential"/>
    <tag k="name" v="Baldurstraße"/>
  </way>
  <way id="4498600" version="3" timestamp="2008-04-20T22:02:43Z" uid="16579" user="bjk" changeset="216014">
    <nd ref="27537689"/>
    <nd ref="29384852"/>
    <nd ref="258594699"/>
    <nd ref="27537691"/>
    <nd ref="27537692"/>
    <nd ref="258942290"/>
    <tag k="created_by" v="JOSM"/>
    <tag k="highway" v="residential"/>
    <tag k="name" v="Baldurstraße"/>
  </way>
  <way id="4498603" version="1" timestamp="2007-04-24T18:08:40Z" uid="5871" user="Banny" changeset="24429">
    <nd ref="27537690"/>
    <nd ref="27537688"/>
    <nd ref="27537689"/>
    <tag k="created_by" v="JOSM"/>
    <tag k="highway" v="residential"/>
    <tag k="name" v="Wodanstraße"/>
  </way>
  <way id="4498603" version="2" timestamp="2008-04-19T16:29:43Z" uid="16579" user="bjk" changeset="192149"/>
  <way id="4498614" version="1" timestamp="2007-09-26T07:56:23Z" uid="5871" user="Banny" changeset="519343">
    <nd ref="25704762"/>
    <nd ref="25728803"/>
    <nd ref="25728807"/>
    <nd ref="26691072"/>
    <nd ref="26691073"/>
    <tag k="created_by" v="JOSM"/>
    <tag k="highway" v="secondary"/>
    <tag k="loc_ref" v="K27"/>
    <tag k="name" v="Neufeldweg"/>
  </way>
  <way id="4498614" version="2" timestamp="2008-09-30T13:00:40Z" uid="5871" user="Banny" changeset="721896">
    <nd ref="25704762"/>
    <nd ref="25728803"/>
    <nd ref="25728807"/>
    <nd ref="26691072"/>
    <nd ref="301134299"/>
    <nd ref="26691073"/>
    <tag k="created_by" v="JOSM"/>
    <tag k="highway" v="secondary"/>
    <tag k="loc_ref" v="K27"/>
    <tag k="name" v="Neufeldweg"/>
  </way>
  <way id="4498614" version="3" timestamp="2008-10-24T08:30:57Z" uid="5871" user="Banny" changeset="551266">
    <nd ref="25704762"/>
    <nd ref="25728803"/>
    <nd ref="25728807"/>
    <nd ref="26691072"/>
    <nd ref="301134299"/>
    <nd ref="26691073"/>
    <tag k="created_by" v="JOSM"/>
    <tag k="highway" v="secondary"/>
    <tag k="name" v="Neufeldweg"/>
    <tag k="ref" v="K27"/>
  </way>
  <way id="4498614" version="5" timestamp="2008-12-19T17:02:13Z" uid="5871" user="Banny" changeset="476579">
    <nd ref="25704762"/>
    <nd ref="25728803"/>
    <nd ref="25728807"/>
    <nd ref="26691072"/>
    <nd ref="317358055"/>
    <nd ref="301134299"/>
    <nd ref="26691073"/>
    <tag k="created_by" v="JOSM"/>
    <tag k="highway" v="secondary"/>
    <tag k="name" v="Neufeldweg"/>
    <tag k="ref" v="K 27"/>
  </way>
  <way id="4498710" version="1" timestamp="2007-07-17T20:35:20Z" uid="6975" user="ulfl" changeset="150180">
    <nd ref="26910892"/>
    <nd ref="27796509"/>
    <nd ref="27796510"/>
    <nd ref="27591549"/>
    <nd ref="27591546"/>
    <nd ref="27591547"/>
    <nd ref="27591548"/>
    <nd ref="32164845"/>
    <nd ref="27087031"/>
    <tag k="created_by" v="JOSM"/>
    <tag k="highway" v="primary"/>
    <tag k="name" v="Hainstraße"/>
    <tag k="oneway" v="true"/>
  </way>
  <way id="4498770" version="1" timestamp="2007-04-24T18:25:13Z" uid="6975" user="ulfl" changeset="24517">
    <nd ref="27591699"/>
    <nd ref="27536831"/>
    <tag k="created_by" v="JOSM"/>
    <tag k="highway" v="residential"/>
    <tag k="name" v="Endterstraße"/>
    <tag k="oneway" v="true"/>
  </way>
  <way id="4498770" version="3" timestamp="2008-11-16T14:58:13Z" uid="6975" user="ulfl" changeset="755381">
    <nd ref="27591699"/>
    <nd ref="27536831"/>
    <tag k="created_by" v="JOSM"/>
    <tag k="cycleway" v="opposite"/>
    <tag k="highway" v="residential"/>
    <tag k="maxspeed" v="30"/>
    <tag k="name" v="Endterstraße"/>
    <tag k="oneway" v="yes"/>
  </way>
  <way id="4498771" version="1" timestamp="2007-04-24T18:26:54Z" uid="6975" user="ulfl" changeset="24517">
    <nd ref="27536789"/>
    <nd ref="27591700"/>
    <tag k="created_by" v="JOSM"/>
    <tag k="highway" v="residential"/>
    <tag k="name" v="Celtisplatz"/>
  </way>
  <way id="4498793" version="1" timestamp="2007-04-24T18:29:21Z" uid="6975" user="ulfl" changeset="24517">
    <nd ref="27322880"/>
    <nd ref="27591529"/>
    <nd ref="27591530"/>
    <tag k="created_by" v="JOSM"/>
    <tag k="highway" v="residential"/>
    <tag k="name" v="Vordere Bleiweißstraße"/>
  </way>
  <way id="4498801" version="1" timestamp="2007-04-24T18:30:37Z" uid="6975" user="ulfl" changeset="24517">
    <nd ref="27591529"/>
    <nd ref="27591537"/>
    <tag k="created_by" v="JOSM"/>
    <tag k="highway" v="residential"/>
    <tag k="name" v="Irenenstraße"/>
  </way>
  <way id="4498801" version="6" timestamp="2008-06-26T22:19:51Z" uid="6975" user="ulfl" changeset="308273">
    <nd ref="27591529"/>
    <nd ref="272048882"/>
    <nd ref="27591537"/>
    <tag k="created_by" v="JOSM"/>
    <tag k="highway" v="residential"/>
    <tag k="maxspeed" v="30"/>
    <tag k="name" v="Irenenstraße"/>
  </way>
  <way id="4498802" version="1" timestamp="2007-04-24T18:30:38Z" uid="6975" user="ulfl" changeset="24517">
    <nd ref="27591537"/>
    <nd ref="27591082"/>
    <tag k="created_by" v="JOSM"/>
    <tag k="highway" v="residential"/>
    <tag k="name" v="Augustenstraße"/>
  </way>
  <way id="4498807" version="1" timestamp="2007-04-24T18:32:12Z" uid="6975" user="ulfl" changeset="24517">
    <nd ref="27591550"/>
    <nd ref="27591551"/>
    <tag k="created_by" v="JOSM"/>
    <tag k="highway" v="residential"/>
    <tag k="name" v="Sybelstraße"/>
  </way>
  <way id="4498811" version="1" timestamp="2007-04-24T18:34:42Z" uid="6975" user="ulfl" changeset="24517">
    <nd ref="27591117"/>
    <nd ref="27591679"/>
    <nd ref="27591680"/>
    <tag k="created_by" v="JOSM"/>
    <tag k="highway" v="residential"/>
    <tag k="name" v="Friggastraße"/>
  </way>
  <way id="4498812" version="1" timestamp="2007-04-24T18:35:56Z" uid="6975" user="ulfl" changeset="24517">
    <nd ref="27591683"/>
    <nd ref="27591685"/>
    <nd ref="27591684"/>
    <nd ref="27560156"/>
    <tag k="created_by" v="JOSM"/>
    <tag k="highway" v="residential"/>
    <tag k="name" v="Nibelungenplatz"/>
  </way>
  <way id="4498814" version="1" timestamp="2007-04-24T18:37:33Z" uid="6975" user="ulfl" changeset="24517">
    <nd ref="27591099"/>
    <nd ref="27591101"/>
    <tag k="created_by" v="JOSM"/>
    <tag k="highway" v="residential"/>
    <tag k="name" v="Hagenstraße"/>
  </way>
  <way id="4498815" version="1" timestamp="2007-04-24T18:38:13Z" uid="6975" user="ulfl" changeset="24517">
    <nd ref="27591094"/>
    <nd ref="27591096"/>
    <tag k="created_by" v="JOSM"/>
    <tag k="highway" v="residential"/>
    <tag k="name" v="Freyjastraße"/>
  </way>
  <way id="4498831" version="1" timestamp="2007-04-24T18:40:52Z" uid="6975" user="ulfl" changeset="24517">
    <nd ref="27591086"/>
    <nd ref="27591535"/>
    <tag k="created_by" v="JOSM"/>
    <tag k="highway" v="residential"/>
    <tag k="name" v="Grenzstraße"/>
    <tag k="oneway" v="true"/>
  </way>
  <way id="4498831" version="6" timestamp="2008-06-26T22:19:52Z" uid="6975" user="ulfl" changeset="308273">
    <nd ref="27591086"/>
    <nd ref="272048869"/>
    <nd ref="272048867"/>
    <nd ref="27591535"/>
    <tag k="created_by" v="JOSM"/>
    <tag k="cycleway" v="opposite"/>
    <tag k="highway" v="residential"/>
    <tag k="name" v="Grenzstraße"/>
    <tag k="oneway" v="true"/>
  </way>
  <way id="4498832" version="1" timestamp="2007-04-24T18:40:52Z" uid="6975" user="ulfl" changeset="24517">
    <nd ref="27558484"/>
    <nd ref="27558483"/>
    <nd ref="27558476"/>
    <nd ref="27591107"/>
    <tag k="created_by" v="JOSM"/>
    <tag k="highway" v="residential"/>
    <tag k="name" v="Brunhildstraße"/>
  </way>
  <way id="4498833" version="1" timestamp="2007-04-24T18:41:37Z" uid="6975" user="ulfl" changeset="24517">
    <nd ref="27591089"/>
    <nd ref="27591544"/>
    <nd ref="27591104"/>
    <tag k="created_by" v="JOSM"/>
    <tag k="highway" v="residential"/>
    <tag k="name" v="Kriemhildstraße"/>
  </way>
  <way id="4498841" version="1" timestamp="2007-04-24T18:42:18Z" uid="6975" user="ulfl" changeset="24517">
    <nd ref="27591092"/>
    <nd ref="27560201"/>
    <tag k="created_by" v="JOSM"/>
    <tag k="highway" v="residential"/>
    <tag k="name" v="Siglindenstraße"/>
  </way>
  <way id="4498850" version="1" timestamp="2007-04-24T18:44:09Z" uid="6975" user="ulfl" changeset="24517">
    <nd ref="27591535"/>
    <nd ref="27591536"/>
    <nd ref="26897906"/>
    <tag k="created_by" v="JOSM"/>
    <tag k="highway" v="residential"/>
    <tag k="name" v="Wilhelminenstraße"/>
    <tag k="oneway" v="true"/>
  </way>
  <way id="4498850" version="7" timestamp="2008-06-26T22:16:10Z" uid="6975" user="ulfl" changeset="308273">
    <nd ref="27591535"/>
    <nd ref="272048860"/>
    <nd ref="27591536"/>
    <nd ref="26897906"/>
    <tag k="created_by" v="JOSM"/>
    <tag k="cycleway" v="opposite"/>
    <tag k="highway" v="residential"/>
    <tag k="maxspeed" v="30"/>
    <tag k="name" v="Wilhelminenstraße"/>
    <tag k="oneway" v="true"/>
  </way>
  <way id="4498875" version="1" timestamp="2007-04-24T18:48:15Z" uid="6975" user="ulfl" changeset="24517">
    <nd ref="27591083"/>
    <nd ref="27591533"/>
    <tag k="created_by" v="JOSM"/>
    <tag k="highway" v="residential"/>
    <tag k="name" v="Augustenstraße"/>
    <tag k="oneway" v="true"/>
  </way>
  <way id="4498875" version="7" timestamp="2008-06-26T22:16:09Z" uid="6975" user="ulfl" changeset="308273">
    <nd ref="27591083"/>
    <nd ref="272048861"/>
    <nd ref="27591533"/>
    <tag k="created_by" v="JOSM"/>
    <tag k="cycleway" v="opposite"/>
    <tag k="highway" v="residential"/>
    <tag k="maxspeed" v="30"/>
    <tag k="name" v="Augustenstraße"/>
    <tag k="oneway" v="true"/>
  </way>
  <way id="4498876" version="1" timestamp="2007-04-24T18:49:00Z" uid="6975" user="ulfl" changeset="24517">
    <nd ref="27591533"/>
    <nd ref="27591532"/>
    <tag k="created_by" v="JOSM"/>
    <tag k="highway" v="residential"/>
    <tag k="name" v="Grenzstraße"/>
    <tag k="oneway" v="true"/>
  </way>
  <way id="4498876" version="6" timestamp="2008-06-26T22:19:52Z" uid="6975" user="ulfl" changeset="308273">
    <nd ref="27591533"/>
    <nd ref="272048865"/>
    <nd ref="27591532"/>
    <tag k="created_by" v="JOSM"/>
    <tag k="cycleway" v="opposite"/>
    <tag k="highway" v="residential"/>
    <tag k="maxspeed" v="30"/>
    <tag k="name" v="Grenzstraße"/>
    <tag k="oneway" v="true"/>
  </way>
  <way id="4498884" version="1" timestamp="2007-04-24T18:50:47Z" uid="6975" user="ulfl" changeset="24517">
    <nd ref="27591532"/>
    <nd ref="27591531"/>
    <tag k="created_by" v="JOSM"/>
    <tag k="highway" v="residential"/>
    <tag k="name" v="Ottilienstraße"/>
  </way>
  <way id="4498894" version="1" timestamp="2007-04-24T18:52:02Z" uid="6975" user="ulfl" changeset="24517">
    <nd ref="27591686"/>
    <nd ref="27591109"/>
    <tag k="created_by" v="JOSM"/>
    <tag k="highway" v="residential"/>
    <tag k="name" v="Erdastraße"/>
  </way>
  <way id="4498897" version="1" timestamp="2007-04-24T18:54:00Z" uid="6975" user="ulfl" changeset="24517">
    <nd ref="27591547"/>
    <nd ref="27591545"/>
    <tag k="created_by" v="JOSM"/>
    <tag k="highway" v="residential"/>
    <tag k="name" v="Baaderstraße"/>
  </way>
  <way id="4498907" version="1" timestamp="2007-04-24T18:54:45Z" uid="6975" user="ulfl" changeset="24517">
    <nd ref="27796510"/>
    <nd ref="27591682"/>
    <nd ref="27591681"/>
    <nd ref="27591545"/>
    <nd ref="27591115"/>
    <tag k="created_by" v="JOSM"/>
    <tag k="highway" v="residential"/>
    <tag k="name" v="Hallerhüttenstraße"/>
  </way>
  <way id="4498953" version="1" timestamp="2007-04-24T18:59:33Z" uid="6975" user="ulfl" changeset="24517">
    <nd ref="27591112"/>
    <nd ref="27591686"/>
    <nd ref="27591115"/>
    <tag k="created_by" v="JOSM"/>
    <tag k="highway" v="residential"/>
    <tag k="name" v="Rankestraße"/>
  </way>
  <way id="4498973" version="5" timestamp="2011-03-27T17:12:54Z" uid="9581" user="Lobelt" changeset="7688520">
    <nd ref="252598562"/>
    <nd ref="270991778"/>
    <nd ref="27592887"/>
    <nd ref="27592891"/>
    <nd ref="265099306"/>
    <nd ref="27592896"/>
    <nd ref="27560408"/>
    <nd ref="1221874645"/>
    <tag k="highway" v="secondary"/>
    <tag k="ref" v="K 5"/>
  </way>
  <way id="4498987" version="1" timestamp="2007-04-24T19:05:02Z" uid="6975" user="ulfl" changeset="24517">
    <nd ref="27592749"/>
    <nd ref="27592761"/>
    <nd ref="27592767"/>
    <nd ref="27592772"/>
    <tag k="created_by" v="JOSM"/>
    <tag k="highway" v="unclassified"/>
    <tag k="name" v="Münchener Straße"/>
    <tag k="oneway" v="true"/>
  </way>
</osm>
