<?xml version='1.0' encoding='UTF-8'?>
<osm version="0.6" generator="libosmium/2.20.0">
  <way id="45026601" version="3" timestamp="2010-05-03T11:03:38Z" uid="242497" user="cvl" changeset="4593692">
    <nd ref="570966946"/>
    <nd ref="570966963"/>
    <nd ref="31337965"/>
    <tag k="highway" v="residential"/>
    <tag k="name" v="Forest Street"/>
    <tag k="oneway" v="yes"/>
    <tag k="source" v="NearMap"/>
  </way>
  <way id="45026601" version="4" timestamp="2010-07-09T21:02:07Z" uid="74617" user="JohnSmith" changeset="5176956">
    <nd ref="570966946"/>
    <nd ref="570966963"/>
    <nd ref="31337965"/>
    <tag k="highway" v="residential"/>
    <tag k="maxspeed" v="50"/>
    <tag k="maxspeed:source" v="default residential speed limit in Australia"/>
    <tag k="name" v="Forest Street"/>
    <tag k="oneway" v="yes"/>
    <tag k="source" v="NearMap"/>
  </way>
  <way id="45026601" version="6" timestamp="2011-01-19T01:55:03Z" uid="4467" user="Rosscoe" changeset="7016708">
    <nd ref="570966946"/>
    <nd ref="570966963"/>
    <tag k="highway" v="residential"/>
    <tag k="maxspeed" v="50"/>
    <tag k="maxspeed:source" v="default residential speed limit in Australia"/>
    <tag k="name" v="Forrest Street"/>
    <tag k="oneway" v="yes"/>
    <tag k="source" v="survey"/>
  </way>
  <way id="45026609" version="3" timestamp="2010-04-03T13:57:28Z" uid="20587" user="balrog-kun" changeset="4312927">
    <nd ref="570967826"/>
    <nd ref="570967823"/>
    <nd ref="570967820"/>
    <nd ref="570967800"/>
    <nd ref="570967782"/>
    <nd ref="570967795"/>
    <nd ref="570967792"/>
    <nd ref="570967788"/>
    <nd ref="570967730"/>
    <nd ref="570967717"/>
    <nd ref="570967719"/>
    <nd ref="570967723"/>
    <nd ref="570967726"/>
    <tag k="highway" v="residential"/>
    <tag k="lanes" v="2"/>
    <tag k="name" v="5300 West"/>
  </way>
  <way id="45026611" version="2" timestamp="2010-04-03T13:57:28Z" uid="20587" user="balrog-kun" changeset="4312927">
    <nd ref="570968647"/>
    <nd ref="570968733"/>
    <nd ref="570968726"/>
    <nd ref="570968729"/>
    <nd ref="570968681"/>
    <nd ref="570968684"/>
    <nd ref="570968686"/>
    <nd ref="570968661"/>
    <nd ref="570968664"/>
    <nd ref="570968652"/>
    <nd ref="570968655"/>
    <nd ref="570968658"/>
    <nd ref="570968712"/>
    <nd ref="570968710"/>
    <nd ref="570968719"/>
    <nd ref="570968716"/>
    <nd ref="570968703"/>
    <nd ref="570968707"/>
    <nd ref="570968696"/>
    <nd ref="570968701"/>
    <nd ref="570968689"/>
    <nd ref="570968692"/>
    <nd ref="570968616"/>
    <tag k="highway" v="residential"/>
    <tag k="lanes" v="2"/>
    <tag k="name" v="Flora-Tec Road"/>
  </way>
  <way id="45026621" version="3" timestamp="2010-04-03T13:57:28Z" uid="20587" user="balrog-kun" changeset="4312927">
    <nd ref="570967372"/>
    <nd ref="570967346"/>
    <nd ref="570967293"/>
    <nd ref="570967290"/>
    <nd ref="570967287"/>
    <nd ref="570967053"/>
    <nd ref="570967050"/>
    <nd ref="570967025"/>
    <nd ref="570967027"/>
    <nd ref="570967031"/>
    <nd ref="570967039"/>
    <nd ref="570967035"/>
    <nd ref="570967045"/>
    <nd ref="570967041"/>
    <nd ref="570966665"/>
    <nd ref="570966662"/>
    <nd ref="570966668"/>
    <nd ref="570966417"/>
    <nd ref="570966420"/>
    <nd ref="570966411"/>
    <nd ref="569904076"/>
    <tag k="highway" v="secondary"/>
    <tag k="lanes" v="2"/>
    <tag k="name" v="Sand Hollow Road"/>
  </way>
  <way id="45026626" version="2" timestamp="2010-04-03T13:57:28Z" uid="20587" user="balrog-kun" changeset="4312927">
    <nd ref="570966876"/>
    <nd ref="570966925"/>
    <tag k="highway" v="residential"/>
    <tag k="lanes" v="2"/>
    <tag k="name" v="2740 South"/>
  </way>
  <way id="45026627" version="2" timestamp="2010-04-03T13:57:28Z" uid="20587" user="balrog-kun" changeset="4312927">
    <nd ref="570967281"/>
    <nd ref="570967196"/>
    <nd ref="570967193"/>
    <nd ref="570967192"/>
    <nd ref="570967213"/>
    <nd ref="570967211"/>
    <nd ref="570967208"/>
    <nd ref="570966927"/>
    <tag k="highway" v="residential"/>
    <tag k="lanes" v="2"/>
    <tag k="name" v="Wilson Drive"/>
  </way>
  <way id="45026628" version="2" timestamp="2010-04-03T13:57:29Z" uid="20587" user="balrog-kun" changeset="4312927">
    <nd ref="570967284"/>
    <nd ref="570966931"/>
    <tag k="highway" v="residential"/>
    <tag k="lanes" v="2"/>
    <tag k="name" v="4010 West"/>
  </way>
  <way id="45026629" version="2" timestamp="2010-04-03T13:57:29Z" uid="20587" user="balrog-kun" changeset="4312927">
    <nd ref="570966879"/>
    <nd ref="570966934"/>
    <tag k="highway" v="residential"/>
    <tag k="lanes" v="2"/>
    <tag k="name" v="2780 South"/>
  </way>
  <way id="45026630" version="3" timestamp="2010-04-03T13:57:29Z" uid="20587" user="balrog-kun" changeset="4312927">
    <nd ref="570967166"/>
    <nd ref="570967077"/>
    <tag k="highway" v="residential"/>
    <tag k="lanes" v="2"/>
    <tag k="name" v="4390 West"/>
  </way>
  <way id="45026631" version="3" timestamp="2010-04-03T13:57:29Z" uid="20587" user="balrog-kun" changeset="4312927">
    <nd ref="570967166"/>
    <nd ref="570967235"/>
    <tag k="highway" v="residential"/>
    <tag k="lanes" v="2"/>
    <tag k="name" v="2440 South"/>
  </way>
  <way id="45026632" version="2" timestamp="2010-04-03T13:57:29Z" uid="20587" user="balrog-kun" changeset="4312927">
    <nd ref="570967215"/>
    <nd ref="570966941"/>
    <tag k="highway" v="residential"/>
    <tag k="lanes" v="2"/>
    <tag k="name" v="4030 West"/>
  </way>
  <way id="45026633" version="2" timestamp="2010-04-03T13:57:29Z" uid="20587" user="balrog-kun" changeset="4312927">
    <nd ref="570967218"/>
    <nd ref="570966937"/>
    <tag k="highway" v="residential"/>
    <tag k="lanes" v="2"/>
    <tag k="name" v="4090 West"/>
  </way>
  <way id="45026634" version="2" timestamp="2010-04-03T13:57:29Z" uid="20587" user="balrog-kun" changeset="4312927">
    <nd ref="570967137"/>
    <nd ref="570967146"/>
    <nd ref="570967200"/>
    <nd ref="570967198"/>
    <tag k="highway" v="residential"/>
    <tag k="lanes" v="2"/>
    <tag k="name" v="Lyle Street"/>
  </way>
  <way id="45026635" version="2" timestamp="2010-04-03T13:57:29Z" uid="20587" user="balrog-kun" changeset="4312927">
    <nd ref="570967085"/>
    <nd ref="570967083"/>
    <tag k="highway" v="residential"/>
    <tag k="lanes" v="2"/>
    <tag k="name" v="4340 West"/>
  </way>
  <way id="45026636" version="2" timestamp="2010-04-03T13:57:29Z" uid="20587" user="balrog-kun" changeset="4312927">
    <nd ref="570967090"/>
    <nd ref="570967088"/>
    <nd ref="570967162"/>
    <nd ref="570967178"/>
    <tag k="highway" v="residential"/>
    <tag k="lanes" v="2"/>
    <tag k="name" v="Bowler Street"/>
  </way>
  <way id="45026637" version="2" timestamp="2010-04-03T13:57:29Z" uid="20587" user="balrog-kun" changeset="4312927">
    <nd ref="570967159"/>
    <nd ref="570967158"/>
    <nd ref="570967175"/>
    <nd ref="570967172"/>
    <tag k="highway" v="residential"/>
    <tag k="lanes" v="2"/>
    <tag k="name" v="Martin Street"/>
  </way>
  <way id="45026638" version="2" timestamp="2010-04-03T13:57:29Z" uid="20587" user="balrog-kun" changeset="4312927">
    <nd ref="570967128"/>
    <nd ref="570967134"/>
    <nd ref="570967151"/>
    <nd ref="570967183"/>
    <tag k="highway" v="residential"/>
    <tag k="lanes" v="2"/>
    <tag k="name" v="Glade Street"/>
  </way>
  <way id="45026639" version="2" timestamp="2010-04-03T13:57:29Z" uid="20587" user="balrog-kun" changeset="4312927">
    <nd ref="570967131"/>
    <nd ref="570967181"/>
    <tag k="highway" v="residential"/>
    <tag k="lanes" v="2"/>
    <tag k="name" v="Lewis Circle"/>
  </way>
  <way id="45026640" version="2" timestamp="2010-04-03T13:57:30Z" uid="20587" user="balrog-kun" changeset="4312927">
    <nd ref="570967222"/>
    <nd ref="570967240"/>
    <nd ref="570967237"/>
    <tag k="highway" v="residential"/>
    <tag k="lanes" v="2"/>
    <tag k="name" v="Lund Street"/>
  </way>
  <way id="45026641" version="2" timestamp="2010-04-03T13:57:30Z" uid="20587" user="balrog-kun" changeset="4312927">
    <nd ref="570967204"/>
    <nd ref="570967203"/>
    <nd ref="570967207"/>
    <tag k="highway" v="residential"/>
    <tag k="lanes" v="2"/>
    <tag k="name" v="4240 West"/>
  </way>
  <way id="45026642" version="2" timestamp="2010-04-03T13:57:30Z" uid="20587" user="balrog-kun" changeset="4312927">
    <nd ref="570967150"/>
    <nd ref="570967154"/>
    <tag k="highway" v="residential"/>
    <tag k="lanes" v="2"/>
    <tag k="name" v="Tanner Circle"/>
  </way>
  <way id="45026643" version="2" timestamp="2010-04-03T13:57:30Z" uid="20587" user="balrog-kun" changeset="4312927">
    <nd ref="570967156"/>
    <nd ref="570967143"/>
    <nd ref="570967140"/>
    <tag k="highway" v="residential"/>
    <tag k="lanes" v="2"/>
    <tag k="name" v="Williams Street"/>
  </way>
  <way id="45026644" version="2" timestamp="2010-04-03T13:57:30Z" uid="20587" user="balrog-kun" changeset="4312927">
    <nd ref="570967253"/>
    <nd ref="570967246"/>
    <nd ref="570967244"/>
    <tag k="highway" v="residential"/>
    <tag k="lanes" v="2"/>
    <tag k="name" v="Dorothy Circle"/>
  </way>
  <way id="45026645" version="2" timestamp="2010-04-03T13:57:30Z" uid="20587" user="balrog-kun" changeset="4312927">
    <nd ref="570967228"/>
    <nd ref="570967223"/>
    <tag k="highway" v="residential"/>
    <tag k="lanes" v="2"/>
    <tag k="name" v="2650 South"/>
  </way>
  <way id="45026646" version="2" timestamp="2010-04-03T13:57:30Z" uid="20587" user="balrog-kun" changeset="4312927">
    <nd ref="570967187"/>
    <nd ref="570967233"/>
    <nd ref="570967230"/>
    <tag k="highway" v="residential"/>
    <tag k="lanes" v="2"/>
    <tag k="name" v="Gritton Street"/>
  </way>
  <way id="45026647" version="2" timestamp="2010-04-03T13:57:30Z" uid="20587" user="balrog-kun" changeset="4312927">
    <nd ref="570967256"/>
    <nd ref="570967251"/>
    <nd ref="570967253"/>
    <tag k="highway" v="residential"/>
    <tag k="lanes" v="2"/>
    <tag k="name" v="Dorothy Street"/>
  </way>
  <way id="45026648" version="2" timestamp="2010-04-03T13:57:30Z" uid="20587" user="balrog-kun" changeset="4312927">
    <nd ref="570967262"/>
    <nd ref="570968585"/>
    <tag k="highway" v="residential"/>
    <tag k="lanes" v="2"/>
    <tag k="name" v="2470 South"/>
  </way>
  <way id="45026649" version="2" timestamp="2010-04-03T13:57:31Z" uid="20587" user="balrog-kun" changeset="4312927">
    <nd ref="570967265"/>
    <nd ref="570966944"/>
    <tag k="highway" v="residential"/>
    <tag k="lanes" v="2"/>
    <tag k="name" v="3970 West"/>
  </way>
  <way id="45026650" version="2" timestamp="2010-04-03T13:57:31Z" uid="20587" user="balrog-kun" changeset="4312927">
    <nd ref="570967271"/>
    <nd ref="570967268"/>
    <nd ref="570967277"/>
    <tag k="highway" v="residential"/>
    <tag k="lanes" v="2"/>
    <tag k="name" v="4080 West"/>
  </way>
  <way id="45026651" version="2" timestamp="2010-04-03T13:57:31Z" uid="20587" user="balrog-kun" changeset="4312927">
    <nd ref="570967275"/>
    <nd ref="570968583"/>
    <tag k="highway" v="residential"/>
    <tag k="lanes" v="2"/>
    <tag k="name" v="2570 South"/>
  </way>
  <way id="45026652" version="2" timestamp="2010-04-03T13:57:31Z" uid="20587" user="balrog-kun" changeset="4312927">
    <nd ref="570968598"/>
    <nd ref="570968592"/>
    <tag k="highway" v="residential"/>
    <tag k="lanes" v="2"/>
    <tag k="name" v="3820 West"/>
  </way>
  <way id="45026653" version="2" timestamp="2010-04-03T13:57:31Z" uid="20587" user="balrog-kun" changeset="4312927">
    <nd ref="570968595"/>
    <nd ref="570968588"/>
    <nd ref="570968591"/>
    <nd ref="570968340"/>
    <tag k="highway" v="track"/>
    <tag k="lanes" v="2"/>
    <tag k="name" v="3700 West"/>
    <tag k="tracktype" v="grade2"/>
  </way>
  <way id="45026654" version="2" timestamp="2010-04-03T13:57:31Z" uid="20587" user="balrog-kun" changeset="4312927">
    <nd ref="570967258"/>
    <nd ref="570966948"/>
    <tag k="highway" v="residential"/>
    <tag k="lanes" v="2"/>
    <tag k="name" v="3930 West"/>
  </way>
  <way id="45026655" version="2" timestamp="2010-04-03T13:57:31Z" uid="20587" user="balrog-kun" changeset="4312927">
    <nd ref="570968601"/>
    <nd ref="570968351"/>
    <nd ref="570968347"/>
    <tag k="highway" v="residential"/>
    <tag k="lanes" v="2"/>
    <tag k="name" v="3870 West"/>
  </way>
  <way id="45026656" version="3" timestamp="2010-04-03T13:57:31Z" uid="20587" user="balrog-kun" changeset="4312927">
    <nd ref="570965736"/>
    <nd ref="570965730"/>
    <nd ref="570965733"/>
    <nd ref="570965694"/>
    <nd ref="570965700"/>
    <nd ref="570965675"/>
    <nd ref="570965676"/>
    <nd ref="570965671"/>
    <nd ref="570965618"/>
    <nd ref="570965620"/>
    <tag k="highway" v="residential"/>
    <tag k="lanes" v="2"/>
    <tag k="name" v="Clubhouse Drive"/>
  </way>
  <way id="45026657" version="2" timestamp="2010-04-03T13:57:31Z" uid="20587" user="balrog-kun" changeset="4312927">
    <nd ref="570967077"/>
    <nd ref="570968573"/>
    <tag k="highway" v="residential"/>
    <tag k="lanes" v="2"/>
    <tag k="name" v="2700 South"/>
  </way>
  <way id="45026658" version="3" timestamp="2010-04-03T13:57:31Z" uid="20587" user="balrog-kun" changeset="4312927">
    <nd ref="570968363"/>
    <nd ref="570968360"/>
    <nd ref="570968368"/>
    <nd ref="570968366"/>
    <nd ref="570968353"/>
    <nd ref="570968356"/>
    <nd ref="570966951"/>
    <nd ref="570966887"/>
    <nd ref="570966673"/>
    <tag k="highway" v="tertiary"/>
    <tag k="lanes" v="2"/>
    <tag k="name" v="Dixie Springs Drive"/>
  </way>
  <way id="45026664" version="4" timestamp="2010-04-03T13:57:31Z" uid="20587" user="balrog-kun" changeset="4312927">
    <nd ref="569904076"/>
    <nd ref="569904075"/>
    <nd ref="570966344"/>
    <nd ref="569904074"/>
    <tag k="highway" v="tertiary"/>
    <tag k="lanes" v="4"/>
    <tag k="name" v="Sand Hollow Resort Parkway"/>
  </way>
  <way id="45026668" version="3" timestamp="2010-04-03T13:57:32Z" uid="20587" user="balrog-kun" changeset="4312927">
    <nd ref="570966210"/>
    <nd ref="570966134"/>
    <tag k="highway" v="unclassified"/>
    <tag k="lanes" v="2"/>
    <tag k="name" v="Dunes Parkway"/>
  </way>
  <way id="45026670" version="2" timestamp="2010-04-03T13:57:32Z" uid="20587" user="balrog-kun" changeset="4312927">
    <nd ref="570966220"/>
    <nd ref="570966225"/>
    <nd ref="570965755"/>
    <nd ref="570965724"/>
    <nd ref="570965727"/>
    <nd ref="570965736"/>
    <tag k="highway" v="unclassified"/>
    <tag k="lanes" v="4"/>
    <tag k="name" v="Sand Hollow Resort Parkway"/>
  </way>
  <way id="45026673" version="2" timestamp="2010-04-03T13:57:32Z" uid="20587" user="balrog-kun" changeset="4312927">
    <nd ref="570965631"/>
    <nd ref="570965908"/>
    <tag k="highway" v="residential"/>
    <tag k="lanes" v="2"/>
    <tag k="name" v="Sand East Circle"/>
  </way>
  <way id="45026676" version="2" timestamp="2010-04-03T13:57:32Z" uid="20587" user="balrog-kun" changeset="4312927">
    <nd ref="570965790"/>
    <nd ref="570965846"/>
    <nd ref="570965844"/>
    <nd ref="570965863"/>
    <nd ref="570965861"/>
    <nd ref="570965898"/>
    <nd ref="570965927"/>
    <nd ref="570965930"/>
    <nd ref="570965929"/>
    <nd ref="570965934"/>
    <nd ref="570965932"/>
    <nd ref="570965963"/>
    <nd ref="570965967"/>
    <nd ref="570965970"/>
    <nd ref="570965973"/>
    <tag k="highway" v="residential"/>
    <tag k="lanes" v="2"/>
    <tag k="name" v="Dunes Parkway"/>
  </way>
  <way id="45026677" version="3" timestamp="2010-04-03T13:57:32Z" uid="20587" user="balrog-kun" changeset="4312927">
    <nd ref="570965706"/>
    <nd ref="570965621"/>
    <tag k="highway" v="residential"/>
    <tag k="lanes" v="2"/>
    <tag k="name" v="3390 South"/>
  </way>
  <way id="45026678" version="2" timestamp="2010-04-03T13:57:32Z" uid="20587" user="balrog-kun" changeset="4312927">
    <nd ref="570965703"/>
    <nd ref="570965792"/>
    <nd ref="570965814"/>
    <nd ref="570965810"/>
    <nd ref="570965777"/>
    <nd ref="570965821"/>
    <nd ref="570965828"/>
    <tag k="highway" v="residential"/>
    <tag k="lanes" v="2"/>
    <tag k="name" v="Desert Hollow Lane"/>
  </way>
  <way id="45026679" version="3" timestamp="2010-04-03T13:57:32Z" uid="20587" user="balrog-kun" changeset="4312927">
    <nd ref="570965828"/>
    <nd ref="570965832"/>
    <nd ref="570965654"/>
    <nd ref="570965659"/>
    <nd ref="570965656"/>
    <nd ref="570965651"/>
    <nd ref="570965629"/>
    <tag k="highway" v="residential"/>
    <tag k="lanes" v="2"/>
    <tag k="name" v="Sand Stone Drive"/>
  </way>
  <way id="45026680" version="2" timestamp="2010-04-03T13:57:32Z" uid="20587" user="balrog-kun" changeset="4312927">
    <nd ref="570965911"/>
    <nd ref="570965936"/>
    <nd ref="570965916"/>
    <nd ref="570966059"/>
    <nd ref="570966057"/>
    <tag k="highway" v="residential"/>
    <tag k="lanes" v="2"/>
    <tag k="name" v="Coral Desert Lane"/>
  </way>
  <way id="45026682" version="2" timestamp="2010-04-03T13:57:32Z" uid="20587" user="balrog-kun" changeset="4312927">
    <nd ref="570965967"/>
    <nd ref="570966063"/>
    <nd ref="570966065"/>
    <tag k="highway" v="residential"/>
    <tag k="lanes" v="2"/>
    <tag k="name" v="Wind Drift Lane"/>
  </way>
  <way id="45026684" version="2" timestamp="2010-04-03T13:57:32Z" uid="20587" user="balrog-kun" changeset="4312927">
    <nd ref="570965839"/>
    <nd ref="570965851"/>
    <nd ref="570965857"/>
    <nd ref="570965891"/>
    <nd ref="570965892"/>
    <nd ref="570965896"/>
    <nd ref="570965881"/>
    <tag k="highway" v="residential"/>
    <tag k="lanes" v="2"/>
    <tag k="name" v="Drifting Dunes Lane"/>
  </way>
  <way id="45026685" version="2" timestamp="2010-04-03T13:57:32Z" uid="20587" user="balrog-kun" changeset="4312927">
    <nd ref="570965884"/>
    <nd ref="570965887"/>
    <tag k="highway" v="residential"/>
    <tag k="lanes" v="2"/>
    <tag k="name" v="Coral Court"/>
  </way>
  <way id="45026688" version="2" timestamp="2010-04-03T13:57:32Z" uid="20587" user="balrog-kun" changeset="4312927">
    <nd ref="570967782"/>
    <nd ref="570967786"/>
    <nd ref="570967777"/>
    <nd ref="570967780"/>
    <nd ref="570967831"/>
    <nd ref="570967834"/>
    <nd ref="570967769"/>
    <nd ref="570967772"/>
    <nd ref="570967763"/>
    <tag k="highway" v="residential"/>
    <tag k="lanes" v="2"/>
    <tag k="name" v="Industrial Drive"/>
  </way>
  <way id="45026690" version="3" timestamp="2010-04-03T13:57:33Z" uid="20587" user="balrog-kun" changeset="4312927">
    <nd ref="570967847"/>
    <nd ref="570967837"/>
    <tag k="highway" v="residential"/>
    <tag k="lanes" v="2"/>
    <tag k="name" v="Connector Street"/>
  </way>
  <way id="45026691" version="3" timestamp="2010-04-03T13:57:33Z" uid="20587" user="balrog-kun" changeset="4312927">
    <nd ref="570967765"/>
    <nd ref="570967835"/>
    <nd ref="570967836"/>
    <nd ref="570967828"/>
    <nd ref="570967838"/>
    <nd ref="570967837"/>
    <nd ref="570967841"/>
    <tag k="highway" v="residential"/>
    <tag k="lanes" v="2"/>
    <tag k="name" v="Commerce Street"/>
  </way>
  <way id="45026693" version="3" timestamp="2010-04-03T13:57:33Z" uid="20587" user="balrog-kun" changeset="4312927">
    <nd ref="570967465"/>
    <nd ref="570967482"/>
    <nd ref="570967473"/>
    <nd ref="570967426"/>
    <nd ref="570967421"/>
    <nd ref="570967423"/>
    <nd ref="570967428"/>
    <nd ref="570967536"/>
    <tag k="highway" v="unclassified"/>
    <tag k="lanes" v="2"/>
    <tag k="name" v="Cambridge Parkway"/>
    <tag k="oneway" v="yes"/>
  </way>
  <way id="45026695" version="3" timestamp="2010-04-03T13:57:33Z" uid="20587" user="balrog-kun" changeset="4312927">
    <nd ref="604212586"/>
    <nd ref="570967865"/>
    <nd ref="570967861"/>
    <nd ref="570967858"/>
    <nd ref="570967854"/>
    <nd ref="570967814"/>
    <nd ref="570967811"/>
    <nd ref="570967808"/>
    <nd ref="570967804"/>
    <nd ref="570967757"/>
    <nd ref="570967754"/>
    <tag k="highway" v="unclassified"/>
    <tag k="lanes" v="4"/>
    <tag k="name" v="200 South"/>
  </way>
  <way id="45026696" version="3" timestamp="2010-04-03T13:57:33Z" uid="20587" user="balrog-kun" changeset="4312927">
    <nd ref="570967679"/>
    <nd ref="570967618"/>
    <nd ref="570967615"/>
    <nd ref="570967667"/>
    <nd ref="570967670"/>
    <nd ref="570967591"/>
    <nd ref="570967596"/>
    <nd ref="570967594"/>
    <nd ref="570967599"/>
    <nd ref="570967528"/>
    <nd ref="570967534"/>
    <tag k="highway" v="unclassified"/>
    <tag k="lanes" v="2"/>
    <tag k="name" v="Iron Bridge Boulevard"/>
    <tag k="oneway" v="yes"/>
  </way>
  <way id="45026697" version="3" timestamp="2010-04-03T13:57:33Z" uid="20587" user="balrog-kun" changeset="4312927">
    <nd ref="570967532"/>
    <nd ref="570967519"/>
    <nd ref="570967674"/>
    <nd ref="570967586"/>
    <nd ref="570967588"/>
    <nd ref="570967609"/>
    <nd ref="570967664"/>
    <nd ref="570967612"/>
    <nd ref="570967681"/>
    <tag k="highway" v="unclassified"/>
    <tag k="lanes" v="2"/>
    <tag k="name" v="Iron Bridge Boulevard"/>
    <tag k="oneway" v="yes"/>
  </way>
  <way id="45026698" version="2" timestamp="2010-04-03T13:57:33Z" uid="20587" user="balrog-kun" changeset="4312927">
    <nd ref="570967370"/>
    <nd ref="570967408"/>
    <tag k="highway" v="residential"/>
    <tag k="lanes" v="2"/>
    <tag k="name" v="Canterbury Road"/>
  </way>
  <way id="45026699" version="2" timestamp="2010-04-03T13:57:33Z" uid="20587" user="balrog-kun" changeset="4312927">
    <nd ref="570967556"/>
    <nd ref="570967504"/>
    <tag k="highway" v="residential"/>
    <tag k="lanes" v="2"/>
    <tag k="name" v="Hampshire Road"/>
  </way>
  <way id="45026704" version="2" timestamp="2010-04-03T13:57:34Z" uid="20587" user="balrog-kun" changeset="4312927">
    <nd ref="570967574"/>
    <nd ref="570967578"/>
    <nd ref="570967675"/>
    <nd ref="570967679"/>
    <nd ref="570967681"/>
    <tag k="highway" v="residential"/>
    <tag k="lanes" v="2"/>
    <tag k="name" v="Abbey Road"/>
  </way>
  <way id="45026710" version="2" timestamp="2010-04-03T13:57:34Z" uid="20587" user="balrog-kun" changeset="4312927">
    <nd ref="570966659"/>
    <nd ref="570966204"/>
    <tag k="highway" v="unclassified"/>
    <tag k="lanes" v="4"/>
    <tag k="name" v="North Access Road"/>
  </way>
  <way id="45026716" version="2" timestamp="2010-04-03T13:57:34Z" uid="20587" user="balrog-kun" changeset="4312927">
    <nd ref="570967337"/>
    <nd ref="570967340"/>
    <tag k="highway" v="residential"/>
    <tag k="lanes" v="2"/>
    <tag k="name" v="Oxford Road"/>
  </way>
  <way id="45026718" version="2" timestamp="2010-04-03T13:57:34Z" uid="20587" user="balrog-kun" changeset="4312927">
    <nd ref="570967707"/>
    <nd ref="570967710"/>
    <tag k="highway" v="residential"/>
    <tag k="lanes" v="2"/>
    <tag k="name" v="Stringham&apos;s Road"/>
  </way>
  <way id="45026720" version="2" timestamp="2010-04-03T13:57:34Z" uid="20587" user="balrog-kun" changeset="4312927">
    <nd ref="570967346"/>
    <nd ref="570967298"/>
    <nd ref="570967303"/>
    <nd ref="570967009"/>
    <tag k="highway" v="residential"/>
    <tag k="lanes" v="2"/>
    <tag k="name" v="Turf Sod Road"/>
  </way>
  <way id="45026724" version="5" timestamp="2010-04-03T13:57:34Z" uid="20587" user="balrog-kun" changeset="4312927">
    <nd ref="84322979"/>
    <nd ref="604227929"/>
    <nd ref="604227939"/>
    <nd ref="604227938"/>
    <nd ref="604227937"/>
    <nd ref="604227936"/>
    <nd ref="604227935"/>
    <nd ref="604227934"/>
    <nd ref="604227933"/>
    <nd ref="604227932"/>
    <nd ref="604227940"/>
    <nd ref="604227941"/>
    <nd ref="604227942"/>
    <nd ref="570967905"/>
    <nd ref="570967874"/>
    <nd ref="570967870"/>
    <nd ref="570967880"/>
    <nd ref="570967885"/>
    <nd ref="570967882"/>
    <nd ref="570967689"/>
    <nd ref="570967686"/>
    <nd ref="570967692"/>
    <nd ref="570967562"/>
    <nd ref="570967560"/>
    <tag k="highway" v="residential"/>
    <tag k="lanes" v="2"/>
    <tag k="name" v="4300 West"/>
  </way>
  <way id="45026726" version="2" timestamp="2010-04-03T13:57:34Z" uid="20587" user="balrog-kun" changeset="4312927">
    <nd ref="570967526"/>
    <nd ref="570967353"/>
    <tag k="highway" v="residential"/>
    <tag k="lanes" v="2"/>
    <tag k="name" v="Regent Park Road"/>
  </way>
  <way id="45026728" version="2" timestamp="2010-04-03T13:57:34Z" uid="20587" user="balrog-kun" changeset="4312927">
    <nd ref="570967520"/>
    <nd ref="570967419"/>
    <nd ref="570967349"/>
    <tag k="highway" v="residential"/>
    <tag k="lanes" v="2"/>
    <tag k="name" v="Windsor Parkway"/>
  </way>
  <way id="45026731" version="2" timestamp="2010-04-03T13:57:34Z" uid="20587" user="balrog-kun" changeset="4312927">
    <nd ref="570967372"/>
    <nd ref="570967375"/>
    <nd ref="570967398"/>
    <nd ref="570967395"/>
    <nd ref="570967455"/>
    <nd ref="570967459"/>
    <nd ref="570967539"/>
    <nd ref="570967541"/>
    <nd ref="570967545"/>
    <nd ref="570967569"/>
    <nd ref="570967571"/>
    <tag k="highway" v="secondary"/>
    <tag k="lanes" v="4"/>
    <tag k="name" v="Sand Hollow Road"/>
  </way>
  <way id="45026733" version="2" timestamp="2010-04-03T13:57:34Z" uid="20587" user="balrog-kun" changeset="4312927">
    <nd ref="570965700"/>
    <nd ref="570965687"/>
    <tag k="highway" v="residential"/>
    <tag k="lanes" v="2"/>
    <tag k="name" v="Villas Drive"/>
  </way>
  <way id="45026734" version="2" timestamp="2010-04-03T13:57:35Z" uid="20587" user="balrog-kun" changeset="4312927">
    <nd ref="570965767"/>
    <nd ref="570965770"/>
    <nd ref="570965775"/>
    <nd ref="570965721"/>
    <tag k="highway" v="residential"/>
    <tag k="lanes" v="2"/>
    <tag k="name" v="5450 West"/>
  </way>
  <way id="45026735" version="3" timestamp="2010-04-03T13:57:35Z" uid="20587" user="balrog-kun" changeset="4312927">
    <nd ref="570965665"/>
    <nd ref="570965757"/>
    <nd ref="570965760"/>
    <nd ref="570965767"/>
    <tag k="highway" v="residential"/>
    <tag k="lanes" v="2"/>
    <tag k="name" v="3350 South"/>
  </way>
  <way id="45026736" version="2" timestamp="2010-04-03T13:57:35Z" uid="20587" user="balrog-kun" changeset="4312927">
    <nd ref="570965621"/>
    <nd ref="570965665"/>
    <tag k="highway" v="residential"/>
    <tag k="lanes" v="2"/>
    <tag k="name" v="5500 West"/>
  </way>
  <way id="45026738" version="2" timestamp="2010-04-03T13:57:35Z" uid="20587" user="balrog-kun" changeset="4312927">
    <nd ref="570966374"/>
    <nd ref="570966377"/>
    <nd ref="570966432"/>
    <nd ref="570966435"/>
    <nd ref="570966437"/>
    <nd ref="570966441"/>
    <tag k="highway" v="residential"/>
    <tag k="lanes" v="2"/>
    <tag k="name" v="Retreat Drive"/>
  </way>
  <way id="45026744" version="2" timestamp="2010-04-03T13:57:35Z" uid="20587" user="balrog-kun" changeset="4312927">
    <nd ref="570965736"/>
    <nd ref="570965737"/>
    <nd ref="570965718"/>
    <nd ref="570965715"/>
    <nd ref="570965712"/>
    <nd ref="570965709"/>
    <nd ref="570965799"/>
    <nd ref="570965795"/>
    <nd ref="570965781"/>
    <nd ref="570965784"/>
    <nd ref="570965787"/>
    <nd ref="570965662"/>
    <tag k="highway" v="unclassified"/>
    <tag k="lanes" v="2"/>
    <tag k="name" v="Sand Hollow Resort Parkway"/>
  </way>
  <way id="45026751" version="2" timestamp="2010-04-03T13:57:35Z" uid="20587" user="balrog-kun" changeset="4312927">
    <nd ref="570967408"/>
    <nd ref="570967482"/>
    <tag k="highway" v="residential"/>
    <tag k="lanes" v="2"/>
    <tag k="name" v="Westminster Road"/>
  </way>
  <way id="45026756" version="2" timestamp="2010-04-03T13:57:35Z" uid="20587" user="balrog-kun" changeset="4312927">
    <nd ref="570967496"/>
    <nd ref="570967485"/>
    <tag k="highway" v="residential"/>
    <tag k="lanes" v="2"/>
    <tag k="name" v="Hampshire Road"/>
  </way>
  <way id="45026791" version="3" timestamp="2010-03-09T12:26:13Z" uid="171838" user="argrath" changeset="4080474">
    <nd ref="570962346"/>
    <nd ref="555804339"/>
    <nd ref="555804381"/>
    <nd ref="555804426"/>
    <nd ref="555804583"/>
    <nd ref="555805221"/>
    <nd ref="555805219"/>
    <nd ref="555805214"/>
    <nd ref="569922777"/>
    <nd ref="555805393"/>
    <nd ref="555805444"/>
    <nd ref="555805558"/>
    <nd ref="555805096"/>
    <nd ref="555805041"/>
    <nd ref="555804987"/>
    <nd ref="555804794"/>
    <nd ref="555805872"/>
    <nd ref="555805340"/>
    <nd ref="555805744"/>
    <nd ref="555805933"/>
    <nd ref="569922778"/>
    <nd ref="555806058"/>
    <nd ref="569922779"/>
    <nd ref="555805594"/>
    <nd ref="555805653"/>
    <nd ref="555808553"/>
    <nd ref="555808904"/>
    <nd ref="555808629"/>
    <nd ref="555808745"/>
    <nd ref="555808857"/>
    <nd ref="555809068"/>
    <nd ref="555809346"/>
    <nd ref="555809347"/>
    <nd ref="555809517"/>
    <nd ref="555808969"/>
    <nd ref="555809135"/>
    <nd ref="555809225"/>
    <nd ref="555809295"/>
    <nd ref="555809409"/>
    <nd ref="555809617"/>
    <nd ref="555809459"/>
    <nd ref="555807069"/>
    <nd ref="555807214"/>
    <nd ref="555807292"/>
    <nd ref="555807272"/>
    <nd ref="555807717"/>
    <nd ref="555807768"/>
    <nd ref="555807810"/>
    <nd ref="555807492"/>
    <nd ref="555808366"/>
    <nd ref="555808496"/>
    <nd ref="555808295"/>
    <nd ref="555808331"/>
    <nd ref="555807551"/>
    <nd ref="555807593"/>
    <nd ref="555807937"/>
    <nd ref="555808240"/>
    <nd ref="555808179"/>
    <nd ref="555808123"/>
    <nd ref="555807980"/>
    <nd ref="555807301"/>
    <nd ref="555807428"/>
    <nd ref="555807017"/>
    <nd ref="555806945"/>
    <nd ref="555807153"/>
    <nd ref="555806702"/>
    <nd ref="555806773"/>
    <nd ref="555806830"/>
    <nd ref="555806283"/>
    <nd ref="555806233"/>
    <nd ref="569922784"/>
    <tag k="KSJ2:AAC" v="26212"/>
    <tag k="KSJ2:AAC_label" v="京都府京丹後市"/>
    <tag k="KSJ2:ACA" v="9"/>
    <tag k="KSJ2:ACA_label" v="管理者不明"/>
    <tag k="KSJ2:ASL" v="6"/>
    <tag k="KSJ2:ASL_label" v="所管官庁不明（原典資料入手不可）"/>
    <tag k="KSJ2:CAN" v="9999"/>
    <tag k="KSJ2:LOC" v="c_00290"/>
    <tag k="KSJ2:NAC" v="不明"/>
    <tag k="KSJ2:NCA" v="名称不明"/>
    <tag k="KSJ2:RIM" v="河口部以外"/>
    <tag k="KSJ2:coastline_id" v="cp01_00290"/>
    <tag k="KSJ2:curve_id" v="c_00290"/>
    <tag k="KSJ2:filename" v="C23-06_26.xml"/>
    <tag k="history" v="Retrieved from v1"/>
    <tag k="natural" v="coastline"/>
    <tag k="note" v="National-Land Numerical Information (Coastline) 2006, MLIT Japan"/>
    <tag k="note:ja" v="国土数値情報（海岸線データ）平成18年　国土交通省"/>
    <tag k="source" v="KSJ2"/>
    <tag k="source_ref" v="http://nlftp.mlit.go.jp/ksj/jpgis/datalist/KsjTmplt-C23.html"/>
  </way>
</osm>
