<?xml version='1.0' encoding='UTF-8'?>
<osm version="0.6" generator="libosmium/2.20.0">
  <way id="45093261" version="2" timestamp="2010-07-25T22:22:25Z" uid="4467" user="Rosscoe" changeset="5317245">
    <nd ref="571706739"/>
    <nd ref="571706763"/>
    <tag k="bridge" v="yes"/>
    <tag k="highway" v="residential"/>
    <tag k="layer" v="1"/>
  </way>
  <way id="45093982" version="5" timestamp="2010-03-19T21:29:31Z" uid="244897" user="M526244" changeset="4174316">
    <nd ref="571710679"/>
    <nd ref="571710680"/>
    <nd ref="669967200"/>
    <nd ref="571710681"/>
    <nd ref="571710682"/>
    <nd ref="658985033"/>
    <nd ref="571710683"/>
    <tag k="highway" v="residential"/>
    <tag k="maxspeed" v="50"/>
    <tag k="name" v="Ocean Street"/>
    <tag k="source" v="nearmap"/>
  </way>
  <way id="45093982" version="6" timestamp="2010-04-27T00:05:50Z" uid="244897" user="M526244" changeset="4537367">
    <nd ref="653149229"/>
    <nd ref="571710680"/>
    <nd ref="669967200"/>
    <nd ref="571710681"/>
    <nd ref="571710682"/>
    <nd ref="658985033"/>
    <nd ref="571710683"/>
    <tag k="highway" v="residential"/>
    <tag k="maxspeed" v="50"/>
    <tag k="name" v="Ocean Street"/>
    <tag k="source" v="nearmap"/>
  </way>
  <way id="45093984" version="4" timestamp="2010-04-27T00:05:50Z" uid="244897" user="M526244" changeset="4537367">
    <nd ref="571710687"/>
    <nd ref="571710688"/>
    <nd ref="571710689"/>
    <tag k="highway" v="residential"/>
    <tag k="maxspeed" v="50"/>
    <tag k="name" v="Surf Street"/>
    <tag k="source" v="nearmap"/>
  </way>
  <way id="45093984" version="5" timestamp="2010-05-21T09:54:14Z" uid="244897" user="M526244" changeset="4764240">
    <nd ref="653149232"/>
    <nd ref="708279720"/>
    <nd ref="571710687"/>
    <nd ref="571710688"/>
    <nd ref="571710689"/>
    <tag k="highway" v="residential"/>
    <tag k="maxspeed" v="50"/>
    <tag k="name" v="Surf Street"/>
    <tag k="source" v="nearmap"/>
  </way>
  <way id="45093989" version="7" timestamp="2010-04-27T00:05:49Z" uid="244897" user="M526244" changeset="4537367">
    <nd ref="653149238"/>
    <nd ref="708279725"/>
    <nd ref="571710725"/>
    <nd ref="571710724"/>
    <nd ref="571710720"/>
    <nd ref="571710721"/>
    <nd ref="658985034"/>
    <nd ref="571710722"/>
    <tag k="highway" v="residential"/>
    <tag k="maxspeed" v="50"/>
    <tag k="name" v="Terrace Street"/>
    <tag k="source" v="nearmap"/>
  </way>
</osm>
