<?xml version='1.0' encoding='UTF-8'?>
<osm version="0.6" generator="libosmium/2.20.0">
  <way id="45228169" version="3" timestamp="2010-02-24T07:32:04Z" uid="7617" user="Franc" changeset="3960510">
    <nd ref="42699822"/>
    <nd ref="42699778"/>
    <tag k="highway" v="residential"/>
    <tag k="maxspeed" v="50"/>
    <tag k="name" v="Forsyth Street"/>
    <tag k="source" v="survey"/>
    <tag k="source:maxspeed" v="state_limit"/>
  </way>
  <way id="45228190" version="3" timestamp="2010-02-24T07:32:04Z" uid="7617" user="Franc" changeset="3960510">
    <nd ref="42699778"/>
    <nd ref="125070468"/>
    <nd ref="652380986"/>
    <nd ref="42700898"/>
    <nd ref="42699643"/>
    <nd ref="42701009"/>
    <nd ref="125117931"/>
    <nd ref="125117957"/>
    <tag k="highway" v="secondary"/>
    <tag k="maxspeed" v="60"/>
    <tag k="name" v="Rainbow Street"/>
    <tag k="source" v="survey"/>
  </way>
  <way id="45228207" version="2" timestamp="2010-04-02T03:17:27Z" uid="74617" user="JohnSmith" changeset="4299895">
    <nd ref="574150738"/>
    <nd ref="770295"/>
    <nd ref="770298"/>
    <nd ref="770301"/>
    <nd ref="23611008"/>
    <nd ref="23611000"/>
    <nd ref="770328"/>
    <nd ref="23611071"/>
    <nd ref="770331"/>
    <nd ref="23622278"/>
    <nd ref="770333"/>
    <nd ref="23604473"/>
    <nd ref="228509623"/>
    <tag k="highway" v="motorway"/>
    <tag k="name" v="Federal Highway"/>
    <tag k="oneway" v="yes"/>
  </way>
  <way id="45228705" version="3" timestamp="2010-04-17T13:03:01Z" uid="4467" user="Rosscoe" changeset="4447495">
    <nd ref="77887847"/>
    <nd ref="42700969"/>
    <nd ref="42699668"/>
    <nd ref="42699959"/>
    <nd ref="699723892"/>
    <tag k="highway" v="secondary"/>
    <tag k="maxspeed" v="50"/>
    <tag k="name" v="Barker Street"/>
  </way>
</osm>
