<?xml version='1.0' encoding='UTF-8'?>
<osm version="0.6" generator="libosmium/2.20.0">
  <way id="4525074" version="4" timestamp="2008-07-08T21:20:23Z" uid="6975" user="ulfl" changeset="431192">
    <nd ref="28025786"/>
    <nd ref="28025789"/>
    <nd ref="28025791"/>
    <nd ref="28025794"/>
    <nd ref="28025796"/>
    <nd ref="28025797"/>
    <nd ref="28025799"/>
    <nd ref="28025801"/>
    <nd ref="28025802"/>
    <nd ref="28025803"/>
    <nd ref="28025786"/>
    <tag k="highway" v="secondary"/>
    <tag k="junction" v="roundabout"/>
  </way>
  <way id="4525087" version="2" timestamp="2010-07-08T04:37:23Z" uid="74617" user="JohnSmith" changeset="5163091">
    <nd ref="28011131"/>
    <nd ref="28011246"/>
    <nd ref="28011009"/>
    <nd ref="28011337"/>
    <tag k="highway" v="residential"/>
    <tag k="maxspeed" v="50"/>
    <tag k="maxspeed:source" v="default residential speed limit in Australia"/>
    <tag k="name" v="The Yardarm"/>
  </way>
  <way id="4525088" version="2" timestamp="2010-07-08T04:35:47Z" uid="74617" user="JohnSmith" changeset="5163091">
    <nd ref="28010133"/>
    <nd ref="28011554"/>
    <tag k="highway" v="residential"/>
    <tag k="maxspeed" v="50"/>
    <tag k="maxspeed:source" v="default residential speed limit in Australia"/>
    <tag k="name" v="The Bulwark"/>
  </way>
  <way id="4525089" version="2" timestamp="2010-07-08T04:37:22Z" uid="74617" user="JohnSmith" changeset="5163091">
    <nd ref="28012465"/>
    <nd ref="28012364"/>
    <nd ref="28011655"/>
    <tag k="highway" v="residential"/>
    <tag k="maxspeed" v="50"/>
    <tag k="maxspeed:source" v="default residential speed limit in Australia"/>
    <tag k="name" v="Ensign Close"/>
  </way>
  <way id="4525090" version="2" timestamp="2010-07-08T04:36:17Z" uid="74617" user="JohnSmith" changeset="5163091">
    <nd ref="28010254"/>
    <nd ref="28010814"/>
    <nd ref="28010921"/>
    <tag k="highway" v="residential"/>
    <tag k="maxspeed" v="50"/>
    <tag k="maxspeed:source" v="default residential speed limit in Australia"/>
    <tag k="name" v="The Anchorage"/>
  </way>
  <way id="4525091" version="2" timestamp="2010-07-08T04:37:51Z" uid="74617" user="JohnSmith" changeset="5163091">
    <nd ref="28012743"/>
    <nd ref="28012726"/>
    <nd ref="28012710"/>
    <nd ref="28012694"/>
    <nd ref="28012680"/>
    <nd ref="28012764"/>
    <nd ref="28010349"/>
    <tag k="highway" v="residential"/>
    <tag k="maxspeed" v="50"/>
    <tag k="maxspeed:source" v="default residential speed limit in Australia"/>
    <tag k="name" v="The Quarterdeck"/>
  </way>
  <way id="4525092" version="2" timestamp="2010-07-08T04:38:16Z" uid="74617" user="JohnSmith" changeset="5163091">
    <nd ref="28010511"/>
    <nd ref="28012571"/>
    <tag k="highway" v="residential"/>
    <tag k="maxspeed" v="50"/>
    <tag k="maxspeed:source" v="default residential speed limit in Australia"/>
    <tag k="name" v="The Galleon"/>
  </way>
  <way id="4525093" version="2" timestamp="2010-07-08T04:36:11Z" uid="74617" user="JohnSmith" changeset="5163091">
    <nd ref="27441530"/>
    <nd ref="28026662"/>
    <nd ref="28026645"/>
    <nd ref="28026665"/>
    <nd ref="28026650"/>
    <nd ref="28026652"/>
    <nd ref="28026658"/>
    <nd ref="31288666"/>
    <tag k="highway" v="residential"/>
    <tag k="maxspeed" v="50"/>
    <tag k="maxspeed:source" v="default residential speed limit in Australia"/>
    <tag k="name" v="Yawl Close"/>
  </way>
  <way id="4525094" version="2" timestamp="2010-07-08T04:38:53Z" uid="74617" user="JohnSmith" changeset="5163091">
    <nd ref="28026645"/>
    <nd ref="28026685"/>
    <nd ref="28026690"/>
    <nd ref="31288677"/>
    <tag k="highway" v="residential"/>
    <tag k="maxspeed" v="50"/>
    <tag k="maxspeed:source" v="default residential speed limit in Australia"/>
    <tag k="name" v="Cutter Close"/>
  </way>
  <way id="4525095" version="4" timestamp="2010-07-08T04:36:43Z" uid="74617" user="JohnSmith" changeset="5163091">
    <nd ref="28026645"/>
    <nd ref="28026669"/>
    <nd ref="28026673"/>
    <nd ref="28026677"/>
    <nd ref="28026680"/>
    <nd ref="31288674"/>
    <nd ref="31288675"/>
    <nd ref="388516817"/>
    <tag k="highway" v="residential"/>
    <tag k="maxspeed" v="50"/>
    <tag k="maxspeed:source" v="default residential speed limit in Australia"/>
    <tag k="name" v="Ketch Close"/>
  </way>
  <way id="4525471" version="5" timestamp="2008-02-20T13:57:18Z" uid="6269" user="Mueck" changeset="164462">
    <nd ref="14768499"/>
    <nd ref="28087807"/>
    <nd ref="119101581"/>
    <nd ref="119101584"/>
    <nd ref="119101586"/>
    <tag k="created_by" v="Potlatch 0.7b"/>
    <tag k="highway" v="service"/>
    <tag k="name" v="Rahel-Straus-Straße"/>
    <tag k="oneway" v="yes"/>
  </way>
  <way id="4525471" version="6" timestamp="2008-02-20T13:57:31Z" uid="6269" user="Mueck" changeset="164462">
    <nd ref="14768499"/>
    <nd ref="28087807"/>
    <nd ref="119101581"/>
    <nd ref="119101584"/>
    <nd ref="119101586"/>
    <tag k="created_by" v="Potlatch 0.7b"/>
    <tag k="highway" v="residential"/>
    <tag k="name" v="Rahel-Straus-Straße"/>
    <tag k="oneway" v="yes"/>
  </way>
  <way id="4525471" version="7" timestamp="2008-02-20T13:58:06Z" uid="6269" user="Mueck" changeset="164462">
    <nd ref="14768499"/>
    <nd ref="28087807"/>
    <tag k="created_by" v="Potlatch 0.7b"/>
    <tag k="highway" v="residential"/>
    <tag k="name" v="Rahel-Straus-Straße"/>
    <tag k="oneway" v="yes"/>
  </way>
  <way id="4525474" version="5" timestamp="2010-12-06T00:29:32Z" uid="6269" user="Mueck" changeset="6558663">
    <nd ref="21421061"/>
    <nd ref="28087824"/>
    <nd ref="28087817"/>
    <nd ref="28087816"/>
    <nd ref="31060327"/>
    <nd ref="28087811"/>
    <nd ref="528849350"/>
    <nd ref="28087813"/>
    <tag k="highway" v="cycleway"/>
  </way>
  <way id="4525474" version="7" timestamp="2011-04-16T13:16:24Z" uid="6269" user="Mueck" changeset="7878138">
    <nd ref="21421061"/>
    <nd ref="1180502826"/>
    <nd ref="28087824"/>
    <nd ref="28087817"/>
    <nd ref="28087816"/>
    <nd ref="31060327"/>
    <nd ref="28087811"/>
    <nd ref="1246912664"/>
    <nd ref="528849350"/>
    <nd ref="1246913009"/>
    <nd ref="1246912921"/>
    <nd ref="28087813"/>
    <tag k="highway" v="cycleway"/>
  </way>
  <way id="4525508" version="5" timestamp="2010-02-05T21:54:21Z" uid="6269" user="Mueck" changeset="3800954">
    <nd ref="25970528"/>
    <nd ref="497700738"/>
    <nd ref="28088666"/>
    <nd ref="25970527"/>
    <nd ref="25970526"/>
    <nd ref="17199057"/>
    <tag k="foot" v="designated"/>
    <tag k="highway" v="cycleway"/>
    <tag k="name" v="Mastweidenweg"/>
  </way>
  <way id="4525508" version="6" timestamp="2010-03-15T10:31:26Z" uid="6269" user="Mueck" changeset="4133339">
    <nd ref="25970528"/>
    <nd ref="497700738"/>
    <nd ref="28088666"/>
    <nd ref="25970527"/>
    <tag k="foot" v="designated"/>
    <tag k="highway" v="cycleway"/>
    <tag k="name" v="Mastweidenweg"/>
  </way>
  <way id="4525508" version="8" timestamp="2011-02-28T18:18:31Z" uid="6269" user="Mueck" changeset="7422830">
    <nd ref="25970528"/>
    <nd ref="693473728"/>
    <nd ref="1179351089"/>
    <nd ref="1179351250"/>
    <nd ref="1179351276"/>
    <nd ref="1179351425"/>
    <nd ref="1179351291"/>
    <nd ref="497700738"/>
    <nd ref="28088666"/>
    <nd ref="1179351140"/>
    <nd ref="1179351231"/>
    <nd ref="1179351220"/>
    <nd ref="25970527"/>
    <tag k="foot" v="designated"/>
    <tag k="highway" v="cycleway"/>
    <tag k="name" v="Mastweidenweg"/>
  </way>
  <way id="4525509" version="8" timestamp="2010-05-25T00:33:01Z" uid="6269" user="Mueck" changeset="4799840">
    <nd ref="25250612"/>
    <nd ref="693473548"/>
    <nd ref="693473589"/>
    <nd ref="25440472"/>
    <nd ref="693473566"/>
    <nd ref="693474117"/>
    <nd ref="25440474"/>
    <nd ref="693473816"/>
    <nd ref="693473664"/>
    <nd ref="25440476"/>
    <nd ref="693417858"/>
    <nd ref="25440478"/>
    <nd ref="25440480"/>
    <tag k="electrified" v="contact_line"/>
    <tag k="embankment" v="yes"/>
    <tag k="frequency" v="16.7"/>
    <tag k="railway" v="rail"/>
    <tag k="voltage" v="15000"/>
  </way>
  <way id="4525509" version="10" timestamp="2010-12-01T12:35:28Z" uid="6269" user="Mueck" changeset="6503201">
    <nd ref="1014441500"/>
    <nd ref="25250612"/>
    <nd ref="693473548"/>
    <nd ref="693473589"/>
    <nd ref="25440472"/>
    <nd ref="693473566"/>
    <nd ref="950892841"/>
    <nd ref="693474117"/>
    <nd ref="25440474"/>
    <nd ref="693473816"/>
    <nd ref="693473664"/>
    <nd ref="25440476"/>
    <nd ref="693417858"/>
    <nd ref="25440478"/>
    <nd ref="25440480"/>
    <tag k="electrified" v="contact_line"/>
    <tag k="embankment" v="yes"/>
    <tag k="frequency" v="16.7"/>
    <tag k="railway" v="rail"/>
    <tag k="voltage" v="15000"/>
  </way>
  <way id="4525510" version="8" timestamp="2011-02-28T18:18:32Z" uid="6269" user="Mueck" changeset="7422830">
    <nd ref="25440480"/>
    <nd ref="497700817"/>
    <tag k="bridge" v="yes"/>
    <tag k="electrified" v="contact_line"/>
    <tag k="frequency" v="16.7"/>
    <tag k="gauge" v="1435"/>
    <tag k="layer" v="1"/>
    <tag k="operator" v="DB Netz"/>
    <tag k="railway" v="rail"/>
    <tag k="tracks" v="1"/>
    <tag k="usage" v="main"/>
    <tag k="voltage" v="15000"/>
    <tag k="workrules" v="EBO"/>
  </way>
  <way id="4525511" version="4" timestamp="2011-03-27T17:35:56Z" uid="6269" user="Mueck" changeset="7688761">
    <nd ref="28088671"/>
    <nd ref="1221942347"/>
    <nd ref="330978912"/>
    <nd ref="1221942595"/>
    <nd ref="1221942711"/>
    <nd ref="1221942935"/>
    <nd ref="28088669"/>
    <tag k="highway" v="service"/>
  </way>
  <way id="4525512" version="3" timestamp="2008-03-31T19:49:06Z" uid="16922" user="amai" changeset="434241">
    <nd ref="526206"/>
    <nd ref="16809403"/>
    <nd ref="526207"/>
    <nd ref="526208"/>
    <tag k="created_by" v="Potlatch 0.8a"/>
    <tag k="highway" v="primary"/>
    <tag k="lanes" v="3"/>
    <tag k="maxspeed" v="60"/>
    <tag k="name" v="Durlacher Allee"/>
    <tag k="oneway" v="yes"/>
    <tag k="ref" v="B10"/>
  </way>
  <way id="4525512" version="6" timestamp="2009-05-24T13:44:00Z" uid="6269" user="Mueck" changeset="1305649">
    <nd ref="526206"/>
    <nd ref="16809403"/>
    <nd ref="526207"/>
    <nd ref="344877846"/>
    <tag k="created_by" v="Merkaartor 0.13"/>
    <tag k="cycleway" v="track"/>
    <tag k="highway" v="primary"/>
    <tag k="lanes" v="3"/>
    <tag k="maxspeed" v="60"/>
    <tag k="name" v="Durlacher Allee"/>
    <tag k="oneway" v="yes"/>
    <tag k="ref" v="B 10"/>
  </way>
  <way id="4525512" version="9" timestamp="2009-10-11T07:44:13Z" uid="6269" user="Mueck" changeset="2810890">
    <nd ref="526206"/>
    <nd ref="16809403"/>
    <nd ref="526207"/>
    <tag k="cycleway" v="track"/>
    <tag k="highway" v="trunk"/>
    <tag k="lanes" v="3"/>
    <tag k="maxspeed" v="60"/>
    <tag k="name" v="Durlacher Allee"/>
    <tag k="oneway" v="yes"/>
    <tag k="ref" v="B 10"/>
  </way>
  <way id="4525512" version="10" timestamp="2009-10-11T09:25:29Z" uid="6269" user="Mueck" changeset="2811983">
    <nd ref="526206"/>
    <nd ref="16809403"/>
    <nd ref="526207"/>
    <tag k="cycleway" v="track"/>
    <tag k="highway" v="trunk"/>
    <tag k="lanes" v="3"/>
    <tag k="maxspeed" v="60"/>
    <tag k="motorroad" v="no"/>
    <tag k="name" v="Durlacher Allee"/>
    <tag k="oneway" v="yes"/>
    <tag k="ref" v="B 10"/>
  </way>
  <way id="4525512" version="11" timestamp="2011-02-06T01:24:01Z" uid="6269" user="Mueck" changeset="7199360">
    <nd ref="526206"/>
    <nd ref="16809403"/>
    <nd ref="344877846"/>
    <nd ref="1138332338"/>
    <tag k="cycleway" v="track"/>
    <tag k="highway" v="trunk"/>
    <tag k="lanes" v="3"/>
    <tag k="maxspeed" v="60"/>
    <tag k="motorroad" v="no"/>
    <tag k="name" v="Durlacher Allee"/>
    <tag k="oneway" v="yes"/>
    <tag k="ref" v="B 10"/>
  </way>
  <way id="4525513" version="2" timestamp="2008-02-12T20:48:26Z" uid="6269" user="Mueck" changeset="111430">
    <nd ref="21596341"/>
    <nd ref="31088851"/>
    <nd ref="21596339"/>
    <tag k="created_by" v="Potlatch 0.7a"/>
    <tag k="railway" v="tram"/>
  </way>
  <way id="4525513" version="3" timestamp="2008-02-12T22:16:10Z" uid="6269" user="Mueck" changeset="111430">
    <nd ref="21596341"/>
    <nd ref="31088851"/>
    <nd ref="21596339"/>
    <tag k="created_by" v="Potlatch 0.7a"/>
    <tag k="layer" v="1"/>
    <tag k="railway" v="tram"/>
  </way>
  <way id="4525513" version="4" timestamp="2008-02-24T21:24:31Z" uid="6269" user="Mueck" changeset="193920">
    <nd ref="21596341"/>
    <nd ref="31088851"/>
    <nd ref="21596339"/>
    <tag k="created_by" v="Potlatch 0.7b"/>
    <tag k="layer" v="1"/>
    <tag k="railway" v="tram"/>
  </way>
  <way id="4525513" version="7" timestamp="2011-02-04T23:03:45Z" uid="6269" user="Mueck" changeset="7188115">
    <nd ref="421648988"/>
    <nd ref="31088851"/>
    <nd ref="21596339"/>
    <tag k="layer" v="1"/>
    <tag k="railway" v="tram"/>
  </way>
  <way id="4525513" version="8" timestamp="2011-02-06T00:14:18Z" uid="6269" user="Mueck" changeset="7199030"/>
  <way id="4525514" version="3" timestamp="2008-02-12T20:48:07Z" uid="6269" user="Mueck" changeset="111430">
    <nd ref="21596339"/>
    <nd ref="28088675"/>
    <tag k="bridge" v="yes"/>
    <tag k="created_by" v="Potlatch 0.7a"/>
    <tag k="layer" v="1"/>
    <tag k="railway" v="tram"/>
  </way>
  <way id="4525514" version="5" timestamp="2011-02-06T00:14:19Z" uid="6269" user="Mueck" changeset="7199030"/>
  <way id="4525515" version="4" timestamp="2009-05-24T13:43:00Z" uid="6269" user="Mueck" changeset="1305649">
    <nd ref="15848106"/>
    <nd ref="25523846"/>
    <nd ref="482686"/>
    <nd ref="526172"/>
    <tag k="created_by" v="Potlatch 0.9a"/>
    <tag k="cycleway" v="track"/>
    <tag k="highway" v="primary"/>
    <tag k="name" v="Durlacher Allee"/>
    <tag k="oneway" v="yes"/>
    <tag k="ref" v="B 10"/>
  </way>
  <way id="4525515" version="6" timestamp="2009-10-11T07:43:53Z" uid="6269" user="Mueck" changeset="2810890">
    <nd ref="15848106"/>
    <nd ref="25523846"/>
    <nd ref="482686"/>
    <nd ref="526172"/>
    <tag k="cycleway" v="track"/>
    <tag k="highway" v="trunk"/>
    <tag k="name" v="Durlacher Allee"/>
    <tag k="oneway" v="yes"/>
    <tag k="ref" v="B 10"/>
  </way>
  <way id="4525515" version="7" timestamp="2009-10-11T09:25:16Z" uid="6269" user="Mueck" changeset="2811983">
    <nd ref="15848106"/>
    <nd ref="25523846"/>
    <nd ref="482686"/>
    <nd ref="526172"/>
    <tag k="cycleway" v="track"/>
    <tag k="highway" v="trunk"/>
    <tag k="motorroad" v="no"/>
    <tag k="name" v="Durlacher Allee"/>
    <tag k="oneway" v="yes"/>
    <tag k="ref" v="B 10"/>
  </way>
  <way id="4525515" version="9" timestamp="2010-04-22T16:07:51Z" uid="6269" user="Mueck" changeset="4496275">
    <nd ref="15848106"/>
    <nd ref="25523846"/>
    <nd ref="482686"/>
    <nd ref="526172"/>
    <tag k="cycleway" v="track"/>
    <tag k="highway" v="trunk"/>
    <tag k="motorroad" v="no"/>
    <tag k="name" v="Durlacher Allee"/>
    <tag k="oneway" v="yes"/>
    <tag k="ref" v="B 10"/>
  </way>
  <way id="4525515" version="11" timestamp="2011-02-06T00:14:01Z" uid="6269" user="Mueck" changeset="7199030">
    <nd ref="1138258518"/>
    <nd ref="15848106"/>
    <nd ref="25523846"/>
    <tag k="cycleway" v="track"/>
    <tag k="highway" v="trunk"/>
    <tag k="motorroad" v="no"/>
    <tag k="name" v="Durlacher Allee"/>
    <tag k="oneway" v="yes"/>
    <tag k="ref" v="B 10"/>
  </way>
  <way id="4525516" version="4" timestamp="2008-02-24T21:24:18Z" uid="6269" user="Mueck" changeset="193920">
    <nd ref="28088672"/>
    <nd ref="15848106"/>
    <tag k="bridge" v="yes"/>
    <tag k="created_by" v="Potlatch 0.7b"/>
    <tag k="highway" v="primary"/>
    <tag k="layer" v="1"/>
    <tag k="name" v="Durlacher Allee"/>
    <tag k="oneway" v="yes"/>
    <tag k="ref" v="B10"/>
  </way>
  <way id="4525516" version="6" timestamp="2009-05-24T13:41:50Z" uid="6269" user="Mueck" changeset="1305649">
    <nd ref="28088672"/>
    <nd ref="15848106"/>
    <tag k="bridge" v="yes"/>
    <tag k="created_by" v="Potlatch 0.9a"/>
    <tag k="cycleway" v="track"/>
    <tag k="highway" v="primary"/>
    <tag k="layer" v="1"/>
    <tag k="name" v="Durlacher Allee"/>
    <tag k="oneway" v="yes"/>
    <tag k="ref" v="B 10"/>
  </way>
  <way id="4525516" version="8" timestamp="2010-04-22T16:08:22Z" uid="6269" user="Mueck" changeset="4496275">
    <nd ref="28088672"/>
    <nd ref="15848106"/>
    <tag k="bridge" v="yes"/>
    <tag k="cycleway" v="track"/>
    <tag k="highway" v="primary"/>
    <tag k="layer" v="1"/>
    <tag k="motorroad" v="no"/>
    <tag k="name" v="Durlacher Allee"/>
    <tag k="oneway" v="yes"/>
    <tag k="ref" v="B 10"/>
  </way>
  <way id="4525516" version="9" timestamp="2011-02-06T00:14:02Z" uid="6269" user="Mueck" changeset="7199030">
    <nd ref="28088672"/>
    <nd ref="1138258518"/>
    <tag k="bridge" v="yes"/>
    <tag k="cycleway" v="track"/>
    <tag k="highway" v="primary"/>
    <tag k="layer" v="1"/>
    <tag k="motorroad" v="no"/>
    <tag k="name" v="Durlacher Allee"/>
    <tag k="oneway" v="yes"/>
    <tag k="ref" v="B 10"/>
  </way>
  <way id="4525517" version="4" timestamp="2008-02-24T21:24:24Z" uid="6269" user="Mueck" changeset="193920">
    <nd ref="526208"/>
    <nd ref="28088673"/>
    <tag k="bridge" v="yes"/>
    <tag k="created_by" v="Potlatch 0.7b"/>
    <tag k="highway" v="primary"/>
    <tag k="layer" v="1"/>
    <tag k="maxspeed" v="60"/>
    <tag k="name" v="Durlacher Allee"/>
    <tag k="oneway" v="yes"/>
    <tag k="ref" v="B10"/>
  </way>
  <way id="4525517" version="7" timestamp="2009-05-24T13:41:41Z" uid="6269" user="Mueck" changeset="1305649">
    <nd ref="526208"/>
    <nd ref="28088673"/>
    <tag k="bridge" v="yes"/>
    <tag k="created_by" v="Merkaartor 0.13"/>
    <tag k="cycleway" v="track"/>
    <tag k="highway" v="primary"/>
    <tag k="lanes" v="3"/>
    <tag k="layer" v="1"/>
    <tag k="maxspeed" v="60"/>
    <tag k="name" v="Durlacher Allee"/>
    <tag k="oneway" v="yes"/>
    <tag k="ref" v="B 10"/>
  </way>
  <way id="4525517" version="9" timestamp="2010-04-22T16:08:44Z" uid="6269" user="Mueck" changeset="4496275">
    <nd ref="526208"/>
    <nd ref="28088673"/>
    <tag k="bridge" v="yes"/>
    <tag k="cycleway" v="track"/>
    <tag k="highway" v="primary"/>
    <tag k="lanes" v="3"/>
    <tag k="layer" v="1"/>
    <tag k="maxspeed" v="60"/>
    <tag k="motorroad" v="no"/>
    <tag k="name" v="Durlacher Allee"/>
    <tag k="oneway" v="yes"/>
    <tag k="ref" v="B 10"/>
  </way>
  <way id="4525518" version="4" timestamp="2011-02-06T01:24:01Z" uid="6269" user="Mueck" changeset="7199360">
    <nd ref="17199064"/>
    <nd ref="330978907"/>
    <nd ref="1138332250"/>
    <nd ref="1138332327"/>
    <nd ref="602218206"/>
    <tag k="highway" v="service"/>
  </way>
  <way id="4525521" version="3" timestamp="2011-03-31T18:17:11Z" uid="6269" user="Mueck" changeset="7728194">
    <nd ref="28088686"/>
    <nd ref="28088683"/>
    <nd ref="602218203"/>
    <nd ref="28088684"/>
    <nd ref="28088679"/>
    <nd ref="28088680"/>
    <nd ref="1226967716"/>
    <nd ref="28088681"/>
    <nd ref="602218192"/>
    <tag k="access" v="permissive"/>
    <tag k="bicycle" v="no"/>
    <tag k="highway" v="footway"/>
    <tag k="lit" v="no"/>
    <tag k="surface" v="compacted"/>
    <tag k="width" v="2.5"/>
  </way>
  <way id="4525549" version="4" timestamp="2011-03-31T18:11:11Z" uid="6269" user="Mueck" changeset="7728194">
    <nd ref="28089399"/>
    <nd ref="602218188"/>
    <nd ref="28089402"/>
    <nd ref="1226962906"/>
    <nd ref="28089403"/>
    <nd ref="1226962986"/>
    <nd ref="28089405"/>
    <nd ref="1226962803"/>
    <nd ref="28089406"/>
    <nd ref="1226962950"/>
    <nd ref="1226962918"/>
    <nd ref="1226962921"/>
    <nd ref="28089407"/>
    <nd ref="28089409"/>
    <tag k="highway" v="track"/>
  </way>
  <way id="4525550" version="3" timestamp="2011-03-31T18:11:11Z" uid="6269" user="Mueck" changeset="7728194">
    <nd ref="28089409"/>
    <nd ref="28089410"/>
    <nd ref="1226962847"/>
    <nd ref="25970496"/>
    <tag k="highway" v="footway"/>
    <tag k="name" v="Asternweg"/>
  </way>
  <way id="4525551" version="2" timestamp="2008-03-29T17:01:47Z" uid="16922" user="amai" changeset="420423">
    <nd ref="28089413"/>
    <nd ref="14911457"/>
    <tag k="created_by" v="Potlatch 0.8"/>
    <tag k="highway" v="residential"/>
    <tag k="maxspeed" v="30"/>
    <tag k="name" v="Haizingerstraße"/>
  </way>
  <way id="4525551" version="4" timestamp="2011-03-20T18:24:49Z" uid="6269" user="Mueck" changeset="7619807">
    <nd ref="28089413"/>
    <nd ref="1210862128"/>
    <tag k="highway" v="residential"/>
    <tag k="maxspeed" v="30"/>
    <tag k="name" v="Haizingerstraße"/>
  </way>
  <way id="4525552" version="2" timestamp="2008-03-29T17:02:33Z" uid="16922" user="amai" changeset="420423">
    <nd ref="21498537"/>
    <nd ref="16375847"/>
    <tag k="created_by" v="Potlatch 0.8"/>
    <tag k="highway" v="footway"/>
    <tag k="name" v="Veilchenweg"/>
  </way>
  <way id="4525552" version="3" timestamp="2009-02-01T22:30:39Z" uid="6269" user="Mueck" changeset="68685">
    <nd ref="21498537"/>
    <nd ref="16375847"/>
    <tag k="created_by" v="Potlatch 0.10f"/>
    <tag k="highway" v="cycleway"/>
    <tag k="name" v="Veilchenweg"/>
  </way>
  <way id="4525552" version="5" timestamp="2011-02-04T15:36:18Z" uid="6269" user="Mueck" changeset="7184150">
    <nd ref="28089435"/>
    <nd ref="1135779237"/>
    <nd ref="1135779374"/>
    <nd ref="1135779298"/>
    <nd ref="28089441"/>
    <nd ref="1135779204"/>
    <nd ref="1135779303"/>
    <nd ref="28089437"/>
    <nd ref="1135779208"/>
    <nd ref="1135779367"/>
    <nd ref="16375847"/>
    <tag k="foot" v="yes"/>
    <tag k="highway" v="cycleway"/>
  </way>
  <way id="4525553" version="2" timestamp="2009-02-01T22:30:55Z" uid="6269" user="Mueck" changeset="68685">
    <nd ref="28089435"/>
    <nd ref="28089441"/>
    <nd ref="28089437"/>
    <tag k="created_by" v="Potlatch 0.10f"/>
    <tag k="highway" v="cycleway"/>
  </way>
  <way id="4525553" version="4" timestamp="2011-02-04T15:36:22Z" uid="6269" user="Mueck" changeset="7184150"/>
  <way id="4525554" version="4" timestamp="2011-03-22T16:13:17Z" uid="6269" user="Mueck" changeset="7638315">
    <nd ref="14911409"/>
    <nd ref="528849356"/>
    <nd ref="1213514770"/>
    <nd ref="1213514765"/>
    <nd ref="29947540"/>
    <nd ref="1056650030"/>
    <tag k="highway" v="unclassified"/>
  </way>
  <way id="4525558" version="3" timestamp="2010-05-02T23:50:40Z" uid="6269" user="Mueck" changeset="4591215">
    <nd ref="28089419"/>
    <nd ref="718123409"/>
    <nd ref="28089453"/>
    <tag k="highway" v="cycleway"/>
  </way>
  <way id="4525558" version="4" timestamp="2010-05-02T23:51:05Z" uid="6269" user="Mueck" changeset="4591215">
    <nd ref="28089419"/>
    <nd ref="28089453"/>
    <tag k="highway" v="cycleway"/>
  </way>
  <way id="4525558" version="6" timestamp="2011-03-22T16:13:17Z" uid="6269" user="Mueck" changeset="7638315">
    <nd ref="28089419"/>
    <nd ref="1056650004"/>
    <nd ref="28089453"/>
    <tag k="foot" v="yes"/>
    <tag k="highway" v="cycleway"/>
  </way>
  <way id="4525661" version="5" timestamp="2009-11-20T22:13:30Z" uid="6269" user="Mueck" changeset="3172238">
    <nd ref="309303752"/>
    <nd ref="28090025"/>
    <nd ref="28090024"/>
    <nd ref="31088928"/>
    <nd ref="309303417"/>
    <nd ref="309303418"/>
    <tag k="highway" v="cycleway"/>
  </way>
  <way id="4525720" version="1" timestamp="2007-07-06T22:56:18Z" uid="6454" user="B10xxx" changeset="130434">
    <nd ref="21487267"/>
    <nd ref="28982001"/>
    <nd ref="26867700"/>
    <nd ref="26867703"/>
    <nd ref="26867694"/>
    <nd ref="26867698"/>
    <nd ref="26867757"/>
    <tag k="created_by" v="Potlatch alpha"/>
    <tag k="highway" v="secondary"/>
    <tag k="name" v="Martin-Luther-Straße"/>
    <tag k="oneway" v="yes"/>
  </way>
  <way id="4525720" version="2" timestamp="2007-10-10T22:54:54Z" uid="6454" user="B10xxx" changeset="104165">
    <nd ref="21487267"/>
    <nd ref="28982001"/>
    <nd ref="26867700"/>
    <nd ref="26867703"/>
    <nd ref="26867694"/>
    <nd ref="26867698"/>
    <tag k="created_by" v="Potlatch alpha"/>
    <tag k="highway" v="secondary"/>
    <tag k="name" v="Martin-Luther-Straße"/>
    <tag k="oneway" v="yes"/>
  </way>
  <way id="4525721" version="1" timestamp="2007-07-06T22:56:18Z" uid="6454" user="B10xxx" changeset="130434">
    <nd ref="26867704"/>
    <nd ref="26867955"/>
    <nd ref="26867954"/>
    <nd ref="26867953"/>
    <nd ref="26867702"/>
    <nd ref="26867701"/>
    <nd ref="28982000"/>
    <nd ref="26867476"/>
    <tag k="created_by" v="Potlatch alpha"/>
    <tag k="highway" v="secondary"/>
    <tag k="name" v="Martin-Luther-Straße"/>
    <tag k="oneway" v="yes"/>
  </way>
  <way id="4525721" version="2" timestamp="2007-10-10T22:54:54Z" uid="6454" user="B10xxx" changeset="104165">
    <nd ref="26867704"/>
    <nd ref="26867955"/>
    <nd ref="26867954"/>
    <tag k="created_by" v="Potlatch alpha"/>
    <tag k="highway" v="secondary"/>
    <tag k="name" v="Martin-Luther-Straße"/>
    <tag k="oneway" v="yes"/>
  </way>
  <way id="4525741" version="1" timestamp="2007-07-06T22:59:03Z" uid="6454" user="B10xxx" changeset="130434">
    <nd ref="27186878"/>
    <nd ref="27785320"/>
    <nd ref="27785323"/>
    <nd ref="27785302"/>
    <nd ref="27785305"/>
    <nd ref="27785387"/>
    <nd ref="27785430"/>
    <nd ref="27785428"/>
    <nd ref="27785365"/>
    <nd ref="27786128"/>
    <nd ref="27786129"/>
    <nd ref="27786224"/>
    <nd ref="27786104"/>
    <tag k="created_by" v="Potlatch alpha"/>
    <tag k="highway" v="primary"/>
    <tag k="name" v="Hauptstraße"/>
    <tag k="oneway" v="yes"/>
  </way>
  <way id="4525742" version="1" timestamp="2007-07-06T22:59:04Z" uid="6454" user="B10xxx" changeset="130434">
    <nd ref="27786105"/>
    <nd ref="31389833"/>
    <nd ref="27786127"/>
    <nd ref="27785364"/>
    <nd ref="27785421"/>
    <nd ref="27785436"/>
    <nd ref="27785385"/>
    <nd ref="27785304"/>
    <nd ref="27785303"/>
    <nd ref="27785321"/>
    <nd ref="27785319"/>
    <nd ref="27186880"/>
    <tag k="created_by" v="Potlatch alpha"/>
    <tag k="highway" v="primary"/>
    <tag k="name" v="Hauptstraße"/>
    <tag k="oneway" v="yes"/>
  </way>
  <way id="4525757" version="2" timestamp="2008-05-08T17:22:17Z" uid="16922" user="amai" changeset="365456">
    <nd ref="262841224"/>
    <nd ref="262841222"/>
    <nd ref="28091675"/>
    <nd ref="28091673"/>
    <nd ref="25970476"/>
    <tag k="created_by" v="Potlatch 0.9"/>
    <tag k="highway" v="service"/>
  </way>
  <way id="4525757" version="3" timestamp="2008-05-11T13:45:13Z" uid="16922" user="amai" changeset="410991">
    <nd ref="262841224"/>
    <nd ref="262841222"/>
    <nd ref="28091675"/>
    <nd ref="28091673"/>
    <nd ref="25970476"/>
    <tag k="created_by" v="Potlatch 0.9"/>
    <tag k="highway" v="service"/>
  </way>
  <way id="4525757" version="5" timestamp="2011-03-31T14:24:30Z" uid="6269" user="Mueck" changeset="7726429">
    <nd ref="262841224"/>
    <nd ref="1226756530"/>
    <nd ref="262841222"/>
    <nd ref="28091675"/>
    <nd ref="28091673"/>
    <nd ref="1226756472"/>
    <nd ref="25970476"/>
    <tag k="highway" v="service"/>
  </way>
  <way id="4525758" version="4" timestamp="2011-03-31T14:24:31Z" uid="6269" user="Mueck" changeset="7726429">
    <nd ref="28091684"/>
    <nd ref="1226756483"/>
    <tag k="highway" v="residential"/>
    <tag k="name" v="Alte Karlsruher Straße"/>
  </way>
  <way id="4525759" version="4" timestamp="2011-03-31T14:24:30Z" uid="6269" user="Mueck" changeset="7726429">
    <nd ref="28091681"/>
    <nd ref="28091679"/>
    <nd ref="28091678"/>
    <tag k="highway" v="living_street"/>
    <tag k="name" v="Alte Karlsruher Straße"/>
  </way>
  <way id="4525760" version="2" timestamp="2008-02-19T15:59:37Z" uid="6269" user="Mueck" changeset="154991">
    <nd ref="28091693"/>
    <nd ref="28091705"/>
    <nd ref="28091695"/>
    <nd ref="28091689"/>
    <nd ref="28091696"/>
    <nd ref="28091697"/>
    <nd ref="28091699"/>
    <nd ref="28091700"/>
    <nd ref="28091701"/>
    <nd ref="248440043"/>
    <nd ref="28091720"/>
    <nd ref="28091707"/>
    <tag k="created_by" v="Potlatch 0.7b"/>
    <tag k="highway" v="unclassified"/>
  </way>
  <way id="4525767" version="3" timestamp="2008-08-09T01:23:14Z" uid="6269" user="Mueck" changeset="154032">
    <nd ref="28091730"/>
    <nd ref="28140025"/>
    <nd ref="25391166"/>
    <nd ref="262681397"/>
    <nd ref="25391209"/>
    <tag k="created_by" v="Potlatch 0.10b"/>
    <tag k="highway" v="primary"/>
    <tag k="name" v="Herdweg"/>
    <tag k="note" v="im SHP des NVK: I"/>
  </way>
  <way id="4525773" version="8" timestamp="2010-06-20T15:54:19Z" uid="6269" user="Mueck" changeset="5034267">
    <nd ref="28091759"/>
    <nd ref="149039264"/>
    <nd ref="446032173"/>
    <nd ref="149039262"/>
    <nd ref="28091761"/>
    <nd ref="28091762"/>
    <nd ref="28091763"/>
    <nd ref="28091765"/>
    <nd ref="28091766"/>
    <nd ref="28091767"/>
    <nd ref="28091750"/>
    <nd ref="28091751"/>
    <nd ref="28091752"/>
    <nd ref="28140022"/>
    <nd ref="28140027"/>
    <nd ref="28140030"/>
    <nd ref="28140034"/>
    <nd ref="149045725"/>
    <nd ref="778294712"/>
    <nd ref="149045726"/>
    <tag k="name" v="Pfinz"/>
    <tag k="waterway" v="river"/>
    <tag k="width" v="8"/>
  </way>
  <way id="4525775" version="2" timestamp="2007-10-10T22:54:53Z" uid="6454" user="B10xxx" changeset="104165">
    <nd ref="27785208"/>
    <nd ref="63830462"/>
    <nd ref="26867698"/>
    <tag k="created_by" v="JOSM"/>
    <tag k="highway" v="tertiary"/>
    <tag k="name" v="Badensche Straße"/>
    <tag k="oneway" v="yes"/>
  </way>
  <way id="4525782" version="1" timestamp="2007-07-05T22:24:20Z" uid="6454" user="B10xxx" changeset="128807">
    <nd ref="27186974"/>
    <nd ref="27186894"/>
    <nd ref="26908766"/>
    <nd ref="26908765"/>
    <nd ref="27186909"/>
    <nd ref="27326073"/>
    <nd ref="27326075"/>
    <nd ref="31356007"/>
    <nd ref="21487276"/>
    <nd ref="27538954"/>
    <nd ref="27538962"/>
    <nd ref="21487275"/>
    <nd ref="27538921"/>
    <nd ref="27538925"/>
    <nd ref="27538929"/>
    <nd ref="29000042"/>
    <tag k="created_by" v="Potlatch alpha"/>
    <tag k="highway" v="secondary"/>
    <tag k="maxspeed" v="50"/>
    <tag k="name" v="Sachsendamm"/>
    <tag k="oneway" v="yes"/>
  </way>
  <way id="4525784" version="1" timestamp="2007-07-05T22:22:02Z" uid="6454" user="B10xxx" changeset="128807">
    <nd ref="27186972"/>
    <nd ref="27186884"/>
    <nd ref="31355884"/>
    <nd ref="27186878"/>
    <tag k="created_by" v="Potlatch alpha"/>
    <tag k="highway" v="secondary"/>
    <tag k="maxspeed" v="50"/>
    <tag k="name" v="Dominicus Straße"/>
    <tag k="oneway" v="yes"/>
  </way>
  <way id="4525794" version="2" timestamp="2011-04-06T21:28:59Z" uid="6269" user="Mueck" changeset="7789512">
    <nd ref="28092474"/>
    <nd ref="1235211163"/>
    <nd ref="28092476"/>
    <nd ref="1235210527"/>
    <nd ref="28092479"/>
    <tag k="highway" v="footway"/>
  </way>
  <way id="4525870" version="1" timestamp="2007-06-05T21:10:12Z" uid="6454" user="B10xxx" changeset="82797">
    <nd ref="27785840"/>
    <nd ref="29986616"/>
    <nd ref="27785848"/>
    <nd ref="27785855"/>
    <nd ref="28091938"/>
    <tag k="created_by" v="JOSM"/>
    <tag k="highway" v="secondary"/>
    <tag k="name" v="Goebenstraße"/>
  </way>
  <way id="4525871" version="1" timestamp="2007-06-05T21:10:09Z" uid="6454" user="B10xxx" changeset="82797">
    <nd ref="28091938"/>
    <nd ref="26952354"/>
    <nd ref="29986612"/>
    <nd ref="26952355"/>
    <nd ref="29318894"/>
    <nd ref="29318891"/>
    <nd ref="26865685"/>
    <tag k="created_by" v="YahooApplet 1.0"/>
    <tag k="highway" v="secondary"/>
    <tag k="name" v="Goebenstraße"/>
  </way>
  <way id="4525985" version="1" timestamp="2007-06-07T00:06:23Z" uid="6454" user="B10xxx" changeset="84838">
    <nd ref="27326068"/>
    <nd ref="27326066"/>
    <tag k="bridge" v="yes"/>
    <tag k="created_by" v="JOSM"/>
    <tag k="highway" v="tertiary"/>
    <tag k="layer" v="1"/>
    <tag k="name" v="Vorarlberger Damm"/>
  </way>
</osm>
