<?xml version='1.0' encoding='UTF-8'?>
<osm version="0.6" generator="libosmium/2.20.0">
  <way id="4548010" version="2" timestamp="2008-07-15T01:37:47Z" uid="6975" user="ulfl" changeset="496348">
    <nd ref="25399560"/>
    <nd ref="15314200"/>
    <nd ref="15314198"/>
    <nd ref="15314207"/>
    <tag k="highway" v="trunk"/>
    <tag k="lanes" v="2"/>
    <tag k="lit" v="yes"/>
    <tag k="maxspeed" v="64"/>
    <tag k="name" v="Kingsway"/>
    <tag k="oneway" v="yes"/>
  </way>
  <way id="4548010" version="4" timestamp="2009-04-26T18:27:23Z" uid="26515" user="Simon Ward" changeset="978752">
    <nd ref="25399560"/>
    <nd ref="15314200"/>
    <nd ref="385457375"/>
    <nd ref="15314198"/>
    <nd ref="15314207"/>
    <tag k="created_by" v="Potlatch 0.10b"/>
    <tag k="highway" v="trunk"/>
    <tag k="lanes" v="2"/>
    <tag k="lit" v="yes"/>
    <tag k="maxspeed" v="64"/>
    <tag k="name" v="Kingsway"/>
    <tag k="oneway" v="yes"/>
    <tag k="ref" v="A34"/>
  </way>
  <way id="4548011" version="2" timestamp="2008-05-22T23:45:28Z" uid="26515" user="Simon Ward" changeset="503854">
    <nd ref="15314207"/>
    <nd ref="266416491"/>
    <nd ref="15314209"/>
    <nd ref="15314212"/>
    <nd ref="15314238"/>
    <nd ref="15314240"/>
    <nd ref="15314242"/>
    <nd ref="15314244"/>
    <nd ref="15314246"/>
    <nd ref="15314247"/>
    <tag k="created_by" v="JOSM"/>
    <tag k="highway" v="trunk"/>
    <tag k="lanes" v="2"/>
    <tag k="lit" v="yes"/>
    <tag k="maxspeed" v="40 mph"/>
    <tag k="name" v="Kingsway"/>
    <tag k="oneway" v="yes"/>
  </way>
  <way id="4548011" version="3" timestamp="2008-05-23T00:21:22Z" uid="26515" user="Simon Ward" changeset="503854">
    <nd ref="15314207"/>
    <nd ref="266419323"/>
    <tag k="bridge" v="yes"/>
    <tag k="created_by" v="JOSM"/>
    <tag k="highway" v="trunk"/>
    <tag k="lanes" v="2"/>
    <tag k="layer" v="1"/>
    <tag k="lit" v="yes"/>
    <tag k="maxspeed" v="40 mph"/>
    <tag k="name" v="Kingsway"/>
    <tag k="oneway" v="yes"/>
  </way>
  <way id="4548011" version="4" timestamp="2008-07-15T01:37:47Z" uid="6975" user="ulfl" changeset="496348">
    <nd ref="15314207"/>
    <nd ref="266419323"/>
    <tag k="bridge" v="yes"/>
    <tag k="highway" v="trunk"/>
    <tag k="lanes" v="2"/>
    <tag k="layer" v="1"/>
    <tag k="lit" v="yes"/>
    <tag k="maxspeed" v="64"/>
    <tag k="name" v="Kingsway"/>
    <tag k="oneway" v="yes"/>
  </way>
  <way id="4548021" version="5" timestamp="2010-06-23T21:06:30Z" uid="4467" user="Rosscoe" changeset="5062069">
    <nd ref="28372726"/>
    <nd ref="28372767"/>
    <nd ref="28372768"/>
    <nd ref="28372769"/>
    <nd ref="28372770"/>
    <nd ref="784570534"/>
    <nd ref="28372766"/>
    <tag k="highway" v="residential"/>
    <tag k="name" v="Laundry Road"/>
  </way>
  <way id="4548040" version="1" timestamp="2007-05-15T03:02:28Z" uid="7617" user="Franc" changeset="50925">
    <nd ref="28372829"/>
    <nd ref="28372825"/>
    <nd ref="28372827"/>
    <nd ref="28372823"/>
    <nd ref="28372829"/>
    <tag k="created_by" v="JOSM"/>
    <tag k="highway" v="unclassified"/>
    <tag k="roundabout" v="yes"/>
  </way>
  <way id="4548040" version="3" timestamp="2008-03-09T23:47:47Z" uid="7617" user="Franc" changeset="297420">
    <nd ref="28372829"/>
    <nd ref="28372825"/>
    <nd ref="28372827"/>
    <nd ref="28372823"/>
    <nd ref="28372829"/>
    <tag k="highway" v="tertiary"/>
    <tag k="junction" v="roundabout"/>
  </way>
  <way id="4548041" version="1" timestamp="2007-07-09T08:32:25Z" uid="7617" user="Franc" changeset="134385">
    <nd ref="28372829"/>
    <nd ref="31481543"/>
    <nd ref="15158998"/>
    <tag k="created_by" v="JOSM"/>
    <tag k="highway" v="unclassified"/>
    <tag k="name" v="Golden Grove"/>
  </way>
  <way id="4548041" version="2" timestamp="2008-02-27T12:23:53Z" uid="7617" user="Franc" changeset="216849">
    <nd ref="28372829"/>
    <nd ref="31481543"/>
    <nd ref="15158998"/>
    <tag k="created_by" v="JOSM"/>
    <tag k="highway" v="unclassified"/>
    <tag k="name" v="Golden Grove Street"/>
  </way>
  <way id="4548041" version="3" timestamp="2008-03-09T23:47:48Z" uid="7617" user="Franc" changeset="297420">
    <nd ref="28372829"/>
    <nd ref="31481543"/>
    <nd ref="15158998"/>
    <tag k="created_by" v="JOSM"/>
    <tag k="highway" v="tertiary"/>
    <tag k="name" v="Golden Grove Street"/>
  </way>
  <way id="4548041" version="6" timestamp="2010-01-18T11:36:47Z" uid="7617" user="Franc" changeset="3649518">
    <nd ref="616151271"/>
    <nd ref="31481543"/>
    <nd ref="616151257"/>
    <tag k="highway" v="tertiary"/>
    <tag k="name" v="Golden Grove Street"/>
  </way>
  <way id="4548041" version="7" timestamp="2010-08-31T09:40:34Z" uid="7617" user="Franc" changeset="5643767">
    <nd ref="616151271"/>
    <nd ref="31481543"/>
    <nd ref="890193051"/>
    <tag k="highway" v="tertiary"/>
    <tag k="name" v="Golden Grove Street"/>
    <tag k="restriction" v="school_zone"/>
  </way>
  <way id="4548042" version="1" timestamp="2007-05-01T09:30:46Z" uid="1066" user="pavel" changeset="35126">
    <nd ref="28372846"/>
    <nd ref="28372837"/>
    <nd ref="28372840"/>
    <nd ref="28372842"/>
    <nd ref="28372844"/>
    <nd ref="28372835"/>
    <tag k="created_by" v="JOSM"/>
    <tag k="highway" v="bridleway"/>
    <tag k="name" v="Pesinka na opacne strane potoka"/>
  </way>
  <way id="4548043" version="1" timestamp="2007-05-01T09:30:48Z" uid="1066" user="pavel" changeset="35126">
    <nd ref="28372854"/>
    <nd ref="28372852"/>
    <nd ref="28372850"/>
    <nd ref="28372848"/>
    <tag k="created_by" v="JOSM"/>
    <tag k="highway" v="footway"/>
    <tag k="name" v="K Doupeti"/>
  </way>
  <way id="4548044" version="1" timestamp="2007-06-10T19:51:04Z" uid="1066" user="pavel" changeset="89380">
    <nd ref="25317005"/>
    <nd ref="25317006"/>
    <nd ref="28372854"/>
    <nd ref="25317007"/>
    <nd ref="25317008"/>
    <nd ref="25317009"/>
    <nd ref="25317010"/>
    <nd ref="25317011"/>
    <nd ref="30170010"/>
    <nd ref="21757083"/>
    <nd ref="21753486"/>
    <tag k="created_by" v="JOSM"/>
    <tag k="highway" v="bridleway"/>
    <tag k="name" v="Pres 2 brody"/>
  </way>
  <way id="4548045" version="1" timestamp="2007-05-01T09:30:53Z" uid="1066" user="pavel" changeset="35126">
    <nd ref="28372846"/>
    <nd ref="25317001"/>
    <nd ref="25316995"/>
    <nd ref="25316994"/>
    <nd ref="25316993"/>
    <nd ref="25033295"/>
    <tag k="created_by" v="JOSM"/>
    <tag k="highway" v="footway"/>
    <tag k="name" v="Kolem Zernovky"/>
  </way>
  <way id="4548045" version="2" timestamp="2007-12-14T21:05:53Z" uid="1066" user="pavel" changeset="301422">
    <nd ref="28372846"/>
    <nd ref="25317001"/>
    <nd ref="25316994"/>
    <nd ref="25316993"/>
    <nd ref="25033295"/>
    <tag k="created_by" v="JOSM"/>
    <tag k="highway" v="footway"/>
    <tag k="name" v="Kolem Zernovky"/>
  </way>
  <way id="4548045" version="3" timestamp="2008-10-28T21:46:34Z" uid="1066" user="pavel" changeset="611109">
    <nd ref="28372846"/>
    <nd ref="25317001"/>
    <nd ref="25316994"/>
    <nd ref="25316993"/>
    <nd ref="25033295"/>
    <tag k="created_by" v="JOSM"/>
    <tag k="highway" v="footway"/>
    <tag k="kct_blue" v="major"/>
    <tag k="name" v="Kolem Zernovky"/>
  </way>
  <way id="4548046" version="1" timestamp="2007-10-01T20:36:53Z" uid="1066" user="pavel" changeset="13345">
    <nd ref="28372868"/>
    <nd ref="60384337"/>
    <nd ref="30246918"/>
    <nd ref="21757007"/>
    <nd ref="28372870"/>
    <nd ref="28372869"/>
    <tag k="created_by" v="JOSM"/>
    <tag k="highway" v="track"/>
    <tag k="name" v="Siroka Bahnivka"/>
  </way>
  <way id="4548046" version="2" timestamp="2008-08-28T22:27:21Z" uid="1066" user="pavel" changeset="446349">
    <nd ref="28372868"/>
    <nd ref="60384337"/>
    <nd ref="30246918"/>
    <nd ref="21757007"/>
    <nd ref="28372870"/>
    <nd ref="28372869"/>
    <tag k="created_by" v="JOSM"/>
    <tag k="highway" v="track"/>
    <tag k="kct_red" v="major"/>
    <tag k="name" v="Siroka Bahnivka"/>
  </way>
  <way id="4548046" version="3" timestamp="2009-03-07T22:02:19Z" uid="1066" user="pavel" changeset="751184">
    <nd ref="28372868"/>
    <nd ref="60384337"/>
    <nd ref="30246918"/>
    <nd ref="21757007"/>
    <tag k="created_by" v="JOSM"/>
    <tag k="highway" v="track"/>
    <tag k="name" v="Siroka Bahnivka"/>
  </way>
  <way id="4548046" version="4" timestamp="2009-03-22T18:55:57Z" uid="1066" user="pavel" changeset="844189">
    <nd ref="21757075"/>
    <nd ref="21753483"/>
    <nd ref="21757073"/>
    <nd ref="28372856"/>
    <nd ref="243326784"/>
    <nd ref="28372859"/>
    <nd ref="60384344"/>
    <nd ref="28372868"/>
    <nd ref="60384337"/>
    <nd ref="30246918"/>
    <nd ref="21757007"/>
    <tag k="created_by" v="JOSM"/>
    <tag k="highway" v="track"/>
    <tag k="name" v="Siroka Bahnivka"/>
  </way>
  <way id="4548057" version="4" timestamp="2008-05-18T11:10:46Z" uid="7617" user="Franc" changeset="473943">
    <nd ref="28372983"/>
    <nd ref="248839335"/>
    <nd ref="248839334"/>
    <nd ref="248839345"/>
    <nd ref="28372979"/>
    <nd ref="248839336"/>
    <nd ref="28372975"/>
    <nd ref="28372972"/>
    <nd ref="28372968"/>
    <nd ref="248839343"/>
    <nd ref="28372964"/>
    <nd ref="28372962"/>
    <tag k="created_by" v="JOSM"/>
    <tag k="highway" v="secondary"/>
    <tag k="name" v="Carvers Road"/>
    <tag k="source" v="survey"/>
  </way>
  <way id="4548057" version="5" timestamp="2008-06-07T23:58:45Z" uid="7617" user="Franc" changeset="91968">
    <nd ref="28372983"/>
    <nd ref="248839335"/>
    <nd ref="248839334"/>
    <nd ref="248839345"/>
    <nd ref="28372979"/>
    <nd ref="248839336"/>
    <nd ref="28372975"/>
    <nd ref="28372972"/>
    <nd ref="269082761"/>
    <nd ref="28372968"/>
    <nd ref="248839343"/>
    <nd ref="28372964"/>
    <nd ref="28372962"/>
    <tag k="created_by" v="JOSM"/>
    <tag k="highway" v="secondary"/>
    <tag k="name" v="Carvers Road"/>
    <tag k="source" v="survey"/>
  </way>
  <way id="4548057" version="6" timestamp="2008-06-08T05:50:59Z" uid="7617" user="Franc" changeset="94187">
    <nd ref="28372983"/>
    <nd ref="248839335"/>
    <nd ref="248839334"/>
    <nd ref="248839345"/>
    <nd ref="28372979"/>
    <nd ref="248839336"/>
    <nd ref="28372975"/>
    <nd ref="28372972"/>
    <nd ref="269082761"/>
    <nd ref="28372968"/>
    <nd ref="269102840"/>
    <nd ref="248839343"/>
    <nd ref="28372964"/>
    <nd ref="28372962"/>
    <tag k="created_by" v="JOSM"/>
    <tag k="highway" v="secondary"/>
    <tag k="name" v="Carvers Road"/>
    <tag k="source" v="survey"/>
  </way>
  <way id="4548057" version="7" timestamp="2008-11-26T06:38:50Z" uid="7617" user="Franc" changeset="795031">
    <nd ref="28372983"/>
    <nd ref="248839335"/>
    <nd ref="248839334"/>
    <nd ref="248839345"/>
    <nd ref="28372979"/>
    <nd ref="248839336"/>
    <nd ref="28372975"/>
    <nd ref="28372972"/>
    <nd ref="314796261"/>
    <nd ref="269082761"/>
    <nd ref="28372968"/>
    <nd ref="269102840"/>
    <nd ref="248839343"/>
    <nd ref="28372964"/>
    <nd ref="28372962"/>
    <tag k="created_by" v="JOSM"/>
    <tag k="highway" v="secondary"/>
    <tag k="name" v="Carvers Road"/>
    <tag k="source" v="survey"/>
  </way>
  <way id="4548057" version="8" timestamp="2010-05-10T05:53:56Z" uid="4467" user="Rosscoe" changeset="4656069">
    <nd ref="28372983"/>
    <nd ref="248839335"/>
    <nd ref="248839334"/>
    <nd ref="248839345"/>
    <nd ref="28372979"/>
    <nd ref="248839336"/>
    <nd ref="28372975"/>
    <nd ref="28372972"/>
    <nd ref="314796261"/>
    <nd ref="269082761"/>
    <nd ref="28372968"/>
    <nd ref="269102840"/>
    <nd ref="248839343"/>
    <nd ref="28372964"/>
    <nd ref="728173908"/>
    <tag k="highway" v="secondary"/>
    <tag k="maxspeed" v="50"/>
    <tag k="name" v="Carvers Road"/>
    <tag k="source" v="survey"/>
  </way>
  <way id="4548058" version="3" timestamp="2008-05-18T11:10:47Z" uid="7617" user="Franc" changeset="473943">
    <nd ref="28372954"/>
    <nd ref="28372955"/>
    <nd ref="28372956"/>
    <nd ref="28372957"/>
    <nd ref="28372958"/>
    <nd ref="28372959"/>
    <nd ref="28372960"/>
    <nd ref="28372961"/>
    <nd ref="28372962"/>
    <nd ref="248839337"/>
    <nd ref="248839339"/>
    <nd ref="248839338"/>
    <nd ref="265553040"/>
    <tag k="created_by" v="JOSM"/>
    <tag k="highway" v="secondary"/>
    <tag k="name" v="Georges River Road"/>
  </way>
  <way id="4548058" version="4" timestamp="2008-06-07T23:58:46Z" uid="7617" user="Franc" changeset="91968">
    <nd ref="28372954"/>
    <nd ref="28372955"/>
    <nd ref="28372956"/>
    <nd ref="28372957"/>
    <nd ref="28372958"/>
    <nd ref="28372959"/>
    <nd ref="269082677"/>
    <nd ref="269082690"/>
    <nd ref="269082760"/>
    <nd ref="28372960"/>
    <nd ref="269082692"/>
    <nd ref="269082696"/>
    <nd ref="28372961"/>
    <nd ref="269082765"/>
    <nd ref="28372962"/>
    <nd ref="248839337"/>
    <nd ref="248839339"/>
    <nd ref="248839338"/>
    <nd ref="265553040"/>
    <tag k="created_by" v="JOSM"/>
    <tag k="highway" v="secondary"/>
    <tag k="name" v="Georges River Road"/>
  </way>
  <way id="4548058" version="5" timestamp="2008-06-08T21:37:05Z" uid="7617" user="Franc" changeset="98886">
    <nd ref="28372954"/>
    <nd ref="28372955"/>
    <nd ref="28372956"/>
    <nd ref="28372957"/>
    <nd ref="28372958"/>
    <nd ref="28372959"/>
    <nd ref="269082677"/>
    <nd ref="269082690"/>
    <nd ref="269082760"/>
    <nd ref="28372960"/>
    <nd ref="269082692"/>
    <nd ref="269082696"/>
    <nd ref="28372961"/>
    <nd ref="269082765"/>
    <nd ref="28372962"/>
    <nd ref="248839337"/>
    <nd ref="248839339"/>
    <nd ref="265553040"/>
    <tag k="created_by" v="JOSM"/>
    <tag k="highway" v="secondary"/>
    <tag k="name" v="Georges River Road"/>
  </way>
  <way id="4548058" version="6" timestamp="2008-06-15T05:30:33Z" uid="7617" user="Franc" changeset="166558">
    <nd ref="28372954"/>
    <nd ref="28372955"/>
    <nd ref="28372956"/>
    <nd ref="28372957"/>
    <nd ref="28372958"/>
    <nd ref="28372959"/>
    <nd ref="269082677"/>
    <nd ref="269082690"/>
    <nd ref="269082760"/>
    <nd ref="269082692"/>
    <nd ref="269082696"/>
    <nd ref="28372961"/>
    <nd ref="269082765"/>
    <nd ref="28372962"/>
    <nd ref="248839337"/>
    <nd ref="248839339"/>
    <nd ref="265553040"/>
    <tag k="created_by" v="JOSM"/>
    <tag k="highway" v="secondary"/>
    <tag k="name" v="Georges River Road"/>
  </way>
  <way id="4548058" version="7" timestamp="2008-06-15T06:23:48Z" uid="7617" user="Franc" changeset="166558">
    <nd ref="28372954"/>
    <nd ref="28372955"/>
    <nd ref="28372957"/>
    <nd ref="28372958"/>
    <nd ref="28372959"/>
    <nd ref="269082677"/>
    <nd ref="269082690"/>
    <nd ref="269082760"/>
    <nd ref="269082692"/>
    <nd ref="269082696"/>
    <nd ref="28372961"/>
    <nd ref="269082765"/>
    <nd ref="28372962"/>
    <nd ref="248839337"/>
    <nd ref="248839339"/>
    <nd ref="265553040"/>
    <tag k="created_by" v="JOSM"/>
    <tag k="highway" v="secondary"/>
    <tag k="name" v="Georges River Road"/>
  </way>
  <way id="4548058" version="8" timestamp="2008-06-15T11:21:53Z" uid="7617" user="Franc" changeset="167780"/>
  <way id="4548059" version="3" timestamp="2008-06-15T08:16:51Z" uid="7617" user="Franc" changeset="167280">
    <nd ref="28276114"/>
    <nd ref="270421551"/>
    <nd ref="28276117"/>
    <nd ref="248839413"/>
    <nd ref="28276120"/>
    <nd ref="270421457"/>
    <nd ref="28276122"/>
    <nd ref="28276125"/>
    <tag k="created_by" v="JOSM"/>
    <tag k="highway" v="residential"/>
    <tag k="name" v="Bandain Avenue"/>
    <tag k="source" v="survey"/>
  </way>
  <way id="4548059" version="4" timestamp="2010-07-07T21:36:05Z" uid="74617" user="JohnSmith" changeset="5161069">
    <nd ref="28276114"/>
    <nd ref="270421551"/>
    <nd ref="28276117"/>
    <nd ref="248839413"/>
    <nd ref="28276120"/>
    <nd ref="270421457"/>
    <nd ref="28276122"/>
    <nd ref="28276125"/>
    <tag k="highway" v="residential"/>
    <tag k="maxspeed" v="50"/>
    <tag k="maxspeed:source" v="default residential speed limit in Australia"/>
    <tag k="name" v="Bandain Avenue"/>
    <tag k="source" v="survey"/>
  </way>
  <way id="4548060" version="3" timestamp="2008-06-15T08:16:52Z" uid="7617" user="Franc" changeset="167280">
    <nd ref="28534387"/>
    <nd ref="29001504"/>
    <nd ref="28891618"/>
    <nd ref="248839401"/>
    <nd ref="28276112"/>
    <nd ref="28276114"/>
    <nd ref="28535008"/>
    <nd ref="28534581"/>
    <nd ref="270421520"/>
    <nd ref="270421537"/>
    <nd ref="28534607"/>
    <tag k="created_by" v="JOSM"/>
    <tag k="highway" v="residential"/>
    <tag k="name" v="Garnet Road"/>
    <tag k="source" v="survey"/>
  </way>
  <way id="4548060" version="4" timestamp="2010-07-07T21:35:21Z" uid="74617" user="JohnSmith" changeset="5161069">
    <nd ref="28534387"/>
    <nd ref="29001504"/>
    <nd ref="28891618"/>
    <nd ref="248839401"/>
    <nd ref="28276112"/>
    <nd ref="28276114"/>
    <nd ref="28535008"/>
    <nd ref="28534581"/>
    <nd ref="270421520"/>
    <nd ref="270421537"/>
    <nd ref="28534607"/>
    <tag k="highway" v="residential"/>
    <tag k="maxspeed" v="50"/>
    <tag k="maxspeed:source" v="default residential speed limit in Australia"/>
    <tag k="name" v="Garnet Road"/>
    <tag k="source" v="survey"/>
  </way>
  <way id="4548060" version="5" timestamp="2010-11-22T10:26:06Z" uid="7617" user="Franc" changeset="6430153">
    <nd ref="28534387"/>
    <nd ref="29001504"/>
    <nd ref="28891618"/>
    <nd ref="248839401"/>
    <nd ref="28276112"/>
    <nd ref="28276114"/>
    <nd ref="28535008"/>
    <nd ref="28534581"/>
    <nd ref="270421520"/>
    <nd ref="270421537"/>
    <nd ref="999208726"/>
    <nd ref="28534607"/>
    <tag k="highway" v="residential"/>
    <tag k="maxspeed" v="50"/>
    <tag k="maxspeed:source" v="default residential speed limit in Australia"/>
    <tag k="name" v="Garnet Road"/>
    <tag k="source" v="survey"/>
  </way>
  <way id="4548105" version="1" timestamp="2007-08-11T05:26:37Z" uid="7617" user="Franc" changeset="203338">
    <nd ref="29057783"/>
    <nd ref="30190792"/>
    <nd ref="28373302"/>
    <nd ref="28362104"/>
    <tag k="abutters" v="residential"/>
    <tag k="created_by" v="Potlatch alpha"/>
    <tag k="highway" v="residential"/>
    <tag k="name" v="Beaconsfield Street"/>
  </way>
  <way id="4548105" version="2" timestamp="2008-01-29T09:43:48Z" uid="7617" user="Franc" changeset="708125">
    <nd ref="28362104"/>
    <nd ref="28373302"/>
    <nd ref="30190792"/>
    <nd ref="29057783"/>
    <nd ref="32887999"/>
    <nd ref="29057780"/>
    <tag k="abutters" v="residential"/>
    <tag k="created_by" v="Potlatch alpha"/>
    <tag k="highway" v="residential"/>
    <tag k="name" v="Beaconsfield Street"/>
    <tag k="source" v="survey"/>
  </way>
  <way id="4548105" version="3" timestamp="2008-03-03T06:48:10Z" uid="7617" user="Franc" changeset="257791"/>
  <way id="4548106" version="1" timestamp="2007-08-01T09:06:18Z" uid="7617" user="Franc" changeset="181280">
    <nd ref="30189253"/>
    <nd ref="33226474"/>
    <tag k="abutters" v="residential"/>
    <tag k="created_by" v="Potlatch alpha"/>
    <tag k="highway" v="residential"/>
    <tag k="name" v="Washington Street"/>
    <tag k="source:name" v="DOL 1917"/>
    <tag k="source_ref" v="GPS:http://www.sl.nsw.gov.au/online/maps.cfm"/>
  </way>
  <way id="4548106" version="2" timestamp="2009-12-23T23:07:20Z" uid="30201" user="rrankin" changeset="3438624">
    <nd ref="30189253"/>
    <nd ref="33226474"/>
    <tag k="highway" v="residential"/>
    <tag k="name" v="Washington Street"/>
    <tag k="source:name" v="DOL 1917"/>
    <tag k="source_ref" v="GPS:http://www.sl.nsw.gov.au/online/maps.cfm"/>
  </way>
  <way id="4548106" version="3" timestamp="2010-07-08T02:54:29Z" uid="74617" user="JohnSmith" changeset="5163091">
    <nd ref="30189253"/>
    <nd ref="33226474"/>
    <tag k="highway" v="residential"/>
    <tag k="maxspeed" v="50"/>
    <tag k="maxspeed:source" v="default residential speed limit in Australia"/>
    <tag k="name" v="Washington Street"/>
    <tag k="source:name" v="DOL 1917"/>
    <tag k="source_ref" v="GPS:http://www.sl.nsw.gov.au/online/maps.cfm"/>
  </way>
  <way id="4548107" version="1" timestamp="2007-10-06T07:42:22Z" uid="7617" user="Franc" changeset="49573">
    <nd ref="29414527"/>
    <nd ref="28373312"/>
    <nd ref="28373303"/>
    <nd ref="29057783"/>
    <tag k="abutters" v="residential"/>
    <tag k="created_by" v="Potlatch alpha"/>
    <tag k="highway" v="residential"/>
    <tag k="name" v="Dunmore Street"/>
    <tag k="source:name" v="survey"/>
  </way>
  <way id="4548107" version="2" timestamp="2008-03-06T06:57:44Z" uid="7617" user="Franc" changeset="273411">
    <nd ref="29414527"/>
    <nd ref="28373312"/>
    <nd ref="28373303"/>
    <nd ref="29057783"/>
    <tag k="abutters" v="residential"/>
    <tag k="created_by" v="Potlatch alpha"/>
    <tag k="highway" v="residential"/>
    <tag k="name" v="Dunmore Street"/>
    <tag k="source" v="survey"/>
  </way>
  <way id="4548107" version="3" timestamp="2009-12-09T00:25:13Z" uid="30201" user="rrankin" changeset="3330295">
    <nd ref="29414527"/>
    <nd ref="28373312"/>
    <nd ref="28373303"/>
    <nd ref="29057783"/>
    <tag k="highway" v="residential"/>
    <tag k="name" v="Dunmore Street"/>
    <tag k="source" v="survey"/>
  </way>
  <way id="4548107" version="4" timestamp="2010-02-23T07:39:33Z" uid="7617" user="Franc" changeset="3949884">
    <nd ref="29414527"/>
    <nd ref="651272592"/>
    <nd ref="28373312"/>
    <nd ref="28373303"/>
    <nd ref="29057783"/>
    <tag k="highway" v="residential"/>
    <tag k="name" v="Dunmore Street"/>
    <tag k="source" v="survey"/>
  </way>
  <way id="4548107" version="5" timestamp="2010-07-08T02:55:03Z" uid="74617" user="JohnSmith" changeset="5163091">
    <nd ref="29414527"/>
    <nd ref="651272592"/>
    <nd ref="28373312"/>
    <nd ref="28373303"/>
    <nd ref="29057783"/>
    <tag k="highway" v="residential"/>
    <tag k="maxspeed" v="50"/>
    <tag k="maxspeed:source" v="default residential speed limit in Australia"/>
    <tag k="name" v="Dunmore Street"/>
    <tag k="source" v="survey"/>
  </way>
  <way id="4548108" version="1" timestamp="2007-08-11T04:55:07Z" uid="7617" user="Franc" changeset="203338">
    <nd ref="28362093"/>
    <nd ref="28373298"/>
    <nd ref="29414529"/>
    <nd ref="28373299"/>
    <nd ref="28373300"/>
    <nd ref="28373301"/>
    <nd ref="28360425"/>
    <tag k="abutters" v="residential"/>
    <tag k="created_by" v="Potlatch alpha"/>
    <tag k="highway" v="residential"/>
    <tag k="name" v="Warialda Street"/>
  </way>
  <way id="4548108" version="2" timestamp="2007-11-26T10:08:35Z" uid="7617" user="Franc" changeset="626785">
    <nd ref="28362093"/>
    <nd ref="28373298"/>
    <nd ref="29414529"/>
    <nd ref="134496115"/>
    <nd ref="28373299"/>
    <nd ref="28373300"/>
    <nd ref="28373301"/>
    <nd ref="28360425"/>
    <tag k="abutters" v="residential"/>
    <tag k="created_by" v="Potlatch alpha"/>
    <tag k="highway" v="residential"/>
    <tag k="name" v="Warialda Street"/>
  </way>
  <way id="4548108" version="3" timestamp="2007-12-16T01:49:15Z" uid="7617" user="Franc" changeset="319298">
    <nd ref="28362093"/>
    <nd ref="28373298"/>
    <nd ref="29414529"/>
    <nd ref="134496115"/>
    <nd ref="28373299"/>
    <nd ref="28373300"/>
    <nd ref="28373301"/>
    <nd ref="28360425"/>
    <tag k="abutters" v="residential"/>
    <tag k="created_by" v="Potlatch alpha"/>
    <tag k="highway" v="residential"/>
    <tag k="name" v="Warialda Street"/>
  </way>
  <way id="4548108" version="4" timestamp="2008-01-02T04:00:27Z" uid="7617" user="Franc" changeset="509175">
    <nd ref="28362093"/>
    <nd ref="28373298"/>
    <nd ref="29414529"/>
    <nd ref="134496115"/>
    <nd ref="28373299"/>
    <nd ref="202416062"/>
    <nd ref="28373300"/>
    <nd ref="28373301"/>
    <nd ref="28360425"/>
    <tag k="abutters" v="residential"/>
    <tag k="created_by" v="Potlatch alpha"/>
    <tag k="highway" v="residential"/>
    <tag k="name" v="Warialda Street"/>
  </way>
  <way id="4548108" version="5" timestamp="2008-01-29T09:43:49Z" uid="7617" user="Franc" changeset="708125">
    <nd ref="28362093"/>
    <nd ref="28373298"/>
    <nd ref="29414529"/>
    <nd ref="134496115"/>
    <nd ref="28373299"/>
    <nd ref="202416062"/>
    <nd ref="28373300"/>
    <nd ref="28373301"/>
    <nd ref="28360425"/>
    <tag k="abutters" v="residential"/>
    <tag k="created_by" v="Potlatch alpha"/>
    <tag k="highway" v="residential"/>
    <tag k="name" v="Warialda Street"/>
    <tag k="source" v="survey"/>
  </way>
  <way id="4548108" version="6" timestamp="2008-09-27T06:38:42Z" uid="7617" user="Franc" changeset="703988">
    <nd ref="28362100"/>
    <nd ref="28373298"/>
    <nd ref="29414529"/>
    <nd ref="134496115"/>
    <nd ref="28373299"/>
    <nd ref="202416062"/>
    <nd ref="28373300"/>
    <nd ref="28373301"/>
    <nd ref="28360425"/>
    <tag k="abutters" v="residential"/>
    <tag k="created_by" v="Potlatch alpha"/>
    <tag k="highway" v="residential"/>
    <tag k="name" v="Warialda Street"/>
    <tag k="source" v="survey"/>
  </way>
  <way id="4548108" version="8" timestamp="2009-11-25T09:25:09Z" uid="7617" user="Franc" changeset="3210535">
    <nd ref="28362100"/>
    <nd ref="28373298"/>
    <nd ref="29414529"/>
    <nd ref="397180528"/>
    <nd ref="134496115"/>
    <nd ref="28373299"/>
    <nd ref="202416062"/>
    <nd ref="28373300"/>
    <nd ref="28373301"/>
    <nd ref="570682844"/>
    <nd ref="28360425"/>
    <tag k="abutters" v="residential"/>
    <tag k="highway" v="residential"/>
    <tag k="name" v="Warialda Street"/>
    <tag k="source" v="survey"/>
  </way>
  <way id="4548108" version="9" timestamp="2009-12-09T00:25:11Z" uid="30201" user="rrankin" changeset="3330295">
    <nd ref="28362100"/>
    <nd ref="28373298"/>
    <nd ref="29414529"/>
    <nd ref="397180528"/>
    <nd ref="134496115"/>
    <nd ref="28373299"/>
    <nd ref="202416062"/>
    <nd ref="28373300"/>
    <nd ref="28373301"/>
    <nd ref="570682844"/>
    <nd ref="28360425"/>
    <tag k="highway" v="residential"/>
    <tag k="name" v="Warialda Street"/>
    <tag k="source" v="survey"/>
  </way>
  <way id="4548108" version="10" timestamp="2009-12-27T12:44:59Z" uid="30201" user="rrankin" changeset="3462292"/>
  <way id="4548112" version="1" timestamp="2007-07-03T02:22:24Z" uid="7617" user="Franc" changeset="124011">
    <nd ref="15075345"/>
    <nd ref="28374016"/>
    <tag k="abutters" v="residential"/>
    <tag k="created_by" v="JOSM"/>
    <tag k="highway" v="residential"/>
    <tag k="name" v="Pile Street"/>
  </way>
  <way id="4548112" version="2" timestamp="2007-11-22T19:09:14Z" uid="7617" user="Franc" changeset="594527">
    <nd ref="15075345"/>
    <nd ref="129950784"/>
    <nd ref="28374016"/>
    <tag k="abutters" v="residential"/>
    <tag k="created_by" v="JOSM"/>
    <tag k="highway" v="residential"/>
    <tag k="name" v="Pile Street"/>
  </way>
  <way id="4548112" version="3" timestamp="2009-12-02T05:37:30Z" uid="30201" user="rrankin" changeset="3269534">
    <nd ref="15075345"/>
    <nd ref="129950784"/>
    <nd ref="28374016"/>
    <tag k="highway" v="residential"/>
    <tag k="name" v="Pile Street"/>
  </way>
  <way id="4548112" version="4" timestamp="2010-07-08T02:55:24Z" uid="74617" user="JohnSmith" changeset="5163091">
    <nd ref="15075345"/>
    <nd ref="129950784"/>
    <nd ref="28374016"/>
    <tag k="highway" v="residential"/>
    <tag k="maxspeed" v="50"/>
    <tag k="maxspeed:source" v="default residential speed limit in Australia"/>
    <tag k="name" v="Pile Street"/>
  </way>
  <way id="4548112" version="5" timestamp="2010-09-01T11:03:48Z" uid="7617" user="Franc" changeset="5652972">
    <nd ref="15075345"/>
    <nd ref="129950784"/>
    <nd ref="891666510"/>
    <nd ref="891666505"/>
    <nd ref="28374016"/>
    <tag k="highway" v="residential"/>
    <tag k="maxspeed" v="50"/>
    <tag k="maxspeed:source" v="default residential speed limit in Australia"/>
    <tag k="name" v="Pile Street"/>
  </way>
  <way id="4548124" version="8" timestamp="2010-04-15T11:14:54Z" uid="7617" user="Franc" changeset="4429995">
    <nd ref="657856601"/>
    <nd ref="697305374"/>
    <nd ref="657856497"/>
    <nd ref="27790991"/>
    <tag k="highway" v="residential"/>
    <tag k="name" v="Bellingara Road"/>
  </way>
  <way id="4548124" version="9" timestamp="2010-05-08T09:32:01Z" uid="61114" user="Trav" changeset="4637122">
    <nd ref="657856601"/>
    <nd ref="697305374"/>
    <nd ref="657856497"/>
    <nd ref="726111849"/>
    <nd ref="27790991"/>
    <tag k="highway" v="residential"/>
    <tag k="name" v="Bellingara Road"/>
  </way>
  <way id="4548124" version="10" timestamp="2010-07-07T21:36:54Z" uid="74617" user="JohnSmith" changeset="5161069">
    <nd ref="657856601"/>
    <nd ref="697305374"/>
    <nd ref="657856497"/>
    <nd ref="726111849"/>
    <nd ref="27790991"/>
    <tag k="highway" v="residential"/>
    <tag k="maxspeed" v="50"/>
    <tag k="maxspeed:source" v="default residential speed limit in Australia"/>
    <tag k="name" v="Bellingara Road"/>
  </way>
  <way id="4548125" version="4" timestamp="2010-05-09T13:49:40Z" uid="4467" user="Rosscoe" changeset="4648741">
    <nd ref="727445803"/>
    <nd ref="251672321"/>
    <nd ref="251672295"/>
    <nd ref="28374073"/>
    <tag k="highway" v="secondary"/>
    <tag k="name" v="Corea Street"/>
  </way>
  <way id="4548125" version="5" timestamp="2010-08-21T01:49:45Z" uid="30201" user="rrankin" changeset="5548646">
    <nd ref="727445803"/>
    <nd ref="251672321"/>
    <nd ref="251672295"/>
    <nd ref="28374073"/>
    <tag k="highway" v="secondary"/>
    <tag k="maxspeed" v="50"/>
    <tag k="name" v="Corea Street"/>
  </way>
  <way id="4548126" version="8" timestamp="2008-05-06T06:45:37Z" uid="30201" user="rrankin" changeset="345627">
    <nd ref="17855458"/>
    <nd ref="250587176"/>
    <nd ref="28374102"/>
    <nd ref="28374099"/>
    <nd ref="250739585"/>
    <nd ref="250739865"/>
    <nd ref="70166067"/>
    <nd ref="250739943"/>
    <nd ref="28374095"/>
    <nd ref="70128506"/>
    <nd ref="28374090"/>
    <nd ref="28374087"/>
    <nd ref="28374084"/>
    <nd ref="28374080"/>
    <nd ref="28374076"/>
    <nd ref="18264350"/>
    <nd ref="18264349"/>
    <tag k="created_by" v="Potlatch 0.7b"/>
    <tag k="highway" v="primary"/>
    <tag k="lanes" v="3"/>
    <tag k="maxspeed" v="80"/>
    <tag k="name" v="Taren Point Road"/>
    <tag k="oneway" v="yes"/>
  </way>
  <way id="4548126" version="9" timestamp="2009-08-14T06:28:15Z" uid="4467" user="Rosscoe" changeset="2138970">
    <nd ref="17855458"/>
    <nd ref="250587176"/>
    <nd ref="28374102"/>
    <nd ref="28374099"/>
    <nd ref="250739585"/>
    <nd ref="250739865"/>
    <nd ref="70166067"/>
    <nd ref="250739943"/>
    <nd ref="28374095"/>
    <nd ref="70128506"/>
    <nd ref="465196611"/>
    <nd ref="465196614"/>
    <nd ref="28374090"/>
    <nd ref="28374087"/>
    <nd ref="28374084"/>
    <nd ref="28374080"/>
    <nd ref="28374076"/>
    <nd ref="18264350"/>
    <nd ref="18264349"/>
    <tag k="highway" v="primary"/>
    <tag k="lanes" v="3"/>
    <tag k="maxspeed" v="80"/>
    <tag k="name" v="Taren Point Road"/>
    <tag k="oneway" v="yes"/>
  </way>
  <way id="4548126" version="10" timestamp="2009-08-14T06:42:17Z" uid="4467" user="Rosscoe" changeset="2139051">
    <nd ref="17855458"/>
    <nd ref="250587176"/>
    <nd ref="28374102"/>
    <nd ref="28374099"/>
    <nd ref="250739585"/>
    <nd ref="250739865"/>
    <nd ref="70166067"/>
    <nd ref="250739943"/>
    <nd ref="465198574"/>
    <nd ref="28374095"/>
    <nd ref="70128506"/>
    <nd ref="465196611"/>
    <nd ref="465196614"/>
    <nd ref="28374090"/>
    <nd ref="28374087"/>
    <nd ref="28374084"/>
    <nd ref="28374080"/>
    <nd ref="28374076"/>
    <nd ref="18264350"/>
    <nd ref="18264349"/>
    <tag k="highway" v="primary"/>
    <tag k="lanes" v="3"/>
    <tag k="maxspeed" v="80"/>
    <tag k="name" v="Taren Point Road"/>
    <tag k="oneway" v="yes"/>
  </way>
  <way id="4548126" version="11" timestamp="2009-11-26T08:11:50Z" uid="7617" user="Franc" changeset="3218360">
    <nd ref="17855458"/>
    <nd ref="250587176"/>
    <nd ref="28374102"/>
    <nd ref="28374099"/>
    <nd ref="250739585"/>
    <nd ref="250739865"/>
    <nd ref="70166067"/>
    <nd ref="250739943"/>
    <nd ref="465198574"/>
    <nd ref="28374095"/>
    <nd ref="70128506"/>
    <nd ref="465196611"/>
    <nd ref="465196614"/>
    <nd ref="28374090"/>
    <nd ref="571362813"/>
    <nd ref="28374087"/>
    <nd ref="28374084"/>
    <nd ref="28374080"/>
    <nd ref="28374076"/>
    <nd ref="18264350"/>
    <nd ref="18264349"/>
    <tag k="highway" v="primary"/>
    <tag k="lanes" v="3"/>
    <tag k="maxspeed" v="80"/>
    <tag k="name" v="Taren Point Road"/>
    <tag k="oneway" v="yes"/>
  </way>
  <way id="4548126" version="13" timestamp="2010-05-06T00:22:51Z" uid="61114" user="Trav" changeset="4618146">
    <nd ref="17855458"/>
    <nd ref="723400784"/>
    <nd ref="723400786"/>
    <nd ref="723400783"/>
    <nd ref="723400782"/>
    <nd ref="250587176"/>
    <nd ref="723400957"/>
    <nd ref="28374102"/>
    <nd ref="28374099"/>
    <nd ref="250739585"/>
    <nd ref="250739865"/>
    <nd ref="70166067"/>
    <nd ref="250739943"/>
    <nd ref="465198574"/>
    <nd ref="28374095"/>
    <nd ref="70128506"/>
    <nd ref="465196611"/>
    <nd ref="465196614"/>
    <nd ref="28374090"/>
    <nd ref="571362813"/>
    <nd ref="28374087"/>
    <tag k="highway" v="primary"/>
    <tag k="lanes" v="3"/>
    <tag k="maxspeed" v="70"/>
    <tag k="name" v="Taren Point Road"/>
    <tag k="oneway" v="yes"/>
  </way>
  <way id="4548126" version="14" timestamp="2010-08-21T01:18:50Z" uid="30201" user="rrankin" changeset="5548606">
    <nd ref="17855458"/>
    <nd ref="723400784"/>
    <nd ref="723400786"/>
    <nd ref="723400783"/>
    <nd ref="723400782"/>
    <nd ref="250587176"/>
    <nd ref="723400957"/>
    <nd ref="871295510"/>
    <nd ref="28374102"/>
    <nd ref="28374099"/>
    <nd ref="250739585"/>
    <nd ref="250739865"/>
    <nd ref="70166067"/>
    <nd ref="250739943"/>
    <nd ref="465198574"/>
    <nd ref="28374095"/>
    <nd ref="70128506"/>
    <nd ref="465196611"/>
    <nd ref="465196614"/>
    <nd ref="28374090"/>
    <nd ref="571362813"/>
    <nd ref="28374087"/>
    <tag k="highway" v="primary"/>
    <tag k="lanes" v="3"/>
    <tag k="maxspeed" v="70"/>
    <tag k="name" v="Taren Point Road"/>
    <tag k="oneway" v="yes"/>
  </way>
  <way id="4548127" version="3" timestamp="2008-05-06T06:45:38Z" uid="30201" user="rrankin" changeset="345627">
    <nd ref="28272661"/>
    <nd ref="59830643"/>
    <nd ref="262435174"/>
    <tag k="created_by" v="Potlatch alpha"/>
    <tag k="highway" v="residential"/>
    <tag k="name" v="Russell Avenue"/>
  </way>
  <way id="4548127" version="4" timestamp="2010-02-23T12:33:32Z" uid="7617" user="Franc" changeset="3952930">
    <nd ref="651508695"/>
    <nd ref="28272661"/>
    <nd ref="59830643"/>
    <nd ref="262435174"/>
    <tag k="highway" v="residential"/>
    <tag k="name" v="Russell Avenue"/>
  </way>
  <way id="4548127" version="5" timestamp="2010-07-07T21:27:53Z" uid="74617" user="JohnSmith" changeset="5161069">
    <nd ref="651508695"/>
    <nd ref="28272661"/>
    <nd ref="59830643"/>
    <nd ref="262435174"/>
    <tag k="highway" v="residential"/>
    <tag k="maxspeed" v="50"/>
    <tag k="maxspeed:source" v="default residential speed limit in Australia"/>
    <tag k="name" v="Russell Avenue"/>
  </way>
  <way id="4548127" version="6" timestamp="2011-04-30T11:06:27Z" uid="7617" user="Franc" changeset="8010690">
    <nd ref="28272661"/>
    <nd ref="651508695"/>
    <tag k="highway" v="residential"/>
    <tag k="maxspeed" v="50"/>
    <tag k="maxspeed:source" v="default residential speed limit in Australia"/>
    <tag k="name" v="Russell Avenue"/>
  </way>
  <way id="4548133" version="1" timestamp="2007-05-16T11:53:56Z" uid="7617" user="Franc" changeset="53179">
    <nd ref="28274391"/>
    <nd ref="28374258"/>
    <nd ref="28374259"/>
    <nd ref="29148227"/>
    <nd ref="28374260"/>
    <nd ref="29056801"/>
    <nd ref="28271676"/>
    <tag k="abutters" v="residential"/>
    <tag k="created_by" v="JOSM"/>
    <tag k="highway" v="residential"/>
    <tag k="name" v="Beauchamp Street"/>
  </way>
  <way id="4548133" version="2" timestamp="2007-12-27T10:36:43Z" uid="7617" user="Franc" changeset="437259">
    <nd ref="28274391"/>
    <nd ref="191902875"/>
    <nd ref="28374258"/>
    <nd ref="28374259"/>
    <nd ref="29148227"/>
    <nd ref="28374260"/>
    <nd ref="29056801"/>
    <nd ref="28271676"/>
    <tag k="abutters" v="residential"/>
    <tag k="created_by" v="JOSM"/>
    <tag k="highway" v="residential"/>
    <tag k="name" v="Beauchamp Street"/>
  </way>
  <way id="4548133" version="3" timestamp="2009-12-08T23:01:59Z" uid="30201" user="rrankin" changeset="3329912">
    <nd ref="28274391"/>
    <nd ref="191902875"/>
    <nd ref="28374258"/>
    <nd ref="28374259"/>
    <nd ref="29148227"/>
    <nd ref="28374260"/>
    <nd ref="29056801"/>
    <nd ref="28271676"/>
    <tag k="highway" v="residential"/>
    <tag k="name" v="Beauchamp Street"/>
  </way>
  <way id="4548133" version="4" timestamp="2010-07-08T02:54:31Z" uid="74617" user="JohnSmith" changeset="5163091">
    <nd ref="28274391"/>
    <nd ref="191902875"/>
    <nd ref="28374258"/>
    <nd ref="28374259"/>
    <nd ref="29148227"/>
    <nd ref="28374260"/>
    <nd ref="29056801"/>
    <nd ref="28271676"/>
    <tag k="highway" v="residential"/>
    <tag k="maxspeed" v="50"/>
    <tag k="maxspeed:source" v="default residential speed limit in Australia"/>
    <tag k="name" v="Beauchamp Street"/>
  </way>
  <way id="4548134" version="1" timestamp="2007-05-14T08:32:00Z" uid="7617" user="Franc" changeset="49159">
    <nd ref="28271676"/>
    <nd ref="29056802"/>
    <nd ref="28271627"/>
    <nd ref="28271664"/>
    <nd ref="28271696"/>
    <nd ref="28271682"/>
    <nd ref="28271686"/>
    <nd ref="28271689"/>
    <nd ref="28271608"/>
    <nd ref="28271617"/>
    <nd ref="28271630"/>
    <nd ref="28271673"/>
    <nd ref="28271623"/>
    <nd ref="28271633"/>
    <nd ref="28271643"/>
    <nd ref="28271611"/>
    <nd ref="15194886"/>
    <tag k="abutters" v="residential"/>
    <tag k="created_by" v="JOSM"/>
    <tag k="highway" v="residential"/>
    <tag k="name" v="Hill Street"/>
  </way>
  <way id="4548134" version="2" timestamp="2007-11-23T22:51:31Z" uid="7617" user="Franc" changeset="609218">
    <nd ref="28271676"/>
    <nd ref="29056802"/>
    <nd ref="28271627"/>
    <nd ref="28271664"/>
    <nd ref="28271696"/>
    <nd ref="130150627"/>
    <nd ref="28271682"/>
    <nd ref="28271686"/>
    <nd ref="28271689"/>
    <nd ref="28271608"/>
    <nd ref="28271617"/>
    <nd ref="130150628"/>
    <nd ref="28271630"/>
    <nd ref="28271673"/>
    <nd ref="28271623"/>
    <nd ref="28271633"/>
    <nd ref="28271643"/>
    <nd ref="28271611"/>
    <nd ref="15194886"/>
    <tag k="abutters" v="residential"/>
    <tag k="created_by" v="JOSM"/>
    <tag k="highway" v="residential"/>
    <tag k="name" v="Hill Street"/>
  </way>
  <way id="4548134" version="3" timestamp="2009-11-25T08:51:00Z" uid="7617" user="Franc" changeset="3210375">
    <nd ref="28271676"/>
    <nd ref="29056802"/>
    <nd ref="28271627"/>
    <nd ref="28271664"/>
    <nd ref="28271696"/>
    <nd ref="130150627"/>
    <nd ref="28271682"/>
    <nd ref="28271686"/>
    <nd ref="570660908"/>
    <nd ref="28271689"/>
    <nd ref="28271608"/>
    <nd ref="570660905"/>
    <nd ref="28271617"/>
    <nd ref="130150628"/>
    <nd ref="28271630"/>
    <nd ref="28271633"/>
    <nd ref="28271643"/>
    <nd ref="28271611"/>
    <nd ref="15194886"/>
    <tag k="abutters" v="residential"/>
    <tag k="highway" v="residential"/>
    <tag k="name" v="Hill Street"/>
  </way>
  <way id="4548134" version="4" timestamp="2009-12-02T23:37:42Z" uid="30201" user="rrankin" changeset="3276630">
    <nd ref="28271676"/>
    <nd ref="29056802"/>
    <nd ref="28271627"/>
    <nd ref="28271664"/>
    <nd ref="28271696"/>
    <nd ref="130150627"/>
    <nd ref="28271682"/>
    <nd ref="28271686"/>
    <nd ref="570660908"/>
    <nd ref="28271689"/>
    <nd ref="28271608"/>
    <nd ref="570660905"/>
    <nd ref="28271617"/>
    <nd ref="130150628"/>
    <nd ref="28271630"/>
    <nd ref="28271633"/>
    <nd ref="28271643"/>
    <nd ref="28271611"/>
    <nd ref="15194886"/>
    <tag k="highway" v="residential"/>
    <tag k="name" v="Hill Street"/>
  </way>
  <way id="4548134" version="5" timestamp="2009-12-05T02:17:06Z" uid="7617" user="Franc" changeset="3292933">
    <nd ref="28271676"/>
    <nd ref="29056802"/>
    <nd ref="28271627"/>
    <nd ref="28271664"/>
    <nd ref="28271696"/>
    <nd ref="130150627"/>
    <nd ref="28271682"/>
    <nd ref="28271686"/>
    <nd ref="570660908"/>
    <nd ref="28271689"/>
    <nd ref="28271608"/>
    <nd ref="570660905"/>
    <nd ref="28271617"/>
    <nd ref="130150628"/>
    <nd ref="28271630"/>
    <nd ref="28271633"/>
    <nd ref="581427237"/>
    <nd ref="28271643"/>
    <nd ref="28271611"/>
    <nd ref="15194886"/>
    <tag k="highway" v="residential"/>
    <tag k="name" v="Hill Street"/>
  </way>
  <way id="4548134" version="6" timestamp="2010-07-08T02:55:30Z" uid="74617" user="JohnSmith" changeset="5163091">
    <nd ref="28271676"/>
    <nd ref="29056802"/>
    <nd ref="28271627"/>
    <nd ref="28271664"/>
    <nd ref="28271696"/>
    <nd ref="130150627"/>
    <nd ref="28271682"/>
    <nd ref="28271686"/>
    <nd ref="570660908"/>
    <nd ref="28271689"/>
    <nd ref="28271608"/>
    <nd ref="570660905"/>
    <nd ref="28271617"/>
    <nd ref="130150628"/>
    <nd ref="28271630"/>
    <nd ref="28271633"/>
    <nd ref="581427237"/>
    <nd ref="28271643"/>
    <nd ref="28271611"/>
    <nd ref="15194886"/>
    <tag k="highway" v="residential"/>
    <tag k="maxspeed" v="50"/>
    <tag k="maxspeed:source" v="default residential speed limit in Australia"/>
    <tag k="name" v="Hill Street"/>
  </way>
  <way id="4548134" version="7" timestamp="2010-10-30T03:40:35Z" uid="7617" user="Franc" changeset="6223833">
    <nd ref="28271676"/>
    <nd ref="29056802"/>
    <nd ref="28271627"/>
    <nd ref="28271664"/>
    <nd ref="28271696"/>
    <nd ref="130150627"/>
    <nd ref="28271682"/>
    <nd ref="28271686"/>
    <nd ref="570660908"/>
    <nd ref="28271689"/>
    <nd ref="28271608"/>
    <nd ref="570660905"/>
    <nd ref="28271617"/>
    <nd ref="130150628"/>
    <nd ref="969642023"/>
    <nd ref="28271633"/>
    <nd ref="581427237"/>
    <nd ref="28271643"/>
    <nd ref="28271611"/>
    <nd ref="15194886"/>
    <tag k="highway" v="residential"/>
    <tag k="maxspeed" v="50"/>
    <tag k="maxspeed:source" v="default residential speed limit in Australia"/>
    <tag k="name" v="Hill Street"/>
  </way>
  <way id="4548144" version="3" timestamp="2010-07-07T21:36:11Z" uid="74617" user="JohnSmith" changeset="5161069">
    <nd ref="35634164"/>
    <nd ref="28273939"/>
    <nd ref="29334011"/>
    <nd ref="28374266"/>
    <nd ref="34009257"/>
    <nd ref="28782725"/>
    <nd ref="30466563"/>
    <nd ref="34009258"/>
    <nd ref="28782726"/>
    <nd ref="34009259"/>
    <tag k="highway" v="residential"/>
    <tag k="maxspeed" v="50"/>
    <tag k="maxspeed:source" v="default residential speed limit in Australia"/>
    <tag k="name" v="Ferry Avenue"/>
  </way>
  <way id="4548144" version="4" timestamp="2010-10-04T04:04:11Z" uid="7617" user="Franc" changeset="5950208">
    <nd ref="35634164"/>
    <nd ref="28273939"/>
    <nd ref="29334011"/>
    <nd ref="28374266"/>
    <nd ref="34009257"/>
    <nd ref="28782725"/>
    <nd ref="30466563"/>
    <nd ref="937424286"/>
    <nd ref="34009258"/>
    <nd ref="28782726"/>
    <nd ref="34009259"/>
    <tag k="highway" v="residential"/>
    <tag k="maxspeed" v="50"/>
    <tag k="maxspeed:source" v="default residential speed limit in Australia"/>
    <tag k="name" v="Ferry Avenue"/>
  </way>
  <way id="4548145" version="6" timestamp="2008-03-06T12:05:41Z" uid="7617" user="Franc" changeset="275080">
    <nd ref="28374266"/>
    <nd ref="28374267"/>
    <nd ref="28374268"/>
    <nd ref="213427473"/>
    <nd ref="213427945"/>
    <nd ref="28374270"/>
    <tag k="created_by" v="Potlatch 0.6a"/>
    <tag k="highway" v="residential"/>
    <tag k="name" v="Stubbs Street"/>
  </way>
  <way id="4548145" version="7" timestamp="2009-11-30T09:37:21Z" uid="7617" user="Franc" changeset="3254049">
    <nd ref="28374266"/>
    <nd ref="28374267"/>
    <nd ref="28374268"/>
    <nd ref="213427473"/>
    <nd ref="213427945"/>
    <nd ref="575727172"/>
    <tag k="highway" v="residential"/>
    <tag k="name" v="Stubbs Street"/>
  </way>
  <way id="4548145" version="8" timestamp="2010-07-08T02:13:31Z" uid="74617" user="JohnSmith" changeset="5162525">
    <nd ref="28374266"/>
    <nd ref="28374267"/>
    <nd ref="28374268"/>
    <nd ref="213427473"/>
    <nd ref="213427945"/>
    <nd ref="575727172"/>
    <tag k="highway" v="residential"/>
    <tag k="maxspeed" v="50"/>
    <tag k="maxspeed:source" v="default residential speed limit in Australia"/>
    <tag k="name" v="Stubbs Street"/>
  </way>
  <way id="4548158" version="2" timestamp="2008-03-06T11:40:57Z" uid="7617" user="Franc" changeset="275080">
    <nd ref="35643763"/>
    <nd ref="29415026"/>
    <nd ref="29415030"/>
    <nd ref="29415034"/>
    <nd ref="29415037"/>
    <nd ref="29415043"/>
    <nd ref="29415040"/>
    <nd ref="28377505"/>
    <nd ref="28377504"/>
    <nd ref="28377503"/>
    <nd ref="28377502"/>
    <nd ref="28377501"/>
    <nd ref="59703114"/>
    <nd ref="59703107"/>
    <nd ref="54608345"/>
    <nd ref="28377500"/>
    <nd ref="28377499"/>
    <nd ref="58149134"/>
    <nd ref="59702622"/>
    <nd ref="59702407"/>
    <nd ref="59943081"/>
    <nd ref="59702335"/>
    <nd ref="59943090"/>
    <nd ref="59702989"/>
    <nd ref="28377496"/>
    <tag k="created_by" v="Potlatch alpha"/>
    <tag k="highway" v="secondary"/>
    <tag k="lcn_ref" v="City Cycle Route"/>
    <tag k="name" v="Chuter Ave"/>
    <tag k="note" v="City Cycle Route"/>
  </way>
  <way id="4548158" version="3" timestamp="2008-09-22T07:58:03Z" uid="30201" user="rrankin" changeset="678480">
    <nd ref="35643763"/>
    <nd ref="29415026"/>
    <nd ref="29415030"/>
    <nd ref="29415034"/>
    <nd ref="29415037"/>
    <nd ref="29415043"/>
    <nd ref="29415040"/>
    <nd ref="28377505"/>
    <nd ref="28377504"/>
    <nd ref="28377503"/>
    <nd ref="28377502"/>
    <nd ref="28377501"/>
    <nd ref="59703114"/>
    <nd ref="59703107"/>
    <nd ref="54608345"/>
    <nd ref="28377500"/>
    <nd ref="28377499"/>
    <nd ref="58149134"/>
    <nd ref="59702622"/>
    <nd ref="59702407"/>
    <nd ref="59943081"/>
    <nd ref="59702335"/>
    <nd ref="59943090"/>
    <nd ref="59702989"/>
    <nd ref="28377496"/>
    <tag k="created_by" v="Potlatch alpha"/>
    <tag k="highway" v="secondary"/>
    <tag k="lcn_ref" v="City Cycle Route"/>
    <tag k="name" v="Chuter Avenue"/>
    <tag k="note" v="City Cycle Route"/>
  </way>
  <way id="4548158" version="4" timestamp="2009-03-28T13:02:16Z" uid="7617" user="Franc" changeset="865362">
    <nd ref="35643763"/>
    <nd ref="29415026"/>
    <nd ref="29415030"/>
    <nd ref="29415034"/>
    <nd ref="29415037"/>
    <nd ref="29415043"/>
    <nd ref="29415040"/>
    <nd ref="28377505"/>
    <nd ref="28377504"/>
    <nd ref="28377503"/>
    <nd ref="28377502"/>
    <nd ref="28377501"/>
    <nd ref="59703114"/>
    <nd ref="59703107"/>
    <nd ref="54608345"/>
    <nd ref="28377500"/>
    <nd ref="28377499"/>
    <nd ref="58149134"/>
    <nd ref="59702622"/>
    <nd ref="59702407"/>
    <tag k="created_by" v="Potlatch alpha"/>
    <tag k="highway" v="secondary"/>
    <tag k="lcn_ref" v="City Cycle Route"/>
    <tag k="name" v="Chuter Avenue"/>
    <tag k="note" v="City Cycle Route"/>
  </way>
  <way id="4548158" version="5" timestamp="2010-01-20T06:20:57Z" uid="7617" user="Franc" changeset="3664317">
    <nd ref="35643763"/>
    <nd ref="29415026"/>
    <nd ref="29415030"/>
    <nd ref="29415034"/>
    <nd ref="29415037"/>
    <nd ref="29415043"/>
    <nd ref="29415040"/>
    <nd ref="28377505"/>
    <nd ref="28377504"/>
    <nd ref="28377503"/>
    <nd ref="616960169"/>
    <nd ref="28377502"/>
    <nd ref="28377501"/>
    <nd ref="59703114"/>
    <nd ref="59703107"/>
    <nd ref="54608345"/>
    <nd ref="28377500"/>
    <nd ref="28377499"/>
    <nd ref="58149134"/>
    <nd ref="59702622"/>
    <nd ref="59702407"/>
    <tag k="highway" v="secondary"/>
    <tag k="lcn_ref" v="City Cycle Route"/>
    <tag k="name" v="Chuter Avenue"/>
    <tag k="note" v="City Cycle Route"/>
  </way>
  <way id="4548158" version="6" timestamp="2010-10-23T08:01:06Z" uid="7617" user="Franc" changeset="6142688">
    <nd ref="35643763"/>
    <nd ref="29415026"/>
    <nd ref="29415030"/>
    <nd ref="29415034"/>
    <nd ref="29415037"/>
    <nd ref="29415043"/>
    <nd ref="29415040"/>
    <nd ref="28377505"/>
    <nd ref="28377504"/>
    <nd ref="28377503"/>
    <nd ref="616960169"/>
    <nd ref="28377502"/>
    <nd ref="28377501"/>
    <nd ref="59703114"/>
    <nd ref="59703107"/>
    <nd ref="54608345"/>
    <nd ref="28377500"/>
    <nd ref="28377499"/>
    <nd ref="58149134"/>
    <nd ref="961284258"/>
    <nd ref="59702622"/>
    <nd ref="59702407"/>
    <tag k="highway" v="secondary"/>
    <tag k="lcn_ref" v="City Cycle Route"/>
    <tag k="name" v="Chuter Avenue"/>
    <tag k="note" v="City Cycle Route"/>
  </way>
  <way id="4548159" version="1" timestamp="2007-08-22T12:59:49Z" uid="7617" user="Franc" changeset="243110">
    <nd ref="28375021"/>
    <nd ref="32878953"/>
    <nd ref="32878942"/>
    <nd ref="28375044"/>
    <nd ref="28375048"/>
    <nd ref="28375049"/>
    <nd ref="35643656"/>
    <tag k="created_by" v="Potlatch alpha"/>
    <tag k="highway" v="secondary"/>
    <tag k="lcn_ref" v="City Cycle Route"/>
    <tag k="name" v="Crawford Road"/>
  </way>
  <way id="4548159" version="2" timestamp="2009-08-02T03:30:32Z" uid="7617" user="Franc" changeset="2009429">
    <nd ref="28375021"/>
    <nd ref="32878953"/>
    <nd ref="32878942"/>
    <nd ref="454043547"/>
    <nd ref="28375044"/>
    <nd ref="28375048"/>
    <nd ref="28375049"/>
    <nd ref="35643656"/>
    <tag k="created_by" v="Potlatch alpha"/>
    <tag k="highway" v="secondary"/>
    <tag k="lcn_ref" v="City Cycle Route"/>
    <tag k="name" v="Crawford Road"/>
  </way>
  <way id="4548159" version="3" timestamp="2010-01-20T06:21:03Z" uid="7617" user="Franc" changeset="3664317">
    <nd ref="28375021"/>
    <nd ref="32878953"/>
    <nd ref="616960225"/>
    <tag k="highway" v="secondary"/>
    <tag k="lcn_ref" v="City Cycle Route"/>
    <tag k="name" v="Crawford Road"/>
  </way>
  <way id="4548159" version="4" timestamp="2011-01-30T01:27:09Z" uid="4467" user="Rosscoe" changeset="7129549">
    <nd ref="28375021"/>
    <nd ref="1127229927"/>
    <nd ref="32878953"/>
    <nd ref="616960225"/>
    <tag k="highway" v="secondary"/>
    <tag k="lcn_ref" v="City Cycle Route"/>
    <tag k="name" v="Crawford Road"/>
  </way>
  <way id="4548160" version="1" timestamp="2007-08-06T18:28:05Z" uid="8328" user="benpre" changeset="193040">
    <nd ref="21545464"/>
    <nd ref="28371980"/>
    <nd ref="28371981"/>
    <nd ref="28371982"/>
    <nd ref="28371983"/>
    <nd ref="28371984"/>
    <nd ref="28371985"/>
    <nd ref="28371986"/>
    <nd ref="28371987"/>
    <nd ref="28371988"/>
    <nd ref="28372022"/>
    <nd ref="28372023"/>
    <nd ref="28372024"/>
    <tag k="created_by" v="JOSM"/>
    <tag k="highway" v="tertiary"/>
    <tag k="name" v="Coombeshead Road"/>
  </way>
  <way id="4548170" version="1" timestamp="2007-08-06T19:05:50Z" uid="8328" user="benpre" changeset="193040">
    <nd ref="28375039"/>
    <nd ref="29800830"/>
    <nd ref="28375041"/>
    <nd ref="29800826"/>
    <nd ref="29800827"/>
    <nd ref="28375042"/>
    <nd ref="28375043"/>
    <nd ref="29800825"/>
    <nd ref="29800828"/>
    <nd ref="28375045"/>
    <nd ref="28375046"/>
    <nd ref="28375047"/>
    <nd ref="28372073"/>
    <tag k="created_by" v="JOSM"/>
    <tag k="highway" v="unclassified"/>
  </way>
  <way id="4548251" version="9" timestamp="2008-05-06T06:45:19Z" uid="30201" user="rrankin" changeset="345627">
    <nd ref="28376171"/>
    <nd ref="28376172"/>
    <nd ref="84837422"/>
    <nd ref="84837423"/>
    <nd ref="28376173"/>
    <nd ref="28376174"/>
    <nd ref="28376175"/>
    <nd ref="28376176"/>
    <nd ref="28376177"/>
    <nd ref="84850756"/>
    <nd ref="28376178"/>
    <nd ref="28376179"/>
    <nd ref="28376180"/>
    <nd ref="28376181"/>
    <nd ref="84851156"/>
    <nd ref="28376182"/>
    <nd ref="250740256"/>
    <tag k="created_by" v="Potlatch 0.7b"/>
    <tag k="highway" v="residential"/>
    <tag k="maxspeed" v="50"/>
    <tag k="name" v="Belgrave Esplanade"/>
  </way>
  <way id="4548251" version="10" timestamp="2008-12-21T05:55:18Z" uid="7617" user="Franc" changeset="509418">
    <nd ref="28376171"/>
    <nd ref="320414915"/>
    <nd ref="28376172"/>
    <nd ref="84837422"/>
    <nd ref="84837423"/>
    <nd ref="28376173"/>
    <nd ref="28376174"/>
    <nd ref="28376175"/>
    <nd ref="28376176"/>
    <nd ref="28376177"/>
    <nd ref="84850756"/>
    <nd ref="28376178"/>
    <nd ref="28376179"/>
    <nd ref="28376180"/>
    <nd ref="320414920"/>
    <nd ref="28376181"/>
    <nd ref="84851156"/>
    <nd ref="28376182"/>
    <nd ref="250740256"/>
    <tag k="created_by" v="Potlatch 0.7b"/>
    <tag k="highway" v="residential"/>
    <tag k="maxspeed" v="50"/>
    <tag k="name" v="Belgrave Esplanade"/>
    <tag k="source" v="survey"/>
  </way>
  <way id="4548251" version="12" timestamp="2010-04-15T11:14:59Z" uid="7617" user="Franc" changeset="4429995">
    <nd ref="657812274"/>
    <nd ref="320414915"/>
    <nd ref="28376172"/>
    <nd ref="84837422"/>
    <nd ref="697305429"/>
    <nd ref="84837423"/>
    <nd ref="28376173"/>
    <nd ref="697305430"/>
    <nd ref="697305431"/>
    <nd ref="28376174"/>
    <nd ref="697305432"/>
    <nd ref="28376175"/>
    <nd ref="697305433"/>
    <nd ref="697305434"/>
    <nd ref="28376176"/>
    <nd ref="697305435"/>
    <nd ref="697305436"/>
    <nd ref="657812403"/>
    <nd ref="28376177"/>
    <nd ref="84850756"/>
    <nd ref="28376178"/>
    <nd ref="28376179"/>
    <nd ref="28376180"/>
    <nd ref="320414920"/>
    <nd ref="697305464"/>
    <nd ref="28376181"/>
    <nd ref="84851156"/>
    <nd ref="28376182"/>
    <nd ref="250740256"/>
    <tag k="highway" v="residential"/>
    <tag k="maxspeed" v="50"/>
    <tag k="name" v="Belgrave Esplanade"/>
    <tag k="source" v="survey"/>
  </way>
  <way id="4548252" version="14" timestamp="2009-10-25T08:59:51Z" uid="7617" user="Franc" changeset="2943949">
    <nd ref="20919046"/>
    <nd ref="33013314"/>
    <nd ref="33013313"/>
    <nd ref="540034818"/>
    <nd ref="251672468"/>
    <nd ref="251674784"/>
    <nd ref="251675171"/>
    <nd ref="28374060"/>
    <nd ref="251540615"/>
    <nd ref="251672408"/>
    <nd ref="251676259"/>
    <nd ref="251672361"/>
    <nd ref="28374066"/>
    <nd ref="251678645"/>
    <tag k="abutters" v="residential"/>
    <tag k="highway" v="secondary"/>
    <tag k="lanes" v="1"/>
    <tag k="name" v="Box Road"/>
    <tag k="source" v="survey"/>
  </way>
  <way id="4548252" version="15" timestamp="2009-12-07T06:18:36Z" uid="30201" user="rrankin" changeset="3312688">
    <nd ref="20919046"/>
    <nd ref="33013314"/>
    <nd ref="33013313"/>
    <nd ref="540034818"/>
    <nd ref="251672468"/>
    <nd ref="251674784"/>
    <nd ref="251675171"/>
    <nd ref="28374060"/>
    <nd ref="251540615"/>
    <nd ref="251672408"/>
    <nd ref="251676259"/>
    <nd ref="251672361"/>
    <nd ref="28374066"/>
    <nd ref="251678645"/>
    <tag k="highway" v="secondary"/>
    <tag k="lanes" v="1"/>
    <tag k="name" v="Box Road"/>
    <tag k="source" v="survey"/>
  </way>
  <way id="4548252" version="17" timestamp="2010-05-09T13:49:38Z" uid="4467" user="Rosscoe" changeset="4648741">
    <nd ref="20919046"/>
    <nd ref="33013314"/>
    <nd ref="33013313"/>
    <nd ref="540034818"/>
    <nd ref="251672468"/>
    <nd ref="251674784"/>
    <nd ref="251675171"/>
    <nd ref="28374060"/>
    <nd ref="251540615"/>
    <nd ref="251672408"/>
    <nd ref="251676259"/>
    <nd ref="251672361"/>
    <nd ref="727445846"/>
    <tag k="highway" v="secondary"/>
    <tag k="lanes" v="1"/>
    <tag k="name" v="Box Road"/>
    <tag k="source" v="survey"/>
  </way>
  <way id="4548252" version="18" timestamp="2010-08-21T01:49:42Z" uid="30201" user="rrankin" changeset="5548646">
    <nd ref="20919046"/>
    <nd ref="33013314"/>
    <nd ref="33013313"/>
    <nd ref="540034818"/>
    <nd ref="251672468"/>
    <nd ref="251674784"/>
    <nd ref="251675171"/>
    <nd ref="28374060"/>
    <nd ref="251540615"/>
    <nd ref="251672408"/>
    <nd ref="251676259"/>
    <nd ref="251672361"/>
    <nd ref="727445846"/>
    <tag k="highway" v="secondary"/>
    <tag k="lanes" v="1"/>
    <tag k="maxspeed" v="50"/>
    <tag k="name" v="Box Road"/>
    <tag k="source" v="survey"/>
  </way>
  <way id="4548252" version="19" timestamp="2011-04-22T22:29:00Z" uid="7617" user="Franc" changeset="7939326">
    <nd ref="20919046"/>
    <nd ref="33013314"/>
    <nd ref="33013313"/>
    <nd ref="540034818"/>
    <nd ref="251672468"/>
    <nd ref="251674784"/>
    <nd ref="251675171"/>
    <nd ref="28374060"/>
    <nd ref="251540615"/>
    <nd ref="1256054969"/>
    <nd ref="251672408"/>
    <nd ref="251676259"/>
    <nd ref="251672361"/>
    <nd ref="727445846"/>
    <tag k="highway" v="secondary"/>
    <tag k="lanes" v="1"/>
    <tag k="maxspeed" v="50"/>
    <tag k="name" v="Box Road"/>
    <tag k="source" v="survey"/>
  </way>
  <way id="4548253" version="5" timestamp="2008-05-06T06:45:20Z" uid="30201" user="rrankin" changeset="345627">
    <nd ref="60989152"/>
    <nd ref="60989153"/>
    <nd ref="262435176"/>
    <nd ref="60989154"/>
    <tag k="created_by" v="Potlatch alpha"/>
    <tag k="highway" v="service"/>
  </way>
  <way id="4548253" version="6" timestamp="2010-02-23T20:29:14Z" uid="7617" user="Franc" changeset="3957993">
    <nd ref="60989152"/>
    <nd ref="60989153"/>
    <nd ref="651959216"/>
    <nd ref="651959215"/>
    <nd ref="60989154"/>
    <tag k="highway" v="service"/>
  </way>
  <way id="4548254" version="7" timestamp="2010-02-23T12:33:28Z" uid="7617" user="Franc" changeset="3952930">
    <nd ref="28376205"/>
    <nd ref="63761553"/>
    <nd ref="331141582"/>
    <nd ref="212569243"/>
    <nd ref="28376208"/>
    <tag k="highway" v="residential"/>
    <tag k="name" v="Waldorn Street"/>
  </way>
  <way id="4548254" version="8" timestamp="2010-07-07T21:28:52Z" uid="74617" user="JohnSmith" changeset="5161069">
    <nd ref="28376205"/>
    <nd ref="63761553"/>
    <nd ref="331141582"/>
    <nd ref="212569243"/>
    <nd ref="28376208"/>
    <tag k="highway" v="residential"/>
    <tag k="maxspeed" v="50"/>
    <tag k="maxspeed:source" v="default residential speed limit in Australia"/>
    <tag k="name" v="Waldorn Street"/>
  </way>
  <way id="4548255" version="9" timestamp="2008-01-13T03:13:26Z" uid="7617" user="Franc" changeset="625122">
    <nd ref="28376206"/>
    <nd ref="63762424"/>
    <nd ref="28376211"/>
    <nd ref="63763431"/>
    <nd ref="28376210"/>
    <nd ref="59702781"/>
    <nd ref="60993101"/>
    <nd ref="60992598"/>
    <nd ref="60992113"/>
    <nd ref="28377490"/>
    <nd ref="59702742"/>
    <nd ref="28376216"/>
    <nd ref="84865031"/>
    <nd ref="84865032"/>
    <nd ref="84865033"/>
    <tag k="created_by" v="Potlatch alpha"/>
    <tag k="highway" v="residential"/>
    <tag k="name" v="Clareville Avenue"/>
  </way>
  <way id="4548255" version="10" timestamp="2008-02-12T06:28:28Z" uid="7617" user="Franc" changeset="107934">
    <nd ref="28376206"/>
    <nd ref="63762424"/>
    <nd ref="28376211"/>
    <nd ref="63763431"/>
    <nd ref="28376210"/>
    <nd ref="59702781"/>
    <nd ref="60993095"/>
    <nd ref="60992598"/>
    <nd ref="60992113"/>
    <nd ref="28377490"/>
    <nd ref="59702742"/>
    <nd ref="28376216"/>
    <nd ref="84865031"/>
    <nd ref="84865032"/>
    <nd ref="84865027"/>
    <tag k="created_by" v="Potlatch alpha"/>
    <tag k="highway" v="residential"/>
    <tag k="name" v="Clareville Avenue"/>
  </way>
  <way id="4548255" version="13" timestamp="2010-02-23T12:33:30Z" uid="7617" user="Franc" changeset="3952930">
    <nd ref="28376206"/>
    <nd ref="63762424"/>
    <nd ref="28376211"/>
    <nd ref="63763431"/>
    <nd ref="28376210"/>
    <nd ref="59702781"/>
    <nd ref="60993095"/>
    <nd ref="60992598"/>
    <nd ref="60992113"/>
    <nd ref="651508720"/>
    <nd ref="651508735"/>
    <nd ref="651508727"/>
    <tag k="highway" v="residential"/>
    <tag k="name" v="Clareville Avenue"/>
    <tag k="source" v="survey"/>
  </way>
  <way id="4548255" version="14" timestamp="2010-07-07T21:38:09Z" uid="74617" user="JohnSmith" changeset="5161069">
    <nd ref="28376206"/>
    <nd ref="63762424"/>
    <nd ref="28376211"/>
    <nd ref="63763431"/>
    <nd ref="28376210"/>
    <nd ref="59702781"/>
    <nd ref="60993095"/>
    <nd ref="60992598"/>
    <nd ref="60992113"/>
    <nd ref="651508720"/>
    <nd ref="651508735"/>
    <nd ref="651508727"/>
    <tag k="highway" v="residential"/>
    <tag k="maxspeed" v="50"/>
    <tag k="maxspeed:source" v="default residential speed limit in Australia"/>
    <tag k="name" v="Clareville Avenue"/>
    <tag k="source" v="survey"/>
  </way>
  <way id="4548295" version="15" timestamp="2009-01-26T10:15:58Z" uid="9581" user="Lobelt" changeset="839069">
    <nd ref="31512889"/>
    <nd ref="28377042"/>
    <nd ref="337286904"/>
    <nd ref="148544801"/>
    <nd ref="28377043"/>
    <nd ref="28377044"/>
    <nd ref="28377045"/>
    <nd ref="28377046"/>
    <nd ref="28377047"/>
    <nd ref="28377048"/>
    <nd ref="204125067"/>
    <nd ref="249565912"/>
    <tag k="created_by" v="Potlatch 0.6a"/>
    <tag k="highway" v="motorway"/>
    <tag k="lanes" v="2"/>
    <tag k="oneway" v="yes"/>
    <tag k="ref" v="A 72"/>
  </way>
  <way id="4548306" version="1" timestamp="2007-06-17T12:18:23Z" uid="7617" user="Franc" changeset="100271">
    <nd ref="28377494"/>
    <nd ref="28377497"/>
    <nd ref="28377495"/>
    <tag k="created_by" v="Potlatch alpha"/>
    <tag k="highway" v="residential"/>
  </way>
  <way id="4548307" version="1" timestamp="2007-06-17T12:18:19Z" uid="7617" user="Franc" changeset="100271">
    <nd ref="30471732"/>
    <nd ref="28377491"/>
    <nd ref="28377493"/>
    <tag k="created_by" v="Potlatch alpha"/>
    <tag k="highway" v="residential"/>
  </way>
  <way id="4548307" version="5" timestamp="2010-07-07T21:34:55Z" uid="74617" user="JohnSmith" changeset="5161069">
    <nd ref="30471732"/>
    <nd ref="28377491"/>
    <tag k="highway" v="residential"/>
    <tag k="maxspeed" v="50"/>
    <tag k="maxspeed:source" v="default residential speed limit in Australia"/>
    <tag k="name" v="Norman Avenue"/>
  </way>
  <way id="4548308" version="4" timestamp="2010-02-23T12:41:48Z" uid="7617" user="Franc" changeset="3953003">
    <nd ref="28376216"/>
    <nd ref="651510720"/>
    <nd ref="651510722"/>
    <nd ref="651510721"/>
    <nd ref="28377491"/>
    <tag k="highway" v="residential"/>
    <tag k="name" v="Milton Avenue"/>
    <tag k="source" v="survey"/>
  </way>
  <way id="4548308" version="5" timestamp="2010-07-07T21:34:27Z" uid="74617" user="JohnSmith" changeset="5161069">
    <nd ref="28376216"/>
    <nd ref="651510720"/>
    <nd ref="651510722"/>
    <nd ref="651510721"/>
    <nd ref="28377491"/>
    <tag k="highway" v="residential"/>
    <tag k="maxspeed" v="50"/>
    <tag k="maxspeed:source" v="default residential speed limit in Australia"/>
    <tag k="name" v="Milton Avenue"/>
    <tag k="source" v="survey"/>
  </way>
  <way id="4548320" version="12" timestamp="2010-12-29T23:37:33Z" uid="9581" user="Lobelt" changeset="6804759">
    <nd ref="26559511"/>
    <nd ref="247092455"/>
    <nd ref="247092486"/>
    <nd ref="247092451"/>
    <nd ref="267572167"/>
    <nd ref="1071699646"/>
    <nd ref="26559512"/>
    <nd ref="1071699702"/>
    <nd ref="277820108"/>
    <nd ref="1071699583"/>
    <nd ref="26559513"/>
    <nd ref="1071699588"/>
    <nd ref="277820053"/>
    <nd ref="1071699557"/>
    <nd ref="26559514"/>
    <nd ref="1071699633"/>
    <nd ref="1071699640"/>
    <nd ref="26559515"/>
    <nd ref="267429891"/>
    <tag k="highway" v="motorway"/>
    <tag k="lanes" v="2"/>
    <tag k="maxspeed" v="no"/>
    <tag k="oneway" v="yes"/>
    <tag k="ref" v="A 71"/>
  </way>
  <way id="4548322" version="2" timestamp="2007-10-13T21:33:17Z" uid="6454" user="B10xxx" changeset="154656">
    <nd ref="26559500"/>
    <nd ref="69316506"/>
    <nd ref="69316516"/>
    <nd ref="26559501"/>
    <nd ref="32925825"/>
    <nd ref="26559502"/>
    <nd ref="26559503"/>
    <nd ref="26559504"/>
    <nd ref="26559505"/>
    <nd ref="32925826"/>
    <nd ref="26559506"/>
    <nd ref="26559507"/>
    <nd ref="32925828"/>
    <nd ref="32925827"/>
    <nd ref="26559508"/>
    <nd ref="32925829"/>
    <nd ref="26559509"/>
    <nd ref="32925830"/>
    <nd ref="26559510"/>
    <nd ref="32925831"/>
    <nd ref="32925832"/>
    <nd ref="26559511"/>
    <tag k="created_by" v="JOSM"/>
    <tag k="highway" v="motorway"/>
    <tag k="name" v="A71"/>
    <tag k="oneway" v="yes"/>
  </way>
  <way id="4548322" version="9" timestamp="2010-12-29T22:52:25Z" uid="9581" user="Lobelt" changeset="6804451">
    <nd ref="26559500"/>
    <nd ref="69316506"/>
    <nd ref="69316516"/>
    <nd ref="26559501"/>
    <nd ref="582170495"/>
    <nd ref="32925825"/>
    <nd ref="582170492"/>
    <nd ref="26559502"/>
    <nd ref="267642080"/>
    <tag k="highway" v="motorway"/>
    <tag k="lanes" v="2"/>
    <tag k="maxspeed" v="no"/>
    <tag k="oneway" v="yes"/>
    <tag k="ref" v="A 71"/>
  </way>
  <way id="4548322" version="10" timestamp="2010-12-29T23:37:47Z" uid="9581" user="Lobelt" changeset="6804759">
    <nd ref="26559500"/>
    <nd ref="69316506"/>
    <nd ref="69316516"/>
    <nd ref="26559501"/>
    <nd ref="582170495"/>
    <nd ref="32925825"/>
    <nd ref="582170492"/>
    <nd ref="1071699704"/>
    <nd ref="26559502"/>
    <nd ref="267642080"/>
    <tag k="highway" v="motorway"/>
    <tag k="lanes" v="2"/>
    <tag k="maxspeed" v="no"/>
    <tag k="oneway" v="yes"/>
    <tag k="ref" v="A 71"/>
  </way>
  <way id="4548324" version="4" timestamp="2010-12-25T19:46:40Z" uid="9581" user="Lobelt" changeset="6763550">
    <nd ref="26559447"/>
    <nd ref="198265788"/>
    <nd ref="198265786"/>
    <nd ref="198265755"/>
    <nd ref="26559448"/>
    <nd ref="32925520"/>
    <nd ref="26559449"/>
    <nd ref="32925519"/>
    <tag k="highway" v="motorway_link"/>
    <tag k="maxspeed" v="no"/>
    <tag k="oneway" v="yes"/>
    <tag k="ref" v="A 71 Suhl"/>
  </way>
  <way id="4548325" version="6" timestamp="2010-10-22T20:35:19Z" uid="9581" user="Lobelt" changeset="6140146">
    <nd ref="26559562"/>
    <nd ref="960737162"/>
    <nd ref="960735135"/>
    <nd ref="960734729"/>
    <nd ref="960735551"/>
    <tag k="bridge" v="yes"/>
    <tag k="highway" v="motorway"/>
    <tag k="lanes" v="2"/>
    <tag k="layer" v="1"/>
    <tag k="oneway" v="yes"/>
    <tag k="ref" v="A 71"/>
  </way>
  <way id="4548325" version="7" timestamp="2010-12-30T20:13:35Z" uid="9581" user="Lobelt" changeset="6813569">
    <nd ref="26559562"/>
    <nd ref="960737162"/>
    <nd ref="960735135"/>
    <nd ref="960734729"/>
    <nd ref="960735551"/>
    <tag k="bridge" v="yes"/>
    <tag k="highway" v="motorway"/>
    <tag k="lanes" v="2"/>
    <tag k="layer" v="1"/>
    <tag k="maxspeed" v="no"/>
    <tag k="oneway" v="yes"/>
    <tag k="ref" v="A 71"/>
  </way>
  <way id="4548334" version="1" timestamp="2007-05-01T11:35:20Z" uid="6975" user="ulfl" changeset="34913">
    <nd ref="28337021"/>
    <nd ref="28377811"/>
    <nd ref="28377812"/>
    <nd ref="28377813"/>
    <tag k="created_by" v="JOSM"/>
    <tag k="highway" v="residential"/>
    <tag k="name" v="Kapellenstrae"/>
  </way>
  <way id="4548335" version="1" timestamp="2007-05-01T11:35:20Z" uid="6975" user="ulfl" changeset="34913">
    <nd ref="28377810"/>
    <nd ref="28377811"/>
    <tag k="created_by" v="JOSM"/>
    <tag k="highway" v="residential"/>
    <tag k="name" v="Kapellenstrae"/>
  </way>
  <way id="4548337" version="8" timestamp="2010-12-29T23:37:50Z" uid="9581" user="Lobelt" changeset="6804759">
    <nd ref="26559676"/>
    <nd ref="1071699560"/>
    <tag k="highway" v="motorway"/>
    <tag k="lanes" v="2"/>
    <tag k="maxspeed" v="signals"/>
    <tag k="oneway" v="yes"/>
    <tag k="ref" v="A 71"/>
  </way>
  <way id="4548338" version="1" timestamp="2007-06-27T07:45:20Z" uid="6975" user="ulfl" changeset="115907">
    <nd ref="28340272"/>
    <nd ref="28340271"/>
    <nd ref="27666430"/>
    <tag k="created_by" v="JOSM"/>
    <tag k="highway" v="residential"/>
    <tag k="name" v="Schlostrae"/>
  </way>
  <way id="4548341" version="1" timestamp="2007-05-01T11:38:40Z" uid="6975" user="ulfl" changeset="34913">
    <nd ref="28377952"/>
    <nd ref="28377953"/>
    <tag k="created_by" v="JOSM"/>
    <tag k="highway" v="residential"/>
    <tag k="name" v="Luisenstrae"/>
  </way>
  <way id="4548342" version="1" timestamp="2007-05-01T11:38:41Z" uid="6975" user="ulfl" changeset="34913">
    <nd ref="28377954"/>
    <nd ref="28377955"/>
    <tag k="created_by" v="JOSM"/>
    <tag k="highway" v="residential"/>
    <tag k="name" v="Lorschstrae"/>
  </way>
  <way id="4548350" version="1" timestamp="2007-05-01T11:39:55Z" uid="6975" user="ulfl" changeset="34913">
    <nd ref="28338903"/>
    <nd ref="28338934"/>
    <nd ref="28338937"/>
    <nd ref="28338881"/>
    <tag k="created_by" v="JOSM"/>
    <tag k="highway" v="residential"/>
    <tag k="name" v="Regensburger Strae"/>
    <tag k="oneway" v="true"/>
  </way>
  <way id="4548353" version="1" timestamp="2007-06-02T05:12:36Z" uid="7617" user="Franc" changeset="76630">
    <nd ref="28274386"/>
    <nd ref="28377981"/>
    <nd ref="28377980"/>
    <nd ref="28273764"/>
    <nd ref="29336550"/>
    <nd ref="29854353"/>
    <nd ref="28377979"/>
    <tag k="abutters" v="residential"/>
    <tag k="created_by" v="Potlatch alpha"/>
    <tag k="highway" v="secondary"/>
    <tag k="name" v="Ewart Street"/>
  </way>
  <way id="4548353" version="2" timestamp="2007-12-02T04:57:12Z" uid="7617" user="Franc" changeset="29324">
    <nd ref="28274386"/>
    <nd ref="28377981"/>
    <nd ref="28377980"/>
    <nd ref="28273764"/>
    <nd ref="29336550"/>
    <nd ref="29854353"/>
    <nd ref="28377979"/>
    <tag k="abutters" v="residential"/>
    <tag k="created_by" v="Potlatch alpha"/>
    <tag k="highway" v="tertiary"/>
    <tag k="name" v="Ewart Street"/>
  </way>
  <way id="4548353" version="3" timestamp="2009-12-08T23:02:02Z" uid="30201" user="rrankin" changeset="3329912">
    <nd ref="28274386"/>
    <nd ref="28377981"/>
    <nd ref="28377980"/>
    <nd ref="28273764"/>
    <nd ref="29336550"/>
    <nd ref="29854353"/>
    <nd ref="28377979"/>
    <tag k="highway" v="tertiary"/>
    <tag k="name" v="Ewart Street"/>
  </way>
  <way id="4548353" version="4" timestamp="2009-12-28T13:31:29Z" uid="7617" user="Franc" changeset="3471447">
    <nd ref="28274386"/>
    <nd ref="28377981"/>
    <nd ref="600382304"/>
    <nd ref="28377980"/>
    <nd ref="28273764"/>
    <nd ref="29336550"/>
    <nd ref="29854353"/>
    <nd ref="28377979"/>
    <tag k="highway" v="tertiary"/>
    <tag k="name" v="Ewart Street"/>
  </way>
  <way id="4548353" version="5" timestamp="2009-12-29T11:08:10Z" uid="7617" user="Franc" changeset="3479388">
    <nd ref="28274386"/>
    <nd ref="28377981"/>
    <nd ref="600382304"/>
    <nd ref="28377980"/>
    <nd ref="600747256"/>
    <nd ref="28273764"/>
    <nd ref="29336550"/>
    <nd ref="600747253"/>
    <nd ref="29854353"/>
    <nd ref="28377979"/>
    <tag k="highway" v="tertiary"/>
    <tag k="name" v="Ewart Street"/>
  </way>
  <way id="4548354" version="1" timestamp="2007-05-29T08:46:51Z" uid="7617" user="Franc" changeset="72359">
    <nd ref="28377980"/>
    <nd ref="28377982"/>
    <nd ref="28377983"/>
    <tag k="created_by" v="JOSM"/>
    <tag k="highway" v="residential"/>
    <tag k="name" v="Wicks Avenue"/>
  </way>
  <way id="4548354" version="2" timestamp="2010-07-08T02:55:47Z" uid="74617" user="JohnSmith" changeset="5163091">
    <nd ref="28377980"/>
    <nd ref="28377982"/>
    <nd ref="28377983"/>
    <tag k="highway" v="residential"/>
    <tag k="maxspeed" v="50"/>
    <tag k="maxspeed:source" v="default residential speed limit in Australia"/>
    <tag k="name" v="Wicks Avenue"/>
  </way>
  <way id="4548357" version="1" timestamp="2007-05-14T01:34:23Z" uid="7617" user="Franc" changeset="49070">
    <nd ref="28377981"/>
    <nd ref="28377985"/>
    <tag k="abutters" v="residential"/>
    <tag k="created_by" v="JOSM"/>
    <tag k="highway" v="residential"/>
    <tag k="name" v="Osgood Avenue"/>
  </way>
  <way id="4548357" version="2" timestamp="2009-12-02T22:58:10Z" uid="30201" user="rrankin" changeset="3276441">
    <nd ref="28377981"/>
    <nd ref="28377985"/>
    <tag k="highway" v="residential"/>
    <tag k="name" v="Osgood Avenue"/>
  </way>
  <way id="4548357" version="3" timestamp="2010-07-08T02:54:27Z" uid="74617" user="JohnSmith" changeset="5163091">
    <nd ref="28377981"/>
    <nd ref="28377985"/>
    <tag k="highway" v="residential"/>
    <tag k="maxspeed" v="50"/>
    <tag k="maxspeed:source" v="default residential speed limit in Australia"/>
    <tag k="name" v="Osgood Avenue"/>
  </way>
  <way id="4548359" version="1" timestamp="2007-05-01T11:41:59Z" uid="6975" user="ulfl" changeset="34913">
    <nd ref="28377987"/>
    <nd ref="28377988"/>
    <tag k="created_by" v="JOSM"/>
    <tag k="highway" v="residential"/>
    <tag k="name" v="Neumarkter Strae"/>
  </way>
  <way id="4548370" version="1" timestamp="2007-07-08T20:36:17Z" uid="8328" user="benpre" changeset="134059">
    <nd ref="28377565"/>
    <nd ref="28377566"/>
    <nd ref="28377567"/>
    <nd ref="28377568"/>
    <nd ref="28377569"/>
    <tag k="created_by" v="YahooApplet 1.0"/>
    <tag k="highway" v="residential"/>
    <tag k="maxspeed" v="30"/>
    <tag k="name" v="Carlo-Mierendorff-Strae"/>
  </way>
  <way id="4548375" version="1" timestamp="2007-07-08T20:36:18Z" uid="8328" user="benpre" changeset="134059">
    <nd ref="28377517"/>
    <nd ref="28377533"/>
    <nd ref="28377532"/>
    <nd ref="28377531"/>
    <nd ref="28377530"/>
    <nd ref="28377529"/>
    <nd ref="28377528"/>
    <tag k="created_by" v="YahooApplet 1.0"/>
    <tag k="highway" v="residential"/>
    <tag k="maxspeed" v="30"/>
    <tag k="name" v="Wilhelm-Leuschner-Strae"/>
  </way>
  <way id="4548376" version="1" timestamp="2007-05-29T08:46:42Z" uid="7617" user="Franc" changeset="72359">
    <nd ref="624951"/>
    <nd ref="29336541"/>
    <nd ref="28378030"/>
    <nd ref="28378032"/>
    <nd ref="28374258"/>
    <tag k="abutters" v="residential"/>
    <tag k="created_by" v="Potlatch alpha"/>
    <tag k="highway" v="residential"/>
    <tag k="name" v="Riverside Crescent"/>
  </way>
  <way id="4548376" version="2" timestamp="2009-12-08T23:02:00Z" uid="30201" user="rrankin" changeset="3329912">
    <nd ref="624951"/>
    <nd ref="29336541"/>
    <nd ref="28378030"/>
    <nd ref="28378032"/>
    <nd ref="28374258"/>
    <tag k="highway" v="residential"/>
    <tag k="name" v="Riverside Crescent"/>
  </way>
  <way id="4548376" version="3" timestamp="2010-02-22T11:38:03Z" uid="7617" user="Franc" changeset="3942637">
    <nd ref="624951"/>
    <nd ref="29336541"/>
    <nd ref="28378030"/>
    <nd ref="650158673"/>
    <nd ref="650158671"/>
    <nd ref="650158665"/>
    <nd ref="28378032"/>
    <nd ref="650158497"/>
    <nd ref="650158485"/>
    <nd ref="650158507"/>
    <nd ref="28374258"/>
    <tag k="highway" v="residential"/>
    <tag k="name" v="Riverside Crescent"/>
  </way>
  <way id="4548376" version="4" timestamp="2010-07-08T02:55:07Z" uid="74617" user="JohnSmith" changeset="5163091">
    <nd ref="624951"/>
    <nd ref="29336541"/>
    <nd ref="28378030"/>
    <nd ref="650158673"/>
    <nd ref="650158671"/>
    <nd ref="650158665"/>
    <nd ref="28378032"/>
    <nd ref="650158497"/>
    <nd ref="650158485"/>
    <nd ref="650158507"/>
    <nd ref="28374258"/>
    <tag k="highway" v="residential"/>
    <tag k="maxspeed" v="50"/>
    <tag k="maxspeed:source" v="default residential speed limit in Australia"/>
    <tag k="name" v="Riverside Crescent"/>
  </way>
  <way id="4548376" version="5" timestamp="2010-08-15T07:12:22Z" uid="7617" user="Franc" changeset="5496539">
    <nd ref="624951"/>
    <nd ref="860869205"/>
    <nd ref="29336541"/>
    <nd ref="28378030"/>
    <nd ref="650158673"/>
    <nd ref="650158671"/>
    <nd ref="650158665"/>
    <nd ref="28378032"/>
    <nd ref="650158497"/>
    <nd ref="650158485"/>
    <nd ref="650158507"/>
    <nd ref="28374258"/>
    <tag k="highway" v="residential"/>
    <tag k="maxspeed" v="50"/>
    <tag k="maxspeed:source" v="default residential speed limit in Australia"/>
    <tag k="name" v="Riverside Crescent"/>
  </way>
  <way id="4548378" version="1" timestamp="2007-07-08T20:36:18Z" uid="8328" user="benpre" changeset="134059">
    <nd ref="28377524"/>
    <nd ref="28377525"/>
    <nd ref="28377526"/>
    <nd ref="28377527"/>
    <nd ref="28377518"/>
    <tag k="created_by" v="YahooApplet 1.0"/>
    <tag k="highway" v="residential"/>
    <tag k="maxspeed" v="30"/>
    <tag k="name" v="Erich-Hoepner-Strae"/>
  </way>
  <way id="4548382" version="1" timestamp="2007-05-14T01:35:15Z" uid="7617" user="Franc" changeset="49070">
    <nd ref="28271676"/>
    <nd ref="28378112"/>
    <nd ref="26361498"/>
    <nd ref="26361496"/>
    <tag k="created_by" v="JOSM"/>
    <tag k="highway" v="residential"/>
    <tag k="name" v="Beauchamp Street"/>
  </way>
  <way id="4548382" version="2" timestamp="2010-07-08T02:53:33Z" uid="74617" user="JohnSmith" changeset="5163091">
    <nd ref="28271676"/>
    <nd ref="28378112"/>
    <nd ref="26361498"/>
    <nd ref="26361496"/>
    <tag k="highway" v="residential"/>
    <tag k="maxspeed" v="50"/>
    <tag k="maxspeed:source" v="default residential speed limit in Australia"/>
    <tag k="name" v="Beauchamp Street"/>
  </way>
  <way id="4548382" version="3" timestamp="2010-08-08T07:08:41Z" uid="7617" user="Franc" changeset="5429906">
    <nd ref="28271676"/>
    <nd ref="28378112"/>
    <nd ref="26361498"/>
    <nd ref="849314536"/>
    <nd ref="26361496"/>
    <tag k="highway" v="residential"/>
    <tag k="maxspeed" v="50"/>
    <tag k="maxspeed:source" v="default residential speed limit in Australia"/>
    <tag k="name" v="Beauchamp Street"/>
  </way>
  <way id="4548382" version="4" timestamp="2011-05-24T11:41:31Z" uid="7617" user="Franc" changeset="8234563">
    <nd ref="28271676"/>
    <nd ref="28378112"/>
    <nd ref="26361498"/>
    <nd ref="849314536"/>
    <nd ref="1298332072"/>
    <nd ref="26361496"/>
    <tag k="highway" v="residential"/>
    <tag k="maxspeed" v="50"/>
    <tag k="maxspeed:source" v="default residential speed limit in Australia"/>
    <tag k="name" v="Beauchamp Street"/>
  </way>
  <way id="4548383" version="1" timestamp="2007-05-01T11:50:52Z" uid="6975" user="ulfl" changeset="34913">
    <nd ref="28378074"/>
    <nd ref="28378088"/>
    <nd ref="28378086"/>
    <nd ref="27511229"/>
    <tag k="created_by" v="JOSM"/>
    <tag k="highway" v="residential"/>
    <tag k="name" v="Lotzestrae"/>
  </way>
  <way id="4548392" version="1" timestamp="2007-05-01T11:56:15Z" uid="6975" user="ulfl" changeset="34913">
    <nd ref="28378083"/>
    <nd ref="28378086"/>
    <nd ref="28378087"/>
    <tag k="created_by" v="JOSM"/>
    <tag k="highway" v="residential"/>
    <tag k="name" v="Heidelberger Strae"/>
  </way>
  <way id="4548393" version="1" timestamp="2007-05-01T11:56:15Z" uid="6975" user="ulfl" changeset="34913">
    <nd ref="28378077"/>
    <nd ref="28378078"/>
    <nd ref="28378079"/>
    <nd ref="28378080"/>
    <nd ref="28378077"/>
    <tag k="created_by" v="JOSM"/>
    <tag k="highway" v="residential"/>
    <tag k="name" v="Speyerer Strae"/>
  </way>
  <way id="4548409" version="1" timestamp="2007-05-01T11:59:07Z" uid="6975" user="ulfl" changeset="34913">
    <nd ref="28378075"/>
    <nd ref="21317571"/>
    <tag k="created_by" v="JOSM"/>
    <tag k="highway" v="residential"/>
    <tag k="name" v="Herschelstrae"/>
    <tag k="oneway" v="true"/>
  </way>
  <way id="4548410" version="1" timestamp="2007-05-01T11:59:07Z" uid="6975" user="ulfl" changeset="34913">
    <nd ref="27538778"/>
    <nd ref="27538781"/>
    <nd ref="27538785"/>
    <tag k="created_by" v="JOSM"/>
    <tag k="highway" v="residential"/>
    <tag k="name" v="Herschelplatz"/>
  </way>
  <way id="4548411" version="1" timestamp="2007-05-01T11:59:07Z" uid="6975" user="ulfl" changeset="34913">
    <nd ref="28378076"/>
    <nd ref="27538785"/>
    <nd ref="28378085"/>
    <nd ref="28378084"/>
    <nd ref="28378083"/>
    <tag k="created_by" v="JOSM"/>
    <tag k="highway" v="residential"/>
    <tag k="name" v="Herschelplatz"/>
  </way>
  <way id="4548419" version="1" timestamp="2007-05-01T12:02:41Z" uid="6975" user="ulfl" changeset="34913">
    <nd ref="21317575"/>
    <nd ref="21317576"/>
    <nd ref="21317577"/>
    <tag k="created_by" v="JOSM"/>
    <tag k="highway" v="residential"/>
    <tag k="name" v="Charlottenstrae"/>
  </way>
  <way id="4548420" version="1" timestamp="2007-05-01T12:02:42Z" uid="6975" user="ulfl" changeset="34913">
    <nd ref="27511234"/>
    <nd ref="28378113"/>
    <nd ref="28378114"/>
    <nd ref="21317577"/>
    <nd ref="21317579"/>
    <nd ref="15848392"/>
    <tag k="created_by" v="JOSM"/>
    <tag k="highway" v="unclassified"/>
    <tag k="name" v="Volkmannstrae"/>
  </way>
  <way id="4548423" version="1" timestamp="2007-05-01T12:06:33Z" uid="6975" user="ulfl" changeset="34913">
    <nd ref="28383995"/>
    <nd ref="28383996"/>
    <nd ref="26994669"/>
    <nd ref="28378358"/>
    <tag k="created_by" v="JOSM"/>
    <tag k="highway" v="residential"/>
    <tag k="name" v="Ackerstrae"/>
  </way>
  <way id="4548424" version="1" timestamp="2007-05-01T12:06:33Z" uid="6975" user="ulfl" changeset="34913">
    <nd ref="28378360"/>
    <nd ref="28378359"/>
    <nd ref="28378358"/>
    <nd ref="28378361"/>
    <nd ref="28378362"/>
    <tag k="created_by" v="JOSM"/>
    <tag k="highway" v="residential"/>
    <tag k="name" v="Max-Planck-Strae"/>
  </way>
  <way id="4548425" version="1" timestamp="2007-05-01T12:06:33Z" uid="6975" user="ulfl" changeset="34913">
    <nd ref="28378361"/>
    <nd ref="26994668"/>
    <tag k="created_by" v="JOSM"/>
    <tag k="highway" v="residential"/>
    <tag k="name" v="Geilerstrae"/>
  </way>
  <way id="4548427" version="1" timestamp="2007-05-14T01:36:32Z" uid="7617" user="Franc" changeset="49070">
    <nd ref="28378364"/>
    <nd ref="28378365"/>
    <nd ref="28378366"/>
    <nd ref="28378367"/>
    <nd ref="28378368"/>
    <nd ref="28378363"/>
    <nd ref="28378364"/>
    <tag k="created_by" v="JOSM"/>
    <tag k="highway" v="secondary"/>
    <tag k="roundabout" v="yes"/>
  </way>
  <way id="4548427" version="3" timestamp="2009-02-10T04:27:35Z" uid="30201" user="rrankin" changeset="316665">
    <nd ref="28378364"/>
    <nd ref="28378365"/>
    <nd ref="28378366"/>
    <nd ref="28378367"/>
    <nd ref="28378368"/>
    <nd ref="28378363"/>
    <nd ref="28378364"/>
    <tag k="highway" v="secondary"/>
    <tag k="junction" v="roundabout"/>
    <tag k="name" v="Permanent Avenue"/>
  </way>
  <way id="4548427" version="4" timestamp="2010-01-07T00:45:52Z" uid="7617" user="Franc" changeset="3558727">
    <nd ref="28378364"/>
    <nd ref="607611523"/>
    <nd ref="28378365"/>
    <nd ref="607611526"/>
    <nd ref="28378366"/>
    <nd ref="607611529"/>
    <nd ref="28378367"/>
    <nd ref="28378368"/>
    <nd ref="28378363"/>
    <nd ref="607611531"/>
    <nd ref="28378364"/>
    <tag k="highway" v="secondary"/>
    <tag k="junction" v="roundabout"/>
    <tag k="source" v="neamap"/>
  </way>
  <way id="4548427" version="5" timestamp="2010-01-11T08:27:00Z" uid="7617" user="Franc" changeset="3594095">
    <nd ref="28378364"/>
    <nd ref="607611523"/>
    <nd ref="28378365"/>
    <nd ref="607611526"/>
    <nd ref="28378366"/>
    <nd ref="607611529"/>
    <nd ref="28378367"/>
    <nd ref="28378368"/>
    <nd ref="28378363"/>
    <nd ref="607611531"/>
    <nd ref="28378364"/>
    <tag k="highway" v="secondary"/>
    <tag k="junction" v="roundabout"/>
    <tag k="source" v="nearmap"/>
  </way>
  <way id="4548428" version="1" timestamp="2007-05-14T01:34:26Z" uid="7617" user="Franc" changeset="49070">
    <nd ref="28378370"/>
    <nd ref="28378369"/>
    <nd ref="28378371"/>
    <nd ref="12194356"/>
    <nd ref="28378370"/>
    <tag k="created_by" v="JOSM"/>
    <tag k="highway" v="secondary"/>
    <tag k="roundabout" v="yes"/>
  </way>
  <way id="4548428" version="3" timestamp="2009-02-10T04:27:34Z" uid="30201" user="rrankin" changeset="316665">
    <nd ref="28378370"/>
    <nd ref="28378369"/>
    <nd ref="28378371"/>
    <nd ref="12194356"/>
    <nd ref="28378370"/>
    <tag k="highway" v="secondary"/>
    <tag k="junction" v="roundabout"/>
    <tag k="name" v="Permanent Avenue"/>
  </way>
  <way id="4548428" version="4" timestamp="2010-01-06T09:14:48Z" uid="30201" user="rrankin" changeset="3551689"/>
  <way id="4548429" version="1" timestamp="2007-08-11T23:46:27Z" uid="7617" user="Franc" changeset="205166">
    <nd ref="28378366"/>
    <nd ref="12194356"/>
    <tag k="created_by" v="JOSM"/>
    <tag k="highway" v="secondary"/>
    <tag k="name" v="Permanent Avenue"/>
  </way>
  <way id="4548429" version="2" timestamp="2007-11-25T07:19:13Z" uid="7617" user="Franc" changeset="612400">
    <nd ref="28378366"/>
    <nd ref="12194356"/>
    <tag k="created_by" v="JOSM"/>
    <tag k="highway" v="secondary"/>
    <tag k="name" v="Permanent Avenue"/>
  </way>
  <way id="4548430" version="1" timestamp="2007-07-13T08:46:57Z" uid="7617" user="Franc" changeset="142013">
    <nd ref="28378364"/>
    <nd ref="28378377"/>
    <nd ref="28378378"/>
    <nd ref="28378379"/>
    <nd ref="28378373"/>
    <tag k="created_by" v="JOSM"/>
    <tag k="highway" v="residential"/>
  </way>
  <way id="4548430" version="2" timestamp="2007-11-26T04:29:17Z" uid="7617" user="Franc" changeset="621408">
    <nd ref="28378364"/>
    <nd ref="28378377"/>
    <tag k="created_by" v="JOSM"/>
    <tag k="highway" v="residential"/>
    <tag k="name" v="Riverview Road"/>
  </way>
  <way id="4548430" version="3" timestamp="2007-12-24T06:51:21Z" uid="7617" user="Franc" changeset="408635">
    <nd ref="28378364"/>
    <nd ref="28378377"/>
    <tag k="created_by" v="JOSM"/>
    <tag k="highway" v="tertiary"/>
    <tag k="name" v="Riverview Road"/>
    <tag k="source" v="survey"/>
  </way>
  <way id="4548430" version="4" timestamp="2010-10-15T11:58:40Z" uid="7617" user="Franc" changeset="6048572">
    <nd ref="28378364"/>
    <nd ref="949933164"/>
    <nd ref="949933033"/>
    <nd ref="28378377"/>
    <tag k="highway" v="tertiary"/>
    <tag k="name" v="Riverview Road"/>
    <tag k="source" v="survey"/>
  </way>
  <way id="4548431" version="1" timestamp="2007-05-14T01:34:03Z" uid="7617" user="Franc" changeset="49070">
    <nd ref="28378375"/>
    <nd ref="28378374"/>
    <nd ref="28378372"/>
    <nd ref="28378373"/>
    <nd ref="28378375"/>
    <tag k="created_by" v="JOSM"/>
    <tag k="highway" v="residential"/>
    <tag k="roundabout" v="yes"/>
  </way>
  <way id="4548431" version="2" timestamp="2007-12-24T06:51:20Z" uid="7617" user="Franc" changeset="408635">
    <nd ref="28378375"/>
    <nd ref="28378374"/>
    <nd ref="28378372"/>
    <nd ref="28378373"/>
    <nd ref="28378375"/>
    <tag k="created_by" v="JOSM"/>
    <tag k="highway" v="tertiary"/>
    <tag k="roundabout" v="yes"/>
  </way>
  <way id="4548431" version="4" timestamp="2009-02-10T04:27:35Z" uid="30201" user="rrankin" changeset="316665">
    <nd ref="28378375"/>
    <nd ref="28378374"/>
    <nd ref="28378372"/>
    <nd ref="28378373"/>
    <nd ref="28378375"/>
    <tag k="highway" v="tertiary"/>
    <tag k="junction" v="roundabout"/>
    <tag k="name" v="Riverview Road"/>
  </way>
  <way id="4548431" version="5" timestamp="2009-12-28T13:31:28Z" uid="7617" user="Franc" changeset="3471447">
    <nd ref="28378375"/>
    <nd ref="600382298"/>
    <nd ref="28378374"/>
    <nd ref="600382299"/>
    <nd ref="28378372"/>
    <nd ref="600382300"/>
    <nd ref="28378373"/>
    <nd ref="600382301"/>
    <nd ref="28378375"/>
    <tag k="highway" v="tertiary"/>
    <tag k="junction" v="roundabout"/>
    <tag k="name" v="Riverview Road"/>
  </way>
  <way id="4548431" version="6" timestamp="2009-12-29T01:16:17Z" uid="7617" user="Franc" changeset="3477355">
    <nd ref="28378375"/>
    <nd ref="600382298"/>
    <nd ref="28378374"/>
    <nd ref="600382299"/>
    <nd ref="28378372"/>
    <nd ref="600382300"/>
    <nd ref="28378373"/>
    <nd ref="600382301"/>
    <nd ref="28378375"/>
    <tag k="highway" v="tertiary"/>
    <tag k="junction" v="roundabout"/>
  </way>
  <way id="4548432" version="1" timestamp="2007-05-16T01:59:21Z" uid="7617" user="Franc" changeset="52895">
    <nd ref="28378374"/>
    <nd ref="28378382"/>
    <nd ref="28378383"/>
    <nd ref="28378384"/>
    <nd ref="28378385"/>
    <nd ref="28378386"/>
    <nd ref="28378387"/>
    <nd ref="28378381"/>
    <nd ref="28782106"/>
    <nd ref="28782105"/>
    <nd ref="28782104"/>
    <nd ref="28782103"/>
    <nd ref="28448853"/>
    <tag k="created_by" v="JOSM"/>
    <tag k="highway" v="residential"/>
    <tag k="name" v="Riverview Road"/>
  </way>
  <way id="4548432" version="2" timestamp="2007-12-24T06:51:22Z" uid="7617" user="Franc" changeset="408635">
    <nd ref="28378374"/>
    <nd ref="28378382"/>
    <nd ref="28378383"/>
    <nd ref="28378384"/>
    <nd ref="28378385"/>
    <nd ref="28378386"/>
    <nd ref="28378387"/>
    <nd ref="28378381"/>
    <nd ref="28782106"/>
    <nd ref="28782105"/>
    <nd ref="28782104"/>
    <nd ref="28782103"/>
    <nd ref="28448853"/>
    <tag k="created_by" v="JOSM"/>
    <tag k="highway" v="tertiary"/>
    <tag k="name" v="Riverview Road"/>
  </way>
  <way id="4548432" version="3" timestamp="2008-09-12T23:59:16Z" uid="7617" user="Franc" changeset="618683">
    <nd ref="28378374"/>
    <nd ref="28378382"/>
    <nd ref="28378383"/>
    <nd ref="28378384"/>
    <nd ref="28378385"/>
    <nd ref="28378386"/>
    <nd ref="28378387"/>
    <nd ref="28378381"/>
    <nd ref="28782106"/>
    <nd ref="28782105"/>
    <nd ref="28782104"/>
    <nd ref="28782103"/>
    <nd ref="296261583"/>
    <nd ref="28448853"/>
    <tag k="created_by" v="JOSM"/>
    <tag k="highway" v="tertiary"/>
    <tag k="name" v="Riverview Road"/>
  </way>
  <way id="4548432" version="4" timestamp="2010-01-06T23:32:35Z" uid="7617" user="Franc" changeset="3558391">
    <nd ref="28378374"/>
    <nd ref="28378382"/>
    <nd ref="28378383"/>
    <nd ref="28378384"/>
    <nd ref="28378385"/>
    <nd ref="28378386"/>
    <nd ref="28378387"/>
    <nd ref="28378381"/>
    <nd ref="28782106"/>
    <nd ref="28782105"/>
    <nd ref="28782104"/>
    <nd ref="28782103"/>
    <nd ref="296261583"/>
    <nd ref="607464853"/>
    <nd ref="28448853"/>
    <tag k="highway" v="tertiary"/>
    <tag k="name" v="Riverview Road"/>
  </way>
  <way id="4548432" version="5" timestamp="2010-05-30T02:55:53Z" uid="7617" user="Franc" changeset="4848059">
    <nd ref="28378374"/>
    <nd ref="28378382"/>
    <nd ref="28378383"/>
    <nd ref="28378384"/>
    <nd ref="28378385"/>
    <nd ref="28378386"/>
    <nd ref="28378387"/>
    <nd ref="28378381"/>
    <nd ref="757602097"/>
    <nd ref="757602098"/>
    <nd ref="28782106"/>
    <nd ref="28782105"/>
    <nd ref="757602100"/>
    <nd ref="757602101"/>
    <nd ref="28782104"/>
    <nd ref="757602102"/>
    <nd ref="757602108"/>
    <nd ref="28782103"/>
    <nd ref="757602107"/>
    <nd ref="296261583"/>
    <nd ref="607464853"/>
    <nd ref="28448853"/>
    <tag k="highway" v="tertiary"/>
    <tag k="name" v="Riverview Road"/>
  </way>
  <way id="4548432" version="6" timestamp="2010-10-15T11:58:24Z" uid="7617" user="Franc" changeset="6048572">
    <nd ref="28378374"/>
    <nd ref="28378383"/>
    <nd ref="28378384"/>
    <nd ref="28378385"/>
    <nd ref="28378386"/>
    <nd ref="28378387"/>
    <nd ref="28378381"/>
    <nd ref="757602097"/>
    <nd ref="757602098"/>
    <nd ref="28782106"/>
    <nd ref="28782105"/>
    <nd ref="757602100"/>
    <nd ref="757602101"/>
    <nd ref="28782104"/>
    <nd ref="757602102"/>
    <nd ref="949933147"/>
    <nd ref="757602108"/>
    <nd ref="28782103"/>
    <nd ref="757602107"/>
    <nd ref="296261583"/>
    <nd ref="607464853"/>
    <nd ref="28448853"/>
    <tag k="highway" v="tertiary"/>
    <tag k="name" v="Riverview Road"/>
  </way>
  <way id="4548432" version="7" timestamp="2010-10-31T03:12:14Z" uid="7617" user="Franc" changeset="6234803">
    <nd ref="28378374"/>
    <nd ref="28378383"/>
    <nd ref="28378386"/>
    <nd ref="971468611"/>
    <nd ref="28378381"/>
    <nd ref="757602097"/>
    <nd ref="757602098"/>
    <nd ref="28782106"/>
    <nd ref="971468648"/>
    <nd ref="28782105"/>
    <nd ref="757602100"/>
    <nd ref="757602101"/>
    <nd ref="28782104"/>
    <nd ref="757602102"/>
    <nd ref="949933147"/>
    <nd ref="757602108"/>
    <nd ref="28782103"/>
    <nd ref="757602107"/>
    <nd ref="296261583"/>
    <nd ref="607464853"/>
    <nd ref="28448853"/>
    <tag k="highway" v="tertiary"/>
    <tag k="name" v="Riverview Road"/>
  </way>
  <way id="4548436" version="1" timestamp="2007-05-01T12:11:06Z" uid="6975" user="ulfl" changeset="34913">
    <nd ref="28378098"/>
    <nd ref="28378093"/>
    <nd ref="28378094"/>
    <tag k="created_by" v="JOSM"/>
    <tag k="highway" v="residential"/>
    <tag k="name" v="Meisenstrae"/>
  </way>
  <way id="4548437" version="1" timestamp="2007-05-01T12:11:06Z" uid="6975" user="ulfl" changeset="34913">
    <nd ref="28378099"/>
    <nd ref="28378102"/>
    <tag k="created_by" v="JOSM"/>
    <tag k="highway" v="residential"/>
    <tag k="name" v="Gibitzenhofstrae"/>
  </way>
  <way id="4548445" version="1" timestamp="2007-08-03T21:42:33Z" uid="6975" user="ulfl" changeset="186435">
    <nd ref="28378105"/>
    <nd ref="28378104"/>
    <nd ref="33414943"/>
    <nd ref="28378095"/>
    <nd ref="28378096"/>
    <nd ref="28378103"/>
    <nd ref="28378097"/>
    <nd ref="28378098"/>
    <nd ref="28378099"/>
    <nd ref="28378100"/>
    <nd ref="28378101"/>
    <nd ref="26607997"/>
    <tag k="created_by" v="JOSM"/>
    <tag k="highway" v="secondary"/>
    <tag k="name" v="Gibitzenhofstrae"/>
    <tag k="oneway" v="true"/>
  </way>
  <way id="4548445" version="6" timestamp="2009-01-12T02:31:17Z" uid="6975" user="ulfl" changeset="778582">
    <nd ref="28378105"/>
    <nd ref="28378104"/>
    <nd ref="33414943"/>
    <nd ref="68832028"/>
    <nd ref="28378095"/>
    <nd ref="28378096"/>
    <nd ref="28378103"/>
    <nd ref="28378097"/>
    <nd ref="28378098"/>
    <nd ref="28378099"/>
    <nd ref="28378100"/>
    <nd ref="267222461"/>
    <nd ref="267222462"/>
    <tag k="created_by" v="JOSM"/>
    <tag k="cycleway" v="lane"/>
    <tag k="highway" v="secondary"/>
    <tag k="maxspeed" v="50"/>
    <tag k="name" v="Gibitzenhofstrae"/>
    <tag k="oneway" v="true"/>
  </way>
  <way id="4548446" version="1" timestamp="2007-05-01T12:13:41Z" uid="6975" user="ulfl" changeset="34913">
    <nd ref="27533602"/>
    <nd ref="21317601"/>
    <nd ref="21317602"/>
    <nd ref="21317603"/>
    <nd ref="21317605"/>
    <nd ref="26994656"/>
    <nd ref="21317604"/>
    <nd ref="27508018"/>
    <nd ref="21317569"/>
    <nd ref="21317570"/>
    <nd ref="27533260"/>
    <nd ref="28378105"/>
    <tag k="created_by" v="JOSM"/>
    <tag k="highway" v="secondary"/>
    <tag k="name" v="Gibitzenhofstrae"/>
  </way>
  <way id="4548446" version="3" timestamp="2009-01-12T01:32:13Z" uid="6975" user="ulfl" changeset="778582">
    <nd ref="27533602"/>
    <nd ref="21317601"/>
    <nd ref="21317602"/>
    <nd ref="21317603"/>
    <nd ref="21317605"/>
    <nd ref="272025588"/>
    <nd ref="26994656"/>
    <nd ref="21317604"/>
    <nd ref="27508018"/>
    <nd ref="21317569"/>
    <nd ref="21317570"/>
    <nd ref="27533260"/>
    <nd ref="28378105"/>
    <tag k="created_by" v="JOSM"/>
    <tag k="highway" v="secondary"/>
    <tag k="maxspeed" v="50"/>
    <tag k="name" v="Gibitzenhofstrae"/>
  </way>
  <way id="4548447" version="3" timestamp="2008-05-21T13:32:46Z" uid="36809" user="pfoten_weg_!_" changeset="491596">
    <nd ref="21133561"/>
    <nd ref="28378451"/>
    <nd ref="28378454"/>
    <nd ref="28378465"/>
    <nd ref="28378471"/>
    <nd ref="28378473"/>
    <nd ref="28378475"/>
    <nd ref="25279501"/>
    <nd ref="21135748"/>
    <nd ref="471915"/>
    <tag k="created_by" v="Potlatch 0.9a"/>
    <tag k="highway" v="secondary"/>
    <tag k="name" v="Waldfriedhofstrae"/>
    <tag k="oneway" v="yes"/>
    <tag k="ref" v="St2343"/>
  </way>
  <way id="4548447" version="8" timestamp="2009-09-04T21:13:57Z" uid="36809" user="pfoten_weg_!_" changeset="2374562">
    <nd ref="21133561"/>
    <nd ref="28378451"/>
    <nd ref="28378454"/>
    <nd ref="28378465"/>
    <nd ref="28378471"/>
    <nd ref="28378473"/>
    <nd ref="274523888"/>
    <nd ref="28378475"/>
    <nd ref="25279501"/>
    <nd ref="295524719"/>
    <nd ref="21135748"/>
    <nd ref="471915"/>
    <tag k="highway" v="secondary"/>
    <tag k="name" v="Waldfriedhofstrae"/>
    <tag k="oneway" v="yes"/>
    <tag k="ref" v="St 2343"/>
  </way>
  <way id="4548447" version="9" timestamp="2009-09-30T23:36:23Z" uid="86259" user="hasse_osm_korinthenkacker" changeset="2694823">
    <nd ref="21133561"/>
    <nd ref="28378451"/>
    <nd ref="28378454"/>
    <nd ref="28378465"/>
    <nd ref="28378471"/>
    <nd ref="28378473"/>
    <nd ref="274523888"/>
    <nd ref="515280932"/>
    <nd ref="28378475"/>
    <nd ref="25279501"/>
    <nd ref="295524719"/>
    <nd ref="21135748"/>
    <nd ref="471915"/>
    <tag k="highway" v="secondary"/>
    <tag k="name" v="Waldfriedhofstrae"/>
    <tag k="oneway" v="yes"/>
    <tag k="ref" v="St 2343"/>
  </way>
  <way id="4548449" version="1" timestamp="2007-05-01T12:16:27Z" uid="6975" user="ulfl" changeset="34913">
    <nd ref="28378083"/>
    <nd ref="28378082"/>
    <nd ref="27538787"/>
    <tag k="created_by" v="JOSM"/>
    <tag k="highway" v="residential"/>
    <tag k="name" v="Neckarstrae"/>
  </way>
  <way id="4548459" version="1" timestamp="2007-05-01T12:27:33Z" uid="6975" user="ulfl" changeset="34913">
    <nd ref="28097179"/>
    <nd ref="28378536"/>
    <nd ref="28378579"/>
    <nd ref="28378541"/>
    <nd ref="28378542"/>
    <nd ref="28378561"/>
    <nd ref="28378562"/>
    <tag k="created_by" v="JOSM"/>
    <tag k="highway" v="residential"/>
    <tag k="name" v="Schanzckerstrae"/>
    <tag k="oneway" v="true"/>
  </way>
  <way id="4548464" version="1" timestamp="2007-05-01T12:29:49Z" uid="6975" user="ulfl" changeset="34913">
    <nd ref="28378541"/>
    <nd ref="28378540"/>
    <nd ref="28378544"/>
    <nd ref="28378545"/>
    <tag k="created_by" v="JOSM"/>
    <tag k="highway" v="residential"/>
    <tag k="name" v="Gartenstrae"/>
  </way>
  <way id="4548465" version="1" timestamp="2007-05-01T12:29:49Z" uid="6975" user="ulfl" changeset="34913">
    <nd ref="28378552"/>
    <nd ref="28378551"/>
    <nd ref="28378549"/>
    <nd ref="28378545"/>
    <nd ref="28378546"/>
    <nd ref="28378564"/>
    <nd ref="28378563"/>
    <tag k="created_by" v="JOSM"/>
    <tag k="highway" v="residential"/>
    <tag k="name" v="Gostenhofer Hauptstrae"/>
  </way>
  <way id="4548466" version="1" timestamp="2007-05-01T12:29:49Z" uid="6975" user="ulfl" changeset="34913">
    <nd ref="28378546"/>
    <nd ref="28378547"/>
    <nd ref="28378548"/>
    <tag k="created_by" v="JOSM"/>
    <tag k="highway" v="residential"/>
    <tag k="name" v="Gostenhofer Schulgasse"/>
  </way>
  <way id="4548467" version="1" timestamp="2007-05-01T12:30:52Z" uid="6975" user="ulfl" changeset="34913">
    <nd ref="28378549"/>
    <nd ref="28378550"/>
    <tag k="created_by" v="JOSM"/>
    <tag k="highway" v="residential"/>
    <tag k="name" v="Elsnerstrae"/>
  </way>
  <way id="4548479" version="1" timestamp="2007-05-01T12:32:12Z" uid="6975" user="ulfl" changeset="34913">
    <nd ref="28378551"/>
    <nd ref="28378559"/>
    <tag k="created_by" v="JOSM"/>
    <tag k="highway" v="residential"/>
    <tag k="name" v="Petzoltstrae"/>
  </way>
  <way id="4548529" version="1" timestamp="2007-05-01T12:36:40Z" uid="6975" user="ulfl" changeset="34913">
    <nd ref="28384020"/>
    <nd ref="28378552"/>
    <nd ref="28378557"/>
    <nd ref="28378566"/>
    <tag k="created_by" v="JOSM"/>
    <tag k="highway" v="residential"/>
    <tag k="name" v="Bauerngasse"/>
  </way>
  <way id="4548530" version="1" timestamp="2007-05-01T12:36:41Z" uid="6975" user="ulfl" changeset="34913">
    <nd ref="28378555"/>
    <nd ref="28378554"/>
    <nd ref="16538055"/>
    <tag k="created_by" v="JOSM"/>
    <tag k="highway" v="residential"/>
    <tag k="name" v="Schreyerstrae"/>
    <tag k="oneway" v="true"/>
  </way>
  <way id="4548531" version="1" timestamp="2007-05-01T12:36:41Z" uid="6975" user="ulfl" changeset="34913">
    <nd ref="28378554"/>
    <nd ref="28378553"/>
    <nd ref="28378552"/>
    <tag k="created_by" v="JOSM"/>
    <tag k="highway" v="residential"/>
    <tag k="name" v="Knauerstrae"/>
  </way>
  <way id="4548532" version="1" timestamp="2007-05-01T12:36:41Z" uid="6975" user="ulfl" changeset="34913">
    <nd ref="28378544"/>
    <nd ref="28378543"/>
    <nd ref="28378559"/>
    <nd ref="28378560"/>
    <nd ref="21317586"/>
    <tag k="created_by" v="JOSM"/>
    <tag k="highway" v="residential"/>
    <tag k="name" v="Leonhardstrae"/>
  </way>
  <way id="4548536" version="1" timestamp="2007-05-01T12:38:50Z" uid="6975" user="ulfl" changeset="34913">
    <nd ref="27361773"/>
    <nd ref="28378565"/>
    <nd ref="28378538"/>
    <nd ref="28378537"/>
    <nd ref="28378536"/>
    <nd ref="28378535"/>
    <nd ref="21317596"/>
    <tag k="created_by" v="JOSM"/>
    <tag k="highway" v="residential"/>
    <tag k="name" v="Zufuhrstrae"/>
    <tag k="oneway" v="true"/>
  </way>
  <way id="4548541" version="1" timestamp="2007-05-01T12:41:15Z" uid="6975" user="ulfl" changeset="34913">
    <nd ref="28378543"/>
    <nd ref="28378542"/>
    <tag k="created_by" v="JOSM"/>
    <tag k="highway" v="residential"/>
    <tag k="name" v="Dammstrae"/>
  </way>
  <way id="4548542" version="1" timestamp="2007-05-01T12:41:15Z" uid="6975" user="ulfl" changeset="34913">
    <nd ref="28378538"/>
    <nd ref="28378539"/>
    <nd ref="28378540"/>
    <tag k="created_by" v="JOSM"/>
    <tag k="highway" v="residential"/>
    <tag k="name" v="Feuerweg"/>
    <tag k="oneway" v="true"/>
  </way>
  <way id="4548545" version="1" timestamp="2007-05-01T12:47:16Z" uid="6975" user="ulfl" changeset="34913">
    <nd ref="21317595"/>
    <nd ref="28378535"/>
    <nd ref="28097183"/>
    <nd ref="28378774"/>
    <tag k="created_by" v="JOSM"/>
    <tag k="highway" v="secondary"/>
    <tag k="name" v="Kohlenhofstrae"/>
    <tag k="oneway" v="true"/>
  </way>
  <way id="4548545" version="3" timestamp="2009-01-12T01:19:51Z" uid="6975" user="ulfl" changeset="778582">
    <nd ref="21317595"/>
    <nd ref="28378535"/>
    <nd ref="28097183"/>
    <nd ref="267221981"/>
    <nd ref="28378774"/>
    <tag k="created_by" v="JOSM"/>
    <tag k="highway" v="secondary"/>
    <tag k="maxspeed" v="50"/>
    <tag k="name" v="Kohlenhofstrae"/>
    <tag k="oneway" v="true"/>
  </way>
  <way id="4548548" version="1" timestamp="2007-05-01T12:49:00Z" uid="6975" user="ulfl" changeset="34913">
    <nd ref="21317596"/>
    <nd ref="28378567"/>
    <nd ref="28378568"/>
    <nd ref="28378569"/>
    <nd ref="28378570"/>
    <nd ref="28378571"/>
    <tag k="created_by" v="JOSM"/>
    <tag k="highway" v="unclassified"/>
    <tag k="name" v="Kohlenhofstrae"/>
  </way>
  <way id="4548548" version="4" timestamp="2009-04-04T22:13:37Z" uid="6975" user="ulfl" changeset="220505">
    <nd ref="21317596"/>
    <nd ref="28378567"/>
    <nd ref="28378568"/>
    <nd ref="28378570"/>
    <nd ref="28378571"/>
    <tag k="created_by" v="Potlatch 0.9c"/>
    <tag k="highway" v="unclassified"/>
    <tag k="name" v="Kohlenhofstrae"/>
  </way>
  <way id="4548549" version="1" timestamp="2007-05-01T12:49:01Z" uid="6975" user="ulfl" changeset="34913">
    <nd ref="28378570"/>
    <nd ref="28378572"/>
    <nd ref="28378573"/>
    <nd ref="28378574"/>
    <nd ref="28378575"/>
    <nd ref="28378576"/>
    <nd ref="28378577"/>
    <nd ref="28378578"/>
    <tag k="created_by" v="JOSM"/>
    <tag k="highway" v="unclassified"/>
    <tag k="name" v="Kohlenhofstrae"/>
  </way>
  <way id="4548549" version="5" timestamp="2009-04-04T22:13:37Z" uid="6975" user="ulfl" changeset="220505">
    <nd ref="28378570"/>
    <nd ref="28378572"/>
    <nd ref="335403833"/>
    <tag k="created_by" v="Potlatch 0.10f"/>
    <tag k="highway" v="unclassified"/>
    <tag k="name" v="Kohlenhofstrae"/>
  </way>
  <way id="4548550" version="1" timestamp="2007-05-01T12:50:56Z" uid="6975" user="ulfl" changeset="34913">
    <nd ref="27361771"/>
    <nd ref="28378564"/>
    <tag k="created_by" v="JOSM"/>
    <tag k="highway" v="residential"/>
    <tag k="name" v="Gostenhofener Hauptstrae"/>
    <tag k="oneway" v="true"/>
  </way>
  <way id="4548630" version="1" timestamp="2007-07-08T20:36:15Z" uid="8328" user="benpre" changeset="134059">
    <nd ref="28341278"/>
    <nd ref="29012210"/>
    <nd ref="28341279"/>
    <nd ref="28341280"/>
    <nd ref="28341281"/>
    <nd ref="28341282"/>
    <nd ref="28377516"/>
    <nd ref="28341283"/>
    <nd ref="28341284"/>
    <nd ref="28377517"/>
    <nd ref="28515513"/>
    <nd ref="28377518"/>
    <nd ref="29007690"/>
    <nd ref="28377519"/>
    <nd ref="28377520"/>
    <nd ref="28379261"/>
    <nd ref="28379262"/>
    <nd ref="28383407"/>
    <nd ref="28379263"/>
    <nd ref="28379264"/>
    <nd ref="28379265"/>
    <nd ref="28379266"/>
    <nd ref="28383410"/>
    <nd ref="28379267"/>
    <nd ref="28379268"/>
    <tag k="created_by" v="YahooApplet 1.0"/>
    <tag k="highway" v="secondary"/>
    <tag k="maxspeed" v="50"/>
    <tag k="name" v="Weckhovener-Strae"/>
  </way>
  <way id="4548680" version="1" timestamp="2007-07-07T17:26:40Z" uid="8328" user="benpre" changeset="131002">
    <nd ref="28378937"/>
    <nd ref="28378938"/>
    <nd ref="28378914"/>
    <nd ref="28378913"/>
    <tag k="created_by" v="JOSM"/>
    <tag k="highway" v="residential"/>
  </way>
  <way id="4548723" version="1" timestamp="2007-07-08T20:36:18Z" uid="8328" user="benpre" changeset="134059">
    <nd ref="28379268"/>
    <nd ref="28379269"/>
    <nd ref="28379270"/>
    <nd ref="28379271"/>
    <nd ref="28379272"/>
    <nd ref="28379273"/>
    <nd ref="28379274"/>
    <tag k="created_by" v="YahooApplet 1.0"/>
    <tag k="highway" v="secondary"/>
    <tag k="loc_ref" v="K7"/>
    <tag k="maxspeed" v="50"/>
    <tag k="name" v="Grevenbroicher Strae"/>
  </way>
  <way id="4548739" version="1" timestamp="2007-07-08T20:36:12Z" uid="8328" user="benpre" changeset="134059">
    <nd ref="29862327"/>
    <nd ref="28379286"/>
    <nd ref="28379287"/>
    <nd ref="28379288"/>
    <nd ref="28379289"/>
    <nd ref="28379290"/>
    <nd ref="28379291"/>
    <tag k="created_by" v="YahooApplet 1.0"/>
    <tag k="highway" v="secondary"/>
    <tag k="loc_ref" v="K17"/>
    <tag k="name" v="Aurinstrae"/>
  </way>
  <way id="4548861" version="1" timestamp="2007-09-10T10:52:45Z" uid="7617" user="Franc" changeset="407555">
    <nd ref="28380986"/>
    <nd ref="28380985"/>
    <nd ref="28271693"/>
    <tag k="abutters" v="residential"/>
    <tag k="created_by" v="JOSM"/>
    <tag k="highway" v="residential"/>
    <tag k="name" v="Marrickville Avenue"/>
  </way>
  <way id="4548861" version="2" timestamp="2009-11-24T19:26:26Z" uid="7617" user="Franc" changeset="3206945">
    <nd ref="28380986"/>
    <nd ref="28380985"/>
    <nd ref="570109193"/>
    <nd ref="28271693"/>
    <tag k="abutters" v="residential"/>
    <tag k="highway" v="residential"/>
    <tag k="name" v="Marrickville Avenue"/>
  </way>
  <way id="4548861" version="3" timestamp="2009-12-02T22:58:11Z" uid="30201" user="rrankin" changeset="3276441">
    <nd ref="28380986"/>
    <nd ref="28380985"/>
    <nd ref="570109193"/>
    <nd ref="28271693"/>
    <tag k="highway" v="residential"/>
    <tag k="name" v="Marrickville Avenue"/>
  </way>
  <way id="4548861" version="4" timestamp="2010-07-08T02:54:29Z" uid="74617" user="JohnSmith" changeset="5163091">
    <nd ref="28380986"/>
    <nd ref="28380985"/>
    <nd ref="570109193"/>
    <nd ref="28271693"/>
    <tag k="highway" v="residential"/>
    <tag k="maxspeed" v="50"/>
    <tag k="maxspeed:source" v="default residential speed limit in Australia"/>
    <tag k="name" v="Marrickville Avenue"/>
  </way>
  <way id="4548861" version="5" timestamp="2010-08-13T10:48:04Z" uid="7617" user="Franc" changeset="5480723">
    <nd ref="28380986"/>
    <nd ref="858324098"/>
    <nd ref="28380985"/>
    <nd ref="570109193"/>
    <nd ref="28271693"/>
    <tag k="highway" v="residential"/>
    <tag k="maxspeed" v="50"/>
    <tag k="maxspeed:source" v="default residential speed limit in Australia"/>
    <tag k="name" v="Marrickville Avenue"/>
  </way>
  <way id="4548865" version="1" timestamp="2007-07-10T07:25:07Z" uid="7617" user="Franc" changeset="136093">
    <nd ref="28271614"/>
    <nd ref="29387516"/>
    <nd ref="28380988"/>
    <nd ref="29496869"/>
    <nd ref="12194353"/>
    <tag k="abutters" v="residential"/>
    <tag k="created_by" v="Potlatch alpha"/>
    <tag k="highway" v="residential"/>
    <tag k="name" v="Robert Street"/>
  </way>
  <way id="4548865" version="2" timestamp="2007-12-27T10:14:40Z" uid="7617" user="Franc" changeset="437259">
    <nd ref="28271614"/>
    <nd ref="191871322"/>
    <nd ref="29387516"/>
    <nd ref="28380988"/>
    <nd ref="29496869"/>
    <nd ref="12194353"/>
    <tag k="abutters" v="residential"/>
    <tag k="created_by" v="Potlatch alpha"/>
    <tag k="highway" v="residential"/>
    <tag k="name" v="Robert Street"/>
  </way>
  <way id="4548865" version="3" timestamp="2009-12-02T22:58:09Z" uid="30201" user="rrankin" changeset="3276441">
    <nd ref="28271614"/>
    <nd ref="191871322"/>
    <nd ref="29387516"/>
    <nd ref="28380988"/>
    <nd ref="29496869"/>
    <nd ref="12194353"/>
    <tag k="highway" v="residential"/>
    <tag k="name" v="Robert Street"/>
  </way>
  <way id="4548865" version="4" timestamp="2010-04-10T13:38:57Z" uid="7617" user="Franc" changeset="4382498">
    <nd ref="28271614"/>
    <nd ref="191871322"/>
    <nd ref="29387516"/>
    <nd ref="691471611"/>
    <nd ref="28380988"/>
    <nd ref="29496869"/>
    <nd ref="12194353"/>
    <tag k="highway" v="residential"/>
    <tag k="name" v="Robert Street"/>
  </way>
  <way id="4548865" version="5" timestamp="2010-07-08T02:54:57Z" uid="74617" user="JohnSmith" changeset="5163091">
    <nd ref="28271614"/>
    <nd ref="191871322"/>
    <nd ref="29387516"/>
    <nd ref="691471611"/>
    <nd ref="28380988"/>
    <nd ref="29496869"/>
    <nd ref="12194353"/>
    <tag k="highway" v="residential"/>
    <tag k="maxspeed" v="50"/>
    <tag k="maxspeed:source" v="default residential speed limit in Australia"/>
    <tag k="name" v="Robert Street"/>
  </way>
  <way id="4548865" version="6" timestamp="2010-09-19T12:56:07Z" uid="7617" user="Franc" changeset="5819508">
    <nd ref="28271614"/>
    <nd ref="191871322"/>
    <nd ref="918286013"/>
    <nd ref="29387516"/>
    <nd ref="691471611"/>
    <nd ref="28380988"/>
    <nd ref="29496869"/>
    <nd ref="918285537"/>
    <nd ref="12194353"/>
    <tag k="highway" v="residential"/>
    <tag k="maxspeed" v="50"/>
    <tag k="maxspeed:source" v="default residential speed limit in Australia"/>
    <tag k="name" v="Robert Street"/>
  </way>
  <way id="4548907" version="1" timestamp="2007-06-17T08:01:34Z" uid="7617" user="Franc" changeset="100271">
    <nd ref="15194907"/>
    <nd ref="29376109"/>
    <nd ref="28914482"/>
    <nd ref="29496408"/>
    <nd ref="12194346"/>
    <tag k="abutters" v="residential"/>
    <tag k="created_by" v="Potlatch alpha"/>
    <tag k="highway" v="residential"/>
    <tag k="name" v="Petersham Road"/>
  </way>
  <way id="4548907" version="3" timestamp="2008-08-18T12:00:09Z" uid="7617" user="Franc" changeset="305844">
    <nd ref="15194907"/>
    <nd ref="289067400"/>
    <nd ref="29376109"/>
    <nd ref="28914482"/>
    <nd ref="29496408"/>
    <nd ref="12194346"/>
    <tag k="abutters" v="residential"/>
    <tag k="created_by" v="Potlatch 0.9c"/>
    <tag k="highway" v="residential"/>
    <tag k="lcn_ref" v="L5"/>
    <tag k="name" v="Petersham Road"/>
  </way>
  <way id="4548907" version="4" timestamp="2009-12-02T05:37:33Z" uid="30201" user="rrankin" changeset="3269534">
    <nd ref="15194907"/>
    <nd ref="289067400"/>
    <nd ref="29376109"/>
    <nd ref="28914482"/>
    <nd ref="29496408"/>
    <nd ref="12194346"/>
    <tag k="highway" v="residential"/>
    <tag k="lcn_ref" v="L5"/>
    <tag k="name" v="Petersham Road"/>
  </way>
  <way id="4548907" version="5" timestamp="2010-07-08T02:53:35Z" uid="74617" user="JohnSmith" changeset="5163091">
    <nd ref="15194907"/>
    <nd ref="289067400"/>
    <nd ref="29376109"/>
    <nd ref="28914482"/>
    <nd ref="29496408"/>
    <nd ref="12194346"/>
    <tag k="highway" v="residential"/>
    <tag k="lcn_ref" v="L5"/>
    <tag k="maxspeed" v="50"/>
    <tag k="maxspeed:source" v="default residential speed limit in Australia"/>
    <tag k="name" v="Petersham Road"/>
  </way>
  <way id="4548908" version="1" timestamp="2007-08-21T12:28:37Z" uid="7617" user="Franc" changeset="240666">
    <nd ref="12194346"/>
    <nd ref="29799464"/>
    <nd ref="32622516"/>
    <nd ref="29387524"/>
    <nd ref="28381129"/>
    <nd ref="28381128"/>
    <nd ref="28381127"/>
    <nd ref="29486429"/>
    <nd ref="28381126"/>
    <tag k="abutters" v="residential"/>
    <tag k="created_by" v="Potlatch alpha"/>
    <tag k="highway" v="residential"/>
    <tag k="name" v="Petersham Road"/>
  </way>
  <way id="4548908" version="2" timestamp="2007-11-22T19:26:24Z" uid="7617" user="Franc" changeset="594527"/>
  <way id="4548909" version="1" timestamp="2007-06-01T07:35:34Z" uid="7617" user="Franc" changeset="75359">
    <nd ref="28271708"/>
    <nd ref="28381128"/>
    <tag k="abutters" v="residential"/>
    <tag k="created_by" v="JOSM"/>
    <tag k="highway" v="residential"/>
    <tag k="name" v="Hawkhurst Street"/>
  </way>
  <way id="4548909" version="2" timestamp="2009-12-02T05:37:37Z" uid="30201" user="rrankin" changeset="3269534">
    <nd ref="28271708"/>
    <nd ref="28381128"/>
    <tag k="highway" v="residential"/>
    <tag k="name" v="Hawkhurst Street"/>
  </way>
  <way id="4548909" version="3" timestamp="2010-07-08T02:54:18Z" uid="74617" user="JohnSmith" changeset="5163091">
    <nd ref="28271708"/>
    <nd ref="28381128"/>
    <tag k="highway" v="residential"/>
    <tag k="maxspeed" v="50"/>
    <tag k="maxspeed:source" v="default residential speed limit in Australia"/>
    <tag k="name" v="Hawkhurst Street"/>
  </way>
  <way id="4548910" version="1" timestamp="2007-06-05T03:35:27Z" uid="7617" user="Franc" changeset="81730">
    <nd ref="28271598"/>
    <nd ref="28381129"/>
    <tag k="abutters" v="residential"/>
    <tag k="created_by" v="JOSM"/>
    <tag k="highway" v="residential"/>
    <tag k="name" v="Graham Avenue"/>
  </way>
  <way id="4548910" version="2" timestamp="2009-12-02T05:37:36Z" uid="30201" user="rrankin" changeset="3269534">
    <nd ref="28271598"/>
    <nd ref="28381129"/>
    <tag k="highway" v="residential"/>
    <tag k="name" v="Graham Avenue"/>
  </way>
  <way id="4548910" version="3" timestamp="2010-07-08T02:55:16Z" uid="74617" user="JohnSmith" changeset="5163091">
    <nd ref="28271598"/>
    <nd ref="28381129"/>
    <tag k="highway" v="residential"/>
    <tag k="maxspeed" v="50"/>
    <tag k="maxspeed:source" v="default residential speed limit in Australia"/>
    <tag k="name" v="Graham Avenue"/>
  </way>
</osm>
