<?xml version='1.0' encoding='UTF-8'?>
<osm version="0.6" generator="libosmium/2.20.0">
  <way id="45626180" version="2" timestamp="2010-11-14T06:38:17Z" uid="7617" user="Franc" changeset="6363993">
    <nd ref="581692530"/>
    <nd ref="581692527"/>
    <tag k="highway" v="service"/>
    <tag k="name" v="Penny Lane"/>
    <tag k="source" v="nearmap"/>
    <tag k="source:name" v="survey"/>
  </way>
  <way id="45626206" version="2" timestamp="2010-11-14T06:38:11Z" uid="7617" user="Franc" changeset="6363993">
    <nd ref="581692605"/>
    <nd ref="581692566"/>
    <tag k="fixme:sign:no" v="2010-11-14"/>
    <tag k="highway" v="service"/>
    <tag k="source" v="nearmap"/>
  </way>
  <way id="45626685" version="2" timestamp="2010-03-28T11:29:49Z" uid="20587" user="balrog-kun" changeset="4254597">
    <nd ref="581695373"/>
    <nd ref="581695376"/>
    <nd ref="581695380"/>
    <nd ref="581695383"/>
    <nd ref="581695386"/>
    <nd ref="581695389"/>
    <nd ref="581695391"/>
    <nd ref="581695273"/>
    <tag k="highway" v="residential"/>
    <tag k="name" v="Marquand Court"/>
  </way>
  <way id="45626781" version="2" timestamp="2010-11-14T06:37:12Z" uid="7617" user="Franc" changeset="6363993">
    <nd ref="581695980"/>
    <nd ref="581695965"/>
    <nd ref="581695968"/>
    <tag k="highway" v="service"/>
    <tag k="maxspeed" v="40"/>
    <tag k="name" v="Lachlan Lane"/>
    <tag k="source" v="nearmap"/>
    <tag k="source:name" v="survey"/>
  </way>
</osm>
