<?xml version='1.0' encoding='UTF-8'?>
<osm version="0.6" generator="libosmium/2.20.0">
  <way id="4566282" version="1" timestamp="2007-08-18T18:57:40Z" uid="6975" user="ulfl" changeset="228427">
    <nd ref="28792592"/>
    <nd ref="32873237"/>
    <nd ref="34965592"/>
    <nd ref="28792594"/>
    <nd ref="28792596"/>
    <nd ref="28792593"/>
    <tag k="created_by" v="JOSM"/>
    <tag k="highway" v="residential"/>
    <tag k="name" v="Schreiberhauer Straße"/>
  </way>
  <way id="4566282" version="2" timestamp="2007-11-02T17:15:28Z" uid="6975" user="ulfl" changeset="387684">
    <nd ref="28792592"/>
    <nd ref="32873237"/>
    <nd ref="95936173"/>
    <nd ref="95936183"/>
    <nd ref="34965592"/>
    <nd ref="28792594"/>
    <nd ref="28792596"/>
    <nd ref="28792593"/>
    <tag k="created_by" v="JOSM"/>
    <tag k="highway" v="residential"/>
    <tag k="name" v="Schreiberhauer Straße"/>
  </way>
  <way id="4566282" version="3" timestamp="2007-11-02T17:18:41Z" uid="6975" user="ulfl" changeset="387684">
    <nd ref="28792592"/>
    <nd ref="32873237"/>
    <nd ref="95936173"/>
    <nd ref="95936183"/>
    <nd ref="95938188"/>
    <nd ref="34965592"/>
    <nd ref="28792594"/>
    <nd ref="28792596"/>
    <nd ref="28792593"/>
    <tag k="created_by" v="JOSM"/>
    <tag k="highway" v="residential"/>
    <tag k="name" v="Schreiberhauer Straße"/>
  </way>
  <way id="4566282" version="7" timestamp="2009-01-25T01:09:54Z" uid="6975" user="ulfl" changeset="832926">
    <nd ref="28792592"/>
    <nd ref="32873237"/>
    <nd ref="95936173"/>
    <nd ref="95936183"/>
    <nd ref="95938188"/>
    <nd ref="34965592"/>
    <nd ref="28792594"/>
    <nd ref="28792596"/>
    <nd ref="28792593"/>
    <nd ref="294912079"/>
    <nd ref="294912648"/>
    <tag k="access" v="destination"/>
    <tag k="created_by" v="Potlatch 0.10b"/>
    <tag k="highway" v="residential"/>
    <tag k="name" v="Schreiberhauer Straße"/>
  </way>
  <way id="4566282" version="8" timestamp="2009-03-29T12:52:25Z" uid="6975" user="ulfl" changeset="867035">
    <nd ref="28792592"/>
    <nd ref="32873237"/>
    <nd ref="95936173"/>
    <nd ref="95936183"/>
    <nd ref="95938188"/>
    <nd ref="34965592"/>
    <nd ref="28792594"/>
    <nd ref="28792596"/>
    <nd ref="28792593"/>
    <nd ref="294912079"/>
    <nd ref="294912648"/>
    <tag k="access" v="destination"/>
    <tag k="created_by" v="Potlatch 0.10b"/>
    <tag k="highway" v="unclassified"/>
    <tag k="name" v="Schreiberhauer Straße"/>
  </way>
  <way id="4566283" version="1" timestamp="2007-05-03T19:27:17Z" uid="6975" user="ulfl" changeset="39297">
    <nd ref="28792598"/>
    <nd ref="28792600"/>
    <nd ref="28792596"/>
    <nd ref="28792597"/>
    <nd ref="28792598"/>
    <tag k="amenity" v="parking"/>
    <tag k="created_by" v="JOSM"/>
  </way>
  <way id="4566305" version="5" timestamp="2010-07-30T18:16:29Z" uid="6269" user="Mueck" changeset="5356930">
    <nd ref="18302821"/>
    <nd ref="839064940"/>
    <nd ref="28792817"/>
    <nd ref="839064943"/>
    <nd ref="28792819"/>
    <nd ref="34097587"/>
    <tag k="cutting" v="yes"/>
    <tag k="highway" v="primary_link"/>
  </way>
  <way id="4566332" version="1" timestamp="2007-06-12T07:08:38Z" uid="6975" user="ulfl" changeset="92511">
    <nd ref="28793104"/>
    <nd ref="28793099"/>
    <nd ref="28793100"/>
    <nd ref="28793103"/>
    <nd ref="28793104"/>
    <tag k="created_by" v="JOSM"/>
    <tag k="highway" v="residential"/>
    <tag k="name" v="Ricarda-Huch-Straße"/>
  </way>
  <way id="4566333" version="1" timestamp="2007-05-03T19:38:54Z" uid="6975" user="ulfl" changeset="39297">
    <nd ref="28793104"/>
    <nd ref="28793105"/>
    <nd ref="28793106"/>
    <nd ref="28793107"/>
    <nd ref="28793098"/>
    <tag k="created_by" v="JOSM"/>
    <tag k="highway" v="residential"/>
    <tag k="name" v="Carossaweg"/>
  </way>
  <way id="4566338" version="1" timestamp="2007-06-12T07:08:39Z" uid="6975" user="ulfl" changeset="92511">
    <nd ref="28793089"/>
    <nd ref="28793090"/>
    <nd ref="28793121"/>
    <nd ref="28793091"/>
    <nd ref="28793122"/>
    <nd ref="28793092"/>
    <nd ref="28793089"/>
    <tag k="created_by" v="JOSM"/>
    <tag k="highway" v="residential"/>
    <tag k="name" v="Zuckmayerweg"/>
  </way>
  <way id="4566340" version="1" timestamp="2007-06-12T07:08:39Z" uid="6975" user="ulfl" changeset="92511">
    <nd ref="28793093"/>
    <nd ref="28793095"/>
    <nd ref="28793096"/>
    <nd ref="28793097"/>
    <nd ref="28793093"/>
    <tag k="created_by" v="JOSM"/>
    <tag k="highway" v="residential"/>
    <tag k="name" v="Erich-Kästner-Weg"/>
  </way>
  <way id="4566342" version="1" timestamp="2007-05-03T19:41:25Z" uid="6975" user="ulfl" changeset="39297">
    <nd ref="28793114"/>
    <nd ref="28793068"/>
    <nd ref="28793070"/>
    <nd ref="28793071"/>
    <tag k="created_by" v="JOSM"/>
    <tag k="highway" v="residential"/>
    <tag k="name" v="Annette-Kolb-Straße"/>
  </way>
  <way id="4566350" version="1" timestamp="2007-05-03T19:43:06Z" uid="6975" user="ulfl" changeset="39297">
    <nd ref="27130367"/>
    <nd ref="28793067"/>
    <tag k="created_by" v="JOSM"/>
    <tag k="highway" v="residential"/>
    <tag k="name" v="Tucholskystraße"/>
  </way>
  <way id="4566360" version="1" timestamp="2007-05-03T19:45:24Z" uid="6975" user="ulfl" changeset="39297">
    <nd ref="28793081"/>
    <nd ref="28793084"/>
    <nd ref="28793085"/>
    <nd ref="28793086"/>
    <nd ref="28793080"/>
    <tag k="created_by" v="JOSM"/>
    <tag k="highway" v="residential"/>
    <tag k="name" v="August-Sieghardt-Straße"/>
  </way>
  <way id="4566361" version="1" timestamp="2007-05-03T19:45:24Z" uid="6975" user="ulfl" changeset="39297">
    <nd ref="28793113"/>
    <nd ref="28793080"/>
    <nd ref="28793081"/>
    <nd ref="28793082"/>
    <tag k="created_by" v="JOSM"/>
    <tag k="highway" v="residential"/>
    <tag k="name" v="August-Sieghardt-Straße"/>
  </way>
  <way id="4566390" version="1" timestamp="2007-05-03T19:54:27Z" uid="6975" user="ulfl" changeset="39297">
    <nd ref="27130365"/>
    <nd ref="28793072"/>
    <tag k="created_by" v="JOSM"/>
    <tag k="highway" v="residential"/>
    <tag k="name" v="Alfred-Graf-Weg"/>
  </way>
  <way id="4566391" version="1" timestamp="2007-05-03T19:54:28Z" uid="6975" user="ulfl" changeset="39297">
    <nd ref="28793111"/>
    <nd ref="28793073"/>
    <nd ref="28793074"/>
    <tag k="created_by" v="JOSM"/>
    <tag k="highway" v="residential"/>
    <tag k="name" v="Max-Brod-Straße"/>
  </way>
  <way id="4566392" version="1" timestamp="2007-05-03T19:54:28Z" uid="6975" user="ulfl" changeset="39297">
    <nd ref="28793110"/>
    <nd ref="28793075"/>
    <tag k="created_by" v="JOSM"/>
    <tag k="highway" v="residential"/>
    <tag k="name" v="Kafkastraße"/>
  </way>
  <way id="4566393" version="1" timestamp="2007-05-03T19:54:29Z" uid="6975" user="ulfl" changeset="39297">
    <nd ref="28793119"/>
    <nd ref="28793077"/>
    <nd ref="28793078"/>
    <tag k="created_by" v="JOSM"/>
    <tag k="highway" v="residential"/>
    <tag k="name" v="Kreuzburger Straße"/>
  </way>
  <way id="4566394" version="1" timestamp="2007-05-03T19:54:34Z" uid="6975" user="ulfl" changeset="39297">
    <nd ref="28793117"/>
    <nd ref="28793079"/>
    <tag k="created_by" v="JOSM"/>
    <tag k="highway" v="residential"/>
    <tag k="name" v="Lübener Straße"/>
  </way>
  <way id="4566439" version="1" timestamp="2007-05-03T20:16:34Z" uid="6454" user="B10xxx" changeset="39235">
    <nd ref="28451333"/>
    <nd ref="28450306"/>
    <nd ref="28451502"/>
    <nd ref="28415536"/>
    <tag k="created_by" v="JOSM"/>
    <tag k="highway" v="primary"/>
    <tag k="name" v="B42"/>
    <tag k="nat_ref" v="B42"/>
    <tag k="oneway" v="yes"/>
  </way>
  <way id="4566440" version="1" timestamp="2007-05-03T20:16:36Z" uid="6454" user="B10xxx" changeset="39235">
    <nd ref="28415536"/>
    <nd ref="28450418"/>
    <tag k="created_by" v="JOSM"/>
    <tag k="highway" v="primary"/>
    <tag k="nat_ref" v="B42"/>
    <tag k="oneway" v="yes"/>
  </way>
  <way id="4566484" version="1" timestamp="2007-05-03T20:27:55Z" uid="6975" user="ulfl" changeset="39297">
    <nd ref="28794694"/>
    <nd ref="28794706"/>
    <nd ref="28794710"/>
    <nd ref="28794709"/>
    <nd ref="16539680"/>
    <tag k="created_by" v="JOSM"/>
    <tag k="highway" v="residential"/>
    <tag k="name" v="Erlenstraße"/>
  </way>
  <way id="4566485" version="1" timestamp="2007-05-03T20:27:56Z" uid="6975" user="ulfl" changeset="39297">
    <nd ref="16539687"/>
    <nd ref="28794693"/>
    <nd ref="28794694"/>
    <nd ref="28794699"/>
    <nd ref="28794695"/>
    <nd ref="28794700"/>
    <nd ref="28794701"/>
    <tag k="created_by" v="JOSM"/>
    <tag k="highway" v="residential"/>
    <tag k="name" v="Vogelweiherstraße"/>
  </way>
  <way id="4566486" version="1" timestamp="2007-05-03T20:27:58Z" uid="6975" user="ulfl" changeset="39297">
    <nd ref="28794701"/>
    <nd ref="28794703"/>
    <nd ref="26608065"/>
    <tag k="created_by" v="JOSM"/>
    <tag k="highway" v="residential"/>
    <tag k="name" v="Nimrodstraße"/>
  </way>
  <way id="4566497" version="1" timestamp="2007-05-03T20:30:37Z" uid="6975" user="ulfl" changeset="39297">
    <nd ref="26608073"/>
    <nd ref="28794704"/>
    <nd ref="28794705"/>
    <nd ref="28794699"/>
    <tag k="created_by" v="JOSM"/>
    <tag k="highway" v="residential"/>
    <tag k="name" v="Löffelholzstraße"/>
  </way>
  <way id="4566498" version="1" timestamp="2007-05-03T20:30:37Z" uid="6975" user="ulfl" changeset="39297">
    <nd ref="28794705"/>
    <nd ref="28794713"/>
    <nd ref="28794706"/>
    <tag k="created_by" v="JOSM"/>
    <tag k="highway" v="residential"/>
    <tag k="name" v="Eschenstraße"/>
  </way>
  <way id="4566499" version="1" timestamp="2007-05-03T20:30:37Z" uid="6975" user="ulfl" changeset="39297">
    <nd ref="28794706"/>
    <nd ref="28794712"/>
    <tag k="created_by" v="JOSM"/>
    <tag k="highway" v="residential"/>
    <tag k="name" v="Eschenstraße"/>
    <tag k="oneway" v="true"/>
  </way>
  <way id="4566510" version="1" timestamp="2007-05-03T20:34:23Z" uid="6975" user="ulfl" changeset="39297">
    <nd ref="28794703"/>
    <nd ref="28794704"/>
    <nd ref="28794709"/>
    <nd ref="28794708"/>
    <tag k="created_by" v="JOSM"/>
    <tag k="highway" v="residential"/>
    <tag k="name" v="Platenstraße"/>
  </way>
  <way id="4566511" version="1" timestamp="2007-05-03T20:34:24Z" uid="6975" user="ulfl" changeset="39297">
    <nd ref="28794710"/>
    <nd ref="28794707"/>
    <tag k="created_by" v="JOSM"/>
    <tag k="highway" v="residential"/>
    <tag k="name" v="Linggstraße"/>
  </way>
  <way id="4566512" version="1" timestamp="2007-05-03T20:34:24Z" uid="6975" user="ulfl" changeset="39297">
    <nd ref="28794695"/>
    <nd ref="28794696"/>
    <nd ref="28794697"/>
    <nd ref="28794698"/>
    <tag k="created_by" v="JOSM"/>
    <tag k="highway" v="unclassified"/>
    <tag k="name" v="Winter-Günther-Straße"/>
  </way>
  <way id="4566518" version="2" timestamp="2008-07-05T17:12:07Z" uid="6975" user="ulfl" changeset="398437">
    <nd ref="28795000"/>
    <nd ref="28795008"/>
    <tag k="bicycle" v="yes"/>
    <tag k="bicycleRoute" v="NR5"/>
    <tag k="bridge" v="yes"/>
    <tag k="car" v="no"/>
    <tag k="foot" v="yes"/>
    <tag k="highway" v="cycleway"/>
    <tag k="layer" v="1"/>
    <tag k="ncn_ref" v="5"/>
    <tag k="route" v="ncn"/>
  </way>
  <way id="4566519" version="2" timestamp="2008-07-05T17:12:05Z" uid="6975" user="ulfl" changeset="398437">
    <nd ref="28795008"/>
    <nd ref="5290404"/>
    <nd ref="5290405"/>
    <nd ref="5290406"/>
    <nd ref="5290408"/>
    <tag k="highway" v="cycleway"/>
    <tag k="ncn_ref" v="5"/>
    <tag k="route" v="ncn"/>
  </way>
  <way id="4566520" version="5" timestamp="2008-07-05T17:12:12Z" uid="6975" user="ulfl" changeset="398437">
    <nd ref="28795009"/>
    <nd ref="5290409"/>
    <nd ref="5290411"/>
    <tag k="highway" v="service"/>
    <tag k="ncn_ref" v="5"/>
    <tag k="open" v="no"/>
    <tag k="route" v="ncn"/>
  </way>
  <way id="4566521" version="2" timestamp="2008-07-05T17:12:11Z" uid="6975" user="ulfl" changeset="398437">
    <nd ref="5290408"/>
    <nd ref="28795009"/>
    <tag k="bicycle" v="yes"/>
    <tag k="bicycleRoute" v="NR5"/>
    <tag k="bridge" v="yes"/>
    <tag k="car" v="no"/>
    <tag k="foot" v="yes"/>
    <tag k="highway" v="cycleway"/>
    <tag k="layer" v="1"/>
    <tag k="ncn_ref" v="5"/>
    <tag k="route" v="ncn"/>
  </way>
  <way id="4566525" version="2" timestamp="2008-12-14T13:16:44Z" uid="6975" user="ulfl" changeset="366940">
    <nd ref="28795059"/>
    <nd ref="28795060"/>
    <nd ref="28795061"/>
    <nd ref="28795062"/>
    <nd ref="28795063"/>
    <nd ref="28795064"/>
    <nd ref="28795065"/>
    <nd ref="28795067"/>
    <nd ref="28795068"/>
    <nd ref="28795069"/>
    <nd ref="28795070"/>
    <nd ref="28795071"/>
    <nd ref="28795072"/>
    <nd ref="28795073"/>
    <nd ref="28795074"/>
    <nd ref="28795075"/>
    <nd ref="28795076"/>
    <nd ref="28795077"/>
    <nd ref="28795078"/>
    <nd ref="28795079"/>
    <nd ref="28795080"/>
    <nd ref="28795082"/>
    <nd ref="28795083"/>
    <nd ref="28795084"/>
    <nd ref="28795085"/>
    <nd ref="28795086"/>
    <nd ref="28795087"/>
    <nd ref="28795088"/>
    <nd ref="28795089"/>
    <nd ref="28795090"/>
    <nd ref="28795091"/>
    <nd ref="28795092"/>
    <nd ref="28795093"/>
    <nd ref="28795094"/>
    <nd ref="28795095"/>
    <nd ref="27532824"/>
    <nd ref="27532826"/>
    <nd ref="27532827"/>
    <nd ref="27532829"/>
    <nd ref="27532831"/>
    <nd ref="27532835"/>
    <nd ref="27532833"/>
    <nd ref="27532800"/>
    <tag k="railway" v="rail"/>
  </way>
  <way id="4566553" version="1" timestamp="2007-05-03T20:40:20Z" uid="6975" user="ulfl" changeset="39297">
    <nd ref="16539705"/>
    <nd ref="28794548"/>
    <nd ref="28794549"/>
    <tag k="created_by" v="JOSM"/>
    <tag k="highway" v="residential"/>
    <tag k="name" v="Gotenstraße"/>
  </way>
  <way id="4566554" version="1" timestamp="2007-05-03T20:40:20Z" uid="6975" user="ulfl" changeset="39297">
    <nd ref="28794549"/>
    <nd ref="28794575"/>
    <nd ref="28794576"/>
    <nd ref="28794578"/>
    <nd ref="28794579"/>
    <nd ref="28794581"/>
    <nd ref="28794583"/>
    <nd ref="28795364"/>
    <tag k="created_by" v="JOSM"/>
    <tag k="highway" v="residential"/>
    <tag k="name" v="Rieppelstraße"/>
  </way>
  <way id="4566555" version="1" timestamp="2007-05-03T20:40:21Z" uid="6975" user="ulfl" changeset="39297">
    <nd ref="28794554"/>
    <nd ref="28794572"/>
    <nd ref="28794573"/>
    <nd ref="28794574"/>
    <nd ref="28794575"/>
    <tag k="created_by" v="JOSM"/>
    <tag k="highway" v="residential"/>
    <tag k="name" v="Andreas-Hofer-Straße"/>
  </way>
  <way id="4566556" version="1" timestamp="2007-05-03T20:40:21Z" uid="6975" user="ulfl" changeset="39297">
    <nd ref="28794576"/>
    <nd ref="28794567"/>
    <tag k="created_by" v="JOSM"/>
    <tag k="highway" v="residential"/>
    <tag k="name" v="Bozener Straße"/>
  </way>
  <way id="4566557" version="1" timestamp="2007-05-03T20:40:21Z" uid="6975" user="ulfl" changeset="39297">
    <nd ref="28794578"/>
    <nd ref="28794568"/>
    <tag k="created_by" v="JOSM"/>
    <tag k="highway" v="residential"/>
    <tag k="name" v="Meraner Straße"/>
  </way>
  <way id="4566558" version="1" timestamp="2007-05-03T20:40:21Z" uid="6975" user="ulfl" changeset="39297">
    <nd ref="28795364"/>
    <nd ref="28794585"/>
    <nd ref="28794557"/>
    <tag k="created_by" v="JOSM"/>
    <tag k="highway" v="residential"/>
    <tag k="name" v="Defreggerstraße"/>
  </way>
  <way id="4566571" version="1" timestamp="2007-05-08T01:08:50Z" uid="6975" user="ulfl" changeset="41725">
    <nd ref="28794557"/>
    <nd ref="28794556"/>
    <nd ref="28794555"/>
    <nd ref="28794554"/>
    <nd ref="28794553"/>
    <nd ref="28794559"/>
    <nd ref="28794588"/>
    <nd ref="28794560"/>
    <tag k="created_by" v="JOSM"/>
    <tag k="highway" v="residential"/>
    <tag k="name" v="Ingolstädter Straße"/>
  </way>
  <way id="4566572" version="1" timestamp="2007-05-03T20:43:42Z" uid="6975" user="ulfl" changeset="39297">
    <nd ref="28794556"/>
    <nd ref="28794569"/>
    <tag k="created_by" v="JOSM"/>
    <tag k="highway" v="residential"/>
    <tag k="name" v="Haspingerstraße"/>
  </way>
  <way id="4566573" version="1" timestamp="2007-05-03T20:43:45Z" uid="6975" user="ulfl" changeset="39297">
    <nd ref="28794555"/>
    <nd ref="28794590"/>
    <nd ref="28794570"/>
    <tag k="created_by" v="JOSM"/>
    <tag k="highway" v="residential"/>
    <tag k="name" v="Speckbacherstraße"/>
  </way>
  <way id="4566574" version="1" timestamp="2007-05-03T20:43:45Z" uid="6975" user="ulfl" changeset="39297">
    <nd ref="28794553"/>
    <nd ref="28794552"/>
    <nd ref="28794550"/>
    <nd ref="28794549"/>
    <tag k="created_by" v="JOSM"/>
    <tag k="highway" v="residential"/>
    <tag k="name" v="Innsbrucker Straße"/>
  </way>
  <way id="4566583" version="1" timestamp="2007-05-03T20:47:24Z" uid="6975" user="ulfl" changeset="39297">
    <nd ref="28794586"/>
    <nd ref="28794561"/>
    <nd ref="28794562"/>
    <nd ref="28794559"/>
    <tag k="created_by" v="JOSM"/>
    <tag k="highway" v="residential"/>
    <tag k="name" v="Tiroler Straße"/>
  </way>
  <way id="4566584" version="1" timestamp="2007-05-03T20:47:24Z" uid="6975" user="ulfl" changeset="39297">
    <nd ref="28794561"/>
    <nd ref="28794563"/>
    <nd ref="28794587"/>
    <nd ref="28794552"/>
    <tag k="created_by" v="JOSM"/>
    <tag k="highway" v="residential"/>
    <tag k="name" v="Sterzinger Straße"/>
  </way>
  <way id="4566585" version="1" timestamp="2007-05-03T20:47:25Z" uid="6975" user="ulfl" changeset="39297">
    <nd ref="28794563"/>
    <nd ref="28794564"/>
    <nd ref="28794565"/>
    <tag k="created_by" v="JOSM"/>
    <tag k="highway" v="residential"/>
    <tag k="name" v="Sterzinger Straße"/>
  </way>
  <way id="4566605" version="1" timestamp="2007-05-08T01:15:06Z" uid="6975" user="ulfl" changeset="41725">
    <nd ref="28794565"/>
    <nd ref="16539707"/>
    <tag k="created_by" v="JOSM"/>
    <tag k="highway" v="residential"/>
    <tag k="name" v="Sachsenstraße"/>
    <tag k="oneway" v="true"/>
  </way>
  <way id="4566611" version="1" timestamp="2007-05-03T20:56:53Z" uid="6454" user="B10xxx" changeset="39235">
    <nd ref="26820497"/>
    <nd ref="26820495"/>
    <tag k="created_by" v="JOSM"/>
    <tag k="highway" v="tertiary"/>
    <tag k="oneway" v="yes"/>
  </way>
  <way id="4566682" version="2" timestamp="2008-02-09T12:20:29Z" uid="13367" user="nubok" changeset="85219">
    <nd ref="24796015"/>
    <nd ref="24796009"/>
    <nd ref="24796035"/>
    <nd ref="24796041"/>
    <nd ref="35924351"/>
    <tag k="bridge" v="yes"/>
    <tag k="created_by" v="Potlatch 0.7"/>
    <tag k="highway" v="primary"/>
    <tag k="layer" v="1"/>
    <tag k="name" v="Warschauer Straße"/>
  </way>
  <way id="4566695" version="3" timestamp="2008-02-09T12:20:23Z" uid="13367" user="nubok" changeset="85219">
    <nd ref="24795983"/>
    <nd ref="51861803"/>
    <nd ref="24795994"/>
    <nd ref="24796018"/>
    <nd ref="24796043"/>
    <nd ref="24796003"/>
    <nd ref="24795971"/>
    <nd ref="24796032"/>
    <nd ref="24796026"/>
    <nd ref="24795987"/>
    <nd ref="24795991"/>
    <nd ref="35922809"/>
    <nd ref="24796015"/>
    <tag k="created_by" v="Potlatch 0.7"/>
    <tag k="highway" v="primary"/>
    <tag k="name" v="Warschauer Straße"/>
  </way>
  <way id="4566704" version="3" timestamp="2008-02-09T12:22:50Z" uid="13367" user="nubok" changeset="85219">
    <nd ref="21923026"/>
    <nd ref="21926387"/>
    <tag k="bridge" v="yes"/>
    <tag k="created_by" v="Potlatch 0.7"/>
    <tag k="highway" v="primary"/>
    <tag k="layer" v="1"/>
    <tag k="ref" v="Südring"/>
  </way>
  <way id="4566745" version="10" timestamp="2009-06-07T09:26:40Z" uid="6269" user="Mueck" changeset="1446091">
    <nd ref="26941517"/>
    <nd ref="317849026"/>
    <nd ref="317849025"/>
    <nd ref="317849023"/>
    <nd ref="26941519"/>
    <nd ref="26941522"/>
    <nd ref="26941524"/>
    <nd ref="33548571"/>
    <nd ref="315328924"/>
    <nd ref="31300527"/>
    <tag k="created_by" v="Potlatch 0.9c"/>
    <tag k="highway" v="primary"/>
    <tag k="motorroad" v="yes"/>
    <tag k="ref" v="L 77a"/>
  </way>
  <way id="4566790" version="1" timestamp="2007-09-17T23:39:20Z" uid="8328" user="benpre" changeset="462257">
    <nd ref="28797831"/>
    <nd ref="28797827"/>
    <tag k="created_by" v="JOSM"/>
    <tag k="highway" v="bridge"/>
    <tag k="layer" v="1"/>
  </way>
  <way id="4566830" version="4" timestamp="2008-08-12T08:39:19Z" uid="6269" user="Mueck" changeset="200178">
    <nd ref="32867684"/>
    <nd ref="28798395"/>
    <nd ref="28798393"/>
    <nd ref="28798392"/>
    <nd ref="28798391"/>
    <nd ref="28798390"/>
    <nd ref="260084881"/>
    <nd ref="33507253"/>
    <nd ref="33507250"/>
    <nd ref="28798389"/>
    <nd ref="33507157"/>
    <nd ref="25455845"/>
    <nd ref="57779247"/>
    <nd ref="28798388"/>
    <nd ref="57779219"/>
    <nd ref="28798171"/>
    <tag k="created_by" v="Potlatch 0.10b"/>
    <tag k="highway" v="secondary"/>
  </way>
  <way id="4566830" version="5" timestamp="2008-08-12T08:39:48Z" uid="6269" user="Mueck" changeset="200178">
    <nd ref="32867684"/>
    <nd ref="28798395"/>
    <nd ref="28798393"/>
    <nd ref="28798392"/>
    <nd ref="28798391"/>
    <nd ref="28798390"/>
    <nd ref="260084881"/>
    <nd ref="33507253"/>
    <nd ref="33507250"/>
    <nd ref="28798389"/>
    <nd ref="33507157"/>
    <nd ref="25455845"/>
    <nd ref="57779247"/>
    <nd ref="28798388"/>
    <nd ref="57779219"/>
    <nd ref="28798171"/>
    <tag k="created_by" v="Potlatch 0.10b"/>
    <tag k="highway" v="primary"/>
    <tag k="note" v="im SHP des NVK: I"/>
  </way>
  <way id="4566830" version="15" timestamp="2010-07-30T19:31:13Z" uid="6269" user="Mueck" changeset="5357043">
    <nd ref="32867684"/>
    <nd ref="28798395"/>
    <nd ref="445061641"/>
    <nd ref="28798393"/>
    <nd ref="455903862"/>
    <nd ref="28798392"/>
    <nd ref="839136307"/>
    <nd ref="28798391"/>
    <nd ref="435523701"/>
    <nd ref="435523715"/>
    <nd ref="391536667"/>
    <nd ref="463875352"/>
    <nd ref="28798390"/>
    <nd ref="729623882"/>
    <nd ref="729623880"/>
    <nd ref="260084881"/>
    <nd ref="33507253"/>
    <nd ref="33507250"/>
    <nd ref="28798389"/>
    <nd ref="33507157"/>
    <nd ref="25455845"/>
    <nd ref="57779247"/>
    <nd ref="28798388"/>
    <nd ref="57779219"/>
    <nd ref="28798171"/>
    <tag k="highway" v="secondary"/>
    <tag k="name" v="Malscher Straße"/>
    <tag k="note" v="im SHP des NVK: I"/>
    <tag k="ref" v="L 608"/>
  </way>
  <way id="4566830" version="16" timestamp="2010-09-06T13:36:40Z" uid="6269" user="Mueck" changeset="5698078">
    <nd ref="32867684"/>
    <nd ref="28798395"/>
    <nd ref="445061641"/>
    <nd ref="28798393"/>
    <nd ref="455903862"/>
    <nd ref="28798392"/>
    <nd ref="839136307"/>
    <nd ref="28798391"/>
    <nd ref="435523701"/>
    <nd ref="435523715"/>
    <nd ref="391536667"/>
    <nd ref="899125092"/>
    <nd ref="463875352"/>
    <nd ref="28798390"/>
    <nd ref="729623882"/>
    <nd ref="729623880"/>
    <nd ref="260084881"/>
    <nd ref="33507253"/>
    <nd ref="33507250"/>
    <nd ref="28798389"/>
    <nd ref="33507157"/>
    <nd ref="25455845"/>
    <nd ref="57779247"/>
    <nd ref="28798388"/>
    <nd ref="57779219"/>
    <nd ref="28798171"/>
    <tag k="highway" v="secondary"/>
    <tag k="name" v="Malscher Straße"/>
    <tag k="note" v="im SHP des NVK: I"/>
    <tag k="ref" v="L 608"/>
  </way>
  <way id="4566830" version="17" timestamp="2010-09-06T13:37:43Z" uid="6269" user="Mueck" changeset="5698078">
    <nd ref="32867684"/>
    <nd ref="28798395"/>
    <nd ref="445061641"/>
    <nd ref="28798393"/>
    <nd ref="455903862"/>
    <nd ref="28798392"/>
    <nd ref="839136307"/>
    <nd ref="28798391"/>
    <nd ref="435523701"/>
    <nd ref="435523715"/>
    <nd ref="899125801"/>
    <nd ref="391536667"/>
    <nd ref="899125092"/>
    <nd ref="463875352"/>
    <nd ref="28798390"/>
    <nd ref="729623882"/>
    <nd ref="729623880"/>
    <nd ref="260084881"/>
    <nd ref="33507253"/>
    <nd ref="33507250"/>
    <nd ref="28798389"/>
    <nd ref="33507157"/>
    <nd ref="25455845"/>
    <nd ref="57779247"/>
    <nd ref="28798388"/>
    <nd ref="57779219"/>
    <nd ref="28798171"/>
    <tag k="highway" v="secondary"/>
    <tag k="name" v="Malscher Straße"/>
    <tag k="note" v="im SHP des NVK: I"/>
    <tag k="ref" v="L 608"/>
  </way>
  <way id="4566830" version="18" timestamp="2010-09-06T13:43:05Z" uid="6269" user="Mueck" changeset="5698078">
    <nd ref="32867684"/>
    <nd ref="28798395"/>
    <nd ref="445061641"/>
    <nd ref="28798393"/>
    <nd ref="455903862"/>
    <nd ref="28798392"/>
    <nd ref="839136307"/>
    <nd ref="28798391"/>
    <nd ref="435523701"/>
    <nd ref="435523715"/>
    <nd ref="899125801"/>
    <nd ref="391536667"/>
    <nd ref="899125092"/>
    <nd ref="463875352"/>
    <nd ref="28798390"/>
    <nd ref="729623882"/>
    <nd ref="729623880"/>
    <nd ref="260084881"/>
    <nd ref="33507253"/>
    <nd ref="33507250"/>
    <nd ref="899132986"/>
    <nd ref="28798389"/>
    <nd ref="899132990"/>
    <nd ref="33507157"/>
    <nd ref="25455845"/>
    <nd ref="57779247"/>
    <nd ref="28798388"/>
    <nd ref="57779219"/>
    <nd ref="28798171"/>
    <tag k="highway" v="secondary"/>
    <tag k="name" v="Malscher Straße"/>
    <tag k="note" v="im SHP des NVK: I"/>
    <tag k="ref" v="L 608"/>
  </way>
</osm>
