<?xml version='1.0' encoding='UTF-8'?>
<osm version="0.6" generator="libosmium/2.20.0">
  <way id="4577076" version="6" timestamp="2010-06-14T14:15:32Z" uid="4467" user="Rosscoe" changeset="4988330">
    <nd ref="772645461"/>
    <nd ref="32076292"/>
    <nd ref="605208508"/>
    <nd ref="277046493"/>
    <nd ref="585123631"/>
    <nd ref="585123632"/>
    <nd ref="902661"/>
    <tag k="highway" v="unclassified"/>
    <tag k="oneway" v="yes"/>
  </way>
  <way id="4577077" version="8" timestamp="2010-07-18T04:00:26Z" uid="4467" user="Rosscoe" changeset="5247721">
    <nd ref="579270"/>
    <nd ref="616063782"/>
    <nd ref="563629432"/>
    <nd ref="579268"/>
    <nd ref="563629411"/>
    <nd ref="563629412"/>
    <nd ref="153974978"/>
    <nd ref="563629410"/>
    <tag k="highway" v="unclassified"/>
    <tag k="lanes" v="2"/>
    <tag k="oneway" v="yes"/>
  </way>
  <way id="4577079" version="11" timestamp="2010-07-09T02:51:15Z" uid="74617" user="JohnSmith" changeset="5170713">
    <nd ref="902657"/>
    <nd ref="32075339"/>
    <nd ref="243077922"/>
    <nd ref="32075419"/>
    <nd ref="243077683"/>
    <nd ref="243077635"/>
    <nd ref="426817120"/>
    <nd ref="902658"/>
    <nd ref="27415661"/>
    <tag k="highway" v="residential"/>
    <tag k="maxspeed" v="50"/>
    <tag k="maxspeed:source" v="default residential speed limit in Australia"/>
    <tag k="name" v="Duerdin Street"/>
  </way>
  <way id="4577080" version="4" timestamp="2010-07-09T02:46:56Z" uid="74617" user="JohnSmith" changeset="5170713">
    <nd ref="902658"/>
    <nd ref="902660"/>
    <tag k="highway" v="residential"/>
    <tag k="maxspeed" v="50"/>
    <tag k="maxspeed:source" v="default residential speed limit in Australia"/>
    <tag k="name" v="University Place"/>
  </way>
  <way id="4577084" version="1" timestamp="2007-07-30T19:56:04Z" uid="6975" user="ulfl" changeset="178362">
    <nd ref="28901502"/>
    <nd ref="28901505"/>
    <nd ref="28901497"/>
    <tag k="created_by" v="JOSM"/>
    <tag k="highway" v="residential"/>
    <tag k="name" v="Löwenberger Straße"/>
    <tag k="oneway" v="true"/>
  </way>
  <way id="4577104" version="1" timestamp="2007-09-06T20:08:44Z" uid="6454" user="B10xxx" changeset="364362">
    <nd ref="28900933"/>
    <nd ref="28900934"/>
    <nd ref="28900937"/>
    <nd ref="28900938"/>
    <nd ref="43643240"/>
    <nd ref="28900942"/>
    <nd ref="28900943"/>
    <nd ref="28900915"/>
    <tag k="created_by" v="Potlatch alpha"/>
    <tag k="highway" v="secondary"/>
    <tag k="name" v="Soonstraße"/>
  </way>
  <way id="4577208" version="3" timestamp="2008-07-05T17:13:16Z" uid="6975" user="ulfl" changeset="398437">
    <nd ref="28901908"/>
    <nd ref="28901909"/>
    <nd ref="28901910"/>
    <tag k="highway" v="track"/>
    <tag k="route" v="walking"/>
    <tag k="route:name" v="Schenkenshul"/>
  </way>
  <way id="4577346" version="1" timestamp="2007-06-04T13:22:10Z" uid="7617" user="Franc" changeset="80895">
    <nd ref="26410195"/>
    <nd ref="29782206"/>
    <nd ref="29943828"/>
    <nd ref="26410186"/>
    <tag k="abutters" v="residential"/>
    <tag k="created_by" v="Potlatch alpha"/>
    <tag k="highway" v="unclassified"/>
    <tag k="name" v="Alice Street"/>
  </way>
  <way id="4577346" version="3" timestamp="2009-12-02T22:58:13Z" uid="30201" user="rrankin" changeset="3276441">
    <nd ref="26410195"/>
    <nd ref="29782206"/>
    <nd ref="29943828"/>
    <nd ref="26410186"/>
    <tag k="highway" v="unclassified"/>
    <tag k="name" v="Alice Street"/>
  </way>
  <way id="4577347" version="1" timestamp="2007-09-20T02:37:58Z" uid="7617" user="Franc" changeset="473553">
    <nd ref="26361943"/>
    <nd ref="54928474"/>
    <nd ref="54656572"/>
    <nd ref="54656529"/>
    <nd ref="26361954"/>
    <nd ref="33681897"/>
    <nd ref="28802134"/>
    <nd ref="33681464"/>
    <nd ref="12603355"/>
    <tag k="created_by" v="Potlatch alpha"/>
    <tag k="highway" v="secondary"/>
    <tag k="name" v="Llewellyn Street"/>
    <tag k="source:name" v="DOL 1917"/>
    <tag k="source_ref:name" v="http://www.sl.nsw.gov.au/online/maps.cfm"/>
  </way>
  <way id="4577348" version="1" timestamp="2007-07-20T19:44:45Z" uid="6975" user="ulfl" changeset="156458">
    <nd ref="26911169"/>
    <nd ref="26911170"/>
    <nd ref="32454199"/>
    <nd ref="26911148"/>
    <tag k="created_by" v="JOSM"/>
    <tag k="highway" v="primary_link"/>
  </way>
  <way id="4577356" version="2" timestamp="2008-07-08T19:32:22Z" uid="6975" user="ulfl" changeset="431192">
    <nd ref="28848225"/>
    <nd ref="28848224"/>
    <nd ref="28848223"/>
    <nd ref="28848222"/>
    <nd ref="28848221"/>
    <nd ref="28848220"/>
    <nd ref="28848219"/>
    <nd ref="28848218"/>
    <nd ref="28848217"/>
    <nd ref="28848216"/>
    <nd ref="28848215"/>
    <nd ref="28848213"/>
    <nd ref="28848214"/>
    <nd ref="28848211"/>
    <nd ref="28848212"/>
    <nd ref="28848209"/>
    <nd ref="28848210"/>
    <nd ref="28846491"/>
    <nd ref="28848208"/>
    <nd ref="28846394"/>
    <nd ref="28846377"/>
    <nd ref="28846378"/>
    <nd ref="28846380"/>
    <nd ref="28846381"/>
    <nd ref="28846382"/>
    <nd ref="28846383"/>
    <nd ref="28846384"/>
    <nd ref="28846385"/>
    <nd ref="28848230"/>
    <nd ref="28848229"/>
    <nd ref="28848228"/>
    <nd ref="28848227"/>
    <nd ref="28848226"/>
    <nd ref="28848225"/>
    <tag k="natural" v="water"/>
    <tag k="note" v="This may be off by 100 meters, please fix if you have more precise data"/>
    <tag k="source" v="landsat"/>
  </way>
  <way id="4577365" version="1" timestamp="2007-05-09T22:01:51Z" uid="6975" user="ulfl" changeset="44354">
    <nd ref="28902133"/>
    <nd ref="28902134"/>
    <nd ref="28902135"/>
    <nd ref="28902136"/>
    <nd ref="28902137"/>
    <nd ref="28902138"/>
    <nd ref="28902139"/>
    <nd ref="28902140"/>
    <nd ref="28902141"/>
    <nd ref="28902142"/>
    <tag k="created_by" v="JOSM"/>
    <tag k="highway" v="residential"/>
    <tag k="name" v="Hermann-Kolb-Straße"/>
  </way>
  <way id="4577378" version="1" timestamp="2007-05-09T22:03:48Z" uid="6975" user="ulfl" changeset="44354">
    <nd ref="28902136"/>
    <nd ref="28902147"/>
    <tag k="created_by" v="JOSM"/>
    <tag k="highway" v="residential"/>
    <tag k="name" v="Hermann-Kolb-Straße"/>
  </way>
  <way id="4577379" version="1" timestamp="2007-05-09T22:03:49Z" uid="6975" user="ulfl" changeset="44354">
    <nd ref="28902137"/>
    <nd ref="28902148"/>
    <tag k="created_by" v="JOSM"/>
    <tag k="highway" v="residential"/>
    <tag k="name" v="Hermann-Kolb-Straße"/>
  </way>
  <way id="4577380" version="1" timestamp="2007-05-09T22:03:50Z" uid="6975" user="ulfl" changeset="44354">
    <nd ref="28902139"/>
    <nd ref="28902149"/>
    <tag k="created_by" v="JOSM"/>
    <tag k="highway" v="residential"/>
    <tag k="name" v="Hermann-Kolb-Straße"/>
  </way>
  <way id="4577381" version="1" timestamp="2007-05-09T22:03:50Z" uid="6975" user="ulfl" changeset="44354">
    <nd ref="28902144"/>
    <nd ref="28902147"/>
    <nd ref="28902148"/>
    <nd ref="28902149"/>
    <tag k="created_by" v="JOSM"/>
    <tag k="highway" v="residential"/>
    <tag k="name" v="Hermann-Kolb-Straße"/>
  </way>
  <way id="4577396" version="1" timestamp="2007-05-09T22:11:17Z" uid="6975" user="ulfl" changeset="44354">
    <nd ref="28902119"/>
    <nd ref="28902120"/>
    <nd ref="28902122"/>
    <nd ref="28902123"/>
    <nd ref="28902124"/>
    <nd ref="28902125"/>
    <nd ref="28902126"/>
    <nd ref="28902127"/>
    <nd ref="28902128"/>
    <nd ref="28902129"/>
    <nd ref="28902130"/>
    <nd ref="28902131"/>
    <nd ref="28902132"/>
    <nd ref="28902133"/>
    <tag k="created_by" v="JOSM"/>
    <tag k="highway" v="residential"/>
    <tag k="name" v="Karl-Hertel-Straße"/>
  </way>
  <way id="4577406" version="1" timestamp="2007-05-09T22:14:19Z" uid="6975" user="ulfl" changeset="44354">
    <nd ref="28902489"/>
    <nd ref="28902501"/>
    <nd ref="28902472"/>
    <nd ref="28902530"/>
    <nd ref="28902455"/>
    <nd ref="28902439"/>
    <nd ref="28902129"/>
    <tag k="created_by" v="JOSM"/>
    <tag k="highway" v="residential"/>
    <tag k="name" v="Welfenstraße"/>
  </way>
  <way id="4577407" version="1" timestamp="2007-05-09T22:14:20Z" uid="6975" user="ulfl" changeset="44354">
    <nd ref="28902128"/>
    <nd ref="28902443"/>
    <nd ref="28902458"/>
    <nd ref="28902531"/>
    <nd ref="28902477"/>
    <nd ref="28902547"/>
    <nd ref="28902493"/>
    <nd ref="28902555"/>
    <tag k="created_by" v="JOSM"/>
    <tag k="highway" v="residential"/>
    <tag k="name" v="Von-Soden-Straße"/>
  </way>
  <way id="4577408" version="1" timestamp="2007-05-09T22:14:20Z" uid="6975" user="ulfl" changeset="44354">
    <nd ref="28902122"/>
    <nd ref="28902545"/>
    <nd ref="28902546"/>
    <tag k="created_by" v="JOSM"/>
    <tag k="highway" v="residential"/>
    <tag k="name" v="Preysingstraße"/>
  </way>
  <way id="4577412" version="1" timestamp="2007-05-09T22:17:09Z" uid="6975" user="ulfl" changeset="44354">
    <nd ref="28902146"/>
    <nd ref="28902145"/>
    <nd ref="28902144"/>
    <nd ref="28902143"/>
    <nd ref="28902135"/>
    <nd ref="28902455"/>
    <nd ref="28902458"/>
    <nd ref="28902463"/>
    <nd ref="28902465"/>
    <nd ref="28902468"/>
    <nd ref="28902470"/>
    <nd ref="28898801"/>
    <tag k="created_by" v="JOSM"/>
    <tag k="highway" v="residential"/>
    <tag k="name" v="Altenfurter Straße"/>
  </way>
  <way id="4577413" version="1" timestamp="2007-05-09T22:17:10Z" uid="6975" user="ulfl" changeset="44354">
    <nd ref="28902468"/>
    <nd ref="28902449"/>
    <nd ref="28902124"/>
    <tag k="created_by" v="JOSM"/>
    <tag k="highway" v="residential"/>
    <tag k="name" v="Am Graben"/>
  </way>
  <way id="4577414" version="1" timestamp="2007-05-09T22:17:11Z" uid="6975" user="ulfl" changeset="44354">
    <nd ref="28902470"/>
    <nd ref="28902540"/>
    <nd ref="28902541"/>
    <tag k="created_by" v="JOSM"/>
    <tag k="highway" v="residential"/>
    <tag k="name" v="Am Graben"/>
  </way>
  <way id="4577416" version="1" timestamp="2007-05-09T22:22:28Z" uid="6975" user="ulfl" changeset="44354">
    <nd ref="28902479"/>
    <nd ref="28902533"/>
    <nd ref="28902465"/>
    <tag k="created_by" v="JOSM"/>
    <tag k="highway" v="residential"/>
    <tag k="name" v="Hennebergerstraße"/>
  </way>
  <way id="4577417" version="1" timestamp="2007-05-09T22:22:29Z" uid="6975" user="ulfl" changeset="44354">
    <nd ref="28902534"/>
    <nd ref="28902463"/>
    <tag k="created_by" v="JOSM"/>
    <tag k="highway" v="residential"/>
    <tag k="name" v="Altenfurter Straße"/>
  </way>
  <way id="4577418" version="1" timestamp="2007-05-09T22:22:30Z" uid="6975" user="ulfl" changeset="44354">
    <nd ref="28902141"/>
    <nd ref="28902487"/>
    <nd ref="28902495"/>
    <nd ref="28902489"/>
    <nd ref="28902491"/>
    <nd ref="28902493"/>
    <tag k="created_by" v="JOSM"/>
    <tag k="highway" v="residential"/>
    <tag k="name" v="Hohenzollernstraße"/>
  </way>
  <way id="4577419" version="1" timestamp="2007-07-24T05:39:48Z" uid="10712" user="Kraeml" changeset="164225">
    <nd ref="28902547"/>
    <nd ref="28902548"/>
    <nd ref="28902549"/>
    <nd ref="28902550"/>
    <nd ref="28902551"/>
    <nd ref="28902552"/>
    <nd ref="28901502"/>
    <nd ref="28901499"/>
    <tag k="created_by" v="JOSM"/>
    <tag k="highway" v="residential"/>
    <tag k="name" v="Schornbaumstraße"/>
  </way>
  <way id="4577420" version="1" timestamp="2007-05-09T22:22:31Z" uid="6975" user="ulfl" changeset="44354">
    <nd ref="28902548"/>
    <nd ref="28902558"/>
    <nd ref="28902556"/>
    <nd ref="28902557"/>
    <tag k="created_by" v="JOSM"/>
    <tag k="highway" v="residential"/>
    <tag k="name" v="Lauenburgerstraße"/>
  </way>
  <way id="4577421" version="1" timestamp="2007-05-09T22:22:31Z" uid="6975" user="ulfl" changeset="44354">
    <nd ref="28902558"/>
    <nd ref="28902559"/>
    <tag k="created_by" v="JOSM"/>
    <tag k="highway" v="residential"/>
    <tag k="name" v="An der Rundkapelle"/>
  </way>
  <way id="4577422" version="1" timestamp="2007-05-09T22:28:03Z" uid="6975" user="ulfl" changeset="44354">
    <nd ref="28902542"/>
    <nd ref="28902540"/>
    <nd ref="28902533"/>
    <nd ref="28902538"/>
    <nd ref="28902537"/>
    <nd ref="28902531"/>
    <nd ref="28902532"/>
    <nd ref="28902530"/>
    <tag k="created_by" v="JOSM"/>
    <tag k="highway" v="residential"/>
    <tag k="name" v="Zähringerstraße"/>
  </way>
  <way id="4577423" version="1" timestamp="2007-05-09T22:29:02Z" uid="6975" user="ulfl" changeset="44354">
    <nd ref="28902487"/>
    <nd ref="28902497"/>
    <nd ref="28902499"/>
    <nd ref="28902501"/>
    <tag k="created_by" v="JOSM"/>
    <tag k="highway" v="residential"/>
    <tag k="name" v="Ludolfingerstraße"/>
  </way>
  <way id="4577428" version="1" timestamp="2007-05-09T22:30:47Z" uid="6975" user="ulfl" changeset="44354">
    <nd ref="28902138"/>
    <nd ref="28902486"/>
    <nd ref="28902472"/>
    <nd ref="28902474"/>
    <nd ref="28902477"/>
    <nd ref="28902479"/>
    <nd ref="28902481"/>
    <nd ref="28902483"/>
    <nd ref="28902116"/>
    <tag k="created_by" v="JOSM"/>
    <tag k="highway" v="residential"/>
    <tag k="name" v="Habsburgerstraße"/>
  </way>
  <way id="4577429" version="1" timestamp="2007-05-09T22:30:47Z" uid="6975" user="ulfl" changeset="44354">
    <nd ref="28902134"/>
    <nd ref="28902439"/>
    <nd ref="28902443"/>
    <nd ref="28902446"/>
    <nd ref="28902449"/>
    <nd ref="28902452"/>
    <tag k="created_by" v="JOSM"/>
    <tag k="highway" v="residential"/>
    <tag k="name" v="Wittelsbacherstraße"/>
  </way>
  <way id="4577430" version="1" timestamp="2007-05-09T22:31:48Z" uid="6975" user="ulfl" changeset="44354">
    <nd ref="28902446"/>
    <nd ref="28902127"/>
    <tag k="created_by" v="JOSM"/>
    <tag k="highway" v="residential"/>
    <tag k="name" v="Wettinerstraße"/>
  </way>
  <way id="4577431" version="1" timestamp="2007-05-09T22:34:44Z" uid="6975" user="ulfl" changeset="44354">
    <nd ref="28902491"/>
    <nd ref="28902553"/>
    <nd ref="28902554"/>
    <tag k="created_by" v="JOSM"/>
    <tag k="highway" v="residential"/>
    <tag k="name" v="Reußstraße"/>
  </way>
  <way id="4577443" version="1" timestamp="2007-05-09T22:36:18Z" uid="6975" user="ulfl" changeset="44354">
    <nd ref="28902543"/>
    <nd ref="28902117"/>
    <tag k="created_by" v="JOSM"/>
    <tag k="highway" v="residential"/>
    <tag k="name" v="Löwenberger Straße"/>
  </way>
  <way id="4577444" version="1" timestamp="2007-05-09T22:36:19Z" uid="6975" user="ulfl" changeset="44354">
    <nd ref="28902483"/>
    <nd ref="28902542"/>
    <nd ref="28902543"/>
    <nd ref="28902544"/>
    <nd ref="28902118"/>
    <tag k="created_by" v="JOSM"/>
    <tag k="highway" v="residential"/>
    <tag k="name" v="Löwenberger Straße"/>
  </way>
  <way id="4577456" version="1" timestamp="2007-05-09T22:39:19Z" uid="6975" user="ulfl" changeset="44354">
    <nd ref="28902140"/>
    <nd ref="28902160"/>
    <nd ref="28902161"/>
    <nd ref="28903075"/>
    <tag k="created_by" v="JOSM"/>
    <tag k="highway" v="residential"/>
    <tag k="name" v="Hohenstaufenweg"/>
  </way>
  <way id="4577457" version="1" timestamp="2007-05-09T22:39:20Z" uid="6975" user="ulfl" changeset="44354">
    <nd ref="28902155"/>
    <nd ref="28902156"/>
    <nd ref="28902157"/>
    <nd ref="28902158"/>
    <nd ref="28902159"/>
    <nd ref="28902152"/>
    <nd ref="28902153"/>
    <nd ref="28902154"/>
    <nd ref="28902155"/>
    <tag k="created_by" v="JOSM"/>
    <tag k="highway" v="residential"/>
    <tag k="name" v="Hermann-Kolb-Straße"/>
  </way>
  <way id="4577458" version="1" timestamp="2007-05-09T22:39:21Z" uid="6975" user="ulfl" changeset="44354">
    <nd ref="28902145"/>
    <nd ref="28902150"/>
    <nd ref="28902151"/>
    <nd ref="28902152"/>
    <tag k="created_by" v="JOSM"/>
    <tag k="highway" v="residential"/>
    <tag k="name" v="Hermann-Kolb-Straße"/>
  </way>
  <way id="4577576" version="9" timestamp="2010-04-02T03:30:43Z" uid="74617" user="JohnSmith" changeset="4299895">
    <nd ref="14988945"/>
    <nd ref="14988946"/>
    <nd ref="677213354"/>
    <nd ref="14988947"/>
    <nd ref="14988954"/>
    <nd ref="14988959"/>
    <nd ref="14988940"/>
    <nd ref="677213356"/>
    <nd ref="14988942"/>
    <nd ref="14988944"/>
    <nd ref="14988945"/>
    <tag k="highway" v="trunk"/>
    <tag k="junction" v="roundabout"/>
  </way>
  <way id="4577924" version="2" timestamp="2008-06-07T07:48:28Z" uid="27600" user="Islanit" changeset="80637">
    <nd ref="28839937"/>
    <nd ref="28839936"/>
    <nd ref="55060717"/>
    <nd ref="55061521"/>
    <nd ref="55071561"/>
    <nd ref="55060542"/>
    <nd ref="28839929"/>
    <nd ref="28839927"/>
    <nd ref="54809155"/>
    <nd ref="28839925"/>
    <tag k="created_by" v="Potlatch alpha"/>
    <tag k="highway" v="tertiary"/>
    <tag k="name" v="Rungwisch"/>
  </way>
  <way id="4577924" version="9" timestamp="2008-10-14T12:44:49Z" uid="27600" user="Islanit" changeset="332518">
    <nd ref="28839937"/>
    <nd ref="304560508"/>
    <nd ref="277947348"/>
    <nd ref="28839929"/>
    <nd ref="28839927"/>
    <nd ref="28839925"/>
    <nd ref="296005611"/>
    <nd ref="28839921"/>
    <nd ref="28839920"/>
    <nd ref="55068793"/>
    <nd ref="28839854"/>
    <nd ref="28839853"/>
    <tag k="created_by" v="Potlatch 0.10e"/>
    <tag k="highway" v="tertiary"/>
    <tag k="name" v="Rungwisch; Niendorfer Gehege"/>
    <tag k="postal_code" v="22523"/>
  </way>
  <way id="4577924" version="10" timestamp="2008-10-14T12:44:53Z" uid="27600" user="Islanit" changeset="332518">
    <nd ref="28839937"/>
    <nd ref="304560508"/>
    <nd ref="304560585"/>
    <nd ref="277947348"/>
    <nd ref="28839929"/>
    <nd ref="28839927"/>
    <nd ref="28839925"/>
    <nd ref="296005611"/>
    <nd ref="28839921"/>
    <nd ref="28839920"/>
    <nd ref="55068793"/>
    <nd ref="28839854"/>
    <nd ref="28839853"/>
    <tag k="created_by" v="Potlatch 0.10e"/>
    <tag k="highway" v="tertiary"/>
    <tag k="name" v="Rungwisch; Niendorfer Gehege"/>
    <tag k="postal_code" v="22523"/>
  </way>
  <way id="4577924" version="11" timestamp="2008-10-14T12:44:55Z" uid="27600" user="Islanit" changeset="332518">
    <nd ref="28839937"/>
    <nd ref="304560508"/>
    <nd ref="304560585"/>
    <nd ref="304560591"/>
    <nd ref="277947348"/>
    <nd ref="28839929"/>
    <nd ref="28839927"/>
    <nd ref="28839925"/>
    <nd ref="296005611"/>
    <nd ref="28839921"/>
    <nd ref="28839920"/>
    <nd ref="55068793"/>
    <nd ref="28839854"/>
    <nd ref="28839853"/>
    <tag k="created_by" v="Potlatch 0.10e"/>
    <tag k="highway" v="tertiary"/>
    <tag k="name" v="Rungwisch; Niendorfer Gehege"/>
    <tag k="postal_code" v="22523"/>
  </way>
  <way id="4577980" version="3" timestamp="2008-07-10T00:19:18Z" uid="6975" user="ulfl" changeset="448234">
    <nd ref="254262823"/>
    <nd ref="254262826"/>
    <nd ref="254262827"/>
    <nd ref="29823818"/>
    <tag k="amenity" v="taxi"/>
    <tag k="highway" v="service"/>
  </way>
  <way id="4577982" version="1" timestamp="2007-08-30T09:14:49Z" uid="7617" user="Franc" changeset="262906">
    <nd ref="28914463"/>
    <nd ref="34385370"/>
    <nd ref="29549291"/>
    <nd ref="29549413"/>
    <nd ref="29549414"/>
    <nd ref="29549412"/>
    <tag k="created_by" v="Potlatch alpha"/>
    <tag k="highway" v="secondary"/>
    <tag k="name" v="Westbourne Street"/>
    <tag k="source:name" v="survey"/>
  </way>
  <way id="4577982" version="2" timestamp="2008-04-10T23:27:34Z" uid="30201" user="rrankin" changeset="107567">
    <nd ref="28914463"/>
    <nd ref="34385370"/>
    <nd ref="29549291"/>
    <nd ref="29549413"/>
    <nd ref="256816327"/>
    <nd ref="29549414"/>
    <nd ref="29549412"/>
    <tag k="created_by" v="Potlatch 0.8a"/>
    <tag k="highway" v="secondary"/>
    <tag k="name" v="Westbourne Street"/>
    <tag k="source:name" v="survey"/>
  </way>
  <way id="4577988" version="1" timestamp="2007-08-21T12:25:07Z" uid="7617" user="Franc" changeset="240666">
    <nd ref="15194903"/>
    <nd ref="28914477"/>
    <nd ref="28914478"/>
    <nd ref="35461352"/>
    <tag k="abutters" v="residential"/>
    <tag k="created_by" v="JOSM"/>
    <tag k="highway" v="residential"/>
    <tag k="name" v="Arthur Street"/>
    <tag k="oneway" v="yes"/>
  </way>
  <way id="4577988" version="2" timestamp="2009-11-24T19:26:25Z" uid="7617" user="Franc" changeset="3206945">
    <nd ref="15194903"/>
    <nd ref="28914477"/>
    <nd ref="28914478"/>
    <nd ref="570109208"/>
    <nd ref="35461352"/>
    <tag k="abutters" v="residential"/>
    <tag k="highway" v="residential"/>
    <tag k="name" v="Arthur Street"/>
    <tag k="oneway" v="yes"/>
  </way>
  <way id="4577988" version="3" timestamp="2009-12-02T05:37:31Z" uid="30201" user="rrankin" changeset="3269534">
    <nd ref="15194903"/>
    <nd ref="28914477"/>
    <nd ref="28914478"/>
    <nd ref="570109208"/>
    <nd ref="35461352"/>
    <tag k="highway" v="residential"/>
    <tag k="name" v="Arthur Street"/>
    <tag k="oneway" v="yes"/>
  </way>
  <way id="4577988" version="4" timestamp="2009-12-28T13:31:28Z" uid="7617" user="Franc" changeset="3471447">
    <nd ref="15194903"/>
    <nd ref="28914477"/>
    <nd ref="28914478"/>
    <nd ref="570109208"/>
    <nd ref="600382319"/>
    <nd ref="600382321"/>
    <nd ref="35461352"/>
    <tag k="highway" v="residential"/>
    <tag k="name" v="Arthur Street"/>
    <tag k="oneway" v="yes"/>
  </way>
  <way id="4577988" version="5" timestamp="2010-07-08T02:54:12Z" uid="74617" user="JohnSmith" changeset="5163091">
    <nd ref="15194903"/>
    <nd ref="28914477"/>
    <nd ref="28914478"/>
    <nd ref="570109208"/>
    <nd ref="600382319"/>
    <nd ref="600382321"/>
    <nd ref="35461352"/>
    <tag k="highway" v="residential"/>
    <tag k="maxspeed" v="50"/>
    <tag k="maxspeed:source" v="default residential speed limit in Australia"/>
    <tag k="name" v="Arthur Street"/>
    <tag k="oneway" v="yes"/>
  </way>
  <way id="4577988" version="6" timestamp="2010-08-17T11:06:22Z" uid="7617" user="Franc" changeset="5516696">
    <nd ref="15194903"/>
    <nd ref="28914477"/>
    <nd ref="28914478"/>
    <nd ref="570109208"/>
    <nd ref="600382319"/>
    <nd ref="600382321"/>
    <nd ref="864641463"/>
    <tag k="highway" v="residential"/>
    <tag k="maxspeed" v="50"/>
    <tag k="maxspeed:source" v="default residential speed limit in Australia"/>
    <tag k="name" v="Arthur Street"/>
    <tag k="oneway" v="yes"/>
  </way>
  <way id="4577988" version="7" timestamp="2011-03-13T03:06:52Z" uid="7617" user="Franc" changeset="7540475">
    <nd ref="15194903"/>
    <nd ref="1199570922"/>
    <nd ref="28914477"/>
    <nd ref="28914478"/>
    <nd ref="570109208"/>
    <nd ref="600382319"/>
    <nd ref="600382321"/>
    <nd ref="864641463"/>
    <tag k="highway" v="residential"/>
    <tag k="maxspeed" v="50"/>
    <tag k="maxspeed:source" v="default residential speed limit in Australia"/>
    <tag k="name" v="Arthur Street"/>
    <tag k="oneway" v="yes"/>
  </way>
  <way id="4577988" version="8" timestamp="2011-04-24T01:34:45Z" uid="7617" user="Franc" changeset="7948779">
    <nd ref="15194903"/>
    <nd ref="1199570922"/>
    <nd ref="28914477"/>
    <nd ref="1257470109"/>
    <nd ref="28914478"/>
    <nd ref="570109208"/>
    <nd ref="600382319"/>
    <nd ref="600382321"/>
    <nd ref="864641463"/>
    <tag k="highway" v="residential"/>
    <tag k="maxspeed" v="50"/>
    <tag k="maxspeed:source" v="default residential speed limit in Australia"/>
    <tag k="name" v="Arthur Street"/>
    <tag k="oneway" v="yes"/>
  </way>
  <way id="4577989" version="1" timestamp="2007-06-17T08:01:33Z" uid="7617" user="Franc" changeset="100271">
    <nd ref="28914479"/>
    <nd ref="28914480"/>
    <nd ref="28914481"/>
    <nd ref="29376109"/>
    <tag k="abutters" v="residential"/>
    <tag k="created_by" v="JOSM"/>
    <tag k="highway" v="residential"/>
    <tag k="name" v="Francis Street"/>
  </way>
  <way id="4577989" version="2" timestamp="2009-12-02T05:37:33Z" uid="30201" user="rrankin" changeset="3269534">
    <nd ref="28914479"/>
    <nd ref="28914480"/>
    <nd ref="28914481"/>
    <nd ref="29376109"/>
    <tag k="highway" v="residential"/>
    <tag k="name" v="Francis Street"/>
  </way>
  <way id="4577989" version="3" timestamp="2010-07-08T02:54:48Z" uid="74617" user="JohnSmith" changeset="5163091">
    <nd ref="28914479"/>
    <nd ref="28914480"/>
    <nd ref="28914481"/>
    <nd ref="29376109"/>
    <tag k="highway" v="residential"/>
    <tag k="maxspeed" v="50"/>
    <tag k="maxspeed:source" v="default residential speed limit in Australia"/>
    <tag k="name" v="Francis Street"/>
  </way>
  <way id="4577989" version="4" timestamp="2010-08-17T11:06:23Z" uid="7617" user="Franc" changeset="5516696">
    <nd ref="28914479"/>
    <nd ref="864641459"/>
    <nd ref="28914480"/>
    <nd ref="864641457"/>
    <tag k="highway" v="residential"/>
    <tag k="maxspeed" v="50"/>
    <tag k="maxspeed:source" v="default residential speed limit in Australia"/>
    <tag k="name" v="Francis Street"/>
    <tag k="restriction" v="school_zone"/>
  </way>
  <way id="4577990" version="1" timestamp="2007-06-17T08:01:36Z" uid="7617" user="Franc" changeset="100271">
    <nd ref="28914481"/>
    <nd ref="28914477"/>
    <tag k="abutters" v="residential"/>
    <tag k="created_by" v="JOSM"/>
    <tag k="highway" v="residential"/>
    <tag k="name" v="Anne Street"/>
  </way>
  <way id="4577990" version="2" timestamp="2009-12-02T05:37:33Z" uid="30201" user="rrankin" changeset="3269534">
    <nd ref="28914481"/>
    <nd ref="28914477"/>
    <tag k="highway" v="residential"/>
    <tag k="name" v="Anne Street"/>
  </way>
  <way id="4577990" version="3" timestamp="2010-07-08T02:55:43Z" uid="74617" user="JohnSmith" changeset="5163091">
    <nd ref="28914481"/>
    <nd ref="28914477"/>
    <tag k="highway" v="residential"/>
    <tag k="maxspeed" v="50"/>
    <tag k="maxspeed:source" v="default residential speed limit in Australia"/>
    <tag k="name" v="Anne Street"/>
  </way>
  <way id="4577991" version="1" timestamp="2007-06-17T08:01:36Z" uid="7617" user="Franc" changeset="100271">
    <nd ref="28914482"/>
    <nd ref="28914484"/>
    <tag k="abutters" v="residential"/>
    <tag k="created_by" v="JOSM"/>
    <tag k="highway" v="residential"/>
    <tag k="name" v="Albion Street"/>
  </way>
  <way id="4577991" version="2" timestamp="2009-11-24T19:26:27Z" uid="7617" user="Franc" changeset="3206945">
    <nd ref="28914482"/>
    <nd ref="570109218"/>
    <nd ref="28914484"/>
    <tag k="abutters" v="residential"/>
    <tag k="highway" v="residential"/>
    <tag k="name" v="Albion Street"/>
  </way>
  <way id="4577991" version="3" timestamp="2009-12-02T05:37:35Z" uid="30201" user="rrankin" changeset="3269534">
    <nd ref="28914482"/>
    <nd ref="570109218"/>
    <nd ref="28914484"/>
    <tag k="highway" v="residential"/>
    <tag k="name" v="Albion Street"/>
  </way>
  <way id="4577991" version="4" timestamp="2010-07-08T02:53:38Z" uid="74617" user="JohnSmith" changeset="5163091">
    <nd ref="28914482"/>
    <nd ref="570109218"/>
    <nd ref="28914484"/>
    <tag k="highway" v="residential"/>
    <tag k="maxspeed" v="50"/>
    <tag k="maxspeed:source" v="default residential speed limit in Australia"/>
    <tag k="name" v="Albion Street"/>
  </way>
  <way id="4577993" version="1" timestamp="2007-06-19T12:33:01Z" uid="7617" user="Franc" changeset="103752">
    <nd ref="29387505"/>
    <nd ref="28914484"/>
    <nd ref="28914485"/>
    <nd ref="28914483"/>
    <tag k="abutters" v="residential"/>
    <tag k="created_by" v="JOSM"/>
    <tag k="highway" v="residential"/>
    <tag k="name" v="Fletcher Street"/>
  </way>
  <way id="4577993" version="2" timestamp="2008-02-19T09:45:07Z" uid="7617" user="Franc" changeset="158686">
    <nd ref="29387505"/>
    <nd ref="28914484"/>
    <nd ref="28914485"/>
    <tag k="abutters" v="residential"/>
    <tag k="created_by" v="JOSM"/>
    <tag k="highway" v="residential"/>
    <tag k="name" v="Fletcher Street"/>
  </way>
  <way id="4577993" version="3" timestamp="2009-12-02T05:37:35Z" uid="30201" user="rrankin" changeset="3269534">
    <nd ref="29387505"/>
    <nd ref="28914484"/>
    <nd ref="28914485"/>
    <tag k="highway" v="residential"/>
    <tag k="name" v="Fletcher Street"/>
  </way>
  <way id="4577993" version="4" timestamp="2010-07-08T02:54:21Z" uid="74617" user="JohnSmith" changeset="5163091">
    <nd ref="29387505"/>
    <nd ref="28914484"/>
    <nd ref="28914485"/>
    <tag k="highway" v="residential"/>
    <tag k="maxspeed" v="50"/>
    <tag k="maxspeed:source" v="default residential speed limit in Australia"/>
    <tag k="name" v="Fletcher Street"/>
  </way>
  <way id="4577993" version="5" timestamp="2011-04-09T13:53:09Z" uid="7617" user="Franc" changeset="7813520">
    <nd ref="29387505"/>
    <nd ref="28914484"/>
    <nd ref="1238575959"/>
    <tag k="highway" v="residential"/>
    <tag k="maxspeed" v="50"/>
    <tag k="maxspeed:source" v="default residential speed limit in Australia"/>
    <tag k="name" v="Fletcher Street"/>
    <tag k="restriction" v="school_zone"/>
  </way>
  <way id="4577995" version="1" timestamp="2007-05-31T02:03:53Z" uid="7617" user="Franc" changeset="73934">
    <nd ref="28448544"/>
    <nd ref="28914486"/>
    <tag k="abutters" v="residential"/>
    <tag k="created_by" v="JOSM"/>
    <tag k="highway" v="residential"/>
    <tag k="name" v="Moncur Street"/>
  </way>
  <way id="4577995" version="3" timestamp="2009-12-02T22:58:10Z" uid="30201" user="rrankin" changeset="3276441">
    <nd ref="28448544"/>
    <nd ref="28914486"/>
    <tag k="highway" v="residential"/>
    <tag k="lcn_ref" v="L9"/>
    <tag k="name" v="Moncur Street"/>
  </way>
  <way id="4577995" version="4" timestamp="2010-07-08T02:53:14Z" uid="74617" user="JohnSmith" changeset="5163091">
    <nd ref="28448544"/>
    <nd ref="28914486"/>
    <tag k="highway" v="residential"/>
    <tag k="lcn_ref" v="L9"/>
    <tag k="maxspeed" v="50"/>
    <tag k="maxspeed:source" v="default residential speed limit in Australia"/>
    <tag k="name" v="Moncur Street"/>
  </way>
  <way id="4577996" version="1" timestamp="2007-05-30T02:29:23Z" uid="7617" user="Franc" changeset="72513">
    <nd ref="28448550"/>
    <nd ref="28914487"/>
    <tag k="abutters" v="residential"/>
    <tag k="created_by" v="JOSM"/>
    <tag k="highway" v="residential"/>
    <tag k="name" v="Jersey Street"/>
  </way>
  <way id="4577996" version="2" timestamp="2009-12-02T22:58:09Z" uid="30201" user="rrankin" changeset="3276441">
    <nd ref="28448550"/>
    <nd ref="28914487"/>
    <tag k="highway" v="residential"/>
    <tag k="name" v="Jersey Street"/>
  </way>
  <way id="4577996" version="3" timestamp="2010-07-08T02:53:23Z" uid="74617" user="JohnSmith" changeset="5163091">
    <nd ref="28448550"/>
    <nd ref="28914487"/>
    <tag k="highway" v="residential"/>
    <tag k="maxspeed" v="50"/>
    <tag k="maxspeed:source" v="default residential speed limit in Australia"/>
    <tag k="name" v="Jersey Street"/>
  </way>
</osm>
