<?xml version='1.0' encoding='UTF-8'?>
<osm version="0.6" generator="libosmium/2.20.0">
  <way id="4611489" version="4" timestamp="2009-10-29T19:40:25Z" uid="36809" user="pfoten_weg_!_" changeset="2983914">
    <nd ref="28322861"/>
    <nd ref="29207022"/>
    <nd ref="282474354"/>
    <nd ref="282474355"/>
    <nd ref="282474356"/>
    <nd ref="282474357"/>
    <nd ref="282474358"/>
    <nd ref="282474359"/>
    <nd ref="323132279"/>
    <nd ref="282474360"/>
    <nd ref="282474361"/>
    <nd ref="282474362"/>
    <nd ref="282474363"/>
    <nd ref="282474364"/>
    <nd ref="282474365"/>
    <nd ref="282474366"/>
    <nd ref="282474367"/>
    <nd ref="282474369"/>
    <nd ref="278748856"/>
    <tag k="highway" v="unclassified"/>
    <tag k="name" v="Seligenwörden"/>
  </way>
  <way id="4611492" version="4" timestamp="2009-10-29T19:43:25Z" uid="36809" user="pfoten_weg_!_" changeset="2983914">
    <nd ref="29207127"/>
    <nd ref="29207097"/>
    <nd ref="29207102"/>
    <nd ref="29207108"/>
    <nd ref="29207113"/>
    <nd ref="276662000"/>
    <nd ref="29207106"/>
    <nd ref="30088427"/>
    <nd ref="29207134"/>
    <nd ref="29207127"/>
    <tag k="highway" v="secondary"/>
    <tag k="name" v="Auf der Heide"/>
    <tag k="oneway" v="yes"/>
    <tag k="osmarender:renderName" v="no"/>
  </way>
  <way id="4611541" version="1" timestamp="2007-05-17T17:59:15Z" uid="5871" user="Banny" changeset="54781">
    <nd ref="29207484"/>
    <nd ref="29207483"/>
    <nd ref="25721362"/>
    <nd ref="25721356"/>
    <tag k="created_by" v="JOSM"/>
    <tag k="highway" v="residential"/>
    <tag k="name" v="Hüttenfeld"/>
  </way>
  <way id="4611541" version="2" timestamp="2007-11-30T08:48:07Z" uid="5871" user="Banny" changeset="651513">
    <nd ref="29207484"/>
    <nd ref="29207483"/>
    <nd ref="25721362"/>
    <nd ref="25721356"/>
    <tag k="created_by" v="JOSM"/>
    <tag k="highway" v="residential"/>
    <tag k="maxspeed" v="30"/>
    <tag k="name" v="Hüttenfeld"/>
  </way>
  <way id="4611542" version="1" timestamp="2007-05-17T17:59:15Z" uid="5871" user="Banny" changeset="54781">
    <nd ref="25721356"/>
    <nd ref="25721353"/>
    <tag k="created_by" v="JOSM"/>
    <tag k="highway" v="residential"/>
    <tag k="name" v="Wilhelm-Ostwald-Straße"/>
  </way>
  <way id="4611542" version="2" timestamp="2007-11-30T08:48:07Z" uid="5871" user="Banny" changeset="651513">
    <nd ref="25721356"/>
    <nd ref="25721353"/>
    <tag k="created_by" v="JOSM"/>
    <tag k="highway" v="residential"/>
    <tag k="maxspeed" v="30"/>
    <tag k="name" v="Wilhelm-Ostwald-Straße"/>
  </way>
  <way id="4611543" version="1" timestamp="2007-05-17T17:59:15Z" uid="5871" user="Banny" changeset="54781">
    <nd ref="25721374"/>
    <nd ref="29207409"/>
    <nd ref="25721369"/>
    <nd ref="25721351"/>
    <tag k="created_by" v="JOSM"/>
    <tag k="highway" v="residential"/>
    <tag k="name" v="Virchowstraße"/>
  </way>
  <way id="4611543" version="2" timestamp="2007-11-30T08:48:07Z" uid="5871" user="Banny" changeset="651513">
    <nd ref="25721374"/>
    <nd ref="29207409"/>
    <nd ref="25721369"/>
    <nd ref="25721351"/>
    <tag k="created_by" v="JOSM"/>
    <tag k="highway" v="residential"/>
    <tag k="maxspeed" v="30"/>
    <tag k="name" v="Virchowstraße"/>
  </way>
  <way id="4611544" version="1" timestamp="2007-05-17T17:59:16Z" uid="5871" user="Banny" changeset="54781">
    <nd ref="29207409"/>
    <nd ref="29207482"/>
    <tag k="bicycle" v="true"/>
    <tag k="created_by" v="JOSM"/>
    <tag k="highway" v="footway"/>
    <tag k="name" v="Virchowstraße"/>
  </way>
  <way id="4611545" version="1" timestamp="2007-05-17T17:59:16Z" uid="5871" user="Banny" changeset="54781">
    <nd ref="25721368"/>
    <nd ref="25721370"/>
    <nd ref="25721373"/>
    <tag k="created_by" v="JOSM"/>
    <tag k="highway" v="residential"/>
    <tag k="name" v="Ernst-Moritz-Arndt-Straße"/>
  </way>
  <way id="4611545" version="2" timestamp="2007-11-30T08:48:06Z" uid="5871" user="Banny" changeset="651513">
    <nd ref="25721368"/>
    <nd ref="25721370"/>
    <nd ref="25721373"/>
    <tag k="created_by" v="JOSM"/>
    <tag k="highway" v="residential"/>
    <tag k="maxspeed" v="30"/>
    <tag k="name" v="Ernst-Moritz-Arndt-Straße"/>
  </way>
  <way id="4611546" version="1" timestamp="2007-05-17T17:59:16Z" uid="5871" user="Banny" changeset="54781">
    <nd ref="25721375"/>
    <nd ref="25721372"/>
    <nd ref="25721371"/>
    <tag k="created_by" v="JOSM"/>
    <tag k="highway" v="residential"/>
    <tag k="name" v="Menzelstraße"/>
  </way>
  <way id="4611546" version="2" timestamp="2007-11-30T08:48:06Z" uid="5871" user="Banny" changeset="651513">
    <nd ref="25721375"/>
    <nd ref="25721372"/>
    <nd ref="25721371"/>
    <tag k="created_by" v="JOSM"/>
    <tag k="highway" v="residential"/>
    <tag k="maxspeed" v="30"/>
    <tag k="name" v="Menzelstraße"/>
  </way>
  <way id="4611547" version="1" timestamp="2007-05-17T17:59:17Z" uid="5871" user="Banny" changeset="54781">
    <nd ref="25721378"/>
    <nd ref="25721397"/>
    <nd ref="25721395"/>
    <nd ref="25721394"/>
    <tag k="created_by" v="JOSM"/>
    <tag k="highway" v="residential"/>
    <tag k="name" v="Eichendorffstraße"/>
  </way>
  <way id="4611547" version="2" timestamp="2007-11-30T08:48:06Z" uid="5871" user="Banny" changeset="651513">
    <nd ref="25721378"/>
    <nd ref="25721397"/>
    <nd ref="25721395"/>
    <nd ref="25721394"/>
    <tag k="created_by" v="JOSM"/>
    <tag k="highway" v="residential"/>
    <tag k="maxspeed" v="30"/>
    <tag k="name" v="Eichendorffstraße"/>
  </way>
  <way id="4611548" version="1" timestamp="2007-05-17T17:59:17Z" uid="5871" user="Banny" changeset="54781">
    <nd ref="25721379"/>
    <nd ref="29207485"/>
    <tag k="created_by" v="JOSM"/>
    <tag k="highway" v="residential"/>
    <tag k="name" v="Eichendorffstraße"/>
  </way>
  <way id="4611549" version="1" timestamp="2007-05-18T07:33:52Z" uid="5871" user="Banny" changeset="55554">
    <nd ref="29207485"/>
    <nd ref="25721378"/>
    <tag k="bridge" v="true"/>
    <tag k="created_by" v="JOSM"/>
    <tag k="highway" v="residential"/>
    <tag k="layer" v="1"/>
    <tag k="name" v="Eichendorffstraße"/>
  </way>
  <way id="4611550" version="1" timestamp="2007-05-17T17:59:18Z" uid="5871" user="Banny" changeset="54781">
    <nd ref="29131909"/>
    <nd ref="25721398"/>
    <tag k="bicycle" v="true"/>
    <tag k="bridge" v="true"/>
    <tag k="created_by" v="JOSM"/>
    <tag k="highway" v="footway"/>
    <tag k="layer" v="1"/>
  </way>
  <way id="4611551" version="1" timestamp="2007-05-18T07:33:53Z" uid="5871" user="Banny" changeset="55554">
    <nd ref="29207516"/>
    <nd ref="29207515"/>
    <nd ref="29207514"/>
    <nd ref="29182157"/>
    <nd ref="29182156"/>
    <nd ref="29207499"/>
    <nd ref="29207498"/>
    <nd ref="29207497"/>
    <nd ref="29207496"/>
    <nd ref="29264229"/>
    <nd ref="29207493"/>
    <nd ref="29207492"/>
    <nd ref="29207494"/>
    <nd ref="29207495"/>
    <nd ref="29207487"/>
    <nd ref="29207486"/>
    <nd ref="29207488"/>
    <nd ref="29207489"/>
    <nd ref="29207490"/>
    <nd ref="29207491"/>
    <tag k="created_by" v="JOSM"/>
    <tag k="waterway" v="stream"/>
  </way>
  <way id="4611551" version="2" timestamp="2008-02-10T18:28:50Z" uid="5871" user="Banny" changeset="94230">
    <nd ref="29207516"/>
    <nd ref="29207515"/>
    <nd ref="29207514"/>
    <nd ref="29182157"/>
    <nd ref="29182156"/>
    <nd ref="29207499"/>
    <nd ref="29207498"/>
    <nd ref="29207497"/>
    <nd ref="29207496"/>
    <nd ref="29264229"/>
    <nd ref="29207493"/>
    <nd ref="29207492"/>
    <nd ref="29207494"/>
    <nd ref="29207495"/>
    <nd ref="29207487"/>
    <nd ref="29207486"/>
    <nd ref="29207488"/>
    <nd ref="29207489"/>
    <nd ref="29207490"/>
    <nd ref="29207491"/>
    <tag k="created_by" v="JOSM"/>
    <tag k="waterway" v="stream"/>
  </way>
  <way id="4611553" version="1" timestamp="2007-05-17T17:59:19Z" uid="5871" user="Banny" changeset="54781">
    <nd ref="29207483"/>
    <nd ref="25721379"/>
    <nd ref="25721398"/>
    <tag k="created_by" v="JOSM"/>
    <tag k="highway" v="residential"/>
    <tag k="name" v="In der Taufe"/>
  </way>
  <way id="4611553" version="2" timestamp="2007-11-30T08:48:07Z" uid="5871" user="Banny" changeset="651513">
    <nd ref="29207483"/>
    <nd ref="25721379"/>
    <nd ref="25721398"/>
    <tag k="created_by" v="JOSM"/>
    <tag k="highway" v="residential"/>
    <tag k="maxspeed" v="30"/>
    <tag k="name" v="In der Taufe"/>
  </way>
  <way id="4611554" version="1" timestamp="2007-07-05T14:09:07Z" uid="5871" user="Banny" changeset="128125">
    <nd ref="29131916"/>
    <nd ref="29181909"/>
    <tag k="bicycle" v="true"/>
    <tag k="bridge" v="true"/>
    <tag k="created_by" v="JOSM"/>
    <tag k="highway" v="footway"/>
    <tag k="layer" v="1"/>
  </way>
  <way id="4611555" version="1" timestamp="2007-05-17T17:59:19Z" uid="5871" user="Banny" changeset="54781">
    <nd ref="29207500"/>
    <nd ref="29207501"/>
    <tag k="bicycle" v="true"/>
    <tag k="bridge" v="true"/>
    <tag k="created_by" v="JOSM"/>
    <tag k="highway" v="footway"/>
    <tag k="layer" v="1"/>
  </way>
  <way id="4611556" version="1" timestamp="2007-05-17T17:59:19Z" uid="5871" user="Banny" changeset="54781">
    <nd ref="29207501"/>
    <nd ref="29207510"/>
    <nd ref="29207504"/>
    <nd ref="29207511"/>
    <nd ref="29207505"/>
    <nd ref="29207512"/>
    <tag k="bicycle" v="true"/>
    <tag k="created_by" v="JOSM"/>
    <tag k="highway" v="footway"/>
  </way>
  <way id="4611557" version="1" timestamp="2007-05-17T17:59:19Z" uid="5871" user="Banny" changeset="54781">
    <nd ref="29207504"/>
    <nd ref="29207506"/>
    <tag k="bicycle" v="true"/>
    <tag k="created_by" v="JOSM"/>
    <tag k="highway" v="footway"/>
  </way>
  <way id="4611558" version="1" timestamp="2007-05-17T17:59:20Z" uid="5871" user="Banny" changeset="54781">
    <nd ref="25721366"/>
    <nd ref="28968812"/>
    <tag k="created_by" v="JOSM"/>
    <tag k="highway" v="residential"/>
    <tag k="name" v="Erikastraße"/>
  </way>
  <way id="4611558" version="2" timestamp="2007-11-30T08:48:08Z" uid="5871" user="Banny" changeset="651513">
    <nd ref="25721366"/>
    <nd ref="28968812"/>
    <tag k="created_by" v="JOSM"/>
    <tag k="highway" v="residential"/>
    <tag k="maxspeed" v="30"/>
    <tag k="name" v="Erikastraße"/>
  </way>
  <way id="4611559" version="1" timestamp="2007-05-18T11:53:05Z" uid="5871" user="Banny" changeset="55720">
    <nd ref="29131930"/>
    <nd ref="29131929"/>
    <nd ref="29131923"/>
    <tag k="created_by" v="JOSM"/>
    <tag k="highway" v="residential"/>
    <tag k="name" v="Wittenbergstraße"/>
  </way>
  <way id="4611559" version="2" timestamp="2007-11-30T08:48:08Z" uid="5871" user="Banny" changeset="651513">
    <nd ref="29131930"/>
    <nd ref="29131929"/>
    <nd ref="29131923"/>
    <tag k="created_by" v="JOSM"/>
    <tag k="highway" v="residential"/>
    <tag k="maxspeed" v="30"/>
    <tag k="name" v="Wittenbergstraße"/>
  </way>
  <way id="4611559" version="3" timestamp="2009-03-13T17:09:39Z" uid="5871" user="Banny" changeset="800480">
    <nd ref="29131930"/>
    <nd ref="359975602"/>
    <nd ref="29131929"/>
    <nd ref="29131923"/>
    <tag k="created_by" v="JOSM"/>
    <tag k="highway" v="residential"/>
    <tag k="maxspeed" v="30"/>
    <tag k="name" v="Wittenbergstraße"/>
  </way>
  <way id="4611560" version="1" timestamp="2007-05-17T17:59:20Z" uid="5871" user="Banny" changeset="54781">
    <nd ref="29131924"/>
    <nd ref="29131926"/>
    <nd ref="29131927"/>
    <tag k="created_by" v="JOSM"/>
    <tag k="highway" v="residential"/>
    <tag k="name" v="Paul-Gerhardt-Straße"/>
  </way>
  <way id="4611560" version="2" timestamp="2007-11-30T08:48:07Z" uid="5871" user="Banny" changeset="651513">
    <nd ref="29131924"/>
    <nd ref="29131926"/>
    <nd ref="29131927"/>
    <tag k="created_by" v="JOSM"/>
    <tag k="highway" v="residential"/>
    <tag k="maxspeed" v="30"/>
    <tag k="name" v="Paul-Gerhardt-Straße"/>
  </way>
  <way id="4611591" version="1" timestamp="2007-05-17T18:11:30Z" uid="5871" user="Banny" changeset="54781">
    <nd ref="29131927"/>
    <nd ref="29131928"/>
    <tag k="bicycle" v="true"/>
    <tag k="created_by" v="JOSM"/>
    <tag k="highway" v="footway"/>
    <tag k="name" v="Paul-Gerhardt-Straße"/>
  </way>
  <way id="4611592" version="1" timestamp="2007-05-17T18:11:31Z" uid="5871" user="Banny" changeset="54781">
    <nd ref="29131928"/>
    <nd ref="29131931"/>
    <tag k="created_by" v="JOSM"/>
    <tag k="highway" v="residential"/>
    <tag k="name" v="Paul-Gerhardt-Straße"/>
  </way>
  <way id="4611592" version="2" timestamp="2007-11-30T08:48:14Z" uid="5871" user="Banny" changeset="651513">
    <nd ref="29131928"/>
    <nd ref="29131931"/>
    <tag k="created_by" v="JOSM"/>
    <tag k="highway" v="residential"/>
    <tag k="maxspeed" v="30"/>
    <tag k="name" v="Paul-Gerhardt-Straße"/>
  </way>
  <way id="4611593" version="1" timestamp="2007-05-17T18:11:31Z" uid="5871" user="Banny" changeset="54781">
    <nd ref="25704738"/>
    <nd ref="25704741"/>
    <nd ref="25704746"/>
    <nd ref="25704747"/>
    <nd ref="25704748"/>
    <nd ref="29207542"/>
    <nd ref="25704749"/>
    <nd ref="25704750"/>
    <nd ref="25704751"/>
    <tag k="created_by" v="JOSM"/>
    <tag k="highway" v="residential"/>
    <tag k="name" v="Wickenpfädchen"/>
  </way>
  <way id="4611593" version="2" timestamp="2007-11-28T21:38:01Z" uid="5871" user="Banny" changeset="641167">
    <nd ref="25704738"/>
    <nd ref="25704741"/>
    <nd ref="25704746"/>
    <nd ref="25704747"/>
    <nd ref="25704748"/>
    <nd ref="29207542"/>
    <nd ref="25704749"/>
    <nd ref="25704750"/>
    <nd ref="25704751"/>
    <tag k="created_by" v="JOSM"/>
    <tag k="highway" v="residential"/>
    <tag k="maxspeed" v="30"/>
    <tag k="name" v="Wickenpfädchen"/>
  </way>
  <way id="4611593" version="3" timestamp="2009-01-16T15:49:39Z" uid="5871" user="Banny" changeset="795567">
    <nd ref="25704738"/>
    <nd ref="25704741"/>
    <nd ref="25704746"/>
    <nd ref="25704747"/>
    <nd ref="25704748"/>
    <nd ref="29207542"/>
    <nd ref="25704749"/>
    <nd ref="25704750"/>
    <nd ref="332417000"/>
    <nd ref="25704751"/>
    <tag k="created_by" v="JOSM"/>
    <tag k="highway" v="residential"/>
    <tag k="maxspeed" v="30"/>
    <tag k="name" v="Wickenpfädchen"/>
  </way>
  <way id="4611594" version="1" timestamp="2007-05-17T18:11:31Z" uid="5871" user="Banny" changeset="54781">
    <nd ref="25704746"/>
    <nd ref="29207534"/>
    <nd ref="25704743"/>
    <nd ref="25704744"/>
    <nd ref="25704745"/>
    <tag k="created_by" v="JOSM"/>
    <tag k="highway" v="residential"/>
    <tag k="name" v="Grometstraße"/>
  </way>
  <way id="4611594" version="2" timestamp="2007-11-28T21:38:01Z" uid="5871" user="Banny" changeset="641167">
    <nd ref="25704746"/>
    <nd ref="29207534"/>
    <nd ref="25704743"/>
    <nd ref="25704744"/>
    <nd ref="25704745"/>
    <tag k="created_by" v="JOSM"/>
    <tag k="highway" v="residential"/>
    <tag k="maxspeed" v="30"/>
    <tag k="name" v="Grometstraße"/>
  </way>
  <way id="4611595" version="1" timestamp="2007-05-18T11:51:43Z" uid="5871" user="Banny" changeset="55720">
    <nd ref="29207534"/>
    <nd ref="29207541"/>
    <nd ref="29207542"/>
    <tag k="bicycle" v="true"/>
    <tag k="created_by" v="JOSM"/>
    <tag k="highway" v="footway"/>
    <tag k="name" v="Grometstraße"/>
  </way>
  <way id="4611596" version="1" timestamp="2007-05-17T18:11:32Z" uid="5871" user="Banny" changeset="54781">
    <nd ref="25704742"/>
    <nd ref="29207540"/>
    <nd ref="29207534"/>
    <tag k="bicycle" v="true"/>
    <tag k="created_by" v="JOSM"/>
    <tag k="highway" v="footway"/>
    <tag k="name" v="Grometstraße"/>
  </way>
  <way id="4611597" version="1" timestamp="2007-05-17T18:11:32Z" uid="5871" user="Banny" changeset="54781">
    <nd ref="25704741"/>
    <nd ref="29207537"/>
    <nd ref="25704742"/>
    <tag k="created_by" v="JOSM"/>
    <tag k="highway" v="residential"/>
    <tag k="name" v="Wickenpfädchen"/>
  </way>
  <way id="4611597" version="2" timestamp="2007-11-28T21:38:02Z" uid="5871" user="Banny" changeset="641167">
    <nd ref="25704741"/>
    <nd ref="29207537"/>
    <nd ref="25704742"/>
    <tag k="created_by" v="JOSM"/>
    <tag k="highway" v="residential"/>
    <tag k="maxspeed" v="30"/>
    <tag k="name" v="Wickenpfädchen"/>
  </way>
  <way id="4611598" version="1" timestamp="2007-05-17T18:11:32Z" uid="5871" user="Banny" changeset="54781">
    <nd ref="29207535"/>
    <nd ref="29207537"/>
    <tag k="bicycle" v="true"/>
    <tag k="created_by" v="JOSM"/>
    <tag k="highway" v="footway"/>
    <tag k="name" v="Wickenpfädchen"/>
  </way>
  <way id="4611599" version="1" timestamp="2007-05-17T18:11:32Z" uid="5871" user="Banny" changeset="54781">
    <nd ref="25704742"/>
    <nd ref="29207536"/>
    <tag k="bicycle" v="true"/>
    <tag k="created_by" v="JOSM"/>
    <tag k="highway" v="footway"/>
    <tag k="name" v="Wickenpfädchen"/>
  </way>
  <way id="4611600" version="1" timestamp="2007-05-17T18:11:33Z" uid="5871" user="Banny" changeset="54781">
    <nd ref="25704730"/>
    <nd ref="25704731"/>
    <nd ref="25704732"/>
    <nd ref="25704740"/>
    <nd ref="25704739"/>
    <nd ref="25704737"/>
    <nd ref="25704738"/>
    <nd ref="29207535"/>
    <nd ref="29207536"/>
    <nd ref="25704754"/>
    <tag k="created_by" v="JOSM"/>
    <tag k="highway" v="residential"/>
    <tag k="name" v="Pippelstein"/>
  </way>
  <way id="4611600" version="2" timestamp="2007-11-28T21:38:00Z" uid="5871" user="Banny" changeset="641167">
    <nd ref="25704730"/>
    <nd ref="25704731"/>
    <nd ref="25704732"/>
    <nd ref="25704740"/>
    <nd ref="25704739"/>
    <nd ref="25704737"/>
    <nd ref="25704738"/>
    <nd ref="29207535"/>
    <nd ref="29207536"/>
    <nd ref="25704754"/>
    <tag k="created_by" v="JOSM"/>
    <tag k="highway" v="residential"/>
    <tag k="maxspeed" v="30"/>
    <tag k="name" v="Pippelstein"/>
  </way>
  <way id="4611601" version="1" timestamp="2007-05-17T18:11:33Z" uid="5871" user="Banny" changeset="54781">
    <nd ref="25704738"/>
    <nd ref="25704755"/>
    <nd ref="25704753"/>
    <tag k="created_by" v="JOSM"/>
    <tag k="highway" v="residential"/>
    <tag k="name" v="Pippelstein"/>
  </way>
  <way id="4611602" version="1" timestamp="2007-05-17T18:11:33Z" uid="5871" user="Banny" changeset="54781">
    <nd ref="25704723"/>
    <nd ref="29207530"/>
    <nd ref="29207529"/>
    <nd ref="25704725"/>
    <tag k="bicycle" v="true"/>
    <tag k="created_by" v="JOSM"/>
    <tag k="highway" v="footway"/>
    <tag k="name" v="Buchweizenweg"/>
  </way>
  <way id="4611603" version="1" timestamp="2007-05-17T18:11:33Z" uid="5871" user="Banny" changeset="54781">
    <nd ref="29207531"/>
    <nd ref="29207532"/>
    <nd ref="25704750"/>
    <tag k="bicycle" v="true"/>
    <tag k="created_by" v="JOSM"/>
    <tag k="highway" v="footway"/>
  </way>
  <way id="4611604" version="1" timestamp="2007-05-17T18:11:34Z" uid="5871" user="Banny" changeset="54781">
    <nd ref="29207530"/>
    <nd ref="29207531"/>
    <tag k="bicycle" v="true"/>
    <tag k="bridge" v="true"/>
    <tag k="created_by" v="JOSM"/>
    <tag k="highway" v="footway"/>
    <tag k="layer" v="1"/>
  </way>
  <way id="4611605" version="1" timestamp="2007-08-18T17:20:35Z" uid="5871" user="Banny" changeset="228179">
    <nd ref="34960105"/>
    <nd ref="34960110"/>
    <nd ref="34960106"/>
    <nd ref="34960107"/>
    <nd ref="34960108"/>
    <nd ref="34960109"/>
    <nd ref="29949883"/>
    <nd ref="29949881"/>
    <nd ref="29949879"/>
    <nd ref="29949877"/>
    <nd ref="29949875"/>
    <nd ref="29949873"/>
    <nd ref="28301424"/>
    <nd ref="28301422"/>
    <nd ref="28301421"/>
    <nd ref="28301419"/>
    <nd ref="28301418"/>
    <nd ref="28301417"/>
    <nd ref="28301416"/>
    <nd ref="28301415"/>
    <nd ref="28301413"/>
    <nd ref="29207711"/>
    <nd ref="28301411"/>
    <nd ref="29207544"/>
    <tag k="created_by" v="JOSM"/>
    <tag k="railway" v="tram"/>
  </way>
  <way id="4611605" version="2" timestamp="2007-10-11T13:20:45Z" uid="5871" user="Banny" changeset="100946"/>
  <way id="4611606" version="1" timestamp="2007-05-17T18:11:34Z" uid="5871" user="Banny" changeset="54781">
    <nd ref="29207544"/>
    <nd ref="29207543"/>
    <tag k="bridge" v="true"/>
    <tag k="created_by" v="JOSM"/>
    <tag k="layer" v="1"/>
    <tag k="railway" v="tram"/>
  </way>
  <way id="4611607" version="1" timestamp="2007-05-17T18:11:35Z" uid="5871" user="Banny" changeset="54781">
    <nd ref="25708261"/>
    <nd ref="25708260"/>
    <tag k="created_by" v="JOSM"/>
    <tag k="highway" v="residential"/>
    <tag k="name" v="Am Ufer"/>
  </way>
  <way id="4611607" version="2" timestamp="2007-11-30T08:48:13Z" uid="5871" user="Banny" changeset="651513">
    <nd ref="25708261"/>
    <nd ref="25708260"/>
    <tag k="created_by" v="JOSM"/>
    <tag k="highway" v="residential"/>
    <tag k="maxspeed" v="30"/>
    <tag k="name" v="Am Ufer"/>
  </way>
  <way id="4611608" version="1" timestamp="2007-05-17T18:11:35Z" uid="5871" user="Banny" changeset="54781">
    <nd ref="25708260"/>
    <nd ref="29207555"/>
    <tag k="bridge" v="true"/>
    <tag k="created_by" v="JOSM"/>
    <tag k="highway" v="residential"/>
    <tag k="layer" v="1"/>
    <tag k="name" v="Am Ufer"/>
  </way>
  <way id="4611608" version="2" timestamp="2007-11-30T08:48:14Z" uid="5871" user="Banny" changeset="651513">
    <nd ref="25708260"/>
    <nd ref="29207555"/>
    <tag k="bridge" v="true"/>
    <tag k="created_by" v="JOSM"/>
    <tag k="highway" v="residential"/>
    <tag k="layer" v="1"/>
    <tag k="maxspeed" v="30"/>
    <tag k="name" v="Am Ufer"/>
  </way>
  <way id="4611609" version="1" timestamp="2007-07-05T14:09:08Z" uid="5871" user="Banny" changeset="128125">
    <nd ref="29207556"/>
    <nd ref="29207547"/>
    <tag k="created_by" v="JOSM"/>
    <tag k="layer" v="-1"/>
    <tag k="tunnel" v="true"/>
    <tag k="waterway" v="stream"/>
  </way>
  <way id="4611610" version="1" timestamp="2007-05-17T18:11:35Z" uid="5871" user="Banny" changeset="54781">
    <nd ref="29207559"/>
    <nd ref="29207558"/>
    <nd ref="29207557"/>
    <nd ref="29207556"/>
    <tag k="created_by" v="JOSM"/>
    <tag k="waterway" v="stream"/>
  </way>
  <way id="4611611" version="1" timestamp="2007-08-18T17:25:41Z" uid="5871" user="Banny" changeset="228179">
    <nd ref="29207560"/>
    <nd ref="29207559"/>
    <tag k="created_by" v="JOSM"/>
    <tag k="layer" v="-1"/>
    <tag k="tunnel" v="true"/>
    <tag k="waterway" v="stream"/>
  </way>
  <way id="4611612" version="1" timestamp="2007-05-17T18:11:36Z" uid="5871" user="Banny" changeset="54781">
    <nd ref="25704737"/>
    <nd ref="25704736"/>
    <tag k="created_by" v="JOSM"/>
    <tag k="highway" v="residential"/>
    <tag k="name" v="Lachsweg"/>
  </way>
  <way id="4611612" version="2" timestamp="2007-11-28T21:38:00Z" uid="5871" user="Banny" changeset="641167">
    <nd ref="25704737"/>
    <nd ref="25704736"/>
    <tag k="created_by" v="JOSM"/>
    <tag k="highway" v="residential"/>
    <tag k="maxspeed" v="30"/>
    <tag k="name" v="Lachsweg"/>
  </way>
  <way id="4611613" version="1" timestamp="2007-05-17T18:11:36Z" uid="5871" user="Banny" changeset="54781">
    <nd ref="29207538"/>
    <nd ref="29207539"/>
    <tag k="created_by" v="JOSM"/>
    <tag k="highway" v="residential"/>
    <tag k="name" v="Petriweg"/>
  </way>
  <way id="4611613" version="2" timestamp="2007-11-28T21:38:01Z" uid="5871" user="Banny" changeset="641167">
    <nd ref="29207538"/>
    <nd ref="29207539"/>
    <tag k="created_by" v="JOSM"/>
    <tag k="highway" v="residential"/>
    <tag k="maxspeed" v="30"/>
    <tag k="name" v="Petriweg"/>
  </way>
  <way id="4611636" version="1" timestamp="2007-05-17T18:30:25Z" uid="5871" user="Banny" changeset="54781">
    <nd ref="29207528"/>
    <nd ref="29207516"/>
    <nd ref="29207517"/>
    <nd ref="29207518"/>
    <nd ref="29207519"/>
    <nd ref="29207520"/>
    <nd ref="29207521"/>
    <nd ref="29207522"/>
    <nd ref="29207523"/>
    <nd ref="29207524"/>
    <nd ref="29207525"/>
    <nd ref="29207526"/>
    <nd ref="29207527"/>
    <nd ref="29207528"/>
    <tag k="created_by" v="JOSM"/>
    <tag k="natural" v="water"/>
  </way>
  <way id="4611636" version="2" timestamp="2008-02-10T18:35:44Z" uid="5871" user="Banny" changeset="94230">
    <nd ref="29207528"/>
    <nd ref="29207516"/>
    <nd ref="29207517"/>
    <nd ref="29207518"/>
    <nd ref="29207519"/>
    <nd ref="29207520"/>
    <nd ref="29207521"/>
    <nd ref="29207522"/>
    <nd ref="29207523"/>
    <nd ref="29207524"/>
    <nd ref="29207525"/>
    <nd ref="29207526"/>
    <nd ref="29207527"/>
    <nd ref="29207528"/>
    <tag k="created_by" v="JOSM"/>
    <tag k="name" v="Kahn-Weier"/>
    <tag k="natural" v="water"/>
  </way>
  <way id="4611636" version="3" timestamp="2008-02-11T18:55:48Z" uid="5871" user="Banny" changeset="100836">
    <nd ref="29207528"/>
    <nd ref="29207516"/>
    <nd ref="29207517"/>
    <nd ref="29207518"/>
    <nd ref="29207519"/>
    <nd ref="29207520"/>
    <nd ref="29207521"/>
    <nd ref="29207522"/>
    <nd ref="29207523"/>
    <nd ref="29207524"/>
    <nd ref="29207525"/>
    <nd ref="29207526"/>
    <nd ref="29207527"/>
    <nd ref="29207528"/>
    <tag k="created_by" v="JOSM"/>
    <tag k="name" v="Kahn-Weiher"/>
    <tag k="natural" v="water"/>
  </way>
  <way id="4611636" version="4" timestamp="2008-02-16T19:53:43Z" uid="5871" user="Banny" changeset="133592">
    <nd ref="29207528"/>
    <nd ref="29207516"/>
    <nd ref="29207517"/>
    <nd ref="29207518"/>
    <nd ref="29207519"/>
    <nd ref="29207520"/>
    <nd ref="29207521"/>
    <nd ref="29207522"/>
    <nd ref="29207523"/>
    <nd ref="247923262"/>
    <nd ref="29207524"/>
    <nd ref="29207525"/>
    <nd ref="29207526"/>
    <nd ref="29207527"/>
    <nd ref="29207528"/>
    <tag k="created_by" v="JOSM"/>
    <tag k="name" v="Kahnweiher"/>
    <tag k="natural" v="water"/>
  </way>
  <way id="4611637" version="1" timestamp="2007-05-17T18:30:26Z" uid="5871" user="Banny" changeset="54781">
    <nd ref="29207532"/>
    <nd ref="29207711"/>
    <nd ref="29207533"/>
    <tag k="created_by" v="JOSM"/>
    <tag k="highway" v="footway"/>
  </way>
  <way id="4611638" version="1" timestamp="2007-05-17T18:30:26Z" uid="5871" user="Banny" changeset="54781">
    <nd ref="29207712"/>
    <nd ref="28301404"/>
    <nd ref="25718975"/>
    <tag k="bicycle" v="true"/>
    <tag k="created_by" v="JOSM"/>
    <tag k="highway" v="footway"/>
  </way>
  <way id="4611639" version="1" timestamp="2007-05-17T18:30:26Z" uid="5871" user="Banny" changeset="54781">
    <nd ref="25779932"/>
    <nd ref="29207713"/>
    <nd ref="25718930"/>
    <tag k="bicycle" v="true"/>
    <tag k="created_by" v="JOSM"/>
    <tag k="highway" v="footway"/>
  </way>
  <way id="4611777" version="1" timestamp="2007-07-05T22:16:50Z" uid="6454" user="B10xxx" changeset="128807">
    <nd ref="29208254"/>
    <nd ref="29208255"/>
    <tag k="created_by" v="Potlatch alpha"/>
    <tag k="highway" v="residential"/>
    <tag k="name" v="Puttkamerstraße"/>
  </way>
</osm>
