<?xml version='1.0' encoding='UTF-8'?>
<osm version="0.6" generator="libosmium/2.20.0">
  <way id="46174169" version="2" timestamp="2010-03-28T11:31:49Z" uid="20587" user="balrog-kun" changeset="4254597">
    <nd ref="123603597"/>
    <nd ref="123603600"/>
    <tag k="highway" v="residential"/>
    <tag k="name" v="Vista del Valle Drive"/>
    <tag k="tiger:cfcc" v="A41"/>
    <tag k="tiger:county" v="Los Angeles, CA"/>
    <tag k="tiger:name_base" v="Vista del Valle"/>
    <tag k="tiger:name_type" v="Dr"/>
    <tag k="tiger:separated" v="no"/>
    <tag k="tiger:source" v="tiger_import_dch_v0.6_20070809"/>
    <tag k="tiger:tlid" v="141643928:141643856"/>
    <tag k="tiger:zip_left" v="91006"/>
    <tag k="tiger:zip_right" v="91006"/>
  </way>
  <way id="46174562" version="2" timestamp="2010-04-07T14:09:30Z" uid="20587" user="balrog-kun" changeset="4353646">
    <nd ref="588680728"/>
    <nd ref="79923663"/>
    <nd ref="588680729"/>
    <nd ref="79923610"/>
    <tag k="highway" v="primary"/>
    <tag k="name" v="Sea Wall Boulevard"/>
    <tag k="oneway" v="yes"/>
  </way>
  <way id="46174596" version="3" timestamp="2010-04-07T14:09:30Z" uid="20587" user="balrog-kun" changeset="4353646">
    <nd ref="499894877"/>
    <nd ref="499894873"/>
    <nd ref="499894868"/>
    <nd ref="499894866"/>
    <nd ref="499894864"/>
    <nd ref="499894860"/>
    <nd ref="588731598"/>
    <nd ref="499894857"/>
    <tag k="highway" v="primary"/>
    <tag k="name" v="Seawall Boulevard"/>
    <tag k="oneway" v="yes"/>
    <tag k="ref" v="FM 3005"/>
  </way>
</osm>
