<?xml version='1.0' encoding='UTF-8'?>
<osm version="0.6" generator="libosmium/2.20.0">
  <way id="46236118" version="3" timestamp="2010-02-22T18:16:17Z" uid="20587" user="balrog-kun" changeset="3945915">
    <nd ref="589803383"/>
    <nd ref="589803717"/>
    <nd ref="589803721"/>
    <tag k="highway" v="residential"/>
    <tag k="name" v="Księdza Augustyna Kordeckiego"/>
    <tag k="source" v="http://ump.waw.pl/ retrieved 11:19:07 11/17/09 (UMP-Torun/src/BYDGOSZCZ.ulice.txt)"/>
  </way>
  <way id="46236149" version="4" timestamp="2010-02-22T18:16:17Z" uid="20587" user="balrog-kun" changeset="3945915">
    <nd ref="589804015"/>
    <nd ref="589803651"/>
    <tag k="highway" v="secondary"/>
    <tag k="name" v="Marszałka Ferdinanda Focha"/>
    <tag k="oneway" v="yes"/>
    <tag k="source" v="http://ump.waw.pl/ retrieved 11:19:07 11/17/09 (UMP-Torun/src/BYDGOSZCZ.ulice.txt)"/>
  </way>
  <way id="46236154" version="4" timestamp="2010-02-22T18:16:18Z" uid="20587" user="balrog-kun" changeset="3945915">
    <nd ref="496381816"/>
    <nd ref="589803562"/>
    <nd ref="589803615"/>
    <nd ref="589803719"/>
    <nd ref="589803718"/>
    <tag k="highway" v="secondary"/>
    <tag k="name" v="Marszałka Ferdinanda Focha"/>
    <tag k="oneway" v="yes"/>
    <tag k="source" v="http://ump.waw.pl/ retrieved 11:19:07 11/17/09 (UMP-Torun/src/BYDGOSZCZ.ulice.txt)"/>
  </way>
  <way id="46236165" version="3" timestamp="2010-02-22T18:16:18Z" uid="20587" user="balrog-kun" changeset="3945915">
    <nd ref="589804057"/>
    <nd ref="589804051"/>
    <nd ref="589804015"/>
    <tag k="highway" v="secondary"/>
    <tag k="name" v="Marszałka Ferdinanda Focha"/>
    <tag k="oneway" v="1"/>
    <tag k="source" v="http://ump.waw.pl/ retrieved 11:19:07 11/17/09 (UMP-Torun/src/BYDGOSZCZ.ulice.txt)"/>
  </way>
  <way id="46236167" version="2" timestamp="2010-02-22T18:16:18Z" uid="20587" user="balrog-kun" changeset="3945915">
    <nd ref="589803721"/>
    <nd ref="589804012"/>
    <tag k="highway" v="residential"/>
    <tag k="name" v="Księdza Augustyna Kordeckiego"/>
    <tag k="oneway" v="1"/>
    <tag k="source" v="http://ump.waw.pl/ retrieved 11:19:07 11/17/09 (UMP-Torun/src/BYDGOSZCZ.ulice.txt)"/>
  </way>
  <way id="46236171" version="3" timestamp="2010-02-22T18:16:17Z" uid="20587" user="balrog-kun" changeset="3945915">
    <nd ref="573167920"/>
    <nd ref="589804076"/>
    <nd ref="589804093"/>
    <nd ref="589804057"/>
    <tag k="highway" v="secondary"/>
    <tag k="name" v="Marszałka Ferdinanda Focha"/>
    <tag k="oneway" v="yes"/>
    <tag k="source" v="http://ump.waw.pl/ retrieved 11:19:07 11/17/09 (UMP-Torun/src/BYDGOSZCZ.ulice.txt)"/>
  </way>
  <way id="46236313" version="3" timestamp="2010-02-22T18:16:18Z" uid="20587" user="balrog-kun" changeset="3945915">
    <nd ref="589806653"/>
    <nd ref="589806632"/>
    <nd ref="589806635"/>
    <nd ref="589806622"/>
    <nd ref="589806617"/>
    <nd ref="589806625"/>
    <nd ref="589806628"/>
    <nd ref="589806268"/>
    <nd ref="589806254"/>
    <nd ref="589806251"/>
    <nd ref="589806257"/>
    <nd ref="589806261"/>
    <nd ref="589806255"/>
    <nd ref="589806256"/>
    <nd ref="589806641"/>
    <nd ref="589806681"/>
    <nd ref="589806638"/>
    <nd ref="589806653"/>
    <tag k="amenity" v="theatre"/>
    <tag k="building" v="yes"/>
    <tag k="name" v="Opera Nova"/>
    <tag k="wikipedia" v="pl:Opera Nova"/>
  </way>
  <way id="46236333" version="3" timestamp="2010-02-22T18:16:19Z" uid="20587" user="balrog-kun" changeset="3945915">
    <nd ref="589806699"/>
    <nd ref="589806672"/>
    <nd ref="415030428"/>
    <tag k="highway" v="residential"/>
    <tag k="name" v="Karola Marcinkowskiego"/>
    <tag k="source" v="http://ump.waw.pl/ retrieved 11:19:07 11/17/09 (UMP-Torun/src/BYDGOSZCZ.ulice.txt)"/>
  </way>
  <way id="46236362" version="2" timestamp="2010-10-04T18:17:58Z" uid="20587" user="balrog-kun" changeset="5956007">
    <nd ref="589807380"/>
    <nd ref="589807382"/>
    <tag k="highway" v="residential"/>
    <tag k="name" v="Juliusza Słowackiego"/>
    <tag k="source" v="http://ump.waw.pl/ retrieved 11:19:07 11/17/09 (UMP-Torun/src/BYDGOSZCZ.ulice.txt)"/>
  </way>
  <way id="46236366" version="4" timestamp="2010-02-22T18:16:19Z" uid="20587" user="balrog-kun" changeset="3945915">
    <nd ref="589807440"/>
    <nd ref="589807435"/>
    <nd ref="625648080"/>
    <nd ref="589807438"/>
    <nd ref="625648085"/>
    <nd ref="589807432"/>
    <nd ref="625648089"/>
    <nd ref="589807441"/>
    <nd ref="625648095"/>
    <nd ref="589807445"/>
    <nd ref="625648104"/>
    <nd ref="589807437"/>
    <nd ref="625648109"/>
    <nd ref="589807442"/>
    <nd ref="625648115"/>
    <nd ref="625648117"/>
    <nd ref="589807443"/>
    <nd ref="625648119"/>
    <nd ref="589807440"/>
    <tag k="leisure" v="park"/>
    <tag k="name" v="Rondo Ossolińskich"/>
    <tag k="source" v="http://ump.waw.pl/ retrieved 11:19:07 11/17/09 (UMP-Torun/src/BYDGOSZCZ.obszary.txt)"/>
  </way>
  <way id="46236686" version="2" timestamp="2010-10-03T03:28:39Z" uid="20587" user="balrog-kun" changeset="5941061">
    <nd ref="589813083"/>
    <nd ref="589813039"/>
    <nd ref="589813040"/>
    <nd ref="589813044"/>
    <tag k="highway" v="residential"/>
    <tag k="name" v="Jana III Sobieskiego"/>
    <tag k="source" v="http://ump.waw.pl/ retrieved 11:19:07 11/17/09 (UMP-Torun/src/BYDGOSZCZ.ulice.txt)"/>
  </way>
  <way id="46236696" version="3" timestamp="2010-10-03T03:28:28Z" uid="20587" user="balrog-kun" changeset="5941061">
    <nd ref="589813040"/>
    <nd ref="589813060"/>
    <tag k="highway" v="living_street"/>
    <tag k="name" v="Tadeusza Rejtana"/>
    <tag k="source" v="http://ump.waw.pl/ retrieved 11:19:07 11/17/09 (UMP-Torun/src/BYDGOSZCZ.ulice.txt)"/>
  </way>
  <way id="46236740" version="2" timestamp="2010-10-03T03:28:12Z" uid="20587" user="balrog-kun" changeset="5941061">
    <nd ref="589814131"/>
    <nd ref="589814425"/>
    <tag k="highway" v="residential"/>
    <tag k="name" v="Augusta Cieszkowskiego"/>
    <tag k="oneway" v="1"/>
    <tag k="source" v="http://ump.waw.pl/ retrieved 11:19:07 11/17/09 (UMP-Torun/src/BYDGOSZCZ.ulice.txt)"/>
  </way>
  <way id="46236746" version="2" timestamp="2010-10-03T03:28:23Z" uid="20587" user="balrog-kun" changeset="5941061">
    <nd ref="589814056"/>
    <nd ref="589814039"/>
    <nd ref="589814042"/>
    <tag k="highway" v="residential"/>
    <tag k="name" v="Aleksandra Fredry"/>
    <tag k="oneway" v="1"/>
    <tag k="source" v="http://ump.waw.pl/ retrieved 11:19:07 11/17/09 (UMP-Torun/src/BYDGOSZCZ.ulice.txt)"/>
  </way>
</osm>
