<?xml version='1.0' encoding='UTF-8'?>
<osm version="0.6" generator="libosmium/2.20.0">
  <way id="46387331" version="2" timestamp="2010-06-01T06:39:36Z" uid="4467" user="Rosscoe" changeset="4872067">
    <nd ref="592657200"/>
    <nd ref="348041921"/>
    <tag k="highway" v="residential"/>
    <tag k="name" v="Awaba Street"/>
  </way>
  <way id="46387331" version="3" timestamp="2010-06-03T06:48:18Z" uid="30201" user="rrankin" changeset="4889718">
    <nd ref="592657200"/>
    <nd ref="762999317"/>
    <nd ref="348041921"/>
    <tag k="highway" v="residential"/>
    <tag k="name" v="Awaba Street"/>
  </way>
  <way id="46387331" version="4" timestamp="2010-07-08T03:38:57Z" uid="74617" user="JohnSmith" changeset="5163091">
    <nd ref="592657200"/>
    <nd ref="762999317"/>
    <nd ref="348041921"/>
    <tag k="highway" v="residential"/>
    <tag k="maxspeed" v="50"/>
    <tag k="maxspeed:source" v="default residential speed limit in Australia"/>
    <tag k="name" v="Awaba Street"/>
  </way>
  <way id="46387333" version="2" timestamp="2010-06-02T00:51:27Z" uid="4467" user="Rosscoe" changeset="4879895">
    <nd ref="592657205"/>
    <nd ref="592657206"/>
    <tag k="highway" v="residential"/>
    <tag k="name" v="Nentoura Road"/>
  </way>
  <way id="46387333" version="3" timestamp="2010-06-03T06:48:19Z" uid="30201" user="rrankin" changeset="4889718"/>
  <way id="46387336" version="2" timestamp="2010-06-02T00:51:25Z" uid="4467" user="Rosscoe" changeset="4879895">
    <nd ref="592657212"/>
    <nd ref="592657206"/>
    <tag k="highway" v="residential"/>
    <tag k="name" v="Nentoura Road"/>
  </way>
  <way id="46387336" version="3" timestamp="2010-07-08T03:38:35Z" uid="74617" user="JohnSmith" changeset="5163091">
    <nd ref="592657212"/>
    <nd ref="592657206"/>
    <tag k="highway" v="residential"/>
    <tag k="maxspeed" v="50"/>
    <tag k="maxspeed:source" v="default residential speed limit in Australia"/>
    <tag k="name" v="Nentoura Road"/>
  </way>
  <way id="46387342" version="2" timestamp="2010-06-02T01:52:08Z" uid="4467" user="Rosscoe" changeset="4880040">
    <nd ref="592657213"/>
    <nd ref="592657214"/>
    <tag k="highway" v="residential"/>
    <tag k="name" v="Russell Road"/>
  </way>
  <way id="46387342" version="3" timestamp="2010-06-03T06:48:14Z" uid="30201" user="rrankin" changeset="4889718">
    <nd ref="592657213"/>
    <nd ref="592657206"/>
    <nd ref="592657214"/>
    <tag k="highway" v="residential"/>
    <tag k="name" v="Russell Road"/>
  </way>
  <way id="46387342" version="4" timestamp="2010-07-08T03:40:16Z" uid="74617" user="JohnSmith" changeset="5163091">
    <nd ref="592657213"/>
    <nd ref="592657206"/>
    <nd ref="592657214"/>
    <tag k="highway" v="residential"/>
    <tag k="maxspeed" v="50"/>
    <tag k="maxspeed:source" v="default residential speed limit in Australia"/>
    <tag k="name" v="Russell Road"/>
  </way>
  <way id="46387345" version="3" timestamp="2010-06-01T08:19:39Z" uid="4467" user="Rosscoe" changeset="4872588">
    <nd ref="592657215"/>
    <nd ref="348041924"/>
    <tag k="highway" v="residential"/>
    <tag k="name" v="Ettalong Road"/>
  </way>
  <way id="46387345" version="4" timestamp="2010-07-08T03:39:07Z" uid="74617" user="JohnSmith" changeset="5163091">
    <nd ref="592657215"/>
    <nd ref="348041924"/>
    <tag k="highway" v="residential"/>
    <tag k="maxspeed" v="50"/>
    <tag k="maxspeed:source" v="default residential speed limit in Australia"/>
    <tag k="name" v="Ettalong Road"/>
  </way>
</osm>
