<?xml version='1.0' encoding='UTF-8'?>
<osm version="0.6" generator="libosmium/2.20.0">
  <way id="46525695" version="2" timestamp="2010-04-07T14:10:10Z" uid="20587" user="balrog-kun" changeset="4353646">
    <nd ref="224509363"/>
    <nd ref="224509367"/>
    <nd ref="224509370"/>
    <nd ref="224509373"/>
    <nd ref="224475908"/>
    <nd ref="224509374"/>
    <nd ref="224509378"/>
    <nd ref="224509382"/>
    <nd ref="224509385"/>
    <nd ref="224509388"/>
    <nd ref="224509391"/>
    <nd ref="224509395"/>
    <nd ref="224509399"/>
    <nd ref="224509403"/>
    <nd ref="224509409"/>
    <nd ref="224260177"/>
    <tag k="highway" v="residential"/>
    <tag k="name" v="Chasewood Drive"/>
    <tag k="tiger:cfcc" v="A41"/>
    <tag k="tiger:county" v="Fort Bend, TX"/>
    <tag k="tiger:name_base" v="Chasewood"/>
    <tag k="tiger:name_type" v="Dr"/>
    <tag k="tiger:reviewed" v="no"/>
    <tag k="tiger:separated" v="no"/>
    <tag k="tiger:source" v="tiger_import_dch_v0.6_20070829"/>
    <tag k="tiger:tlid" v="78270276:78270302:78270309:78270277:78341717:78341719"/>
    <tag k="tiger:zip_left" v="77489"/>
    <tag k="tiger:zip_right" v="77489"/>
  </way>
  <way id="46525731" version="4" timestamp="2011-04-20T07:30:58Z" uid="115477" user="wowik" changeset="7913535">
    <nd ref="595247444"/>
    <nd ref="595247447"/>
    <nd ref="595247449"/>
    <nd ref="595247452"/>
    <nd ref="595247453"/>
    <nd ref="595247455"/>
    <nd ref="595247457"/>
    <nd ref="595247459"/>
    <nd ref="595247461"/>
    <nd ref="595247463"/>
    <nd ref="595247444"/>
    <tag k="addr:city" v="Москва"/>
    <tag k="addr:country" v="RU"/>
    <tag k="amenity" v="theatre"/>
    <tag k="building" v="yes"/>
    <tag k="cladr:code" v="77000000000293500"/>
    <tag k="name" v="Государственный Театр Киноактера"/>
  </way>
  <way id="46525769" version="5" timestamp="2011-04-20T11:18:21Z" uid="115477" user="wowik" changeset="7915124">
    <nd ref="820793625"/>
    <nd ref="820793402"/>
    <nd ref="595247486"/>
    <nd ref="595247489"/>
    <nd ref="602521502"/>
    <nd ref="595247494"/>
    <nd ref="820793464"/>
    <nd ref="595247497"/>
    <nd ref="595247499"/>
    <nd ref="820793429"/>
    <nd ref="595247468"/>
    <nd ref="595247471"/>
    <nd ref="820793955"/>
    <nd ref="820793302"/>
    <nd ref="595247474"/>
    <nd ref="820793625"/>
    <tag k="addr:city" v="Москва"/>
    <tag k="addr:country" v="RU"/>
    <tag k="addr:housenumber" v="29/36 с1"/>
    <tag k="building" v="yes"/>
    <tag k="cladr:code" v="77000000000293500"/>
  </way>
  <way id="46525885" version="2" timestamp="2010-04-07T14:10:11Z" uid="20587" user="balrog-kun" changeset="4353646">
    <nd ref="224256526"/>
    <nd ref="595247661"/>
    <nd ref="224612056"/>
    <nd ref="224612059"/>
    <nd ref="224612060"/>
    <nd ref="224254356"/>
    <nd ref="224612063"/>
    <nd ref="224612067"/>
    <nd ref="224612070"/>
    <nd ref="224612073"/>
    <nd ref="224612077"/>
    <nd ref="224612079"/>
    <nd ref="224612080"/>
    <nd ref="224612081"/>
    <nd ref="224254366"/>
    <nd ref="224612084"/>
    <tag k="highway" v="residential"/>
    <tag k="name" v="Senior Road"/>
    <tag k="tiger:cfcc" v="A41"/>
    <tag k="tiger:county" v="Fort Bend, TX"/>
    <tag k="tiger:name_base" v="Senior"/>
    <tag k="tiger:name_type" v="Rd"/>
    <tag k="tiger:reviewed" v="no"/>
    <tag k="tiger:separated" v="no"/>
    <tag k="tiger:source" v="tiger_import_dch_v0.6_20070829"/>
    <tag k="tiger:tlid" v="78295874:78271345:78341801:78341802:227745448:227745449:78296712:78333703:227746458:227746459:78348129:78348130:78348169:78348170"/>
    <tag k="tiger:zip_left" v="77459"/>
    <tag k="tiger:zip_right" v="77459"/>
  </way>
</osm>
