<?xml version='1.0' encoding='UTF-8'?>
<osm version="0.6" generator="libosmium/2.20.0">
  <way id="46523006" version="2" timestamp="2010-06-05T09:52:14Z" uid="171838" user="argrath" changeset="4907467">
    <nd ref="595226287"/>
    <nd ref="595226327"/>
    <nd ref="764926412"/>
    <nd ref="583283609"/>
    <tag k="highway" v="unclassified"/>
  </way>
  <way id="46523018" version="3" timestamp="2010-07-09T07:25:47Z" uid="74617" user="JohnSmith" changeset="5171569">
    <nd ref="276401561"/>
    <nd ref="595226956"/>
    <nd ref="595226959"/>
    <nd ref="595226962"/>
    <tag k="highway" v="residential"/>
    <tag k="maxspeed" v="50"/>
    <tag k="maxspeed:source" v="default residential speed limit in Australia"/>
    <tag k="name" v="Irvine Cove"/>
    <tag k="source" v="nearmap"/>
  </way>
  <way id="46523029" version="3" timestamp="2010-07-09T07:30:24Z" uid="74617" user="JohnSmith" changeset="5171569">
    <nd ref="595227077"/>
    <nd ref="595227093"/>
    <nd ref="276401737"/>
    <nd ref="595227117"/>
    <nd ref="595227122"/>
    <nd ref="276384626"/>
    <nd ref="595227144"/>
    <nd ref="595227152"/>
    <nd ref="595227161"/>
    <nd ref="595227077"/>
    <tag k="highway" v="residential"/>
    <tag k="junction" v="roundabout"/>
    <tag k="maxspeed" v="50"/>
    <tag k="maxspeed:source" v="default residential speed limit in Australia"/>
    <tag k="name" v="Rothesay Heights"/>
  </way>
  <way id="46523030" version="4" timestamp="2010-07-09T07:25:02Z" uid="74617" user="JohnSmith" changeset="5171569">
    <nd ref="595227077"/>
    <nd ref="276384627"/>
    <nd ref="276401559"/>
    <nd ref="276384628"/>
    <nd ref="276401582"/>
    <nd ref="276384629"/>
    <nd ref="595250122"/>
    <tag k="highway" v="residential"/>
    <tag k="maxspeed" v="50"/>
    <tag k="maxspeed:source" v="default residential speed limit in Australia"/>
    <tag k="name" v="Rothesay Heights"/>
  </way>
  <way id="46523064" version="5" timestamp="2011-04-20T11:18:02Z" uid="115477" user="wowik" changeset="7915124">
    <nd ref="595229526"/>
    <nd ref="595229535"/>
    <nd ref="595229539"/>
    <nd ref="595229540"/>
    <nd ref="595238676"/>
    <nd ref="595238689"/>
    <nd ref="595229545"/>
    <nd ref="595229552"/>
    <nd ref="595229526"/>
    <tag k="addr:city" v="Москва"/>
    <tag k="addr:country" v="RU"/>
    <tag k="addr:housenumber" v="13 с1"/>
    <tag k="addr:street" v="Трубниковский переулок"/>
    <tag k="building" v="yes"/>
  </way>
  <way id="46523066" version="4" timestamp="2011-04-20T11:18:49Z" uid="115477" user="wowik" changeset="7915124">
    <nd ref="595229567"/>
    <nd ref="595229571"/>
    <nd ref="595229576"/>
    <nd ref="595229579"/>
    <nd ref="595229567"/>
    <tag k="addr:city" v="Москва"/>
    <tag k="addr:country" v="RU"/>
    <tag k="addr:housenumber" v="11"/>
    <tag k="addr:street" v="Трубниковский переулок"/>
    <tag k="building" v="yes"/>
    <tag k="cladr:code" v="77000000000293500"/>
  </way>
  <way id="46523188" version="6" timestamp="2011-04-20T11:18:04Z" uid="115477" user="wowik" changeset="7915124">
    <nd ref="595238699"/>
    <nd ref="595238700"/>
    <nd ref="595238701"/>
    <nd ref="595238704"/>
    <nd ref="595238699"/>
    <tag k="addr:city" v="Москва"/>
    <tag k="addr:country" v="RU"/>
    <tag k="addr:housenumber" v="18 с2"/>
    <tag k="addr:postcode" v="121069"/>
    <tag k="addr:street" v="Новинский бульвар"/>
    <tag k="building" v="yes"/>
  </way>
  <way id="46523192" version="3" timestamp="2010-07-09T07:25:04Z" uid="74617" user="JohnSmith" changeset="5171569">
    <nd ref="595238903"/>
    <nd ref="595678171"/>
    <nd ref="276384636"/>
    <nd ref="595678175"/>
    <nd ref="276384637"/>
    <nd ref="276384638"/>
    <nd ref="276384639"/>
    <nd ref="276384641"/>
    <tag k="highway" v="residential"/>
    <tag k="maxspeed" v="50"/>
    <tag k="maxspeed:source" v="default residential speed limit in Australia"/>
    <tag k="name" v="Rothesay Heights"/>
  </way>
  <way id="46523193" version="2" timestamp="2010-07-09T07:26:42Z" uid="74617" user="JohnSmith" changeset="5171569">
    <nd ref="595238910"/>
    <nd ref="595238913"/>
    <nd ref="276384525"/>
    <nd ref="276384526"/>
    <nd ref="276384527"/>
    <nd ref="595238921"/>
    <tag k="highway" v="residential"/>
    <tag k="maxspeed" v="50"/>
    <tag k="maxspeed:source" v="default residential speed limit in Australia"/>
    <tag k="name" v="Rochester Drive"/>
  </way>
  <way id="46523194" version="2" timestamp="2010-07-09T07:33:51Z" uid="74617" user="JohnSmith" changeset="5171569">
    <nd ref="595238910"/>
    <nd ref="595238930"/>
    <nd ref="595238933"/>
    <nd ref="595238936"/>
    <nd ref="595238939"/>
    <nd ref="595238942"/>
    <nd ref="595238945"/>
    <nd ref="595238948"/>
    <nd ref="595238951"/>
    <nd ref="595238965"/>
    <nd ref="595238968"/>
    <nd ref="595238971"/>
    <nd ref="595238973"/>
    <nd ref="595238903"/>
    <nd ref="595238975"/>
    <nd ref="595238976"/>
    <nd ref="595238977"/>
    <nd ref="595238910"/>
    <tag k="highway" v="residential"/>
    <tag k="junction" v="roundabout"/>
    <tag k="maxspeed" v="50"/>
    <tag k="maxspeed:source" v="default residential speed limit in Australia"/>
    <tag k="name" v="Rothesay Heights"/>
  </way>
  <way id="46523198" version="2" timestamp="2010-07-09T07:28:10Z" uid="74617" user="JohnSmith" changeset="5171569">
    <nd ref="595239105"/>
    <nd ref="595239109"/>
    <nd ref="276384528"/>
    <nd ref="276384529"/>
    <tag k="highway" v="residential"/>
    <tag k="maxspeed" v="50"/>
    <tag k="maxspeed:source" v="default residential speed limit in Australia"/>
    <tag k="name" v="Rochester Drive"/>
  </way>
  <way id="46523199" version="2" timestamp="2010-07-09T07:30:26Z" uid="74617" user="JohnSmith" changeset="5171569">
    <nd ref="595238921"/>
    <nd ref="595239137"/>
    <nd ref="595239142"/>
    <nd ref="595239147"/>
    <nd ref="595239151"/>
    <nd ref="276384510"/>
    <nd ref="595239157"/>
    <nd ref="595239161"/>
    <nd ref="595239164"/>
    <nd ref="595239105"/>
    <nd ref="595239167"/>
    <nd ref="595239169"/>
    <nd ref="595239175"/>
    <nd ref="595239176"/>
    <nd ref="595238858"/>
    <nd ref="595239177"/>
    <nd ref="595239178"/>
    <nd ref="595239179"/>
    <nd ref="595238921"/>
    <tag k="highway" v="residential"/>
    <tag k="junction" v="roundabout"/>
    <tag k="maxspeed" v="50"/>
    <tag k="maxspeed:source" v="default residential speed limit in Australia"/>
    <tag k="name" v="Rochester Drive"/>
  </way>
  <way id="46523204" version="2" timestamp="2010-07-09T07:34:27Z" uid="74617" user="JohnSmith" changeset="5171569">
    <nd ref="276401720"/>
    <nd ref="595239225"/>
    <nd ref="595239228"/>
    <nd ref="595239231"/>
    <nd ref="276401745"/>
    <nd ref="595239234"/>
    <nd ref="595239237"/>
    <nd ref="595239243"/>
    <nd ref="595239247"/>
    <nd ref="595239252"/>
    <nd ref="595239257"/>
    <nd ref="595239262"/>
    <nd ref="595239274"/>
    <nd ref="595239294"/>
    <nd ref="595239297"/>
    <nd ref="595239302"/>
    <nd ref="595239306"/>
    <nd ref="595239312"/>
    <nd ref="276401720"/>
    <tag k="highway" v="residential"/>
    <tag k="junction" v="roundabout"/>
    <tag k="maxspeed" v="50"/>
    <tag k="maxspeed:source" v="default residential speed limit in Australia"/>
    <tag k="name" v="Abbeville Circle"/>
  </way>
  <way id="46523212" version="2" timestamp="2010-07-09T07:24:28Z" uid="74617" user="JohnSmith" changeset="5171569">
    <nd ref="276401720"/>
    <nd ref="276401721"/>
    <nd ref="276401722"/>
    <nd ref="276401723"/>
    <nd ref="276401724"/>
    <nd ref="276401725"/>
    <nd ref="595238868"/>
    <nd ref="276401726"/>
    <nd ref="595239442"/>
    <nd ref="276401727"/>
    <tag k="highway" v="residential"/>
    <tag k="maxspeed" v="50"/>
    <tag k="maxspeed:source" v="default residential speed limit in Australia"/>
    <tag k="name" v="Abbeville Circle"/>
  </way>
</osm>
