<?xml version='1.0' encoding='UTF-8'?>
<osm version="0.6" generator="libosmium/2.20.0">
  <way id="46587456" version="1" timestamp="2009-12-17T22:38:26Z" uid="30201" user="rrankin" changeset="3397356">
    <nd ref="84446185"/>
    <nd ref="84446186"/>
    <nd ref="84446187"/>
    <nd ref="84446813"/>
    <nd ref="84446814"/>
    <nd ref="84446815"/>
    <tag k="highway" v="tertiary"/>
    <tag k="name" v="Glenhaven Road"/>
  </way>
  <way id="46587457" version="1" timestamp="2009-12-17T22:38:27Z" uid="30201" user="rrankin" changeset="3397356">
    <nd ref="574252092"/>
    <nd ref="84446157"/>
    <tag k="highway" v="tertiary"/>
    <tag k="name" v="Glenhaven Road"/>
  </way>
  <way id="46587458" version="1" timestamp="2009-12-17T22:38:28Z" uid="30201" user="rrankin" changeset="3397356">
    <nd ref="595440863"/>
    <nd ref="595440864"/>
    <tag k="bridge" v="yes"/>
    <tag k="highway" v="service"/>
    <tag k="layer" v="1"/>
    <tag k="name" v="Glenhaven Road"/>
  </way>
  <way id="46587459" version="1" timestamp="2009-12-17T22:38:29Z" uid="30201" user="rrankin" changeset="3397356">
    <nd ref="595440864"/>
    <nd ref="595440862"/>
    <nd ref="574252104"/>
    <nd ref="574252105"/>
    <nd ref="574252106"/>
    <nd ref="84446185"/>
    <tag k="highway" v="service"/>
    <tag k="name" v="Glenhaven Road"/>
  </way>
</osm>
