<?xml version='1.0' encoding='UTF-8'?>
<osm version="0.6" generator="libosmium/2.20.0">
  <way id="46603500" version="2" timestamp="2010-04-07T14:10:42Z" uid="20587" user="balrog-kun" changeset="4353646">
    <nd ref="227448594"/>
    <nd ref="227450019"/>
    <nd ref="227447839"/>
    <tag k="highway" v="residential"/>
    <tag k="name" v="Poplar Avenue"/>
    <tag k="tiger:cfcc" v="A41"/>
    <tag k="tiger:county" v="Motley, TX"/>
    <tag k="tiger:name_base" v="Poplar"/>
    <tag k="tiger:name_type" v="Ave"/>
    <tag k="tiger:reviewed" v="no"/>
    <tag k="tiger:separated" v="no"/>
    <tag k="tiger:source" v="tiger_import_dch_v0.6_20070830"/>
    <tag k="tiger:tlid" v="185200899"/>
  </way>
  <way id="46603671" version="1" timestamp="2009-12-18T10:52:51Z" uid="23543" user="jkjk" changeset="3399582">
    <nd ref="319676020"/>
    <nd ref="319676021"/>
    <nd ref="319676022"/>
    <nd ref="319676023"/>
    <nd ref="319676024"/>
    <nd ref="319676025"/>
    <nd ref="319676026"/>
    <nd ref="257740406"/>
    <tag k="highway" v="primary"/>
    <tag k="ref" v="18"/>
    <tag k="source_ref" v="www.ssc.sk"/>
  </way>
  <way id="46603672" version="1" timestamp="2009-12-18T10:52:52Z" uid="23543" user="jkjk" changeset="3399582">
    <nd ref="29488303"/>
    <nd ref="28889337"/>
    <nd ref="384621927"/>
    <nd ref="384730658"/>
    <nd ref="28889338"/>
    <tag k="abutters" v="residential"/>
    <tag k="highway" v="primary"/>
    <tag k="is_in" v="PreÅ¡ov"/>
    <tag k="lanes" v="2"/>
    <tag k="name" v="Duklianska"/>
    <tag k="ref" v="18"/>
  </way>
</osm>
