<?xml version='1.0' encoding='UTF-8'?>
<osm version="0.6" generator="libosmium/2.20.0">
  <way id="46674771" version="2" timestamp="2010-01-31T18:32:23Z" uid="33382" user="de_muur" changeset="3761962">
    <nd ref="297477592"/>
    <nd ref="21573321"/>
    <tag k="highway" v="secondary"/>
    <tag k="maxspeed" v="50"/>
    <tag k="name" v="Avenue Saint Sebastien"/>
    <tag k="ref" v="K 26"/>
    <tag k="surface" v="paved"/>
  </way>
  <way id="46674773" version="2" timestamp="2010-01-31T18:44:29Z" uid="33382" user="de_muur" changeset="3762064">
    <nd ref="287106874"/>
    <nd ref="253407212"/>
    <nd ref="290733452"/>
    <nd ref="21447722"/>
    <nd ref="448922602"/>
    <nd ref="253409659"/>
    <tag k="highway" v="secondary"/>
    <tag k="maxspeed" v="50"/>
    <tag k="name" v="Möllner Landstraße"/>
    <tag k="ref" v="L 94"/>
    <tag k="surface" v="paved"/>
  </way>
  <way id="46674776" version="2" timestamp="2010-03-05T22:04:04Z" uid="27600" user="Islanit" changeset="4045264">
    <nd ref="290706238"/>
    <nd ref="290733386"/>
    <nd ref="369801636"/>
    <nd ref="290706239"/>
    <nd ref="660845228"/>
    <nd ref="277257339"/>
    <tag k="highway" v="residential"/>
    <tag k="history" v="Retrieved from v5"/>
    <tag k="name" v="Willinghusener Weg"/>
    <tag k="surface" v="paved"/>
    <tag k="width" v="4"/>
  </way>
  <way id="46674780" version="2" timestamp="2010-10-03T06:49:58Z" uid="33382" user="de_muur" changeset="5941344">
    <nd ref="21770068"/>
    <nd ref="21652092"/>
    <nd ref="25388430"/>
    <nd ref="243723776"/>
    <nd ref="21652069"/>
    <tag k="highway" v="secondary"/>
    <tag k="maxspeed" v="60"/>
    <tag k="name" v="Reinbeker Weg"/>
    <tag k="ref" v="K 26"/>
    <tag k="surface" v="paved"/>
  </way>
  <way id="46674783" version="2" timestamp="2010-10-03T06:49:57Z" uid="33382" user="de_muur" changeset="5941344">
    <nd ref="243722443"/>
    <nd ref="21652062"/>
    <nd ref="21652061"/>
    <nd ref="936131953"/>
    <tag k="highway" v="secondary"/>
    <tag k="maxspeed" v="60"/>
    <tag k="name" v="Sachsenwaldstraße"/>
    <tag k="ref" v="K 26; L 314"/>
    <tag k="surface" v="paved"/>
  </way>
</osm>
