<?xml version='1.0' encoding='UTF-8'?>
<osm version="0.6" generator="libosmium/2.20.0">
  <way id="46833199" version="2" timestamp="2010-07-09T06:06:43Z" uid="74617" user="JohnSmith" changeset="5171134">
    <nd ref="598188966"/>
    <nd ref="598188969"/>
    <tag k="highway" v="residential"/>
    <tag k="maxspeed" v="50"/>
    <tag k="maxspeed:source" v="default residential speed limit in Australia"/>
    <tag k="source" v="nearmap"/>
  </way>
  <way id="46833200" version="2" timestamp="2010-07-09T06:06:33Z" uid="74617" user="JohnSmith" changeset="5171134">
    <nd ref="598188971"/>
    <nd ref="598188969"/>
    <nd ref="598188972"/>
    <nd ref="361876968"/>
    <tag k="highway" v="residential"/>
    <tag k="maxspeed" v="50"/>
    <tag k="maxspeed:source" v="default residential speed limit in Australia"/>
    <tag k="source" v="nearmap"/>
  </way>
  <way id="46833201" version="2" timestamp="2010-07-09T06:08:11Z" uid="74617" user="JohnSmith" changeset="5171134">
    <nd ref="598188973"/>
    <nd ref="598188975"/>
    <nd ref="598188976"/>
    <nd ref="598188977"/>
    <nd ref="598188978"/>
    <nd ref="598188971"/>
    <nd ref="598188980"/>
    <tag k="highway" v="residential"/>
    <tag k="maxspeed" v="50"/>
    <tag k="maxspeed:source" v="default residential speed limit in Australia"/>
    <tag k="source" v="nearmap"/>
  </way>
  <way id="46833310" version="1" timestamp="2009-12-22T15:07:16Z" uid="74617" user="JohnSmith" changeset="3427944">
    <nd ref="107152920"/>
    <nd ref="222432577"/>
    <nd ref="439214313"/>
    <tag k="highway" v="primary"/>
    <tag k="name" v="Steve Irwin Way"/>
  </way>
  <way id="46833311" version="1" timestamp="2009-12-22T15:07:17Z" uid="74617" user="JohnSmith" changeset="3427944">
    <nd ref="401621790"/>
    <nd ref="104971868"/>
    <nd ref="104971880"/>
    <nd ref="581443816"/>
    <nd ref="104971905"/>
    <nd ref="581443815"/>
    <nd ref="104971920"/>
    <nd ref="104971935"/>
    <tag k="highway" v="motorway_link"/>
    <tag k="oneway" v="yes"/>
  </way>
  <way id="46833312" version="1" timestamp="2009-12-22T15:07:17Z" uid="74617" user="JohnSmith" changeset="3427944">
    <nd ref="319168864"/>
    <nd ref="581443812"/>
    <nd ref="401621786"/>
    <nd ref="401621787"/>
    <nd ref="401621788"/>
    <nd ref="401621789"/>
    <nd ref="107146808"/>
    <tag k="highway" v="motorway_link"/>
    <tag k="oneway" v="yes"/>
  </way>
  <way id="46833652" version="1" timestamp="2009-12-22T15:18:52Z" uid="74617" user="JohnSmith" changeset="3428010">
    <nd ref="598192194"/>
    <nd ref="298937876"/>
    <nd ref="298937877"/>
    <nd ref="298937856"/>
    <tag k="highway" v="tertiary"/>
  </way>
  <way id="46833849" version="1" timestamp="2009-12-22T15:26:28Z" uid="74617" user="JohnSmith" changeset="3428057">
    <nd ref="30881021"/>
    <nd ref="30880327"/>
    <nd ref="30880326"/>
    <nd ref="30880325"/>
    <nd ref="30880966"/>
    <tag k="highway" v="motorway_link"/>
    <tag k="oneway" v="yes"/>
  </way>
  <way id="46833850" version="1" timestamp="2009-12-22T15:26:28Z" uid="74617" user="JohnSmith" changeset="3428057">
    <nd ref="319482704"/>
    <nd ref="32999076"/>
    <nd ref="319482703"/>
    <nd ref="32999075"/>
    <nd ref="32999074"/>
    <nd ref="92423119"/>
    <nd ref="332157258"/>
    <nd ref="32999073"/>
    <nd ref="32999092"/>
    <nd ref="32999058"/>
    <tag k="highway" v="primary"/>
    <tag k="name" v="Brisbane Road"/>
    <tag k="oneway" v="yes"/>
  </way>
  <way id="46833851" version="1" timestamp="2009-12-22T15:26:28Z" uid="74617" user="JohnSmith" changeset="3428057">
    <nd ref="30881056"/>
    <nd ref="30881057"/>
    <tag k="highway" v="motorway_link"/>
    <tag k="oneway" v="yes"/>
  </way>
  <way id="46833923" version="4" timestamp="2011-04-20T11:18:54Z" uid="115477" user="wowik" changeset="7915124">
    <nd ref="598193645"/>
    <nd ref="598193646"/>
    <nd ref="598193647"/>
    <nd ref="598193648"/>
    <nd ref="598193649"/>
    <nd ref="598193650"/>
    <nd ref="598193645"/>
    <tag k="addr:city" v="Москва"/>
    <tag k="addr:country" v="RU"/>
    <tag k="addr:housenumber" v="31"/>
    <tag k="addr:street" v="Новинский бульвар"/>
    <tag k="building" v="yes"/>
    <tag k="cladr:code" v="77000000000722600"/>
    <tag k="name" v="Новинский пассаж"/>
    <tag k="shop" v="mall"/>
  </way>
  <way id="46833925" version="5" timestamp="2011-04-20T07:31:03Z" uid="115477" user="wowik" changeset="7913535">
    <nd ref="598193653"/>
    <nd ref="598193654"/>
    <nd ref="598193656"/>
    <nd ref="598193657"/>
    <nd ref="598193658"/>
    <nd ref="598193659"/>
    <nd ref="598193660"/>
    <nd ref="598193661"/>
    <nd ref="715797750"/>
    <nd ref="715797780"/>
    <nd ref="715797974"/>
    <nd ref="715797940"/>
    <nd ref="598193653"/>
    <tag k="addr:city" v="Москва"/>
    <tag k="addr:country" v="RU"/>
    <tag k="addr:housenumber" v="2"/>
    <tag k="addr:street" v="Баррикадная улица"/>
    <tag k="building" v="yes"/>
    <tag k="cladr:code" v="77000000000081100"/>
  </way>
</osm>
