<?xml version='1.0' encoding='UTF-8'?>
<osm version="0.6" generator="libosmium/2.20.0">
  <way id="46864242" version="4" timestamp="2011-03-15T11:39:04Z" uid="4467" user="Rosscoe" changeset="7565377">
    <nd ref="29963558"/>
    <nd ref="565828355"/>
    <nd ref="598393299"/>
    <nd ref="565828356"/>
    <nd ref="264445111"/>
    <nd ref="29994613"/>
    <nd ref="29994614"/>
    <nd ref="264460378"/>
    <tag k="alt_name" v="Whitehorse Road"/>
    <tag k="highway" v="trunk"/>
    <tag k="lanes" v="3"/>
    <tag k="maxspeed" v="60"/>
    <tag k="name" v="Maroondah Highway"/>
    <tag k="oneway" v="yes"/>
    <tag k="ref" v="S34"/>
  </way>
  <way id="46864267" version="2" timestamp="2010-05-04T04:21:24Z" uid="4467" user="Rosscoe" changeset="4601071">
    <nd ref="29963562"/>
    <nd ref="336144682"/>
    <nd ref="100860791"/>
    <nd ref="336145743"/>
    <nd ref="30678441"/>
    <nd ref="336144710"/>
    <nd ref="336145628"/>
    <nd ref="720435142"/>
    <nd ref="336145895"/>
    <nd ref="336145922"/>
    <nd ref="336145923"/>
    <nd ref="270927250"/>
    <nd ref="270927411"/>
    <nd ref="270927412"/>
    <nd ref="270927413"/>
    <nd ref="270927415"/>
    <nd ref="270927416"/>
    <nd ref="270927417"/>
    <nd ref="270927253"/>
    <nd ref="218253087"/>
    <nd ref="29962021"/>
    <nd ref="218253112"/>
    <tag k="alt_name" v="Whitehorse Road"/>
    <tag k="highway" v="trunk"/>
    <tag k="lanes" v="3"/>
    <tag k="maxspeed" v="80"/>
    <tag k="name" v="Maroondah Highway"/>
    <tag k="oneway" v="yes"/>
    <tag k="ref" v="S34"/>
  </way>
  <way id="46864267" version="5" timestamp="2011-03-15T11:39:00Z" uid="4467" user="Rosscoe" changeset="7565377">
    <nd ref="1202916765"/>
    <nd ref="1202916704"/>
    <nd ref="336144682"/>
    <nd ref="1202916695"/>
    <nd ref="100860791"/>
    <nd ref="336145743"/>
    <nd ref="30678441"/>
    <nd ref="336144710"/>
    <nd ref="1202916714"/>
    <nd ref="336145628"/>
    <nd ref="720435142"/>
    <nd ref="336145895"/>
    <nd ref="336145922"/>
    <nd ref="336145923"/>
    <nd ref="1202916728"/>
    <nd ref="270927250"/>
    <nd ref="270927411"/>
    <nd ref="270927412"/>
    <nd ref="270927413"/>
    <nd ref="270927415"/>
    <nd ref="270927416"/>
    <nd ref="270927417"/>
    <nd ref="270927253"/>
    <nd ref="741754245"/>
    <nd ref="218253087"/>
    <nd ref="740370375"/>
    <nd ref="29962021"/>
    <tag k="alt_name" v="Whitehorse Road"/>
    <tag k="highway" v="trunk"/>
    <tag k="lanes" v="3"/>
    <tag k="maxspeed" v="80"/>
    <tag k="name" v="Maroondah Highway"/>
    <tag k="oneway" v="yes"/>
    <tag k="ref" v="S34"/>
  </way>
  <way id="46864329" version="2" timestamp="2010-04-07T14:11:07Z" uid="20587" user="balrog-kun" changeset="4353646">
    <nd ref="598394000"/>
    <nd ref="224470254"/>
    <nd ref="224470260"/>
    <nd ref="224470265"/>
    <nd ref="224470271"/>
    <nd ref="224470275"/>
    <nd ref="224470278"/>
    <nd ref="224468895"/>
    <tag k="highway" v="trunk"/>
    <tag k="name" v="Grand Parkway"/>
    <tag k="name_1" v="State Highway 99"/>
    <tag k="oneway" v="no"/>
    <tag k="tiger:cfcc" v="A35"/>
    <tag k="tiger:county" v="Fort Bend, TX"/>
    <tag k="tiger:name_base" v="Grand"/>
    <tag k="tiger:name_base_1" v="State Highway 99"/>
    <tag k="tiger:name_type" v="Pky"/>
    <tag k="tiger:reviewed" v="no"/>
    <tag k="tiger:separated" v="yes"/>
    <tag k="tiger:source" v="tiger_import_dch_v0.6_20070829"/>
    <tag k="tiger:tlid" v="227753193:227753188:227756554:78347285:227756538:227756551:227756537:227762767:227762825:227762868:227762869:227753136:227757104:227752807:227756561:227763911:227752800:227763949:227763952:227763953:227753207:227759721:227759729"/>
  </way>
  <way id="46864333" version="2" timestamp="2010-04-07T14:11:07Z" uid="20587" user="balrog-kun" changeset="4353646">
    <nd ref="598394025"/>
    <nd ref="224382252"/>
    <nd ref="224470252"/>
    <tag k="bridge" v="yes"/>
    <tag k="highway" v="trunk"/>
    <tag k="layer" v="1"/>
    <tag k="name" v="Grand Parkway"/>
    <tag k="name_1" v="State Highway 99"/>
    <tag k="oneway" v="no"/>
    <tag k="tiger:cfcc" v="A35"/>
    <tag k="tiger:county" v="Fort Bend, TX"/>
    <tag k="tiger:name_base" v="Grand"/>
    <tag k="tiger:name_base_1" v="State Highway 99"/>
    <tag k="tiger:name_type" v="Pky"/>
    <tag k="tiger:reviewed" v="no"/>
    <tag k="tiger:separated" v="yes"/>
    <tag k="tiger:source" v="tiger_import_dch_v0.6_20070829"/>
    <tag k="tiger:tlid" v="227753193:227753188:227756554:78347285:227756538:227756551:227756537:227762767:227762825:227762868:227762869:227753136:227757104:227752807:227756561:227763911:227752800:227763949:227763952:227763953:227753207:227759721:227759729"/>
  </way>
</osm>
