<?xml version='1.0' encoding='UTF-8'?>
<osm version="0.6" generator="libosmium/2.20.0">
  <way id="4696170" version="2" timestamp="2009-12-10T00:04:10Z" uid="200463" user="harmagedon" changeset="3338481">
    <nd ref="29840624"/>
    <nd ref="29792950"/>
    <nd ref="29792951"/>
    <tag k="highway" v="primary"/>
  </way>
  <way id="4696361" version="13" timestamp="2009-02-14T01:19:25Z" uid="36809" user="pfoten_weg_!_" changeset="423851">
    <nd ref="21151011"/>
    <nd ref="21151015"/>
    <nd ref="27399634"/>
    <nd ref="276105204"/>
    <nd ref="21151013"/>
    <nd ref="21151018"/>
    <tag k="created_by" v="RambaZamba"/>
    <tag k="highway" v="trunk_link"/>
    <tag k="layer" v="-1"/>
    <tag k="oneway" v="yes"/>
    <tag k="ref" v="B 2 R;B 11"/>
    <tag k="source" v="survey"/>
    <tag k="tunnel" v="yes"/>
  </way>
  <way id="4696507" version="4" timestamp="2010-07-08T19:39:37Z" uid="74617" user="JohnSmith" changeset="5168688">
    <nd ref="26828001"/>
    <nd ref="26828383"/>
    <nd ref="605280961"/>
    <nd ref="26829636"/>
    <nd ref="26828384"/>
    <tag k="highway" v="residential"/>
    <tag k="maxspeed" v="50"/>
    <tag k="maxspeed:source" v="default residential speed limit in Australia"/>
    <tag k="name" v="Collins Place"/>
  </way>
  <way id="4696563" version="5" timestamp="2010-04-17T13:06:11Z" uid="4467" user="Rosscoe" changeset="4447527">
    <nd ref="29822562"/>
    <nd ref="699724968"/>
    <tag k="highway" v="residential"/>
    <tag k="name" v="Timms Avenue"/>
  </way>
  <way id="4696563" version="6" timestamp="2010-07-08T19:40:53Z" uid="74617" user="JohnSmith" changeset="5168688">
    <nd ref="29822562"/>
    <nd ref="699724968"/>
    <tag k="highway" v="residential"/>
    <tag k="maxspeed" v="50"/>
    <tag k="maxspeed:source" v="default residential speed limit in Australia"/>
    <tag k="name" v="Timms Avenue"/>
  </way>
  <way id="4696598" version="3" timestamp="2008-02-13T11:48:16Z" uid="6269" user="Mueck" changeset="111800">
    <nd ref="29862972"/>
    <nd ref="18236789"/>
    <tag k="bridge" v="true"/>
    <tag k="created_by" v="Potlatch 0.7a"/>
    <tag k="highway" v="trunk"/>
    <tag k="layer" v="1"/>
    <tag k="oneway" v="true"/>
    <tag k="ref" v="B10"/>
  </way>
  <way id="4696598" version="6" timestamp="2009-05-09T00:00:09Z" uid="6269" user="Mueck" changeset="1122795">
    <nd ref="29862972"/>
    <nd ref="18236789"/>
    <tag k="bridge" v="yes"/>
    <tag k="created_by" v="Potlatch 0.9a"/>
    <tag k="highway" v="trunk"/>
    <tag k="layer" v="1"/>
    <tag k="motorroad" v="no"/>
    <tag k="oneway" v="yes"/>
    <tag k="ref" v="B 10"/>
  </way>
  <way id="4696598" version="7" timestamp="2009-05-12T21:40:34Z" uid="6269" user="Mueck" changeset="1170064">
    <nd ref="29862972"/>
    <nd ref="18236789"/>
    <tag k="bicycle" v="no"/>
    <tag k="bridge" v="yes"/>
    <tag k="created_by" v="Potlatch 0.9a"/>
    <tag k="highway" v="trunk"/>
    <tag k="layer" v="1"/>
    <tag k="motorroad" v="no"/>
    <tag k="oneway" v="yes"/>
    <tag k="ref" v="B 10"/>
  </way>
  <way id="4696598" version="8" timestamp="2009-05-12T21:41:52Z" uid="6269" user="Mueck" changeset="1170064">
    <nd ref="29862972"/>
    <nd ref="18236789"/>
    <tag k="agricultural" v="yes"/>
    <tag k="bicycle" v="no"/>
    <tag k="bridge" v="yes"/>
    <tag k="created_by" v="Potlatch 0.9a"/>
    <tag k="highway" v="trunk"/>
    <tag k="layer" v="1"/>
    <tag k="motorroad" v="no"/>
    <tag k="oneway" v="yes"/>
    <tag k="ref" v="B 10"/>
  </way>
  <way id="4696598" version="9" timestamp="2009-06-20T23:53:35Z" uid="6269" user="Mueck" changeset="1579447">
    <nd ref="29862972"/>
    <nd ref="18236789"/>
    <tag k="agricultural" v="yes"/>
    <tag k="bicycle" v="no"/>
    <tag k="bridge" v="yes"/>
    <tag k="created_by" v="Potlatch 0.9a"/>
    <tag k="foot" v="no"/>
    <tag k="highway" v="trunk"/>
    <tag k="layer" v="1"/>
    <tag k="motorroad" v="no"/>
    <tag k="oneway" v="yes"/>
    <tag k="ref" v="B 10"/>
  </way>
  <way id="4696598" version="13" timestamp="2010-04-22T16:34:03Z" uid="6269" user="Mueck" changeset="4496458">
    <nd ref="29862972"/>
    <nd ref="18236789"/>
    <tag k="agricultural" v="yes"/>
    <tag k="bicycle" v="no"/>
    <tag k="bridge" v="yes"/>
    <tag k="foot" v="no"/>
    <tag k="highway" v="trunk"/>
    <tag k="layer" v="1"/>
    <tag k="maxspeed" v="80"/>
    <tag k="motorroad" v="no"/>
    <tag k="oneway" v="yes"/>
    <tag k="ref" v="B 10"/>
  </way>
  <way id="4696599" version="3" timestamp="2008-02-13T11:48:32Z" uid="6269" user="Mueck" changeset="111800">
    <nd ref="412292"/>
    <nd ref="29862971"/>
    <tag k="bridge" v="true"/>
    <tag k="created_by" v="Potlatch 0.7a"/>
    <tag k="highway" v="trunk"/>
    <tag k="layer" v="1"/>
    <tag k="oneway" v="true"/>
    <tag k="ref" v="B10"/>
  </way>
  <way id="4696599" version="6" timestamp="2009-05-09T00:00:15Z" uid="6269" user="Mueck" changeset="1122795">
    <nd ref="412292"/>
    <nd ref="29862971"/>
    <tag k="bridge" v="yes"/>
    <tag k="created_by" v="Potlatch 0.9a"/>
    <tag k="highway" v="trunk"/>
    <tag k="layer" v="1"/>
    <tag k="motorroad" v="no"/>
    <tag k="oneway" v="yes"/>
    <tag k="ref" v="B 10"/>
  </way>
  <way id="4696599" version="7" timestamp="2009-05-12T21:41:42Z" uid="6269" user="Mueck" changeset="1170064">
    <nd ref="412292"/>
    <nd ref="29862971"/>
    <tag k="agricultural" v="yes"/>
    <tag k="bridge" v="yes"/>
    <tag k="created_by" v="Potlatch 0.9a"/>
    <tag k="highway" v="trunk"/>
    <tag k="layer" v="1"/>
    <tag k="motorroad" v="no"/>
    <tag k="oneway" v="yes"/>
    <tag k="ref" v="B 10"/>
  </way>
  <way id="4696599" version="8" timestamp="2009-06-20T23:53:42Z" uid="6269" user="Mueck" changeset="1579447">
    <nd ref="412292"/>
    <nd ref="29862971"/>
    <tag k="agricultural" v="yes"/>
    <tag k="bridge" v="yes"/>
    <tag k="created_by" v="Potlatch 0.9a"/>
    <tag k="foot" v="no"/>
    <tag k="highway" v="trunk"/>
    <tag k="layer" v="1"/>
    <tag k="motorroad" v="no"/>
    <tag k="oneway" v="yes"/>
    <tag k="ref" v="B 10"/>
  </way>
  <way id="4696599" version="13" timestamp="2010-04-22T16:34:28Z" uid="6269" user="Mueck" changeset="4496458">
    <nd ref="412292"/>
    <nd ref="29862971"/>
    <tag k="agricultural" v="yes"/>
    <tag k="bicycle" v="no"/>
    <tag k="bridge" v="yes"/>
    <tag k="foot" v="no"/>
    <tag k="highway" v="trunk"/>
    <tag k="layer" v="1"/>
    <tag k="maxspeed" v="80"/>
    <tag k="motorroad" v="no"/>
    <tag k="oneway" v="yes"/>
    <tag k="ref" v="B 10"/>
  </way>
  <way id="4696602" version="2" timestamp="2009-05-12T19:12:09Z" uid="6269" user="Mueck" changeset="1168333">
    <nd ref="27229550"/>
    <nd ref="27475399"/>
    <nd ref="394917301"/>
    <tag k="created_by" v="JOSM"/>
    <tag k="highway" v="service"/>
    <tag k="name" v="Maximilianstraße"/>
  </way>
  <way id="4696654" version="1" timestamp="2007-07-03T22:06:48Z" uid="8328" user="benpre" changeset="125690">
    <nd ref="24942567"/>
    <nd ref="31271854"/>
    <nd ref="29863303"/>
    <tag k="created_by" v="fixbot"/>
    <tag k="highway" v="footway"/>
    <tag k="name" v="Eppinger Straße"/>
  </way>
  <way id="4696860" version="4" timestamp="2009-12-09T23:03:46Z" uid="200463" user="harmagedon" changeset="3337772">
    <nd ref="29741753"/>
    <nd ref="283330113"/>
    <nd ref="29741754"/>
    <nd ref="29741755"/>
    <nd ref="29741756"/>
    <nd ref="29741757"/>
    <nd ref="29741758"/>
    <nd ref="29741759"/>
    <nd ref="29741760"/>
    <nd ref="29741761"/>
    <nd ref="29741762"/>
    <nd ref="29741763"/>
    <nd ref="29741764"/>
    <nd ref="29741765"/>
    <nd ref="29741766"/>
    <nd ref="29741767"/>
    <nd ref="29741768"/>
    <nd ref="29741769"/>
    <nd ref="29741770"/>
    <nd ref="29741771"/>
    <nd ref="29741772"/>
    <nd ref="29741773"/>
    <nd ref="29741774"/>
    <nd ref="29741775"/>
    <nd ref="29741776"/>
    <nd ref="29741777"/>
    <nd ref="29741778"/>
    <tag k="highway" v="tertiary"/>
    <tag k="name" v="Bruggerstrasse"/>
    <tag k="ref" v="K 442"/>
  </way>
  <way id="4696861" version="7" timestamp="2009-12-09T23:03:40Z" uid="200463" user="harmagedon" changeset="3337772">
    <nd ref="29741778"/>
    <nd ref="29741779"/>
    <nd ref="296889963"/>
    <nd ref="29741780"/>
    <nd ref="336269899"/>
    <nd ref="29741781"/>
    <nd ref="336269898"/>
    <nd ref="29741782"/>
    <nd ref="336269897"/>
    <nd ref="29741783"/>
    <nd ref="29741784"/>
    <nd ref="29741785"/>
    <nd ref="282997083"/>
    <nd ref="29741786"/>
    <nd ref="29741787"/>
    <nd ref="336269896"/>
    <nd ref="303005541"/>
    <nd ref="29741788"/>
    <tag k="highway" v="tertiary"/>
    <tag k="name" v="Hauptstrasse"/>
    <tag k="ref" v="K 442"/>
    <tag k="source" v="AGIS http://www.ag.ch/agis"/>
  </way>
</osm>
