<?xml version='1.0' encoding='UTF-8'?>
<osm version="0.6" generator="libosmium/2.20.0">
  <way id="47030199" version="1" timestamp="2009-12-27T10:28:14Z" uid="74027" user="katzlbt" changeset="3461172">
    <nd ref="599928012"/>
    <nd ref="599928014"/>
    <nd ref="599928015"/>
    <nd ref="599928016"/>
    <nd ref="599928012"/>
    <tag k="amenity" v="parking"/>
  </way>
  <way id="47030200" version="1" timestamp="2009-12-27T10:28:14Z" uid="74027" user="katzlbt" changeset="3461172">
    <nd ref="599928018"/>
    <nd ref="599928019"/>
    <nd ref="599928021"/>
    <nd ref="599928022"/>
    <nd ref="599928018"/>
    <tag k="building" v="yes"/>
  </way>
  <way id="47030201" version="1" timestamp="2009-12-27T10:28:15Z" uid="74027" user="katzlbt" changeset="3461172">
    <nd ref="599928024"/>
    <nd ref="599928025"/>
    <nd ref="599928027"/>
    <nd ref="599928028"/>
    <nd ref="599928024"/>
    <tag k="building" v="yes"/>
  </way>
  <way id="47030202" version="1" timestamp="2009-12-27T10:28:16Z" uid="74027" user="katzlbt" changeset="3461172">
    <nd ref="599928030"/>
    <nd ref="599928031"/>
    <nd ref="599928032"/>
    <nd ref="599928034"/>
    <nd ref="599928030"/>
    <tag k="building" v="yes"/>
  </way>
  <way id="47030203" version="1" timestamp="2009-12-27T10:28:17Z" uid="74027" user="katzlbt" changeset="3461172">
    <nd ref="599928036"/>
    <nd ref="599928038"/>
    <nd ref="599928039"/>
    <nd ref="599928040"/>
    <nd ref="599928041"/>
    <nd ref="599928042"/>
    <nd ref="599928043"/>
    <nd ref="599928044"/>
    <nd ref="599928036"/>
    <tag k="building" v="yes"/>
    <tag k="name" v="Maria Waldrast"/>
  </way>
  <way id="47030204" version="1" timestamp="2009-12-27T10:28:20Z" uid="74027" user="katzlbt" changeset="3461172">
    <nd ref="482830165"/>
    <nd ref="566303044"/>
    <nd ref="566303045"/>
    <nd ref="566303020"/>
    <tag k="highway" v="track"/>
    <tag k="piste:type" v="hike"/>
    <tag k="surface" v="ground"/>
    <tag k="tracktype" v="grade3"/>
    <tag k="width" v="2"/>
  </way>
  <way id="47030273" version="4" timestamp="2011-04-20T11:26:15Z" uid="115477" user="wowik" changeset="7915253">
    <nd ref="599928734"/>
    <nd ref="599928735"/>
    <nd ref="599928736"/>
    <nd ref="599928737"/>
    <nd ref="599928738"/>
    <nd ref="599928739"/>
    <nd ref="599928740"/>
    <nd ref="599928734"/>
    <tag k="addr:city" v="Москва"/>
    <tag k="addr:country" v="RU"/>
    <tag k="addr:housenumber" v="44"/>
    <tag k="addr:street" v="Малая Бронная улица"/>
    <tag k="building" v="yes"/>
    <tag k="cladr:code" v="77000000000090700"/>
  </way>
  <way id="47030295" version="5" timestamp="2011-04-20T11:27:08Z" uid="115477" user="wowik" changeset="7915253">
    <nd ref="599928896"/>
    <nd ref="599928897"/>
    <nd ref="599928898"/>
    <nd ref="599928899"/>
    <nd ref="599928900"/>
    <nd ref="599928901"/>
    <nd ref="599928902"/>
    <nd ref="599928903"/>
    <nd ref="599928896"/>
    <tag k="addr:city" v="Москва"/>
    <tag k="addr:country" v="RU"/>
    <tag k="addr:housenumber" v="42/14"/>
    <tag k="addr:housenumber2" v="14/42"/>
    <tag k="addr:street" v="Малая Бронная улица"/>
    <tag k="addr:street2" v="Ермолаевский переулок"/>
    <tag k="building" v="yes"/>
    <tag k="cladr:code" v="77000000000090700"/>
  </way>
  <way id="47030312" version="4" timestamp="2011-04-20T11:25:45Z" uid="115477" user="wowik" changeset="7915253">
    <nd ref="599928925"/>
    <nd ref="599928926"/>
    <nd ref="599928927"/>
    <nd ref="599928928"/>
    <nd ref="599928925"/>
    <tag k="addr:city" v="Москва"/>
    <tag k="addr:country" v="RU"/>
    <tag k="addr:housenumber" v="16"/>
    <tag k="addr:street" v="Ермолаевский переулок"/>
    <tag k="building" v="yes"/>
    <tag k="cladr:code" v="77000000000702200"/>
  </way>
  <way id="47030315" version="1" timestamp="2009-12-27T10:35:02Z" uid="74617" user="JohnSmith" changeset="3461305">
    <nd ref="599928948"/>
    <nd ref="599928949"/>
    <nd ref="599928950"/>
    <nd ref="599928937"/>
    <nd ref="599928933"/>
    <nd ref="599928940"/>
    <nd ref="599928941"/>
    <nd ref="599928932"/>
    <nd ref="599928945"/>
    <nd ref="599928946"/>
    <nd ref="599928947"/>
    <nd ref="599928944"/>
    <nd ref="599928931"/>
    <nd ref="599928934"/>
    <nd ref="599928938"/>
    <nd ref="599928948"/>
    <tag k="leisure" v="golf_course"/>
    <tag k="name" v="Casino Golf Course"/>
    <tag k="sport" v="golf"/>
  </way>
  <way id="47030316" version="5" timestamp="2011-04-20T11:26:26Z" uid="115477" user="wowik" changeset="7915253">
    <nd ref="599928952"/>
    <nd ref="599928953"/>
    <nd ref="599928954"/>
    <nd ref="599928955"/>
    <nd ref="599928952"/>
    <tag k="addr:city" v="Москва"/>
    <tag k="addr:country" v="RU"/>
    <tag k="addr:housenumber" v="31 с2"/>
    <tag k="addr:street" v="Большой Козихинский переулок"/>
    <tag k="building" v="yes"/>
    <tag k="cladr:code" v="77000000000703800"/>
  </way>
  <way id="47030369" version="1" timestamp="2009-12-27T10:36:23Z" uid="74027" user="katzlbt" changeset="3461172">
    <nd ref="566303045"/>
    <nd ref="599929395"/>
    <nd ref="599929396"/>
    <nd ref="599929397"/>
    <tag k="highway" v="steps"/>
  </way>
  <way id="47030370" version="1" timestamp="2009-12-27T10:36:24Z" uid="74027" user="katzlbt" changeset="3461172">
    <nd ref="599929398"/>
    <nd ref="599929399"/>
    <nd ref="599929400"/>
    <nd ref="599929401"/>
    <nd ref="599929398"/>
    <tag k="building" v="yes"/>
    <tag k="shop" v="gift"/>
  </way>
  <way id="47030444" version="3" timestamp="2010-04-17T06:55:00Z" uid="30201" user="rrankin" changeset="4444865">
    <nd ref="599930274"/>
    <nd ref="599930272"/>
    <nd ref="695234040"/>
    <nd ref="599930263"/>
    <nd ref="599930261"/>
    <nd ref="599930262"/>
    <nd ref="695234045"/>
    <nd ref="599930260"/>
    <nd ref="599930259"/>
    <nd ref="599930255"/>
    <nd ref="599930257"/>
    <nd ref="599930252"/>
    <nd ref="695234050"/>
    <nd ref="599930250"/>
    <nd ref="599930251"/>
    <nd ref="695234052"/>
    <nd ref="599930253"/>
    <nd ref="599930258"/>
    <nd ref="599930256"/>
    <nd ref="695234055"/>
    <nd ref="695234032"/>
    <nd ref="695234033"/>
    <nd ref="599930271"/>
    <nd ref="599930273"/>
    <nd ref="599930280"/>
    <nd ref="599930277"/>
    <nd ref="599930281"/>
    <nd ref="599930278"/>
    <nd ref="599930279"/>
    <nd ref="599930283"/>
    <nd ref="599930274"/>
    <tag k="landuse" v="grass"/>
    <tag k="source" v="survey"/>
  </way>
  <way id="47030447" version="2" timestamp="2010-05-22T14:35:32Z" uid="4467" user="Rosscoe" changeset="4774861">
    <nd ref="599930297"/>
    <nd ref="745541397"/>
    <nd ref="599930286"/>
    <nd ref="599930284"/>
    <nd ref="599930285"/>
    <nd ref="599930298"/>
    <nd ref="599930297"/>
    <tag k="leisure" v="park"/>
    <tag k="name" v="Nepean Reserve"/>
    <tag k="source" v="survey"/>
  </way>
  <way id="47030448" version="2" timestamp="2010-05-22T14:38:09Z" uid="4467" user="Rosscoe" changeset="4774861">
    <nd ref="599930286"/>
    <nd ref="599930287"/>
    <tag k="highway" v="path"/>
    <tag k="source" v="survey"/>
    <tag k="surface" v="unpaved"/>
  </way>
  <way id="47030449" version="2" timestamp="2010-05-22T14:39:24Z" uid="4467" user="Rosscoe" changeset="4774861"/>
  <way id="47030452" version="2" timestamp="2010-05-22T14:37:17Z" uid="4467" user="Rosscoe" changeset="4774861">
    <nd ref="599930288"/>
    <nd ref="599930289"/>
    <nd ref="599930290"/>
    <nd ref="599930288"/>
    <tag k="natural" v="scrub"/>
    <tag k="source" v="survey"/>
  </way>
  <way id="47030496" version="2" timestamp="2010-06-14T13:55:40Z" uid="74617" user="JohnSmith" changeset="4987691">
    <nd ref="599930789"/>
    <nd ref="599930797"/>
    <nd ref="599930805"/>
    <nd ref="599930812"/>
    <nd ref="599930816"/>
    <nd ref="599930817"/>
    <nd ref="599930818"/>
    <nd ref="599930819"/>
    <nd ref="599930820"/>
    <nd ref="599930821"/>
    <nd ref="599930822"/>
    <nd ref="599930823"/>
    <nd ref="599930824"/>
    <nd ref="599930825"/>
    <nd ref="599930826"/>
    <nd ref="599930828"/>
    <nd ref="599930829"/>
    <nd ref="599930830"/>
    <nd ref="599930831"/>
    <nd ref="599930832"/>
    <nd ref="599930833"/>
    <nd ref="599930834"/>
    <nd ref="599930835"/>
    <nd ref="599930836"/>
    <nd ref="599930837"/>
    <nd ref="599930838"/>
    <nd ref="599930839"/>
    <nd ref="599930840"/>
    <nd ref="599930841"/>
    <nd ref="599930842"/>
    <nd ref="599930843"/>
    <nd ref="599930844"/>
    <nd ref="599930845"/>
    <nd ref="599930848"/>
    <nd ref="599930849"/>
    <nd ref="599930850"/>
    <nd ref="599930851"/>
    <nd ref="599930855"/>
    <nd ref="599930857"/>
    <nd ref="599930859"/>
    <nd ref="599930865"/>
    <nd ref="599930870"/>
    <nd ref="599930871"/>
    <nd ref="599930872"/>
    <nd ref="599930877"/>
    <tag k="layer" v="-1"/>
    <tag k="waterway" v="stream"/>
  </way>
  <way id="47030504" version="3" timestamp="2010-05-22T14:39:08Z" uid="4467" user="Rosscoe" changeset="4774861">
    <nd ref="599930963"/>
    <nd ref="599930960"/>
    <nd ref="599930962"/>
    <nd ref="745542306"/>
    <nd ref="599930961"/>
    <nd ref="695233825"/>
    <nd ref="599930963"/>
    <tag k="landuse" v="grass"/>
    <tag k="source" v="nearmap"/>
  </way>
  <way id="47030532" version="1" timestamp="2009-12-27T10:45:24Z" uid="74617" user="JohnSmith" changeset="3461396">
    <nd ref="599931068"/>
    <nd ref="599931069"/>
    <tag k="aeroway" v="runway"/>
    <tag k="source" v="yahoo"/>
  </way>
  <way id="47030760" version="4" timestamp="2010-07-08T04:38:00Z" uid="74617" user="JohnSmith" changeset="5163091">
    <nd ref="599933679"/>
    <nd ref="599933682"/>
    <nd ref="599933683"/>
    <nd ref="770966708"/>
    <nd ref="599933684"/>
    <nd ref="770966752"/>
    <nd ref="599933685"/>
    <nd ref="599933686"/>
    <nd ref="599933687"/>
    <nd ref="599933688"/>
    <nd ref="599933689"/>
    <tag k="highway" v="residential"/>
    <tag k="maxspeed" v="50"/>
    <tag k="maxspeed:source" v="default residential speed limit in Australia"/>
    <tag k="name" v="Coolabah Close"/>
    <tag k="source" v="GPS"/>
  </way>
  <way id="47030760" version="5" timestamp="2010-08-27T05:12:19Z" uid="4467" user="Rosscoe" changeset="5604436">
    <nd ref="599933679"/>
    <nd ref="599933682"/>
    <nd ref="599933683"/>
    <nd ref="770966708"/>
    <nd ref="599933684"/>
    <nd ref="770966752"/>
    <nd ref="599933685"/>
    <nd ref="599933686"/>
    <nd ref="599933687"/>
    <nd ref="599933688"/>
    <nd ref="599933689"/>
    <tag k="highway" v="residential"/>
    <tag k="maxspeed" v="50"/>
    <tag k="name" v="Coolabah Close"/>
    <tag k="source" v="GPS"/>
    <tag k="source:maxspeed" v="default residential speed limit in Australia"/>
  </way>
  <way id="47030760" version="6" timestamp="2011-04-23T22:49:57Z" uid="4467" user="Rosscoe" changeset="7948337">
    <nd ref="599933679"/>
    <nd ref="599933682"/>
    <nd ref="599933683"/>
    <nd ref="770966708"/>
    <nd ref="599933684"/>
    <nd ref="770966752"/>
    <nd ref="599933685"/>
    <nd ref="599933686"/>
    <nd ref="599933687"/>
    <nd ref="599933688"/>
    <nd ref="599933689"/>
    <tag k="highway" v="residential"/>
    <tag k="maxspeed" v="50"/>
    <tag k="name" v="Coolabah Close"/>
    <tag k="source" v="survey"/>
    <tag k="source:maxspeed" v="default residential speed limit in Australia"/>
    <tag k="survey" v="GPS"/>
  </way>
  <way id="47030866" version="5" timestamp="2011-04-20T11:18:02Z" uid="115477" user="wowik" changeset="7915124">
    <nd ref="599934503"/>
    <nd ref="599934504"/>
    <nd ref="664020594"/>
    <nd ref="599934505"/>
    <nd ref="599934506"/>
    <nd ref="599934503"/>
    <tag k="addr:city" v="Москва"/>
    <tag k="addr:country" v="RU"/>
    <tag k="addr:housenumber" v="28/1"/>
    <tag k="addr:housenumber2" v="1/28"/>
    <tag k="addr:postcode" v="121069"/>
    <tag k="addr:street" v="Малая Никитская улица"/>
    <tag k="addr:street2" v="Вспольный переулок"/>
    <tag k="amenity" v="embassy"/>
    <tag k="building" v="yes"/>
    <tag k="cladr:code" v="77000000000712100"/>
    <tag k="country" v="TN"/>
    <tag k="name" v="посольство Туниса"/>
    <tag k="name:en" v="Embassy of Tunisia"/>
    <tag k="name:ru" v="посольство Туниса"/>
  </way>
  <way id="47030949" version="5" timestamp="2011-04-20T11:18:47Z" uid="115477" user="wowik" changeset="7915124">
    <nd ref="599934893"/>
    <nd ref="599934894"/>
    <nd ref="599934895"/>
    <nd ref="599934896"/>
    <nd ref="599934893"/>
    <tag k="addr:city" v="Москва"/>
    <tag k="addr:country" v="RU"/>
    <tag k="addr:housenumber" v="5 с1"/>
    <tag k="addr:postcode" v="123001"/>
    <tag k="addr:street" v="Вспольный переулок"/>
    <tag k="building" v="yes"/>
    <tag k="cladr:code" v="77000000000104100"/>
  </way>
  <way id="47030995" version="5" timestamp="2011-04-20T11:18:15Z" uid="115477" user="wowik" changeset="7915124">
    <nd ref="664020661"/>
    <nd ref="664020662"/>
    <nd ref="599935423"/>
    <nd ref="599935424"/>
    <nd ref="599935425"/>
    <nd ref="599935426"/>
    <nd ref="664020661"/>
    <tag k="addr:city" v="Москва"/>
    <tag k="addr:country" v="RU"/>
    <tag k="addr:housenumber" v="24/4"/>
    <tag k="addr:housenumber2" v="4/24"/>
    <tag k="addr:postcode" v="121069"/>
    <tag k="addr:street" v="Малая Никитская улица"/>
    <tag k="addr:street2" v="Вспольный переулок"/>
    <tag k="building" v="yes"/>
    <tag k="cladr:code" v="77000000000712100"/>
  </way>
</osm>
