<?xml version='1.0' encoding='UTF-8'?>
<osm version="0.6" generator="libosmium/2.20.0">
  <way id="47031034" version="4" timestamp="2011-04-20T11:19:27Z" uid="115477" user="wowik" changeset="7915253">
    <nd ref="599935887"/>
    <nd ref="599935888"/>
    <nd ref="599935889"/>
    <nd ref="599935890"/>
    <nd ref="599935891"/>
    <nd ref="599935892"/>
    <nd ref="599935887"/>
    <tag k="addr:city" v="Москва"/>
    <tag k="addr:country" v="RU"/>
    <tag k="addr:housenumber" v="57"/>
    <tag k="addr:postcode" v="121069"/>
    <tag k="addr:street" v="Большая Никитская улица"/>
    <tag k="building" v="yes"/>
    <tag k="cladr:code" v="77000000000711100"/>
  </way>
  <way id="47031092" version="5" timestamp="2011-04-20T07:30:56Z" uid="115477" user="wowik" changeset="7913535">
    <nd ref="599936456"/>
    <nd ref="599936457"/>
    <nd ref="599936458"/>
    <nd ref="599936459"/>
    <nd ref="599936456"/>
    <tag k="addr:city" v="Москва"/>
    <tag k="addr:country" v="RU"/>
    <tag k="addr:housenumber" v="55"/>
    <tag k="addr:postcode" v="121069"/>
    <tag k="addr:street" v="Большая Никитская улица"/>
    <tag k="building" v="yes"/>
    <tag k="cladr:code" v="77000000000711100"/>
  </way>
  <way id="47031131" version="6" timestamp="2011-04-20T11:18:52Z" uid="115477" user="wowik" changeset="7915124">
    <nd ref="599936806"/>
    <nd ref="599936814"/>
    <nd ref="599936821"/>
    <nd ref="599936829"/>
    <nd ref="820793386"/>
    <nd ref="820793843"/>
    <nd ref="599936834"/>
    <nd ref="599936841"/>
    <nd ref="599936806"/>
    <tag k="addr:city" v="Москва"/>
    <tag k="addr:country" v="RU"/>
    <tag k="addr:housenumber" v="53"/>
    <tag k="addr:postcode" v="121069"/>
    <tag k="addr:street" v="Большая Никитская улица"/>
    <tag k="building" v="yes"/>
    <tag k="cladr:code" v="77000000000711100"/>
  </way>
  <way id="47031147" version="4" timestamp="2011-04-20T07:30:50Z" uid="115477" user="wowik" changeset="7913535">
    <nd ref="599937005"/>
    <nd ref="599937008"/>
    <nd ref="599937012"/>
    <nd ref="599937013"/>
    <nd ref="599937005"/>
    <tag k="addr:city" v="Москва"/>
    <tag k="addr:country" v="RU"/>
    <tag k="addr:housenumber" v="56"/>
    <tag k="addr:postcode" v="121069"/>
    <tag k="addr:street" v="Большая Никитская улица"/>
    <tag k="building" v="yes"/>
    <tag k="cladr:code" v="77000000000711100"/>
  </way>
  <way id="47031231" version="4" timestamp="2011-04-20T07:31:00Z" uid="115477" user="wowik" changeset="7913535">
    <nd ref="599937761"/>
    <nd ref="599937762"/>
    <nd ref="599937763"/>
    <nd ref="599937764"/>
    <nd ref="599937765"/>
    <nd ref="599937766"/>
    <nd ref="599937761"/>
    <tag k="addr:city" v="Москва"/>
    <tag k="addr:country" v="RU"/>
    <tag k="addr:housenumber" v="5/50"/>
    <tag k="addr:postcode" v="121069"/>
    <tag k="addr:street" v="Скарятинский переулок"/>
    <tag k="building" v="yes"/>
    <tag k="cladr:code" v="77000000000715400"/>
  </way>
  <way id="47031318" version="4" timestamp="2011-04-20T11:19:27Z" uid="115477" user="wowik" changeset="7915253">
    <nd ref="599938213"/>
    <nd ref="599938214"/>
    <nd ref="599938215"/>
    <nd ref="599938216"/>
    <nd ref="599938213"/>
    <tag k="addr:city" v="Москва"/>
    <tag k="addr:country" v="RU"/>
    <tag k="addr:housenumber" v="52"/>
    <tag k="addr:postcode" v="121069"/>
    <tag k="addr:street" v="Большая Никитская улица"/>
    <tag k="building" v="yes"/>
    <tag k="cladr:code" v="77000000000711100"/>
  </way>
  <way id="47031345" version="9" timestamp="2011-04-20T07:31:07Z" uid="115477" user="wowik" changeset="7913535">
    <nd ref="599938408"/>
    <nd ref="599938409"/>
    <nd ref="599938410"/>
    <nd ref="599938411"/>
    <nd ref="599938412"/>
    <nd ref="599938413"/>
    <nd ref="599938408"/>
    <tag k="addr:city" v="Москва"/>
    <tag k="addr:country" v="RU"/>
    <tag k="addr:housenumber" v="54"/>
    <tag k="addr:postcode" v="121069"/>
    <tag k="addr:street" v="Большая Никитская улица"/>
    <tag k="amenity" v="embassy"/>
    <tag k="building" v="yes"/>
    <tag k="cladr:code" v="77000000000711100"/>
    <tag k="country" v="BR"/>
    <tag k="name" v="посольство Бразилии"/>
    <tag k="name:en" v="embassy of Brasil"/>
    <tag k="name:ru" v="посольство Бразилии"/>
    <tag k="official_name" v="посольство Федеративной Республики Бразилия"/>
    <tag k="target" v="RU"/>
  </way>
  <way id="47031428" version="10" timestamp="2011-04-20T11:18:05Z" uid="115477" user="wowik" changeset="7915124">
    <nd ref="599939071"/>
    <nd ref="599939072"/>
    <nd ref="599939073"/>
    <nd ref="599939074"/>
    <nd ref="599939071"/>
    <tag k="addr:city" v="Москва"/>
    <tag k="addr:country" v="RU"/>
    <tag k="addr:housenumber" v="51"/>
    <tag k="addr:postcode" v="121069"/>
    <tag k="addr:street" v="Большая Никитская улица"/>
    <tag k="amenity" v="embassy"/>
    <tag k="building" v="yes"/>
    <tag k="cladr:code" v="77000000000711100"/>
    <tag k="country" v="MA"/>
    <tag k="name" v="посольство Марокко"/>
    <tag k="name:en" v="embassy of Morocco"/>
    <tag k="name:ru" v="посольство Марокко"/>
    <tag k="target" v="RU"/>
  </way>
  <way id="47031455" version="4" timestamp="2011-04-20T11:18:25Z" uid="115477" user="wowik" changeset="7915124">
    <nd ref="599939365"/>
    <nd ref="599939366"/>
    <nd ref="599939367"/>
    <nd ref="599939368"/>
    <nd ref="599939369"/>
    <nd ref="599939370"/>
    <nd ref="599939365"/>
    <tag k="addr:city" v="Москва"/>
    <tag k="addr:country" v="RU"/>
    <tag k="addr:housenumber" v="58"/>
    <tag k="addr:postcode" v="121069"/>
    <tag k="addr:street" v="Большая Никитская улица"/>
    <tag k="building" v="yes"/>
    <tag k="cladr:code" v="77000000000711100"/>
  </way>
</osm>
