<?xml version='1.0' encoding='UTF-8'?>
<osm version="0.6" generator="libosmium/2.20.0">
  <way id="47257689" version="1" timestamp="2009-12-31T14:47:25Z" uid="20587" user="balrog-kun" changeset="3501400">
    <nd ref="81173757"/>
    <nd ref="602167881"/>
    <nd ref="602167936"/>
    <nd ref="26966288"/>
    <nd ref="273611502"/>
    <nd ref="339889110"/>
    <nd ref="26909494"/>
    <tag k="highway" v="primary"/>
    <tag k="maxspeed" v="70"/>
    <tag k="name" v="Puławska"/>
    <tag k="oneway" v="yes"/>
    <tag k="ref" v="79"/>
  </way>
  <way id="47257690" version="1" timestamp="2009-12-31T14:47:25Z" uid="20587" user="balrog-kun" changeset="3501400">
    <nd ref="26909494"/>
    <nd ref="339889111"/>
    <nd ref="270207800"/>
    <nd ref="339919158"/>
    <nd ref="339919193"/>
    <nd ref="270207777"/>
    <nd ref="273611491"/>
    <nd ref="339919265"/>
    <nd ref="31717992"/>
    <nd ref="55521036"/>
    <nd ref="339919295"/>
    <nd ref="273611445"/>
    <nd ref="339919270"/>
    <nd ref="26405571"/>
    <nd ref="322232224"/>
    <nd ref="248886064"/>
    <nd ref="322232218"/>
    <nd ref="26405568"/>
    <nd ref="339919312"/>
    <nd ref="270207709"/>
    <nd ref="311426048"/>
    <nd ref="55461848"/>
    <nd ref="339919467"/>
    <nd ref="33694130"/>
    <nd ref="261666239"/>
    <nd ref="32946688"/>
    <nd ref="26405567"/>
    <nd ref="31930661"/>
    <tag k="highway" v="primary"/>
    <tag k="maxspeed" v="70"/>
    <tag k="maxweight" v="16"/>
    <tag k="name" v="Puławska"/>
    <tag k="oneway" v="yes"/>
    <tag k="ref" v="79"/>
  </way>
  <way id="47257690" version="2" timestamp="2010-12-24T12:55:45Z" uid="20587" user="balrog-kun" changeset="6754293">
    <nd ref="26909494"/>
    <nd ref="339889111"/>
    <nd ref="270207800"/>
    <nd ref="339919158"/>
    <nd ref="339919193"/>
    <nd ref="270207777"/>
    <nd ref="273611491"/>
    <nd ref="339919265"/>
    <nd ref="31717992"/>
    <nd ref="55521036"/>
    <nd ref="339919295"/>
    <nd ref="273611445"/>
    <nd ref="26405571"/>
    <nd ref="1061791632"/>
    <nd ref="322232224"/>
    <nd ref="248886064"/>
    <nd ref="322232218"/>
    <nd ref="26405568"/>
    <nd ref="339919312"/>
    <nd ref="270207709"/>
    <nd ref="311426048"/>
    <nd ref="55461848"/>
    <nd ref="339919467"/>
    <nd ref="33694130"/>
    <nd ref="261666239"/>
    <nd ref="32946688"/>
    <nd ref="26405567"/>
    <nd ref="31930661"/>
    <tag k="highway" v="primary"/>
    <tag k="maxspeed" v="70"/>
    <tag k="maxweight" v="16"/>
    <tag k="name" v="Puławska"/>
    <tag k="oneway" v="yes"/>
    <tag k="ref" v="79"/>
  </way>
  <way id="47257691" version="1" timestamp="2009-12-31T14:47:26Z" uid="20587" user="balrog-kun" changeset="3501400">
    <nd ref="602167937"/>
    <nd ref="602167960"/>
    <tag k="waterway" v="drain"/>
  </way>
  <way id="47257692" version="1" timestamp="2009-12-31T14:47:26Z" uid="20587" user="balrog-kun" changeset="3501400">
    <nd ref="602167962"/>
    <nd ref="602167939"/>
    <nd ref="602167945"/>
    <nd ref="602167943"/>
    <nd ref="602167941"/>
    <nd ref="602167955"/>
    <nd ref="602167975"/>
    <nd ref="602167962"/>
    <tag k="building" v="retail"/>
    <tag k="name" v="Weishaupt"/>
    <tag k="shop" v="heating_systems"/>
  </way>
  <way id="47257693" version="1" timestamp="2009-12-31T14:47:26Z" uid="20587" user="balrog-kun" changeset="3501400">
    <nd ref="602167977"/>
    <nd ref="602167956"/>
    <tag k="highway" v="service"/>
  </way>
  <way id="47257694" version="1" timestamp="2009-12-31T14:47:26Z" uid="20587" user="balrog-kun" changeset="3501400">
    <nd ref="26909492"/>
    <nd ref="270207853"/>
    <nd ref="339889109"/>
    <nd ref="273611560"/>
    <nd ref="246812724"/>
    <nd ref="246812746"/>
    <nd ref="270207886"/>
    <nd ref="602167882"/>
    <nd ref="270207885"/>
    <nd ref="602167870"/>
    <nd ref="322980425"/>
    <nd ref="570813059"/>
    <nd ref="26063723"/>
    <tag k="highway" v="primary"/>
    <tag k="maxspeed" v="70"/>
    <tag k="name" v="Puławska"/>
    <tag k="oneway" v="yes"/>
    <tag k="ref" v="79"/>
  </way>
  <way id="47257694" version="2" timestamp="2010-06-20T03:57:36Z" uid="20587" user="balrog-kun" changeset="5029412">
    <nd ref="26909492"/>
    <nd ref="270207853"/>
    <nd ref="339889109"/>
    <nd ref="273611560"/>
    <nd ref="246812724"/>
    <nd ref="246812746"/>
    <tag k="highway" v="primary"/>
    <tag k="maxspeed" v="70"/>
    <tag k="name" v="Puławska"/>
    <tag k="oneway" v="yes"/>
    <tag k="ref" v="79"/>
  </way>
  <way id="47257695" version="1" timestamp="2009-12-31T14:47:26Z" uid="20587" user="balrog-kun" changeset="3501400">
    <nd ref="602167869"/>
    <nd ref="81173757"/>
    <tag k="highway" v="primary"/>
    <tag k="maxspeed" v="50"/>
    <tag k="name" v="Puławska"/>
    <tag k="oneway" v="yes"/>
    <tag k="ref" v="79"/>
  </way>
  <way id="47257696" version="1" timestamp="2009-12-31T14:47:26Z" uid="20587" user="balrog-kun" changeset="3501400">
    <nd ref="602167872"/>
    <nd ref="602167874"/>
    <nd ref="602167875"/>
    <nd ref="602167871"/>
    <nd ref="602167872"/>
    <tag k="building" v="shop"/>
    <tag k="name" v="Lexus Puławska"/>
    <tag k="shop" v="car"/>
  </way>
  <way id="47257697" version="1" timestamp="2009-12-31T14:47:26Z" uid="20587" user="balrog-kun" changeset="3501400">
    <nd ref="602167895"/>
    <nd ref="602167876"/>
    <nd ref="602167877"/>
    <nd ref="602167899"/>
    <nd ref="602167900"/>
    <nd ref="602167907"/>
    <nd ref="602167895"/>
    <tag k="landuse" v="retail"/>
    <tag k="name" v="Volvo"/>
    <tag k="shop" v="car"/>
  </way>
  <way id="47257698" version="1" timestamp="2009-12-31T14:47:26Z" uid="20587" user="balrog-kun" changeset="3501400">
    <nd ref="602167925"/>
    <nd ref="602167927"/>
    <nd ref="602167918"/>
    <nd ref="602167920"/>
    <nd ref="602167922"/>
    <nd ref="602167923"/>
    <nd ref="602167916"/>
    <nd ref="602167925"/>
    <tag k="addr:housenumber" v="558"/>
    <tag k="addr:street" v="Puławska"/>
    <tag k="building" v="fuel"/>
  </way>
  <way id="47257699" version="1" timestamp="2009-12-31T14:47:27Z" uid="20587" user="balrog-kun" changeset="3501400">
    <nd ref="602167896"/>
    <nd ref="602167893"/>
    <nd ref="602167894"/>
    <nd ref="602167901"/>
    <nd ref="602167905"/>
    <nd ref="602167903"/>
    <nd ref="602167902"/>
    <nd ref="602167908"/>
    <nd ref="602167914"/>
    <nd ref="602167913"/>
    <nd ref="602167912"/>
    <nd ref="602167898"/>
    <nd ref="602167897"/>
    <nd ref="602167896"/>
    <tag k="addr:housenumber" v="560"/>
    <tag k="addr:street" v="Puławska"/>
    <tag k="building" v="retail"/>
  </way>
  <way id="47257700" version="1" timestamp="2009-12-31T14:47:27Z" uid="20587" user="balrog-kun" changeset="3501400">
    <nd ref="602167946"/>
    <nd ref="602167948"/>
    <tag k="highway" v="service"/>
  </way>
  <way id="47257701" version="1" timestamp="2009-12-31T14:47:27Z" uid="20587" user="balrog-kun" changeset="3501400">
    <nd ref="602167950"/>
    <nd ref="602167883"/>
    <nd ref="602167884"/>
    <nd ref="602167885"/>
    <nd ref="602167887"/>
    <nd ref="602167888"/>
    <nd ref="602167889"/>
    <nd ref="261666305"/>
    <nd ref="602167890"/>
    <nd ref="602167932"/>
    <nd ref="602167934"/>
    <nd ref="602167936"/>
    <tag k="highway" v="service"/>
  </way>
  <way id="47257702" version="1" timestamp="2009-12-31T14:47:27Z" uid="20587" user="balrog-kun" changeset="3501400">
    <nd ref="602167883"/>
    <nd ref="602167891"/>
    <nd ref="602167948"/>
    <nd ref="602167952"/>
    <nd ref="602167950"/>
    <nd ref="602167953"/>
    <nd ref="602167892"/>
    <nd ref="602167889"/>
    <tag k="highway" v="service"/>
  </way>
  <way id="47257703" version="1" timestamp="2009-12-31T14:47:27Z" uid="20587" user="balrog-kun" changeset="3501400">
    <nd ref="602167967"/>
    <nd ref="602167957"/>
    <nd ref="602167958"/>
    <nd ref="602167969"/>
    <nd ref="602167967"/>
    <tag k="amenity" v="parking"/>
  </way>
  <way id="47257704" version="1" timestamp="2009-12-31T14:47:27Z" uid="20587" user="balrog-kun" changeset="3501400">
    <nd ref="602167959"/>
    <nd ref="602167970"/>
    <tag k="waterway" v="drain"/>
  </way>
  <way id="47257705" version="1" timestamp="2009-12-31T14:47:27Z" uid="20587" user="balrog-kun" changeset="3501400">
    <nd ref="602167972"/>
    <nd ref="602167974"/>
    <nd ref="602167966"/>
    <nd ref="602167964"/>
    <nd ref="602167972"/>
    <tag k="addr:housenumber" v="617"/>
    <tag k="addr:street" v="Puławska"/>
    <tag k="building" v="offices"/>
    <tag k="name" v="Boels"/>
    <tag k="shop" v="construction_materials"/>
  </way>
  <way id="47257706" version="1" timestamp="2009-12-31T14:47:27Z" uid="20587" user="balrog-kun" changeset="3501400">
    <nd ref="602167984"/>
    <nd ref="602167979"/>
    <tag k="addr:interpolation" v="odd"/>
  </way>
  <way id="47257707" version="1" timestamp="2009-12-31T14:47:27Z" uid="20587" user="balrog-kun" changeset="3501400">
    <nd ref="602168052"/>
    <nd ref="602168032"/>
    <nd ref="602168036"/>
    <nd ref="602168034"/>
    <nd ref="602168052"/>
    <tag k="amenity" v="bank"/>
    <tag k="building" v="offices"/>
    <tag k="building:levels" v="4"/>
    <tag k="name" v="PKO S.A."/>
  </way>
  <way id="47257708" version="1" timestamp="2009-12-31T14:47:28Z" uid="20587" user="balrog-kun" changeset="3501400">
    <nd ref="339919378"/>
    <nd ref="270207769"/>
    <nd ref="270207770"/>
    <nd ref="270207771"/>
    <nd ref="322232229"/>
    <nd ref="270207772"/>
    <tag k="highway" v="residential"/>
    <tag k="maxspeed" v="30"/>
    <tag k="name" v="Głuszca"/>
  </way>
  <way id="47257709" version="1" timestamp="2009-12-31T14:47:28Z" uid="20587" user="balrog-kun" changeset="3501400">
    <nd ref="602167986"/>
    <nd ref="602167988"/>
    <nd ref="602167989"/>
    <nd ref="602167990"/>
    <nd ref="602167986"/>
    <tag k="addr:housenumber" v="3"/>
    <tag k="addr:street" v="Sporna"/>
    <tag k="building" v="retail"/>
    <tag k="name" v="Mitsubishi"/>
    <tag k="shop" v="car"/>
  </way>
  <way id="47257710" version="1" timestamp="2009-12-31T14:47:28Z" uid="20587" user="balrog-kun" changeset="3501400">
    <nd ref="602167999"/>
    <nd ref="602167991"/>
    <nd ref="602167992"/>
    <nd ref="602168000"/>
    <nd ref="602167999"/>
    <tag k="amenity" v="parking"/>
  </way>
  <way id="47257711" version="1" timestamp="2009-12-31T14:47:28Z" uid="20587" user="balrog-kun" changeset="3501400">
    <nd ref="261020083"/>
    <nd ref="261020080"/>
    <tag k="highway" v="service"/>
  </way>
  <way id="47257712" version="1" timestamp="2009-12-31T14:47:28Z" uid="20587" user="balrog-kun" changeset="3501400">
    <nd ref="602168002"/>
    <nd ref="602167993"/>
    <nd ref="602167994"/>
    <nd ref="602168003"/>
    <nd ref="602168002"/>
    <tag k="amenity" v="parking"/>
  </way>
  <way id="47257713" version="1" timestamp="2009-12-31T14:47:28Z" uid="20587" user="balrog-kun" changeset="3501400">
    <nd ref="602167995"/>
    <nd ref="602167996"/>
    <nd ref="602167998"/>
    <nd ref="602167997"/>
    <nd ref="602167995"/>
    <tag k="amenity" v="parking"/>
  </way>
  <way id="47257714" version="1" timestamp="2009-12-31T14:47:29Z" uid="20587" user="balrog-kun" changeset="3501400">
    <nd ref="602168006"/>
    <nd ref="602168008"/>
    <nd ref="602168010"/>
    <nd ref="602168009"/>
    <nd ref="602168006"/>
    <tag k="addr:housenumber" v="511"/>
    <tag k="addr:street" v="Puławska"/>
    <tag k="building" v="retail"/>
    <tag k="name" v="Ściany przestawne"/>
    <tag k="shop" v="construction_materials"/>
  </way>
  <way id="47257715" version="1" timestamp="2009-12-31T14:47:29Z" uid="20587" user="balrog-kun" changeset="3501400">
    <nd ref="602168011"/>
    <nd ref="602168012"/>
    <nd ref="602168014"/>
    <nd ref="602168013"/>
    <nd ref="602168018"/>
    <nd ref="602168019"/>
    <nd ref="602168015"/>
    <nd ref="602168011"/>
    <tag k="addr:housenumber" v="509"/>
    <tag k="addr:street" v="Puławska"/>
    <tag k="building" v="offices"/>
    <tag k="name" v="Comarch (budynek C)"/>
    <tag k="operator" v="Comarch"/>
  </way>
  <way id="47257716" version="1" timestamp="2009-12-31T14:47:29Z" uid="20587" user="balrog-kun" changeset="3501400">
    <nd ref="602168037"/>
    <nd ref="602168038"/>
    <nd ref="602168039"/>
    <nd ref="602168040"/>
    <nd ref="602168048"/>
    <nd ref="602168047"/>
    <nd ref="602168037"/>
    <tag k="amenity" v="parking"/>
  </way>
  <way id="47257717" version="1" timestamp="2009-12-31T14:47:29Z" uid="20587" user="balrog-kun" changeset="3501400">
    <nd ref="602168041"/>
    <nd ref="602168040"/>
    <nd ref="602168039"/>
    <nd ref="602168042"/>
    <nd ref="602168043"/>
    <nd ref="602168044"/>
    <nd ref="602168045"/>
    <nd ref="602168046"/>
    <nd ref="602168041"/>
    <tag k="amenity" v="parking"/>
  </way>
  <way id="47257718" version="1" timestamp="2009-12-31T14:47:29Z" uid="20587" user="balrog-kun" changeset="3501400">
    <nd ref="602168033"/>
    <nd ref="602168023"/>
    <nd ref="602168047"/>
    <nd ref="602168048"/>
    <nd ref="602168033"/>
    <tag k="landuse" v="retail"/>
    <tag k="name" v="POL-MOT Auto"/>
  </way>
  <way id="47257719" version="1" timestamp="2009-12-31T14:47:29Z" uid="20587" user="balrog-kun" changeset="3501400">
    <nd ref="602168024"/>
    <nd ref="602168025"/>
    <nd ref="602168027"/>
    <nd ref="602168028"/>
    <nd ref="602168029"/>
    <nd ref="602168030"/>
    <nd ref="602168026"/>
    <nd ref="602168024"/>
    <tag k="building" v="retail"/>
  </way>
  <way id="47257720" version="1" timestamp="2009-12-31T14:47:29Z" uid="20587" user="balrog-kun" changeset="3501400">
    <nd ref="31718213"/>
    <nd ref="339919475"/>
    <nd ref="311426025"/>
    <nd ref="273611365"/>
    <nd ref="273611341"/>
    <nd ref="339919499"/>
    <nd ref="248885130"/>
    <nd ref="339919501"/>
    <nd ref="248885127"/>
    <nd ref="26405566"/>
    <nd ref="248885124"/>
    <nd ref="270313025"/>
    <nd ref="270313045"/>
    <nd ref="31717945"/>
    <nd ref="26195490"/>
    <tag k="highway" v="primary"/>
    <tag k="maxspeed" v="70"/>
    <tag k="maxweight" v="16"/>
    <tag k="name" v="Puławska"/>
    <tag k="oneway" v="yes"/>
    <tag k="ref" v="79"/>
  </way>
  <way id="47257720" version="2" timestamp="2011-05-01T09:03:55Z" uid="20587" user="balrog-kun" changeset="8018926">
    <nd ref="31718213"/>
    <nd ref="339919475"/>
    <nd ref="311426025"/>
    <nd ref="273611365"/>
    <nd ref="273611341"/>
    <nd ref="339919499"/>
    <nd ref="248885130"/>
    <nd ref="339919501"/>
    <nd ref="248885127"/>
    <nd ref="26405566"/>
    <nd ref="248885124"/>
    <nd ref="270313025"/>
    <nd ref="270313045"/>
    <nd ref="31717945"/>
    <nd ref="26195490"/>
    <tag k="highway" v="primary"/>
    <tag k="lit" v="yes"/>
    <tag k="maxspeed" v="70"/>
    <tag k="maxweight" v="16"/>
    <tag k="name" v="Puławska"/>
    <tag k="oneway" v="yes"/>
    <tag k="ref" v="79"/>
  </way>
  <way id="47257721" version="1" timestamp="2009-12-31T14:47:29Z" uid="20587" user="balrog-kun" changeset="3501400">
    <nd ref="31718213"/>
    <nd ref="31718141"/>
    <tag k="highway" v="tertiary"/>
    <tag k="name" v="Filipiny Płaskowickiej"/>
    <tag k="oneway" v="yes"/>
  </way>
  <way id="47257722" version="1" timestamp="2009-12-31T14:47:29Z" uid="20587" user="balrog-kun" changeset="3501400">
    <nd ref="31930661"/>
    <nd ref="31718113"/>
    <nd ref="31930649"/>
    <tag k="highway" v="tertiary"/>
    <tag k="oneway" v="yes"/>
  </way>
  <way id="47257723" version="1" timestamp="2009-12-31T14:47:30Z" uid="20587" user="balrog-kun" changeset="3501400">
    <nd ref="31930661"/>
    <nd ref="31718213"/>
    <tag k="highway" v="primary"/>
    <tag k="maxspeed" v="70"/>
    <tag k="maxweight" v="16"/>
    <tag k="name" v="Puławska"/>
    <tag k="oneway" v="yes"/>
    <tag k="ref" v="79"/>
  </way>
  <way id="47257813" version="2" timestamp="2010-06-29T19:12:47Z" uid="74617" user="JohnSmith" changeset="5108182">
    <nd ref="602170305"/>
    <nd ref="602170308"/>
    <nd ref="602170310"/>
    <nd ref="602170313"/>
    <nd ref="602170317"/>
    <nd ref="602170320"/>
    <nd ref="602170322"/>
    <nd ref="602170329"/>
    <nd ref="602170331"/>
    <nd ref="602170334"/>
    <nd ref="602170338"/>
    <nd ref="602170305"/>
    <tag k="fixme" v="sport=football is ambiguous, see http://wiki.osm.org/wiki/Football for more details"/>
    <tag k="leisure" v="pitch"/>
    <tag k="sport" v="football"/>
  </way>
</osm>
