<?xml version='1.0' encoding='UTF-8'?>
<osm version="0.6" generator="libosmium/2.20.0">
  <way id="47296008" version="5" timestamp="2011-04-05T18:14:26Z" uid="9581" user="Lobelt" changeset="7777532">
    <nd ref="602519773"/>
    <nd ref="1233891958"/>
    <nd ref="290796402"/>
    <nd ref="290796404"/>
    <nd ref="582597512"/>
    <nd ref="582975502"/>
    <nd ref="290796406"/>
    <nd ref="649177698"/>
    <nd ref="290796407"/>
    <nd ref="649177830"/>
    <nd ref="290796408"/>
    <nd ref="579878193"/>
    <nd ref="290796409"/>
    <nd ref="582975476"/>
    <nd ref="582975481"/>
    <nd ref="290796410"/>
    <nd ref="632655976"/>
    <nd ref="290796411"/>
    <nd ref="290796412"/>
    <nd ref="290796413"/>
    <nd ref="290796414"/>
    <nd ref="290796415"/>
    <nd ref="290796416"/>
    <nd ref="671328652"/>
    <tag k="highway" v="secondary"/>
    <tag k="name" v="Hauptstraße"/>
    <tag k="ref" v="L 496"/>
  </way>
  <way id="47296014" version="6" timestamp="2011-04-05T18:14:17Z" uid="9581" user="Lobelt" changeset="7777532">
    <nd ref="290796421"/>
    <nd ref="290796423"/>
    <tag k="highway" v="secondary"/>
    <tag k="name" v="Hauptstraße"/>
    <tag k="ref" v="L 496"/>
  </way>
  <way id="47296028" version="2" timestamp="2011-04-05T18:14:19Z" uid="9581" user="Lobelt" changeset="7777532">
    <nd ref="602519922"/>
    <nd ref="602519923"/>
    <nd ref="602519902"/>
    <tag k="highway" v="track"/>
    <tag k="tracktype" v="grade3"/>
  </way>
  <way id="47296147" version="5" timestamp="2011-04-20T07:30:35Z" uid="115477" user="wowik" changeset="7913535">
    <nd ref="602520637"/>
    <nd ref="602520638"/>
    <nd ref="594526756"/>
    <nd ref="602520640"/>
    <nd ref="602520637"/>
    <tag k="addr:city" v="Москва"/>
    <tag k="addr:country" v="RU"/>
    <tag k="addr:housenumber" v="23"/>
    <tag k="addr:postcode" v="121069"/>
    <tag k="addr:street" v="Поварская улица"/>
    <tag k="building" v="yes"/>
    <tag k="cladr:code" v="77000000000701300"/>
  </way>
  <way id="47296208" version="4" timestamp="2011-04-20T11:18:38Z" uid="115477" user="wowik" changeset="7915124">
    <nd ref="602520973"/>
    <nd ref="602520974"/>
    <nd ref="602520975"/>
    <nd ref="602520976"/>
    <nd ref="602520977"/>
    <nd ref="602520978"/>
    <nd ref="602520973"/>
    <tag k="addr:city" v="Москва"/>
    <tag k="addr:country" v="RU"/>
    <tag k="addr:housenumber" v="25"/>
    <tag k="addr:postcode" v="121069"/>
    <tag k="addr:street" v="Поварская улица"/>
    <tag k="building" v="yes"/>
    <tag k="cladr:code" v="77000000000701300"/>
  </way>
  <way id="47296302" version="5" timestamp="2011-04-20T07:30:46Z" uid="115477" user="wowik" changeset="7913535">
    <nd ref="602521502"/>
    <nd ref="595247494"/>
    <nd ref="602521505"/>
    <nd ref="820793923"/>
    <nd ref="602521506"/>
    <nd ref="602521507"/>
    <nd ref="820793982"/>
    <nd ref="820793331"/>
    <nd ref="602521508"/>
    <nd ref="820793732"/>
    <nd ref="820794059"/>
    <nd ref="820793446"/>
    <nd ref="820793943"/>
    <nd ref="820793595"/>
    <nd ref="820794131"/>
    <nd ref="602521502"/>
    <tag k="addr:city" v="Москва"/>
    <tag k="addr:country" v="RU"/>
    <tag k="addr:housenumber" v="27"/>
    <tag k="addr:postcode" v="121069"/>
    <tag k="addr:street" v="Поварская улица"/>
    <tag k="building" v="yes"/>
    <tag k="cladr:code" v="77000000000701300"/>
  </way>
  <way id="47296416" version="6" timestamp="2011-04-20T07:30:57Z" uid="115477" user="wowik" changeset="7913535">
    <nd ref="602522601"/>
    <nd ref="602522602"/>
    <nd ref="602522603"/>
    <nd ref="820794081"/>
    <nd ref="820793817"/>
    <nd ref="602522604"/>
    <nd ref="602522605"/>
    <nd ref="602522606"/>
    <nd ref="602522607"/>
    <nd ref="602522608"/>
    <nd ref="602522609"/>
    <nd ref="602522610"/>
    <nd ref="602522601"/>
    <tag k="addr:city" v="Москва"/>
    <tag k="addr:country" v="RU"/>
    <tag k="addr:housenumber" v="25А"/>
    <tag k="addr:postcode" v="121069"/>
    <tag k="addr:street" v="Поварская улица"/>
    <tag k="building" v="yes"/>
    <tag k="cladr:code" v="77000000000701300"/>
    <tag k="name" v="Музей А.М. Горького"/>
    <tag k="tourism" v="museum"/>
  </way>
  <way id="47296478" version="10" timestamp="2011-04-20T07:30:33Z" uid="115477" user="wowik" changeset="7913535">
    <nd ref="602523013"/>
    <nd ref="602523014"/>
    <nd ref="602523015"/>
    <nd ref="820793509"/>
    <nd ref="602523016"/>
    <nd ref="820794094"/>
    <nd ref="820793841"/>
    <nd ref="602523017"/>
    <nd ref="602523018"/>
    <nd ref="602523013"/>
    <tag k="addr:city" v="Москва"/>
    <tag k="addr:country" v="RU"/>
    <tag k="addr:housenumber" v="44"/>
    <tag k="addr:postcode" v="121069"/>
    <tag k="addr:street" v="Поварская улица"/>
    <tag k="amenity" v="embassy"/>
    <tag k="building" v="yes"/>
    <tag k="cladr:code" v="77000000000701300"/>
    <tag k="country" v="NZ"/>
    <tag k="name" v="посольство Новой Зеландии"/>
    <tag k="name:en" v="embassy of New Zealand"/>
    <tag k="name:ru" v="посольство Новой Зеландии"/>
    <tag k="target" v="RU"/>
  </way>
  <way id="47296531" version="9" timestamp="2011-04-20T11:17:54Z" uid="115477" user="wowik" changeset="7915124">
    <nd ref="602523330"/>
    <nd ref="602523331"/>
    <nd ref="602523332"/>
    <nd ref="602523333"/>
    <nd ref="602523334"/>
    <nd ref="602523335"/>
    <nd ref="602523330"/>
    <tag k="addr:city" v="Москва"/>
    <tag k="addr:country" v="RU"/>
    <tag k="addr:housenumber" v="42"/>
    <tag k="addr:postcode" v="121069"/>
    <tag k="addr:street" v="Поварская улица"/>
    <tag k="amenity" v="embassy"/>
    <tag k="building" v="yes"/>
    <tag k="cladr:code" v="77000000000701300"/>
    <tag k="country" v="AF"/>
    <tag k="name" v="посольство‎ Афганистана"/>
    <tag k="name:en" v="Embassy of Afghanistan"/>
    <tag k="name:ru" v="посольство‎ Афганистана"/>
    <tag k="target" v="RU"/>
  </way>
  <way id="47296549" version="4" timestamp="2011-04-20T07:30:39Z" uid="115477" user="wowik" changeset="7913535">
    <nd ref="602523431"/>
    <nd ref="602523432"/>
    <nd ref="602523433"/>
    <nd ref="602523434"/>
    <nd ref="602523431"/>
    <tag k="addr:city" v="Москва"/>
    <tag k="addr:country" v="RU"/>
    <tag k="addr:housenumber" v="46"/>
    <tag k="addr:postcode" v="121069"/>
    <tag k="addr:street" v="Поварская улица"/>
    <tag k="building" v="yes"/>
    <tag k="cladr:code" v="77000000000701300"/>
  </way>
  <way id="47296637" version="4" timestamp="2011-04-20T11:18:57Z" uid="115477" user="wowik" changeset="7915124">
    <nd ref="602523880"/>
    <nd ref="602523881"/>
    <nd ref="602523882"/>
    <nd ref="602523883"/>
    <nd ref="602523884"/>
    <nd ref="602523885"/>
    <nd ref="602523889"/>
    <nd ref="602523892"/>
    <nd ref="602523880"/>
    <tag k="addr:city" v="Москва"/>
    <tag k="addr:country" v="RU"/>
    <tag k="addr:housenumber" v="49"/>
    <tag k="addr:postcode" v="121069"/>
    <tag k="addr:street" v="Большая Никитская улица"/>
    <tag k="building" v="yes"/>
    <tag k="cladr:code" v="77000000000711100"/>
  </way>
  <way id="47296657" version="1" timestamp="2010-01-01T14:09:35Z" uid="7617" user="Franc" changeset="3508229">
    <nd ref="602524002"/>
    <nd ref="602524005"/>
    <nd ref="602524007"/>
    <nd ref="602524105"/>
    <tag k="highway" v="residential"/>
    <tag k="source" v="nearmap"/>
  </way>
  <way id="47296657" version="2" timestamp="2010-07-08T00:57:11Z" uid="74617" user="JohnSmith" changeset="5162525">
    <nd ref="602524002"/>
    <nd ref="602524005"/>
    <nd ref="602524007"/>
    <nd ref="602524105"/>
    <tag k="highway" v="residential"/>
    <tag k="maxspeed" v="50"/>
    <tag k="maxspeed:source" v="default residential speed limit in Australia"/>
    <tag k="source" v="nearmap"/>
  </way>
  <way id="47296657" version="3" timestamp="2010-12-25T21:38:53Z" uid="7617" user="Franc" changeset="6763901">
    <nd ref="602524002"/>
    <nd ref="602524005"/>
    <nd ref="602524105"/>
    <tag k="highway" v="residential"/>
    <tag k="maxspeed" v="50"/>
    <tag k="maxspeed:source" v="default residential speed limit in Australia"/>
    <tag k="name" v="Richardon Street West"/>
    <tag k="source" v="nearmap"/>
    <tag k="source:name" v="survey"/>
  </way>
  <way id="47296658" version="1" timestamp="2010-01-01T14:09:35Z" uid="7617" user="Franc" changeset="3508229">
    <nd ref="602523993"/>
    <nd ref="602523998"/>
    <nd ref="602524065"/>
    <nd ref="602524067"/>
    <tag k="abutters" v="residential"/>
    <tag k="highway" v="residential"/>
    <tag k="name" v="Arabella Street"/>
    <tag k="oneway" v="yes"/>
    <tag k="source" v="nearmap"/>
    <tag k="source:name" v="historical"/>
  </way>
  <way id="47296658" version="2" timestamp="2010-01-03T06:22:59Z" uid="30201" user="rrankin" changeset="3525492">
    <nd ref="602523993"/>
    <nd ref="602523998"/>
    <nd ref="602524065"/>
    <nd ref="602524067"/>
    <tag k="highway" v="residential"/>
    <tag k="name" v="Arabella Street"/>
    <tag k="oneway" v="yes"/>
    <tag k="source" v="nearmap"/>
    <tag k="source:name" v="historical"/>
  </way>
  <way id="47296658" version="3" timestamp="2010-07-08T00:58:55Z" uid="74617" user="JohnSmith" changeset="5162525">
    <nd ref="602523993"/>
    <nd ref="602523998"/>
    <nd ref="602524065"/>
    <nd ref="602524067"/>
    <tag k="highway" v="residential"/>
    <tag k="maxspeed" v="50"/>
    <tag k="maxspeed:source" v="default residential speed limit in Australia"/>
    <tag k="name" v="Arabella Street"/>
    <tag k="oneway" v="yes"/>
    <tag k="source" v="nearmap"/>
    <tag k="source:name" v="historical"/>
  </way>
  <way id="47296659" version="1" timestamp="2010-01-01T14:09:35Z" uid="7617" user="Franc" changeset="3508229">
    <nd ref="602524067"/>
    <nd ref="602524069"/>
    <nd ref="602524000"/>
    <nd ref="602523993"/>
    <tag k="abutters" v="residential"/>
    <tag k="highway" v="residential"/>
    <tag k="name" v="Arabella Street"/>
    <tag k="oneway" v="yes"/>
    <tag k="source" v="nearmap"/>
    <tag k="source:name" v="historical"/>
  </way>
  <way id="47296659" version="2" timestamp="2010-01-03T06:22:58Z" uid="30201" user="rrankin" changeset="3525492">
    <nd ref="602524067"/>
    <nd ref="602524069"/>
    <nd ref="602524000"/>
    <nd ref="602523993"/>
    <tag k="highway" v="residential"/>
    <tag k="name" v="Arabella Street"/>
    <tag k="oneway" v="yes"/>
    <tag k="source" v="nearmap"/>
    <tag k="source:name" v="historical"/>
  </way>
  <way id="47296659" version="3" timestamp="2010-07-08T00:59:48Z" uid="74617" user="JohnSmith" changeset="5162525">
    <nd ref="602524067"/>
    <nd ref="602524069"/>
    <nd ref="602524000"/>
    <nd ref="602523993"/>
    <tag k="highway" v="residential"/>
    <tag k="maxspeed" v="50"/>
    <tag k="maxspeed:source" v="default residential speed limit in Australia"/>
    <tag k="name" v="Arabella Street"/>
    <tag k="oneway" v="yes"/>
    <tag k="source" v="nearmap"/>
    <tag k="source:name" v="historical"/>
  </way>
  <way id="47296660" version="1" timestamp="2010-01-01T14:09:35Z" uid="7617" user="Franc" changeset="3508229">
    <nd ref="602524095"/>
    <nd ref="333876178"/>
    <nd ref="28880955"/>
    <tag k="abutters" v="residential"/>
    <tag k="highway" v="residential"/>
    <tag k="name" v="Osborne Road"/>
    <tag k="source" v="historical"/>
    <tag k="source:name" v="historical"/>
  </way>
  <way id="47296660" version="2" timestamp="2010-01-03T06:23:14Z" uid="30201" user="rrankin" changeset="3525492">
    <nd ref="602524095"/>
    <nd ref="333876178"/>
    <nd ref="28880955"/>
    <tag k="highway" v="residential"/>
    <tag k="name" v="Osborne Road"/>
    <tag k="source" v="historical"/>
    <tag k="source:name" v="historical"/>
  </way>
  <way id="47296660" version="3" timestamp="2010-07-08T01:00:03Z" uid="74617" user="JohnSmith" changeset="5162525">
    <nd ref="602524095"/>
    <nd ref="333876178"/>
    <nd ref="28880955"/>
    <tag k="highway" v="residential"/>
    <tag k="maxspeed" v="50"/>
    <tag k="maxspeed:source" v="default residential speed limit in Australia"/>
    <tag k="name" v="Osborne Road"/>
    <tag k="source" v="historical"/>
    <tag k="source:name" v="historical"/>
  </way>
  <way id="47296661" version="1" timestamp="2010-01-01T14:09:35Z" uid="7617" user="Franc" changeset="3508229">
    <nd ref="602524053"/>
    <nd ref="602524055"/>
    <nd ref="602524057"/>
    <nd ref="602524059"/>
    <nd ref="602524053"/>
    <tag k="leisure" v="playground"/>
    <tag k="source" v="nearmap"/>
  </way>
  <way id="47296662" version="1" timestamp="2010-01-01T14:09:35Z" uid="7617" user="Franc" changeset="3508229">
    <nd ref="83324856"/>
    <nd ref="602524079"/>
    <nd ref="602524097"/>
    <nd ref="83324859"/>
    <tag k="abutters" v="residential"/>
    <tag k="highway" v="residential"/>
    <tag k="name" v="Fleming Street"/>
    <tag k="source" v="nearmap"/>
    <tag k="source:name" v="historical"/>
  </way>
  <way id="47296662" version="2" timestamp="2010-01-03T06:23:17Z" uid="30201" user="rrankin" changeset="3525492">
    <nd ref="83324856"/>
    <nd ref="602524079"/>
    <nd ref="602524097"/>
    <nd ref="83324859"/>
    <tag k="highway" v="residential"/>
    <tag k="name" v="Fleming Street"/>
    <tag k="source" v="nearmap"/>
    <tag k="source:name" v="historical"/>
  </way>
  <way id="47296662" version="3" timestamp="2010-07-08T00:58:12Z" uid="74617" user="JohnSmith" changeset="5162525">
    <nd ref="83324856"/>
    <nd ref="602524079"/>
    <nd ref="602524097"/>
    <nd ref="83324859"/>
    <tag k="highway" v="residential"/>
    <tag k="maxspeed" v="50"/>
    <tag k="maxspeed:source" v="default residential speed limit in Australia"/>
    <tag k="name" v="Fleming Street"/>
    <tag k="source" v="nearmap"/>
    <tag k="source:name" v="historical"/>
  </way>
  <way id="47296663" version="1" timestamp="2010-01-01T14:09:36Z" uid="7617" user="Franc" changeset="3508229">
    <nd ref="602524067"/>
    <nd ref="28882884"/>
    <nd ref="602524077"/>
    <nd ref="83324856"/>
    <tag k="abutters" v="residential"/>
    <tag k="highway" v="residential"/>
    <tag k="name" v="Arabella Street"/>
    <tag k="source" v="nearmap"/>
    <tag k="source:name" v="historical"/>
  </way>
  <way id="47296663" version="2" timestamp="2010-01-03T06:23:17Z" uid="30201" user="rrankin" changeset="3525492">
    <nd ref="602524067"/>
    <nd ref="28882884"/>
    <nd ref="602524077"/>
    <nd ref="83324856"/>
    <tag k="highway" v="residential"/>
    <tag k="name" v="Arabella Street"/>
    <tag k="source" v="nearmap"/>
    <tag k="source:name" v="historical"/>
  </way>
  <way id="47296663" version="3" timestamp="2010-07-08T00:59:10Z" uid="74617" user="JohnSmith" changeset="5162525">
    <nd ref="602524067"/>
    <nd ref="28882884"/>
    <nd ref="602524077"/>
    <nd ref="83324856"/>
    <tag k="highway" v="residential"/>
    <tag k="maxspeed" v="50"/>
    <tag k="maxspeed:source" v="default residential speed limit in Australia"/>
    <tag k="name" v="Arabella Street"/>
    <tag k="source" v="nearmap"/>
    <tag k="source:name" v="historical"/>
  </way>
  <way id="47296664" version="1" timestamp="2010-01-01T14:09:36Z" uid="7617" user="Franc" changeset="3508229">
    <nd ref="602524071"/>
    <nd ref="602524073"/>
    <nd ref="602524075"/>
    <tag k="highway" v="service"/>
    <tag k="source" v="nearmap"/>
  </way>
  <way id="47296664" version="2" timestamp="2010-12-25T21:38:46Z" uid="7617" user="Franc" changeset="6763901">
    <nd ref="602524071"/>
    <nd ref="602524073"/>
    <nd ref="602524075"/>
    <tag k="fixme:sign:no" v="2010-12-22"/>
    <tag k="highway" v="service"/>
    <tag k="source" v="nearmap"/>
  </way>
  <way id="47296691" version="6" timestamp="2011-04-20T11:17:52Z" uid="115477" user="wowik" changeset="7915124">
    <nd ref="602524190"/>
    <nd ref="602524191"/>
    <nd ref="602524192"/>
    <nd ref="602524193"/>
    <nd ref="602524194"/>
    <nd ref="602524195"/>
    <nd ref="602524196"/>
    <nd ref="602524197"/>
    <nd ref="602524190"/>
    <tag k="addr:city" v="Москва"/>
    <tag k="addr:country" v="RU"/>
    <tag k="addr:housenumber" v="27"/>
    <tag k="addr:postcode" v="121069"/>
    <tag k="addr:street" v="Скатертный переулок"/>
    <tag k="amenity" v="kindergarten"/>
    <tag k="building" v="yes"/>
    <tag k="cladr:code" v="77000000000266000"/>
    <tag k="name" v="Детский сад №01003"/>
  </way>
  <way id="47296707" version="5" timestamp="2011-04-20T11:18:33Z" uid="115477" user="wowik" changeset="7915124">
    <nd ref="602524256"/>
    <nd ref="602524257"/>
    <nd ref="646753045"/>
    <nd ref="602524258"/>
    <nd ref="602524259"/>
    <nd ref="602524260"/>
    <nd ref="602524261"/>
    <nd ref="646753046"/>
    <nd ref="602524256"/>
    <tag k="addr:city" v="Москва"/>
    <tag k="addr:country" v="RU"/>
    <tag k="addr:housenumber" v="45"/>
    <tag k="addr:postcode" v="121069"/>
    <tag k="addr:street" v="Большая Никитская улица"/>
    <tag k="building" v="yes"/>
    <tag k="cladr:code" v="77000000000711100"/>
  </way>
  <way id="47296737" version="6" timestamp="2011-04-20T11:18:08Z" uid="115477" user="wowik" changeset="7915124">
    <nd ref="602524509"/>
    <nd ref="602524510"/>
    <nd ref="602524511"/>
    <nd ref="602524512"/>
    <nd ref="602524515"/>
    <nd ref="602524517"/>
    <nd ref="602524509"/>
    <tag k="addr:city" v="Москва"/>
    <tag k="addr:country" v="RU"/>
    <tag k="addr:housenumber" v="34 с4"/>
    <tag k="addr:postcode" v="121069"/>
    <tag k="addr:street" v="Скатертный переулок"/>
    <tag k="building" v="yes"/>
    <tag k="cladr:code" v="77000000000266000"/>
  </way>
</osm>
