<?xml version='1.0' encoding='UTF-8'?>
<osm version="0.6" generator="libosmium/2.20.0">
  <way id="47323636" version="2" timestamp="2010-03-28T11:37:15Z" uid="20587" user="balrog-kun" changeset="4254597">
    <nd ref="122462702"/>
    <nd ref="602741698"/>
    <nd ref="602741701"/>
    <nd ref="20939320"/>
    <tag k="highway" v="footway"/>
    <tag k="name" v="Lynn Street"/>
  </way>
  <way id="47323796" version="2" timestamp="2010-04-13T21:34:09Z" uid="49111" user="Markus B" changeset="4418105">
    <nd ref="428099273"/>
    <nd ref="602743787"/>
    <nd ref="695875400"/>
    <nd ref="602743788"/>
    <nd ref="602743789"/>
    <nd ref="602743790"/>
    <nd ref="602743791"/>
    <nd ref="602743792"/>
    <nd ref="380769184"/>
    <tag k="highway" v="path"/>
    <tag k="surface" v="sand"/>
  </way>
  <way id="47323822" version="5" timestamp="2010-08-04T17:41:00Z" uid="9581" user="Lobelt" changeset="5401263">
    <nd ref="538979329"/>
    <nd ref="538979334"/>
    <nd ref="538979332"/>
    <nd ref="538979336"/>
    <nd ref="538979340"/>
    <nd ref="679011797"/>
    <nd ref="679011831"/>
    <nd ref="679011753"/>
    <nd ref="679011738"/>
    <nd ref="679011784"/>
    <nd ref="679011752"/>
    <nd ref="679011827"/>
    <nd ref="602744104"/>
    <nd ref="602744119"/>
    <nd ref="602744124"/>
    <tag k="cables" v="6"/>
    <tag k="frequency" v="50"/>
    <tag k="name" v="Ahr Ost; Sinzig Ltg."/>
    <tag k="operator" v="RWE"/>
    <tag k="power" v="line"/>
    <tag k="ref" v="0227"/>
    <tag k="voltage" v="110000"/>
    <tag k="wires" v="single"/>
  </way>
</osm>
