<?xml version='1.0' encoding='UTF-8'?>
<osm version="0.6" generator="libosmium/2.20.0">
  <way id="47344441" version="2" timestamp="2010-02-15T12:15:38Z" uid="74617" user="JohnSmith" changeset="3882541">
    <nd ref="528554092"/>
    <nd ref="602885011"/>
    <tag k="highway" v="unclassified"/>
    <tag k="maxspeed" v="50"/>
    <tag k="name" v="Benjamin Place"/>
  </way>
  <way id="47344465" version="2" timestamp="2010-07-25T06:50:11Z" uid="4467" user="Rosscoe" changeset="5309172">
    <nd ref="243902868"/>
    <nd ref="602885299"/>
    <tag k="bridge" v="yes"/>
    <tag k="highway" v="tertiary"/>
    <tag k="layer" v="1"/>
    <tag k="name" v="Damms Road"/>
    <tag k="surface" v="paved"/>
  </way>
  <way id="47344517" version="2" timestamp="2010-03-22T07:35:31Z" uid="20587" user="balrog-kun" changeset="4199043">
    <nd ref="38514060"/>
    <nd ref="602885901"/>
    <nd ref="602885891"/>
    <nd ref="602885892"/>
    <nd ref="602885893"/>
    <nd ref="602885894"/>
    <nd ref="602885895"/>
    <nd ref="602885896"/>
    <nd ref="602885897"/>
    <nd ref="602885900"/>
    <nd ref="38535401"/>
    <nd ref="602885898"/>
    <nd ref="602885899"/>
    <nd ref="602885865"/>
    <nd ref="602885866"/>
    <nd ref="602885833"/>
    <tag k="highway" v="residential"/>
    <tag k="name" v="Northeast Mary Rose Place"/>
  </way>
  <way id="47344518" version="2" timestamp="2010-03-22T07:35:31Z" uid="20587" user="balrog-kun" changeset="4199043">
    <nd ref="602885865"/>
    <nd ref="602885832"/>
    <tag k="highway" v="residential"/>
    <tag k="name" v="Northeast Rambling Lane"/>
  </way>
  <way id="47344520" version="2" timestamp="2010-03-22T07:35:31Z" uid="20587" user="balrog-kun" changeset="4199043">
    <nd ref="602885798"/>
    <nd ref="602885799"/>
    <tag k="highway" v="residential"/>
    <tag k="name" v="Northeast Frank McClean Court"/>
  </way>
  <way id="47344521" version="2" timestamp="2010-03-22T07:35:31Z" uid="20587" user="balrog-kun" changeset="4199043">
    <nd ref="602885788"/>
    <nd ref="602885789"/>
    <nd ref="38557079"/>
    <tag k="highway" v="residential"/>
    <tag k="name" v="Northeast Lucinda Court"/>
  </way>
  <way id="47344523" version="2" timestamp="2010-03-22T07:35:32Z" uid="20587" user="balrog-kun" changeset="4199043">
    <nd ref="38507065"/>
    <nd ref="38520010"/>
    <tag k="highway" v="residential"/>
    <tag k="name" v="Northeast Arnett Way"/>
  </way>
  <way id="47344596" version="3" timestamp="2010-03-22T07:35:32Z" uid="20587" user="balrog-kun" changeset="4199043">
    <nd ref="38735061"/>
    <nd ref="602886733"/>
    <nd ref="602886732"/>
    <nd ref="602886731"/>
    <nd ref="602886730"/>
    <nd ref="602886729"/>
    <nd ref="602886728"/>
    <nd ref="602886727"/>
    <nd ref="602886726"/>
    <nd ref="602886725"/>
    <nd ref="602886724"/>
    <nd ref="602886723"/>
    <nd ref="602886722"/>
    <nd ref="602886721"/>
    <tag k="highway" v="secondary"/>
    <tag k="name" v="Southwest Pacific Highway"/>
    <tag k="name_1" v="State Highway 99W"/>
    <tag k="oneway" v="yes"/>
    <tag k="ref" v="OR 99W"/>
  </way>
  <way id="47344597" version="4" timestamp="2010-03-22T07:35:32Z" uid="20587" user="balrog-kun" changeset="4199043">
    <nd ref="602886721"/>
    <nd ref="38726198"/>
    <nd ref="38775145"/>
    <nd ref="38775147"/>
    <nd ref="38740318"/>
    <nd ref="38742168"/>
    <nd ref="38775149"/>
    <nd ref="38726193"/>
    <nd ref="38712780"/>
    <nd ref="38712792"/>
    <nd ref="38712545"/>
    <nd ref="38735061"/>
    <tag k="highway" v="secondary"/>
    <tag k="name" v="Southwest Pacific Highway"/>
    <tag k="name_1" v="State Highway 99W"/>
    <tag k="oneway" v="yes"/>
    <tag k="ref" v="OR 99W"/>
    <tag k="tiger:cfcc" v="A35"/>
    <tag k="tiger:county" v="Washington, OR"/>
    <tag k="tiger:name_base" v="Pacific"/>
    <tag k="tiger:name_base_1" v="State Highway 99W"/>
    <tag k="tiger:name_direction_prefix" v="SW"/>
    <tag k="tiger:reviewed" v="no"/>
    <tag k="tiger:separated" v="yes"/>
    <tag k="tiger:source" v="tiger_import_dch_v0.6_20070808"/>
    <tag k="tiger:tlid" v="158206150:158175131:158206151"/>
    <tag k="tiger:zip_left" v="97140"/>
  </way>
  <way id="47344598" version="4" timestamp="2010-03-22T07:35:32Z" uid="20587" user="balrog-kun" changeset="4199043">
    <nd ref="38775151"/>
    <nd ref="38775150"/>
    <nd ref="38735061"/>
    <tag k="highway" v="secondary"/>
    <tag k="name" v="Southwest Pacific Highway"/>
    <tag k="name_1" v="State Highway 99W"/>
    <tag k="oneway" v="yes"/>
    <tag k="ref" v="OR 99W"/>
    <tag k="tiger:cfcc" v="A35"/>
    <tag k="tiger:county" v="Washington, OR"/>
    <tag k="tiger:name_base" v="Pacific"/>
    <tag k="tiger:name_base_1" v="State Highway 99W"/>
    <tag k="tiger:name_direction_prefix" v="SW"/>
    <tag k="tiger:reviewed" v="no"/>
    <tag k="tiger:separated" v="yes"/>
    <tag k="tiger:source" v="tiger_import_dch_v0.6_20070808"/>
    <tag k="tiger:tlid" v="158206150:158175131:158206151"/>
    <tag k="tiger:zip_left" v="97140"/>
  </way>
</osm>
