<?xml version='1.0' encoding='UTF-8'?>
<osm version="0.6" generator="libosmium/2.20.0">
  <way id="47362321" version="2" timestamp="2010-08-04T17:40:41Z" uid="9581" user="Lobelt" changeset="5401263">
    <nd ref="360981124"/>
    <nd ref="603067491"/>
    <nd ref="603067489"/>
    <tag k="cables" v="3"/>
    <tag k="name" v="110 kV Bollenacker Süd"/>
    <tag k="note" v="Leitung auf Westseite"/>
    <tag k="operator" v="RWE"/>
    <tag k="power" v="line"/>
    <tag k="ref" v="0203"/>
    <tag k="voltage" v="110000"/>
    <tag k="wires" v="single"/>
  </way>
  <way id="47362322" version="2" timestamp="2010-08-04T17:36:04Z" uid="9581" user="Lobelt" changeset="5401263">
    <nd ref="603067489"/>
    <nd ref="603067490"/>
    <nd ref="603067492"/>
    <tag k="cables" v="3"/>
    <tag k="name" v="110 kV Bollenacker Nord"/>
    <tag k="note" v="Leitung auf Ostseite"/>
    <tag k="operator" v="RWE"/>
    <tag k="power" v="line"/>
    <tag k="ref" v="0203"/>
    <tag k="voltage" v="110000"/>
    <tag k="wires" v="single"/>
  </way>
  <way id="47362323" version="2" timestamp="2010-08-04T17:45:30Z" uid="9581" user="Lobelt" changeset="5401263">
    <nd ref="603067489"/>
    <nd ref="360981116"/>
    <nd ref="360981110"/>
    <tag k="cables" v="6"/>
    <tag k="name" v="110 kV Bollenacker Nord|Süd"/>
    <tag k="operator" v="RWE"/>
    <tag k="power" v="line"/>
    <tag k="ref" v="0203"/>
    <tag k="voltage" v="110000"/>
    <tag k="wires" v="single"/>
  </way>
  <way id="47362395" version="1" timestamp="2010-01-02T13:54:40Z" uid="74617" user="JohnSmith" changeset="3518499">
    <nd ref="603067750"/>
    <nd ref="603067751"/>
    <nd ref="603067757"/>
    <nd ref="603067758"/>
    <nd ref="603067755"/>
    <nd ref="603067750"/>
    <tag k="railway" v="platform"/>
    <tag k="source" v="nearmap"/>
  </way>
  <way id="47362396" version="1" timestamp="2010-01-02T13:54:40Z" uid="74617" user="JohnSmith" changeset="3518499">
    <nd ref="26638377"/>
    <nd ref="603067818"/>
    <nd ref="603067815"/>
    <nd ref="603067817"/>
    <nd ref="603067807"/>
    <nd ref="603067803"/>
    <nd ref="603067794"/>
    <nd ref="603067792"/>
    <nd ref="603067785"/>
    <nd ref="603067779"/>
    <nd ref="603067781"/>
    <nd ref="603067776"/>
    <nd ref="603067775"/>
    <nd ref="603067772"/>
    <tag k="railway" v="rail"/>
    <tag k="source" v="nearmap"/>
  </way>
  <way id="47362396" version="2" timestamp="2010-01-13T05:37:57Z" uid="30201" user="rrankin" changeset="3607827">
    <nd ref="26638377"/>
    <nd ref="603067818"/>
    <nd ref="603067815"/>
    <nd ref="603067817"/>
    <nd ref="603067807"/>
    <nd ref="603067803"/>
    <nd ref="603067794"/>
    <tag k="railway" v="rail"/>
    <tag k="source" v="nearmap"/>
  </way>
  <way id="47362397" version="1" timestamp="2010-01-02T13:54:40Z" uid="74617" user="JohnSmith" changeset="3518499">
    <nd ref="603067891"/>
    <nd ref="603067892"/>
    <nd ref="603067882"/>
    <nd ref="603067883"/>
    <nd ref="603067884"/>
    <nd ref="603067885"/>
    <nd ref="603067886"/>
    <nd ref="603067893"/>
    <nd ref="603067891"/>
    <tag k="railway" v="platform"/>
    <tag k="source" v="nearmap"/>
  </way>
</osm>
