<?xml version='1.0' encoding='UTF-8'?>
<osm version="0.6" generator="libosmium/2.20.0">
  <way id="47387108" version="2" timestamp="2010-03-28T11:37:46Z" uid="20587" user="balrog-kun" changeset="4254597">
    <nd ref="603236756"/>
    <nd ref="62537445"/>
    <nd ref="62537448"/>
    <nd ref="62537450"/>
    <nd ref="62334314"/>
    <nd ref="62537452"/>
    <nd ref="62537454"/>
    <nd ref="62537455"/>
    <nd ref="62312897"/>
    <nd ref="62537457"/>
    <nd ref="62537459"/>
    <nd ref="62537461"/>
    <nd ref="62537463"/>
    <nd ref="62537465"/>
    <nd ref="62537471"/>
    <nd ref="62537473"/>
    <nd ref="62537475"/>
    <nd ref="62537478"/>
    <nd ref="62498465"/>
    <nd ref="62537480"/>
    <nd ref="62537482"/>
    <nd ref="62537485"/>
    <nd ref="62537486"/>
    <nd ref="62537489"/>
    <nd ref="62537491"/>
    <nd ref="62537496"/>
    <nd ref="62537499"/>
    <nd ref="62444647"/>
    <tag k="highway" v="residential"/>
    <tag k="name" v="East Monte Vista Avenue"/>
    <tag k="tiger:cfcc" v="A45"/>
    <tag k="tiger:county" v="Solano, CA"/>
    <tag k="tiger:name_base" v="Monte Vista"/>
    <tag k="tiger:name_direction_prefix" v="E"/>
    <tag k="tiger:name_type" v="Ave"/>
    <tag k="tiger:reviewed" v="no"/>
    <tag k="tiger:separated" v="yes"/>
    <tag k="tiger:source" v="tiger_import_dch_v0.6_20070809"/>
    <tag k="tiger:tlid" v="192607857"/>
  </way>
  <way id="47387114" version="2" timestamp="2010-03-28T11:37:47Z" uid="20587" user="balrog-kun" changeset="4254597">
    <nd ref="62537443"/>
    <nd ref="603236756"/>
    <tag k="bridge" v="yes"/>
    <tag k="highway" v="residential"/>
    <tag k="name" v="East Monte Vista Avenue"/>
    <tag k="tiger:cfcc" v="A45"/>
    <tag k="tiger:county" v="Solano, CA"/>
    <tag k="tiger:name_base" v="Monte Vista"/>
    <tag k="tiger:name_direction_prefix" v="E"/>
    <tag k="tiger:name_type" v="Ave"/>
    <tag k="tiger:separated" v="yes"/>
    <tag k="tiger:source" v="tiger_import_dch_v0.6_20070809"/>
    <tag k="tiger:tlid" v="192607857"/>
  </way>
  <way id="47387229" version="5" timestamp="2011-04-20T11:19:31Z" uid="115477" user="wowik" changeset="7915253">
    <nd ref="603237480"/>
    <nd ref="603237482"/>
    <nd ref="603237483"/>
    <nd ref="603237484"/>
    <nd ref="603237480"/>
    <tag k="addr:city" v="Москва"/>
    <tag k="addr:country" v="RU"/>
    <tag k="addr:housenumber" v="3Б с2"/>
    <tag k="addr:street" v="Кудринский переулок"/>
    <tag k="building" v="yes"/>
    <tag k="cladr:code" v="77000000000163900"/>
  </way>
  <way id="47387295" version="2" timestamp="2010-04-07T14:12:16Z" uid="20587" user="balrog-kun" changeset="4353646">
    <nd ref="151073560"/>
    <nd ref="151073561"/>
    <nd ref="151039150"/>
    <nd ref="151073562"/>
    <nd ref="151073564"/>
    <nd ref="151039115"/>
    <nd ref="151073565"/>
    <nd ref="151073567"/>
    <nd ref="151073569"/>
    <nd ref="151073571"/>
    <nd ref="151073573"/>
    <tag k="highway" v="residential"/>
    <tag k="name" v="Old Kerr Highway"/>
    <tag k="tiger:cfcc" v="A41"/>
    <tag k="tiger:county" v="Gillespie, TX"/>
    <tag k="tiger:name_base" v="Old Kerr"/>
    <tag k="tiger:name_type" v="Hwy"/>
    <tag k="tiger:separated" v="no"/>
    <tag k="tiger:source" v="tiger_import_dch_v0.6_20070829"/>
    <tag k="tiger:tlid" v="176838326"/>
  </way>
  <way id="47387296" version="2" timestamp="2010-04-07T14:12:16Z" uid="20587" user="balrog-kun" changeset="4353646">
    <nd ref="564728075"/>
    <nd ref="151076366"/>
    <nd ref="151076368"/>
    <nd ref="151076369"/>
    <nd ref="151076370"/>
    <nd ref="151076371"/>
    <nd ref="151076373"/>
    <nd ref="151076375"/>
    <nd ref="151039173"/>
    <tag k="highway" v="residential"/>
    <tag k="name" v="Pfiester Road"/>
    <tag k="tiger:cfcc" v="A41"/>
    <tag k="tiger:county" v="Gillespie, TX"/>
    <tag k="tiger:name_base" v="Pfiester"/>
    <tag k="tiger:name_type" v="Rd"/>
    <tag k="tiger:separated" v="no"/>
    <tag k="tiger:source" v="tiger_import_dch_v0.6_20070829"/>
    <tag k="tiger:tlid" v="176838464:176838355:176838332:176838353:176843591:176843592"/>
  </way>
  <way id="47387297" version="4" timestamp="2010-04-07T14:12:17Z" uid="20587" user="balrog-kun" changeset="4353646">
    <nd ref="603250553"/>
    <nd ref="603239109"/>
    <nd ref="603239112"/>
    <nd ref="603239111"/>
    <tag k="highway" v="secondary"/>
    <tag k="name" v="Tivy Street"/>
    <tag k="name_1" v="Farm-to-Market Road 1341"/>
    <tag k="oneway" v="yes"/>
    <tag k="tiger:cfcc" v="A41"/>
    <tag k="tiger:county" v="Kerr, TX"/>
    <tag k="tiger:name_base" v="Tivy"/>
    <tag k="tiger:name_base_1" v="Farm-to-Market Road 1341"/>
    <tag k="tiger:name_type" v="St"/>
    <tag k="tiger:separated" v="no"/>
    <tag k="tiger:source" v="tiger_import_dch_v0.6_20070830"/>
    <tag k="tiger:tlid" v="176887602:176889064:176887771:176887781:176887792"/>
  </way>
  <way id="47387298" version="5" timestamp="2010-04-07T14:12:17Z" uid="20587" user="balrog-kun" changeset="4353646">
    <nd ref="603250557"/>
    <nd ref="603239120"/>
    <tag k="highway" v="secondary"/>
    <tag k="name" v="Tivy Street"/>
    <tag k="name_1" v="Farm-to-Market Road 1341"/>
    <tag k="oneway" v="yes"/>
    <tag k="tiger:cfcc" v="A41"/>
    <tag k="tiger:county" v="Kerr, TX"/>
    <tag k="tiger:name_base" v="Tivy"/>
    <tag k="tiger:name_base_1" v="Farm-to-Market Road 1341"/>
    <tag k="tiger:name_type" v="St"/>
    <tag k="tiger:separated" v="no"/>
    <tag k="tiger:source" v="tiger_import_dch_v0.6_20070830"/>
    <tag k="tiger:tlid" v="176887602:176889064:176887771:176887781:176887792"/>
  </way>
  <way id="47387299" version="9" timestamp="2010-04-07T14:12:17Z" uid="20587" user="balrog-kun" changeset="4353646">
    <nd ref="603260164"/>
    <nd ref="603260163"/>
    <nd ref="603239111"/>
    <nd ref="603253624"/>
    <nd ref="151831555"/>
    <nd ref="603253622"/>
    <nd ref="603239116"/>
    <nd ref="603253629"/>
    <nd ref="603247415"/>
    <nd ref="603242674"/>
    <nd ref="603239118"/>
    <nd ref="603253634"/>
    <nd ref="603253630"/>
    <nd ref="603253632"/>
    <nd ref="603239120"/>
    <nd ref="603253621"/>
    <nd ref="603253616"/>
    <nd ref="603253620"/>
    <nd ref="603239107"/>
    <nd ref="603253614"/>
    <nd ref="603253619"/>
    <nd ref="603239106"/>
    <nd ref="603253617"/>
    <nd ref="603253605"/>
    <nd ref="603239102"/>
    <nd ref="603247412"/>
    <nd ref="603242672"/>
    <nd ref="603253607"/>
    <nd ref="603253604"/>
    <nd ref="603253609"/>
    <nd ref="603239103"/>
    <nd ref="603253610"/>
    <nd ref="603239105"/>
    <nd ref="603253612"/>
    <nd ref="603239104"/>
    <nd ref="603250551"/>
    <nd ref="603253625"/>
    <nd ref="603239114"/>
    <nd ref="603253627"/>
    <nd ref="603260164"/>
    <tag k="highway" v="secondary"/>
    <tag k="junction" v="roundabout"/>
    <tag k="name" v="Tivy Street"/>
    <tag k="name_1" v="Farm-to-Market Road 1341"/>
    <tag k="tiger:cfcc" v="A41"/>
    <tag k="tiger:county" v="Kerr, TX"/>
    <tag k="tiger:name_base" v="Tivy"/>
    <tag k="tiger:name_base_1" v="Farm-to-Market Road 1341"/>
    <tag k="tiger:name_type" v="St"/>
    <tag k="tiger:separated" v="no"/>
    <tag k="tiger:source" v="tiger_import_dch_v0.6_20070830"/>
    <tag k="tiger:tlid" v="176887602:176889064:176887771:176887781:176887792"/>
  </way>
  <way id="47387301" version="3" timestamp="2010-04-07T14:12:18Z" uid="20587" user="balrog-kun" changeset="4353646">
    <nd ref="603242195"/>
    <nd ref="603242229"/>
    <nd ref="603242227"/>
    <nd ref="603242225"/>
    <nd ref="603242223"/>
    <nd ref="603242221"/>
    <nd ref="603242220"/>
    <nd ref="603242218"/>
    <nd ref="603242216"/>
    <nd ref="603242201"/>
    <nd ref="603242199"/>
    <tag k="highway" v="residential"/>
    <tag k="name" v="Golf Avenue"/>
    <tag k="tiger:cfcc" v="A41"/>
    <tag k="tiger:county" v="Kerr, TX"/>
    <tag k="tiger:name_base" v="Golf"/>
    <tag k="tiger:name_type" v="Ave"/>
    <tag k="tiger:reviewed" v="no"/>
    <tag k="tiger:separated" v="no"/>
    <tag k="tiger:source" v="tiger_import_dch_v0.6_20070830"/>
    <tag k="tiger:tlid" v="176887603:176887582:176892766"/>
    <tag k="tiger:zip_left" v="78028"/>
  </way>
  <way id="47387333" version="4" timestamp="2011-04-20T07:31:09Z" uid="115477" user="wowik" changeset="7913535">
    <nd ref="603240174"/>
    <nd ref="603240175"/>
    <nd ref="603240176"/>
    <nd ref="603240177"/>
    <nd ref="603240174"/>
    <tag k="addr:city" v="Москва"/>
    <tag k="addr:country" v="RU"/>
    <tag k="addr:housenumber" v="23"/>
    <tag k="addr:street" v="Трубниковский переулок"/>
    <tag k="building" v="yes"/>
    <tag k="cladr:code" v="77000000000293500"/>
  </way>
  <way id="47387343" version="5" timestamp="2011-04-20T07:31:04Z" uid="115477" user="wowik" changeset="7913535">
    <nd ref="603240313"/>
    <nd ref="603240314"/>
    <nd ref="603240315"/>
    <nd ref="603240316"/>
    <nd ref="603240317"/>
    <nd ref="603240318"/>
    <nd ref="603240313"/>
    <tag k="addr:city" v="Москва"/>
    <tag k="addr:country" v="RU"/>
    <tag k="addr:housenumber" v="21 с2"/>
    <tag k="addr:street" v="Трубниковский переулок"/>
    <tag k="building" v="yes"/>
    <tag k="cladr:code" v="77000000000293500"/>
  </way>
  <way id="47387434" version="5" timestamp="2011-04-20T11:18:44Z" uid="115477" user="wowik" changeset="7915124">
    <nd ref="603241485"/>
    <nd ref="603241486"/>
    <nd ref="603241487"/>
    <nd ref="603241488"/>
    <nd ref="603241489"/>
    <nd ref="603241490"/>
    <nd ref="603241485"/>
    <tag k="addr:city" v="Москва"/>
    <tag k="addr:country" v="RU"/>
    <tag k="addr:housenumber" v="21 с1"/>
    <tag k="addr:street" v="Трубниковский переулок"/>
    <tag k="building" v="yes"/>
    <tag k="cladr:code" v="77000000000293500"/>
  </way>
  <way id="47387573" version="5" timestamp="2010-04-23T15:20:27Z" uid="115477" user="wowik" changeset="4504321">
    <nd ref="603235556"/>
    <nd ref="603242287"/>
    <nd ref="603242288"/>
    <nd ref="603242289"/>
    <nd ref="603242290"/>
    <nd ref="603242291"/>
    <nd ref="603242292"/>
    <nd ref="603242293"/>
    <nd ref="603242294"/>
    <nd ref="603242296"/>
    <nd ref="603242298"/>
    <nd ref="603242300"/>
    <nd ref="603242302"/>
    <nd ref="603242304"/>
    <nd ref="603242306"/>
    <nd ref="603242308"/>
    <nd ref="603242309"/>
    <nd ref="603242311"/>
    <nd ref="603242312"/>
    <nd ref="603242315"/>
    <nd ref="603242325"/>
    <nd ref="603242329"/>
    <nd ref="603242335"/>
    <nd ref="603242339"/>
    <nd ref="603242347"/>
    <nd ref="603242351"/>
    <nd ref="603242352"/>
    <nd ref="603242353"/>
    <nd ref="704479271"/>
    <nd ref="603242354"/>
    <nd ref="704479273"/>
    <nd ref="603242355"/>
    <nd ref="603242356"/>
    <nd ref="603242357"/>
    <nd ref="704479282"/>
    <nd ref="603242358"/>
    <nd ref="603242359"/>
    <nd ref="603242360"/>
    <nd ref="603242361"/>
    <nd ref="603242362"/>
    <nd ref="603242363"/>
    <nd ref="603242364"/>
    <nd ref="603242365"/>
    <nd ref="603242366"/>
    <nd ref="603242367"/>
    <nd ref="603242368"/>
    <nd ref="603242369"/>
    <nd ref="603242370"/>
    <nd ref="603242371"/>
    <nd ref="603242372"/>
    <nd ref="603242373"/>
    <nd ref="603242374"/>
    <nd ref="603242375"/>
    <nd ref="603242377"/>
    <nd ref="603242378"/>
    <nd ref="603242379"/>
    <nd ref="603242380"/>
    <nd ref="603242381"/>
    <nd ref="603242382"/>
    <nd ref="603242383"/>
    <nd ref="603242384"/>
    <nd ref="603242385"/>
    <nd ref="603242386"/>
    <nd ref="603242387"/>
    <nd ref="603242389"/>
    <nd ref="603242391"/>
    <nd ref="704479283"/>
    <nd ref="603242393"/>
    <nd ref="603242394"/>
    <nd ref="603242395"/>
    <nd ref="603242396"/>
    <nd ref="603242398"/>
    <nd ref="603242399"/>
    <nd ref="603242400"/>
    <nd ref="603242401"/>
    <nd ref="603242402"/>
    <nd ref="603242404"/>
    <nd ref="603242405"/>
    <nd ref="603242407"/>
    <nd ref="603242409"/>
    <nd ref="603242410"/>
    <nd ref="603242411"/>
    <nd ref="603242415"/>
    <nd ref="603242416"/>
    <nd ref="603242418"/>
    <nd ref="603242419"/>
    <nd ref="603242420"/>
    <tag k="highway" v="secondary"/>
  </way>
  <way id="47387602" version="3" timestamp="2010-04-23T15:08:31Z" uid="115477" user="wowik" changeset="4504321">
    <nd ref="603242410"/>
    <nd ref="603242548"/>
    <nd ref="603242549"/>
    <nd ref="603242550"/>
    <nd ref="603242551"/>
    <nd ref="603242552"/>
    <nd ref="603242553"/>
    <nd ref="603242554"/>
    <nd ref="603242556"/>
    <nd ref="603242558"/>
    <nd ref="603242560"/>
    <nd ref="603242561"/>
    <nd ref="603242562"/>
    <nd ref="704475081"/>
    <nd ref="603242563"/>
    <nd ref="603242566"/>
    <nd ref="603242568"/>
    <nd ref="603242573"/>
    <nd ref="603242575"/>
    <nd ref="603242577"/>
    <nd ref="603242578"/>
    <nd ref="603242579"/>
    <nd ref="603242580"/>
    <tag k="highway" v="tertiary"/>
  </way>
  <way id="47387602" version="4" timestamp="2010-04-23T15:20:26Z" uid="115477" user="wowik" changeset="4504321">
    <nd ref="603242410"/>
    <nd ref="603242548"/>
    <nd ref="603242549"/>
    <nd ref="603242550"/>
    <nd ref="603242551"/>
    <nd ref="603242552"/>
    <nd ref="603242553"/>
    <nd ref="603242554"/>
    <nd ref="704479281"/>
    <nd ref="603242556"/>
    <nd ref="603242558"/>
    <nd ref="603242560"/>
    <nd ref="603242561"/>
    <nd ref="603242562"/>
    <nd ref="704475081"/>
    <nd ref="603242563"/>
    <nd ref="603242566"/>
    <nd ref="603242568"/>
    <nd ref="603242573"/>
    <nd ref="603242575"/>
    <nd ref="603242577"/>
    <nd ref="603242578"/>
    <nd ref="603242579"/>
    <nd ref="603242580"/>
    <tag k="highway" v="tertiary"/>
  </way>
  <way id="47387622" version="2" timestamp="2010-07-22T11:07:25Z" uid="115477" user="wowik" changeset="5286270">
    <nd ref="603242686"/>
    <nd ref="603243032"/>
    <nd ref="603243033"/>
    <nd ref="603243037"/>
    <nd ref="603243040"/>
    <nd ref="603243051"/>
    <nd ref="603243053"/>
    <nd ref="603243056"/>
    <nd ref="603242684"/>
    <tag k="highway" v="road"/>
  </way>
  <way id="47387642" version="2" timestamp="2010-07-22T11:07:26Z" uid="115477" user="wowik" changeset="5286270">
    <nd ref="603243053"/>
    <nd ref="603243556"/>
    <nd ref="603243560"/>
    <nd ref="603243563"/>
    <nd ref="603243567"/>
    <nd ref="603243568"/>
    <nd ref="603243570"/>
    <tag k="highway" v="road"/>
  </way>
  <way id="47387717" version="2" timestamp="2010-07-22T11:07:25Z" uid="115477" user="wowik" changeset="5286270">
    <nd ref="603245217"/>
    <nd ref="603245442"/>
    <nd ref="603245443"/>
    <nd ref="603245444"/>
    <tag k="highway" v="road"/>
  </way>
  <way id="47387761" version="4" timestamp="2011-04-20T07:30:34Z" uid="115477" user="wowik" changeset="7913535">
    <nd ref="603246322"/>
    <nd ref="603246324"/>
    <nd ref="603246329"/>
    <nd ref="603246337"/>
    <nd ref="603246339"/>
    <nd ref="603246343"/>
    <nd ref="603246346"/>
    <nd ref="603246322"/>
    <tag k="addr:city" v="Москва"/>
    <tag k="addr:country" v="RU"/>
    <tag k="addr:housenumber" v="52"/>
    <tag k="addr:street" v="Поварская улица"/>
    <tag k="building" v="yes"/>
    <tag k="cladr:code" v="77000000000701300"/>
  </way>
  <way id="47387999" version="4" timestamp="2011-04-20T07:30:42Z" uid="115477" user="wowik" changeset="7913535">
    <nd ref="603247172"/>
    <nd ref="603247173"/>
    <nd ref="603247174"/>
    <nd ref="603247175"/>
    <nd ref="603247176"/>
    <nd ref="603247177"/>
    <nd ref="603247178"/>
    <nd ref="603247172"/>
    <tag k="addr:city" v="Москва"/>
    <tag k="addr:country" v="RU"/>
    <tag k="addr:housenumber" v="50"/>
    <tag k="addr:street" v="Поварская улица"/>
    <tag k="building" v="yes"/>
    <tag k="cladr:code" v="77000000000701300"/>
    <tag k="name" v="Дом Литераторов"/>
  </way>
</osm>
