<?xml version='1.0' encoding='UTF-8'?>
<osm version="0.6" generator="libosmium/2.20.0">
  <way id="47388013" version="7" timestamp="2011-04-20T07:30:32Z" uid="115477" user="wowik" changeset="7913535">
    <nd ref="603247221"/>
    <nd ref="603247222"/>
    <nd ref="603247223"/>
    <nd ref="603247224"/>
    <nd ref="603247225"/>
    <nd ref="603247227"/>
    <nd ref="603247221"/>
    <tag k="addr:city" v="Москва"/>
    <tag k="addr:country" v="RU"/>
    <tag k="addr:housenumber" v="53 к1"/>
    <tag k="addr:street" v="Большая Никитская улица"/>
    <tag k="building" v="yes"/>
    <tag k="cladr:code" v="77000000000711100"/>
  </way>
  <way id="47388035" version="3" timestamp="2010-04-07T14:12:18Z" uid="20587" user="balrog-kun" changeset="4353646">
    <nd ref="603247413"/>
    <nd ref="603247412"/>
    <tag k="highway" v="residential"/>
    <tag k="name" v="Holdsworth Drive"/>
    <tag k="oneway" v="yes"/>
    <tag k="tiger:cfcc" v="A41"/>
    <tag k="tiger:county" v="Kerr, TX"/>
    <tag k="tiger:name_base" v="Holdsworth"/>
    <tag k="tiger:name_type" v="Dr"/>
    <tag k="tiger:separated" v="no"/>
    <tag k="tiger:source" v="tiger_import_dch_v0.6_20070830"/>
  </way>
  <way id="47388036" version="4" timestamp="2010-04-07T14:12:18Z" uid="20587" user="balrog-kun" changeset="4353646">
    <nd ref="603250557"/>
    <nd ref="603250554"/>
    <nd ref="151768751"/>
    <tag k="highway" v="secondary"/>
    <tag k="name" v="Tivy Street"/>
    <tag k="name_1" v="Farm-to-Market Road 1341"/>
    <tag k="ref" v="FM 1341"/>
    <tag k="tiger:cfcc" v="A41"/>
    <tag k="tiger:county" v="Kerr, TX"/>
    <tag k="tiger:name_base" v="Tivy"/>
    <tag k="tiger:name_base_1" v="Farm-to-Market Road 1341"/>
    <tag k="tiger:name_type" v="St"/>
    <tag k="tiger:reviewed" v="no"/>
    <tag k="tiger:separated" v="no"/>
    <tag k="tiger:source" v="tiger_import_dch_v0.6_20070830"/>
    <tag k="tiger:tlid" v="176887602:176889064:176887771:176887781:176887792"/>
  </way>
  <way id="47388037" version="4" timestamp="2010-04-07T14:12:18Z" uid="20587" user="balrog-kun" changeset="4353646">
    <nd ref="603250555"/>
    <nd ref="603250557"/>
    <tag k="highway" v="secondary"/>
    <tag k="name" v="Tivy Street"/>
    <tag k="name_1" v="Farm-to-Market Road 1341"/>
    <tag k="oneway" v="yes"/>
    <tag k="tiger:cfcc" v="A41"/>
    <tag k="tiger:county" v="Kerr, TX"/>
    <tag k="tiger:name_base" v="Tivy"/>
    <tag k="tiger:name_base_1" v="Farm-to-Market Road 1341"/>
    <tag k="tiger:name_type" v="St"/>
    <tag k="tiger:separated" v="no"/>
    <tag k="tiger:source" v="tiger_import_dch_v0.6_20070830"/>
    <tag k="tiger:tlid" v="176887602:176889064:176887771:176887781:176887792"/>
  </way>
  <way id="47388048" version="5" timestamp="2011-04-20T11:18:08Z" uid="115477" user="wowik" changeset="7915124">
    <nd ref="603247482"/>
    <nd ref="603247483"/>
    <nd ref="603247484"/>
    <nd ref="603247485"/>
    <nd ref="603247482"/>
    <tag k="addr:city" v="Москва"/>
    <tag k="addr:country" v="RU"/>
    <tag k="addr:housenumber" v="48 с1"/>
    <tag k="addr:postcode" v="121069"/>
    <tag k="addr:street" v="Поварская улица"/>
    <tag k="building" v="yes"/>
    <tag k="cladr:code" v="77000000000701300"/>
  </way>
  <way id="47388272" version="3" timestamp="2010-04-07T14:12:19Z" uid="20587" user="balrog-kun" changeset="4353646">
    <nd ref="603250551"/>
    <nd ref="603250553"/>
    <tag k="highway" v="secondary"/>
    <tag k="name" v="Tivy Street"/>
    <tag k="name_1" v="Farm-to-Market Road 1341"/>
    <tag k="oneway" v="yes"/>
    <tag k="tiger:cfcc" v="A41"/>
    <tag k="tiger:county" v="Kerr, TX"/>
    <tag k="tiger:name_base" v="Tivy"/>
    <tag k="tiger:name_base_1" v="Farm-to-Market Road 1341"/>
    <tag k="tiger:name_type" v="St"/>
    <tag k="tiger:separated" v="no"/>
    <tag k="tiger:source" v="tiger_import_dch_v0.6_20070830"/>
    <tag k="tiger:tlid" v="176887602:176889064:176887771:176887781:176887792"/>
  </way>
  <way id="47388300" version="3" timestamp="2010-02-06T21:26:25Z" uid="38524" user="Kuddy" changeset="3809187">
    <nd ref="603251971"/>
    <nd ref="603251964"/>
    <nd ref="264614019"/>
    <nd ref="264614018"/>
    <nd ref="264614016"/>
    <nd ref="264614015"/>
    <nd ref="264614014"/>
    <nd ref="264614013"/>
    <nd ref="603146440"/>
    <nd ref="264614012"/>
    <nd ref="264614011"/>
    <nd ref="264614010"/>
    <nd ref="264614009"/>
    <nd ref="264614008"/>
    <nd ref="264614007"/>
    <nd ref="264614006"/>
    <nd ref="264614005"/>
    <nd ref="264614004"/>
    <nd ref="264614003"/>
    <nd ref="264614002"/>
    <nd ref="264614001"/>
    <nd ref="264614000"/>
    <nd ref="264613999"/>
    <tag k="highway" v="residential"/>
    <tag k="name" v="Alte Landstraße"/>
    <tag k="source" v="survey"/>
  </way>
  <way id="47388907" version="2" timestamp="2010-02-15T06:05:28Z" uid="74617" user="JohnSmith" changeset="3880328">
    <nd ref="603258174"/>
    <nd ref="510591807"/>
    <nd ref="510591808"/>
    <nd ref="603258180"/>
    <nd ref="510591809"/>
    <tag k="highway" v="residential"/>
    <tag k="maxspeed" v="50"/>
    <tag k="source" v="nearmap"/>
  </way>
</osm>
