<?xml version='1.0' encoding='UTF-8'?>
<osm version="0.6" generator="libosmium/2.20.0">
  <way id="47463293" version="2" timestamp="2010-07-09T03:20:31Z" uid="74617" user="JohnSmith" changeset="5170713">
    <nd ref="604024129"/>
    <nd ref="604024166"/>
    <tag k="highway" v="residential"/>
    <tag k="maxspeed" v="50"/>
    <tag k="maxspeed:source" v="default residential speed limit in Australia"/>
    <tag k="name" v="View Court"/>
  </way>
  <way id="47463296" version="2" timestamp="2010-04-06T05:21:54Z" uid="74617" user="JohnSmith" changeset="4340174">
    <nd ref="30616413"/>
    <nd ref="686184955"/>
    <nd ref="604024106"/>
    <tag k="highway" v="service"/>
  </way>
  <way id="47463302" version="2" timestamp="2010-07-09T03:21:20Z" uid="74617" user="JohnSmith" changeset="5170713">
    <nd ref="313257429"/>
    <nd ref="604024212"/>
    <nd ref="604024214"/>
    <tag k="highway" v="residential"/>
    <tag k="maxspeed" v="50"/>
    <tag k="maxspeed:source" v="default residential speed limit in Australia"/>
    <tag k="name" v="Arthur Avenue"/>
  </way>
  <way id="47463792" version="2" timestamp="2010-03-22T07:35:34Z" uid="20587" user="balrog-kun" changeset="4199043">
    <nd ref="604034335"/>
    <nd ref="604034336"/>
    <nd ref="604034338"/>
    <nd ref="604034339"/>
    <nd ref="604034341"/>
    <nd ref="604034342"/>
    <nd ref="604034344"/>
    <nd ref="604034343"/>
    <tag k="highway" v="residential"/>
    <tag k="name" v="Northeast Horizon Ridge Place"/>
  </way>
  <way id="47463794" version="2" timestamp="2010-03-22T07:35:34Z" uid="20587" user="balrog-kun" changeset="4199043">
    <nd ref="604034344"/>
    <nd ref="604034345"/>
    <tag k="highway" v="residential"/>
    <tag k="name" v="Northeast Horizon Ridge Place"/>
  </way>
</osm>
