<?xml version='1.0' encoding='UTF-8'?>
<osm version="0.6" generator="libosmium/2.20.0">
  <way id="47461662" version="2" timestamp="2010-07-09T02:43:51Z" uid="74617" user="JohnSmith" changeset="5170713">
    <nd ref="26964596"/>
    <nd ref="603999069"/>
    <tag k="highway" v="residential"/>
    <tag k="maxspeed" v="50"/>
    <tag k="maxspeed:source" v="default residential speed limit in Australia"/>
    <tag k="name" v="Springvale Road Service Road"/>
  </way>
  <way id="47461701" version="2" timestamp="2010-07-09T02:48:26Z" uid="74617" user="JohnSmith" changeset="5170713">
    <nd ref="604000130"/>
    <nd ref="604000134"/>
    <nd ref="243079166"/>
    <nd ref="604000141"/>
    <tag k="highway" v="residential"/>
    <tag k="maxspeed" v="50"/>
    <tag k="maxspeed:source" v="default residential speed limit in Australia"/>
    <tag k="name" v="Village Court"/>
  </way>
  <way id="47461771" version="3" timestamp="2010-04-26T02:25:44Z" uid="4467" user="Rosscoe" changeset="4527995">
    <nd ref="604004479"/>
    <nd ref="706905822"/>
    <tag k="highway" v="residential"/>
    <tag k="name" v="Standale Court"/>
  </way>
  <way id="47461771" version="4" timestamp="2010-07-08T17:17:43Z" uid="74617" user="JohnSmith" changeset="5167338">
    <nd ref="604004479"/>
    <nd ref="706905822"/>
    <tag k="highway" v="residential"/>
    <tag k="maxspeed" v="50"/>
    <tag k="maxspeed:source" v="default residential speed limit in Australia"/>
    <tag k="name" v="Standale Court"/>
  </way>
  <way id="47461772" version="3" timestamp="2010-07-08T17:22:50Z" uid="74617" user="JohnSmith" changeset="5167338">
    <nd ref="604004494"/>
    <nd ref="604004497"/>
    <nd ref="604004500"/>
    <nd ref="604004504"/>
    <nd ref="604004452"/>
    <tag k="highway" v="residential"/>
    <tag k="maxspeed" v="50"/>
    <tag k="maxspeed:source" v="default residential speed limit in Australia"/>
    <tag k="name" v="Jellindale Courtt"/>
  </way>
</osm>
