<?xml version='1.0' encoding='UTF-8'?>
<osm version="0.6" generator="libosmium/2.20.0">
  <way id="47473206" version="4" timestamp="2010-07-09T06:09:49Z" uid="74617" user="JohnSmith" changeset="5171134">
    <nd ref="332706671"/>
    <nd ref="609957336"/>
    <nd ref="604193750"/>
    <nd ref="604193726"/>
    <nd ref="604193727"/>
    <nd ref="604193733"/>
    <nd ref="604193729"/>
    <nd ref="604193731"/>
    <nd ref="604193716"/>
    <nd ref="604193721"/>
    <nd ref="604193719"/>
    <tag k="highway" v="residential"/>
    <tag k="maxspeed" v="50"/>
    <tag k="maxspeed:source" v="default residential speed limit in Australia"/>
    <tag k="name" v="College Avenue"/>
    <tag k="surface" v="asphalt"/>
  </way>
  <way id="47473208" version="4" timestamp="2010-07-09T06:09:26Z" uid="74617" user="JohnSmith" changeset="5171134">
    <nd ref="604193733"/>
    <nd ref="604193736"/>
    <nd ref="609957301"/>
    <nd ref="609957302"/>
    <nd ref="609957287"/>
    <nd ref="609957290"/>
    <nd ref="609957303"/>
    <tag k="highway" v="residential"/>
    <tag k="maxspeed" v="50"/>
    <tag k="maxspeed:source" v="default residential speed limit in Australia"/>
    <tag k="name" v="Newport Crescent"/>
    <tag k="source:name" v="photo"/>
    <tag k="surface" v="asphalt"/>
  </way>
  <way id="47473216" version="2" timestamp="2010-04-06T14:48:50Z" uid="20587" user="balrog-kun" changeset="4342997">
    <nd ref="190737988"/>
    <nd ref="190770118"/>
    <nd ref="190770119"/>
    <nd ref="190770120"/>
    <nd ref="190770121"/>
    <nd ref="190734323"/>
    <nd ref="190742384"/>
    <nd ref="190744385"/>
    <nd ref="190770122"/>
    <nd ref="190744266"/>
    <nd ref="190770123"/>
    <nd ref="190770124"/>
    <nd ref="190770125"/>
    <nd ref="190770126"/>
    <nd ref="190770128"/>
    <nd ref="190770130"/>
    <nd ref="190770132"/>
    <nd ref="190744182"/>
    <nd ref="190770134"/>
    <nd ref="190770136"/>
    <nd ref="190770137"/>
    <nd ref="190770139"/>
    <nd ref="190770140"/>
    <nd ref="190727236"/>
    <nd ref="190770141"/>
    <nd ref="190748681"/>
    <nd ref="190770143"/>
    <nd ref="190748649"/>
    <tag k="highway" v="residential"/>
    <tag k="name" v="Ventura Drive"/>
    <tag k="tiger:cfcc" v="A41"/>
    <tag k="tiger:county" v="Holt, MO"/>
    <tag k="tiger:name_base" v="Ventura"/>
    <tag k="tiger:name_type" v="Dr"/>
    <tag k="tiger:reviewed" v="no"/>
    <tag k="tiger:separated" v="no"/>
    <tag k="tiger:source" v="tiger_import_dch_v0.6_20070813"/>
    <tag k="tiger:tlid" v="16009979:16004396:16011070:16011071:16011068:16011072:16011073:16003952:16003945:16004398:16009652:16009653"/>
    <tag k="tiger:zip_left" v="64473"/>
  </way>
  <way id="47473220" version="3" timestamp="2010-04-06T14:48:50Z" uid="20587" user="balrog-kun" changeset="4342997">
    <nd ref="190735810"/>
    <nd ref="604195116"/>
    <nd ref="604195119"/>
    <nd ref="190737988"/>
    <tag k="highway" v="primary"/>
    <tag k="name" v="Ventura Drive"/>
    <tag k="ref" v="US 59"/>
    <tag k="tiger:cfcc" v="A41"/>
    <tag k="tiger:county" v="Holt, MO"/>
    <tag k="tiger:name_base" v="Ventura"/>
    <tag k="tiger:name_type" v="Dr"/>
    <tag k="tiger:reviewed" v="no"/>
    <tag k="tiger:separated" v="no"/>
    <tag k="tiger:source" v="tiger_import_dch_v0.6_20070813"/>
    <tag k="tiger:tlid" v="16009979:16004396:16011070:16011071:16011068:16011072:16011073:16003952:16003945:16004398:16009652:16009653"/>
    <tag k="tiger:zip_left" v="64473"/>
  </way>
  <way id="47473428" version="4" timestamp="2010-07-09T07:15:32Z" uid="74617" user="JohnSmith" changeset="5171412">
    <nd ref="604223010"/>
    <nd ref="604222860"/>
    <nd ref="604222863"/>
    <nd ref="604222864"/>
    <nd ref="604222866"/>
    <nd ref="604624960"/>
    <nd ref="604222868"/>
    <tag k="highway" v="residential"/>
    <tag k="maxspeed" v="50"/>
    <tag k="maxspeed:source" v="default residential speed limit in Australia"/>
    <tag k="name" v="Minter Way"/>
  </way>
  <way id="47473429" version="3" timestamp="2010-04-22T03:00:43Z" uid="4467" user="Rosscoe" changeset="4492263">
    <nd ref="604222866"/>
    <nd ref="604222876"/>
    <nd ref="604222878"/>
    <nd ref="604222887"/>
    <nd ref="604222890"/>
    <nd ref="604222892"/>
    <nd ref="604222893"/>
    <tag k="highway" v="residential"/>
    <tag k="name" v="Hidcote Turn"/>
  </way>
  <way id="47473429" version="4" timestamp="2010-07-09T07:18:23Z" uid="74617" user="JohnSmith" changeset="5171412">
    <nd ref="604222866"/>
    <nd ref="604222876"/>
    <nd ref="604222878"/>
    <nd ref="604222887"/>
    <nd ref="604222890"/>
    <nd ref="604222892"/>
    <nd ref="604222893"/>
    <tag k="highway" v="residential"/>
    <tag k="maxspeed" v="50"/>
    <tag k="maxspeed:source" v="default residential speed limit in Australia"/>
    <tag k="name" v="Hidcote Turn"/>
  </way>
  <way id="47473430" version="3" timestamp="2010-07-09T07:16:16Z" uid="74617" user="JohnSmith" changeset="5171412">
    <nd ref="604624960"/>
    <nd ref="604222894"/>
    <nd ref="604222895"/>
    <nd ref="604222896"/>
    <nd ref="604222897"/>
    <nd ref="604222893"/>
    <nd ref="604222898"/>
    <nd ref="604222899"/>
    <nd ref="604222901"/>
    <nd ref="604222902"/>
    <tag k="highway" v="residential"/>
    <tag k="maxspeed" v="50"/>
    <tag k="maxspeed:source" v="default residential speed limit in Australia"/>
    <tag k="name" v="Filoli Gardens"/>
  </way>
  <way id="47473431" version="4" timestamp="2010-04-22T03:00:42Z" uid="4467" user="Rosscoe" changeset="4492263">
    <nd ref="604222909"/>
    <nd ref="604625055"/>
    <tag k="highway" v="residential"/>
    <tag k="name" v="Jasmine Gardens"/>
  </way>
  <way id="47473431" version="5" timestamp="2010-07-09T07:13:15Z" uid="74617" user="JohnSmith" changeset="5171412">
    <nd ref="604222909"/>
    <nd ref="604625055"/>
    <tag k="highway" v="residential"/>
    <tag k="maxspeed" v="50"/>
    <tag k="maxspeed:source" v="default residential speed limit in Australia"/>
    <tag k="name" v="Jasmine Gardens"/>
  </way>
  <way id="47473432" version="4" timestamp="2010-04-22T03:00:42Z" uid="4467" user="Rosscoe" changeset="4492263">
    <nd ref="604625087"/>
    <nd ref="604222915"/>
    <nd ref="604222917"/>
    <nd ref="604222919"/>
    <nd ref="604222922"/>
    <nd ref="604222924"/>
    <nd ref="604223016"/>
    <tag k="highway" v="residential"/>
    <tag k="name" v="Queens Lane"/>
  </way>
  <way id="47473432" version="5" timestamp="2010-07-09T07:15:09Z" uid="74617" user="JohnSmith" changeset="5171412">
    <nd ref="604625087"/>
    <nd ref="604222915"/>
    <nd ref="604222917"/>
    <nd ref="604222919"/>
    <nd ref="604222922"/>
    <nd ref="604222924"/>
    <nd ref="604223016"/>
    <tag k="highway" v="residential"/>
    <tag k="maxspeed" v="50"/>
    <tag k="maxspeed:source" v="default residential speed limit in Australia"/>
    <tag k="name" v="Queens Lane"/>
  </way>
  <way id="47473433" version="3" timestamp="2010-04-22T03:00:43Z" uid="4467" user="Rosscoe" changeset="4492263">
    <nd ref="604627435"/>
    <nd ref="604222951"/>
    <nd ref="604222953"/>
    <tag k="highway" v="residential"/>
    <tag k="name" v="Kinloch Pass"/>
  </way>
  <way id="47473433" version="4" timestamp="2010-07-09T07:17:42Z" uid="74617" user="JohnSmith" changeset="5171412">
    <nd ref="604627435"/>
    <nd ref="604222951"/>
    <nd ref="604222953"/>
    <tag k="highway" v="residential"/>
    <tag k="maxspeed" v="50"/>
    <tag k="maxspeed:source" v="default residential speed limit in Australia"/>
    <tag k="name" v="Kinloch Pass"/>
  </way>
  <way id="47473434" version="4" timestamp="2010-04-22T03:00:43Z" uid="4467" user="Rosscoe" changeset="4492263">
    <nd ref="604627471"/>
    <nd ref="604222959"/>
    <nd ref="604222961"/>
    <nd ref="604222962"/>
    <nd ref="604222964"/>
    <nd ref="604222969"/>
    <tag k="highway" v="residential"/>
    <tag k="name" v="Araluen Bend"/>
  </way>
  <way id="47473434" version="5" timestamp="2010-07-09T07:15:52Z" uid="74617" user="JohnSmith" changeset="5171412">
    <nd ref="604627471"/>
    <nd ref="604222959"/>
    <nd ref="604222961"/>
    <nd ref="604222962"/>
    <nd ref="604222964"/>
    <nd ref="604222969"/>
    <tag k="highway" v="residential"/>
    <tag k="maxspeed" v="50"/>
    <tag k="maxspeed:source" v="default residential speed limit in Australia"/>
    <tag k="name" v="Araluen Bend"/>
  </way>
  <way id="47473435" version="4" timestamp="2010-07-09T07:12:50Z" uid="74617" user="JohnSmith" changeset="5171412">
    <nd ref="604222969"/>
    <nd ref="604222973"/>
    <nd ref="604222975"/>
    <nd ref="604222977"/>
    <nd ref="604222979"/>
    <nd ref="604222981"/>
    <tag k="highway" v="residential"/>
    <tag k="maxspeed" v="50"/>
    <tag k="maxspeed:source" v="default residential speed limit in Australia"/>
    <tag k="name" v="Wiseley Court"/>
  </way>
  <way id="47473436" version="3" timestamp="2010-07-09T07:13:28Z" uid="74617" user="JohnSmith" changeset="5171412">
    <nd ref="604222984"/>
    <nd ref="604222977"/>
    <tag k="highway" v="residential"/>
    <tag k="maxspeed" v="50"/>
    <tag k="maxspeed:source" v="default residential speed limit in Australia"/>
    <tag k="name" v="Wisely Court"/>
  </way>
  <way id="47473437" version="3" timestamp="2010-04-22T03:00:43Z" uid="4467" user="Rosscoe" changeset="4492263">
    <nd ref="604626502"/>
    <nd ref="604222990"/>
    <tag k="highway" v="residential"/>
    <tag k="name" v="Babylon Lane"/>
  </way>
  <way id="47473437" version="4" timestamp="2010-07-09T07:15:42Z" uid="74617" user="JohnSmith" changeset="5171412">
    <nd ref="604626502"/>
    <nd ref="604222990"/>
    <tag k="highway" v="residential"/>
    <tag k="maxspeed" v="50"/>
    <tag k="maxspeed:source" v="default residential speed limit in Australia"/>
    <tag k="name" v="Babylon Lane"/>
  </way>
  <way id="47473438" version="4" timestamp="2010-07-09T07:14:20Z" uid="74617" user="JohnSmith" changeset="5171412">
    <nd ref="604627063"/>
    <nd ref="604223009"/>
    <nd ref="604627435"/>
    <nd ref="604222990"/>
    <nd ref="604223010"/>
    <nd ref="604223012"/>
    <nd ref="604625055"/>
    <nd ref="604223014"/>
    <nd ref="604223016"/>
    <nd ref="604626502"/>
    <nd ref="604223018"/>
    <tag k="highway" v="residential"/>
    <tag k="maxspeed" v="50"/>
    <tag k="maxspeed:source" v="default residential speed limit in Australia"/>
    <tag k="name" v="Balboa Loop"/>
  </way>
  <way id="47473439" version="4" timestamp="2010-04-22T03:00:43Z" uid="4467" user="Rosscoe" changeset="4492263">
    <nd ref="604626927"/>
    <nd ref="604223023"/>
    <nd ref="604223025"/>
    <nd ref="604223027"/>
    <nd ref="604223029"/>
    <nd ref="604223031"/>
    <nd ref="604232443"/>
    <nd ref="604223033"/>
    <tag k="highway" v="residential"/>
    <tag k="name" v="Belmore Bend"/>
  </way>
  <way id="47473439" version="5" timestamp="2010-07-09T07:16:31Z" uid="74617" user="JohnSmith" changeset="5171412">
    <nd ref="604626927"/>
    <nd ref="604223023"/>
    <nd ref="604223025"/>
    <nd ref="604223027"/>
    <nd ref="604223029"/>
    <nd ref="604223031"/>
    <nd ref="604232443"/>
    <nd ref="604223033"/>
    <tag k="highway" v="residential"/>
    <tag k="maxspeed" v="50"/>
    <tag k="maxspeed:source" v="default residential speed limit in Australia"/>
    <tag k="name" v="Belmore Bend"/>
  </way>
  <way id="47473440" version="4" timestamp="2010-04-22T03:00:43Z" uid="4467" user="Rosscoe" changeset="4492263">
    <nd ref="604116829"/>
    <nd ref="604223040"/>
    <nd ref="604223042"/>
    <nd ref="604223043"/>
    <nd ref="604223045"/>
    <nd ref="604223048"/>
    <nd ref="604223023"/>
    <tag k="highway" v="residential"/>
    <tag k="name" v="Longwood Bend"/>
  </way>
  <way id="47473440" version="5" timestamp="2010-07-09T07:13:00Z" uid="74617" user="JohnSmith" changeset="5171412">
    <nd ref="604116829"/>
    <nd ref="604223040"/>
    <nd ref="604223042"/>
    <nd ref="604223043"/>
    <nd ref="604223045"/>
    <nd ref="604223048"/>
    <nd ref="604223023"/>
    <tag k="highway" v="residential"/>
    <tag k="maxspeed" v="50"/>
    <tag k="maxspeed:source" v="default residential speed limit in Australia"/>
    <tag k="name" v="Longwood Bend"/>
  </way>
  <way id="47473441" version="3" timestamp="2010-07-09T07:15:20Z" uid="74617" user="JohnSmith" changeset="5171412">
    <nd ref="604627370"/>
    <nd ref="604223052"/>
    <nd ref="604223054"/>
    <nd ref="604626873"/>
    <nd ref="604223056"/>
    <nd ref="604223057"/>
    <nd ref="604223059"/>
    <nd ref="604223061"/>
    <nd ref="604223063"/>
    <nd ref="604223064"/>
    <nd ref="604223066"/>
    <nd ref="604627388"/>
    <tag k="highway" v="residential"/>
    <tag k="maxspeed" v="50"/>
    <tag k="maxspeed:source" v="default residential speed limit in Australia"/>
    <tag k="name" v="Versailles Parkway"/>
  </way>
  <way id="47473442" version="3" timestamp="2010-07-09T07:13:53Z" uid="74617" user="JohnSmith" changeset="5171412">
    <nd ref="604223061"/>
    <nd ref="604223070"/>
    <nd ref="604223072"/>
    <nd ref="604223074"/>
    <nd ref="604223076"/>
    <nd ref="604223082"/>
    <tag k="highway" v="residential"/>
    <tag k="maxspeed" v="50"/>
    <tag k="maxspeed:source" v="default residential speed limit in Australia"/>
    <tag k="name" v="Butchart Turn"/>
  </way>
  <way id="47473443" version="3" timestamp="2010-04-22T03:00:43Z" uid="4467" user="Rosscoe" changeset="4492263">
    <nd ref="604223018"/>
    <nd ref="604223082"/>
    <nd ref="604223274"/>
    <tag k="highway" v="residential"/>
    <tag k="name" v="Cotswold Parade"/>
  </way>
  <way id="47473443" version="4" timestamp="2010-07-09T07:16:01Z" uid="74617" user="JohnSmith" changeset="5171412">
    <nd ref="604223018"/>
    <nd ref="604223082"/>
    <nd ref="604223274"/>
    <tag k="highway" v="residential"/>
    <tag k="maxspeed" v="50"/>
    <tag k="maxspeed:source" v="default residential speed limit in Australia"/>
    <tag k="name" v="Cotswold Parade"/>
  </way>
  <way id="47473444" version="3" timestamp="2010-04-22T03:00:43Z" uid="4467" user="Rosscoe" changeset="4492263">
    <nd ref="604223057"/>
    <nd ref="604223285"/>
    <nd ref="604222969"/>
    <nd ref="604223287"/>
    <nd ref="604627063"/>
    <nd ref="604223292"/>
    <nd ref="604223018"/>
    <nd ref="703548407"/>
    <tag k="highway" v="residential"/>
    <tag k="name" v="Giverny Gardens"/>
  </way>
  <way id="47473444" version="4" timestamp="2010-07-09T07:16:48Z" uid="74617" user="JohnSmith" changeset="5171412">
    <nd ref="604223057"/>
    <nd ref="604223285"/>
    <nd ref="604222969"/>
    <nd ref="604223287"/>
    <nd ref="604627063"/>
    <nd ref="604223292"/>
    <nd ref="604223018"/>
    <nd ref="703548407"/>
    <tag k="highway" v="residential"/>
    <tag k="maxspeed" v="50"/>
    <tag k="maxspeed:source" v="default residential speed limit in Australia"/>
    <tag k="name" v="Giverny Gardens"/>
  </way>
  <way id="47473537" version="6" timestamp="2010-04-03T13:58:14Z" uid="20587" user="balrog-kun" changeset="4312927">
    <nd ref="84303226"/>
    <nd ref="604228436"/>
    <tag k="addr:postcode" v="84737"/>
    <tag k="highway" v="residential"/>
    <tag k="is_in" v="Washington, UT"/>
    <tag k="name" v="North 3900  West"/>
  </way>
  <way id="47473644" version="2" timestamp="2010-07-09T06:22:46Z" uid="74617" user="JohnSmith" changeset="5171134">
    <nd ref="458659413"/>
    <nd ref="265852693"/>
    <nd ref="458659416"/>
    <tag k="highway" v="residential"/>
    <tag k="maxspeed" v="50"/>
    <tag k="maxspeed:source" v="default residential speed limit in Australia"/>
  </way>
  <way id="47473816" version="2" timestamp="2010-07-06T18:50:39Z" uid="74617" user="JohnSmith" changeset="5152225">
    <nd ref="255387435"/>
    <nd ref="255387751"/>
    <nd ref="255387752"/>
    <nd ref="255387753"/>
    <nd ref="255387754"/>
    <nd ref="604230498"/>
    <nd ref="255387755"/>
    <nd ref="255387756"/>
    <nd ref="255387757"/>
    <nd ref="255387758"/>
    <tag k="highway" v="residential"/>
    <tag k="maxspeed" v="50"/>
    <tag k="maxspeed:source" v="default residential speed limit in Australia"/>
    <tag k="name" v="Albert Street"/>
  </way>
  <way id="47473817" version="3" timestamp="2010-07-06T18:58:22Z" uid="74617" user="JohnSmith" changeset="5152225">
    <nd ref="255387434"/>
    <nd ref="255387471"/>
    <nd ref="255387472"/>
    <tag k="highway" v="residential"/>
    <tag k="maxspeed" v="50"/>
    <tag k="maxspeed:source" v="default residential speed limit in Australia"/>
    <tag k="name" v="Oleander Avenue"/>
  </way>
  <way id="47473818" version="3" timestamp="2010-07-06T18:49:08Z" uid="74617" user="JohnSmith" changeset="5152225">
    <nd ref="255387433"/>
    <nd ref="255387468"/>
    <tag k="highway" v="residential"/>
    <tag k="maxspeed" v="50"/>
    <tag k="maxspeed:source" v="default residential speed limit in Australia"/>
    <tag k="name" v="Rose Street"/>
  </way>
  <way id="47473819" version="2" timestamp="2010-07-06T18:56:21Z" uid="74617" user="JohnSmith" changeset="5152225">
    <nd ref="604230495"/>
    <nd ref="277849580"/>
    <nd ref="277849456"/>
    <tag k="highway" v="residential"/>
    <tag k="maxspeed" v="50"/>
    <tag k="maxspeed:source" v="default residential speed limit in Australia"/>
    <tag k="name" v="Princess Lane"/>
  </way>
  <way id="47473820" version="3" timestamp="2010-07-06T18:59:47Z" uid="74617" user="JohnSmith" changeset="5152225">
    <nd ref="604230497"/>
    <nd ref="604230498"/>
    <tag k="highway" v="residential"/>
    <tag k="maxspeed" v="50"/>
    <tag k="maxspeed:source" v="default residential speed limit in Australia"/>
    <tag k="name" v="Albert Street"/>
  </way>
  <way id="47473821" version="2" timestamp="2010-07-06T18:54:26Z" uid="74617" user="JohnSmith" changeset="5152225">
    <nd ref="604230499"/>
    <nd ref="604230500"/>
    <tag k="highway" v="residential"/>
    <tag k="maxspeed" v="50"/>
    <tag k="maxspeed:source" v="default residential speed limit in Australia"/>
    <tag k="name" v="Memorial Terrace"/>
  </way>
  <way id="47473822" version="2" timestamp="2010-07-06T18:57:57Z" uid="74617" user="JohnSmith" changeset="5152225">
    <nd ref="255388290"/>
    <nd ref="255388291"/>
    <tag k="highway" v="residential"/>
    <tag k="maxspeed" v="50"/>
    <tag k="maxspeed:source" v="default residential speed limit in Australia"/>
    <tag k="name" v="King Street"/>
    <tag k="rcn" v="yes"/>
  </way>
  <way id="47473823" version="3" timestamp="2010-07-06T18:51:58Z" uid="74617" user="JohnSmith" changeset="5152225">
    <nd ref="604230503"/>
    <nd ref="705032930"/>
    <nd ref="255387761"/>
    <nd ref="604230502"/>
    <tag k="highway" v="residential"/>
    <tag k="maxspeed" v="50"/>
    <tag k="maxspeed:source" v="default residential speed limit in Australia"/>
    <tag k="name" v="Victoria Terrace"/>
  </way>
  <way id="47473826" version="2" timestamp="2010-05-12T08:33:53Z" uid="4467" user="Rosscoe" changeset="4675230">
    <nd ref="255387456"/>
    <nd ref="255387434"/>
    <tag k="highway" v="residential"/>
    <tag k="name" v="Market Place"/>
  </way>
  <way id="47473826" version="3" timestamp="2010-07-06T18:49:39Z" uid="74617" user="JohnSmith" changeset="5152225">
    <nd ref="255387456"/>
    <nd ref="255387434"/>
    <tag k="highway" v="residential"/>
    <tag k="maxspeed" v="50"/>
    <tag k="maxspeed:source" v="default residential speed limit in Australia"/>
    <tag k="name" v="Market Place"/>
  </way>
  <way id="47473827" version="2" timestamp="2010-05-12T08:33:55Z" uid="4467" user="Rosscoe" changeset="4675230">
    <nd ref="255387481"/>
    <nd ref="730606181"/>
    <nd ref="255387474"/>
    <tag k="highway" v="residential"/>
    <tag k="name" v="Edmund Street"/>
  </way>
  <way id="47473827" version="3" timestamp="2010-07-06T18:57:08Z" uid="74617" user="JohnSmith" changeset="5152225">
    <nd ref="255387481"/>
    <nd ref="730606181"/>
    <nd ref="255387474"/>
    <tag k="highway" v="residential"/>
    <tag k="maxspeed" v="50"/>
    <tag k="maxspeed:source" v="default residential speed limit in Australia"/>
    <tag k="name" v="Edmund Street"/>
  </way>
  <way id="47473828" version="3" timestamp="2010-07-06T18:47:59Z" uid="74617" user="JohnSmith" changeset="5152225">
    <nd ref="255387458"/>
    <nd ref="705032817"/>
    <nd ref="255387459"/>
    <nd ref="255387460"/>
    <nd ref="255387461"/>
    <nd ref="255387462"/>
    <nd ref="255387463"/>
    <tag k="highway" v="residential"/>
    <tag k="maxspeed" v="50"/>
    <tag k="maxspeed:source" v="default residential speed limit in Australia"/>
    <tag k="name" v="Beachside Court"/>
  </way>
  <way id="47473829" version="2" timestamp="2010-07-06T18:55:24Z" uid="74617" user="JohnSmith" changeset="5152225">
    <nd ref="255387436"/>
    <nd ref="255387748"/>
    <nd ref="255387749"/>
    <tag k="highway" v="residential"/>
    <tag k="maxspeed" v="50"/>
    <tag k="maxspeed:source" v="default residential speed limit in Australia"/>
    <tag k="name" v="Ocean Court"/>
  </way>
  <way id="47473831" version="2" timestamp="2010-05-12T08:33:53Z" uid="4467" user="Rosscoe" changeset="4675230">
    <nd ref="730606172"/>
    <nd ref="730606196"/>
    <nd ref="255387475"/>
    <tag k="highway" v="residential"/>
    <tag k="name" v="Mcilwraith Street"/>
  </way>
  <way id="47473831" version="3" timestamp="2010-07-06T18:52:51Z" uid="74617" user="JohnSmith" changeset="5152225">
    <nd ref="730606172"/>
    <nd ref="730606196"/>
    <nd ref="255387475"/>
    <tag k="highway" v="residential"/>
    <tag k="maxspeed" v="50"/>
    <tag k="maxspeed:source" v="default residential speed limit in Australia"/>
    <tag k="name" v="Mcilwraith Street"/>
  </way>
  <way id="47473832" version="2" timestamp="2010-07-06T18:59:37Z" uid="74617" user="JohnSmith" changeset="5152225">
    <nd ref="255387475"/>
    <nd ref="255387476"/>
    <tag k="highway" v="residential"/>
    <tag k="maxspeed" v="50"/>
    <tag k="maxspeed:source" v="default residential speed limit in Australia"/>
    <tag k="name" v="Mcilwraith Street"/>
  </way>
</osm>
