<?xml version='1.0' encoding='UTF-8'?>
<osm version="0.6" generator="libosmium/2.20.0">
  <way id="4749291" version="2" timestamp="2009-07-04T20:07:09Z" uid="38528" user="acrosscanadatrails" changeset="1733122">
    <nd ref="25877926"/>
    <nd ref="434124534"/>
    <tag k="bridge" v="yes"/>
    <tag k="created_by" v="JOSM"/>
    <tag k="highway" v="secondary"/>
    <tag k="name" v="Johnson Street"/>
  </way>
  <way id="4749294" version="2" timestamp="2009-07-04T20:07:09Z" uid="38528" user="acrosscanadatrails" changeset="1733122">
    <nd ref="26961334"/>
    <nd ref="26961335"/>
    <nd ref="434124616"/>
    <nd ref="434124618"/>
    <nd ref="26961336"/>
    <tag k="created_by" v="JOSM"/>
    <tag k="name" v="Esquimalt &amp; Nanaimo Railway"/>
    <tag k="railway" v="rail"/>
  </way>
  <way id="4749295" version="3" timestamp="2009-07-04T20:07:09Z" uid="38528" user="acrosscanadatrails" changeset="1733122">
    <nd ref="26961336"/>
    <nd ref="26961342"/>
    <tag k="bridge" v="yes"/>
    <tag k="created_by" v="JOSM"/>
    <tag k="name" v="Esquimalt &amp; Nanaimo Railway"/>
    <tag k="railway" v="rail"/>
  </way>
  <way id="4749296" version="6" timestamp="2009-08-04T01:19:11Z" uid="38528" user="acrosscanadatrails" changeset="2031273">
    <nd ref="26961349"/>
    <nd ref="401421027"/>
    <nd ref="401421028"/>
    <nd ref="27143189"/>
    <nd ref="27143145"/>
    <nd ref="27143140"/>
    <nd ref="27143129"/>
    <nd ref="27143128"/>
    <nd ref="27143127"/>
    <nd ref="27143126"/>
    <nd ref="27143125"/>
    <nd ref="455752709"/>
    <nd ref="455752715"/>
    <nd ref="455752716"/>
    <tag k="foot" v="yes"/>
    <tag k="highway" v="cycleway"/>
    <tag k="name" v="Galloping Goose Trail"/>
    <tag k="surface" v="paved"/>
  </way>
  <way id="4749296" version="7" timestamp="2009-08-04T01:58:22Z" uid="38528" user="acrosscanadatrails" changeset="2031362">
    <nd ref="26961349"/>
    <nd ref="401421027"/>
    <nd ref="401421028"/>
    <nd ref="27143189"/>
    <nd ref="27143145"/>
    <nd ref="27143140"/>
    <nd ref="455765713"/>
    <nd ref="27143129"/>
    <nd ref="27143128"/>
    <nd ref="27143127"/>
    <nd ref="27143126"/>
    <nd ref="27143125"/>
    <nd ref="455765683"/>
    <nd ref="455752709"/>
    <nd ref="455752715"/>
    <nd ref="455752716"/>
    <tag k="foot" v="yes"/>
    <tag k="highway" v="cycleway"/>
    <tag k="name" v="Galloping Goose Trail"/>
    <tag k="surface" v="paved"/>
  </way>
  <way id="4749296" version="8" timestamp="2009-08-04T18:58:12Z" uid="38528" user="acrosscanadatrails" changeset="2038851">
    <nd ref="26961349"/>
    <nd ref="401421027"/>
    <nd ref="401421028"/>
    <nd ref="27143189"/>
    <nd ref="27143145"/>
    <nd ref="27143140"/>
    <nd ref="455765713"/>
    <nd ref="27143129"/>
    <nd ref="27143128"/>
    <nd ref="27143127"/>
    <nd ref="456345662"/>
    <nd ref="27143126"/>
    <nd ref="27143125"/>
    <nd ref="455765683"/>
    <nd ref="455752709"/>
    <nd ref="455752715"/>
    <nd ref="455752716"/>
    <tag k="foot" v="yes"/>
    <tag k="highway" v="cycleway"/>
    <tag k="name" v="Galloping Goose Trail"/>
    <tag k="surface" v="paved"/>
  </way>
  <way id="4749296" version="9" timestamp="2009-10-04T16:15:46Z" uid="38528" user="acrosscanadatrails" changeset="2739382">
    <nd ref="26961349"/>
    <nd ref="401421027"/>
    <nd ref="401421028"/>
    <tag k="foot" v="yes"/>
    <tag k="highway" v="cycleway"/>
    <tag k="name" v="Galloping Goose Trail"/>
    <tag k="surface" v="paved"/>
  </way>
  <way id="4749299" version="3" timestamp="2009-08-04T01:19:11Z" uid="38528" user="acrosscanadatrails" changeset="2031273">
    <nd ref="26962676"/>
    <nd ref="455752708"/>
    <nd ref="26962677"/>
    <tag k="bridge" v="yes"/>
    <tag k="highway" v="secondary"/>
    <tag k="name" v="Bay Street"/>
  </way>
  <way id="4749324" version="21" timestamp="2010-06-02T06:15:41Z" uid="4467" user="Rosscoe" changeset="4881092">
    <nd ref="253767946"/>
    <nd ref="761932286"/>
    <nd ref="253767944"/>
    <tag k="highway" v="trunk_link"/>
    <tag k="oneway" v="yes"/>
    <tag k="ref" v="NR8;S83;ALT1"/>
    <tag k="source" v="yahoo"/>
  </way>
  <way id="4749344" version="24" timestamp="2010-07-09T03:54:47Z" uid="74617" user="JohnSmith" changeset="5170838">
    <nd ref="30287400"/>
    <nd ref="305540078"/>
    <nd ref="305540633"/>
    <nd ref="31402957"/>
    <nd ref="31402958"/>
    <nd ref="476239626"/>
    <nd ref="140980391"/>
    <nd ref="368380517"/>
    <nd ref="331143104"/>
    <nd ref="331143090"/>
    <nd ref="331164328"/>
    <nd ref="331164284"/>
    <nd ref="331164261"/>
    <nd ref="331164022"/>
    <nd ref="33238508"/>
    <nd ref="370243860"/>
    <nd ref="370244512"/>
    <nd ref="370243352"/>
    <nd ref="30287401"/>
    <tag k="highway" v="residential"/>
    <tag k="maxspeed" v="50"/>
    <tag k="maxspeed:source" v="default residential speed limit in Australia"/>
    <tag k="name" v="Drummond Street"/>
    <tag k="oneway" v="yes"/>
  </way>
  <way id="4749344" version="25" timestamp="2011-04-10T20:38:14Z" uid="4467" user="Rosscoe" changeset="7827395">
    <nd ref="30287400"/>
    <nd ref="305540078"/>
    <nd ref="305540633"/>
    <nd ref="31402957"/>
    <nd ref="31402958"/>
    <nd ref="476239626"/>
    <nd ref="140980391"/>
    <nd ref="368380517"/>
    <nd ref="331143104"/>
    <nd ref="331143090"/>
    <nd ref="331164328"/>
    <nd ref="331164284"/>
    <nd ref="331164261"/>
    <nd ref="331164022"/>
    <nd ref="33238508"/>
    <nd ref="370243860"/>
    <nd ref="370244512"/>
    <nd ref="370243352"/>
    <nd ref="30287401"/>
    <tag k="highway" v="residential"/>
    <tag k="maxspeed" v="50"/>
    <tag k="name" v="Drummond Street"/>
    <tag k="oneway" v="yes"/>
    <tag k="source:maxspeed" v="default residential speed limit in Australia"/>
  </way>
  <way id="4749344" version="26" timestamp="2011-04-23T03:15:14Z" uid="4467" user="Rosscoe" changeset="7940173">
    <nd ref="30287400"/>
    <nd ref="305540078"/>
    <nd ref="305540633"/>
    <nd ref="31402957"/>
    <nd ref="31402958"/>
    <nd ref="476239626"/>
    <nd ref="140980391"/>
    <nd ref="368380517"/>
    <nd ref="331143104"/>
    <nd ref="331143090"/>
    <nd ref="331164328"/>
    <nd ref="331164284"/>
    <nd ref="331164261"/>
    <nd ref="331164022"/>
    <nd ref="33238508"/>
    <nd ref="370243860"/>
    <nd ref="370244512"/>
    <nd ref="370243352"/>
    <nd ref="1256291038"/>
    <tag k="highway" v="residential"/>
    <tag k="maxspeed" v="50"/>
    <tag k="name" v="Drummond Street"/>
    <tag k="oneway" v="yes"/>
    <tag k="source:maxspeed" v="default residential speed limit in Australia"/>
  </way>
  <way id="4749347" version="7" timestamp="2010-07-09T03:54:50Z" uid="74617" user="JohnSmith" changeset="5170838">
    <nd ref="30287406"/>
    <nd ref="34160613"/>
    <nd ref="30287410"/>
    <tag k="highway" v="residential"/>
    <tag k="maxspeed" v="50"/>
    <tag k="maxspeed:source" v="default residential speed limit in Australia"/>
    <tag k="name" v="Pelham Street"/>
    <tag k="oneway" v="yes"/>
  </way>
  <way id="4749347" version="8" timestamp="2011-04-23T02:57:20Z" uid="4467" user="Rosscoe" changeset="7940142">
    <nd ref="30287406"/>
    <nd ref="34160613"/>
    <nd ref="30287410"/>
    <tag k="highway" v="residential"/>
    <tag k="maxspeed" v="50"/>
    <tag k="name" v="Pelham Street"/>
    <tag k="oneway" v="yes"/>
    <tag k="source:maxspeed" v="default residential speed limit in Australia"/>
  </way>
  <way id="4749347" version="9" timestamp="2011-04-23T03:15:05Z" uid="4467" user="Rosscoe" changeset="7940173">
    <nd ref="30287406"/>
    <nd ref="34160613"/>
    <nd ref="1256291048"/>
    <nd ref="30287410"/>
    <tag k="highway" v="residential"/>
    <tag k="maxspeed" v="50"/>
    <tag k="name" v="Pelham Street"/>
    <tag k="oneway" v="yes"/>
    <tag k="source:maxspeed" v="default residential speed limit in Australia"/>
  </way>
  <way id="4749348" version="8" timestamp="2010-07-09T02:53:41Z" uid="74617" user="JohnSmith" changeset="5170739">
    <nd ref="30287405"/>
    <nd ref="370243915"/>
    <nd ref="244222508"/>
    <tag k="highway" v="residential"/>
    <tag k="maxspeed" v="50"/>
    <tag k="maxspeed:source" v="default residential speed limit in Australia"/>
    <tag k="name" v="Pelham Street"/>
    <tag k="oneway" v="yes"/>
  </way>
  <way id="4749351" version="8" timestamp="2010-07-09T03:54:51Z" uid="74617" user="JohnSmith" changeset="5170838">
    <nd ref="30287462"/>
    <nd ref="361227455"/>
    <nd ref="30287461"/>
    <nd ref="30287460"/>
    <nd ref="30287458"/>
    <tag k="highway" v="residential"/>
    <tag k="maxspeed" v="50"/>
    <tag k="maxspeed:source" v="default residential speed limit in Australia"/>
    <tag k="name" v="John Street"/>
    <tag k="oneway" v="yes"/>
  </way>
  <way id="4749351" version="9" timestamp="2011-04-10T20:39:21Z" uid="4467" user="Rosscoe" changeset="7827395">
    <nd ref="30287462"/>
    <nd ref="361227455"/>
    <nd ref="30287461"/>
    <nd ref="30287460"/>
    <nd ref="30287458"/>
    <tag k="highway" v="residential"/>
    <tag k="maxspeed" v="50"/>
    <tag k="name" v="John Street"/>
    <tag k="oneway" v="yes"/>
    <tag k="source:maxspeed" v="default residential speed limit in Australia"/>
  </way>
  <way id="4749353" version="23" timestamp="2010-04-05T22:48:17Z" uid="74617" user="JohnSmith" changeset="4338595">
    <nd ref="243445349"/>
    <nd ref="33239382"/>
    <tag k="highway" v="primary"/>
    <tag k="name" v="Brunswick Street"/>
    <tag k="note" v="bike lane not really worth recording - on and off &amp; parked on"/>
    <tag k="railway" v="tram"/>
  </way>
  <way id="4749356" version="16" timestamp="2010-07-09T05:03:06Z" uid="74617" user="JohnSmith" changeset="5170972">
    <nd ref="30287470"/>
    <nd ref="361283473"/>
    <nd ref="361768907"/>
    <nd ref="361767640"/>
    <tag k="highway" v="residential"/>
    <tag k="maxspeed" v="50"/>
    <tag k="maxspeed:source" v="default residential speed limit in Australia"/>
    <tag k="name" v="St. David Street"/>
  </way>
  <way id="4749356" version="17" timestamp="2011-04-10T20:39:13Z" uid="4467" user="Rosscoe" changeset="7827395">
    <nd ref="30287470"/>
    <nd ref="361283473"/>
    <nd ref="361768907"/>
    <nd ref="361767640"/>
    <tag k="highway" v="residential"/>
    <tag k="maxspeed" v="50"/>
    <tag k="name" v="St. David Street"/>
    <tag k="source:maxspeed" v="default residential speed limit in Australia"/>
  </way>
  <way id="4749357" version="17" timestamp="2010-07-09T04:54:53Z" uid="74617" user="JohnSmith" changeset="5170972">
    <nd ref="233255296"/>
    <nd ref="361770843"/>
    <nd ref="597633369"/>
    <nd ref="361770719"/>
    <nd ref="233255272"/>
    <nd ref="385165474"/>
    <nd ref="233270916"/>
    <nd ref="233255248"/>
    <nd ref="361768817"/>
    <nd ref="361283566"/>
    <nd ref="333904440"/>
    <tag k="highway" v="residential"/>
    <tag k="maxspeed" v="50"/>
    <tag k="maxspeed:source" v="default residential speed limit in Australia"/>
    <tag k="name" v="Greeves Street"/>
    <tag k="oneway" v="yes"/>
  </way>
  <way id="4749357" version="18" timestamp="2011-04-10T20:38:01Z" uid="4467" user="Rosscoe" changeset="7827395">
    <nd ref="233255296"/>
    <nd ref="361770843"/>
    <nd ref="597633369"/>
    <nd ref="361770719"/>
    <nd ref="233255272"/>
    <nd ref="385165474"/>
    <nd ref="233270916"/>
    <nd ref="233255248"/>
    <nd ref="361768817"/>
    <nd ref="361283566"/>
    <nd ref="333904440"/>
    <tag k="highway" v="residential"/>
    <tag k="maxspeed" v="50"/>
    <tag k="name" v="Greeves Street"/>
    <tag k="oneway" v="yes"/>
    <tag k="source:maxspeed" v="default residential speed limit in Australia"/>
  </way>
  <way id="4749359" version="18" timestamp="2010-07-09T04:59:06Z" uid="74617" user="JohnSmith" changeset="5170972">
    <nd ref="368380862"/>
    <nd ref="564470489"/>
    <nd ref="230782542"/>
    <nd ref="244548946"/>
    <nd ref="679722416"/>
    <nd ref="30287473"/>
    <tag k="highway" v="residential"/>
    <tag k="maxspeed" v="50"/>
    <tag k="maxspeed:source" v="default residential speed limit in Australia"/>
    <tag k="name" v="Kerr Street"/>
  </way>
  <way id="4749359" version="19" timestamp="2011-04-10T20:39:29Z" uid="4467" user="Rosscoe" changeset="7827395">
    <nd ref="368380862"/>
    <nd ref="564470489"/>
    <nd ref="230782542"/>
    <nd ref="244548946"/>
    <nd ref="679722416"/>
    <nd ref="30287473"/>
    <tag k="highway" v="residential"/>
    <tag k="maxspeed" v="50"/>
    <tag k="name" v="Kerr Street"/>
    <tag k="source:maxspeed" v="default residential speed limit in Australia"/>
  </way>
  <way id="4749363" version="5" timestamp="2010-07-09T04:56:45Z" uid="74617" user="JohnSmith" changeset="5170972">
    <nd ref="30287514"/>
    <nd ref="332146573"/>
    <tag k="highway" v="residential"/>
    <tag k="maxspeed" v="50"/>
    <tag k="maxspeed:source" v="default residential speed limit in Australia"/>
    <tag k="name" v="Forest Street"/>
    <tag k="source" v="yahoo"/>
    <tag k="source:name" v="Collins 1936"/>
  </way>
  <way id="4749363" version="6" timestamp="2011-04-10T20:38:55Z" uid="4467" user="Rosscoe" changeset="7827395">
    <nd ref="30287514"/>
    <nd ref="332146573"/>
    <tag k="highway" v="residential"/>
    <tag k="maxspeed" v="50"/>
    <tag k="name" v="Forest Street"/>
    <tag k="source" v="yahoo"/>
    <tag k="source:maxspeed" v="default residential speed limit in Australia"/>
    <tag k="source:name" v="Collins 1936"/>
  </way>
  <way id="4749366" version="7" timestamp="2010-07-09T04:56:15Z" uid="74617" user="JohnSmith" changeset="5170972">
    <nd ref="30287517"/>
    <nd ref="227324345"/>
    <nd ref="384006399"/>
    <tag k="highway" v="residential"/>
    <tag k="maxspeed" v="50"/>
    <tag k="maxspeed:source" v="default residential speed limit in Australia"/>
    <tag k="name" v="Harmsworth Street"/>
  </way>
  <way id="4749367" version="8" timestamp="2010-07-09T04:58:10Z" uid="74617" user="JohnSmith" changeset="5170972">
    <nd ref="332146574"/>
    <nd ref="332146807"/>
    <tag k="highway" v="residential"/>
    <tag k="maxspeed" v="50"/>
    <tag k="maxspeed:source" v="default residential speed limit in Australia"/>
    <tag k="name" v="Alexander Street"/>
    <tag k="source" v="yahoo"/>
    <tag k="source:name" v="Collins 1936"/>
  </way>
  <way id="4749367" version="9" timestamp="2011-04-10T20:39:42Z" uid="4467" user="Rosscoe" changeset="7827395">
    <nd ref="332146574"/>
    <nd ref="332146807"/>
    <tag k="highway" v="residential"/>
    <tag k="maxspeed" v="50"/>
    <tag k="name" v="Alexander Street"/>
    <tag k="source" v="yahoo"/>
    <tag k="source:maxspeed" v="default residential speed limit in Australia"/>
    <tag k="source:name" v="Collins 1936"/>
  </way>
  <way id="4749369" version="9" timestamp="2010-07-09T04:59:28Z" uid="74617" user="JohnSmith" changeset="5170972">
    <nd ref="30287490"/>
    <nd ref="603034252"/>
    <nd ref="603034264"/>
    <nd ref="151434539"/>
    <nd ref="458645612"/>
    <nd ref="30287527"/>
    <tag k="highway" v="residential"/>
    <tag k="maxspeed" v="50"/>
    <tag k="maxspeed:source" v="default residential speed limit in Australia"/>
    <tag k="name" v="Charlotte Street"/>
  </way>
  <way id="4749369" version="10" timestamp="2011-04-10T20:39:27Z" uid="4467" user="Rosscoe" changeset="7827395">
    <nd ref="30287490"/>
    <nd ref="603034252"/>
    <nd ref="603034264"/>
    <nd ref="151434539"/>
    <nd ref="458645612"/>
    <nd ref="30287527"/>
    <tag k="highway" v="residential"/>
    <tag k="maxspeed" v="50"/>
    <tag k="name" v="Charlotte Street"/>
    <tag k="source:maxspeed" v="default residential speed limit in Australia"/>
  </way>
  <way id="4749371" version="6" timestamp="2010-07-09T04:53:20Z" uid="74617" user="JohnSmith" changeset="5170972">
    <nd ref="30287528"/>
    <nd ref="222957430"/>
    <nd ref="30287591"/>
    <nd ref="30287552"/>
    <tag k="highway" v="residential"/>
    <tag k="maxspeed" v="50"/>
    <tag k="maxspeed:source" v="default residential speed limit in Australia"/>
    <tag k="name" v="Islington Street"/>
    <tag k="oneway" v="yes"/>
  </way>
  <way id="4749375" version="3" timestamp="2009-10-26T02:34:10Z" uid="4467" user="Rosscoe" changeset="2952997">
    <nd ref="30199456"/>
    <nd ref="30199464"/>
    <nd ref="27338029"/>
    <nd ref="27338030"/>
    <nd ref="540520884"/>
    <tag k="highway" v="tertiary"/>
    <tag k="name" v="William Street"/>
  </way>
  <way id="4749376" version="2" timestamp="2010-07-09T05:29:55Z" uid="74617" user="JohnSmith" changeset="5170986">
    <nd ref="30201258"/>
    <nd ref="30287599"/>
    <nd ref="30287600"/>
    <nd ref="30459294"/>
    <nd ref="30287601"/>
    <tag k="highway" v="unclassified"/>
    <tag k="maxspeed" v="50"/>
    <tag k="maxspeed:source" v="default residential speed limit in Australia"/>
    <tag k="name" v="Croft Avenue"/>
  </way>
  <way id="4749391" version="8" timestamp="2011-03-14T15:26:48Z" uid="4467" user="Rosscoe" changeset="7557457">
    <nd ref="305549833"/>
    <nd ref="679617516"/>
    <nd ref="1201689417"/>
    <tag k="highway" v="primary"/>
    <tag k="name" v="Grange Road"/>
    <tag k="oneway" v="yes"/>
  </way>
  <way id="4749394" version="12" timestamp="2010-07-10T06:56:01Z" uid="4467" user="Rosscoe" changeset="5179736">
    <nd ref="27164106"/>
    <nd ref="679006135"/>
    <nd ref="679004723"/>
    <nd ref="277358644"/>
    <nd ref="679010594"/>
    <nd ref="679010595"/>
    <nd ref="679010596"/>
    <nd ref="679010597"/>
    <nd ref="30287959"/>
    <nd ref="679010599"/>
    <nd ref="679010600"/>
    <nd ref="679010554"/>
    <nd ref="30287961"/>
    <nd ref="277359210"/>
    <tag k="highway" v="motorway_link"/>
    <tag k="name" v="High Street Offramp"/>
    <tag k="oneway" v="yes"/>
  </way>
  <way id="4749399" version="5" timestamp="2010-07-09T03:18:19Z" uid="74617" user="JohnSmith" changeset="5170713">
    <nd ref="30287994"/>
    <nd ref="30287998"/>
    <nd ref="30288000"/>
    <nd ref="30288011"/>
    <nd ref="30288014"/>
    <nd ref="588380183"/>
    <nd ref="30288015"/>
    <nd ref="30288016"/>
    <nd ref="30288018"/>
    <nd ref="30288019"/>
    <nd ref="588380197"/>
    <nd ref="30288042"/>
    <nd ref="30288043"/>
    <nd ref="30288044"/>
    <nd ref="30288045"/>
    <nd ref="30288046"/>
    <tag k="highway" v="residential"/>
    <tag k="maxspeed" v="50"/>
    <tag k="maxspeed:source" v="default residential speed limit in Australia"/>
    <tag k="name" v="Francis Crescent"/>
    <tag k="source" v="survey"/>
  </way>
  <way id="4749401" version="16" timestamp="2010-07-10T06:55:26Z" uid="4467" user="Rosscoe" changeset="5179736">
    <nd ref="277359217"/>
    <nd ref="679006686"/>
    <nd ref="679012583"/>
    <nd ref="277358907"/>
    <tag k="highway" v="primary"/>
    <tag k="name" v="Wills Street"/>
    <tag k="oneway" v="yes"/>
  </way>
  <way id="4749408" version="5" timestamp="2010-07-09T03:19:57Z" uid="74617" user="JohnSmith" changeset="5170713">
    <nd ref="30062632"/>
    <nd ref="30288086"/>
    <tag k="highway" v="residential"/>
    <tag k="maxspeed" v="50"/>
    <tag k="maxspeed:source" v="default residential speed limit in Australia"/>
    <tag k="name" v="Normandy Street"/>
    <tag k="source" v="survey"/>
  </way>
  <way id="4749409" version="9" timestamp="2010-07-09T03:21:47Z" uid="74617" user="JohnSmith" changeset="5170713">
    <nd ref="30288106"/>
    <nd ref="604123824"/>
    <nd ref="571477989"/>
    <nd ref="30288107"/>
    <nd ref="30288108"/>
    <nd ref="30063501"/>
    <nd ref="30063500"/>
    <nd ref="30063499"/>
    <tag k="highway" v="residential"/>
    <tag k="maxspeed" v="50"/>
    <tag k="maxspeed:source" v="default residential speed limit in Australia"/>
    <tag k="name" v="Karnak Road"/>
    <tag k="source" v="survey"/>
  </way>
  <way id="4749410" version="8" timestamp="2010-07-06T07:46:12Z" uid="4467" user="Rosscoe" changeset="5148043">
    <nd ref="30288067"/>
    <nd ref="719820649"/>
    <nd ref="30288102"/>
    <nd ref="30288092"/>
    <nd ref="256666989"/>
    <nd ref="256666986"/>
    <nd ref="30063499"/>
    <nd ref="30288094"/>
    <tag k="highway" v="tertiary"/>
    <tag k="name" v="St Georges Crescent"/>
    <tag k="source" v="yahoo"/>
    <tag k="source:name" v="Collins 1936"/>
  </way>
  <way id="4749412" version="6" timestamp="2010-07-09T03:18:42Z" uid="74617" user="JohnSmith" changeset="5170713">
    <nd ref="30288095"/>
    <nd ref="30288096"/>
    <nd ref="317505956"/>
    <nd ref="30288097"/>
    <tag k="highway" v="residential"/>
    <tag k="maxspeed" v="50"/>
    <tag k="maxspeed:source" v="default residential speed limit in Australia"/>
    <tag k="name" v="Maxwell Street"/>
    <tag k="source" v="survey"/>
  </way>
  <way id="4749414" version="4" timestamp="2010-07-09T03:23:38Z" uid="74617" user="JohnSmith" changeset="5170713">
    <nd ref="30288100"/>
    <nd ref="30288101"/>
    <tag k="highway" v="residential"/>
    <tag k="maxspeed" v="50"/>
    <tag k="maxspeed:source" v="default residential speed limit in Australia"/>
    <tag k="name" v="Annetta Avenue"/>
    <tag k="source" v="yahoo"/>
    <tag k="source:name" v="Collins 1936"/>
  </way>
  <way id="4749415" version="7" timestamp="2010-07-09T03:16:59Z" uid="74617" user="JohnSmith" changeset="5170713">
    <nd ref="30288102"/>
    <nd ref="256666990"/>
    <nd ref="30288101"/>
    <nd ref="30288104"/>
    <nd ref="141594655"/>
    <nd ref="30288106"/>
    <tag k="highway" v="residential"/>
    <tag k="maxspeed" v="50"/>
    <tag k="maxspeed:source" v="default residential speed limit in Australia"/>
    <tag k="name" v="Solway Street"/>
  </way>
  <way id="4749418" version="5" timestamp="2010-07-09T03:19:01Z" uid="74617" user="JohnSmith" changeset="5170713">
    <nd ref="30288121"/>
    <nd ref="30288122"/>
    <tag k="highway" v="residential"/>
    <tag k="maxspeed" v="50"/>
    <tag k="maxspeed:source" v="default residential speed limit in Australia"/>
    <tag k="name" v="Ambon Street"/>
  </way>
  <way id="4749419" version="5" timestamp="2010-04-17T13:53:16Z" uid="4467" user="Rosscoe" changeset="4447964">
    <nd ref="30288120"/>
    <nd ref="30288121"/>
    <nd ref="699750953"/>
    <tag k="highway" v="residential"/>
    <tag k="name" v="Alamein Avenue"/>
  </way>
  <way id="4749419" version="6" timestamp="2010-07-09T03:20:44Z" uid="74617" user="JohnSmith" changeset="5170713">
    <nd ref="30288120"/>
    <nd ref="30288121"/>
    <nd ref="699750953"/>
    <tag k="highway" v="residential"/>
    <tag k="maxspeed" v="50"/>
    <tag k="maxspeed:source" v="default residential speed limit in Australia"/>
    <tag k="name" v="Alamein Avenue"/>
  </way>
  <way id="4749420" version="6" timestamp="2010-07-09T03:21:14Z" uid="74617" user="JohnSmith" changeset="5170713">
    <nd ref="30288116"/>
    <nd ref="30288127"/>
    <nd ref="30288122"/>
    <nd ref="30288128"/>
    <nd ref="667754180"/>
    <nd ref="660053500"/>
    <nd ref="660053501"/>
    <nd ref="30288129"/>
    <nd ref="30288130"/>
    <nd ref="30288131"/>
    <nd ref="30288132"/>
    <tag k="highway" v="residential"/>
    <tag k="maxspeed" v="50"/>
    <tag k="maxspeed:source" v="default residential speed limit in Australia"/>
    <tag k="name" v="Markham Avenue"/>
  </way>
  <way id="4749421" version="6" timestamp="2010-07-09T03:23:04Z" uid="74617" user="JohnSmith" changeset="5170713">
    <nd ref="30288100"/>
    <nd ref="719820214"/>
    <nd ref="30288067"/>
    <tag k="highway" v="residential"/>
    <tag k="maxspeed" v="50"/>
    <tag k="maxspeed:source" v="default residential speed limit in Australia"/>
    <tag k="name" v="St Georges Crescent"/>
    <tag k="source" v="yahoo"/>
    <tag k="source:name" v="Collins 1936"/>
  </way>
  <way id="4749422" version="6" timestamp="2010-07-09T03:17:43Z" uid="74617" user="JohnSmith" changeset="5170713">
    <nd ref="30062984"/>
    <nd ref="30288133"/>
    <nd ref="571476781"/>
    <nd ref="30288134"/>
    <nd ref="30288100"/>
    <nd ref="30288135"/>
    <nd ref="597558050"/>
    <nd ref="30288096"/>
    <tag k="highway" v="residential"/>
    <tag k="maxspeed" v="50"/>
    <tag k="maxspeed:source" v="default residential speed limit in Australia"/>
    <tag k="name" v="Pitt Street"/>
    <tag k="source" v="survey"/>
  </way>
  <way id="4749423" version="15" timestamp="2010-07-09T03:19:28Z" uid="74617" user="JohnSmith" changeset="5170713">
    <nd ref="30288084"/>
    <nd ref="719823776"/>
    <nd ref="256667665"/>
    <nd ref="256667664"/>
    <nd ref="256667627"/>
    <nd ref="256667591"/>
    <nd ref="256667659"/>
    <nd ref="317505931"/>
    <nd ref="92348686"/>
    <nd ref="719824699"/>
    <nd ref="73119974"/>
    <nd ref="30288136"/>
    <nd ref="30288137"/>
    <nd ref="30288085"/>
    <nd ref="30288086"/>
    <nd ref="30288088"/>
    <tag k="highway" v="residential"/>
    <tag k="maxspeed" v="50"/>
    <tag k="maxspeed:source" v="default residential speed limit in Australia"/>
    <tag k="name" v="Baird Street"/>
    <tag k="source" v="survey,nearmap"/>
  </way>
  <way id="4749424" version="5" timestamp="2010-07-09T03:23:18Z" uid="74617" user="JohnSmith" changeset="5170713">
    <nd ref="30288065"/>
    <nd ref="30288138"/>
    <tag k="highway" v="residential"/>
    <tag k="maxspeed" v="50"/>
    <tag k="maxspeed:source" v="default residential speed limit in Australia"/>
    <tag k="name" v="Saxby Road"/>
    <tag k="source" v="yahoo"/>
    <tag k="source:name" v="Collins 1936"/>
  </way>
  <way id="4749426" version="5" timestamp="2010-04-18T00:05:44Z" uid="4467" user="Rosscoe" changeset="4453545">
    <nd ref="30288142"/>
    <nd ref="30288159"/>
    <nd ref="618431449"/>
    <nd ref="700451729"/>
    <tag k="highway" v="residential"/>
    <tag k="name" v="Batesford Road"/>
  </way>
  <way id="4749426" version="6" timestamp="2010-07-09T03:19:40Z" uid="74617" user="JohnSmith" changeset="5170713">
    <nd ref="30288142"/>
    <nd ref="30288159"/>
    <nd ref="618431449"/>
    <nd ref="700451729"/>
    <tag k="highway" v="residential"/>
    <tag k="maxspeed" v="50"/>
    <tag k="maxspeed:source" v="default residential speed limit in Australia"/>
    <tag k="name" v="Batesford Road"/>
  </way>
  <way id="4749427" version="5" timestamp="2009-08-13T01:04:26Z" uid="4467" user="Rosscoe" changeset="2125668">
    <nd ref="30288150"/>
    <nd ref="30288154"/>
    <nd ref="30288149"/>
    <nd ref="30288156"/>
    <nd ref="30288155"/>
    <nd ref="30288157"/>
    <nd ref="30288158"/>
    <nd ref="30288150"/>
    <tag k="highway" v="residential"/>
    <tag k="junction" v="roundabout"/>
    <tag k="name" v="Power Avenue"/>
    <tag k="osmarender:renderName" v="no"/>
  </way>
  <way id="4749427" version="6" timestamp="2010-07-09T03:21:28Z" uid="74617" user="JohnSmith" changeset="5170713">
    <nd ref="30288150"/>
    <nd ref="30288154"/>
    <nd ref="30288149"/>
    <nd ref="30288156"/>
    <nd ref="30288155"/>
    <nd ref="30288157"/>
    <nd ref="30288158"/>
    <nd ref="30288150"/>
    <tag k="highway" v="residential"/>
    <tag k="junction" v="roundabout"/>
    <tag k="maxspeed" v="50"/>
    <tag k="maxspeed:source" v="default residential speed limit in Australia"/>
    <tag k="name" v="Power Avenue"/>
  </way>
  <way id="4749428" version="5" timestamp="2009-08-13T01:04:26Z" uid="4467" user="Rosscoe" changeset="2125668">
    <nd ref="30288150"/>
    <nd ref="30288151"/>
    <nd ref="30288152"/>
    <tag k="highway" v="residential"/>
    <tag k="name" v="Batesford Road"/>
    <tag k="osmarender:renderName" v="no"/>
  </way>
  <way id="4749428" version="6" timestamp="2010-07-09T03:21:58Z" uid="74617" user="JohnSmith" changeset="5170713">
    <nd ref="30288150"/>
    <nd ref="30288151"/>
    <nd ref="30288152"/>
    <tag k="highway" v="residential"/>
    <tag k="maxspeed" v="50"/>
    <tag k="maxspeed:source" v="default residential speed limit in Australia"/>
    <tag k="name" v="Batesford Road"/>
  </way>
  <way id="4749429" version="4" timestamp="2010-07-09T03:23:50Z" uid="74617" user="JohnSmith" changeset="5170713">
    <nd ref="30288159"/>
    <nd ref="30288160"/>
    <nd ref="30288161"/>
    <tag k="highway" v="residential"/>
    <tag k="maxspeed" v="50"/>
    <tag k="maxspeed:source" v="default residential speed limit in Australia"/>
    <tag k="name" v="Myora Court"/>
  </way>
  <way id="4749430" version="4" timestamp="2010-07-09T03:18:25Z" uid="74617" user="JohnSmith" changeset="5170713">
    <nd ref="29897848"/>
    <nd ref="618431605"/>
    <nd ref="30288164"/>
    <tag k="highway" v="residential"/>
    <tag k="maxspeed" v="50"/>
    <tag k="maxspeed:source" v="default residential speed limit in Australia"/>
    <tag k="name" v="Evans Street"/>
  </way>
  <way id="4749431" version="6" timestamp="2010-07-09T03:20:09Z" uid="74617" user="JohnSmith" changeset="5170713">
    <nd ref="247717160"/>
    <nd ref="597547761"/>
    <nd ref="30288168"/>
    <nd ref="30288190"/>
    <nd ref="618431608"/>
    <nd ref="30288169"/>
    <tag k="highway" v="residential"/>
    <tag k="maxspeed" v="50"/>
    <tag k="maxspeed:source" v="default residential speed limit in Australia"/>
    <tag k="name" v="Westbrook Street"/>
  </way>
  <way id="4749433" version="4" timestamp="2010-04-18T00:05:44Z" uid="4467" user="Rosscoe" changeset="4453545">
    <nd ref="30288171"/>
    <nd ref="30288223"/>
    <nd ref="700451731"/>
    <tag k="highway" v="residential"/>
    <tag k="name" v="Collins Street"/>
  </way>
  <way id="4749433" version="5" timestamp="2010-07-09T03:19:13Z" uid="74617" user="JohnSmith" changeset="5170713">
    <nd ref="30288171"/>
    <nd ref="30288223"/>
    <nd ref="700451731"/>
    <tag k="highway" v="residential"/>
    <tag k="maxspeed" v="50"/>
    <tag k="maxspeed:source" v="default residential speed limit in Australia"/>
    <tag k="name" v="Collins Street"/>
  </way>
  <way id="4749434" version="5" timestamp="2010-07-09T03:22:16Z" uid="74617" user="JohnSmith" changeset="5170713">
    <nd ref="30288172"/>
    <nd ref="618431527"/>
    <nd ref="30288178"/>
    <nd ref="618431528"/>
    <nd ref="30288168"/>
    <nd ref="30288175"/>
    <nd ref="618431534"/>
    <nd ref="30288176"/>
    <tag k="highway" v="residential"/>
    <tag k="maxspeed" v="50"/>
    <tag k="maxspeed:source" v="default residential speed limit in Australia"/>
    <tag k="name" v="Drummond Street"/>
  </way>
  <way id="4749435" version="4" timestamp="2010-07-09T03:24:05Z" uid="74617" user="JohnSmith" changeset="5170713">
    <nd ref="30288166"/>
    <nd ref="247717152"/>
    <nd ref="30288178"/>
    <tag k="highway" v="residential"/>
    <tag k="maxspeed" v="50"/>
    <tag k="maxspeed:source" v="default residential speed limit in Australia"/>
    <tag k="name" v="Tuhan Street"/>
  </way>
  <way id="4749437" version="4" timestamp="2010-07-09T03:17:55Z" uid="74617" user="JohnSmith" changeset="5170713">
    <nd ref="29897850"/>
    <nd ref="618431557"/>
    <nd ref="30288193"/>
    <tag k="highway" v="residential"/>
    <tag k="maxspeed" v="50"/>
    <tag k="maxspeed:source" v="default residential speed limit in Australia"/>
    <tag k="name" v="Beckett Street"/>
  </way>
  <way id="4749439" version="2" timestamp="2010-07-09T05:29:05Z" uid="74617" user="JohnSmith" changeset="5170986">
    <nd ref="30287605"/>
    <nd ref="30287607"/>
    <nd ref="30288189"/>
    <nd ref="30287617"/>
    <nd ref="30288191"/>
    <nd ref="30288185"/>
    <nd ref="30288192"/>
    <nd ref="30288186"/>
    <nd ref="30288187"/>
    <nd ref="30288188"/>
    <nd ref="30287607"/>
    <tag k="highway" v="unclassified"/>
    <tag k="maxspeed" v="50"/>
    <tag k="maxspeed:source" v="default residential speed limit in Australia"/>
    <tag k="name" v="Harcon Court"/>
  </way>
  <way id="4749440" version="4" timestamp="2010-07-09T03:23:37Z" uid="74617" user="JohnSmith" changeset="5170713">
    <nd ref="30288194"/>
    <nd ref="618431409"/>
    <nd ref="30288193"/>
    <nd ref="618431411"/>
    <nd ref="30288164"/>
    <nd ref="618431414"/>
    <nd ref="30288196"/>
    <tag k="highway" v="residential"/>
    <tag k="maxspeed" v="50"/>
    <tag k="maxspeed:source" v="default residential speed limit in Australia"/>
    <tag k="name" v="Hiscock Street"/>
  </way>
  <way id="4749441" version="3" timestamp="2010-07-09T03:16:58Z" uid="74617" user="JohnSmith" changeset="5170713">
    <nd ref="30288184"/>
    <nd ref="30288190"/>
    <tag k="highway" v="residential"/>
    <tag k="maxspeed" v="50"/>
    <tag k="maxspeed:source" v="default residential speed limit in Australia"/>
    <tag k="name" v="Murphy Street"/>
  </way>
  <way id="4749443" version="4" timestamp="2010-07-09T03:49:52Z" uid="74617" user="JohnSmith" changeset="5170838">
    <nd ref="30288201"/>
    <nd ref="30288203"/>
    <tag k="highway" v="residential"/>
    <tag k="maxspeed" v="50"/>
    <tag k="maxspeed:source" v="default residential speed limit in Australia"/>
    <tag k="name" v="Savio Street"/>
  </way>
  <way id="4749446" version="5" timestamp="2010-07-09T03:18:41Z" uid="74617" user="JohnSmith" changeset="5170713">
    <nd ref="30288205"/>
    <nd ref="30288208"/>
    <tag k="highway" v="residential"/>
    <tag k="maxspeed" v="50"/>
    <tag k="maxspeed:source" v="default residential speed limit in Australia"/>
    <tag k="name" v="Ithaca Court"/>
  </way>
  <way id="4749447" version="3" timestamp="2010-07-09T03:20:26Z" uid="74617" user="JohnSmith" changeset="5170713">
    <nd ref="30288209"/>
    <nd ref="30288222"/>
    <nd ref="30288210"/>
    <nd ref="30288211"/>
    <tag k="highway" v="residential"/>
    <tag k="maxspeed" v="50"/>
    <tag k="maxspeed:source" v="default residential speed limit in Australia"/>
    <tag k="name" v="Thurloo Street"/>
  </way>
  <way id="4749448" version="4" timestamp="2010-07-09T03:17:42Z" uid="74617" user="JohnSmith" changeset="5170713">
    <nd ref="30288210"/>
    <nd ref="30288212"/>
    <nd ref="30288213"/>
    <nd ref="30288214"/>
    <tag k="highway" v="residential"/>
    <tag k="maxspeed" v="50"/>
    <tag k="maxspeed:source" v="default residential speed limit in Australia"/>
    <tag k="name" v="Bullarto Street"/>
  </way>
  <way id="4749449" version="5" timestamp="2010-07-09T03:19:27Z" uid="74617" user="JohnSmith" changeset="5170713">
    <nd ref="30288216"/>
    <nd ref="30288217"/>
    <tag k="highway" v="residential"/>
    <tag k="maxspeed" v="50"/>
    <tag k="maxspeed:source" v="default residential speed limit in Australia"/>
    <tag k="name" v="Ipydene Court"/>
  </way>
  <way id="4749450" version="4" timestamp="2010-07-09T03:22:37Z" uid="74617" user="JohnSmith" changeset="5170713">
    <nd ref="30288199"/>
    <nd ref="30288218"/>
    <tag k="highway" v="residential"/>
    <tag k="maxspeed" v="50"/>
    <tag k="maxspeed:source" v="default residential speed limit in Australia"/>
    <tag k="name" v="Bosco Street"/>
  </way>
  <way id="4749453" version="5" timestamp="2010-07-09T03:18:15Z" uid="74617" user="JohnSmith" changeset="5170713">
    <nd ref="444664434"/>
    <nd ref="30288145"/>
    <nd ref="30288225"/>
    <nd ref="30288235"/>
    <nd ref="30288226"/>
    <nd ref="30288227"/>
    <nd ref="30288228"/>
    <nd ref="30288211"/>
    <nd ref="30288234"/>
    <nd ref="30288233"/>
    <nd ref="251294960"/>
    <tag k="highway" v="residential"/>
    <tag k="maxspeed" v="50"/>
    <tag k="maxspeed:source" v="default residential speed limit in Australia"/>
    <tag k="name" v="Margot Street"/>
  </way>
  <way id="4749453" version="6" timestamp="2011-02-19T14:47:19Z" uid="4467" user="Rosscoe" changeset="7332595">
    <nd ref="444664434"/>
    <nd ref="1161459158"/>
    <tag k="highway" v="residential"/>
    <tag k="maxspeed" v="50"/>
    <tag k="maxspeed:source" v="default residential speed limit in Australia"/>
    <tag k="name" v="Margot Street"/>
  </way>
  <way id="4749454" version="4" timestamp="2010-07-09T03:21:13Z" uid="74617" user="JohnSmith" changeset="5170713">
    <nd ref="30288228"/>
    <nd ref="30288231"/>
    <tag k="highway" v="residential"/>
    <tag k="maxspeed" v="50"/>
    <tag k="maxspeed:source" v="default residential speed limit in Australia"/>
    <tag k="name" v="Crana Court"/>
  </way>
  <way id="4749458" version="5" timestamp="2010-07-09T03:23:17Z" uid="74617" user="JohnSmith" changeset="5170713">
    <nd ref="30288236"/>
    <nd ref="30288237"/>
    <nd ref="30288238"/>
    <nd ref="30288239"/>
    <tag k="highway" v="residential"/>
    <tag k="maxspeed" v="50"/>
    <tag k="maxspeed:source" v="default residential speed limit in Australia"/>
    <tag k="name" v="Aloomba Street"/>
  </way>
  <way id="4749460" version="3" timestamp="2010-07-09T03:17:12Z" uid="74617" user="JohnSmith" changeset="5170713">
    <nd ref="30288242"/>
    <nd ref="30288243"/>
    <nd ref="30288244"/>
    <nd ref="30288245"/>
    <nd ref="30288246"/>
    <tag k="highway" v="residential"/>
    <tag k="maxspeed" v="50"/>
    <tag k="maxspeed:source" v="default residential speed limit in Australia"/>
    <tag k="name" v="Vision Street"/>
  </way>
  <way id="4749461" version="3" timestamp="2010-07-09T03:18:53Z" uid="74617" user="JohnSmith" changeset="5170713">
    <nd ref="30288235"/>
    <nd ref="30288236"/>
    <nd ref="30288247"/>
    <tag k="highway" v="residential"/>
    <tag k="maxspeed" v="50"/>
    <tag k="maxspeed:source" v="default residential speed limit in Australia"/>
    <tag k="name" v="Nioka Street"/>
  </way>
  <way id="4749462" version="5" timestamp="2010-07-09T03:21:57Z" uid="74617" user="JohnSmith" changeset="5170713">
    <nd ref="30288234"/>
    <nd ref="30288238"/>
    <tag k="highway" v="residential"/>
    <tag k="maxspeed" v="50"/>
    <tag k="maxspeed:source" v="default residential speed limit in Australia"/>
    <tag k="name" v="Elaroo Street"/>
  </way>
  <way id="4749463" version="4" timestamp="2010-07-09T03:23:50Z" uid="74617" user="JohnSmith" changeset="5170713">
    <nd ref="30288233"/>
    <nd ref="30288249"/>
    <tag k="highway" v="residential"/>
    <tag k="maxspeed" v="50"/>
    <tag k="maxspeed:source" v="default residential speed limit in Australia"/>
    <tag k="name" v="Moona Court"/>
  </way>
  <way id="4749464" version="4" timestamp="2010-07-09T03:20:55Z" uid="74617" user="JohnSmith" changeset="5170713">
    <nd ref="30288223"/>
    <nd ref="30288242"/>
    <nd ref="444664434"/>
    <nd ref="30288251"/>
    <nd ref="30288252"/>
    <nd ref="30288147"/>
    <tag k="highway" v="residential"/>
    <tag k="maxspeed" v="50"/>
    <tag k="maxspeed:source" v="default residential speed limit in Australia"/>
    <tag k="name" v="Woonah Street"/>
  </way>
  <way id="4749465" version="3" timestamp="2010-07-09T03:22:48Z" uid="74617" user="JohnSmith" changeset="5170713">
    <nd ref="30288220"/>
    <nd ref="30288246"/>
    <nd ref="30288222"/>
    <tag k="highway" v="residential"/>
    <tag k="maxspeed" v="50"/>
    <tag k="maxspeed:source" v="default residential speed limit in Australia"/>
    <tag k="name" v="Terrigal Street"/>
  </way>
  <way id="4749466" version="4" timestamp="2009-02-19T11:30:30Z" uid="55964" user="Evan Sebire" changeset="562994">
    <nd ref="30288254"/>
    <nd ref="30288255"/>
    <nd ref="30288256"/>
    <nd ref="347507225"/>
    <nd ref="347507230"/>
    <nd ref="30288263"/>
    <nd ref="30288257"/>
    <nd ref="30288258"/>
    <nd ref="30292302"/>
    <nd ref="30288259"/>
    <nd ref="30292284"/>
    <nd ref="30292294"/>
    <nd ref="30288260"/>
    <nd ref="30288261"/>
    <tag k="created_by" v="Merkaartor 0.13"/>
    <tag k="highway" v="residential"/>
    <tag k="name" v="Power Avenue"/>
  </way>
  <way id="4749466" version="5" timestamp="2009-08-13T02:03:06Z" uid="4467" user="Rosscoe" changeset="2125960">
    <nd ref="30288254"/>
    <nd ref="30288255"/>
    <nd ref="30288256"/>
    <nd ref="347507225"/>
    <nd ref="347507230"/>
    <nd ref="30288263"/>
    <tag k="highway" v="residential"/>
    <tag k="name" v="Power Avenue"/>
    <tag k="oneway" v="yes"/>
  </way>
  <way id="4749466" version="6" timestamp="2010-07-09T03:17:29Z" uid="74617" user="JohnSmith" changeset="5170713">
    <nd ref="30288254"/>
    <nd ref="30288255"/>
    <nd ref="30288256"/>
    <nd ref="347507225"/>
    <nd ref="347507230"/>
    <nd ref="30288263"/>
    <tag k="highway" v="residential"/>
    <tag k="maxspeed" v="50"/>
    <tag k="maxspeed:source" v="default residential speed limit in Australia"/>
    <tag k="name" v="Power Avenue"/>
    <tag k="oneway" v="yes"/>
  </way>
  <way id="4749466" version="7" timestamp="2011-04-01T01:47:15Z" uid="4467" user="Rosscoe" changeset="7731444">
    <nd ref="30288254"/>
    <nd ref="30288255"/>
    <nd ref="30288256"/>
    <tag k="highway" v="trunk_link"/>
    <tag k="maxspeed" v="50"/>
    <tag k="maxspeed:source" v="default residential speed limit in Australia"/>
    <tag k="oneway" v="yes"/>
  </way>
  <way id="4749467" version="4" timestamp="2009-08-13T01:04:26Z" uid="4467" user="Rosscoe" changeset="2125668">
    <nd ref="30288262"/>
    <nd ref="30288260"/>
    <tag k="highway" v="residential"/>
    <tag k="name" v="Power Avenue"/>
    <tag k="osmarender:renderName" v="no"/>
  </way>
  <way id="4749467" version="5" timestamp="2010-07-09T03:19:12Z" uid="74617" user="JohnSmith" changeset="5170713">
    <nd ref="30288262"/>
    <nd ref="30288260"/>
    <tag k="highway" v="residential"/>
    <tag k="maxspeed" v="50"/>
    <tag k="maxspeed:source" v="default residential speed limit in Australia"/>
    <tag k="name" v="Power Avenue"/>
  </way>
  <way id="4749468" version="4" timestamp="2009-08-13T01:04:25Z" uid="4467" user="Rosscoe" changeset="2125668">
    <nd ref="30288263"/>
    <nd ref="30288264"/>
    <nd ref="271305563"/>
    <nd ref="30288265"/>
    <tag k="highway" v="residential"/>
    <tag k="name" v="Power Avenue"/>
    <tag k="osmarender:renderName" v="no"/>
  </way>
  <way id="4749468" version="5" timestamp="2009-08-13T02:03:06Z" uid="4467" user="Rosscoe" changeset="2125960">
    <nd ref="30288263"/>
    <nd ref="30288264"/>
    <nd ref="271305563"/>
    <nd ref="30288265"/>
    <tag k="highway" v="residential"/>
    <tag k="name" v="Power Avenue"/>
    <tag k="oneway" v="yes"/>
    <tag k="osmarender:renderName" v="no"/>
  </way>
  <way id="4749468" version="6" timestamp="2010-07-09T03:19:39Z" uid="74617" user="JohnSmith" changeset="5170713">
    <nd ref="30288263"/>
    <nd ref="30288264"/>
    <nd ref="271305563"/>
    <nd ref="30288265"/>
    <tag k="highway" v="residential"/>
    <tag k="maxspeed" v="50"/>
    <tag k="maxspeed:source" v="default residential speed limit in Australia"/>
    <tag k="name" v="Power Avenue"/>
    <tag k="oneway" v="yes"/>
  </way>
  <way id="4749468" version="7" timestamp="2011-04-01T01:47:14Z" uid="4467" user="Rosscoe" changeset="7731444">
    <nd ref="30288263"/>
    <nd ref="30288264"/>
    <nd ref="271305563"/>
    <nd ref="30288265"/>
    <nd ref="30288270"/>
    <tag k="highway" v="residential"/>
    <tag k="maxspeed" v="50"/>
    <tag k="maxspeed:source" v="default residential speed limit in Australia"/>
    <tag k="name" v="Power Avenue"/>
    <tag k="oneway" v="yes"/>
  </way>
  <way id="4749471" version="5" timestamp="2009-08-13T01:04:26Z" uid="4467" user="Rosscoe" changeset="2125668">
    <nd ref="30288268"/>
    <nd ref="30288267"/>
    <tag k="highway" v="trunk"/>
    <tag k="name" v="Warrigal Road"/>
    <tag k="osmarender:renderName" v="no"/>
  </way>
  <way id="4749471" version="6" timestamp="2011-04-01T01:47:15Z" uid="4467" user="Rosscoe" changeset="7731444"/>
  <way id="4749472" version="4" timestamp="2009-08-13T01:04:26Z" uid="4467" user="Rosscoe" changeset="2125668">
    <nd ref="30288265"/>
    <nd ref="30288270"/>
    <tag k="highway" v="trunk"/>
    <tag k="name" v="Warrigal Road"/>
    <tag k="osmarender:renderName" v="no"/>
  </way>
  <way id="4749472" version="5" timestamp="2011-04-01T01:47:15Z" uid="4467" user="Rosscoe" changeset="7731444"/>
  <way id="4749473" version="6" timestamp="2010-07-09T03:18:49Z" uid="74617" user="JohnSmith" changeset="5170713">
    <nd ref="30288271"/>
    <nd ref="30288272"/>
    <nd ref="30288273"/>
    <nd ref="30288274"/>
    <nd ref="30288275"/>
    <nd ref="248124642"/>
    <nd ref="30288276"/>
    <nd ref="30288277"/>
    <nd ref="30288335"/>
    <nd ref="30288336"/>
    <tag k="highway" v="residential"/>
    <tag k="maxspeed" v="50"/>
    <tag k="maxspeed:source" v="default residential speed limit in Australia"/>
    <tag k="name" v="Winbirra Parade"/>
  </way>
  <way id="4749474" version="3" timestamp="2009-08-13T01:04:26Z" uid="4467" user="Rosscoe" changeset="2125668">
    <nd ref="30288149"/>
    <nd ref="30288345"/>
    <tag k="highway" v="residential"/>
    <tag k="name" v="Power Avenue"/>
    <tag k="osmarender:renderName" v="no"/>
  </way>
  <way id="4749474" version="4" timestamp="2010-07-09T03:21:52Z" uid="74617" user="JohnSmith" changeset="5170713">
    <nd ref="30288149"/>
    <nd ref="30288345"/>
    <tag k="highway" v="residential"/>
    <tag k="maxspeed" v="50"/>
    <tag k="maxspeed:source" v="default residential speed limit in Australia"/>
    <tag k="name" v="Power Avenue"/>
  </way>
  <way id="4749475" version="4" timestamp="2009-08-13T02:26:25Z" uid="4467" user="Rosscoe" changeset="2126046">
    <nd ref="30288362"/>
    <nd ref="30288363"/>
    <nd ref="30288364"/>
    <tag k="highway" v="residential"/>
    <tag k="name" v="Tandara Court"/>
  </way>
  <way id="4749475" version="5" timestamp="2010-07-09T03:23:46Z" uid="74617" user="JohnSmith" changeset="5170713">
    <nd ref="30288362"/>
    <nd ref="30288363"/>
    <nd ref="30288364"/>
    <tag k="highway" v="residential"/>
    <tag k="maxspeed" v="50"/>
    <tag k="maxspeed:source" v="default residential speed limit in Australia"/>
    <tag k="name" v="Tandara Court"/>
  </way>
  <way id="4749477" version="5" timestamp="2010-07-09T03:17:33Z" uid="74617" user="JohnSmith" changeset="5170713">
    <nd ref="30288367"/>
    <nd ref="30288344"/>
    <tag k="highway" v="residential"/>
    <tag k="maxspeed" v="50"/>
    <tag k="maxspeed:source" v="default residential speed limit in Australia"/>
    <tag k="name" v="Paringa Court"/>
  </way>
  <way id="4749478" version="4" timestamp="2009-08-13T01:04:26Z" uid="4467" user="Rosscoe" changeset="2125668">
    <nd ref="30288267"/>
    <nd ref="271305564"/>
    <nd ref="30288256"/>
    <tag k="highway" v="residential"/>
    <tag k="name" v="Power Avenue"/>
    <tag k="osmarender:renderName" v="no"/>
  </way>
  <way id="4749478" version="5" timestamp="2009-08-13T02:03:07Z" uid="4467" user="Rosscoe" changeset="2125960">
    <nd ref="30288267"/>
    <nd ref="271305564"/>
    <nd ref="30288256"/>
    <tag k="highway" v="residential"/>
    <tag k="name" v="Power Avenue"/>
    <tag k="oneway" v="yes"/>
    <tag k="osmarender:renderName" v="no"/>
  </way>
  <way id="4749478" version="6" timestamp="2010-07-09T03:20:33Z" uid="74617" user="JohnSmith" changeset="5170713">
    <nd ref="30288267"/>
    <nd ref="271305564"/>
    <nd ref="30288256"/>
    <tag k="highway" v="residential"/>
    <tag k="maxspeed" v="50"/>
    <tag k="maxspeed:source" v="default residential speed limit in Australia"/>
    <tag k="name" v="Power Avenue"/>
    <tag k="oneway" v="yes"/>
  </way>
  <way id="4749478" version="7" timestamp="2011-04-01T01:47:15Z" uid="4467" user="Rosscoe" changeset="7731444"/>
  <way id="4749479" version="3" timestamp="2009-08-13T01:04:25Z" uid="4467" user="Rosscoe" changeset="2125668">
    <nd ref="30288264"/>
    <nd ref="30288368"/>
    <nd ref="27076283"/>
    <tag k="highway" v="residential"/>
    <tag k="name" v="Power Avenue"/>
    <tag k="osmarender:renderName" v="no"/>
  </way>
  <way id="4749479" version="4" timestamp="2009-08-13T02:03:06Z" uid="4467" user="Rosscoe" changeset="2125960">
    <nd ref="30288264"/>
    <nd ref="30288368"/>
    <nd ref="27076283"/>
    <tag k="highway" v="residential"/>
    <tag k="name" v="Power Avenue"/>
    <tag k="oneway" v="yes"/>
    <tag k="osmarender:renderName" v="no"/>
  </way>
  <way id="4749479" version="5" timestamp="2010-07-09T03:22:26Z" uid="74617" user="JohnSmith" changeset="5170713">
    <nd ref="30288264"/>
    <nd ref="30288368"/>
    <nd ref="27076283"/>
    <tag k="highway" v="residential"/>
    <tag k="maxspeed" v="50"/>
    <tag k="maxspeed:source" v="default residential speed limit in Australia"/>
    <tag k="name" v="Power Avenue"/>
    <tag k="oneway" v="yes"/>
  </way>
  <way id="4749479" version="6" timestamp="2011-04-01T01:47:15Z" uid="4467" user="Rosscoe" changeset="7731444">
    <nd ref="30288264"/>
    <nd ref="30288368"/>
    <nd ref="27076283"/>
    <tag k="highway" v="trunk_link"/>
    <tag k="maxspeed" v="50"/>
    <tag k="maxspeed:source" v="default residential speed limit in Australia"/>
    <tag k="oneway" v="yes"/>
  </way>
  <way id="4749480" version="5" timestamp="2010-07-09T03:19:35Z" uid="74617" user="JohnSmith" changeset="5170713">
    <nd ref="30288369"/>
    <nd ref="30288336"/>
    <tag k="highway" v="residential"/>
    <tag k="maxspeed" v="50"/>
    <tag k="maxspeed:source" v="default residential speed limit in Australia"/>
    <tag k="name" v="Yunki Court"/>
  </way>
  <way id="4749481" version="6" timestamp="2010-07-09T03:21:23Z" uid="74617" user="JohnSmith" changeset="5170713">
    <nd ref="30288335"/>
    <nd ref="30288370"/>
    <tag k="highway" v="residential"/>
    <tag k="maxspeed" v="50"/>
    <tag k="maxspeed:source" v="default residential speed limit in Australia"/>
    <tag k="name" v="Murra Court"/>
  </way>
  <way id="4749482" version="3" timestamp="2010-07-09T03:49:49Z" uid="74617" user="JohnSmith" changeset="5170838">
    <nd ref="30288371"/>
    <nd ref="30290434"/>
    <nd ref="30288372"/>
    <nd ref="30288373"/>
    <nd ref="30288374"/>
    <tag k="highway" v="residential"/>
    <tag k="maxspeed" v="50"/>
    <tag k="maxspeed:source" v="default residential speed limit in Australia"/>
    <tag k="name" v="Jordon Street"/>
  </way>
  <way id="4749483" version="3" timestamp="2010-07-09T03:17:51Z" uid="74617" user="JohnSmith" changeset="5170713">
    <nd ref="30288274"/>
    <nd ref="30288375"/>
    <nd ref="30288376"/>
    <nd ref="30288374"/>
    <nd ref="30288382"/>
    <nd ref="30288380"/>
    <nd ref="30288377"/>
    <tag k="highway" v="residential"/>
    <tag k="maxspeed" v="50"/>
    <tag k="maxspeed:source" v="default residential speed limit in Australia"/>
    <tag k="name" v="Mulgrave Street"/>
  </way>
  <way id="4749484" version="4" timestamp="2010-07-09T03:50:15Z" uid="74617" user="JohnSmith" changeset="5170838">
    <nd ref="762884540"/>
    <nd ref="36589068"/>
    <nd ref="30288380"/>
    <tag k="highway" v="residential"/>
    <tag k="maxspeed" v="50"/>
    <tag k="maxspeed:source" v="default residential speed limit in Australia"/>
    <tag k="name" v="Yooralla Street"/>
  </way>
  <way id="4749486" version="4" timestamp="2010-07-09T03:49:18Z" uid="74617" user="JohnSmith" changeset="5170838">
    <nd ref="30288382"/>
    <nd ref="30288389"/>
    <nd ref="30292283"/>
    <nd ref="30290887"/>
    <tag k="highway" v="residential"/>
    <tag k="maxspeed" v="50"/>
    <tag k="maxspeed:source" v="default residential speed limit in Australia"/>
    <tag k="name" v="Jordon Street"/>
  </way>
  <way id="4749487" version="3" timestamp="2010-07-09T03:16:36Z" uid="74617" user="JohnSmith" changeset="5170713">
    <nd ref="30288276"/>
    <nd ref="30288389"/>
    <tag k="highway" v="residential"/>
    <tag k="maxspeed" v="50"/>
    <tag k="maxspeed:source" v="default residential speed limit in Australia"/>
    <tag k="name" v="Woolert Street"/>
  </way>
  <way id="4749498" version="1" timestamp="2007-06-18T21:17:25Z" uid="6975" user="ulfl" changeset="102104">
    <nd ref="30288628"/>
    <nd ref="30288630"/>
    <nd ref="30288629"/>
    <nd ref="30288626"/>
    <nd ref="30288627"/>
    <nd ref="30288624"/>
    <nd ref="30585329"/>
    <nd ref="30586043"/>
    <nd ref="30288625"/>
    <nd ref="30288622"/>
    <nd ref="30288623"/>
    <nd ref="30288620"/>
    <nd ref="30288621"/>
    <nd ref="30288618"/>
    <nd ref="30288619"/>
    <nd ref="30288616"/>
    <nd ref="30288617"/>
    <nd ref="30288614"/>
    <nd ref="30288615"/>
    <nd ref="30288612"/>
    <nd ref="30288613"/>
    <nd ref="30288611"/>
    <nd ref="30288610"/>
    <nd ref="30288609"/>
    <nd ref="30288608"/>
    <nd ref="30288607"/>
    <nd ref="30288606"/>
    <nd ref="30288605"/>
    <nd ref="30288604"/>
    <nd ref="30288603"/>
    <nd ref="30288602"/>
    <nd ref="30288601"/>
    <nd ref="30288600"/>
    <nd ref="30288599"/>
    <nd ref="30288598"/>
    <nd ref="30288631"/>
    <nd ref="30288632"/>
    <nd ref="26616300"/>
    <tag k="created_by" v="Tways 0.2"/>
    <tag k="highway" v="unclassified"/>
  </way>
  <way id="4749514" version="1" timestamp="2007-06-13T07:25:27Z" uid="6975" user="ulfl" changeset="94495">
    <nd ref="28852412"/>
    <nd ref="28852411"/>
    <nd ref="28852413"/>
    <tag k="created_by" v="JOSM"/>
    <tag k="highway" v="residential"/>
    <tag k="name" v="Montessoristrae"/>
  </way>
  <way id="4749524" version="5" timestamp="2009-03-25T23:10:34Z" uid="49111" user="Markus B" changeset="861683">
    <nd ref="30289643"/>
    <nd ref="30289644"/>
    <nd ref="30289645"/>
    <nd ref="30289646"/>
    <nd ref="30289647"/>
    <nd ref="30289648"/>
    <nd ref="30289649"/>
    <nd ref="30289650"/>
    <nd ref="30289651"/>
    <nd ref="30289652"/>
    <nd ref="30289653"/>
    <nd ref="30289654"/>
    <nd ref="30289655"/>
    <nd ref="30289656"/>
    <nd ref="30289657"/>
    <nd ref="30289658"/>
    <nd ref="30289659"/>
    <nd ref="30289660"/>
    <nd ref="30289661"/>
    <nd ref="30289663"/>
    <nd ref="30289694"/>
    <nd ref="30289700"/>
    <nd ref="30289702"/>
    <nd ref="30289704"/>
    <nd ref="30289706"/>
    <nd ref="30289707"/>
    <nd ref="30289709"/>
    <nd ref="30289711"/>
    <nd ref="30289713"/>
    <nd ref="30289714"/>
    <nd ref="30289716"/>
    <nd ref="30289718"/>
    <nd ref="30289720"/>
    <nd ref="30289746"/>
    <nd ref="30289749"/>
    <nd ref="30289752"/>
    <nd ref="30289781"/>
    <nd ref="30289783"/>
    <nd ref="30289786"/>
    <nd ref="30289789"/>
    <nd ref="30289791"/>
    <nd ref="30289794"/>
    <nd ref="30289796"/>
    <nd ref="30289800"/>
    <nd ref="30289808"/>
    <nd ref="30289810"/>
    <nd ref="30289813"/>
    <nd ref="30289816"/>
    <nd ref="30289819"/>
    <nd ref="30289821"/>
    <nd ref="30289825"/>
    <nd ref="30289828"/>
    <nd ref="30289830"/>
    <nd ref="30289833"/>
    <nd ref="30289836"/>
    <nd ref="30289839"/>
    <nd ref="30289841"/>
    <nd ref="30289843"/>
    <nd ref="30289845"/>
    <nd ref="30289846"/>
    <nd ref="30289849"/>
    <nd ref="30289852"/>
    <nd ref="30289854"/>
    <nd ref="30289858"/>
    <nd ref="30289860"/>
    <nd ref="30289862"/>
    <nd ref="30289864"/>
    <nd ref="30289866"/>
    <nd ref="30289868"/>
    <nd ref="30289870"/>
    <nd ref="30289872"/>
    <nd ref="30289873"/>
    <nd ref="30289875"/>
    <nd ref="30289877"/>
    <nd ref="30289878"/>
    <nd ref="30289880"/>
    <nd ref="30289882"/>
    <nd ref="30289884"/>
    <nd ref="30289886"/>
    <nd ref="30289888"/>
    <nd ref="30289889"/>
    <nd ref="30289891"/>
    <nd ref="30289894"/>
    <nd ref="30289895"/>
    <nd ref="30289896"/>
    <nd ref="30289897"/>
    <nd ref="30289898"/>
    <nd ref="30289899"/>
    <nd ref="30289904"/>
    <nd ref="30289905"/>
    <nd ref="30289907"/>
    <nd ref="30289908"/>
    <nd ref="30289909"/>
    <nd ref="30289910"/>
    <nd ref="30289911"/>
    <nd ref="30289912"/>
    <nd ref="30289913"/>
    <nd ref="30289914"/>
    <nd ref="30289915"/>
    <nd ref="30289916"/>
    <nd ref="30289918"/>
    <nd ref="30289630"/>
    <nd ref="30289631"/>
    <nd ref="30289632"/>
    <nd ref="30289633"/>
    <nd ref="30289634"/>
    <nd ref="30289635"/>
    <nd ref="30289636"/>
    <nd ref="30289637"/>
    <nd ref="30289638"/>
    <nd ref="30289639"/>
    <nd ref="30289640"/>
    <nd ref="30289641"/>
    <nd ref="30289642"/>
    <nd ref="30289643"/>
    <tag k="created_by" v="Potlatch 0.10f"/>
    <tag k="landuse" v="forest"/>
    <tag k="source" v="landsat"/>
  </way>
  <way id="4749526" version="4" timestamp="2009-03-25T23:13:09Z" uid="49111" user="Markus B" changeset="861683">
    <nd ref="30289951"/>
    <nd ref="30289953"/>
    <nd ref="30289941"/>
    <nd ref="30289943"/>
    <nd ref="30289945"/>
    <nd ref="30289947"/>
    <nd ref="30289949"/>
    <nd ref="30289951"/>
    <tag k="created_by" v="Potlatch 0.10f"/>
    <tag k="landuse" v="forest"/>
    <tag k="source" v="landsat"/>
  </way>
  <way id="4749527" version="5" timestamp="2009-03-25T23:11:18Z" uid="49111" user="Markus B" changeset="861683">
    <nd ref="30290004"/>
    <nd ref="30290005"/>
    <nd ref="30290007"/>
    <nd ref="30290009"/>
    <nd ref="30290011"/>
    <nd ref="30290013"/>
    <nd ref="30290015"/>
    <nd ref="30290017"/>
    <nd ref="30290019"/>
    <nd ref="30290021"/>
    <nd ref="30290023"/>
    <nd ref="30290025"/>
    <nd ref="30289955"/>
    <nd ref="30289957"/>
    <nd ref="30289960"/>
    <nd ref="30289962"/>
    <nd ref="30289964"/>
    <nd ref="30289965"/>
    <nd ref="30289967"/>
    <nd ref="30289969"/>
    <nd ref="30289971"/>
    <nd ref="30289973"/>
    <nd ref="30289975"/>
    <nd ref="30289978"/>
    <nd ref="30289980"/>
    <nd ref="30289981"/>
    <nd ref="30289983"/>
    <nd ref="30289985"/>
    <nd ref="30289987"/>
    <nd ref="30289989"/>
    <nd ref="30289991"/>
    <nd ref="30289993"/>
    <nd ref="30289995"/>
    <nd ref="30289997"/>
    <nd ref="30289999"/>
    <nd ref="30290002"/>
    <nd ref="30290004"/>
    <tag k="created_by" v="Potlatch 0.10f"/>
    <tag k="landuse" v="forest"/>
    <tag k="source" v="landsat"/>
  </way>
  <way id="4749528" version="4" timestamp="2009-03-25T23:13:14Z" uid="49111" user="Markus B" changeset="861683">
    <nd ref="30290028"/>
    <nd ref="30290030"/>
    <nd ref="30290031"/>
    <nd ref="30290032"/>
    <nd ref="30290026"/>
    <nd ref="30290028"/>
    <tag k="created_by" v="Potlatch 0.10f"/>
    <tag k="landuse" v="forest"/>
    <tag k="source" v="landsat"/>
  </way>
  <way id="4749529" version="4" timestamp="2009-03-25T23:13:18Z" uid="49111" user="Markus B" changeset="861683">
    <nd ref="30290035"/>
    <nd ref="30290036"/>
    <nd ref="30290037"/>
    <nd ref="30290038"/>
    <nd ref="30290039"/>
    <nd ref="30290040"/>
    <nd ref="30290033"/>
    <nd ref="30290034"/>
    <nd ref="30290035"/>
    <tag k="created_by" v="Potlatch 0.10f"/>
    <tag k="landuse" v="forest"/>
    <tag k="source" v="landsat"/>
  </way>
  <way id="4749530" version="4" timestamp="2009-03-25T23:13:00Z" uid="49111" user="Markus B" changeset="861683">
    <nd ref="30290047"/>
    <nd ref="30290048"/>
    <nd ref="30290049"/>
    <nd ref="30290050"/>
    <nd ref="30290051"/>
    <nd ref="30290052"/>
    <nd ref="30290053"/>
    <nd ref="30290054"/>
    <nd ref="30290055"/>
    <nd ref="30290056"/>
    <nd ref="30290057"/>
    <nd ref="30290058"/>
    <nd ref="30290059"/>
    <nd ref="30290060"/>
    <nd ref="30290061"/>
    <nd ref="30290062"/>
    <nd ref="30290063"/>
    <nd ref="30290064"/>
    <nd ref="30290041"/>
    <nd ref="30290042"/>
    <nd ref="30290043"/>
    <nd ref="30290044"/>
    <nd ref="30290045"/>
    <nd ref="30290046"/>
    <nd ref="30290047"/>
    <tag k="created_by" v="Potlatch 0.10f"/>
    <tag k="landuse" v="forest"/>
    <tag k="source" v="landsat"/>
  </way>
  <way id="4749535" version="4" timestamp="2010-07-09T03:49:09Z" uid="74617" user="JohnSmith" changeset="5170838">
    <nd ref="30290434"/>
    <nd ref="30290435"/>
    <tag k="highway" v="residential"/>
    <tag k="maxspeed" v="50"/>
    <tag k="maxspeed:source" v="default residential speed limit in Australia"/>
    <tag k="name" v="Yilleen Court"/>
  </way>
  <way id="4749550" version="2" timestamp="2009-05-09T00:25:52Z" uid="6269" user="Mueck" changeset="1122985">
    <nd ref="29767522"/>
    <nd ref="29767527"/>
    <nd ref="29767528"/>
    <nd ref="29767529"/>
    <nd ref="29767510"/>
    <tag k="created_by" v="JOSM"/>
    <tag k="highway" v="secondary"/>
    <tag k="name" v="Berliner Ring"/>
  </way>
  <way id="4749556" version="4" timestamp="2010-12-03T11:33:23Z" uid="6269" user="Mueck" changeset="6525102">
    <nd ref="973833059"/>
    <nd ref="950983618"/>
    <nd ref="950983613"/>
    <nd ref="950983577"/>
    <nd ref="983906629"/>
    <nd ref="19088951"/>
    <nd ref="29767515"/>
    <nd ref="30290489"/>
    <tag k="railway" v="rail"/>
  </way>
  <way id="4749556" version="6" timestamp="2011-03-18T21:28:08Z" uid="6269" user="Mueck" changeset="7599537">
    <nd ref="973833059"/>
    <nd ref="950983618"/>
    <nd ref="950983613"/>
    <nd ref="950983577"/>
    <nd ref="983906629"/>
    <nd ref="19088951"/>
    <nd ref="29767515"/>
    <nd ref="30290489"/>
    <tag k="electrified" v="contact_line"/>
    <tag k="frequency" v="16.7"/>
    <tag k="gauge" v="1435"/>
    <tag k="operator" v="DB Netz"/>
    <tag k="railway" v="rail"/>
    <tag k="tracks" v="1"/>
    <tag k="usage" v="main"/>
    <tag k="voltage" v="15000"/>
    <tag k="workrules" v="EBO"/>
  </way>
  <way id="4749560" version="5" timestamp="2011-03-18T21:26:59Z" uid="6269" user="Mueck" changeset="7599537">
    <nd ref="19088946"/>
    <nd ref="30290490"/>
    <tag k="bridge" v="yes"/>
    <tag k="electrified" v="contact_line"/>
    <tag k="frequency" v="16.7"/>
    <tag k="gauge" v="1435"/>
    <tag k="layer" v="1"/>
    <tag k="operator" v="DB Netz"/>
    <tag k="railway" v="rail"/>
    <tag k="tracks" v="1"/>
    <tag k="usage" v="main"/>
    <tag k="voltage" v="15000"/>
    <tag k="workrules" v="EBO"/>
  </way>
  <way id="4749595" version="5" timestamp="2010-07-09T03:50:15Z" uid="74617" user="JohnSmith" changeset="5170838">
    <nd ref="30290697"/>
    <nd ref="30290903"/>
    <nd ref="30290904"/>
    <nd ref="30290885"/>
    <nd ref="248124266"/>
    <nd ref="30290698"/>
    <nd ref="30290699"/>
    <tag k="highway" v="residential"/>
    <tag k="maxspeed" v="50"/>
    <tag k="maxspeed:source" v="default residential speed limit in Australia"/>
    <tag k="name" v="Electra Avenue"/>
  </way>
  <way id="4749599" version="1" timestamp="2007-09-10T01:50:59Z" uid="6454" user="B10xxx" changeset="406059">
    <nd ref="29282217"/>
    <nd ref="30290706"/>
    <nd ref="30290707"/>
    <nd ref="30290708"/>
    <nd ref="30290709"/>
    <tag k="created_by" v="Potlatch alpha"/>
    <tag k="waterway" v="canal"/>
  </way>
  <way id="4749600" version="1" timestamp="2007-06-13T08:26:50Z" uid="6454" user="B10xxx" changeset="94032">
    <nd ref="30290696"/>
    <nd ref="30290710"/>
    <nd ref="30290711"/>
    <nd ref="30290712"/>
    <tag k="created_by" v="Potlatch alpha"/>
    <tag k="waterway" v="canal"/>
  </way>
  <way id="4749624" version="6" timestamp="2010-07-09T03:20:21Z" uid="74617" user="JohnSmith" changeset="5170713">
    <nd ref="30290886"/>
    <nd ref="458668828"/>
    <nd ref="30290888"/>
    <tag k="highway" v="residential"/>
    <tag k="maxspeed" v="50"/>
    <tag k="maxspeed:source" v="default residential speed limit in Australia"/>
    <tag k="name" v="Salisbury Road"/>
    <tag k="oneway" v="yes"/>
  </way>
  <way id="4749625" version="3" timestamp="2010-07-09T03:49:42Z" uid="74617" user="JohnSmith" changeset="5170838">
    <nd ref="30290885"/>
    <nd ref="30290896"/>
    <nd ref="30290892"/>
    <tag k="highway" v="residential"/>
    <tag k="maxspeed" v="50"/>
    <tag k="maxspeed:source" v="default residential speed limit in Australia"/>
    <tag k="name" v="Heather Avenue"/>
  </way>
  <way id="4749626" version="4" timestamp="2010-07-09T03:49:55Z" uid="74617" user="JohnSmith" changeset="5170838">
    <nd ref="30290898"/>
    <nd ref="27347655"/>
    <tag k="highway" v="residential"/>
    <tag k="maxspeed" v="50"/>
    <tag k="maxspeed:source" v="default residential speed limit in Australia"/>
    <tag k="name" v="Tooronga Court"/>
  </way>
  <way id="4749627" version="4" timestamp="2010-07-09T03:50:07Z" uid="74617" user="JohnSmith" changeset="5170838">
    <nd ref="30290436"/>
    <nd ref="36589140"/>
    <nd ref="30290925"/>
    <nd ref="30290905"/>
    <nd ref="30288377"/>
    <nd ref="30290697"/>
    <nd ref="30290919"/>
    <nd ref="30290889"/>
    <tag k="highway" v="residential"/>
    <tag k="maxspeed" v="50"/>
    <tag k="maxspeed:source" v="default residential speed limit in Australia"/>
    <tag k="name" v="Cleveland Road"/>
  </way>
  <way id="4749630" version="3" timestamp="2010-07-09T03:49:23Z" uid="74617" user="JohnSmith" changeset="5170838">
    <nd ref="30290905"/>
    <nd ref="30290906"/>
    <tag k="highway" v="residential"/>
    <tag k="maxspeed" v="50"/>
    <tag k="maxspeed:source" v="default residential speed limit in Australia"/>
    <tag k="name" v="Railway Avenue"/>
  </way>
  <way id="4749632" version="3" timestamp="2010-07-09T03:50:20Z" uid="74617" user="JohnSmith" changeset="5170838">
    <nd ref="30290908"/>
    <nd ref="30290909"/>
    <tag k="highway" v="residential"/>
    <tag k="maxspeed" v="50"/>
    <tag k="maxspeed:source" v="default residential speed limit in Australia"/>
    <tag k="name" v="Aweta Street"/>
  </way>
  <way id="4749633" version="3" timestamp="2010-07-09T03:49:10Z" uid="74617" user="JohnSmith" changeset="5170838">
    <nd ref="30290911"/>
    <nd ref="30290912"/>
    <tag k="highway" v="residential"/>
    <tag k="maxspeed" v="50"/>
    <tag k="maxspeed:source" v="default residential speed limit in Australia"/>
    <tag k="name" v="Mitchell Avenue"/>
  </way>
  <way id="4749634" version="4" timestamp="2010-07-09T03:49:24Z" uid="74617" user="JohnSmith" changeset="5170838">
    <nd ref="30290914"/>
    <nd ref="30290915"/>
    <tag k="highway" v="residential"/>
    <tag k="maxspeed" v="50"/>
    <tag k="maxspeed:source" v="default residential speed limit in Australia"/>
    <tag k="name" v="Condah Court"/>
  </way>
  <way id="4749636" version="3" timestamp="2010-07-09T03:49:48Z" uid="74617" user="JohnSmith" changeset="5170838">
    <nd ref="30290917"/>
    <nd ref="30290927"/>
    <tag k="highway" v="residential"/>
    <tag k="maxspeed" v="50"/>
    <tag k="maxspeed:source" v="default residential speed limit in Australia"/>
    <tag k="name" v="Cudgee Court"/>
  </way>
  <way id="4749637" version="3" timestamp="2010-07-09T03:50:01Z" uid="74617" user="JohnSmith" changeset="5170838">
    <nd ref="30290919"/>
    <nd ref="30290908"/>
    <nd ref="30290911"/>
    <nd ref="30290920"/>
    <tag k="highway" v="residential"/>
    <tag k="maxspeed" v="50"/>
    <tag k="maxspeed:source" v="default residential speed limit in Australia"/>
    <tag k="name" v="Station Avenue"/>
  </way>
  <way id="4749638" version="3" timestamp="2010-07-09T03:50:14Z" uid="74617" user="JohnSmith" changeset="5170838">
    <nd ref="30290904"/>
    <nd ref="30290921"/>
    <nd ref="30290920"/>
    <nd ref="30290891"/>
    <tag k="highway" v="residential"/>
    <tag k="maxspeed" v="50"/>
    <tag k="maxspeed:source" v="default residential speed limit in Australia"/>
    <tag k="name" v="Teck Street"/>
  </way>
  <way id="4749639" version="4" timestamp="2010-07-09T03:49:03Z" uid="74617" user="JohnSmith" changeset="5170838">
    <nd ref="30290901"/>
    <nd ref="662839353"/>
    <nd ref="30290923"/>
    <nd ref="30290924"/>
    <nd ref="30290906"/>
    <nd ref="30290903"/>
    <tag k="highway" v="residential"/>
    <tag k="maxspeed" v="50"/>
    <tag k="maxspeed:source" v="default residential speed limit in Australia"/>
    <tag k="name" v="Teck Street"/>
  </way>
  <way id="4749640" version="3" timestamp="2010-07-09T03:49:16Z" uid="74617" user="JohnSmith" changeset="5170838">
    <nd ref="30290925"/>
    <nd ref="30290924"/>
    <tag k="highway" v="residential"/>
    <tag k="maxspeed" v="50"/>
    <tag k="maxspeed:source" v="default residential speed limit in Australia"/>
    <tag k="name" v="Harcourt Street"/>
  </way>
  <way id="4749641" version="4" timestamp="2010-07-09T03:20:45Z" uid="74617" user="JohnSmith" changeset="5170713">
    <nd ref="30290930"/>
    <nd ref="30291119"/>
    <nd ref="30290931"/>
    <nd ref="30290942"/>
    <nd ref="30291105"/>
    <nd ref="30291108"/>
    <nd ref="30290932"/>
    <nd ref="30291111"/>
    <nd ref="30290933"/>
    <nd ref="30290935"/>
    <tag k="highway" v="residential"/>
    <tag k="maxspeed" v="50"/>
    <tag k="maxspeed:source" v="default residential speed limit in Australia"/>
    <tag k="name" v="Railway Parade South"/>
  </way>
  <way id="4749642" version="5" timestamp="2010-07-09T03:49:41Z" uid="74617" user="JohnSmith" changeset="5170838">
    <nd ref="30290931"/>
    <nd ref="30290936"/>
    <nd ref="30290937"/>
    <nd ref="30290938"/>
    <nd ref="30290944"/>
    <tag k="highway" v="residential"/>
    <tag k="maxspeed" v="50"/>
    <tag k="maxspeed:source" v="default residential speed limit in Australia"/>
    <tag k="name" v="Binalong Avenue"/>
  </way>
  <way id="4749643" version="3" timestamp="2010-07-09T03:49:55Z" uid="74617" user="JohnSmith" changeset="5170838">
    <nd ref="30290937"/>
    <nd ref="30290939"/>
    <nd ref="30290940"/>
    <nd ref="30290941"/>
    <tag k="highway" v="residential"/>
    <tag k="maxspeed" v="50"/>
    <tag k="maxspeed:source" v="default residential speed limit in Australia"/>
    <tag k="name" v="Warrina Street"/>
  </way>
  <way id="4749652" version="4" timestamp="2010-07-09T03:49:03Z" uid="74617" user="JohnSmith" changeset="5170838">
    <nd ref="30290942"/>
    <nd ref="30291099"/>
    <nd ref="30290941"/>
    <nd ref="30291100"/>
    <nd ref="30290944"/>
    <nd ref="30290943"/>
    <nd ref="30290950"/>
    <nd ref="30291172"/>
    <nd ref="30291101"/>
    <nd ref="30291102"/>
    <nd ref="30291103"/>
    <tag k="highway" v="residential"/>
    <tag k="maxspeed" v="50"/>
    <tag k="maxspeed:source" v="default residential speed limit in Australia"/>
    <tag k="name" v="Yarrrinup Avenue"/>
  </way>
  <way id="4749664" version="3" timestamp="2010-02-04T07:20:33Z" uid="9719" user="dvaey" changeset="3788353">
    <nd ref="26624403"/>
    <nd ref="26624404"/>
    <nd ref="26624405"/>
    <nd ref="26624406"/>
    <nd ref="26624407"/>
    <nd ref="26624408"/>
    <nd ref="26624409"/>
    <nd ref="26624410"/>
    <nd ref="26624411"/>
    <nd ref="26624412"/>
    <nd ref="26624413"/>
    <tag k="highway" v="motorway_link"/>
  </way>
  <way id="4749668" version="4" timestamp="2010-07-09T03:49:40Z" uid="74617" user="JohnSmith" changeset="5170838">
    <nd ref="30291100"/>
    <nd ref="30291113"/>
    <nd ref="30291107"/>
    <nd ref="30291110"/>
    <nd ref="30291112"/>
    <nd ref="27289603"/>
    <tag k="highway" v="residential"/>
    <tag k="maxspeed" v="50"/>
    <tag k="maxspeed:source" v="default residential speed limit in Australia"/>
    <tag k="name" v="Grandview Road"/>
  </way>
  <way id="4749670" version="11" timestamp="2010-02-04T07:21:39Z" uid="9719" user="dvaey" changeset="3788353"/>
  <way id="4749671" version="5" timestamp="2010-07-07T09:01:26Z" uid="74617" user="JohnSmith" changeset="5156250">
    <nd ref="30290980"/>
    <nd ref="30290982"/>
    <nd ref="293377344"/>
    <nd ref="30290981"/>
    <nd ref="62049791"/>
    <nd ref="62049792"/>
    <nd ref="62049793"/>
    <nd ref="293377240"/>
    <nd ref="62049794"/>
    <tag k="highway" v="residential"/>
    <tag k="maxspeed" v="50"/>
    <tag k="maxspeed:source" v="default residential speed limit in Australia"/>
    <tag k="name" v="Irving Street"/>
  </way>
  <way id="4749671" version="6" timestamp="2011-05-02T04:28:17Z" uid="4467" user="Rosscoe" changeset="8027637">
    <nd ref="30290980"/>
    <nd ref="30290982"/>
    <nd ref="293377344"/>
    <nd ref="30290981"/>
    <nd ref="62049791"/>
    <nd ref="62049792"/>
    <nd ref="62049793"/>
    <nd ref="293377240"/>
    <nd ref="1269990941"/>
    <nd ref="62049794"/>
    <tag k="highway" v="residential"/>
    <tag k="maxspeed" v="50"/>
    <tag k="maxspeed:source" v="default residential speed limit in Australia"/>
    <tag k="name" v="Irving Street"/>
  </way>
  <way id="4749674" version="3" timestamp="2009-08-03T13:57:57Z" uid="4467" user="Rosscoe" changeset="2025772">
    <nd ref="30290988"/>
    <nd ref="30290987"/>
    <tag k="bridge" v="yes"/>
    <tag k="highway" v="secondary"/>
    <tag k="layer" v="1"/>
    <tag k="name" v="Edinburgh Avenue"/>
  </way>
  <way id="4749676" version="3" timestamp="2009-07-26T05:35:59Z" uid="74617" user="JohnSmith" changeset="1940695">
    <nd ref="24961092"/>
    <nd ref="24961082"/>
    <nd ref="24961077"/>
    <nd ref="24961072"/>
    <nd ref="24961061"/>
    <tag k="highway" v="motorway"/>
    <tag k="lanes" v="2"/>
    <tag k="layer" v="-1"/>
    <tag k="name" v="Parkes Way"/>
    <tag k="oneway" v="yes"/>
    <tag k="tunnel" v="yes"/>
  </way>
  <way id="4749677" version="3" timestamp="2009-07-26T05:35:59Z" uid="74617" user="JohnSmith" changeset="1940695">
    <nd ref="21294170"/>
    <nd ref="21294209"/>
    <nd ref="21294096"/>
    <nd ref="32929024"/>
    <nd ref="21294167"/>
    <tag k="highway" v="motorway"/>
    <tag k="lanes" v="2"/>
    <tag k="layer" v="-1"/>
    <tag k="name" v="Parkes Way"/>
    <tag k="oneway" v="yes"/>
    <tag k="tunnel" v="yes"/>
  </way>
  <way id="4749691" version="3" timestamp="2010-07-09T03:49:00Z" uid="74617" user="JohnSmith" changeset="5170838">
    <nd ref="27289541"/>
    <nd ref="30291114"/>
    <nd ref="30291246"/>
    <nd ref="30291247"/>
    <nd ref="30291164"/>
    <nd ref="30290943"/>
    <tag k="highway" v="residential"/>
    <tag k="maxspeed" v="50"/>
    <tag k="maxspeed:source" v="default residential speed limit in Australia"/>
    <tag k="name" v="Burton Street"/>
  </way>
  <way id="4749693" version="3" timestamp="2010-07-09T03:49:27Z" uid="74617" user="JohnSmith" changeset="5170838">
    <nd ref="30290938"/>
    <nd ref="30291115"/>
    <nd ref="30291120"/>
    <nd ref="30291116"/>
    <nd ref="30291118"/>
    <nd ref="30291117"/>
    <tag k="highway" v="residential"/>
    <tag k="maxspeed" v="50"/>
    <tag k="maxspeed:source" v="default residential speed limit in Australia"/>
    <tag k="name" v="Gooyong Avenue"/>
  </way>
  <way id="4749695" version="7" timestamp="2010-07-09T03:21:05Z" uid="74617" user="JohnSmith" changeset="5170713">
    <nd ref="30288157"/>
    <nd ref="30291121"/>
    <nd ref="30291248"/>
    <nd ref="30291117"/>
    <nd ref="30291103"/>
    <nd ref="30291913"/>
    <nd ref="30291979"/>
    <nd ref="30291171"/>
    <nd ref="30291155"/>
    <nd ref="30291156"/>
    <nd ref="30291157"/>
    <nd ref="30291988"/>
    <nd ref="30291158"/>
    <nd ref="30291159"/>
    <nd ref="30291160"/>
    <nd ref="30291161"/>
    <tag k="highway" v="residential"/>
    <tag k="maxspeed" v="50"/>
    <tag k="maxspeed:source" v="default residential speed limit in Australia"/>
    <tag k="name" v="Power Avenue"/>
  </way>
  <way id="4749698" version="4" timestamp="2009-08-13T01:04:19Z" uid="4467" user="Rosscoe" changeset="2125668">
    <nd ref="30291158"/>
    <nd ref="30291163"/>
    <tag k="highway" v="residential"/>
    <tag k="name" v="Power Avenue"/>
    <tag k="osmarender:renderName" v="no"/>
  </way>
  <way id="4749698" version="5" timestamp="2010-07-09T03:49:57Z" uid="74617" user="JohnSmith" changeset="5170838">
    <nd ref="30291158"/>
    <nd ref="30291163"/>
    <tag k="highway" v="residential"/>
    <tag k="maxspeed" v="50"/>
    <tag k="maxspeed:source" v="default residential speed limit in Australia"/>
    <tag k="name" v="Power Avenue"/>
  </way>
  <way id="4749699" version="3" timestamp="2010-07-09T03:50:10Z" uid="74617" user="JohnSmith" changeset="5170838">
    <nd ref="30291164"/>
    <nd ref="30291165"/>
    <nd ref="30291166"/>
    <nd ref="30291167"/>
    <nd ref="30291168"/>
    <nd ref="30291170"/>
    <nd ref="30291169"/>
    <nd ref="27289638"/>
    <tag k="highway" v="residential"/>
    <tag k="maxspeed" v="50"/>
    <tag k="maxspeed:source" v="default residential speed limit in Australia"/>
    <tag k="name" v="Melinga Crescent"/>
  </way>
  <way id="4749701" version="4" timestamp="2010-07-09T03:49:12Z" uid="74617" user="JohnSmith" changeset="5170838">
    <nd ref="30291172"/>
    <nd ref="30291176"/>
    <nd ref="30291189"/>
    <nd ref="30291203"/>
    <nd ref="27289646"/>
    <tag k="highway" v="residential"/>
    <tag k="maxspeed" v="50"/>
    <tag k="maxspeed:source" v="default residential speed limit in Australia"/>
    <tag k="name" v="Mawarra Crescent"/>
  </way>
  <way id="4749703" version="3" timestamp="2010-07-09T03:49:37Z" uid="74617" user="JohnSmith" changeset="5170838">
    <nd ref="30291170"/>
    <nd ref="30291189"/>
    <nd ref="30291171"/>
    <tag k="highway" v="residential"/>
    <tag k="maxspeed" v="50"/>
    <tag k="maxspeed:source" v="default residential speed limit in Australia"/>
    <tag k="name" v="Coolac Street"/>
  </way>
  <way id="4749704" version="4" timestamp="2010-07-09T03:24:29Z" uid="74617" user="JohnSmith" changeset="5170713">
    <nd ref="30291119"/>
    <nd ref="30291238"/>
    <nd ref="30291239"/>
    <nd ref="30291120"/>
    <tag k="highway" v="residential"/>
    <tag k="maxspeed" v="50"/>
    <tag k="maxspeed:source" v="default residential speed limit in Australia"/>
    <tag k="name" v="Jindabyne Avenue"/>
  </way>
  <way id="4749705" version="3" timestamp="2010-07-09T03:50:02Z" uid="74617" user="JohnSmith" changeset="5170838">
    <nd ref="30291113"/>
    <nd ref="30291240"/>
    <nd ref="30291241"/>
    <nd ref="30291242"/>
    <nd ref="30291243"/>
    <nd ref="30291244"/>
    <nd ref="30291245"/>
    <nd ref="30291114"/>
    <tag k="highway" v="residential"/>
    <tag k="maxspeed" v="50"/>
    <tag k="maxspeed:source" v="default residential speed limit in Australia"/>
    <tag k="name" v="Edward Street"/>
  </way>
  <way id="4749706" version="4" timestamp="2010-07-09T03:50:16Z" uid="74617" user="JohnSmith" changeset="5170838">
    <nd ref="30291111"/>
    <nd ref="30291112"/>
    <tag k="highway" v="residential"/>
    <tag k="maxspeed" v="50"/>
    <tag k="maxspeed:source" v="default residential speed limit in Australia"/>
    <tag k="name" v="Fitzroy Grove"/>
  </way>
  <way id="4749707" version="4" timestamp="2010-07-09T03:49:06Z" uid="74617" user="JohnSmith" changeset="5170838">
    <nd ref="30291108"/>
    <nd ref="30291110"/>
    <tag k="highway" v="residential"/>
    <tag k="maxspeed" v="50"/>
    <tag k="maxspeed:source" v="default residential speed limit in Australia"/>
    <tag k="name" v="Maude Street"/>
  </way>
  <way id="4749708" version="4" timestamp="2010-07-09T03:49:18Z" uid="74617" user="JohnSmith" changeset="5170838">
    <nd ref="30291105"/>
    <nd ref="30291107"/>
    <tag k="highway" v="residential"/>
    <tag k="maxspeed" v="50"/>
    <tag k="maxspeed:source" v="default residential speed limit in Australia"/>
    <tag k="name" v="Beatrice Avenue"/>
  </way>
  <way id="4749710" version="5" timestamp="2010-07-09T03:19:35Z" uid="74617" user="JohnSmith" changeset="5170713">
    <nd ref="30291248"/>
    <nd ref="30291905"/>
    <nd ref="30291249"/>
    <nd ref="30291250"/>
    <nd ref="30288247"/>
    <nd ref="30291251"/>
    <nd ref="30291911"/>
    <nd ref="618431423"/>
    <nd ref="30291917"/>
    <nd ref="30291252"/>
    <tag k="highway" v="residential"/>
    <tag k="maxspeed" v="50"/>
    <tag k="maxspeed:source" v="default residential speed limit in Australia"/>
    <tag k="name" v="Amaroo Street"/>
  </way>
  <way id="4749768" version="5" timestamp="2010-07-09T03:50:07Z" uid="74617" user="JohnSmith" changeset="5170838">
    <nd ref="30291905"/>
    <nd ref="30291912"/>
    <nd ref="30291908"/>
    <nd ref="30291909"/>
    <nd ref="30291910"/>
    <tag k="highway" v="residential"/>
    <tag k="maxspeed" v="50"/>
    <tag k="maxspeed:source" v="default residential speed limit in Australia"/>
    <tag k="name" v="Carramar Street"/>
  </way>
  <way id="4749775" version="4" timestamp="2010-07-09T03:50:12Z" uid="74617" user="JohnSmith" changeset="5170838">
    <nd ref="30291914"/>
    <nd ref="30291915"/>
    <tag k="highway" v="residential"/>
    <tag k="maxspeed" v="50"/>
    <tag k="maxspeed:source" v="default residential speed limit in Australia"/>
    <tag k="name" v="Lenna Court"/>
  </way>
  <way id="4749776" version="6" timestamp="2010-07-09T03:49:02Z" uid="74617" user="JohnSmith" changeset="5170838">
    <nd ref="30291916"/>
    <nd ref="30291920"/>
    <nd ref="251270435"/>
    <nd ref="30291918"/>
    <tag k="highway" v="residential"/>
    <tag k="maxspeed" v="50"/>
    <tag k="maxspeed:source" v="default residential speed limit in Australia"/>
    <tag k="name" v="Baradine Street"/>
  </way>
  <way id="4749777" version="3" timestamp="2010-07-09T03:22:20Z" uid="74617" user="JohnSmith" changeset="5170713">
    <nd ref="30291917"/>
    <nd ref="30291922"/>
    <nd ref="30291924"/>
    <nd ref="30291920"/>
    <tag k="highway" v="residential"/>
    <tag k="maxspeed" v="50"/>
    <tag k="maxspeed:source" v="default residential speed limit in Australia"/>
    <tag k="name" v="Bambil Street"/>
  </way>
  <way id="4749778" version="6" timestamp="2010-07-09T03:17:02Z" uid="74617" user="JohnSmith" changeset="5170713">
    <nd ref="30291922"/>
    <nd ref="30291923"/>
    <tag k="highway" v="residential"/>
    <tag k="maxspeed" v="50"/>
    <tag k="maxspeed:source" v="default residential speed limit in Australia"/>
    <tag k="name" v="Walcha Court"/>
  </way>
  <way id="4749779" version="6" timestamp="2010-07-09T03:18:46Z" uid="74617" user="JohnSmith" changeset="5170713">
    <nd ref="30291924"/>
    <nd ref="30291925"/>
    <tag k="highway" v="residential"/>
    <tag k="maxspeed" v="50"/>
    <tag k="maxspeed:source" v="default residential speed limit in Australia"/>
    <tag k="name" v="Weabra Court"/>
  </way>
  <way id="4749780" version="4" timestamp="2010-07-09T03:49:53Z" uid="74617" user="JohnSmith" changeset="5170838">
    <nd ref="30291913"/>
    <nd ref="30291914"/>
    <nd ref="30291966"/>
    <nd ref="30291973"/>
    <tag k="highway" v="residential"/>
    <tag k="maxspeed" v="50"/>
    <tag k="maxspeed:source" v="default residential speed limit in Australia"/>
    <tag k="name" v="Bega Street"/>
  </way>
  <way id="4749781" version="4" timestamp="2010-07-09T03:20:59Z" uid="74617" user="JohnSmith" changeset="5170713">
    <nd ref="30291912"/>
    <nd ref="30291968"/>
    <nd ref="30291969"/>
    <nd ref="30291970"/>
    <nd ref="30291971"/>
    <tag k="highway" v="residential"/>
    <tag k="maxspeed" v="50"/>
    <tag k="maxspeed:source" v="default residential speed limit in Australia"/>
    <tag k="name" v="Euroka Street"/>
  </way>
  <way id="4749782" version="5" timestamp="2010-07-09T03:24:08Z" uid="74617" user="JohnSmith" changeset="5170713">
    <nd ref="30291911"/>
    <nd ref="30291971"/>
    <nd ref="30291910"/>
    <nd ref="30291916"/>
    <nd ref="30291973"/>
    <nd ref="30292181"/>
    <nd ref="30291974"/>
    <tag k="highway" v="residential"/>
    <tag k="maxspeed" v="50"/>
    <tag k="maxspeed:source" v="default residential speed limit in Australia"/>
    <tag k="name" v="Bolwarra Street"/>
  </way>
  <way id="4749786" version="4" timestamp="2010-07-09T03:49:46Z" uid="74617" user="JohnSmith" changeset="5170838">
    <nd ref="30291981"/>
    <nd ref="30291982"/>
    <tag k="highway" v="residential"/>
    <tag k="maxspeed" v="50"/>
    <tag k="maxspeed:source" v="default residential speed limit in Australia"/>
    <tag k="name" v="Mudgee Court"/>
  </way>
  <way id="4749788" version="3" timestamp="2010-07-09T03:50:11Z" uid="74617" user="JohnSmith" changeset="5170838">
    <nd ref="30291156"/>
    <nd ref="30291984"/>
    <nd ref="30291985"/>
    <nd ref="30291986"/>
    <tag k="highway" v="residential"/>
    <tag k="maxspeed" v="50"/>
    <tag k="maxspeed:source" v="default residential speed limit in Australia"/>
    <tag k="name" v="Glenora Street"/>
  </way>
  <way id="4749789" version="4" timestamp="2010-07-09T03:49:01Z" uid="74617" user="JohnSmith" changeset="5170838">
    <nd ref="30291990"/>
    <nd ref="30291991"/>
    <tag k="highway" v="residential"/>
    <tag k="maxspeed" v="50"/>
    <tag k="maxspeed:source" v="default residential speed limit in Australia"/>
    <tag k="name" v="Inga Court"/>
  </way>
  <way id="4749790" version="3" timestamp="2010-07-09T03:49:15Z" uid="74617" user="JohnSmith" changeset="5170838">
    <nd ref="30291979"/>
    <nd ref="30291992"/>
    <nd ref="30291993"/>
    <nd ref="30291981"/>
    <nd ref="30291974"/>
    <nd ref="30291990"/>
    <nd ref="30291980"/>
    <tag k="highway" v="residential"/>
    <tag k="maxspeed" v="50"/>
    <tag k="maxspeed:source" v="default residential speed limit in Australia"/>
    <tag k="name" v="Moorong Street"/>
  </way>
  <way id="4749794" version="3" timestamp="2010-07-09T03:50:05Z" uid="74617" user="JohnSmith" changeset="5170838">
    <nd ref="30292001"/>
    <nd ref="30292003"/>
    <nd ref="30292004"/>
    <nd ref="30292005"/>
    <nd ref="30292025"/>
    <nd ref="30292006"/>
    <nd ref="30292026"/>
    <nd ref="30292007"/>
    <nd ref="30292008"/>
    <tag k="highway" v="residential"/>
    <tag k="maxspeed" v="50"/>
    <tag k="maxspeed:source" v="default residential speed limit in Australia"/>
    <tag k="name" v="Kierens Way"/>
  </way>
  <way id="4749796" version="3" timestamp="2010-07-09T03:49:08Z" uid="74617" user="JohnSmith" changeset="5170838">
    <nd ref="30291988"/>
    <nd ref="30292009"/>
    <nd ref="27347571"/>
    <tag k="highway" v="residential"/>
    <tag k="maxspeed" v="50"/>
    <tag k="maxspeed:source" v="default residential speed limit in Australia"/>
    <tag k="name" v="Nyrang Street"/>
  </way>
  <way id="4749797" version="3" timestamp="2010-07-09T03:49:21Z" uid="74617" user="JohnSmith" changeset="5170838">
    <nd ref="30292003"/>
    <nd ref="30292010"/>
    <nd ref="30292011"/>
    <tag k="highway" v="residential"/>
    <tag k="maxspeed" v="50"/>
    <tag k="maxspeed:source" v="default residential speed limit in Australia"/>
    <tag k="name" v="Illawarra Close"/>
  </way>
  <way id="4749798" version="3" timestamp="2010-07-09T03:49:33Z" uid="74617" user="JohnSmith" changeset="5170838">
    <nd ref="30291985"/>
    <nd ref="30292009"/>
    <tag k="highway" v="residential"/>
    <tag k="maxspeed" v="50"/>
    <tag k="maxspeed:source" v="default residential speed limit in Australia"/>
    <tag k="name" v="Attunga Street"/>
  </way>
  <way id="4749799" version="4" timestamp="2010-07-09T03:49:45Z" uid="74617" user="JohnSmith" changeset="5170838">
    <nd ref="30292012"/>
    <nd ref="30292000"/>
    <tag k="highway" v="residential"/>
    <tag k="maxspeed" v="50"/>
    <tag k="maxspeed:source" v="default residential speed limit in Australia"/>
    <tag k="name" v="Eula Court"/>
  </way>
  <way id="4749801" version="2" timestamp="2008-07-15T01:30:07Z" uid="6975" user="ulfl" changeset="496348">
    <nd ref="21580551"/>
    <nd ref="21580550"/>
    <nd ref="39663939"/>
    <nd ref="39663942"/>
    <nd ref="39663946"/>
    <nd ref="39663948"/>
    <nd ref="39664003"/>
    <nd ref="39663936"/>
    <nd ref="39664006"/>
    <nd ref="39667825"/>
    <nd ref="39812602"/>
    <nd ref="39664011"/>
    <nd ref="21580546"/>
    <nd ref="39667838"/>
    <tag k="highway" v="service"/>
    <tag k="maxspeed" v="8"/>
    <tag k="name" v="Strakers Road"/>
  </way>
  <way id="4749807" version="3" timestamp="2010-07-09T03:50:04Z" uid="74617" user="JohnSmith" changeset="5170838">
    <nd ref="27289496"/>
    <nd ref="30292013"/>
    <nd ref="30292014"/>
    <nd ref="30292015"/>
    <nd ref="30292016"/>
    <nd ref="30292017"/>
    <tag k="highway" v="residential"/>
    <tag k="maxspeed" v="50"/>
    <tag k="maxspeed:source" v="default residential speed limit in Australia"/>
    <tag k="name" v="Savannah Place"/>
  </way>
  <way id="4749809" version="5" timestamp="2010-07-09T03:49:08Z" uid="74617" user="JohnSmith" changeset="5170838">
    <nd ref="30292019"/>
    <nd ref="30292017"/>
    <nd ref="30292020"/>
    <nd ref="30292021"/>
    <tag k="highway" v="residential"/>
    <tag k="maxspeed" v="50"/>
    <tag k="maxspeed:source" v="default residential speed limit in Australia"/>
    <tag k="name" v="Elmtree Terrace"/>
  </way>
  <way id="4749811" version="3" timestamp="2010-07-09T03:49:32Z" uid="74617" user="JohnSmith" changeset="5170838">
    <nd ref="30292016"/>
    <nd ref="30292023"/>
    <nd ref="30292024"/>
    <tag k="highway" v="residential"/>
    <tag k="maxspeed" v="50"/>
    <tag k="maxspeed:source" v="default residential speed limit in Australia"/>
    <tag k="name" v="Malibu Mews"/>
  </way>
  <way id="4749814" version="3" timestamp="2010-07-09T03:50:10Z" uid="74617" user="JohnSmith" changeset="5170838">
    <nd ref="30292007"/>
    <nd ref="30292027"/>
    <tag k="highway" v="residential"/>
    <tag k="maxspeed" v="50"/>
    <tag k="maxspeed:source" v="default residential speed limit in Australia"/>
    <tag k="name" v="Celia Court"/>
  </way>
  <way id="4749815" version="4" timestamp="2010-07-09T03:48:59Z" uid="74617" user="JohnSmith" changeset="5170838">
    <nd ref="30292028"/>
    <nd ref="30292029"/>
    <nd ref="30292008"/>
    <nd ref="30292037"/>
    <tag k="highway" v="residential"/>
    <tag k="maxspeed" v="50"/>
    <tag k="maxspeed:source" v="default residential speed limit in Australia"/>
    <tag k="name" v="Kierens Way"/>
  </way>
  <way id="4749816" version="3" timestamp="2010-07-09T03:49:13Z" uid="74617" user="JohnSmith" changeset="5170838">
    <nd ref="30292026"/>
    <nd ref="30292030"/>
    <nd ref="30292031"/>
    <tag k="highway" v="residential"/>
    <tag k="maxspeed" v="50"/>
    <tag k="maxspeed:source" v="default residential speed limit in Australia"/>
    <tag k="name" v="Iskandar Court"/>
  </way>
  <way id="4749817" version="3" timestamp="2010-07-09T03:49:26Z" uid="74617" user="JohnSmith" changeset="5170838">
    <nd ref="30292025"/>
    <nd ref="30292032"/>
    <nd ref="30292014"/>
    <tag k="highway" v="residential"/>
    <tag k="maxspeed" v="50"/>
    <tag k="maxspeed:source" v="default residential speed limit in Australia"/>
    <tag k="name" v="Yambie Lane"/>
  </way>
  <way id="4749818" version="4" timestamp="2009-08-13T01:04:25Z" uid="4467" user="Rosscoe" changeset="2125668">
    <nd ref="30292033"/>
    <nd ref="30292021"/>
    <nd ref="30292034"/>
    <tag k="highway" v="residential"/>
    <tag k="name" v="Elmtree Terrace"/>
    <tag k="osmarender:renderName" v="no"/>
  </way>
  <way id="4749818" version="5" timestamp="2010-07-09T03:49:38Z" uid="74617" user="JohnSmith" changeset="5170838">
    <nd ref="30292033"/>
    <nd ref="30292021"/>
    <nd ref="30292034"/>
    <tag k="highway" v="residential"/>
    <tag k="maxspeed" v="50"/>
    <tag k="maxspeed:source" v="default residential speed limit in Australia"/>
    <tag k="name" v="Elmtree Terrace"/>
  </way>
  <way id="4749819" version="3" timestamp="2009-08-13T01:04:20Z" uid="4467" user="Rosscoe" changeset="2125668">
    <nd ref="30292035"/>
    <nd ref="30292019"/>
    <nd ref="30292036"/>
    <tag k="highway" v="residential"/>
    <tag k="name" v="Elmtree Terrace"/>
    <tag k="osmarender:renderName" v="no"/>
  </way>
  <way id="4749819" version="4" timestamp="2010-07-09T03:49:50Z" uid="74617" user="JohnSmith" changeset="5170838">
    <nd ref="30292035"/>
    <nd ref="30292019"/>
    <nd ref="30292036"/>
    <tag k="highway" v="residential"/>
    <tag k="maxspeed" v="50"/>
    <tag k="maxspeed:source" v="default residential speed limit in Australia"/>
    <tag k="name" v="Elmtree Terrace"/>
  </way>
  <way id="4749820" version="3" timestamp="2010-07-09T03:50:03Z" uid="74617" user="JohnSmith" changeset="5170838">
    <nd ref="30292038"/>
    <nd ref="30292039"/>
    <tag k="highway" v="residential"/>
    <tag k="maxspeed" v="50"/>
    <tag k="maxspeed:source" v="default residential speed limit in Australia"/>
    <tag k="name" v="Ladner Court"/>
  </way>
  <way id="4749821" version="3" timestamp="2010-07-09T03:50:16Z" uid="74617" user="JohnSmith" changeset="5170838">
    <nd ref="30292040"/>
    <nd ref="30292043"/>
    <tag k="highway" v="residential"/>
    <tag k="maxspeed" v="50"/>
    <tag k="maxspeed:source" v="default residential speed limit in Australia"/>
    <tag k="name" v="Ashby Court"/>
  </way>
  <way id="4749832" version="4" timestamp="2010-07-09T03:49:31Z" uid="74617" user="JohnSmith" changeset="5170838">
    <nd ref="30292164"/>
    <nd ref="30292171"/>
    <nd ref="30292165"/>
    <nd ref="30292166"/>
    <nd ref="30292167"/>
    <nd ref="30292168"/>
    <tag k="highway" v="residential"/>
    <tag k="maxspeed" v="50"/>
    <tag k="maxspeed:source" v="default residential speed limit in Australia"/>
    <tag k="name" v="Rosemary Street"/>
  </way>
  <way id="4749835" version="3" timestamp="2010-07-09T03:50:08Z" uid="74617" user="JohnSmith" changeset="5170838">
    <nd ref="30292165"/>
    <nd ref="30292172"/>
    <nd ref="30292173"/>
    <nd ref="30292174"/>
    <tag k="highway" v="residential"/>
    <tag k="maxspeed" v="50"/>
    <tag k="maxspeed:source" v="default residential speed limit in Australia"/>
    <tag k="name" v="Mark Court"/>
  </way>
  <way id="4749836" version="4" timestamp="2010-07-09T03:48:58Z" uid="74617" user="JohnSmith" changeset="5170838">
    <nd ref="30292175"/>
    <nd ref="30292171"/>
    <tag k="highway" v="residential"/>
    <tag k="maxspeed" v="50"/>
    <tag k="maxspeed:source" v="default residential speed limit in Australia"/>
    <tag k="name" v="Robert Street"/>
  </way>
  <way id="4749837" version="5" timestamp="2010-07-09T03:49:10Z" uid="74617" user="JohnSmith" changeset="5170838">
    <nd ref="30292159"/>
    <nd ref="30292164"/>
    <nd ref="541418592"/>
    <nd ref="30292176"/>
    <nd ref="30292177"/>
    <tag k="highway" v="residential"/>
    <tag k="maxspeed" v="50"/>
    <tag k="maxspeed:source" v="default residential speed limit in Australia"/>
    <tag k="name" v="Jacana Street"/>
  </way>
  <way id="4749839" version="3" timestamp="2010-07-09T03:49:36Z" uid="74617" user="JohnSmith" changeset="5170838">
    <nd ref="30292181"/>
    <nd ref="30292182"/>
    <nd ref="30292183"/>
    <tag k="highway" v="residential"/>
    <tag k="maxspeed" v="50"/>
    <tag k="maxspeed:source" v="default residential speed limit in Australia"/>
    <tag k="name" v="Brindalee Mews"/>
  </way>
  <way id="4749846" version="4" timestamp="2010-07-09T03:17:50Z" uid="74617" user="JohnSmith" changeset="5170713">
    <nd ref="30292284"/>
    <nd ref="30292285"/>
    <nd ref="30292286"/>
    <nd ref="30292287"/>
    <nd ref="30292299"/>
    <nd ref="30292288"/>
    <nd ref="30292289"/>
    <nd ref="30292290"/>
    <nd ref="30292291"/>
    <nd ref="30292292"/>
    <nd ref="30292293"/>
    <nd ref="30288276"/>
    <tag k="highway" v="residential"/>
    <tag k="maxspeed" v="50"/>
    <tag k="maxspeed:source" v="default residential speed limit in Australia"/>
    <tag k="name" v="Jingella Avenue"/>
  </way>
  <way id="4749849" version="4" timestamp="2010-07-09T03:18:35Z" uid="74617" user="JohnSmith" changeset="5170713">
    <nd ref="30292299"/>
    <nd ref="30292304"/>
    <nd ref="30292305"/>
    <tag k="highway" v="residential"/>
    <tag k="maxspeed" v="50"/>
    <tag k="maxspeed:source" v="default residential speed limit in Australia"/>
    <tag k="name" v="Wippa Court"/>
  </way>
  <way id="4749850" version="4" timestamp="2010-07-09T03:49:10Z" uid="74617" user="JohnSmith" changeset="5170838">
    <nd ref="30288372"/>
    <nd ref="30292306"/>
    <nd ref="30292308"/>
    <tag k="highway" v="residential"/>
    <tag k="maxspeed" v="50"/>
    <tag k="maxspeed:source" v="default residential speed limit in Australia"/>
    <tag k="name" v="Wugga Court"/>
  </way>
  <way id="4749851" version="5" timestamp="2010-07-09T03:23:32Z" uid="74617" user="JohnSmith" changeset="5170713">
    <nd ref="30292307"/>
    <nd ref="30292321"/>
    <nd ref="30292310"/>
    <nd ref="30292311"/>
    <nd ref="30292327"/>
    <tag k="highway" v="residential"/>
    <tag k="maxspeed" v="50"/>
    <tag k="maxspeed:source" v="default residential speed limit in Australia"/>
    <tag k="name" v="Queens Parade"/>
  </way>
  <way id="4749853" version="4" timestamp="2010-07-09T03:17:24Z" uid="74617" user="JohnSmith" changeset="5170713">
    <nd ref="30292314"/>
    <nd ref="30292326"/>
    <nd ref="30292316"/>
    <tag k="highway" v="residential"/>
    <tag k="maxspeed" v="50"/>
    <tag k="maxspeed:source" v="default residential speed limit in Australia"/>
    <tag k="name" v="Montrose Street"/>
  </way>
  <way id="4749854" version="4" timestamp="2010-07-09T03:20:22Z" uid="74617" user="JohnSmith" changeset="5170713">
    <nd ref="30292288"/>
    <nd ref="30292317"/>
    <nd ref="30292294"/>
    <tag k="highway" v="residential"/>
    <tag k="maxspeed" v="50"/>
    <tag k="maxspeed:source" v="default residential speed limit in Australia"/>
    <tag k="name" v="Allambi Street"/>
  </way>
  <way id="4749855" version="4" timestamp="2010-07-09T03:50:13Z" uid="74617" user="JohnSmith" changeset="5170838">
    <nd ref="30292283"/>
    <nd ref="30292319"/>
    <tag k="highway" v="residential"/>
    <tag k="maxspeed" v="50"/>
    <tag k="maxspeed:source" v="default residential speed limit in Australia"/>
    <tag k="name" v="Gubbah Court"/>
  </way>
  <way id="4749856" version="5" timestamp="2010-07-09T03:21:16Z" uid="74617" user="JohnSmith" changeset="5170713">
    <nd ref="30292184"/>
    <nd ref="30292320"/>
    <tag k="highway" v="residential"/>
    <tag k="maxspeed" v="50"/>
    <tag k="maxspeed:source" v="default residential speed limit in Australia"/>
    <tag k="name" v="Karrin Court"/>
  </way>
  <way id="4749857" version="3" timestamp="2010-07-09T03:23:06Z" uid="74617" user="JohnSmith" changeset="5170713">
    <nd ref="28175483"/>
    <nd ref="30292324"/>
    <nd ref="30292321"/>
    <tag k="highway" v="residential"/>
    <tag k="maxspeed" v="50"/>
    <tag k="maxspeed:source" v="default residential speed limit in Australia"/>
    <tag k="name" v="May Park Avenue"/>
  </way>
  <way id="4749860" version="3" timestamp="2010-07-09T03:19:59Z" uid="74617" user="JohnSmith" changeset="5170713">
    <nd ref="30292323"/>
    <nd ref="30292324"/>
    <nd ref="30292325"/>
    <nd ref="30292326"/>
    <tag k="highway" v="residential"/>
    <tag k="maxspeed" v="50"/>
    <tag k="maxspeed:source" v="default residential speed limit in Australia"/>
    <tag k="name" v="Shaw Street"/>
  </way>
  <way id="4749863" version="4" timestamp="2010-04-17T23:49:51Z" uid="4467" user="Rosscoe" changeset="4453481">
    <nd ref="28175470"/>
    <nd ref="30292332"/>
    <nd ref="30292333"/>
    <nd ref="620509289"/>
    <nd ref="30292385"/>
    <nd ref="700433592"/>
    <tag k="highway" v="residential"/>
    <tag k="name" v="Closter Avenue"/>
  </way>
  <way id="4749863" version="5" timestamp="2010-07-09T03:18:17Z" uid="74617" user="JohnSmith" changeset="5170713">
    <nd ref="28175470"/>
    <nd ref="30292332"/>
    <nd ref="30292333"/>
    <nd ref="620509289"/>
    <nd ref="30292385"/>
    <nd ref="700433592"/>
    <tag k="highway" v="residential"/>
    <tag k="maxspeed" v="50"/>
    <tag k="maxspeed:source" v="default residential speed limit in Australia"/>
    <tag k="name" v="Closter Avenue"/>
  </way>
  <way id="4749865" version="5" timestamp="2010-07-09T03:17:19Z" uid="74617" user="JohnSmith" changeset="5170713">
    <nd ref="30292340"/>
    <nd ref="30292341"/>
    <nd ref="667753139"/>
    <nd ref="30292342"/>
    <nd ref="30292343"/>
    <tag k="highway" v="residential"/>
    <tag k="maxspeed" v="50"/>
    <tag k="maxspeed:source" v="default residential speed limit in Australia"/>
    <tag k="name" v="Sixth Avenue"/>
  </way>
  <way id="4749865" version="6" timestamp="2011-02-14T02:08:14Z" uid="4467" user="Rosscoe" changeset="7282472">
    <nd ref="1152156244"/>
    <nd ref="30292341"/>
    <nd ref="667753139"/>
    <nd ref="30292342"/>
    <nd ref="30292343"/>
    <tag k="highway" v="residential"/>
    <tag k="maxspeed" v="50"/>
    <tag k="maxspeed:source" v="default residential speed limit in Australia"/>
    <tag k="name" v="Sixth Avenue"/>
  </way>
  <way id="4749870" version="6" timestamp="2010-07-09T03:19:02Z" uid="74617" user="JohnSmith" changeset="5170713">
    <nd ref="30292347"/>
    <nd ref="256024306"/>
    <nd ref="30292359"/>
    <nd ref="30292360"/>
    <nd ref="30292361"/>
    <nd ref="30292362"/>
    <nd ref="30292363"/>
    <tag k="highway" v="residential"/>
    <tag k="maxspeed" v="50"/>
    <tag k="maxspeed:source" v="default residential speed limit in Australia"/>
    <tag k="name" v="Harrison Avenue"/>
  </way>
  <way id="4749870" version="7" timestamp="2011-02-14T02:08:11Z" uid="4467" user="Rosscoe" changeset="7282472">
    <nd ref="1152156271"/>
    <nd ref="256024306"/>
    <nd ref="30292359"/>
    <nd ref="30292360"/>
    <nd ref="30292361"/>
    <nd ref="30292362"/>
    <nd ref="30292363"/>
    <tag k="highway" v="residential"/>
    <tag k="maxspeed" v="50"/>
    <tag k="maxspeed:source" v="default residential speed limit in Australia"/>
    <tag k="name" v="Harrison Avenue"/>
  </way>
  <way id="4749871" version="4" timestamp="2010-07-09T03:20:46Z" uid="74617" user="JohnSmith" changeset="5170713">
    <nd ref="30292350"/>
    <nd ref="30292362"/>
    <tag k="highway" v="residential"/>
    <tag k="maxspeed" v="50"/>
    <tag k="maxspeed:source" v="default residential speed limit in Australia"/>
    <tag k="name" v="Barnes Avenue"/>
  </way>
  <way id="4749871" version="5" timestamp="2011-02-14T02:07:52Z" uid="4467" user="Rosscoe" changeset="7282472">
    <nd ref="1152156295"/>
    <nd ref="30292362"/>
    <tag k="highway" v="residential"/>
    <tag k="maxspeed" v="50"/>
    <tag k="maxspeed:source" v="default residential speed limit in Australia"/>
    <tag k="name" v="Barnes Avenue"/>
  </way>
  <way id="4749872" version="3" timestamp="2010-07-09T03:24:33Z" uid="74617" user="JohnSmith" changeset="5170713">
    <nd ref="30292349"/>
    <nd ref="30292365"/>
    <tag k="highway" v="residential"/>
    <tag k="maxspeed" v="50"/>
    <tag k="maxspeed:source" v="default residential speed limit in Australia"/>
    <tag k="name" v="Meyer Road"/>
  </way>
  <way id="4749872" version="4" timestamp="2011-02-14T02:07:56Z" uid="4467" user="Rosscoe" changeset="7282472">
    <nd ref="1152156198"/>
    <nd ref="30292365"/>
    <tag k="highway" v="residential"/>
    <tag k="maxspeed" v="50"/>
    <tag k="maxspeed:source" v="default residential speed limit in Australia"/>
    <tag k="name" v="Meyer Road"/>
  </way>
  <way id="4749874" version="3" timestamp="2010-07-09T03:20:56Z" uid="74617" user="JohnSmith" changeset="5170713">
    <nd ref="30292346"/>
    <nd ref="30292359"/>
    <tag k="highway" v="residential"/>
    <tag k="maxspeed" v="50"/>
    <tag k="maxspeed:source" v="default residential speed limit in Australia"/>
    <tag k="name" v="Elizabeth Street"/>
  </way>
  <way id="4749884" version="3" timestamp="2010-07-09T03:17:30Z" uid="74617" user="JohnSmith" changeset="5170713">
    <nd ref="30292369"/>
    <nd ref="30292371"/>
    <tag k="highway" v="residential"/>
    <tag k="maxspeed" v="50"/>
    <tag k="maxspeed:source" v="default residential speed limit in Australia"/>
    <tag k="name" v="Haig Street"/>
  </way>
  <way id="4749892" version="4" timestamp="2010-04-17T23:49:50Z" uid="4467" user="Rosscoe" changeset="4453481">
    <nd ref="30292380"/>
    <nd ref="700433598"/>
    <tag k="highway" v="residential"/>
    <tag k="name" v="Harold Street"/>
  </way>
  <way id="4749892" version="5" timestamp="2010-07-09T03:21:55Z" uid="74617" user="JohnSmith" changeset="5170713">
    <nd ref="30292380"/>
    <nd ref="700433598"/>
    <tag k="highway" v="residential"/>
    <tag k="maxspeed" v="50"/>
    <tag k="maxspeed:source" v="default residential speed limit in Australia"/>
    <tag k="name" v="Harold Street"/>
  </way>
  <way id="4749894" version="4" timestamp="2010-07-09T03:18:23Z" uid="74617" user="JohnSmith" changeset="5170713">
    <nd ref="30292385"/>
    <nd ref="30292386"/>
    <tag k="highway" v="residential"/>
    <tag k="maxspeed" v="50"/>
    <tag k="maxspeed:source" v="default residential speed limit in Australia"/>
    <tag k="name" v="Morris Street"/>
  </way>
  <way id="4749895" version="4" timestamp="2010-07-09T03:20:06Z" uid="74617" user="JohnSmith" changeset="5170713">
    <nd ref="30292333"/>
    <nd ref="620509272"/>
    <nd ref="28175480"/>
    <tag k="highway" v="residential"/>
    <tag k="maxspeed" v="50"/>
    <tag k="maxspeed:source" v="default residential speed limit in Australia"/>
    <tag k="name" v="Kennett Street"/>
  </way>
  <way id="4749896" version="4" timestamp="2010-07-09T03:17:25Z" uid="74617" user="JohnSmith" changeset="5170713">
    <nd ref="28175477"/>
    <nd ref="30292380"/>
    <nd ref="30292379"/>
    <tag k="highway" v="residential"/>
    <tag k="maxspeed" v="50"/>
    <tag k="maxspeed:source" v="default residential speed limit in Australia"/>
    <tag k="name" v="Douglas Street"/>
  </way>
  <way id="4749897" version="4" timestamp="2010-07-09T03:19:09Z" uid="74617" user="JohnSmith" changeset="5170713">
    <nd ref="30292377"/>
    <nd ref="30292378"/>
    <tag k="highway" v="residential"/>
    <tag k="maxspeed" v="50"/>
    <tag k="maxspeed:source" v="default residential speed limit in Australia"/>
    <tag k="name" v="George Street"/>
  </way>
  <way id="4749898" version="4" timestamp="2010-07-09T03:22:14Z" uid="74617" user="JohnSmith" changeset="5170713">
    <nd ref="30292375"/>
    <nd ref="30292376"/>
    <tag k="highway" v="residential"/>
    <tag k="maxspeed" v="50"/>
    <tag k="maxspeed:source" v="default residential speed limit in Australia"/>
    <tag k="name" v="Edmonds Avenue"/>
  </way>
  <way id="4749899" version="4" timestamp="2010-07-09T03:24:03Z" uid="74617" user="JohnSmith" changeset="5170713">
    <nd ref="30292373"/>
    <nd ref="30292374"/>
    <tag k="highway" v="residential"/>
    <tag k="maxspeed" v="50"/>
    <tag k="maxspeed:source" v="default residential speed limit in Australia"/>
    <tag k="name" v="Carlyle Street"/>
  </way>
  <way id="4749900" version="3" timestamp="2010-07-09T03:24:30Z" uid="74617" user="JohnSmith" changeset="5170713">
    <nd ref="30292368"/>
    <nd ref="30292370"/>
    <tag k="highway" v="residential"/>
    <tag k="maxspeed" v="50"/>
    <tag k="maxspeed:source" v="default residential speed limit in Australia"/>
    <tag k="name" v="Leopold Street"/>
  </way>
  <way id="4749903" version="4" timestamp="2010-07-09T03:22:46Z" uid="74617" user="JohnSmith" changeset="5170713">
    <nd ref="30292392"/>
    <nd ref="30292393"/>
    <tag k="highway" v="residential"/>
    <tag k="maxspeed" v="50"/>
    <tag k="maxspeed:source" v="default residential speed limit in Australia"/>
    <tag k="name" v="Octavia  Court"/>
  </way>
  <way id="4749904" version="4" timestamp="2010-07-09T03:18:06Z" uid="74617" user="JohnSmith" changeset="5170713">
    <nd ref="30292394"/>
    <nd ref="30292396"/>
    <nd ref="30292437"/>
    <nd ref="30292438"/>
    <tag k="highway" v="residential"/>
    <tag k="maxspeed" v="50"/>
    <tag k="maxspeed:source" v="default residential speed limit in Australia"/>
    <tag k="name" v="Barrington Drive"/>
  </way>
  <way id="4749905" version="6" timestamp="2010-07-09T03:19:48Z" uid="74617" user="JohnSmith" changeset="5170713">
    <nd ref="30292411"/>
    <nd ref="30292412"/>
    <tag k="highway" v="residential"/>
    <tag k="maxspeed" v="50"/>
    <tag k="maxspeed:source" v="default residential speed limit in Australia"/>
    <tag k="name" v="Brooke Court"/>
  </way>
  <way id="4749907" version="5" timestamp="2010-07-09T03:24:38Z" uid="74617" user="JohnSmith" changeset="5170713">
    <nd ref="30292416"/>
    <nd ref="30292417"/>
    <tag k="highway" v="residential"/>
    <tag k="maxspeed" v="50"/>
    <tag k="maxspeed:source" v="default residential speed limit in Australia"/>
    <tag k="name" v="Shelley Court"/>
  </way>
  <way id="4749909" version="5" timestamp="2010-07-09T03:18:31Z" uid="74617" user="JohnSmith" changeset="5170713">
    <nd ref="30292420"/>
    <nd ref="30292421"/>
    <tag k="highway" v="residential"/>
    <tag k="maxspeed" v="50"/>
    <tag k="maxspeed:source" v="default residential speed limit in Australia"/>
    <tag k="name" v="Avoca Court"/>
  </way>
  <way id="4749912" version="5" timestamp="2010-07-09T03:20:35Z" uid="74617" user="JohnSmith" changeset="5170713">
    <nd ref="30292424"/>
    <nd ref="30292425"/>
    <nd ref="30292400"/>
    <tag k="highway" v="residential"/>
    <tag k="maxspeed" v="50"/>
    <tag k="maxspeed:source" v="default residential speed limit in Australia"/>
    <tag k="name" v="Nolan Court"/>
  </way>
  <way id="4749915" version="4" timestamp="2010-07-09T03:49:39Z" uid="74617" user="JohnSmith" changeset="5170838">
    <nd ref="30292426"/>
    <nd ref="30292427"/>
    <tag k="highway" v="residential"/>
    <tag k="maxspeed" v="50"/>
    <tag k="maxspeed:source" v="default residential speed limit in Australia"/>
    <tag k="name" v="Lytton Street"/>
  </way>
  <way id="4749915" version="5" timestamp="2011-02-14T02:07:49Z" uid="4467" user="Rosscoe" changeset="7282472">
    <nd ref="30292426"/>
    <nd ref="1152156235"/>
    <tag k="highway" v="residential"/>
    <tag k="maxspeed" v="50"/>
    <tag k="maxspeed:source" v="default residential speed limit in Australia"/>
    <tag k="name" v="Lytton Street"/>
  </way>
  <way id="4749917" version="4" timestamp="2010-07-09T03:50:04Z" uid="74617" user="JohnSmith" changeset="5170838">
    <nd ref="30292429"/>
    <nd ref="30292430"/>
    <tag k="highway" v="residential"/>
    <tag k="maxspeed" v="50"/>
    <tag k="maxspeed:source" v="default residential speed limit in Australia"/>
    <tag k="name" v="Hughes Street"/>
    <tag k="source" v="nearmap"/>
  </way>
  <way id="4749919" version="4" timestamp="2010-07-09T03:49:07Z" uid="74617" user="JohnSmith" changeset="5170838">
    <nd ref="30292431"/>
    <nd ref="30292432"/>
    <nd ref="30292433"/>
    <tag k="highway" v="residential"/>
    <tag k="lanes" v="2"/>
    <tag k="maxspeed" v="50"/>
    <tag k="maxspeed:source" v="default residential speed limit in Australia"/>
    <tag k="name" v="Judith Street"/>
    <tag k="surface" v="paved"/>
  </way>
  <way id="4749920" version="3" timestamp="2010-07-09T03:49:20Z" uid="74617" user="JohnSmith" changeset="5170838">
    <nd ref="29524142"/>
    <nd ref="30292434"/>
    <tag k="highway" v="residential"/>
    <tag k="maxspeed" v="50"/>
    <tag k="maxspeed:source" v="default residential speed limit in Australia"/>
    <tag k="name" v="Spence Street"/>
  </way>
  <way id="4749921" version="4" timestamp="2010-07-09T03:49:32Z" uid="74617" user="JohnSmith" changeset="5170838">
    <nd ref="29524141"/>
    <nd ref="30292426"/>
    <nd ref="667749651"/>
    <nd ref="30292435"/>
    <tag k="highway" v="residential"/>
    <tag k="maxspeed" v="50"/>
    <tag k="maxspeed:source" v="default residential speed limit in Australia"/>
    <tag k="name" v="Tudor Street"/>
  </way>
  <way id="4749922" version="5" timestamp="2010-07-09T03:21:32Z" uid="74617" user="JohnSmith" changeset="5170713">
    <nd ref="30292400"/>
    <nd ref="30292436"/>
    <tag k="highway" v="residential"/>
    <tag k="maxspeed" v="50"/>
    <tag k="maxspeed:source" v="default residential speed limit in Australia"/>
    <tag k="name" v="Keats Court"/>
  </way>
  <way id="4749924" version="4" timestamp="2010-07-09T03:23:54Z" uid="74617" user="JohnSmith" changeset="5170713">
    <nd ref="30292418"/>
    <nd ref="662839360"/>
    <nd ref="30292439"/>
    <tag k="highway" v="residential"/>
    <tag k="maxspeed" v="50"/>
    <tag k="maxspeed:source" v="default residential speed limit in Australia"/>
    <tag k="name" v="Crundale Street"/>
  </way>
  <way id="4749925" version="5" timestamp="2010-07-09T03:17:15Z" uid="74617" user="JohnSmith" changeset="5170713">
    <nd ref="30292414"/>
    <nd ref="30292440"/>
    <tag k="highway" v="residential"/>
    <tag k="maxspeed" v="50"/>
    <tag k="maxspeed:source" v="default residential speed limit in Australia"/>
    <tag k="name" v="Julie Court"/>
  </way>
  <way id="4749926" version="4" timestamp="2010-07-09T03:20:13Z" uid="74617" user="JohnSmith" changeset="5170713">
    <nd ref="30292391"/>
    <nd ref="30292393"/>
    <nd ref="30292443"/>
    <tag k="highway" v="residential"/>
    <tag k="maxspeed" v="50"/>
    <tag k="maxspeed:source" v="default residential speed limit in Australia"/>
    <tag k="name" v="Zodiac Street"/>
  </way>
  <way id="4749927" version="4" timestamp="2010-07-09T03:22:01Z" uid="74617" user="JohnSmith" changeset="5170713">
    <nd ref="30292389"/>
    <nd ref="30292444"/>
    <tag k="highway" v="residential"/>
    <tag k="maxspeed" v="50"/>
    <tag k="maxspeed:source" v="default residential speed limit in Australia"/>
    <tag k="name" v="Iberia Court"/>
  </way>
  <way id="4749928" version="6" timestamp="2010-07-09T03:49:37Z" uid="74617" user="JohnSmith" changeset="5170838">
    <nd ref="30292445"/>
    <nd ref="30292469"/>
    <nd ref="30292451"/>
    <nd ref="30292473"/>
    <nd ref="30292485"/>
    <nd ref="256011207"/>
    <nd ref="30292447"/>
    <tag k="highway" v="residential"/>
    <tag k="maxspeed" v="50"/>
    <tag k="maxspeed:source" v="default residential speed limit in Australia"/>
    <tag k="name" v="Montpellier Road"/>
  </way>
  <way id="4749928" version="7" timestamp="2011-02-14T02:07:55Z" uid="4467" user="Rosscoe" changeset="7282472">
    <nd ref="1152156213"/>
    <nd ref="30292469"/>
    <nd ref="30292451"/>
    <nd ref="30292473"/>
    <nd ref="30292485"/>
    <nd ref="256011207"/>
    <nd ref="30292447"/>
    <tag k="highway" v="residential"/>
    <tag k="maxspeed" v="50"/>
    <tag k="maxspeed:source" v="default residential speed limit in Australia"/>
    <tag k="name" v="Montpellier Road"/>
  </way>
  <way id="4749935" version="6" timestamp="2010-07-09T03:49:44Z" uid="74617" user="JohnSmith" changeset="5170838">
    <nd ref="30292462"/>
    <nd ref="30292463"/>
    <nd ref="662811637"/>
    <nd ref="248219374"/>
    <tag k="highway" v="residential"/>
    <tag k="maxspeed" v="50"/>
    <tag k="maxspeed:source" v="default residential speed limit in Australia"/>
    <tag k="name" v="Chandler Grove"/>
  </way>
  <way id="4749936" version="5" timestamp="2010-07-09T03:49:57Z" uid="74617" user="JohnSmith" changeset="5170838">
    <nd ref="30292465"/>
    <nd ref="30292466"/>
    <nd ref="30292467"/>
    <nd ref="30292468"/>
    <nd ref="30292469"/>
    <tag k="highway" v="residential"/>
    <tag k="maxspeed" v="50"/>
    <tag k="maxspeed:source" v="default residential speed limit in Australia"/>
    <tag k="name" v="Chandler Grove"/>
  </way>
  <way id="4749937" version="5" timestamp="2010-07-09T03:50:09Z" uid="74617" user="JohnSmith" changeset="5170838">
    <nd ref="30292471"/>
    <nd ref="30292472"/>
    <tag k="highway" v="residential"/>
    <tag k="maxspeed" v="50"/>
    <tag k="maxspeed:source" v="default residential speed limit in Australia"/>
    <tag k="name" v="Hazel Court"/>
  </way>
  <way id="4749939" version="5" timestamp="2010-07-09T03:49:11Z" uid="74617" user="JohnSmith" changeset="5170838">
    <nd ref="30292473"/>
    <nd ref="30292482"/>
    <nd ref="30292701"/>
    <nd ref="30292474"/>
    <tag k="highway" v="residential"/>
    <tag k="maxspeed" v="50"/>
    <tag k="maxspeed:source" v="default residential speed limit in Australia"/>
    <tag k="name" v="Carmody Street"/>
  </way>
  <way id="4749940" version="5" timestamp="2010-07-09T03:49:25Z" uid="74617" user="JohnSmith" changeset="5170838">
    <nd ref="30292475"/>
    <nd ref="30292476"/>
    <tag k="highway" v="residential"/>
    <tag k="maxspeed" v="50"/>
    <tag k="maxspeed:source" v="default residential speed limit in Australia"/>
    <tag k="name" v="Everest Court"/>
  </way>
  <way id="4749941" version="4" timestamp="2010-07-09T03:49:37Z" uid="74617" user="JohnSmith" changeset="5170838">
    <nd ref="30292463"/>
    <nd ref="30292475"/>
    <nd ref="30292451"/>
    <tag k="highway" v="residential"/>
    <tag k="maxspeed" v="50"/>
    <tag k="maxspeed:source" v="default residential speed limit in Australia"/>
    <tag k="name" v="Webb Street"/>
  </way>
  <way id="4749942" version="5" timestamp="2010-07-09T03:49:49Z" uid="74617" user="JohnSmith" changeset="5170838">
    <nd ref="30292478"/>
    <nd ref="30292479"/>
    <nd ref="30292642"/>
    <nd ref="30292480"/>
    <nd ref="30292644"/>
    <nd ref="662839028"/>
    <nd ref="30292680"/>
    <nd ref="30292447"/>
    <nd ref="662839024"/>
    <nd ref="30292648"/>
    <nd ref="256014585"/>
    <nd ref="30292669"/>
    <nd ref="30292677"/>
    <nd ref="30292678"/>
    <nd ref="30292449"/>
    <tag k="highway" v="residential"/>
    <tag k="maxspeed" v="50"/>
    <tag k="maxspeed:source" v="default residential speed limit in Australia"/>
    <tag k="name" v="Arthur Street"/>
  </way>
  <way id="4749947" version="4" timestamp="2010-07-09T03:49:31Z" uid="74617" user="JohnSmith" changeset="5170838">
    <nd ref="30292486"/>
    <nd ref="30292487"/>
    <tag k="highway" v="residential"/>
    <tag k="maxspeed" v="50"/>
    <tag k="maxspeed:source" v="default residential speed limit in Australia"/>
    <tag k="name" v="Baryn Street"/>
  </way>
  <way id="4749949" version="3" timestamp="2010-07-09T03:49:57Z" uid="74617" user="JohnSmith" changeset="5170838">
    <nd ref="30292497"/>
    <nd ref="30292499"/>
    <tag k="highway" v="residential"/>
    <tag k="maxspeed" v="50"/>
    <tag k="maxspeed:source" v="default residential speed limit in Australia"/>
    <tag k="name" v="Delta Avenue"/>
  </way>
  <way id="4749950" version="5" timestamp="2010-07-09T03:50:09Z" uid="74617" user="JohnSmith" changeset="5170838">
    <nd ref="30292501"/>
    <nd ref="30292499"/>
    <nd ref="30292502"/>
    <nd ref="30292503"/>
    <nd ref="662839361"/>
    <nd ref="30292480"/>
    <tag k="highway" v="residential"/>
    <tag k="maxspeed" v="50"/>
    <tag k="maxspeed:source" v="default residential speed limit in Australia"/>
    <tag k="name" v="Silver Ash Avenue"/>
  </way>
  <way id="4749953" version="1" timestamp="2007-07-06T23:20:12Z" uid="4667" user="MapZ" changeset="130808">
    <nd ref="21817966"/>
    <nd ref="30292621"/>
    <nd ref="30292622"/>
    <nd ref="30292624"/>
    <nd ref="30292625"/>
    <nd ref="30292626"/>
    <nd ref="30292628"/>
    <nd ref="30292629"/>
    <nd ref="30292630"/>
    <nd ref="30292631"/>
    <nd ref="30292632"/>
    <nd ref="30292634"/>
    <nd ref="30292635"/>
    <nd ref="25118989"/>
    <tag k="created_by" v="JOSM"/>
    <tag k="highway" v="secondary"/>
  </way>
  <way id="4749954" version="3" timestamp="2009-08-13T01:04:26Z" uid="4467" user="Rosscoe" changeset="2125668">
    <nd ref="30292638"/>
    <nd ref="30292639"/>
    <nd ref="30292640"/>
    <tag k="highway" v="residential"/>
    <tag k="name" v="Vannam Drive"/>
    <tag k="osmarender:renderName" v="no"/>
  </way>
  <way id="4749954" version="5" timestamp="2010-07-09T03:49:04Z" uid="74617" user="JohnSmith" changeset="5170838">
    <nd ref="30292638"/>
    <nd ref="662810822"/>
    <nd ref="30292639"/>
    <nd ref="30292640"/>
    <tag k="highway" v="residential"/>
    <tag k="maxspeed" v="50"/>
    <tag k="maxspeed:source" v="default residential speed limit in Australia"/>
    <tag k="name" v="Vannam Drive"/>
  </way>
  <way id="4749964" version="4" timestamp="2010-07-09T03:49:48Z" uid="74617" user="JohnSmith" changeset="5170838">
    <nd ref="30292646"/>
    <nd ref="30292692"/>
    <nd ref="30292649"/>
    <nd ref="30292687"/>
    <nd ref="30292674"/>
    <nd ref="30292651"/>
    <nd ref="30292647"/>
    <tag k="highway" v="residential"/>
    <tag k="maxspeed" v="50"/>
    <tag k="maxspeed:source" v="default residential speed limit in Australia"/>
    <tag k="name" v="Parkhill Drive"/>
  </way>
  <way id="4749967" version="4" timestamp="2010-07-09T03:49:03Z" uid="74617" user="JohnSmith" changeset="5170838">
    <nd ref="30292651"/>
    <nd ref="30292663"/>
    <nd ref="30292660"/>
    <nd ref="30292652"/>
    <nd ref="30292653"/>
    <nd ref="30292654"/>
    <tag k="highway" v="residential"/>
    <tag k="maxspeed" v="50"/>
    <tag k="maxspeed:source" v="default residential speed limit in Australia"/>
    <tag k="name" v="Raymond Street"/>
  </way>
  <way id="4749970" version="3" timestamp="2010-07-09T03:49:41Z" uid="74617" user="JohnSmith" changeset="5170838">
    <nd ref="30292657"/>
    <nd ref="30292658"/>
    <nd ref="30292659"/>
    <tag k="highway" v="residential"/>
    <tag k="maxspeed" v="50"/>
    <tag k="maxspeed:source" v="default residential speed limit in Australia"/>
    <tag k="name" v="Sylvan Crescent"/>
  </way>
  <way id="4749974" version="3" timestamp="2010-07-09T03:49:09Z" uid="74617" user="JohnSmith" changeset="5170838">
    <nd ref="30292667"/>
    <nd ref="30292647"/>
    <nd ref="30292668"/>
    <tag k="highway" v="residential"/>
    <tag k="maxspeed" v="50"/>
    <tag k="maxspeed:source" v="default residential speed limit in Australia"/>
    <tag k="name" v="Moore Street"/>
  </way>
  <way id="4749975" version="4" timestamp="2010-07-09T03:49:22Z" uid="74617" user="JohnSmith" changeset="5170838">
    <nd ref="30292669"/>
    <nd ref="30292670"/>
    <nd ref="662839288"/>
    <nd ref="30292673"/>
    <nd ref="30292671"/>
    <nd ref="30292672"/>
    <nd ref="30292674"/>
    <tag k="highway" v="residential"/>
    <tag k="maxspeed" v="50"/>
    <tag k="maxspeed:source" v="default residential speed limit in Australia"/>
    <tag k="name" v="Boston Street"/>
  </way>
  <way id="4749976" version="4" timestamp="2010-07-09T03:49:34Z" uid="74617" user="JohnSmith" changeset="5170838">
    <nd ref="30292673"/>
    <nd ref="30292675"/>
    <nd ref="30292676"/>
    <tag k="highway" v="residential"/>
    <tag k="maxspeed" v="50"/>
    <tag k="maxspeed:source" v="default residential speed limit in Australia"/>
    <tag k="name" v="Newbury Court"/>
  </way>
  <way id="4749978" version="5" timestamp="2010-07-09T03:50:00Z" uid="74617" user="JohnSmith" changeset="5170838">
    <nd ref="30292678"/>
    <nd ref="30292679"/>
    <tag k="highway" v="residential"/>
    <tag k="maxspeed" v="50"/>
    <tag k="maxspeed:source" v="default residential speed limit in Australia"/>
    <tag k="name" v="Hume Court"/>
  </way>
  <way id="4749980" version="4" timestamp="2010-07-09T03:49:02Z" uid="74617" user="JohnSmith" changeset="5170838">
    <nd ref="30292680"/>
    <nd ref="662839027"/>
    <nd ref="30292692"/>
    <tag k="highway" v="residential"/>
    <tag k="maxspeed" v="50"/>
    <tag k="maxspeed:source" v="default residential speed limit in Australia"/>
    <tag k="name" v="Yertchuk Avenue"/>
  </way>
  <way id="4749981" version="4" timestamp="2010-07-09T03:49:15Z" uid="74617" user="JohnSmith" changeset="5170838">
    <nd ref="30292677"/>
    <nd ref="30292682"/>
    <tag k="highway" v="residential"/>
    <tag k="maxspeed" v="50"/>
    <tag k="maxspeed:source" v="default residential speed limit in Australia"/>
    <tag k="name" v="Kiewa Street"/>
  </way>
  <way id="4749982" version="4" timestamp="2010-07-09T03:49:28Z" uid="74617" user="JohnSmith" changeset="5170838">
    <nd ref="30292689"/>
    <nd ref="30292672"/>
    <nd ref="30292682"/>
    <nd ref="30292667"/>
    <nd ref="30292666"/>
    <tag k="highway" v="residential"/>
    <tag k="maxspeed" v="50"/>
    <tag k="maxspeed:source" v="default residential speed limit in Australia"/>
    <tag k="name" v="Eildon Road"/>
  </way>
  <way id="4749983" version="4" timestamp="2010-07-09T03:49:40Z" uid="74617" user="JohnSmith" changeset="5170838">
    <nd ref="30292663"/>
    <nd ref="30292668"/>
    <nd ref="30292664"/>
    <tag k="highway" v="residential"/>
    <tag k="maxspeed" v="50"/>
    <tag k="maxspeed:source" v="default residential speed limit in Australia"/>
    <tag k="name" v="Rocklands Road"/>
  </way>
  <way id="4749984" version="3" timestamp="2010-07-09T03:49:54Z" uid="74617" user="JohnSmith" changeset="5170838">
    <nd ref="30292660"/>
    <nd ref="30292662"/>
    <tag k="highway" v="residential"/>
    <tag k="maxspeed" v="50"/>
    <tag k="maxspeed:source" v="default residential speed limit in Australia"/>
    <tag k="name" v="Maroondah Road"/>
  </way>
  <way id="4749986" version="5" timestamp="2010-07-09T03:50:19Z" uid="74617" user="JohnSmith" changeset="5170838">
    <nd ref="30292653"/>
    <nd ref="30292657"/>
    <nd ref="30292656"/>
    <tag k="highway" v="residential"/>
    <tag k="maxspeed" v="50"/>
    <tag k="maxspeed:source" v="default residential speed limit in Australia"/>
    <tag k="name" v="Leonard Street"/>
  </way>
  <way id="4749989" version="4" timestamp="2010-07-09T03:49:34Z" uid="74617" user="JohnSmith" changeset="5170838">
    <nd ref="30292644"/>
    <nd ref="30292646"/>
    <nd ref="30292641"/>
    <tag k="highway" v="residential"/>
    <tag k="maxspeed" v="50"/>
    <tag k="maxspeed:source" v="default residential speed limit in Australia"/>
    <tag k="name" v="Mountain Ash Avenue"/>
  </way>
  <way id="4749990" version="4" timestamp="2010-07-09T03:49:46Z" uid="74617" user="JohnSmith" changeset="5170838">
    <nd ref="30292642"/>
    <nd ref="30292643"/>
    <tag k="highway" v="residential"/>
    <tag k="maxspeed" v="50"/>
    <tag k="maxspeed:source" v="default residential speed limit in Australia"/>
    <tag k="name" v="Silver Ash Avenue"/>
  </way>
  <way id="4749992" version="7" timestamp="2010-07-09T03:50:12Z" uid="74617" user="JohnSmith" changeset="5170838">
    <nd ref="30292636"/>
    <nd ref="30292478"/>
    <nd ref="30292487"/>
    <nd ref="662810823"/>
    <nd ref="30292637"/>
    <nd ref="662810824"/>
    <nd ref="30292638"/>
    <nd ref="662839355"/>
    <nd ref="30292640"/>
    <nd ref="662839356"/>
    <nd ref="36589059"/>
    <nd ref="662841016"/>
    <nd ref="807484753"/>
    <nd ref="36588842"/>
    <nd ref="30288371"/>
    <tag k="highway" v="residential"/>
    <tag k="maxspeed" v="50"/>
    <tag k="maxspeed:source" v="default residential speed limit in Australia"/>
    <tag k="name" v="Vannam Drive"/>
  </way>
  <way id="4749993" version="4" timestamp="2010-07-09T03:49:02Z" uid="74617" user="JohnSmith" changeset="5170838">
    <nd ref="30292694"/>
    <nd ref="30292695"/>
    <nd ref="30292636"/>
    <nd ref="30292502"/>
    <tag k="highway" v="residential"/>
    <tag k="maxspeed" v="50"/>
    <tag k="maxspeed:source" v="default residential speed limit in Australia"/>
    <tag k="name" v="Kanooka Avenue"/>
  </way>
  <way id="4749994" version="8" timestamp="2010-07-09T03:49:15Z" uid="74617" user="JohnSmith" changeset="5170838">
    <nd ref="30292485"/>
    <nd ref="30292471"/>
    <nd ref="30292501"/>
    <nd ref="248219374"/>
    <nd ref="662810912"/>
    <nd ref="30292696"/>
    <nd ref="662810956"/>
    <nd ref="30292497"/>
    <nd ref="662839369"/>
    <nd ref="30292694"/>
    <nd ref="30292698"/>
    <nd ref="248219372"/>
    <nd ref="30292486"/>
    <nd ref="30292699"/>
    <nd ref="662810958"/>
    <nd ref="30292700"/>
    <nd ref="256011154"/>
    <nd ref="662810959"/>
    <nd ref="30292637"/>
    <tag k="highway" v="residential"/>
    <tag k="maxspeed" v="50"/>
    <tag k="maxspeed:source" v="default residential speed limit in Australia"/>
    <tag k="name" v="Ashwood Drive"/>
  </way>
  <way id="4749995" version="4" timestamp="2010-07-09T03:49:28Z" uid="74617" user="JohnSmith" changeset="5170838">
    <nd ref="30292483"/>
    <nd ref="30292701"/>
    <tag k="highway" v="residential"/>
    <tag k="maxspeed" v="50"/>
    <tag k="maxspeed:source" v="default residential speed limit in Australia"/>
    <tag k="name" v="Keogh Street"/>
  </way>
  <way id="4749995" version="5" timestamp="2011-02-14T02:08:17Z" uid="4467" user="Rosscoe" changeset="7282472">
    <nd ref="1152156220"/>
    <nd ref="30292701"/>
    <tag k="highway" v="residential"/>
    <tag k="maxspeed" v="50"/>
    <tag k="maxspeed:source" v="default residential speed limit in Australia"/>
    <tag k="name" v="Keogh Street"/>
  </way>
  <way id="4749996" version="4" timestamp="2010-07-09T03:49:40Z" uid="74617" user="JohnSmith" changeset="5170838">
    <nd ref="30292481"/>
    <nd ref="30292482"/>
    <tag k="highway" v="residential"/>
    <tag k="maxspeed" v="50"/>
    <tag k="maxspeed:source" v="default residential speed limit in Australia"/>
    <tag k="name" v="Stephens Street"/>
  </way>
  <way id="4749996" version="5" timestamp="2011-02-14T02:07:46Z" uid="4467" user="Rosscoe" changeset="7282472">
    <nd ref="1152156257"/>
    <nd ref="30292482"/>
    <tag k="highway" v="residential"/>
    <tag k="maxspeed" v="50"/>
    <tag k="maxspeed:source" v="default residential speed limit in Australia"/>
    <tag k="name" v="Stephens Street"/>
  </way>
</osm>
