<?xml version='1.0' encoding='UTF-8'?>
<osm version="0.6" generator="libosmium/2.20.0">
  <way id="47500009" version="1" timestamp="2010-01-04T17:35:12Z" uid="110593" user="esetzer" changeset="3538988">
    <nd ref="604763646"/>
    <nd ref="604763675"/>
    <nd ref="604763694"/>
    <nd ref="604763738"/>
    <nd ref="604763646"/>
    <tag k="building" v="train_station"/>
    <tag k="created_by" v="Merkaartor 0.11"/>
    <tag k="name" v="Amtrak Salt Lake City Station Building"/>
    <tag k="operator" v="Amtrak"/>
  </way>
  <way id="47500009" version="2" timestamp="2010-01-04T19:45:22Z" uid="110593" user="esetzer" changeset="3540189">
    <nd ref="604763646"/>
    <nd ref="604763675"/>
    <nd ref="604976883"/>
    <nd ref="604763694"/>
    <nd ref="604763738"/>
    <nd ref="604763646"/>
    <tag k="building" v="train_station"/>
    <tag k="created_by" v="Merkaartor 0.11"/>
    <tag k="name" v="Amtrak Salt Lake City Station Building"/>
    <tag k="operator" v="Amtrak"/>
  </way>
  <way id="47500520" version="1" timestamp="2010-01-04T17:40:37Z" uid="110593" user="esetzer" changeset="3539026">
    <nd ref="391656236"/>
    <nd ref="604779056"/>
    <nd ref="604778993"/>
    <tag k="created_by" v="Merkaartor 0.11"/>
    <tag k="highway" v="footway"/>
  </way>
</osm>
