<?xml version='1.0' encoding='UTF-8'?>
<osm version="0.6" generator="libosmium/2.20.0">
  <way id="47577016" version="2" timestamp="2010-07-25T06:59:28Z" uid="4467" user="Rosscoe" changeset="5309221">
    <nd ref="605319292"/>
    <nd ref="605319266"/>
    <tag k="bridge" v="yes"/>
    <tag k="highway" v="unclassified"/>
    <tag k="layer" v="1"/>
    <tag k="name" v="Docker Carboor Road"/>
    <tag k="source" v="survey"/>
    <tag k="surface" v="paved"/>
  </way>
  <way id="47577017" version="2" timestamp="2010-07-25T06:59:30Z" uid="4467" user="Rosscoe" changeset="5309221">
    <nd ref="605319260"/>
    <nd ref="605319302"/>
    <tag k="bridge" v="yes"/>
    <tag k="highway" v="unclassified"/>
    <tag k="layer" v="1"/>
    <tag k="name" v="Docker Carboor Road"/>
    <tag k="source" v="survey"/>
    <tag k="surface" v="paved"/>
  </way>
  <way id="47577021" version="2" timestamp="2010-07-25T06:59:32Z" uid="4467" user="Rosscoe" changeset="5309221">
    <nd ref="605319369"/>
    <nd ref="605319373"/>
    <tag k="bridge" v="yes"/>
    <tag k="highway" v="unclassified"/>
    <tag k="lanes" v="1"/>
    <tag k="layer" v="1"/>
    <tag k="name" v="Docker Carboor Road"/>
    <tag k="source" v="survey"/>
    <tag k="surface" v="paved"/>
  </way>
  <way id="47577025" version="2" timestamp="2010-07-25T06:59:33Z" uid="4467" user="Rosscoe" changeset="5309221">
    <nd ref="605319392"/>
    <nd ref="605319241"/>
    <tag k="bridge" v="yes"/>
    <tag k="highway" v="unclassified"/>
    <tag k="layer" v="1"/>
    <tag k="name" v="Docker Carboor Road"/>
    <tag k="source" v="survey"/>
    <tag k="surface" v="paved"/>
  </way>
  <way id="47577140" version="3" timestamp="2011-01-20T14:50:56Z" uid="115477" user="wowik" changeset="7031231">
    <nd ref="605324286"/>
    <nd ref="605324157"/>
    <nd ref="605324150"/>
    <nd ref="605324149"/>
    <nd ref="605324286"/>
    <tag k="building" v="yes"/>
  </way>
  <way id="47577140" version="4" timestamp="2011-01-21T10:52:15Z" uid="115477" user="wowik" changeset="7039013">
    <nd ref="605324286"/>
    <nd ref="605324157"/>
    <nd ref="605324150"/>
    <nd ref="605324149"/>
    <nd ref="605324286"/>
    <tag k="building" v="yes"/>
    <tag k="building:use" v="residential"/>
  </way>
  <way id="47577141" version="3" timestamp="2011-01-21T10:52:17Z" uid="115477" user="wowik" changeset="7039013">
    <nd ref="605324298"/>
    <nd ref="605324292"/>
    <nd ref="605324294"/>
    <nd ref="605324296"/>
    <nd ref="605324291"/>
    <nd ref="605324298"/>
    <tag k="addr:city" v="Зеленоград"/>
    <tag k="addr:housenumber" v="2024"/>
    <tag k="addr:street" v="20-й Микрорайон"/>
    <tag k="building" v="yes"/>
    <tag k="building:use" v="residential"/>
    <tag k="is_in" v="Russia"/>
  </way>
  <way id="47577142" version="4" timestamp="2011-01-20T14:51:50Z" uid="115477" user="wowik" changeset="7031231">
    <nd ref="605324059"/>
    <nd ref="605324061"/>
    <nd ref="605324058"/>
    <nd ref="605324065"/>
    <nd ref="1111692872"/>
    <nd ref="1111692902"/>
    <nd ref="605324063"/>
    <nd ref="605324059"/>
    <tag k="building" v="yes"/>
  </way>
  <way id="47577142" version="5" timestamp="2011-01-21T10:52:19Z" uid="115477" user="wowik" changeset="7039013">
    <nd ref="605324059"/>
    <nd ref="605324061"/>
    <nd ref="605324058"/>
    <nd ref="605324065"/>
    <nd ref="1111692872"/>
    <nd ref="1111692902"/>
    <nd ref="605324063"/>
    <nd ref="605324059"/>
    <tag k="building" v="yes"/>
    <tag k="building:use" v="residential"/>
  </way>
  <way id="47577144" version="3" timestamp="2011-01-20T14:50:59Z" uid="115477" user="wowik" changeset="7031231">
    <nd ref="605324068"/>
    <nd ref="605324072"/>
    <nd ref="605324079"/>
    <nd ref="1111692736"/>
    <nd ref="605324070"/>
    <nd ref="605324068"/>
    <tag k="building" v="yes"/>
  </way>
  <way id="47577144" version="4" timestamp="2011-01-21T10:52:16Z" uid="115477" user="wowik" changeset="7039013">
    <nd ref="605324068"/>
    <nd ref="605324072"/>
    <nd ref="605324079"/>
    <nd ref="1111692736"/>
    <nd ref="605324070"/>
    <nd ref="605324068"/>
    <tag k="building" v="yes"/>
    <tag k="building:use" v="residential"/>
  </way>
  <way id="47577145" version="4" timestamp="2011-01-20T14:51:19Z" uid="115477" user="wowik" changeset="7031231">
    <nd ref="605324036"/>
    <nd ref="605324030"/>
    <nd ref="605324032"/>
    <nd ref="605324042"/>
    <nd ref="605324050"/>
    <nd ref="605324036"/>
    <tag k="addr:city" v="Зеленоград"/>
    <tag k="addr:housenumber" v="2014"/>
    <tag k="addr:street" v="20-й Микрорайон"/>
    <tag k="building" v="yes"/>
    <tag k="is_in" v="Russia"/>
  </way>
  <way id="47577145" version="5" timestamp="2011-01-21T10:52:18Z" uid="115477" user="wowik" changeset="7039013">
    <nd ref="605324036"/>
    <nd ref="605324030"/>
    <nd ref="605324032"/>
    <nd ref="605324042"/>
    <nd ref="605324050"/>
    <nd ref="605324036"/>
    <tag k="addr:city" v="Зеленоград"/>
    <tag k="addr:housenumber" v="2014"/>
    <tag k="addr:street" v="20-й Микрорайон"/>
    <tag k="building" v="yes"/>
    <tag k="building:use" v="residential"/>
    <tag k="is_in" v="Russia"/>
  </way>
  <way id="47577146" version="2" timestamp="2011-01-21T10:52:14Z" uid="115477" user="wowik" changeset="7039013">
    <nd ref="605324081"/>
    <nd ref="605324085"/>
    <nd ref="605324094"/>
    <nd ref="605324097"/>
    <nd ref="605324081"/>
    <tag k="addr:city" v="Зеленоград"/>
    <tag k="addr:housenumber" v="2018"/>
    <tag k="addr:street" v="20-й Микрорайон"/>
    <tag k="building" v="yes"/>
    <tag k="building:use" v="residential"/>
    <tag k="is_in" v="Russia"/>
  </way>
  <way id="47577147" version="4" timestamp="2011-01-20T14:51:10Z" uid="115477" user="wowik" changeset="7031231">
    <nd ref="605324099"/>
    <nd ref="1111692666"/>
    <nd ref="1111693082"/>
    <nd ref="1111692705"/>
    <nd ref="1111692734"/>
    <nd ref="1111692776"/>
    <nd ref="605324053"/>
    <nd ref="1111692940"/>
    <nd ref="1111692846"/>
    <nd ref="605324051"/>
    <nd ref="1111693040"/>
    <nd ref="1111692964"/>
    <nd ref="1111693004"/>
    <nd ref="605324100"/>
    <nd ref="605324099"/>
    <tag k="addr:city" v="Зеленоград"/>
    <tag k="addr:housenumber" v="2015"/>
    <tag k="addr:street" v="20-й Микрорайон"/>
    <tag k="is_in" v="Russia"/>
    <tag k="landuse" v="construction"/>
    <tag k="name" v="Детский сад №2632"/>
  </way>
  <way id="47577147" version="5" timestamp="2011-01-20T19:13:41Z" uid="115477" user="wowik" changeset="7033529">
    <nd ref="605324099"/>
    <nd ref="1111692666"/>
    <nd ref="1111693082"/>
    <nd ref="1111692705"/>
    <nd ref="1111692734"/>
    <nd ref="1111692776"/>
    <nd ref="605324053"/>
    <nd ref="1111692940"/>
    <nd ref="1111692846"/>
    <nd ref="605324051"/>
    <nd ref="1111693040"/>
    <nd ref="1111692964"/>
    <nd ref="1111693004"/>
    <nd ref="605324100"/>
    <nd ref="605324099"/>
    <tag k="addr:city" v="Зеленоград"/>
    <tag k="addr:housenumber" v="2015"/>
    <tag k="addr:street" v="20-й Микрорайон"/>
    <tag k="amenity" v="kindergarten"/>
    <tag k="building" v="yes"/>
    <tag k="is_in" v="Russia"/>
    <tag k="name" v="Детский сад №2632"/>
  </way>
  <way id="47577148" version="4" timestamp="2011-01-12T17:41:57Z" uid="115477" user="wowik" changeset="6949472">
    <nd ref="605324112"/>
    <nd ref="605324109"/>
    <nd ref="1100345062"/>
    <nd ref="605324111"/>
    <nd ref="605324114"/>
    <nd ref="1100344973"/>
    <nd ref="605324112"/>
    <tag k="building" v="yes"/>
  </way>
  <way id="47577148" version="5" timestamp="2011-01-20T14:51:13Z" uid="115477" user="wowik" changeset="7031231">
    <nd ref="605324112"/>
    <nd ref="605324109"/>
    <nd ref="1100345062"/>
    <nd ref="605324111"/>
    <nd ref="1111692708"/>
    <nd ref="1111692610"/>
    <nd ref="605324114"/>
    <nd ref="1100344973"/>
    <nd ref="605324112"/>
    <tag k="building" v="yes"/>
  </way>
  <way id="47577148" version="6" timestamp="2011-01-21T10:52:17Z" uid="115477" user="wowik" changeset="7039013">
    <nd ref="605324112"/>
    <nd ref="605324109"/>
    <nd ref="1100345062"/>
    <nd ref="605324111"/>
    <nd ref="1111692708"/>
    <nd ref="1111692610"/>
    <nd ref="605324114"/>
    <nd ref="1100344973"/>
    <nd ref="605324112"/>
    <tag k="building" v="yes"/>
    <tag k="building:use" v="residential"/>
  </way>
  <way id="47577149" version="3" timestamp="2011-01-20T19:14:51Z" uid="115477" user="wowik" changeset="7033529">
    <nd ref="605324170"/>
    <nd ref="605324131"/>
    <nd ref="605324121"/>
    <nd ref="605324158"/>
    <nd ref="605324170"/>
    <tag k="addr:city" v="Зеленоград"/>
    <tag k="addr:housenumber" v="2001А"/>
    <tag k="addr:street" v="20-й Микрорайон"/>
    <tag k="building" v="yes"/>
    <tag k="description" v="Строящееся здание / building under construction"/>
    <tag k="is_in" v="Russia"/>
    <tag k="landuse" v="construction"/>
    <tag k="note" v="addr:housenumber не точен"/>
  </way>
  <way id="47577149" version="4" timestamp="2011-01-25T17:56:40Z" uid="115477" user="wowik" changeset="7085953">
    <nd ref="605324170"/>
    <nd ref="605324131"/>
    <nd ref="605324121"/>
    <nd ref="605324158"/>
    <nd ref="605324170"/>
    <tag k="addr:city" v="Зеленоград"/>
    <tag k="addr:housenumber" v="2011А"/>
    <tag k="addr:street" v="20-й Микрорайон"/>
    <tag k="building" v="yes"/>
    <tag k="is_in" v="Russia"/>
    <tag k="note" v="addr:housenumber не точен"/>
  </way>
  <way id="47577150" version="3" timestamp="2011-01-20T14:51:05Z" uid="115477" user="wowik" changeset="7031231">
    <nd ref="605324168"/>
    <nd ref="605324133"/>
    <nd ref="605324120"/>
    <nd ref="605324147"/>
    <nd ref="605324168"/>
    <tag k="building" v="yes"/>
  </way>
  <way id="47577150" version="4" timestamp="2011-01-21T10:52:16Z" uid="115477" user="wowik" changeset="7039013">
    <nd ref="605324168"/>
    <nd ref="605324133"/>
    <nd ref="605324120"/>
    <nd ref="605324147"/>
    <nd ref="605324168"/>
    <tag k="building" v="yes"/>
    <tag k="building:use" v="residential"/>
  </way>
  <way id="47577151" version="3" timestamp="2011-01-20T14:51:26Z" uid="115477" user="wowik" changeset="7031231">
    <nd ref="605324118"/>
    <nd ref="605324119"/>
    <nd ref="1111693084"/>
    <nd ref="1111692667"/>
    <nd ref="1111692809"/>
    <nd ref="1111692743"/>
    <nd ref="605324173"/>
    <nd ref="605324172"/>
    <nd ref="1111692967"/>
    <nd ref="1111692888"/>
    <nd ref="1111693044"/>
    <nd ref="1111692607"/>
    <nd ref="605324118"/>
    <tag k="addr:city" v="Зеленоград"/>
    <tag k="addr:housenumber" v="2009"/>
    <tag k="addr:street" v="20-й Микрорайон"/>
    <tag k="amenity" v="kindergarten"/>
    <tag k="building" v="yes"/>
    <tag k="is_in" v="Russia"/>
    <tag k="name" v="Детский сад №2632"/>
  </way>
  <way id="47577152" version="4" timestamp="2011-01-20T14:50:51Z" uid="115477" user="wowik" changeset="7031231">
    <nd ref="605324128"/>
    <nd ref="1111692596"/>
    <nd ref="1111692655"/>
    <nd ref="1111692723"/>
    <nd ref="1111692689"/>
    <nd ref="605324130"/>
    <nd ref="1111692991"/>
    <nd ref="1111692918"/>
    <nd ref="605324139"/>
    <nd ref="605324125"/>
    <nd ref="605324123"/>
    <nd ref="605324140"/>
    <nd ref="1111692764"/>
    <nd ref="1111692839"/>
    <nd ref="605324137"/>
    <nd ref="1111692646"/>
    <nd ref="1111692804"/>
    <nd ref="1111692719"/>
    <nd ref="1111693059"/>
    <nd ref="605324135"/>
    <nd ref="1111693031"/>
    <nd ref="1111693106"/>
    <nd ref="605324138"/>
    <nd ref="605324143"/>
    <nd ref="605324145"/>
    <nd ref="605324141"/>
    <nd ref="1111693035"/>
    <nd ref="1111692960"/>
    <nd ref="605324128"/>
    <tag k="addr:city" v="Зеленоград"/>
    <tag k="addr:housenumber" v="2011"/>
    <tag k="addr:street" v="20-й Микрорайон"/>
    <tag k="amenity" v="school"/>
    <tag k="building" v="yes"/>
    <tag k="is_in" v="Russia"/>
    <tag k="name" v="Школа №2038"/>
  </way>
  <way id="47577153" version="3" timestamp="2011-01-20T14:51:09Z" uid="115477" user="wowik" changeset="7031231">
    <nd ref="605324181"/>
    <nd ref="1111693018"/>
    <nd ref="1111693088"/>
    <nd ref="1111693057"/>
    <nd ref="1111692685"/>
    <nd ref="1111692759"/>
    <nd ref="605324190"/>
    <nd ref="605324178"/>
    <nd ref="605324183"/>
    <nd ref="605324181"/>
    <tag k="addr:city" v="Зеленоград"/>
    <tag k="addr:housenumber" v="2034"/>
    <tag k="addr:street" v="20-й Микрорайон"/>
    <tag k="building" v="yes"/>
    <tag k="is_in" v="Russia"/>
  </way>
  <way id="47577153" version="4" timestamp="2011-01-21T10:52:17Z" uid="115477" user="wowik" changeset="7039013">
    <nd ref="605324181"/>
    <nd ref="1111693018"/>
    <nd ref="1111693088"/>
    <nd ref="1111693057"/>
    <nd ref="1111692685"/>
    <nd ref="1111692759"/>
    <nd ref="605324190"/>
    <nd ref="605324178"/>
    <nd ref="605324183"/>
    <nd ref="605324181"/>
    <tag k="addr:city" v="Зеленоград"/>
    <tag k="addr:housenumber" v="2034"/>
    <tag k="addr:street" v="20-й Микрорайон"/>
    <tag k="building" v="yes"/>
    <tag k="building:use" v="residential"/>
    <tag k="is_in" v="Russia"/>
  </way>
  <way id="47577154" version="3" timestamp="2011-01-21T10:52:19Z" uid="115477" user="wowik" changeset="7039013">
    <nd ref="605324248"/>
    <nd ref="605324246"/>
    <nd ref="605324196"/>
    <nd ref="605324198"/>
    <nd ref="605324243"/>
    <nd ref="605324248"/>
    <tag k="addr:city" v="Зеленоград"/>
    <tag k="addr:housenumber" v="2028"/>
    <tag k="addr:street" v="20-й Микрорайон"/>
    <tag k="building" v="yes"/>
    <tag k="building:use" v="residential"/>
    <tag k="is_in" v="Russia"/>
  </way>
  <way id="47577156" version="2" timestamp="2010-11-13T11:20:59Z" uid="115477" user="wowik" changeset="6356871">
    <nd ref="605324191"/>
    <nd ref="605324184"/>
    <nd ref="605324176"/>
    <nd ref="605324186"/>
    <nd ref="605324191"/>
    <tag k="addr:city" v="Зеленоград"/>
    <tag k="addr:housenumber" v="2045"/>
    <tag k="addr:street" v="20-й Микрорайон"/>
    <tag k="building" v="yes"/>
    <tag k="description" v="ФОК &quot;Ледовый&quot;"/>
    <tag k="is_in" v="Russia"/>
    <tag k="leisure" v="sports_centre"/>
    <tag k="name" v="ФОК"/>
  </way>
  <way id="47577157" version="3" timestamp="2011-01-17T15:14:18Z" uid="115477" user="wowik" changeset="7000395">
    <nd ref="605324249"/>
    <nd ref="605324240"/>
    <nd ref="605324228"/>
    <nd ref="1107649087"/>
    <nd ref="1107648929"/>
    <nd ref="1107649040"/>
    <nd ref="1107649009"/>
    <nd ref="1107649143"/>
    <nd ref="1107649058"/>
    <nd ref="1107648901"/>
    <nd ref="1107649124"/>
    <nd ref="605324231"/>
    <nd ref="605324226"/>
    <nd ref="605324262"/>
    <nd ref="605324233"/>
    <nd ref="605324230"/>
    <nd ref="605324238"/>
    <nd ref="1107648966"/>
    <nd ref="1107648911"/>
    <nd ref="1107648960"/>
    <nd ref="1107649107"/>
    <nd ref="1107649065"/>
    <nd ref="1107649028"/>
    <nd ref="1107649010"/>
    <nd ref="1107648885"/>
    <nd ref="605324236"/>
    <nd ref="605324235"/>
    <nd ref="605324227"/>
    <nd ref="605324249"/>
    <tag k="addr:city" v="Зеленоград"/>
    <tag k="addr:housenumber" v="2030"/>
    <tag k="addr:street" v="20-й Микрорайон"/>
    <tag k="amenity" v="kindergarten"/>
    <tag k="building" v="yes"/>
    <tag k="is_in" v="Russia"/>
    <tag k="name" v="Детский сад №2654"/>
  </way>
  <way id="47577158" version="4" timestamp="2011-01-20T14:50:59Z" uid="115477" user="wowik" changeset="7031231">
    <nd ref="605324267"/>
    <nd ref="605324268"/>
    <nd ref="605324192"/>
    <nd ref="605324224"/>
    <nd ref="1111692897"/>
    <nd ref="605324267"/>
    <tag k="addr:city" v="Зеленоград"/>
    <tag k="addr:housenumber" v="2033"/>
    <tag k="addr:street" v="20-й Микрорайон"/>
    <tag k="building" v="yes"/>
    <tag k="is_in" v="Russia"/>
  </way>
  <way id="47577158" version="5" timestamp="2011-01-21T10:52:15Z" uid="115477" user="wowik" changeset="7039013">
    <nd ref="605324267"/>
    <nd ref="605324268"/>
    <nd ref="605324192"/>
    <nd ref="605324224"/>
    <nd ref="1111692897"/>
    <nd ref="605324267"/>
    <tag k="addr:city" v="Зеленоград"/>
    <tag k="addr:housenumber" v="2033"/>
    <tag k="addr:street" v="20-й Микрорайон"/>
    <tag k="building" v="yes"/>
    <tag k="building:use" v="residential"/>
    <tag k="is_in" v="Russia"/>
  </way>
  <way id="47577159" version="3" timestamp="2011-01-21T10:52:18Z" uid="115477" user="wowik" changeset="7039013">
    <nd ref="605324256"/>
    <nd ref="605324260"/>
    <nd ref="605324258"/>
    <nd ref="605324252"/>
    <nd ref="605324256"/>
    <tag k="building" v="yes"/>
    <tag k="building:use" v="residential"/>
  </way>
  <way id="47577160" version="3" timestamp="2011-01-20T14:51:07Z" uid="115477" user="wowik" changeset="7031231">
    <nd ref="605324279"/>
    <nd ref="605324280"/>
    <nd ref="605324283"/>
    <nd ref="605324285"/>
    <nd ref="605324271"/>
    <nd ref="605324279"/>
    <tag k="addr:city" v="Зеленоград"/>
    <tag k="addr:housenumber" v="2003"/>
    <tag k="addr:street" v="20-й Микрорайон"/>
    <tag k="building" v="yes"/>
    <tag k="is_in" v="Russia"/>
  </way>
  <way id="47577160" version="4" timestamp="2011-01-21T10:52:17Z" uid="115477" user="wowik" changeset="7039013">
    <nd ref="605324279"/>
    <nd ref="605324280"/>
    <nd ref="605324283"/>
    <nd ref="605324285"/>
    <nd ref="605324271"/>
    <nd ref="605324279"/>
    <tag k="addr:city" v="Зеленоград"/>
    <tag k="addr:housenumber" v="2003"/>
    <tag k="addr:street" v="20-й Микрорайон"/>
    <tag k="building" v="yes"/>
    <tag k="building:use" v="residential"/>
    <tag k="is_in" v="Russia"/>
  </way>
  <way id="47577161" version="2" timestamp="2011-01-20T14:51:35Z" uid="115477" user="wowik" changeset="7031231">
    <nd ref="605324302"/>
    <nd ref="605324303"/>
    <nd ref="605324299"/>
    <nd ref="605324304"/>
    <nd ref="605324301"/>
    <nd ref="605324309"/>
    <nd ref="605324308"/>
    <nd ref="605324306"/>
    <nd ref="1111692899"/>
    <nd ref="605324302"/>
    <tag k="addr:city" v="Зеленоград"/>
    <tag k="addr:street" v="20-й Микрорайон"/>
    <tag k="comment" v="Строящееся здание / building under construction"/>
    <tag k="is_in" v="Russia"/>
    <tag k="landuse" v="construction"/>
  </way>
  <way id="47577161" version="3" timestamp="2011-04-05T15:44:04Z" uid="115477" user="wowik" changeset="7775829">
    <nd ref="605324302"/>
    <nd ref="605324303"/>
    <nd ref="605324299"/>
    <nd ref="605324304"/>
    <nd ref="1233727607"/>
    <nd ref="605324301"/>
    <nd ref="605324309"/>
    <nd ref="605324308"/>
    <nd ref="605324306"/>
    <nd ref="1111692899"/>
    <nd ref="605324302"/>
    <tag k="addr:city" v="Зеленоград"/>
    <tag k="addr:street" v="20-й Микрорайон"/>
    <tag k="comment" v="Строящееся здание / building under construction"/>
    <tag k="is_in" v="Russia"/>
    <tag k="landuse" v="construction"/>
  </way>
  <way id="47577223" version="1" timestamp="2010-01-05T12:38:37Z" uid="9719" user="dvaey" changeset="3544921">
    <nd ref="605326060"/>
    <nd ref="605326065"/>
    <nd ref="605326066"/>
    <nd ref="605326067"/>
    <nd ref="605326070"/>
    <nd ref="605326074"/>
    <nd ref="605326078"/>
    <nd ref="605326079"/>
    <nd ref="605326080"/>
    <nd ref="605326060"/>
  </way>
  <way id="47577223" version="2" timestamp="2010-01-05T12:38:50Z" uid="9719" user="dvaey" changeset="3544921">
    <nd ref="605326060"/>
    <nd ref="605326065"/>
    <nd ref="605326066"/>
    <nd ref="605326067"/>
    <nd ref="605326070"/>
    <nd ref="605326074"/>
    <nd ref="605326078"/>
    <nd ref="605326079"/>
    <nd ref="605326080"/>
    <nd ref="605326060"/>
    <tag k="power" v="station"/>
  </way>
  <way id="47577382" version="2" timestamp="2010-07-25T06:59:35Z" uid="4467" user="Rosscoe" changeset="5309221">
    <nd ref="605333530"/>
    <nd ref="605333549"/>
    <tag k="bridge" v="yes"/>
    <tag k="highway" v="unclassified"/>
    <tag k="lanes" v="1"/>
    <tag k="layer" v="1"/>
    <tag k="name" v="Docker Carboor Road"/>
    <tag k="source" v="survey"/>
    <tag k="surface" v="paved"/>
  </way>
  <way id="47577400" version="1" timestamp="2010-01-05T12:46:52Z" uid="30201" user="rrankin" changeset="3544973">
    <nd ref="605335918"/>
    <nd ref="605335930"/>
    <nd ref="264846524"/>
    <nd ref="241532054"/>
    <nd ref="262969566"/>
    <nd ref="241532055"/>
    <nd ref="241532056"/>
    <nd ref="241532057"/>
    <nd ref="20147002"/>
    <tag k="highway" v="residential"/>
    <tag k="name" v="Subway Lane"/>
  </way>
  <way id="47577400" version="2" timestamp="2010-02-16T10:59:20Z" uid="7617" user="Franc" changeset="3891079">
    <nd ref="605335918"/>
    <nd ref="605335930"/>
    <nd ref="264846524"/>
    <nd ref="241532054"/>
    <nd ref="262969566"/>
    <nd ref="241532055"/>
    <nd ref="241532057"/>
    <nd ref="20147002"/>
    <tag k="highway" v="residential"/>
    <tag k="name" v="Subway Lane"/>
  </way>
  <way id="47577400" version="3" timestamp="2010-07-08T02:35:44Z" uid="74617" user="JohnSmith" changeset="5163091">
    <nd ref="605335918"/>
    <nd ref="605335930"/>
    <nd ref="264846524"/>
    <nd ref="241532054"/>
    <nd ref="262969566"/>
    <nd ref="241532055"/>
    <nd ref="241532057"/>
    <nd ref="20147002"/>
    <tag k="highway" v="residential"/>
    <tag k="maxspeed" v="50"/>
    <tag k="maxspeed:source" v="default residential speed limit in Australia"/>
    <tag k="name" v="Subway Lane"/>
  </way>
  <way id="47577401" version="1" timestamp="2010-01-05T12:46:53Z" uid="30201" user="rrankin" changeset="3544973">
    <nd ref="33094499"/>
    <nd ref="33094498"/>
    <nd ref="33094497"/>
    <nd ref="33094496"/>
    <nd ref="33094495"/>
    <nd ref="33094494"/>
    <nd ref="33094493"/>
    <nd ref="33094492"/>
    <nd ref="270044501"/>
    <nd ref="33094491"/>
    <tag k="highway" v="residential"/>
    <tag k="name" v="George Street"/>
  </way>
  <way id="47577401" version="2" timestamp="2010-07-08T00:59:41Z" uid="74617" user="JohnSmith" changeset="5162525">
    <nd ref="33094499"/>
    <nd ref="33094498"/>
    <nd ref="33094497"/>
    <nd ref="33094496"/>
    <nd ref="33094495"/>
    <nd ref="33094494"/>
    <nd ref="33094493"/>
    <nd ref="33094492"/>
    <nd ref="270044501"/>
    <nd ref="33094491"/>
    <tag k="highway" v="residential"/>
    <tag k="maxspeed" v="50"/>
    <tag k="maxspeed:source" v="default residential speed limit in Australia"/>
    <tag k="name" v="George Street"/>
  </way>
  <way id="47577402" version="1" timestamp="2010-01-05T12:46:53Z" uid="30201" user="rrankin" changeset="3544973">
    <nd ref="605335765"/>
    <nd ref="241527087"/>
    <nd ref="241526626"/>
    <nd ref="241500553"/>
    <nd ref="241499248"/>
    <tag k="highway" v="residential"/>
    <tag k="name" v="Albert Road"/>
  </way>
  <way id="47577402" version="2" timestamp="2010-02-15T13:38:35Z" uid="7617" user="Franc" changeset="3883208">
    <nd ref="605335765"/>
    <nd ref="241527087"/>
    <nd ref="241526626"/>
    <nd ref="241500553"/>
    <nd ref="639650676"/>
    <nd ref="639650677"/>
    <nd ref="639650579"/>
    <nd ref="241499248"/>
    <tag k="highway" v="residential"/>
    <tag k="name" v="Albert Road"/>
  </way>
  <way id="47577402" version="3" timestamp="2010-07-08T02:40:29Z" uid="74617" user="JohnSmith" changeset="5163091">
    <nd ref="605335765"/>
    <nd ref="241527087"/>
    <nd ref="241526626"/>
    <nd ref="241500553"/>
    <nd ref="639650676"/>
    <nd ref="639650677"/>
    <nd ref="639650579"/>
    <nd ref="241499248"/>
    <tag k="highway" v="residential"/>
    <tag k="maxspeed" v="50"/>
    <tag k="maxspeed:source" v="default residential speed limit in Australia"/>
    <tag k="name" v="Albert Road"/>
  </way>
  <way id="47577403" version="1" timestamp="2010-01-05T12:46:53Z" uid="30201" user="rrankin" changeset="3544973">
    <nd ref="605335930"/>
    <nd ref="605335929"/>
    <nd ref="241529997"/>
    <nd ref="241529998"/>
    <nd ref="262970302"/>
    <nd ref="241529999"/>
    <nd ref="241530000"/>
    <nd ref="241530001"/>
    <nd ref="241530002"/>
    <nd ref="241530003"/>
    <nd ref="241530004"/>
    <tag k="highway" v="residential"/>
    <tag k="name" v="Loftus Crescent"/>
  </way>
  <way id="47577403" version="2" timestamp="2010-07-08T02:33:21Z" uid="74617" user="JohnSmith" changeset="5163091">
    <nd ref="605335930"/>
    <nd ref="605335929"/>
    <nd ref="241529997"/>
    <nd ref="241529998"/>
    <nd ref="262970302"/>
    <nd ref="241529999"/>
    <nd ref="241530000"/>
    <nd ref="241530001"/>
    <nd ref="241530002"/>
    <nd ref="241530003"/>
    <nd ref="241530004"/>
    <tag k="highway" v="residential"/>
    <tag k="maxspeed" v="50"/>
    <tag k="maxspeed:source" v="default residential speed limit in Australia"/>
    <tag k="name" v="Loftus Crescent"/>
  </way>
  <way id="47577403" version="3" timestamp="2010-11-13T09:41:41Z" uid="7617" user="Franc" changeset="6356736">
    <nd ref="605335930"/>
    <nd ref="605335929"/>
    <nd ref="241529997"/>
    <nd ref="987448490"/>
    <nd ref="241529998"/>
    <nd ref="262970302"/>
    <nd ref="241529999"/>
    <nd ref="241530000"/>
    <nd ref="241530001"/>
    <nd ref="241530002"/>
    <nd ref="241530003"/>
    <nd ref="241530004"/>
    <tag k="highway" v="residential"/>
    <tag k="maxspeed" v="50"/>
    <tag k="maxspeed:source" v="default residential speed limit in Australia"/>
    <tag k="name" v="Loftus Crescent"/>
  </way>
  <way id="47577404" version="1" timestamp="2010-01-05T12:46:53Z" uid="30201" user="rrankin" changeset="3544973">
    <nd ref="241517455"/>
    <nd ref="605335627"/>
    <nd ref="267190588"/>
    <nd ref="605335685"/>
    <tag k="highway" v="residential"/>
    <tag k="lcn" v="yes"/>
    <tag k="name" v="Mackenzie Street"/>
  </way>
  <way id="47577404" version="2" timestamp="2010-07-08T02:34:03Z" uid="74617" user="JohnSmith" changeset="5163091">
    <nd ref="241517455"/>
    <nd ref="605335627"/>
    <nd ref="267190588"/>
    <nd ref="605335685"/>
    <tag k="highway" v="residential"/>
    <tag k="lcn" v="yes"/>
    <tag k="maxspeed" v="50"/>
    <tag k="maxspeed:source" v="default residential speed limit in Australia"/>
    <tag k="name" v="Mackenzie Street"/>
  </way>
  <way id="47577405" version="1" timestamp="2010-01-05T12:46:53Z" uid="30201" user="rrankin" changeset="3544973">
    <nd ref="241202324"/>
    <nd ref="241520195"/>
    <nd ref="241201495"/>
    <tag k="highway" v="residential"/>
    <tag k="name" v="Rochester Street"/>
  </way>
  <way id="47577405" version="2" timestamp="2010-07-08T02:36:17Z" uid="74617" user="JohnSmith" changeset="5163091">
    <nd ref="241202324"/>
    <nd ref="241520195"/>
    <nd ref="241201495"/>
    <tag k="highway" v="residential"/>
    <tag k="maxspeed" v="50"/>
    <tag k="maxspeed:source" v="default residential speed limit in Australia"/>
    <tag k="name" v="Rochester Street"/>
  </way>
  <way id="47577406" version="1" timestamp="2010-01-05T12:46:53Z" uid="30201" user="rrankin" changeset="3544973">
    <nd ref="605335599"/>
    <nd ref="12218606"/>
    <tag k="cycleway" v="lane"/>
    <tag k="highway" v="residential"/>
    <tag k="name" v="Mitchell Road"/>
    <tag k="rcn" v="yes"/>
    <tag k="rcn_ref" v="Cooks River Cycleway"/>
  </way>
  <way id="47577406" version="2" timestamp="2010-07-08T02:39:21Z" uid="74617" user="JohnSmith" changeset="5163091">
    <nd ref="605335599"/>
    <nd ref="12218606"/>
    <tag k="cycleway" v="lane"/>
    <tag k="highway" v="residential"/>
    <tag k="maxspeed" v="50"/>
    <tag k="maxspeed:source" v="default residential speed limit in Australia"/>
    <tag k="name" v="Mitchell Road"/>
    <tag k="rcn" v="yes"/>
    <tag k="rcn_ref" v="Cooks River Cycleway"/>
  </way>
  <way id="47577407" version="1" timestamp="2010-01-05T12:46:54Z" uid="30201" user="rrankin" changeset="3544973">
    <nd ref="605335604"/>
    <nd ref="26428486"/>
    <nd ref="605335606"/>
    <nd ref="605335599"/>
    <nd ref="605335608"/>
    <nd ref="605335610"/>
    <nd ref="605335612"/>
    <nd ref="605335602"/>
    <nd ref="605335604"/>
    <tag k="cycleway" v="lane"/>
    <tag k="highway" v="residential"/>
    <tag k="junction" v="roundabout"/>
    <tag k="rcn" v="yes"/>
    <tag k="rcn_ref" v="Cooks River Cycleway"/>
  </way>
  <way id="47577407" version="2" timestamp="2010-07-08T02:41:00Z" uid="74617" user="JohnSmith" changeset="5163091">
    <nd ref="605335604"/>
    <nd ref="26428486"/>
    <nd ref="605335606"/>
    <nd ref="605335599"/>
    <nd ref="605335608"/>
    <nd ref="605335610"/>
    <nd ref="605335612"/>
    <nd ref="605335602"/>
    <nd ref="605335604"/>
    <tag k="cycleway" v="lane"/>
    <tag k="highway" v="residential"/>
    <tag k="junction" v="roundabout"/>
    <tag k="maxspeed" v="50"/>
    <tag k="maxspeed:source" v="default residential speed limit in Australia"/>
    <tag k="rcn" v="yes"/>
    <tag k="rcn_ref" v="Cooks River Cycleway"/>
  </way>
  <way id="47577408" version="1" timestamp="2010-01-05T12:46:54Z" uid="30201" user="rrankin" changeset="3544973">
    <nd ref="605335617"/>
    <nd ref="241499247"/>
    <nd ref="267190063"/>
    <nd ref="241521615"/>
    <nd ref="241201498"/>
    <nd ref="241499248"/>
    <tag k="highway" v="residential"/>
    <tag k="lcn" v="yes"/>
    <tag k="name" v="Dickson Street"/>
  </way>
  <way id="47577408" version="2" timestamp="2010-07-08T02:35:54Z" uid="74617" user="JohnSmith" changeset="5163091">
    <nd ref="605335617"/>
    <nd ref="241499247"/>
    <nd ref="267190063"/>
    <nd ref="241521615"/>
    <nd ref="241201498"/>
    <nd ref="241499248"/>
    <tag k="highway" v="residential"/>
    <tag k="lcn" v="yes"/>
    <tag k="maxspeed" v="50"/>
    <tag k="maxspeed:source" v="default residential speed limit in Australia"/>
    <tag k="name" v="Dickson Street"/>
  </way>
  <way id="47577409" version="1" timestamp="2010-01-05T12:46:54Z" uid="30201" user="rrankin" changeset="3544973">
    <nd ref="605335615"/>
    <nd ref="605335628"/>
    <nd ref="605335623"/>
    <nd ref="605335617"/>
    <nd ref="605335625"/>
    <nd ref="241202219"/>
    <nd ref="605335620"/>
    <nd ref="605335622"/>
    <nd ref="241517455"/>
    <nd ref="605335615"/>
    <tag k="highway" v="residential"/>
    <tag k="junction" v="roundabout"/>
    <tag k="source" v="nearmap"/>
  </way>
  <way id="47577409" version="2" timestamp="2010-07-08T02:37:50Z" uid="74617" user="JohnSmith" changeset="5163091">
    <nd ref="605335615"/>
    <nd ref="605335628"/>
    <nd ref="605335623"/>
    <nd ref="605335617"/>
    <nd ref="605335625"/>
    <nd ref="241202219"/>
    <nd ref="605335620"/>
    <nd ref="605335622"/>
    <nd ref="241517455"/>
    <nd ref="605335615"/>
    <tag k="highway" v="residential"/>
    <tag k="junction" v="roundabout"/>
    <tag k="maxspeed" v="50"/>
    <tag k="maxspeed:source" v="default residential speed limit in Australia"/>
    <tag k="source" v="nearmap"/>
  </way>
  <way id="47577410" version="1" timestamp="2010-01-05T12:46:54Z" uid="30201" user="rrankin" changeset="3544973">
    <nd ref="605335748"/>
    <nd ref="605335727"/>
    <nd ref="605335729"/>
    <nd ref="605335731"/>
    <nd ref="605335733"/>
    <tag k="highway" v="footway"/>
    <tag k="source" v="nearmap"/>
    <tag k="surface" v="paved"/>
  </way>
  <way id="47577411" version="1" timestamp="2010-01-05T12:46:54Z" uid="30201" user="rrankin" changeset="3544973">
    <nd ref="605335634"/>
    <nd ref="605335636"/>
    <nd ref="605335671"/>
    <nd ref="605335673"/>
    <nd ref="605335634"/>
    <tag k="leisure" v="pitch"/>
    <tag k="sport" v="cricket_nets"/>
  </way>
  <way id="47577412" version="1" timestamp="2010-01-05T12:46:54Z" uid="30201" user="rrankin" changeset="3544973">
    <nd ref="605335638"/>
    <nd ref="241507031"/>
    <nd ref="241506871"/>
    <nd ref="241506100"/>
    <tag k="highway" v="residential"/>
    <tag k="name" v="Hornsey Road"/>
  </way>
  <way id="47577412" version="2" timestamp="2010-07-08T02:34:21Z" uid="74617" user="JohnSmith" changeset="5163091">
    <nd ref="605335638"/>
    <nd ref="241507031"/>
    <nd ref="241506871"/>
    <nd ref="241506100"/>
    <tag k="highway" v="residential"/>
    <tag k="maxspeed" v="50"/>
    <tag k="maxspeed:source" v="default residential speed limit in Australia"/>
    <tag k="name" v="Hornsey Road"/>
  </way>
  <way id="47577413" version="1" timestamp="2010-01-05T12:46:54Z" uid="30201" user="rrankin" changeset="3544973">
    <nd ref="605335661"/>
    <nd ref="241502823"/>
    <nd ref="241502824"/>
    <nd ref="241502825"/>
    <nd ref="348136615"/>
    <tag k="highway" v="residential"/>
    <tag k="name" v="The Crescent"/>
  </way>
  <way id="47577413" version="2" timestamp="2010-07-08T02:36:34Z" uid="74617" user="JohnSmith" changeset="5163091">
    <nd ref="605335661"/>
    <nd ref="241502823"/>
    <nd ref="241502824"/>
    <nd ref="241502825"/>
    <nd ref="348136615"/>
    <tag k="highway" v="residential"/>
    <tag k="maxspeed" v="50"/>
    <tag k="maxspeed:source" v="default residential speed limit in Australia"/>
    <tag k="name" v="The Crescent"/>
  </way>
  <way id="47577414" version="1" timestamp="2010-01-05T12:46:55Z" uid="30201" user="rrankin" changeset="3544973">
    <nd ref="605335641"/>
    <nd ref="605335643"/>
    <nd ref="605335645"/>
    <nd ref="605335638"/>
    <nd ref="605335647"/>
    <nd ref="605335661"/>
    <nd ref="605335663"/>
    <nd ref="605335639"/>
    <nd ref="605335641"/>
    <tag k="highway" v="residential"/>
    <tag k="junction" v="roundabout"/>
    <tag k="source" v="nearmap"/>
  </way>
  <way id="47577414" version="2" timestamp="2010-01-10T06:40:33Z" uid="30201" user="rrankin" changeset="3584320">
    <nd ref="605335641"/>
    <nd ref="605335665"/>
    <nd ref="605335643"/>
    <nd ref="605335645"/>
    <nd ref="605335638"/>
    <nd ref="605335647"/>
    <nd ref="605335661"/>
    <nd ref="605335663"/>
    <nd ref="605335639"/>
    <nd ref="605335641"/>
    <tag k="highway" v="residential"/>
    <tag k="junction" v="roundabout"/>
    <tag k="source" v="nearmap"/>
  </way>
  <way id="47577414" version="3" timestamp="2010-07-08T02:39:30Z" uid="74617" user="JohnSmith" changeset="5163091">
    <nd ref="605335641"/>
    <nd ref="605335665"/>
    <nd ref="605335643"/>
    <nd ref="605335645"/>
    <nd ref="605335638"/>
    <nd ref="605335647"/>
    <nd ref="605335661"/>
    <nd ref="605335663"/>
    <nd ref="605335639"/>
    <nd ref="605335641"/>
    <tag k="highway" v="residential"/>
    <tag k="junction" v="roundabout"/>
    <tag k="maxspeed" v="50"/>
    <tag k="maxspeed:source" v="default residential speed limit in Australia"/>
    <tag k="source" v="nearmap"/>
  </way>
  <way id="47577415" version="1" timestamp="2010-01-05T12:46:55Z" uid="30201" user="rrankin" changeset="3544973">
    <nd ref="605335704"/>
    <nd ref="605335706"/>
    <nd ref="605335707"/>
    <nd ref="605335709"/>
    <nd ref="605335711"/>
    <nd ref="605335713"/>
    <nd ref="605335716"/>
    <nd ref="605335717"/>
    <nd ref="605335688"/>
    <nd ref="605335690"/>
    <nd ref="605335692"/>
    <nd ref="605335693"/>
    <nd ref="605335696"/>
    <nd ref="605335697"/>
    <nd ref="605335699"/>
    <nd ref="605335726"/>
    <nd ref="605335704"/>
    <tag k="leisure" v="playground"/>
    <tag k="source" v="nearmap"/>
  </way>
  <way id="47577416" version="1" timestamp="2010-01-05T12:46:55Z" uid="30201" user="rrankin" changeset="3544973">
    <nd ref="605335683"/>
    <nd ref="241501012"/>
    <nd ref="241515486"/>
    <nd ref="241517906"/>
    <tag k="highway" v="residential"/>
    <tag k="lcn" v="yes"/>
    <tag k="name" v="Mackenzie Street"/>
  </way>
  <way id="47577416" version="2" timestamp="2010-07-08T02:32:26Z" uid="74617" user="JohnSmith" changeset="5163091">
    <nd ref="605335683"/>
    <nd ref="241501012"/>
    <nd ref="241515486"/>
    <nd ref="241517906"/>
    <tag k="highway" v="residential"/>
    <tag k="lcn" v="yes"/>
    <tag k="maxspeed" v="50"/>
    <tag k="maxspeed:source" v="default residential speed limit in Australia"/>
    <tag k="name" v="Mackenzie Street"/>
  </way>
  <way id="47577417" version="1" timestamp="2010-01-05T12:46:55Z" uid="30201" user="rrankin" changeset="3544973">
    <nd ref="605335676"/>
    <nd ref="605335685"/>
    <nd ref="605335678"/>
    <nd ref="241500938"/>
    <nd ref="605335680"/>
    <nd ref="605335683"/>
    <nd ref="605335681"/>
    <nd ref="605335674"/>
    <nd ref="605335676"/>
    <tag k="highway" v="secondary"/>
    <tag k="junction" v="roundabout"/>
    <tag k="source" v="nearmap"/>
  </way>
  <way id="47577418" version="1" timestamp="2010-01-05T12:46:55Z" uid="30201" user="rrankin" changeset="3544973">
    <nd ref="605335736"/>
    <nd ref="241519996"/>
    <nd ref="267190586"/>
    <nd ref="241500934"/>
    <nd ref="241500935"/>
    <nd ref="241500936"/>
    <nd ref="241500937"/>
    <nd ref="605335674"/>
    <tag k="highway" v="secondary"/>
    <tag k="name" v="Broughton Street"/>
  </way>
  <way id="47577418" version="2" timestamp="2010-02-15T13:38:45Z" uid="7617" user="Franc" changeset="3883208">
    <nd ref="605335736"/>
    <nd ref="241519996"/>
    <nd ref="267190586"/>
    <nd ref="241500935"/>
    <nd ref="241500936"/>
    <nd ref="241500937"/>
    <nd ref="605335674"/>
    <tag k="highway" v="secondary"/>
    <tag k="name" v="Broughton Street"/>
  </way>
  <way id="47577419" version="1" timestamp="2010-01-05T12:46:55Z" uid="30201" user="rrankin" changeset="3544973">
    <nd ref="605335738"/>
    <nd ref="605335746"/>
    <nd ref="605335740"/>
    <nd ref="605335735"/>
    <nd ref="605335743"/>
    <nd ref="241202324"/>
    <nd ref="605335744"/>
    <nd ref="605335736"/>
    <nd ref="605335738"/>
    <tag k="highway" v="secondary"/>
    <tag k="junction" v="roundabout"/>
    <tag k="source" v="nearmap"/>
  </way>
  <way id="47577420" version="1" timestamp="2010-01-05T12:46:56Z" uid="30201" user="rrankin" changeset="3544973">
    <nd ref="241518890"/>
    <nd ref="241518888"/>
    <tag k="bridge" v="yes"/>
    <tag k="highway" v="tertiary"/>
    <tag k="layer" v="1"/>
    <tag k="name" v="Bridge Road"/>
    <tag k="rcn" v="yes"/>
    <tag k="rcn_ref" v="Cook River Cycleway"/>
  </way>
  <way id="47577421" version="1" timestamp="2010-01-05T12:46:56Z" uid="30201" user="rrankin" changeset="3544973">
    <nd ref="347680646"/>
    <nd ref="605335751"/>
    <nd ref="605335754"/>
    <nd ref="605335756"/>
    <tag k="highway" v="service"/>
    <tag k="source" v="nearmap"/>
  </way>
  <way id="47577422" version="1" timestamp="2010-01-05T12:46:56Z" uid="30201" user="rrankin" changeset="3544973">
    <nd ref="605335794"/>
    <nd ref="31999005"/>
    <nd ref="605335780"/>
    <nd ref="605335869"/>
    <nd ref="175987445"/>
    <nd ref="31427916"/>
    <tag k="highway" v="secondary"/>
    <tag k="name" v="Railway Parade"/>
  </way>
  <way id="47577422" version="2" timestamp="2010-02-15T15:03:39Z" uid="7617" user="Franc" changeset="3883877">
    <nd ref="605335794"/>
    <nd ref="31999005"/>
    <nd ref="605335780"/>
    <nd ref="605335869"/>
    <nd ref="175987445"/>
    <tag k="highway" v="secondary"/>
    <tag k="name" v="Railway Parade"/>
    <tag k="restriction" v="school_zone"/>
  </way>
  <way id="47577423" version="1" timestamp="2010-01-05T12:46:56Z" uid="30201" user="rrankin" changeset="3544973">
    <nd ref="605335761"/>
    <nd ref="605335762"/>
    <tag k="bridge" v="yes"/>
    <tag k="highway" v="footway"/>
    <tag k="layer" v="1"/>
  </way>
  <way id="47577424" version="1" timestamp="2010-01-05T12:46:56Z" uid="30201" user="rrankin" changeset="3544973">
    <nd ref="163196485"/>
    <nd ref="605335764"/>
    <nd ref="163186023"/>
    <nd ref="605335765"/>
    <tag k="highway" v="residential"/>
    <tag k="name" v="Albert Road"/>
    <tag k="oneway" v="yes"/>
    <tag k="source" v="nearmap"/>
  </way>
  <way id="47577424" version="2" timestamp="2010-02-15T13:38:50Z" uid="7617" user="Franc" changeset="3883208">
    <nd ref="163196485"/>
    <nd ref="605335764"/>
    <nd ref="163186023"/>
    <nd ref="639650727"/>
    <nd ref="605335765"/>
    <tag k="highway" v="residential"/>
    <tag k="name" v="Albert Road"/>
    <tag k="oneway" v="yes"/>
    <tag k="source" v="nearmap"/>
  </way>
  <way id="47577424" version="3" timestamp="2010-07-08T02:40:57Z" uid="74617" user="JohnSmith" changeset="5163091">
    <nd ref="163196485"/>
    <nd ref="605335764"/>
    <nd ref="163186023"/>
    <nd ref="639650727"/>
    <nd ref="605335765"/>
    <tag k="highway" v="residential"/>
    <tag k="maxspeed" v="50"/>
    <tag k="maxspeed:source" v="default residential speed limit in Australia"/>
    <tag k="name" v="Albert Road"/>
    <tag k="oneway" v="yes"/>
    <tag k="source" v="nearmap"/>
  </way>
  <way id="47577425" version="1" timestamp="2010-01-05T12:46:56Z" uid="30201" user="rrankin" changeset="3544973">
    <nd ref="163186023"/>
    <nd ref="605335766"/>
    <nd ref="241525992"/>
    <tag k="highway" v="residential"/>
    <tag k="name" v="Elva Street"/>
    <tag k="oneway" v="yes"/>
  </way>
  <way id="47577425" version="2" timestamp="2010-07-08T02:34:00Z" uid="74617" user="JohnSmith" changeset="5163091">
    <nd ref="163186023"/>
    <nd ref="605335766"/>
    <nd ref="241525992"/>
    <tag k="highway" v="residential"/>
    <tag k="maxspeed" v="50"/>
    <tag k="maxspeed:source" v="default residential speed limit in Australia"/>
    <tag k="name" v="Elva Street"/>
    <tag k="oneway" v="yes"/>
  </way>
  <way id="47577426" version="1" timestamp="2010-01-05T12:46:56Z" uid="30201" user="rrankin" changeset="3544973">
    <nd ref="605335794"/>
    <nd ref="605335785"/>
    <nd ref="605335787"/>
    <nd ref="605335782"/>
    <nd ref="605335789"/>
    <nd ref="605335791"/>
    <nd ref="31999002"/>
    <nd ref="605335792"/>
    <nd ref="605335783"/>
    <nd ref="605335794"/>
    <tag k="highway" v="secondary"/>
    <tag k="junction" v="roundabout"/>
    <tag k="source" v="nearmap"/>
  </way>
  <way id="47577426" version="2" timestamp="2010-02-15T15:03:40Z" uid="7617" user="Franc" changeset="3883877">
    <nd ref="605335794"/>
    <nd ref="605335785"/>
    <nd ref="605335787"/>
    <nd ref="605335782"/>
    <nd ref="605335789"/>
    <nd ref="605335791"/>
    <nd ref="31999002"/>
    <nd ref="605335792"/>
    <nd ref="605335783"/>
    <nd ref="605335794"/>
    <tag k="highway" v="secondary"/>
    <tag k="junction" v="roundabout"/>
    <tag k="restriction" v="school_zone"/>
    <tag k="source" v="nearmap"/>
  </way>
  <way id="47577427" version="1" timestamp="2010-01-05T12:46:57Z" uid="30201" user="rrankin" changeset="3544973">
    <nd ref="605335886"/>
    <nd ref="199708442"/>
    <nd ref="605335872"/>
    <tag k="highway" v="secondary"/>
    <tag k="name" v="Wentworth Road"/>
  </way>
  <way id="47577427" version="2" timestamp="2010-12-26T11:12:30Z" uid="7617" user="Franc" changeset="6766987">
    <nd ref="605335886"/>
    <nd ref="1065430028"/>
    <nd ref="199708442"/>
    <nd ref="605335872"/>
    <tag k="highway" v="secondary"/>
    <tag k="name" v="Wentworth Road"/>
  </way>
  <way id="47577429" version="1" timestamp="2010-01-05T12:46:57Z" uid="30201" user="rrankin" changeset="3544973">
    <nd ref="605335853"/>
    <nd ref="605335862"/>
    <nd ref="605335863"/>
    <nd ref="605335831"/>
    <nd ref="605335853"/>
    <tag k="leisure" v="pitch"/>
    <tag k="source" v="nearmap"/>
    <tag k="sport" v="tennis"/>
  </way>
  <way id="47577430" version="1" timestamp="2010-01-05T12:46:57Z" uid="30201" user="rrankin" changeset="3544973">
    <nd ref="605335857"/>
    <nd ref="605335855"/>
    <nd ref="605335834"/>
    <nd ref="605335833"/>
    <nd ref="605335857"/>
    <tag k="leisure" v="pitch"/>
    <tag k="source" v="nearmap"/>
    <tag k="sport" v="tennis"/>
  </way>
  <way id="47577431" version="1" timestamp="2010-01-05T12:46:57Z" uid="30201" user="rrankin" changeset="3544973">
    <nd ref="605335843"/>
    <nd ref="605335845"/>
    <nd ref="605335824"/>
    <nd ref="605335825"/>
    <nd ref="605335843"/>
    <tag k="leisure" v="pitch"/>
    <tag k="source" v="nearmap"/>
    <tag k="sport" v="tennis"/>
  </way>
  <way id="47577432" version="1" timestamp="2010-01-05T12:46:57Z" uid="30201" user="rrankin" changeset="3544973">
    <nd ref="605335847"/>
    <nd ref="605335865"/>
    <nd ref="605335867"/>
    <nd ref="605335827"/>
    <nd ref="605335847"/>
    <tag k="leisure" v="pitch"/>
    <tag k="source" v="nearmap"/>
    <tag k="sport" v="tennis"/>
  </way>
  <way id="47577433" version="1" timestamp="2010-01-05T12:46:57Z" uid="30201" user="rrankin" changeset="3544973">
    <nd ref="605335812"/>
    <nd ref="605335814"/>
    <nd ref="605335802"/>
    <nd ref="605335804"/>
    <nd ref="605335812"/>
    <tag k="leisure" v="pitch"/>
    <tag k="source" v="nearmap"/>
    <tag k="sport" v="tennis"/>
  </way>
  <way id="47577434" version="1" timestamp="2010-01-05T12:46:57Z" uid="30201" user="rrankin" changeset="3544973">
    <nd ref="605335817"/>
    <nd ref="605335815"/>
    <nd ref="605335805"/>
    <nd ref="605335808"/>
    <nd ref="605335817"/>
    <tag k="leisure" v="pitch"/>
    <tag k="source" v="nearmap"/>
    <tag k="sport" v="tennis"/>
  </way>
  <way id="47577436" version="1" timestamp="2010-01-05T12:46:57Z" uid="30201" user="rrankin" changeset="3544973">
    <nd ref="605335819"/>
    <nd ref="605335849"/>
    <nd ref="605335829"/>
    <nd ref="605335810"/>
    <nd ref="605335819"/>
    <tag k="leisure" v="pitch"/>
    <tag k="source" v="nearmap"/>
    <tag k="sport" v="tennis"/>
  </way>
  <way id="47577437" version="1" timestamp="2010-01-05T12:46:57Z" uid="30201" user="rrankin" changeset="3544973">
    <nd ref="605335822"/>
    <nd ref="605335859"/>
    <nd ref="605335860"/>
    <nd ref="605335851"/>
    <nd ref="605335822"/>
    <tag k="leisure" v="pitch"/>
    <tag k="sport" v="hockey"/>
  </way>
  <way id="47577438" version="1" timestamp="2010-01-05T12:46:58Z" uid="30201" user="rrankin" changeset="3544973">
    <nd ref="301556124"/>
    <nd ref="343863728"/>
    <tag k="highway" v="footway"/>
    <tag k="source" v="nearmap"/>
    <tag k="surface" v="paved"/>
  </way>
  <way id="47577439" version="1" timestamp="2010-01-05T12:46:58Z" uid="30201" user="rrankin" changeset="3544973">
    <nd ref="605335874"/>
    <nd ref="605335882"/>
    <nd ref="605335876"/>
    <nd ref="605335870"/>
    <nd ref="605335878"/>
    <nd ref="199699573"/>
    <nd ref="605335880"/>
    <nd ref="605335872"/>
    <nd ref="605335874"/>
    <tag k="highway" v="secondary"/>
    <tag k="junction" v="roundabout"/>
    <tag k="source" v="nearmap"/>
  </way>
  <way id="47577440" version="1" timestamp="2010-01-05T12:46:58Z" uid="30201" user="rrankin" changeset="3544973">
    <nd ref="605335870"/>
    <nd ref="199680893"/>
    <nd ref="175985039"/>
    <tag k="highway" v="secondary"/>
    <tag k="name" v="Wentworth Road"/>
  </way>
  <way id="47577441" version="1" timestamp="2010-01-05T12:46:58Z" uid="30201" user="rrankin" changeset="3544973">
    <nd ref="605335888"/>
    <nd ref="605335890"/>
    <nd ref="605335892"/>
    <nd ref="605335886"/>
    <nd ref="605335893"/>
    <nd ref="31427917"/>
    <nd ref="605335895"/>
    <nd ref="605335884"/>
    <nd ref="605335888"/>
    <tag k="highway" v="secondary"/>
    <tag k="junction" v="roundabout"/>
    <tag k="source" v="nearmap"/>
  </way>
  <way id="47577442" version="1" timestamp="2010-01-05T12:46:58Z" uid="30201" user="rrankin" changeset="3544973">
    <nd ref="605335931"/>
    <nd ref="605335916"/>
    <nd ref="241529991"/>
    <nd ref="241529397"/>
    <tag k="highway" v="residential"/>
    <tag k="name" v="Loftus Crescent"/>
  </way>
  <way id="47577442" version="2" timestamp="2010-07-08T02:33:45Z" uid="74617" user="JohnSmith" changeset="5163091">
    <nd ref="605335931"/>
    <nd ref="605335916"/>
    <nd ref="241529991"/>
    <nd ref="241529397"/>
    <tag k="highway" v="residential"/>
    <tag k="maxspeed" v="50"/>
    <tag k="maxspeed:source" v="default residential speed limit in Australia"/>
    <tag k="name" v="Loftus Crescent"/>
  </way>
  <way id="47577442" version="3" timestamp="2010-11-13T09:41:43Z" uid="7617" user="Franc" changeset="6356736">
    <nd ref="605335931"/>
    <nd ref="605335916"/>
    <nd ref="987448471"/>
    <nd ref="987448551"/>
    <tag k="highway" v="residential"/>
    <tag k="maxspeed" v="50"/>
    <tag k="maxspeed:source" v="default residential speed limit in Australia"/>
    <tag k="name" v="Loftus Crescent"/>
  </way>
  <way id="47577443" version="1" timestamp="2010-01-05T12:46:58Z" uid="30201" user="rrankin" changeset="3544973">
    <nd ref="605335922"/>
    <nd ref="605335924"/>
    <nd ref="605335931"/>
    <nd ref="605335921"/>
    <nd ref="605335925"/>
    <nd ref="241529994"/>
    <nd ref="605335926"/>
    <nd ref="605335927"/>
    <nd ref="605335918"/>
    <nd ref="605335922"/>
    <tag k="highway" v="residential"/>
    <tag k="junction" v="roundabout"/>
    <tag k="source" v="nearmap"/>
  </way>
  <way id="47577443" version="2" timestamp="2010-07-08T02:35:59Z" uid="74617" user="JohnSmith" changeset="5163091">
    <nd ref="605335922"/>
    <nd ref="605335924"/>
    <nd ref="605335931"/>
    <nd ref="605335921"/>
    <nd ref="605335925"/>
    <nd ref="241529994"/>
    <nd ref="605335926"/>
    <nd ref="605335927"/>
    <nd ref="605335918"/>
    <nd ref="605335922"/>
    <tag k="highway" v="residential"/>
    <tag k="junction" v="roundabout"/>
    <tag k="maxspeed" v="50"/>
    <tag k="maxspeed:source" v="default residential speed limit in Australia"/>
    <tag k="source" v="nearmap"/>
  </way>
  <way id="47577444" version="1" timestamp="2010-01-05T12:46:58Z" uid="30201" user="rrankin" changeset="3544973">
    <nd ref="605335933"/>
    <nd ref="605335934"/>
    <nd ref="605335935"/>
    <nd ref="241500556"/>
    <nd ref="605335936"/>
    <nd ref="605335937"/>
    <nd ref="605335941"/>
    <nd ref="605335932"/>
    <nd ref="605335933"/>
    <tag k="highway" v="tertiary"/>
    <tag k="junction" v="roundabout"/>
    <tag k="source" v="nearmap"/>
  </way>
  <way id="47577445" version="1" timestamp="2010-01-05T12:46:58Z" uid="30201" user="rrankin" changeset="3544973">
    <nd ref="605335949"/>
    <nd ref="605335951"/>
    <nd ref="605335959"/>
    <nd ref="605335947"/>
    <nd ref="605335961"/>
    <nd ref="31427909"/>
    <nd ref="605335962"/>
    <nd ref="605335946"/>
    <nd ref="605335949"/>
    <tag k="highway" v="secondary"/>
    <tag k="junction" v="roundabout"/>
    <tag k="source" v="nearmap"/>
  </way>
  <way id="47577446" version="1" timestamp="2010-01-05T12:46:59Z" uid="30201" user="rrankin" changeset="3544973">
    <nd ref="256558095"/>
    <nd ref="256558094"/>
    <nd ref="33098157"/>
    <nd ref="256558096"/>
    <tag k="highway" v="residential"/>
    <tag k="name" v="Flavelle Street"/>
    <tag k="source:name" v="survey"/>
  </way>
  <way id="47577446" version="2" timestamp="2010-06-28T12:20:21Z" uid="7617" user="Franc" changeset="5097155">
    <nd ref="256558095"/>
    <nd ref="256558094"/>
    <nd ref="33098157"/>
    <nd ref="794207348"/>
    <tag k="highway" v="residential"/>
    <tag k="name" v="Flavelle Street"/>
    <tag k="source:name" v="survey"/>
  </way>
  <way id="47577446" version="3" timestamp="2010-07-04T11:04:19Z" uid="7617" user="Franc" changeset="5131719">
    <nd ref="256558095"/>
    <nd ref="256558094"/>
    <nd ref="33098157"/>
    <nd ref="800249272"/>
    <nd ref="794207348"/>
    <tag k="highway" v="residential"/>
    <tag k="name" v="Flavelle Street"/>
    <tag k="source:name" v="survey"/>
  </way>
  <way id="47577446" version="4" timestamp="2010-07-08T01:01:20Z" uid="74617" user="JohnSmith" changeset="5162525">
    <nd ref="256558095"/>
    <nd ref="256558094"/>
    <nd ref="33098157"/>
    <nd ref="800249272"/>
    <nd ref="794207348"/>
    <tag k="highway" v="residential"/>
    <tag k="maxspeed" v="50"/>
    <tag k="maxspeed:source" v="default residential speed limit in Australia"/>
    <tag k="name" v="Flavelle Street"/>
    <tag k="source:name" v="survey"/>
  </way>
  <way id="47577447" version="1" timestamp="2010-01-05T12:46:59Z" uid="30201" user="rrankin" changeset="3544973">
    <nd ref="605335986"/>
    <nd ref="605335982"/>
    <nd ref="605335977"/>
    <nd ref="605335975"/>
    <nd ref="605335978"/>
    <nd ref="605335980"/>
    <nd ref="605335988"/>
    <nd ref="605335984"/>
    <nd ref="605335986"/>
    <tag k="highway" v="residential"/>
    <tag k="junction" v="roundabout"/>
    <tag k="source" v="nearmap"/>
  </way>
  <way id="47577447" version="2" timestamp="2010-07-08T00:57:45Z" uid="74617" user="JohnSmith" changeset="5162525">
    <nd ref="605335986"/>
    <nd ref="605335982"/>
    <nd ref="605335977"/>
    <nd ref="605335975"/>
    <nd ref="605335978"/>
    <nd ref="605335980"/>
    <nd ref="605335988"/>
    <nd ref="605335984"/>
    <nd ref="605335986"/>
    <tag k="highway" v="residential"/>
    <tag k="junction" v="roundabout"/>
    <tag k="maxspeed" v="50"/>
    <tag k="maxspeed:source" v="default residential speed limit in Australia"/>
    <tag k="source" v="nearmap"/>
  </way>
  <way id="47577448" version="1" timestamp="2010-01-05T12:46:59Z" uid="30201" user="rrankin" changeset="3544973">
    <nd ref="605336005"/>
    <nd ref="605336011"/>
    <nd ref="605336006"/>
    <nd ref="605336003"/>
    <nd ref="251793381"/>
    <nd ref="605336008"/>
    <nd ref="605336009"/>
    <nd ref="33094499"/>
    <nd ref="605336005"/>
    <tag k="highway" v="residential"/>
    <tag k="junction" v="roundabout"/>
    <tag k="source" v="nearmap"/>
  </way>
  <way id="47577448" version="2" timestamp="2010-07-08T00:58:01Z" uid="74617" user="JohnSmith" changeset="5162525">
    <nd ref="605336005"/>
    <nd ref="605336011"/>
    <nd ref="605336006"/>
    <nd ref="605336003"/>
    <nd ref="251793381"/>
    <nd ref="605336008"/>
    <nd ref="605336009"/>
    <nd ref="33094499"/>
    <nd ref="605336005"/>
    <tag k="highway" v="residential"/>
    <tag k="junction" v="roundabout"/>
    <tag k="maxspeed" v="50"/>
    <tag k="maxspeed:source" v="default residential speed limit in Australia"/>
    <tag k="source" v="nearmap"/>
  </way>
  <way id="47577449" version="1" timestamp="2010-01-05T12:46:59Z" uid="30201" user="rrankin" changeset="3544973">
    <nd ref="605335995"/>
    <nd ref="33095077"/>
    <nd ref="605335997"/>
    <nd ref="605335992"/>
    <nd ref="605335998"/>
    <nd ref="605336000"/>
    <nd ref="605336002"/>
    <nd ref="605335994"/>
    <nd ref="605335995"/>
    <tag k="highway" v="tertiary"/>
    <tag k="junction" v="roundabout"/>
    <tag k="source" v="nearmap"/>
  </way>
  <way id="47577450" version="1" timestamp="2010-01-05T12:46:59Z" uid="30201" user="rrankin" changeset="3544973">
    <nd ref="605335994"/>
    <nd ref="33095075"/>
    <tag k="highway" v="tertiary"/>
    <tag k="name" v="Queen Street"/>
  </way>
  <way id="47577451" version="1" timestamp="2010-01-05T12:46:59Z" uid="30201" user="rrankin" changeset="3544973">
    <nd ref="605336027"/>
    <nd ref="33094606"/>
    <nd ref="605336021"/>
    <nd ref="605336032"/>
    <nd ref="605336023"/>
    <nd ref="605336025"/>
    <nd ref="605336029"/>
    <nd ref="605336030"/>
    <nd ref="605336027"/>
    <tag k="highway" v="tertiary"/>
    <tag k="junction" v="roundabout"/>
    <tag k="source" v="nearmap"/>
  </way>
  <way id="47577452" version="1" timestamp="2010-01-05T12:47:00Z" uid="30201" user="rrankin" changeset="3544973">
    <nd ref="605336032"/>
    <nd ref="101918869"/>
    <nd ref="101918881"/>
    <nd ref="33094602"/>
    <nd ref="605336020"/>
    <nd ref="33094603"/>
    <tag k="highway" v="tertiary"/>
    <tag k="name" v="Queen Street"/>
  </way>
  <way id="47577453" version="1" timestamp="2010-01-05T12:47:00Z" uid="30201" user="rrankin" changeset="3544973">
    <nd ref="605336044"/>
    <nd ref="283024608"/>
    <nd ref="283024578"/>
    <nd ref="283024577"/>
    <nd ref="33097413"/>
    <tag k="highway" v="residential"/>
    <tag k="name" v="Correys Avenue"/>
    <tag k="source" v="survey"/>
  </way>
  <way id="47577453" version="2" timestamp="2010-07-08T00:58:18Z" uid="74617" user="JohnSmith" changeset="5162525">
    <nd ref="605336044"/>
    <nd ref="283024608"/>
    <nd ref="283024578"/>
    <nd ref="283024577"/>
    <nd ref="33097413"/>
    <tag k="highway" v="residential"/>
    <tag k="maxspeed" v="50"/>
    <tag k="maxspeed:source" v="default residential speed limit in Australia"/>
    <tag k="name" v="Correys Avenue"/>
    <tag k="source" v="survey"/>
  </way>
  <way id="47577454" version="1" timestamp="2010-01-05T12:47:00Z" uid="30201" user="rrankin" changeset="3544973">
    <nd ref="605336036"/>
    <nd ref="605336044"/>
    <nd ref="605336038"/>
    <nd ref="256558095"/>
    <nd ref="605336040"/>
    <nd ref="605336046"/>
    <nd ref="605336042"/>
    <nd ref="605336034"/>
    <nd ref="605336036"/>
    <tag k="highway" v="residential"/>
    <tag k="junction" v="roundabout"/>
    <tag k="source" v="nearmap"/>
  </way>
  <way id="47577454" version="2" timestamp="2010-07-08T00:59:53Z" uid="74617" user="JohnSmith" changeset="5162525">
    <nd ref="605336036"/>
    <nd ref="605336044"/>
    <nd ref="605336038"/>
    <nd ref="256558095"/>
    <nd ref="605336040"/>
    <nd ref="605336046"/>
    <nd ref="605336042"/>
    <nd ref="605336034"/>
    <nd ref="605336036"/>
    <tag k="highway" v="residential"/>
    <tag k="junction" v="roundabout"/>
    <tag k="maxspeed" v="50"/>
    <tag k="maxspeed:source" v="default residential speed limit in Australia"/>
    <tag k="source" v="nearmap"/>
  </way>
</osm>
