<?xml version='1.0' encoding='UTF-8'?>
<osm version="0.6" generator="libosmium/2.20.0">
  <way id="47584085" version="2" timestamp="2010-05-17T13:36:32Z" uid="4467" user="Rosscoe" changeset="4728858">
    <nd ref="605404961"/>
    <nd ref="737352363"/>
    <nd ref="32678184"/>
    <tag k="highway" v="primary"/>
    <tag k="name" v="Spencer Road"/>
    <tag k="oneway" v="yes"/>
    <tag k="ref" v="S36"/>
  </way>
  <way id="47584087" version="2" timestamp="2010-05-17T13:36:29Z" uid="4467" user="Rosscoe" changeset="4728858">
    <nd ref="605404958"/>
    <nd ref="605404961"/>
    <tag k="bridge" v="yes"/>
    <tag k="highway" v="primary"/>
    <tag k="layer" v="1"/>
    <tag k="name" v="Spencer Road"/>
    <tag k="oneway" v="yes"/>
    <tag k="ref" v="S36"/>
    <tag k="source" v="nearmap"/>
  </way>
  <way id="47584089" version="2" timestamp="2010-05-17T13:36:32Z" uid="4467" user="Rosscoe" changeset="4728858">
    <nd ref="605404963"/>
    <nd ref="605404956"/>
    <tag k="bridge" v="yes"/>
    <tag k="highway" v="primary"/>
    <tag k="layer" v="1"/>
    <tag k="name" v="Spencer Road"/>
    <tag k="oneway" v="yes"/>
    <tag k="ref" v="S36"/>
    <tag k="source" v="nearmap"/>
  </way>
  <way id="47584091" version="2" timestamp="2010-05-17T13:36:28Z" uid="4467" user="Rosscoe" changeset="4728858">
    <nd ref="605404956"/>
    <nd ref="605394605"/>
    <nd ref="148963576"/>
    <nd ref="148963539"/>
    <tag k="highway" v="primary"/>
    <tag k="name" v="Spencer Road"/>
    <tag k="oneway" v="yes"/>
    <tag k="ref" v="S36"/>
    <tag k="source" v="nearmap"/>
  </way>
  <way id="47584096" version="2" timestamp="2010-07-09T08:06:20Z" uid="74617" user="JohnSmith" changeset="5171412">
    <nd ref="605404973"/>
    <nd ref="605404971"/>
    <tag k="bridge" v="yes"/>
    <tag k="highway" v="residential"/>
    <tag k="layer" v="1"/>
    <tag k="maxspeed" v="50"/>
    <tag k="maxspeed:source" v="default residential speed limit in Australia"/>
  </way>
  <way id="47584099" version="2" timestamp="2010-07-09T08:01:37Z" uid="74617" user="JohnSmith" changeset="5171412">
    <nd ref="605404971"/>
    <nd ref="199273212"/>
    <tag k="highway" v="residential"/>
    <tag k="maxspeed" v="50"/>
    <tag k="maxspeed:source" v="default residential speed limit in Australia"/>
  </way>
  <way id="47584149" version="1" timestamp="2010-01-05T13:42:07Z" uid="20587" user="balrog-kun" changeset="3545391">
    <nd ref="381941124"/>
    <nd ref="381941125"/>
    <nd ref="381941126"/>
    <nd ref="381941127"/>
    <nd ref="392274221"/>
    <nd ref="392274132"/>
    <nd ref="392274191"/>
    <nd ref="381941128"/>
    <nd ref="392275236"/>
    <nd ref="392275187"/>
    <nd ref="605312162"/>
    <nd ref="392276406"/>
    <nd ref="381941129"/>
    <nd ref="314573646"/>
    <nd ref="392275936"/>
    <nd ref="392275942"/>
    <nd ref="123974187"/>
    <nd ref="123978834"/>
    <nd ref="392275943"/>
    <nd ref="392275944"/>
    <nd ref="392275945"/>
    <nd ref="392275947"/>
    <nd ref="392275948"/>
    <nd ref="281952920"/>
    <nd ref="281952901"/>
    <nd ref="258038917"/>
    <nd ref="288970952"/>
    <tag k="highway" v="secondary"/>
    <tag k="name" v="Grunwaldzka"/>
    <tag k="oneway" v="yes"/>
  </way>
  <way id="47584150" version="1" timestamp="2010-01-05T13:42:07Z" uid="20587" user="balrog-kun" changeset="3545391">
    <nd ref="381940825"/>
    <nd ref="605312152"/>
    <nd ref="392272361"/>
    <nd ref="314819188"/>
    <nd ref="309276858"/>
    <nd ref="195930420"/>
    <nd ref="264048719"/>
    <nd ref="195930421"/>
    <nd ref="428455150"/>
    <nd ref="162617527"/>
    <nd ref="309274044"/>
    <nd ref="195930422"/>
    <nd ref="195928728"/>
    <nd ref="264049173"/>
    <nd ref="364656296"/>
    <nd ref="195930423"/>
    <tag k="highway" v="secondary"/>
    <tag k="name" v="Grunwaldzka"/>
    <tag k="oneway" v="yes"/>
  </way>
  <way id="47584150" version="2" timestamp="2010-02-15T18:20:03Z" uid="123700" user="Mala" changeset="3885458">
    <nd ref="381940825"/>
    <nd ref="605312152"/>
    <nd ref="392272361"/>
    <nd ref="314819188"/>
    <nd ref="309276858"/>
    <nd ref="195930420"/>
    <nd ref="264048719"/>
    <nd ref="195930421"/>
    <nd ref="428455150"/>
    <nd ref="162617527"/>
    <nd ref="309274044"/>
    <nd ref="195930422"/>
    <nd ref="195928728"/>
    <nd ref="264049173"/>
    <nd ref="640100561"/>
    <nd ref="364656296"/>
    <nd ref="195930423"/>
    <tag k="highway" v="secondary"/>
    <tag k="name" v="Grunwaldzka"/>
    <tag k="oneway" v="yes"/>
  </way>
  <way id="47584186" version="2" timestamp="2010-07-09T08:07:11Z" uid="74617" user="JohnSmith" changeset="5171412">
    <nd ref="605411270"/>
    <nd ref="605411271"/>
    <nd ref="605411268"/>
    <nd ref="605411269"/>
    <tag k="highway" v="residential"/>
    <tag k="maxspeed" v="50"/>
    <tag k="maxspeed:source" v="default residential speed limit in Australia"/>
    <tag k="source" v="nearmap"/>
  </way>
  <way id="47584186" version="3" timestamp="2011-04-25T11:06:35Z" uid="4467" user="Rosscoe" changeset="7962010">
    <nd ref="605411270"/>
    <nd ref="605411271"/>
    <nd ref="605411268"/>
    <nd ref="605411269"/>
    <tag k="highway" v="residential"/>
    <tag k="maxspeed" v="50"/>
    <tag k="source" v="nearmap"/>
    <tag k="source:maxspeed" v="default residential speed limit in Australia"/>
  </way>
  <way id="47584187" version="3" timestamp="2010-05-07T14:40:51Z" uid="4467" user="Rosscoe" changeset="4630660">
    <nd ref="32950770"/>
    <nd ref="32950771"/>
    <nd ref="32950772"/>
    <tag k="highway" v="trunk"/>
    <tag k="name" v="Nicholson Road"/>
    <tag k="oneway" v="yes"/>
    <tag k="ref" v="S31"/>
  </way>
  <way id="47584187" version="4" timestamp="2010-05-18T02:20:39Z" uid="4467" user="Rosscoe" changeset="4734976">
    <nd ref="130190294"/>
    <nd ref="244947105"/>
    <nd ref="562614866"/>
    <nd ref="32950865"/>
    <nd ref="32950866"/>
    <nd ref="197136700"/>
    <nd ref="244917416"/>
    <nd ref="587804614"/>
    <nd ref="587803985"/>
    <nd ref="244755683"/>
    <nd ref="32950867"/>
    <nd ref="708320455"/>
    <nd ref="244960279"/>
    <nd ref="244917787"/>
    <nd ref="32950868"/>
    <nd ref="605411273"/>
    <nd ref="605411274"/>
    <nd ref="32950869"/>
    <nd ref="60203412"/>
    <nd ref="266737985"/>
    <nd ref="60203416"/>
    <nd ref="605411275"/>
    <nd ref="605411276"/>
    <nd ref="605411277"/>
    <nd ref="605411279"/>
    <nd ref="605411280"/>
    <nd ref="605411281"/>
    <nd ref="605411282"/>
    <nd ref="605411283"/>
    <nd ref="32950770"/>
    <nd ref="32950771"/>
    <nd ref="32950772"/>
    <tag k="highway" v="trunk"/>
    <tag k="name" v="Nicholson Road"/>
    <tag k="oneway" v="yes"/>
    <tag k="ref" v="S31"/>
  </way>
  <way id="47584187" version="7" timestamp="2010-06-06T00:11:37Z" uid="4467" user="Rosscoe" changeset="4913568">
    <nd ref="130190301"/>
    <nd ref="759263956"/>
    <nd ref="651304443"/>
    <nd ref="244733247"/>
    <nd ref="765379816"/>
    <nd ref="765379822"/>
    <tag k="highway" v="trunk"/>
    <tag k="name" v="Nicholson Road"/>
    <tag k="oneway" v="yes"/>
    <tag k="ref" v="S31"/>
    <tag k="source" v="nearmap"/>
  </way>
  <way id="47584559" version="4" timestamp="2010-06-05T12:13:52Z" uid="171838" user="argrath" changeset="4908324">
    <nd ref="605431778"/>
    <nd ref="605431597"/>
    <nd ref="605431783"/>
    <nd ref="605431786"/>
    <nd ref="727619774"/>
    <nd ref="605431799"/>
    <nd ref="605431804"/>
    <nd ref="605431807"/>
    <nd ref="605431809"/>
    <nd ref="605431814"/>
    <tag k="highway" v="residential"/>
    <tag k="lanes" v="1"/>
  </way>
</osm>
