<?xml version='1.0' encoding='UTF-8'?>
<osm version="0.6" generator="libosmium/2.20.0">
  <way id="4761028" version="1" timestamp="2007-09-30T12:41:42Z" uid="8619" user="cetest" changeset="538827">
    <nd ref="27083540"/>
    <nd ref="27083539"/>
    <nd ref="30403061"/>
    <nd ref="30428029"/>
    <nd ref="44741870"/>
    <nd ref="44736843"/>
    <nd ref="44732458"/>
    <nd ref="44727976"/>
    <nd ref="44720735"/>
    <nd ref="44719784"/>
    <nd ref="44718834"/>
    <nd ref="44713034"/>
    <nd ref="44712561"/>
    <tag k="created_by" v="Potlatch alpha"/>
    <tag k="highway" v="cycleway"/>
    <tag k="name" v="Hoogspanningspad"/>
    <tag k="oneway" v="no"/>
  </way>
  <way id="4761028" version="2" timestamp="2007-10-24T20:15:43Z" uid="8619" user="cetest" changeset="305320">
    <nd ref="27083540"/>
    <nd ref="86053266"/>
    <nd ref="27083539"/>
    <nd ref="30403061"/>
    <nd ref="30428029"/>
    <nd ref="44741870"/>
    <nd ref="44736843"/>
    <nd ref="44732458"/>
    <nd ref="44727976"/>
    <nd ref="44720735"/>
    <nd ref="44719784"/>
    <nd ref="44718834"/>
    <nd ref="44713034"/>
    <nd ref="44712561"/>
    <tag k="created_by" v="Potlatch alpha"/>
    <tag k="highway" v="cycleway"/>
    <tag k="name" v="Hoogspanningspad"/>
    <tag k="oneway" v="no"/>
  </way>
  <way id="4761029" version="1" timestamp="2007-06-15T19:19:25Z" uid="8619" user="cetest" changeset="96541">
    <nd ref="23718701"/>
    <nd ref="30402961"/>
    <nd ref="30402959"/>
    <nd ref="23718715"/>
    <nd ref="27083540"/>
    <tag k="created_by" v="JOSM"/>
    <tag k="highway" v="cycleway"/>
    <tag k="name" v="Marcellus Emantspad"/>
    <tag k="oneway" v="no"/>
  </way>
  <way id="4761029" version="2" timestamp="2007-10-24T20:15:45Z" uid="8619" user="cetest" changeset="305320"/>
  <way id="4761044" version="1" timestamp="2007-06-15T19:19:29Z" uid="8619" user="cetest" changeset="96541">
    <nd ref="30403021"/>
    <nd ref="30403024"/>
    <tag k="created_by" v="JOSM"/>
    <tag k="highway" v="cycleway"/>
    <tag k="name" v="Louis Couperuslaan"/>
    <tag k="oneway" v="no"/>
  </way>
  <way id="4761048" version="1" timestamp="2007-06-15T19:19:30Z" uid="8619" user="cetest" changeset="96541">
    <nd ref="30403035"/>
    <nd ref="30403034"/>
    <tag k="created_by" v="JOSM"/>
    <tag k="highway" v="footway"/>
    <tag k="name" v="Willem Kloospad"/>
    <tag k="oneway" v="no"/>
  </way>
  <way id="4761048" version="2" timestamp="2007-10-24T20:26:15Z" uid="8619" user="cetest" changeset="305320"/>
  <way id="4761051" version="1" timestamp="2007-06-15T19:19:31Z" uid="8619" user="cetest" changeset="96541">
    <nd ref="30403006"/>
    <nd ref="30403010"/>
    <tag k="created_by" v="JOSM"/>
    <tag k="highway" v="cycleway"/>
    <tag k="name" v="Nicolaas Beetslaan"/>
    <tag k="oneway" v="no"/>
  </way>
  <way id="4761051" version="2" timestamp="2007-11-05T19:16:45Z" uid="8619" user="cetest" changeset="414725"/>
  <way id="4761052" version="1" timestamp="2007-09-30T12:15:08Z" uid="8619" user="cetest" changeset="538827">
    <nd ref="30403069"/>
    <nd ref="30403051"/>
    <nd ref="30403060"/>
    <nd ref="30403056"/>
    <nd ref="30403058"/>
    <nd ref="30403063"/>
    <nd ref="30403065"/>
    <nd ref="44750642"/>
    <nd ref="30403061"/>
    <tag k="created_by" v="Potlatch alpha"/>
    <tag k="highway" v="cycleway"/>
    <tag k="name" v="Kreekrugpad"/>
    <tag k="oneway" v="no"/>
  </way>
  <way id="4761052" version="2" timestamp="2008-02-10T16:00:27Z" uid="8619" user="cetest" changeset="94644">
    <nd ref="30403069"/>
    <nd ref="30403051"/>
    <nd ref="30403060"/>
    <nd ref="30403056"/>
    <nd ref="30403058"/>
    <nd ref="30403063"/>
    <nd ref="247054520"/>
    <nd ref="30403065"/>
    <nd ref="44750642"/>
    <nd ref="30403061"/>
    <tag k="created_by" v="Potlatch alpha"/>
    <tag k="highway" v="cycleway"/>
    <tag k="name" v="Kreekrugpad"/>
    <tag k="oneway" v="no"/>
  </way>
  <way id="4761052" version="3" timestamp="2008-11-20T08:43:17Z" uid="8619" user="cetest" changeset="770823">
    <nd ref="30403069"/>
    <nd ref="30403051"/>
    <nd ref="30403060"/>
    <nd ref="30403056"/>
    <nd ref="30403058"/>
    <nd ref="30403063"/>
    <nd ref="247054520"/>
    <nd ref="313275664"/>
    <nd ref="30403065"/>
    <nd ref="44750642"/>
    <nd ref="30403061"/>
    <tag k="created_by" v="Potlatch alpha"/>
    <tag k="highway" v="cycleway"/>
    <tag k="name" v="Kreekrugpad"/>
    <tag k="oneway" v="no"/>
  </way>
  <way id="4761052" version="4" timestamp="2008-11-20T09:15:31Z" uid="8619" user="cetest" changeset="770823">
    <nd ref="30403069"/>
    <nd ref="30403051"/>
    <nd ref="313279206"/>
    <nd ref="30403060"/>
    <nd ref="30403056"/>
    <nd ref="30403058"/>
    <nd ref="30403063"/>
    <nd ref="247054520"/>
    <nd ref="313275664"/>
    <nd ref="30403065"/>
    <nd ref="44750642"/>
    <nd ref="30403061"/>
    <tag k="created_by" v="Potlatch alpha"/>
    <tag k="highway" v="cycleway"/>
    <tag k="name" v="Kreekrugpad"/>
    <tag k="oneway" v="no"/>
  </way>
  <way id="4761052" version="6" timestamp="2011-05-22T18:18:21Z" uid="8619" user="cetest" changeset="8219311">
    <nd ref="30403069"/>
    <nd ref="30403051"/>
    <nd ref="313279206"/>
    <nd ref="30403060"/>
    <nd ref="30403056"/>
    <nd ref="30403058"/>
    <nd ref="30403063"/>
    <nd ref="247054520"/>
    <nd ref="313275664"/>
    <nd ref="601028559"/>
    <nd ref="1296443445"/>
    <nd ref="30403061"/>
    <tag k="highway" v="cycleway"/>
    <tag k="name" v="Kreekrugpad"/>
    <tag k="oneway" v="no"/>
  </way>
  <way id="4761162" version="1" timestamp="2007-07-11T22:30:22Z" uid="8328" user="benpre" changeset="141044">
    <nd ref="30398104"/>
    <nd ref="30398106"/>
    <nd ref="30398108"/>
    <nd ref="30398110"/>
    <nd ref="30398112"/>
    <nd ref="30398114"/>
    <nd ref="30398115"/>
    <nd ref="30398118"/>
    <nd ref="30398119"/>
    <nd ref="11305567"/>
    <tag k="created_by" v="JOSM"/>
    <tag k="highway" v="secondary"/>
    <tag k="name" v="Goppelner Straße"/>
    <tag k="user" v="saftl"/>
  </way>
  <way id="4761163" version="1" timestamp="2007-07-11T22:30:21Z" uid="8328" user="benpre" changeset="141044">
    <nd ref="30398101"/>
    <nd ref="30398104"/>
    <tag k="bridge" v="yes"/>
    <tag k="created_by" v="JOSM"/>
    <tag k="highway" v="secondary"/>
    <tag k="layer" v="1"/>
    <tag k="name" v="Goppelner Straße"/>
    <tag k="osmarender:renderName" v="no"/>
    <tag k="user" v="saftl"/>
  </way>
  <way id="4761255" version="1" timestamp="2007-09-18T17:21:25Z" uid="8328" user="benpre" changeset="463499">
    <nd ref="470354"/>
    <nd ref="470366"/>
    <nd ref="470362"/>
    <nd ref="470363"/>
    <nd ref="470368"/>
    <nd ref="470369"/>
    <nd ref="470371"/>
    <nd ref="470676"/>
    <nd ref="470680"/>
    <nd ref="470693"/>
    <nd ref="470681"/>
    <nd ref="470692"/>
    <nd ref="470701"/>
    <nd ref="470702"/>
    <nd ref="470710"/>
    <nd ref="470724"/>
    <nd ref="470725"/>
    <nd ref="470735"/>
    <tag k="created_by" v="JOSM"/>
    <tag k="highway" v="motorway"/>
    <tag k="name" v="A35"/>
  </way>
  <way id="4761291" version="7" timestamp="2008-12-27T15:23:29Z" uid="43863" user="Rundling" changeset="625497">
    <nd ref="30321528"/>
    <nd ref="30404613"/>
    <nd ref="30404615"/>
    <nd ref="30404616"/>
    <tag k="created_by" v="Potlatch 0.8b"/>
    <tag k="highway" v="tertiary"/>
    <tag k="ref" v="K 17"/>
    <tag k="source" v="survey"/>
  </way>
  <way id="4761292" version="7" timestamp="2008-12-27T15:23:28Z" uid="43863" user="Rundling" changeset="625497">
    <nd ref="30404616"/>
    <nd ref="30404618"/>
    <nd ref="30404620"/>
    <nd ref="30404621"/>
    <nd ref="30404623"/>
    <nd ref="30404625"/>
    <nd ref="30404689"/>
    <nd ref="30404627"/>
    <nd ref="33606586"/>
    <nd ref="30404629"/>
    <nd ref="33606588"/>
    <nd ref="30404632"/>
    <tag k="created_by" v="Potlatch 0.8b"/>
    <tag k="highway" v="tertiary"/>
    <tag k="ref" v="K 17"/>
  </way>
  <way id="4761293" version="7" timestamp="2008-12-27T15:23:28Z" uid="43863" user="Rundling" changeset="625497">
    <nd ref="30404632"/>
    <nd ref="30404687"/>
    <nd ref="30404631"/>
    <nd ref="30404634"/>
    <nd ref="30404686"/>
    <nd ref="30404684"/>
    <nd ref="30404636"/>
    <nd ref="30404681"/>
    <nd ref="30404638"/>
    <nd ref="30404682"/>
    <tag k="created_by" v="Potlatch 0.8b"/>
    <tag k="highway" v="tertiary"/>
    <tag k="loc_ref" v="K 17"/>
    <tag k="name" v="Dorfstraße"/>
    <tag k="ref" v="K 17"/>
  </way>
  <way id="4761294" version="6" timestamp="2008-09-01T19:08:50Z" uid="43863" user="Rundling" changeset="490817">
    <nd ref="30404682"/>
    <nd ref="30404639"/>
    <nd ref="33606604"/>
    <nd ref="30404642"/>
    <nd ref="33606605"/>
    <nd ref="30404644"/>
    <nd ref="30404646"/>
    <nd ref="185534938"/>
    <tag k="created_by" v="Potlatch 0.10b"/>
    <tag k="highway" v="secondary"/>
    <tag k="name" v="Hermannsburger Landstraße"/>
    <tag k="ref" v="K 17"/>
    <tag k="source" v="survey"/>
  </way>
  <way id="4761294" version="7" timestamp="2008-12-27T15:23:27Z" uid="43863" user="Rundling" changeset="625497">
    <nd ref="30404682"/>
    <nd ref="30404639"/>
    <nd ref="33606604"/>
    <nd ref="30404642"/>
    <nd ref="33606605"/>
    <nd ref="30404644"/>
    <nd ref="30404646"/>
    <nd ref="185534938"/>
    <tag k="created_by" v="Potlatch 0.10b"/>
    <tag k="highway" v="tertiary"/>
    <tag k="name" v="Hermannsburger Landstraße"/>
    <tag k="ref" v="K 17"/>
    <tag k="source" v="survey"/>
  </way>
  <way id="4761295" version="7" timestamp="2008-09-01T19:08:39Z" uid="43863" user="Rundling" changeset="490817">
    <nd ref="185534938"/>
    <nd ref="30404656"/>
    <nd ref="30404658"/>
    <nd ref="51340602"/>
    <nd ref="30404659"/>
    <nd ref="30404661"/>
    <nd ref="30404663"/>
    <nd ref="30404664"/>
    <tag k="created_by" v="Potlatch 0.10b"/>
    <tag k="highway" v="secondary"/>
    <tag k="name" v="Hermannsburger Straße"/>
    <tag k="ref" v="K 17"/>
    <tag k="source" v="survey"/>
  </way>
  <way id="4761295" version="11" timestamp="2008-12-27T15:23:27Z" uid="43863" user="Rundling" changeset="625497">
    <nd ref="185534938"/>
    <nd ref="286986468"/>
    <nd ref="317790969"/>
    <nd ref="299597337"/>
    <nd ref="317790972"/>
    <nd ref="317790973"/>
    <nd ref="30404656"/>
    <nd ref="30404658"/>
    <nd ref="299597395"/>
    <nd ref="51340602"/>
    <tag k="created_by" v="Potlatch 0.10b"/>
    <tag k="highway" v="tertiary"/>
    <tag k="name" v="Hermannsburger Straße"/>
    <tag k="ref" v="K 17"/>
    <tag k="source" v="survey"/>
  </way>
  <way id="4761295" version="12" timestamp="2009-03-09T20:44:33Z" uid="43863" user="Rundling" changeset="771986">
    <nd ref="185534938"/>
    <nd ref="358142238"/>
    <nd ref="286986468"/>
    <nd ref="317790969"/>
    <nd ref="299597337"/>
    <nd ref="317790972"/>
    <nd ref="317790973"/>
    <nd ref="30404656"/>
    <nd ref="30404658"/>
    <nd ref="299597395"/>
    <nd ref="51340602"/>
    <tag k="created_by" v="Potlatch 0.10b"/>
    <tag k="highway" v="tertiary"/>
    <tag k="name" v="Hermannsburger Straße"/>
    <tag k="ref" v="K 17"/>
    <tag k="source" v="survey"/>
  </way>
  <way id="4761296" version="8" timestamp="2008-12-27T15:23:29Z" uid="43863" user="Rundling" changeset="625497">
    <nd ref="51340602"/>
    <nd ref="30404659"/>
    <nd ref="30404661"/>
    <nd ref="30404663"/>
    <nd ref="30404664"/>
    <nd ref="30404666"/>
    <nd ref="30404668"/>
    <nd ref="30404669"/>
    <nd ref="30404671"/>
    <nd ref="30404673"/>
    <nd ref="289746472"/>
    <nd ref="30404674"/>
    <tag k="created_by" v="JOSM"/>
    <tag k="highway" v="secondary"/>
    <tag k="name" v="Müdener Straße"/>
    <tag k="ref" v="L 280"/>
    <tag k="source" v="survey"/>
  </way>
  <way id="4761311" version="6" timestamp="2009-09-30T13:07:48Z" uid="36809" user="pfoten_weg_!_" changeset="2687909">
    <nd ref="127349"/>
    <nd ref="127350"/>
    <nd ref="279431664"/>
    <nd ref="154598300"/>
    <nd ref="283377086"/>
    <nd ref="127353"/>
    <nd ref="60684060"/>
    <nd ref="127357"/>
    <tag k="highway" v="trunk_link"/>
  </way>
  <way id="4761312" version="3" timestamp="2009-09-30T13:07:41Z" uid="36809" user="pfoten_weg_!_" changeset="2687909">
    <nd ref="130077"/>
    <nd ref="130079"/>
    <tag k="highway" v="trunk_link"/>
  </way>
  <way id="4761313" version="8" timestamp="2009-09-30T13:07:42Z" uid="36809" user="pfoten_weg_!_" changeset="2687909">
    <nd ref="127358"/>
    <nd ref="154598323"/>
    <nd ref="154598313"/>
    <nd ref="283377085"/>
    <nd ref="127357"/>
    <tag k="highway" v="trunk_link"/>
    <tag k="oneway" v="yes"/>
  </way>
  <way id="4761314" version="9" timestamp="2009-09-30T13:07:43Z" uid="36809" user="pfoten_weg_!_" changeset="2687909">
    <nd ref="130081"/>
    <nd ref="130076"/>
    <nd ref="283377083"/>
    <nd ref="283377081"/>
    <nd ref="130077"/>
    <tag k="highway" v="trunk_link"/>
    <tag k="oneway" v="yes"/>
  </way>
  <way id="4761330" version="1" timestamp="2007-09-18T16:37:49Z" uid="8328" user="benpre" changeset="463499">
    <nd ref="30404694"/>
    <nd ref="30404696"/>
    <nd ref="30404807"/>
    <nd ref="30404806"/>
    <nd ref="30404805"/>
    <nd ref="30404804"/>
    <nd ref="30404803"/>
    <nd ref="30404802"/>
    <nd ref="30404801"/>
    <nd ref="30404800"/>
    <nd ref="30404683"/>
    <nd ref="30404685"/>
    <nd ref="30404688"/>
    <nd ref="30404690"/>
    <nd ref="30404692"/>
    <nd ref="30404694"/>
    <tag k="created_by" v="JOSM"/>
    <tag k="natural" v="wood"/>
  </way>
  <way id="4761585" version="7" timestamp="2010-03-27T07:45:08Z" uid="20587" user="balrog-kun" changeset="4244079">
    <nd ref="123015075"/>
    <nd ref="332514304"/>
    <nd ref="122979419"/>
    <nd ref="123015070"/>
    <nd ref="123015067"/>
    <nd ref="123015062"/>
    <nd ref="573268388"/>
    <nd ref="573262429"/>
    <nd ref="30406354"/>
    <tag k="highway" v="secondary"/>
    <tag k="name" v="Wardlow Street"/>
  </way>
  <way id="4761708" version="1" timestamp="2007-07-29T20:51:33Z" uid="8328" user="benpre" changeset="176356">
    <nd ref="30407087"/>
    <nd ref="32457850"/>
    <nd ref="30407089"/>
    <nd ref="30407091"/>
    <nd ref="30407092"/>
    <nd ref="30407094"/>
    <nd ref="30407095"/>
    <nd ref="30407097"/>
    <nd ref="30407098"/>
    <nd ref="30407099"/>
    <nd ref="30407100"/>
    <nd ref="30407102"/>
    <nd ref="32863174"/>
    <nd ref="32863175"/>
    <nd ref="32863176"/>
    <nd ref="32863177"/>
    <nd ref="32863178"/>
    <nd ref="32863179"/>
    <nd ref="32863180"/>
    <nd ref="32863181"/>
    <nd ref="32863182"/>
    <nd ref="32863183"/>
    <nd ref="32863184"/>
    <nd ref="32863185"/>
    <nd ref="32863186"/>
    <nd ref="32863187"/>
    <tag k="created_by" v="JOSM"/>
    <tag k="highway" v="secondary"/>
    <tag k="name" v="Frankenbacher Straße"/>
  </way>
  <way id="4761773" version="1" timestamp="2007-06-15T21:25:04Z" uid="8619" user="cetest" changeset="97323">
    <nd ref="30407709"/>
    <nd ref="30407711"/>
    <tag k="created_by" v="JOSM"/>
    <tag k="highway" v="cycleway"/>
    <tag k="name" v="Isaac da Costalaan"/>
  </way>
  <way id="4761773" version="2" timestamp="2007-11-06T20:19:34Z" uid="8619" user="cetest" changeset="423773"/>
  <way id="4761777" version="1" timestamp="2007-06-15T21:25:05Z" uid="8619" user="cetest" changeset="97323">
    <nd ref="30407719"/>
    <nd ref="30407720"/>
    <nd ref="30407721"/>
    <tag k="created_by" v="JOSM"/>
    <tag k="highway" v="footway"/>
    <tag k="name" v="Staringpad"/>
  </way>
  <way id="4761777" version="2" timestamp="2007-11-06T20:19:32Z" uid="8619" user="cetest" changeset="423773">
    <nd ref="30407719"/>
    <nd ref="30407720"/>
    <nd ref="44777272"/>
    <tag k="created_by" v="JOSM"/>
    <tag k="highway" v="footway"/>
    <tag k="name" v="Staringpad"/>
  </way>
  <way id="4761777" version="3" timestamp="2007-11-06T20:26:48Z" uid="8619" user="cetest" changeset="423773">
    <nd ref="30407719"/>
    <nd ref="30407720"/>
    <tag k="bridge" v="true"/>
    <tag k="created_by" v="JOSM"/>
    <tag k="highway" v="footway"/>
    <tag k="lanes" v="1"/>
    <tag k="layer" v="1"/>
    <tag k="name" v="Staringpad"/>
    <tag k="surface" v="paved"/>
    <tag k="width" v="4"/>
  </way>
  <way id="4761800" version="12" timestamp="2008-09-14T16:17:12Z" uid="6975" user="ulfl" changeset="640534">
    <nd ref="30336817"/>
    <nd ref="30336821"/>
    <nd ref="30336824"/>
    <nd ref="30408054"/>
    <nd ref="30408056"/>
    <nd ref="30408058"/>
    <nd ref="30408061"/>
    <nd ref="30408064"/>
    <tag k="highway" v="motorway"/>
    <tag k="nat_ref" v="A4"/>
    <tag k="oneway" v="yes"/>
    <tag k="ref" v="A23; A4"/>
    <tag k="toll" v="yes"/>
  </way>
  <way id="4761804" version="1" timestamp="2007-06-26T21:46:33Z" uid="8328" user="benpre" changeset="114370">
    <nd ref="30408024"/>
    <nd ref="30408026"/>
    <nd ref="30408027"/>
    <nd ref="30408028"/>
    <nd ref="30408029"/>
    <nd ref="30408030"/>
    <nd ref="30408031"/>
    <nd ref="30408032"/>
    <nd ref="30408033"/>
    <nd ref="30408034"/>
    <nd ref="30408035"/>
    <nd ref="30408129"/>
    <tag k="created_by" v="Potlatch alpha"/>
    <tag k="name" v="Ammertalbahn"/>
    <tag k="railway" v="rail"/>
  </way>
  <way id="4761849" version="12" timestamp="2007-12-01T14:21:47Z" uid="8328" user="benpre" changeset="23239">
    <nd ref="26061113"/>
    <nd ref="25844562"/>
    <nd ref="30408724"/>
    <nd ref="128569927"/>
    <nd ref="30408725"/>
    <nd ref="31611270"/>
    <nd ref="30408726"/>
    <nd ref="63697602"/>
    <nd ref="30408727"/>
    <nd ref="30408728"/>
    <nd ref="28889922"/>
    <nd ref="30408729"/>
    <nd ref="32863129"/>
    <nd ref="30408730"/>
    <nd ref="26992537"/>
    <nd ref="33676800"/>
    <nd ref="33676847"/>
    <nd ref="26992536"/>
    <nd ref="93578147"/>
    <nd ref="28531065"/>
    <nd ref="130219204"/>
    <nd ref="49842149"/>
    <nd ref="93564063"/>
    <nd ref="26992535"/>
    <tag k="created_by" v="Potlatch 0.5d"/>
    <tag k="highway" v="primary"/>
    <tag k="name" v="Herrenberger Straße"/>
    <tag k="nat_name" v="K1047"/>
  </way>
  <way id="4761864" version="2" timestamp="2007-10-26T23:01:59Z" uid="6454" user="B10xxx" changeset="330590">
    <nd ref="30408768"/>
    <nd ref="27276971"/>
    <nd ref="88411561"/>
    <nd ref="30408752"/>
    <nd ref="26162583"/>
    <tag k="created_by" v="JOSM"/>
    <tag k="highway" v="residential"/>
    <tag k="name" v="Busseallee"/>
  </way>
  <way id="4761898" version="2" timestamp="2007-12-02T23:05:40Z" uid="17602" user="B10xyz" changeset="53383">
    <nd ref="29808786"/>
    <nd ref="148768606"/>
    <nd ref="30409440"/>
    <nd ref="30409447"/>
    <nd ref="30409450"/>
    <nd ref="30236865"/>
    <tag k="created_by" v="Potlatch 0.5d"/>
    <tag k="highway" v="residential"/>
  </way>
  <way id="4761898" version="3" timestamp="2007-12-02T23:08:20Z" uid="17602" user="B10xyz" changeset="53383">
    <nd ref="29808786"/>
    <nd ref="148768606"/>
    <nd ref="30409440"/>
    <nd ref="30409447"/>
    <nd ref="30409450"/>
    <nd ref="148771691"/>
    <nd ref="30236865"/>
    <tag k="created_by" v="Potlatch 0.5d"/>
    <tag k="highway" v="residential"/>
  </way>
  <way id="4761924" version="1" timestamp="2007-07-11T22:30:05Z" uid="8328" user="benpre" changeset="141044">
    <nd ref="30409415"/>
    <nd ref="30409432"/>
    <nd ref="30409430"/>
    <nd ref="30409424"/>
    <tag k="created_by" v="JOSM"/>
    <tag k="highway" v="secondary"/>
    <tag k="name" v="Caspar-David-Friedrich-Straße"/>
    <tag k="oneway" v="yes"/>
  </way>
  <way id="4761925" version="1" timestamp="2007-07-11T22:30:05Z" uid="8328" user="benpre" changeset="141044">
    <nd ref="30409422"/>
    <nd ref="30409426"/>
    <nd ref="30409428"/>
    <nd ref="30409415"/>
    <tag k="created_by" v="JOSM"/>
    <tag k="highway" v="secondary"/>
    <tag k="name" v="Caspar-David-Friedrich-Straße"/>
    <tag k="oneway" v="yes"/>
  </way>
  <way id="4761991" version="1" timestamp="2007-09-18T16:36:55Z" uid="8328" user="benpre" changeset="463499">
    <nd ref="30398194"/>
    <nd ref="30410858"/>
    <nd ref="30410860"/>
    <nd ref="30410863"/>
    <nd ref="30410865"/>
    <nd ref="30410867"/>
    <nd ref="30410870"/>
    <nd ref="30410872"/>
    <nd ref="30410874"/>
    <nd ref="30410875"/>
    <nd ref="30410876"/>
    <nd ref="30410877"/>
    <nd ref="30410878"/>
    <nd ref="30410879"/>
    <nd ref="30410880"/>
    <nd ref="30410881"/>
    <nd ref="30410882"/>
    <nd ref="30410885"/>
    <nd ref="30410887"/>
    <nd ref="30398163"/>
    <tag k="created_by" v="JOSM"/>
    <tag k="name" v="L&apos;Ill"/>
    <tag k="waterway" v="river"/>
  </way>
</osm>
