<?xml version='1.0' encoding='UTF-8'?>
<osm version="0.6" generator="libosmium/2.20.0">
  <way id="47650291" version="2" timestamp="2010-04-07T20:54:31Z" uid="20587" user="balrog-kun" changeset="4355840">
    <nd ref="606260009"/>
    <nd ref="77181225"/>
    <tag k="highway" v="residential"/>
    <tag k="name" v="Shannon Drive Northeast"/>
    <tag k="tiger:cfcc" v="A41"/>
    <tag k="tiger:county" v="Morton, ND"/>
    <tag k="tiger:name_base" v="Shannon"/>
    <tag k="tiger:name_direction_suffix" v="NE"/>
    <tag k="tiger:name_type" v="Dr"/>
    <tag k="tiger:reviewed" v="no"/>
    <tag k="tiger:separated" v="no"/>
    <tag k="tiger:source" v="tiger_import_dch_v0.6_20070829"/>
    <tag k="tiger:tlid" v="199014489"/>
    <tag k="tiger:zip_left" v="58554"/>
    <tag k="tiger:zip_right" v="58554"/>
  </way>
  <way id="47650292" version="2" timestamp="2010-04-07T20:54:32Z" uid="20587" user="balrog-kun" changeset="4355840">
    <nd ref="77190181"/>
    <nd ref="77190183"/>
    <tag k="highway" v="turning_circle"/>
    <tag k="name" v="9th Avenue Northwest"/>
    <tag k="tiger:cfcc" v="A41"/>
    <tag k="tiger:county" v="Morton, ND"/>
    <tag k="tiger:name_base" v="9th"/>
    <tag k="tiger:name_direction_suffix" v="NW"/>
    <tag k="tiger:name_type" v="Ave"/>
    <tag k="tiger:reviewed" v="no"/>
    <tag k="tiger:separated" v="no"/>
    <tag k="tiger:source" v="tiger_import_dch_v0.6_20070829"/>
    <tag k="tiger:tlid" v="199014082:199023843"/>
    <tag k="tiger:zip_left" v="58554"/>
    <tag k="tiger:zip_right" v="58554"/>
  </way>
  <way id="47650293" version="2" timestamp="2010-04-07T20:54:32Z" uid="20587" user="balrog-kun" changeset="4355840">
    <nd ref="606260040"/>
    <nd ref="77183316"/>
    <tag k="highway" v="turning_circle"/>
    <tag k="name" v="Terry Place"/>
    <tag k="tiger:cfcc" v="A41"/>
    <tag k="tiger:county" v="Morton, ND"/>
    <tag k="tiger:name_base" v="Terry"/>
    <tag k="tiger:name_type" v="Pl"/>
    <tag k="tiger:reviewed" v="no"/>
    <tag k="tiger:separated" v="no"/>
    <tag k="tiger:source" v="tiger_import_dch_v0.6_20070829"/>
    <tag k="tiger:tlid" v="199014069"/>
    <tag k="tiger:zip_left" v="58554"/>
    <tag k="tiger:zip_right" v="58554"/>
  </way>
  <way id="47650297" version="3" timestamp="2010-05-11T12:02:20Z" uid="74617" user="JohnSmith" changeset="4667529">
    <nd ref="25943298"/>
    <nd ref="25943299"/>
    <nd ref="25943300"/>
    <nd ref="25943301"/>
    <nd ref="729650947"/>
    <nd ref="25943302"/>
    <nd ref="25943303"/>
    <nd ref="666533634"/>
    <nd ref="25943304"/>
    <tag k="highway" v="primary"/>
    <tag k="name" v="Cormorant Road"/>
    <tag k="oneway" v="yes"/>
  </way>
  <way id="47650699" version="2" timestamp="2010-03-28T11:38:53Z" uid="20587" user="balrog-kun" changeset="4254597">
    <nd ref="606266644"/>
    <nd ref="606266645"/>
    <nd ref="606266646"/>
    <nd ref="606266647"/>
    <nd ref="606266648"/>
    <nd ref="606266649"/>
    <nd ref="606266650"/>
    <tag k="highway" v="residential"/>
    <tag k="name" v="Deer Canyon Place"/>
  </way>
  <way id="47650705" version="2" timestamp="2010-03-28T11:38:53Z" uid="20587" user="balrog-kun" changeset="4254597">
    <nd ref="606266651"/>
    <nd ref="606266652"/>
    <nd ref="606266653"/>
    <nd ref="606266654"/>
    <nd ref="606266655"/>
    <nd ref="606266656"/>
    <tag k="highway" v="residential"/>
    <tag k="name" v="Trailhead Place"/>
  </way>
  <way id="47650707" version="2" timestamp="2010-03-28T11:38:53Z" uid="20587" user="balrog-kun" changeset="4254597">
    <nd ref="606266646"/>
    <nd ref="606266657"/>
    <nd ref="606266653"/>
    <tag k="highway" v="residential"/>
    <tag k="name" v="Torrey Arbor Lane"/>
  </way>
  <way id="47650712" version="2" timestamp="2010-03-28T11:38:54Z" uid="20587" user="balrog-kun" changeset="4254597">
    <nd ref="606266648"/>
    <nd ref="606266654"/>
    <nd ref="606266658"/>
    <nd ref="606266659"/>
    <nd ref="606266660"/>
    <nd ref="606266661"/>
    <tag k="highway" v="residential"/>
    <tag k="name" v="Stagecoach Place"/>
  </way>
  <way id="47650715" version="2" timestamp="2010-03-28T11:38:54Z" uid="20587" user="balrog-kun" changeset="4254597">
    <nd ref="606266659"/>
    <nd ref="606266662"/>
    <nd ref="606266663"/>
    <tag k="highway" v="residential"/>
    <tag k="name" v="Torrey Crest Place"/>
  </way>
  <way id="47650739" version="2" timestamp="2010-03-28T11:38:54Z" uid="20587" user="balrog-kun" changeset="4254597">
    <nd ref="606266672"/>
    <nd ref="606266673"/>
    <nd ref="606266674"/>
    <nd ref="606266644"/>
    <nd ref="606266664"/>
    <nd ref="606266651"/>
    <nd ref="606266675"/>
    <tag k="highway" v="residential"/>
    <tag k="name" v="Torrey Gardens Place"/>
  </way>
</osm>
