<?xml version='1.0' encoding='UTF-8'?>
<osm version="0.6" generator="libosmium/2.20.0">
  <way id="47706222" version="2" timestamp="2010-03-15T23:28:51Z" uid="23543" user="jkjk" changeset="4139825">
    <nd ref="606980837"/>
    <nd ref="606980838"/>
    <nd ref="606980839"/>
    <nd ref="606980840"/>
    <nd ref="436255428"/>
    <tag k="highway" v="motorway"/>
    <tag k="name" v="서울외곽순환고속도로 (Seoul Outer Circular Expressway)"/>
    <tag k="name:en" v="Seoul Outer Circular Expressway"/>
    <tag k="name:ko_rm" v="Seouloegwaksunhwangosokdoro"/>
    <tag k="ncat" v="고속도로"/>
    <tag k="oneway" v="yes"/>
    <tag k="ref" v="100"/>
    <tag k="source" v="NTIC"/>
  </way>
  <way id="47706309" version="2" timestamp="2010-04-03T04:20:35Z" uid="20587" user="balrog-kun" changeset="4309442">
    <nd ref="606981634"/>
    <nd ref="606981636"/>
    <tag k="highway" v="residential"/>
    <tag k="name" v="East Merlot Street"/>
  </way>
  <way id="47706311" version="2" timestamp="2010-04-03T04:20:35Z" uid="20587" user="balrog-kun" changeset="4309442">
    <nd ref="606981638"/>
    <nd ref="606981634"/>
    <tag k="highway" v="residential"/>
    <tag k="name" v="South Rome Street"/>
  </way>
  <way id="47706312" version="2" timestamp="2010-04-03T04:20:35Z" uid="20587" user="balrog-kun" changeset="4309442">
    <nd ref="606981623"/>
    <nd ref="606981635"/>
    <tag k="highway" v="residential"/>
    <tag k="name" v="East Dubois Avenue"/>
  </way>
  <way id="47706313" version="2" timestamp="2010-04-03T04:20:35Z" uid="20587" user="balrog-kun" changeset="4309442">
    <nd ref="606981678"/>
    <nd ref="606981635"/>
    <tag k="highway" v="residential"/>
    <tag k="name" v="South Rome Street"/>
  </way>
  <way id="47706317" version="2" timestamp="2010-04-03T04:20:35Z" uid="20587" user="balrog-kun" changeset="4309442">
    <nd ref="606981631"/>
    <nd ref="606981623"/>
    <tag k="highway" v="residential"/>
    <tag k="name" v="East Dubois Avenue"/>
  </way>
  <way id="47706318" version="2" timestamp="2010-04-03T04:20:35Z" uid="20587" user="balrog-kun" changeset="4309442">
    <nd ref="606981652"/>
    <nd ref="606981664"/>
    <nd ref="606981666"/>
    <nd ref="606981660"/>
    <nd ref="606981662"/>
    <nd ref="606981673"/>
    <nd ref="606981676"/>
    <nd ref="606981669"/>
    <nd ref="606981671"/>
    <nd ref="606981679"/>
    <nd ref="606981682"/>
    <nd ref="606981641"/>
    <tag k="highway" v="residential"/>
    <tag k="name" v="East Merlot Street"/>
  </way>
  <way id="47706320" version="2" timestamp="2010-04-03T04:20:35Z" uid="20587" user="balrog-kun" changeset="4309442">
    <nd ref="606981616"/>
    <nd ref="606981632"/>
    <nd ref="606981633"/>
    <tag k="highway" v="residential"/>
    <tag k="name" v="East Lafayette Avenue"/>
  </way>
  <way id="47706322" version="2" timestamp="2010-04-03T04:20:36Z" uid="20587" user="balrog-kun" changeset="4309442">
    <nd ref="606981652"/>
    <nd ref="606981654"/>
    <nd ref="606981616"/>
    <tag k="highway" v="residential"/>
    <tag k="name" v="South Bahama Drive"/>
  </way>
  <way id="47706324" version="3" timestamp="2010-04-03T04:20:36Z" uid="20587" user="balrog-kun" changeset="4309442">
    <nd ref="606981964"/>
    <nd ref="606981696"/>
    <nd ref="606981694"/>
    <nd ref="606981692"/>
    <nd ref="606981703"/>
    <nd ref="606981701"/>
    <nd ref="606981699"/>
    <nd ref="606981652"/>
    <tag k="highway" v="residential"/>
    <tag k="name" v="East Merlot Street"/>
  </way>
  <way id="47706326" version="2" timestamp="2010-04-03T04:20:36Z" uid="20587" user="balrog-kun" changeset="4309442">
    <nd ref="606981629"/>
    <nd ref="606981616"/>
    <tag k="highway" v="residential"/>
    <tag k="name" v="East Lafayette Avenue"/>
  </way>
  <way id="47706329" version="2" timestamp="2010-04-03T04:20:36Z" uid="20587" user="balrog-kun" changeset="4309442">
    <nd ref="606981635"/>
    <nd ref="606981649"/>
    <nd ref="606981647"/>
    <tag k="highway" v="residential"/>
    <tag k="name" v="East Dubois Avenue"/>
  </way>
  <way id="47706331" version="2" timestamp="2010-04-03T04:20:36Z" uid="20587" user="balrog-kun" changeset="4309442">
    <nd ref="606981629"/>
    <nd ref="606981631"/>
    <tag k="highway" v="residential"/>
    <tag k="name" v="South Brett Street"/>
  </way>
  <way id="47706332" version="2" timestamp="2010-04-03T04:20:36Z" uid="20587" user="balrog-kun" changeset="4309442">
    <nd ref="606981641"/>
    <nd ref="606981645"/>
    <nd ref="606981643"/>
    <nd ref="606981638"/>
    <tag k="highway" v="residential"/>
    <tag k="name" v="East Merlot Street"/>
  </way>
  <way id="47706334" version="2" timestamp="2010-04-03T04:20:36Z" uid="20587" user="balrog-kun" changeset="4309442">
    <nd ref="606981636"/>
    <nd ref="606981690"/>
    <tag k="highway" v="residential"/>
    <tag k="name" v="South Peppertree Drive"/>
  </way>
  <way id="47706336" version="2" timestamp="2010-04-03T04:20:36Z" uid="20587" user="balrog-kun" changeset="4309442">
    <nd ref="606981625"/>
    <nd ref="606981627"/>
    <tag k="highway" v="residential"/>
    <tag k="name" v="East Ravenswood Drive"/>
  </way>
  <way id="47706337" version="3" timestamp="2010-04-03T04:20:36Z" uid="20587" user="balrog-kun" changeset="4309442">
    <nd ref="606981963"/>
    <nd ref="606981640"/>
    <nd ref="606981639"/>
    <nd ref="606981641"/>
    <tag k="highway" v="residential"/>
    <tag k="name" v="South Key Biscayne Drive"/>
  </way>
  <way id="47706339" version="2" timestamp="2010-04-03T04:20:37Z" uid="20587" user="balrog-kun" changeset="4309442">
    <nd ref="606981678"/>
    <nd ref="606981690"/>
    <tag k="highway" v="residential"/>
    <tag k="name" v="East Lafayette Avenue"/>
  </way>
  <way id="47706341" version="2" timestamp="2010-04-03T04:20:37Z" uid="20587" user="balrog-kun" changeset="4309442">
    <nd ref="606981616"/>
    <nd ref="606981619"/>
    <nd ref="606981621"/>
    <nd ref="606981623"/>
    <tag k="highway" v="residential"/>
    <tag k="name" v="South Bahama Drive"/>
  </way>
  <way id="47706344" version="2" timestamp="2010-04-03T04:20:37Z" uid="20587" user="balrog-kun" changeset="4309442">
    <nd ref="606981625"/>
    <nd ref="606981638"/>
    <tag k="highway" v="residential"/>
    <tag k="name" v="South Rome Street"/>
  </way>
  <way id="47706596" version="2" timestamp="2010-03-30T20:00:55Z" uid="99207" user="Lar Kiesel" changeset="4280307"/>
</osm>
