<?xml version='1.0' encoding='UTF-8'?>
<osm version="0.6" generator="libosmium/2.20.0">
  <way id="47731160" version="2" timestamp="2010-04-03T04:20:50Z" uid="20587" user="balrog-kun" changeset="4309442">
    <nd ref="607233225"/>
    <nd ref="607233203"/>
    <tag k="highway" v="residential"/>
    <tag k="name" v="South Sorrell Lane"/>
  </way>
  <way id="47731161" version="2" timestamp="2010-04-03T04:20:51Z" uid="20587" user="balrog-kun" changeset="4309442">
    <nd ref="607233232"/>
    <nd ref="607233234"/>
    <tag k="highway" v="residential"/>
    <tag k="name" v="East Aris Drive"/>
  </way>
  <way id="47731162" version="2" timestamp="2010-04-03T04:20:51Z" uid="20587" user="balrog-kun" changeset="4309442">
    <nd ref="607233229"/>
    <nd ref="607233232"/>
    <tag k="highway" v="residential"/>
    <tag k="name" v="East Aris Drive"/>
  </way>
  <way id="47731163" version="2" timestamp="2010-04-03T04:20:51Z" uid="20587" user="balrog-kun" changeset="4309442">
    <nd ref="607233213"/>
    <nd ref="607233234"/>
    <tag k="highway" v="residential"/>
    <tag k="name" v="South Marin Drive"/>
  </way>
  <way id="47731164" version="2" timestamp="2010-04-03T04:20:51Z" uid="20587" user="balrog-kun" changeset="4309442">
    <nd ref="607233227"/>
    <nd ref="607233229"/>
    <tag k="highway" v="residential"/>
    <tag k="name" v="East Aris Court"/>
  </way>
  <way id="47731165" version="3" timestamp="2010-04-03T04:20:51Z" uid="20587" user="balrog-kun" changeset="4309442">
    <nd ref="607233232"/>
    <nd ref="607234618"/>
    <tag k="highway" v="residential"/>
    <tag k="name" v="South Columbus Drive"/>
  </way>
  <way id="47731166" version="2" timestamp="2010-04-03T04:20:51Z" uid="20587" user="balrog-kun" changeset="4309442">
    <nd ref="607233218"/>
    <nd ref="607233221"/>
    <nd ref="607233225"/>
    <tag k="highway" v="residential"/>
    <tag k="name" v="East Blue Ridge Court"/>
  </way>
  <way id="47731167" version="2" timestamp="2010-04-03T04:20:51Z" uid="20587" user="balrog-kun" changeset="4309442">
    <nd ref="607233225"/>
    <nd ref="607233237"/>
    <tag k="highway" v="residential"/>
    <tag k="name" v="East Blue Ridge Way"/>
  </way>
  <way id="47731169" version="3" timestamp="2010-04-03T04:20:51Z" uid="20587" user="balrog-kun" changeset="4309442">
    <nd ref="607233213"/>
    <nd ref="607199047"/>
    <tag k="highway" v="residential"/>
    <tag k="name" v="East Crescent Drive"/>
  </way>
  <way id="47731170" version="2" timestamp="2010-04-03T04:20:51Z" uid="20587" user="balrog-kun" changeset="4309442">
    <nd ref="607233239"/>
    <nd ref="607233203"/>
    <tag k="highway" v="residential"/>
    <tag k="name" v="East Crescent Court"/>
  </way>
  <way id="47731171" version="2" timestamp="2010-04-03T04:20:51Z" uid="20587" user="balrog-kun" changeset="4309442">
    <nd ref="607233210"/>
    <nd ref="607233213"/>
    <tag k="highway" v="residential"/>
    <tag k="name" v="East Crescent Court"/>
  </way>
  <way id="47731172" version="2" timestamp="2010-04-03T04:20:51Z" uid="20587" user="balrog-kun" changeset="4309442">
    <nd ref="607233237"/>
    <nd ref="607233213"/>
    <tag k="highway" v="residential"/>
    <tag k="name" v="South Marin Drive"/>
  </way>
  <way id="47731173" version="2" timestamp="2010-04-03T04:20:51Z" uid="20587" user="balrog-kun" changeset="4309442">
    <nd ref="607233203"/>
    <nd ref="607233207"/>
    <tag k="highway" v="residential"/>
    <tag k="name" v="East Crescent Court"/>
  </way>
  <way id="47731174" version="2" timestamp="2010-04-03T04:20:51Z" uid="20587" user="balrog-kun" changeset="4309442">
    <nd ref="607233203"/>
    <nd ref="607233229"/>
    <tag k="highway" v="residential"/>
    <tag k="name" v="South Sorrell Lane"/>
  </way>
</osm>
