<?xml version='1.0' encoding='UTF-8'?>
<osm version="0.6" generator="libosmium/2.20.0">
  <way id="47746161" version="3" timestamp="2010-06-29T19:06:41Z" uid="74617" user="JohnSmith" changeset="5108182">
    <nd ref="607411347"/>
    <nd ref="607411332"/>
    <nd ref="607411354"/>
    <nd ref="607411349"/>
    <nd ref="607411347"/>
    <tag k="fixme" v="sport=football is ambiguous, see http://wiki.osm.org/wiki/Football for more details"/>
    <tag k="landuse" v="pitch"/>
    <tag k="sport" v="football"/>
    <tag k="surface" v="ground"/>
  </way>
  <way id="47746242" version="2" timestamp="2010-04-07T14:12:51Z" uid="20587" user="balrog-kun" changeset="4353646">
    <nd ref="607412074"/>
    <nd ref="607412083"/>
    <nd ref="607412085"/>
    <nd ref="607412086"/>
    <nd ref="607412092"/>
    <nd ref="607412096"/>
    <nd ref="607412099"/>
    <nd ref="607412104"/>
    <tag k="highway" v="residential"/>
    <tag k="name" v="Lucas Court"/>
  </way>
  <way id="47746282" version="2" timestamp="2010-04-07T14:12:52Z" uid="20587" user="balrog-kun" changeset="4353646">
    <nd ref="607412348"/>
    <nd ref="607412353"/>
    <nd ref="607412357"/>
    <tag k="highway" v="residential"/>
    <tag k="name" v="Cold Creek Drive"/>
  </way>
  <way id="47746286" version="2" timestamp="2010-04-07T14:12:52Z" uid="20587" user="balrog-kun" changeset="4353646">
    <nd ref="607412367"/>
    <nd ref="607412371"/>
    <nd ref="607412377"/>
    <nd ref="607412382"/>
    <tag k="highway" v="residential"/>
    <tag k="name" v="Peachtree Lane"/>
  </way>
  <way id="47746289" version="2" timestamp="2010-04-07T14:12:52Z" uid="20587" user="balrog-kun" changeset="4353646">
    <nd ref="607412399"/>
    <nd ref="607412382"/>
    <nd ref="607412403"/>
    <tag k="highway" v="residential"/>
    <tag k="name" v="Peachtree Court"/>
  </way>
  <way id="47746306" version="2" timestamp="2010-04-07T14:12:52Z" uid="20587" user="balrog-kun" changeset="4353646">
    <nd ref="607412463"/>
    <nd ref="607412468"/>
    <nd ref="607412503"/>
    <nd ref="607412511"/>
    <nd ref="607412074"/>
    <nd ref="607412521"/>
    <nd ref="607412527"/>
    <nd ref="607412530"/>
    <tag k="highway" v="residential"/>
    <tag k="name" v="Shane Court"/>
  </way>
  <way id="47746322" version="2" timestamp="2010-04-07T14:12:52Z" uid="20587" user="balrog-kun" changeset="4353646">
    <nd ref="607412655"/>
    <nd ref="607412659"/>
    <nd ref="607412367"/>
    <nd ref="607412662"/>
    <nd ref="607412348"/>
    <nd ref="607412667"/>
    <tag k="highway" v="residential"/>
    <tag k="name" v="Cold Creek Drive"/>
  </way>
  <way id="47746855" version="2" timestamp="2010-04-07T14:12:53Z" uid="20587" user="balrog-kun" changeset="4353646">
    <nd ref="607416375"/>
    <nd ref="224712135"/>
    <tag k="highway" v="residential"/>
    <tag k="name" v="West Walker Street"/>
    <tag k="tiger:cfcc" v="A41"/>
    <tag k="tiger:county" v="Grayson, TX"/>
    <tag k="tiger:name_base" v="Walker"/>
    <tag k="tiger:name_direction_prefix" v="W"/>
    <tag k="tiger:name_type" v="St"/>
    <tag k="tiger:reviewed" v="no"/>
    <tag k="tiger:separated" v="no"/>
    <tag k="tiger:source" v="tiger_import_dch_v0.6_20070829"/>
    <tag k="tiger:tlid" v="63384374"/>
    <tag k="tiger:zip_left" v="75020"/>
    <tag k="tiger:zip_right" v="75020"/>
  </way>
</osm>
