<?xml version='1.0' encoding='UTF-8'?>
<osm version="0.6" generator="libosmium/2.20.0">
  <way id="47830004" version="2" timestamp="2010-04-03T04:21:05Z" uid="20587" user="balrog-kun" changeset="4309442">
    <nd ref="608393005"/>
    <nd ref="608393030"/>
    <tag k="highway" v="residential"/>
    <tag k="name" v="East Canyon Way"/>
  </way>
  <way id="47830005" version="2" timestamp="2010-04-03T04:21:05Z" uid="20587" user="balrog-kun" changeset="4309442">
    <nd ref="608393360"/>
    <nd ref="608393345"/>
    <tag k="highway" v="residential"/>
    <tag k="name" v="South White Place"/>
  </way>
  <way id="47830007" version="2" timestamp="2010-04-03T04:21:05Z" uid="20587" user="balrog-kun" changeset="4309442">
    <nd ref="608393000"/>
    <nd ref="608393027"/>
    <tag k="highway" v="residential"/>
    <tag k="name" v="South Dragoon Drive"/>
  </way>
  <way id="47830008" version="3" timestamp="2010-04-03T04:21:05Z" uid="20587" user="balrog-kun" changeset="4309442">
    <nd ref="608398374"/>
    <nd ref="608393356"/>
    <nd ref="608393097"/>
    <nd ref="608393252"/>
    <tag k="highway" v="residential"/>
    <tag k="name" v="East Brooks Farm Road"/>
  </way>
  <way id="47830010" version="2" timestamp="2010-04-03T04:21:05Z" uid="20587" user="balrog-kun" changeset="4309442">
    <nd ref="608393017"/>
    <nd ref="608393025"/>
    <nd ref="608393019"/>
    <tag k="highway" v="residential"/>
    <tag k="name" v="South Dragoon Drive"/>
  </way>
  <way id="47830011" version="2" timestamp="2010-04-03T04:21:06Z" uid="20587" user="balrog-kun" changeset="4309442">
    <nd ref="608393204"/>
    <nd ref="608393395"/>
    <tag k="highway" v="residential"/>
    <tag k="name" v="East Bartlett Wy"/>
  </way>
  <way id="47830012" version="2" timestamp="2010-04-03T04:21:06Z" uid="20587" user="balrog-kun" changeset="4309442">
    <nd ref="608393021"/>
    <nd ref="608393023"/>
    <nd ref="608393010"/>
    <tag k="highway" v="residential"/>
    <tag k="name" v="East Canyon Way"/>
  </way>
  <way id="47830014" version="2" timestamp="2010-04-03T04:21:06Z" uid="20587" user="balrog-kun" changeset="4309442">
    <nd ref="608393295"/>
    <nd ref="608393392"/>
    <nd ref="608393363"/>
    <tag k="highway" v="residential"/>
    <tag k="name" v="East Lynx Place"/>
  </way>
  <way id="47830015" version="2" timestamp="2010-04-03T04:21:06Z" uid="20587" user="balrog-kun" changeset="4309442">
    <nd ref="608393019"/>
    <nd ref="608393005"/>
    <tag k="highway" v="residential"/>
    <tag k="name" v="South Dragoon Drive"/>
  </way>
  <way id="47830016" version="2" timestamp="2010-04-03T04:21:06Z" uid="20587" user="balrog-kun" changeset="4309442">
    <nd ref="608393269"/>
    <nd ref="608393190"/>
    <tag k="highway" v="residential"/>
    <tag k="name" v="East Powell Place"/>
  </way>
  <way id="47830018" version="2" timestamp="2010-04-03T04:21:06Z" uid="20587" user="balrog-kun" changeset="4309442">
    <nd ref="608393012"/>
    <nd ref="608393013"/>
    <nd ref="608393015"/>
    <nd ref="608393017"/>
    <tag k="highway" v="residential"/>
    <tag k="name" v="South Dragoon Drive"/>
  </way>
  <way id="47830019" version="2" timestamp="2010-04-03T04:21:06Z" uid="20587" user="balrog-kun" changeset="4309442">
    <nd ref="608393421"/>
    <nd ref="608393423"/>
    <nd ref="608393425"/>
    <nd ref="608393426"/>
    <nd ref="608393416"/>
    <nd ref="608393419"/>
    <nd ref="608393345"/>
    <tag k="highway" v="residential"/>
    <tag k="name" v="East Lynx Place"/>
  </way>
  <way id="47830020" version="2" timestamp="2010-04-03T04:21:06Z" uid="20587" user="balrog-kun" changeset="4309442">
    <nd ref="608393008"/>
    <nd ref="608393010"/>
    <tag k="highway" v="residential"/>
    <tag k="name" v="South Whetstone Place"/>
  </way>
  <way id="47830021" version="2" timestamp="2010-04-03T04:21:06Z" uid="20587" user="balrog-kun" changeset="4309442">
    <nd ref="608393275"/>
    <nd ref="608393337"/>
    <nd ref="608393333"/>
    <tag k="highway" v="residential"/>
    <tag k="name" v="East Bartlett Place"/>
  </way>
  <way id="47830023" version="2" timestamp="2010-04-03T04:21:06Z" uid="20587" user="balrog-kun" changeset="4309442">
    <nd ref="608393000"/>
    <nd ref="608393005"/>
    <tag k="highway" v="residential"/>
    <tag k="name" v="East Canyon Way"/>
  </way>
  <way id="47830025" version="2" timestamp="2010-04-03T04:21:06Z" uid="20587" user="balrog-kun" changeset="4309442">
    <nd ref="608393341"/>
    <nd ref="608393352"/>
    <nd ref="608393349"/>
    <nd ref="608393329"/>
    <tag k="highway" v="residential"/>
    <tag k="name" v="East Mead Drive"/>
  </way>
  <way id="47830026" version="2" timestamp="2010-04-03T04:21:06Z" uid="20587" user="balrog-kun" changeset="4309442">
    <nd ref="608393204"/>
    <nd ref="608393459"/>
    <tag k="highway" v="residential"/>
    <tag k="name" v="South White Place"/>
  </way>
  <way id="47830027" version="2" timestamp="2010-04-03T04:21:06Z" uid="20587" user="balrog-kun" changeset="4309442">
    <nd ref="608393012"/>
    <nd ref="608393062"/>
    <tag k="highway" v="residential"/>
    <tag k="name" v="East Blue Ridge Place"/>
  </way>
  <way id="47830029" version="2" timestamp="2010-04-03T04:21:06Z" uid="20587" user="balrog-kun" changeset="4309442">
    <nd ref="608393414"/>
    <nd ref="608393341"/>
    <tag k="highway" v="residential"/>
    <tag k="name" v="South Birch Street"/>
  </way>
  <way id="47830030" version="2" timestamp="2010-04-03T04:21:06Z" uid="20587" user="balrog-kun" changeset="4309442">
    <nd ref="608393064"/>
    <nd ref="608393008"/>
    <tag k="highway" v="residential"/>
    <tag k="name" v="East Mead Drive"/>
  </way>
  <way id="47830031" version="2" timestamp="2010-04-03T04:21:07Z" uid="20587" user="balrog-kun" changeset="4309442">
    <nd ref="608393414"/>
    <nd ref="608393399"/>
    <nd ref="608393402"/>
    <nd ref="608393405"/>
    <nd ref="608393407"/>
    <tag k="highway" v="residential"/>
    <tag k="name" v="East Blue Ridge Place"/>
  </way>
  <way id="47830033" version="2" timestamp="2010-04-03T04:21:07Z" uid="20587" user="balrog-kun" changeset="4309442">
    <nd ref="608393051"/>
    <nd ref="608393057"/>
    <nd ref="608393060"/>
    <nd ref="608393054"/>
    <nd ref="608393047"/>
    <tag k="highway" v="residential"/>
    <tag k="name" v="East Horseshoe Drive"/>
  </way>
  <way id="47830035" version="2" timestamp="2010-04-03T04:21:07Z" uid="20587" user="balrog-kun" changeset="4309442">
    <nd ref="608393237"/>
    <nd ref="608393410"/>
    <tag k="highway" v="residential"/>
    <tag k="name" v="East Bartlett Place"/>
  </way>
  <way id="47830036" version="2" timestamp="2010-04-03T04:21:07Z" uid="20587" user="balrog-kun" changeset="4309442">
    <nd ref="608393027"/>
    <nd ref="608393049"/>
    <tag k="highway" v="residential"/>
    <tag k="name" v="East Horseshoe Drive"/>
  </way>
  <way id="47830038" version="2" timestamp="2010-04-03T04:21:07Z" uid="20587" user="balrog-kun" changeset="4309442">
    <nd ref="608393421"/>
    <nd ref="608393461"/>
    <tag k="highway" v="residential"/>
    <tag k="name" v="South Birch Street"/>
  </way>
  <way id="47830039" version="2" timestamp="2010-04-03T04:21:07Z" uid="20587" user="balrog-kun" changeset="4309442">
    <nd ref="608393030"/>
    <nd ref="608393049"/>
    <tag k="highway" v="residential"/>
    <tag k="name" v="South Adobe Drive"/>
  </way>
  <way id="47830040" version="2" timestamp="2010-04-03T04:21:07Z" uid="20587" user="balrog-kun" changeset="4309442">
    <nd ref="608393325"/>
    <nd ref="608393479"/>
    <nd ref="608393472"/>
    <nd ref="608393476"/>
    <nd ref="608393468"/>
    <tag k="highway" v="residential"/>
    <tag k="name" v="East San Carlos Place"/>
  </way>
  <way id="47830041" version="2" timestamp="2010-04-03T04:21:07Z" uid="20587" user="balrog-kun" changeset="4309442">
    <nd ref="608393045"/>
    <nd ref="608393043"/>
    <nd ref="608393047"/>
    <tag k="highway" v="residential"/>
    <tag k="name" v="South Buckskin Way"/>
  </way>
  <way id="47830042" version="2" timestamp="2010-04-03T04:21:07Z" uid="20587" user="balrog-kun" changeset="4309442">
    <nd ref="608393282"/>
    <nd ref="608393482"/>
    <tag k="highway" v="residential"/>
    <tag k="name" v="East Lynx Place"/>
  </way>
  <way id="47830043" version="2" timestamp="2010-04-03T04:21:07Z" uid="20587" user="balrog-kun" changeset="4309442">
    <nd ref="608393040"/>
    <nd ref="608393038"/>
    <tag k="highway" v="residential"/>
    <tag k="name" v="East Blue Ridge Place"/>
  </way>
  <way id="47830045" version="2" timestamp="2010-04-03T04:21:07Z" uid="20587" user="balrog-kun" changeset="4309442">
    <nd ref="608393035"/>
    <nd ref="608393032"/>
    <tag k="highway" v="residential"/>
    <tag k="name" v="South Four Peaks Way"/>
  </way>
  <way id="47830046" version="2" timestamp="2010-04-03T04:21:07Z" uid="20587" user="balrog-kun" changeset="4309442">
    <nd ref="608393074"/>
    <nd ref="608393082"/>
    <tag k="highway" v="residential"/>
    <tag k="name" v="East Mead Drive"/>
  </way>
  <way id="47830047" version="2" timestamp="2010-04-03T04:21:07Z" uid="20587" user="balrog-kun" changeset="4309442">
    <nd ref="608393206"/>
    <nd ref="608393246"/>
    <tag k="highway" v="residential"/>
    <tag k="name" v="South Huachuca Street"/>
  </way>
  <way id="47830048" version="3" timestamp="2010-04-03T04:21:07Z" uid="20587" user="balrog-kun" changeset="4309442">
    <nd ref="608398441"/>
    <nd ref="608393080"/>
    <nd ref="608393077"/>
    <nd ref="608393085"/>
    <nd ref="608393019"/>
    <tag k="highway" v="residential"/>
    <tag k="name" v="East Mead Drive"/>
  </way>
  <way id="47830049" version="2" timestamp="2010-04-03T04:21:07Z" uid="20587" user="balrog-kun" changeset="4309442">
    <nd ref="608393265"/>
    <nd ref="608393542"/>
    <nd ref="608393191"/>
    <tag k="highway" v="residential"/>
    <tag k="name" v="East San Carlos Place"/>
  </way>
  <way id="47830050" version="2" timestamp="2010-04-03T04:21:08Z" uid="20587" user="balrog-kun" changeset="4309442">
    <nd ref="608393021"/>
    <nd ref="608393051"/>
    <tag k="highway" v="residential"/>
    <tag k="name" v="South Miller Drive"/>
  </way>
  <way id="47830051" version="2" timestamp="2010-04-03T04:21:08Z" uid="20587" user="balrog-kun" changeset="4309442">
    <nd ref="608393466"/>
    <nd ref="608393492"/>
    <nd ref="608393523"/>
    <nd ref="608393517"/>
    <nd ref="608393520"/>
    <nd ref="608393528"/>
    <nd ref="608393531"/>
    <nd ref="608393526"/>
    <tag k="highway" v="residential"/>
    <tag k="name" v="East Horseshoe Drive"/>
  </way>
  <way id="47830052" version="2" timestamp="2010-04-03T04:21:08Z" uid="20587" user="balrog-kun" changeset="4309442">
    <nd ref="608393008"/>
    <nd ref="608393074"/>
    <tag k="highway" v="residential"/>
    <tag k="name" v="East Mead Drive"/>
  </way>
  <way id="47830053" version="2" timestamp="2010-04-03T04:21:08Z" uid="20587" user="balrog-kun" changeset="4309442">
    <nd ref="608393288"/>
    <nd ref="608393535"/>
    <nd ref="608393538"/>
    <nd ref="608393285"/>
    <tag k="highway" v="residential"/>
    <tag k="name" v="East Powell Place"/>
  </way>
  <way id="47830054" version="2" timestamp="2010-04-03T04:21:08Z" uid="20587" user="balrog-kun" changeset="4309442">
    <nd ref="608393071"/>
    <nd ref="608393012"/>
    <tag k="highway" v="residential"/>
    <tag k="name" v="East Blue Ridge Place"/>
  </way>
  <way id="47830055" version="2" timestamp="2010-04-03T04:21:08Z" uid="20587" user="balrog-kun" changeset="4309442">
    <nd ref="608393285"/>
    <nd ref="608393502"/>
    <tag k="highway" v="residential"/>
    <tag k="name" v="East Powell Place"/>
  </way>
  <way id="47830056" version="2" timestamp="2010-04-03T04:21:08Z" uid="20587" user="balrog-kun" changeset="4309442">
    <nd ref="608393062"/>
    <nd ref="608393068"/>
    <tag k="highway" v="residential"/>
    <tag k="name" v="South Four Peaks Way"/>
  </way>
  <way id="47830057" version="2" timestamp="2010-04-03T04:21:08Z" uid="20587" user="balrog-kun" changeset="4309442">
    <nd ref="608393341"/>
    <nd ref="608393499"/>
    <nd ref="608393510"/>
    <nd ref="608393507"/>
    <nd ref="608393505"/>
    <tag k="highway" v="residential"/>
    <tag k="name" v="South Birch Street"/>
  </way>
  <way id="47830059" version="2" timestamp="2010-04-03T04:21:08Z" uid="20587" user="balrog-kun" changeset="4309442">
    <nd ref="608393032"/>
    <nd ref="608393066"/>
    <tag k="highway" v="residential"/>
    <tag k="name" v="South Four Peaks Way"/>
  </way>
  <way id="47830063" version="2" timestamp="2010-04-03T04:21:08Z" uid="20587" user="balrog-kun" changeset="4309442">
    <nd ref="608393207"/>
    <nd ref="608393360"/>
    <tag k="highway" v="residential"/>
    <tag k="name" v="East Powell Place"/>
  </way>
  <way id="47830064" version="2" timestamp="2010-04-03T04:21:08Z" uid="20587" user="balrog-kun" changeset="4309442">
    <nd ref="608393040"/>
    <nd ref="608393064"/>
    <tag k="highway" v="residential"/>
    <tag k="name" v="South Miller Drive"/>
  </way>
  <way id="47830066" version="2" timestamp="2010-04-03T04:21:08Z" uid="20587" user="balrog-kun" changeset="4309442">
    <nd ref="608393185"/>
    <nd ref="608393188"/>
    <tag k="highway" v="residential"/>
    <tag k="name" v="East Lynx Place"/>
  </way>
  <way id="47830067" version="2" timestamp="2010-04-03T04:21:08Z" uid="20587" user="balrog-kun" changeset="4309442">
    <nd ref="608393573"/>
    <nd ref="608393280"/>
    <nd ref="608393576"/>
    <nd ref="608393579"/>
    <nd ref="608393582"/>
    <nd ref="608393585"/>
    <tag k="highway" v="residential"/>
    <tag k="name" v="East Blue Ridge Place"/>
  </way>
  <way id="47830069" version="2" timestamp="2010-04-03T04:21:08Z" uid="20587" user="balrog-kun" changeset="4309442">
    <nd ref="608393093"/>
    <nd ref="608393109"/>
    <nd ref="608393097"/>
    <tag k="highway" v="residential"/>
    <tag k="name" v="South Four Peaks Way"/>
  </way>
  <way id="47830070" version="2" timestamp="2010-04-03T04:21:08Z" uid="20587" user="balrog-kun" changeset="4309442">
    <nd ref="608393505"/>
    <nd ref="608393588"/>
    <nd ref="608393591"/>
    <nd ref="608393593"/>
    <nd ref="608393560"/>
    <tag k="highway" v="residential"/>
    <tag k="name" v="East Canyon Wy"/>
  </way>
  <way id="47830072" version="2" timestamp="2010-04-03T04:21:08Z" uid="20587" user="balrog-kun" changeset="4309442">
    <nd ref="608393098"/>
    <nd ref="608393101"/>
    <tag k="highway" v="residential"/>
    <tag k="name" v="East San Carlos Place"/>
  </way>
  <way id="47830073" version="2" timestamp="2010-04-03T04:21:09Z" uid="20587" user="balrog-kun" changeset="4309442">
    <nd ref="608393208"/>
    <nd ref="608393459"/>
    <tag k="highway" v="residential"/>
    <tag k="name" v="East San Carlos Place"/>
  </way>
  <way id="47830074" version="2" timestamp="2010-04-03T04:21:09Z" uid="20587" user="balrog-kun" changeset="4309442">
    <nd ref="608393017"/>
    <nd ref="608393095"/>
    <nd ref="608393088"/>
    <nd ref="608393035"/>
    <tag k="highway" v="residential"/>
    <tag k="name" v="East Mead Drive"/>
  </way>
  <way id="47830076" version="2" timestamp="2010-04-03T04:21:09Z" uid="20587" user="balrog-kun" changeset="4309442">
    <nd ref="608393457"/>
    <nd ref="608393515"/>
    <nd ref="608393512"/>
    <nd ref="608393569"/>
    <nd ref="608393461"/>
    <tag k="highway" v="residential"/>
    <tag k="name" v="East Blue Ridge Place"/>
  </way>
  <way id="47830077" version="2" timestamp="2010-04-03T04:21:09Z" uid="20587" user="balrog-kun" changeset="4309442">
    <nd ref="608393045"/>
    <nd ref="608393091"/>
    <nd ref="608393106"/>
    <nd ref="608393108"/>
    <tag k="highway" v="residential"/>
    <tag k="name" v="East Canyon Way"/>
  </way>
  <way id="47830078" version="2" timestamp="2010-04-03T04:21:09Z" uid="20587" user="balrog-kun" changeset="4309442">
    <nd ref="608393461"/>
    <nd ref="608393414"/>
    <tag k="highway" v="residential"/>
    <tag k="name" v="South Birch Street"/>
  </way>
  <way id="47830079" version="2" timestamp="2010-04-03T04:21:09Z" uid="20587" user="balrog-kun" changeset="4309442">
    <nd ref="608393035"/>
    <nd ref="608393068"/>
    <tag k="highway" v="residential"/>
    <tag k="name" v="East Mead Drive"/>
  </way>
  <way id="47830081" version="2" timestamp="2010-04-03T04:21:09Z" uid="20587" user="balrog-kun" changeset="4309442">
    <nd ref="608393407"/>
    <nd ref="608393544"/>
    <tag k="highway" v="residential"/>
    <tag k="name" v="East Blue Ridge Place"/>
  </way>
  <way id="47830082" version="2" timestamp="2010-04-03T04:21:12Z" uid="20587" user="balrog-kun" changeset="4309442">
    <nd ref="608393066"/>
    <nd ref="608393093"/>
    <tag k="highway" v="residential"/>
    <tag k="name" v="East Horseshoe Drive"/>
  </way>
  <way id="47830083" version="2" timestamp="2010-04-03T04:21:12Z" uid="20587" user="balrog-kun" changeset="4309442">
    <nd ref="608393597"/>
    <nd ref="608393265"/>
    <tag k="highway" v="residential"/>
    <tag k="name" v="East San Carlos Place"/>
  </way>
  <way id="47830084" version="2" timestamp="2010-04-03T04:21:12Z" uid="20587" user="balrog-kun" changeset="4309442">
    <nd ref="608393030"/>
    <nd ref="608393032"/>
    <tag k="highway" v="residential"/>
    <tag k="name" v="East Canyon Way"/>
  </way>
  <way id="47830086" version="2" timestamp="2010-04-03T04:21:12Z" uid="20587" user="balrog-kun" changeset="4309442">
    <nd ref="608393621"/>
    <nd ref="608393206"/>
    <tag k="highway" v="residential"/>
    <tag k="name" v="South Huachuca Street"/>
  </way>
  <way id="47830087" version="2" timestamp="2010-04-03T04:21:13Z" uid="20587" user="balrog-kun" changeset="4309442">
    <nd ref="608393074"/>
    <nd ref="608393045"/>
    <tag k="highway" v="residential"/>
    <tag k="name" v="South Buckskin Way"/>
  </way>
  <way id="47830088" version="2" timestamp="2010-04-03T04:21:13Z" uid="20587" user="balrog-kun" changeset="4309442">
    <nd ref="608393134"/>
    <nd ref="608393166"/>
    <nd ref="608393108"/>
    <tag k="highway" v="residential"/>
    <tag k="name" v="South 140th Street"/>
  </way>
  <way id="47830090" version="2" timestamp="2010-04-03T04:21:13Z" uid="20587" user="balrog-kun" changeset="4309442">
    <nd ref="608393551"/>
    <nd ref="608393553"/>
    <nd ref="608393395"/>
    <tag k="highway" v="residential"/>
    <tag k="name" v="South White Place"/>
  </way>
  <way id="47830091" version="2" timestamp="2010-04-03T04:21:13Z" uid="20587" user="balrog-kun" changeset="4309442">
    <nd ref="608393131"/>
    <nd ref="608393136"/>
    <tag k="highway" v="residential"/>
    <tag k="name" v="East Bartlett Place"/>
  </way>
  <way id="47830092" version="2" timestamp="2010-04-03T04:21:13Z" uid="20587" user="balrog-kun" changeset="4309442">
    <nd ref="608393407"/>
    <nd ref="608393548"/>
    <nd ref="608393546"/>
    <nd ref="608393329"/>
    <tag k="highway" v="residential"/>
    <tag k="name" v="South White Place"/>
  </way>
  <way id="47830094" version="2" timestamp="2010-04-03T04:21:13Z" uid="20587" user="balrog-kun" changeset="4309442">
    <nd ref="608393148"/>
    <nd ref="608393150"/>
    <nd ref="608393143"/>
    <nd ref="608393146"/>
    <nd ref="608393178"/>
    <nd ref="608393181"/>
    <nd ref="608393175"/>
    <nd ref="608393176"/>
    <tag k="highway" v="residential"/>
    <tag k="name" v="East Brooks Farm Road"/>
  </way>
  <way id="47830095" version="2" timestamp="2010-04-03T04:21:13Z" uid="20587" user="balrog-kun" changeset="4309442">
    <nd ref="608393152"/>
    <nd ref="608393153"/>
    <tag k="highway" v="residential"/>
    <tag k="name" v="South Adobe Drive"/>
  </way>
  <way id="47830096" version="2" timestamp="2010-04-03T04:21:13Z" uid="20587" user="balrog-kun" changeset="4309442">
    <nd ref="608393560"/>
    <nd ref="608393556"/>
    <nd ref="608393566"/>
    <nd ref="608393563"/>
    <tag k="highway" v="residential"/>
    <tag k="name" v="South White Place"/>
  </way>
  <way id="47830098" version="3" timestamp="2010-04-03T04:21:13Z" uid="20587" user="balrog-kun" changeset="4309442">
    <nd ref="608398512"/>
    <nd ref="608393126"/>
    <nd ref="608393113"/>
    <tag k="highway" v="residential"/>
    <tag k="name" v="East Powell Place"/>
  </way>
  <way id="47830099" version="2" timestamp="2010-04-03T04:21:13Z" uid="20587" user="balrog-kun" changeset="4309442">
    <nd ref="608393104"/>
    <nd ref="608393123"/>
    <nd ref="608393120"/>
    <nd ref="608393129"/>
    <tag k="highway" v="residential"/>
    <tag k="name" v="East Bartlett Place"/>
  </way>
  <way id="47830101" version="2" timestamp="2010-04-03T04:21:13Z" uid="20587" user="balrog-kun" changeset="4309442">
    <nd ref="608393129"/>
    <nd ref="608393101"/>
    <tag k="highway" v="residential"/>
    <tag k="name" v="South Whetstone Drive"/>
  </way>
  <way id="47830102" version="4" timestamp="2010-04-03T04:21:13Z" uid="20587" user="balrog-kun" changeset="4309442">
    <nd ref="608398581"/>
    <nd ref="608393117"/>
    <nd ref="608393115"/>
    <nd ref="608393142"/>
    <nd ref="608393139"/>
    <nd ref="608393104"/>
    <tag k="highway" v="residential"/>
    <tag k="name" v="South Four Peaks Wy"/>
  </way>
  <way id="47830104" version="3" timestamp="2010-04-03T04:21:13Z" uid="20587" user="balrog-kun" changeset="4309442">
    <nd ref="608393176"/>
    <nd ref="608393196"/>
    <nd ref="608397141"/>
    <tag k="highway" v="residential"/>
    <tag k="name" v="East Brooks Farm Road"/>
  </way>
  <way id="47830105" version="2" timestamp="2010-04-03T04:21:13Z" uid="20587" user="balrog-kun" changeset="4309442">
    <nd ref="608393108"/>
    <nd ref="608393203"/>
    <nd ref="608393201"/>
    <nd ref="608393200"/>
    <nd ref="608393198"/>
    <tag k="highway" v="residential"/>
    <tag k="name" v="South 140th Street"/>
  </way>
  <way id="47830106" version="2" timestamp="2010-04-03T04:21:14Z" uid="20587" user="balrog-kun" changeset="4309442">
    <nd ref="608393113"/>
    <nd ref="608393152"/>
    <tag k="highway" v="residential"/>
    <tag k="name" v="East Powell Place"/>
  </way>
  <way id="47830109" version="2" timestamp="2010-04-03T04:21:14Z" uid="20587" user="balrog-kun" changeset="4309442">
    <nd ref="608393190"/>
    <nd ref="608393188"/>
    <tag k="highway" v="residential"/>
    <tag k="name" v="South Whetstone Drive"/>
  </way>
  <way id="47830111" version="2" timestamp="2010-04-03T04:21:14Z" uid="20587" user="balrog-kun" changeset="4309442">
    <nd ref="608393104"/>
    <nd ref="608393172"/>
    <nd ref="608393168"/>
    <nd ref="608393171"/>
    <nd ref="608393191"/>
    <tag k="highway" v="residential"/>
    <tag k="name" v="South Four Peaks Wy"/>
  </way>
  <way id="47830112" version="2" timestamp="2010-04-03T04:21:14Z" uid="20587" user="balrog-kun" changeset="4309442">
    <nd ref="608393153"/>
    <nd ref="608393183"/>
    <tag k="highway" v="residential"/>
    <tag k="name" v="East Powell Place"/>
  </way>
  <way id="47830114" version="2" timestamp="2010-04-03T04:21:14Z" uid="20587" user="balrog-kun" changeset="4309442">
    <nd ref="608393113"/>
    <nd ref="608393185"/>
    <tag k="highway" v="residential"/>
    <tag k="name" v="South Dragoon Drive"/>
  </way>
  <way id="47830115" version="2" timestamp="2010-04-03T04:21:14Z" uid="20587" user="balrog-kun" changeset="4309442">
    <nd ref="608393243"/>
    <nd ref="608393246"/>
    <tag k="highway" v="residential"/>
    <tag k="name" v="East San Carlos Place"/>
  </way>
  <way id="47830116" version="2" timestamp="2010-04-03T04:21:14Z" uid="20587" user="balrog-kun" changeset="4309442">
    <nd ref="608393240"/>
    <nd ref="608393248"/>
    <tag k="highway" v="residential"/>
    <tag k="name" v="East San Carlos Place"/>
  </way>
  <way id="47830118" version="2" timestamp="2010-04-03T04:21:14Z" uid="20587" user="balrog-kun" changeset="4309442">
    <nd ref="608393252"/>
    <nd ref="608393256"/>
    <nd ref="608393259"/>
    <nd ref="608393262"/>
    <nd ref="608393223"/>
    <nd ref="608393226"/>
    <nd ref="608393228"/>
    <nd ref="608393198"/>
    <tag k="highway" v="residential"/>
    <tag k="name" v="East Brooks Farm Road"/>
  </way>
  <way id="47830119" version="3" timestamp="2010-04-03T04:21:14Z" uid="20587" user="balrog-kun" changeset="4309442">
    <nd ref="608526490"/>
    <nd ref="608393237"/>
    <nd ref="608393240"/>
    <nd ref="608393285"/>
    <nd ref="608393282"/>
    <nd ref="608393280"/>
    <nd ref="608393134"/>
    <tag k="highway" v="residential"/>
    <tag k="name" v="South 140th Street"/>
  </way>
  <way id="47830121" version="2" timestamp="2010-04-03T04:21:14Z" uid="20587" user="balrog-kun" changeset="4309442">
    <nd ref="608393220"/>
    <nd ref="608393207"/>
    <tag k="highway" v="residential"/>
    <tag k="name" v="East Powell Place"/>
  </way>
  <way id="47830122" version="2" timestamp="2010-04-03T04:21:14Z" uid="20587" user="balrog-kun" changeset="4309442">
    <nd ref="608393206"/>
    <nd ref="608393204"/>
    <tag k="highway" v="residential"/>
    <tag k="name" v="East Bartlett Wy"/>
  </way>
  <way id="47830123" version="2" timestamp="2010-04-03T04:21:14Z" uid="20587" user="balrog-kun" changeset="4309442">
    <nd ref="608393208"/>
    <nd ref="608393207"/>
    <tag k="highway" v="residential"/>
    <tag k="name" v="South Birch Street"/>
  </way>
  <way id="47830125" version="2" timestamp="2010-04-03T04:21:14Z" uid="20587" user="balrog-kun" changeset="4309442">
    <nd ref="608393093"/>
    <nd ref="608393210"/>
    <nd ref="608393212"/>
    <nd ref="608393051"/>
    <tag k="highway" v="residential"/>
    <tag k="name" v="East Horseshoe Drive"/>
  </way>
  <way id="47830128" version="3" timestamp="2010-04-03T04:21:14Z" uid="20587" user="balrog-kun" changeset="4309442">
    <nd ref="608393275"/>
    <nd ref="608526521"/>
    <tag k="highway" v="residential"/>
    <tag k="name" v="South Santa Rita Way"/>
  </way>
  <way id="47830130" version="2" timestamp="2010-04-03T04:21:15Z" uid="20587" user="balrog-kun" changeset="4309442">
    <nd ref="608393275"/>
    <nd ref="608393271"/>
    <nd ref="608393311"/>
    <nd ref="608393314"/>
    <nd ref="608393306"/>
    <nd ref="608393307"/>
    <nd ref="608393325"/>
    <tag k="highway" v="residential"/>
    <tag k="name" v="South Santa Rita Way"/>
  </way>
  <way id="47830131" version="2" timestamp="2010-04-03T04:21:15Z" uid="20587" user="balrog-kun" changeset="4309442">
    <nd ref="608393325"/>
    <nd ref="608393317"/>
    <nd ref="608393321"/>
    <nd ref="608393289"/>
    <nd ref="608393293"/>
    <nd ref="608393288"/>
    <tag k="highway" v="residential"/>
    <tag k="name" v="South Santa Rita Way"/>
  </way>
  <way id="47830133" version="2" timestamp="2010-04-03T04:21:15Z" uid="20587" user="balrog-kun" changeset="4309442">
    <nd ref="608393288"/>
    <nd ref="608393299"/>
    <nd ref="608393302"/>
    <nd ref="608393295"/>
    <tag k="highway" v="residential"/>
    <tag k="name" v="South Santa Rita Way"/>
  </way>
  <way id="47830134" version="2" timestamp="2010-04-03T04:21:15Z" uid="20587" user="balrog-kun" changeset="4309442">
    <nd ref="608393246"/>
    <nd ref="608393208"/>
    <tag k="highway" v="residential"/>
    <tag k="name" v="East San Carlos Place"/>
  </way>
  <way id="47830135" version="2" timestamp="2010-04-03T04:21:15Z" uid="20587" user="balrog-kun" changeset="4309442">
    <nd ref="608393191"/>
    <nd ref="608393183"/>
    <tag k="highway" v="residential"/>
    <tag k="name" v="South Four Peaks Wy"/>
  </way>
  <way id="47830138" version="2" timestamp="2010-04-03T04:21:15Z" uid="20587" user="balrog-kun" changeset="4309442">
    <nd ref="608393098"/>
    <nd ref="608393269"/>
    <tag k="highway" v="residential"/>
    <tag k="name" v="South Miller Drive"/>
  </way>
  <way id="47830140" version="2" timestamp="2010-04-03T04:21:15Z" uid="20587" user="balrog-kun" changeset="4309442">
    <nd ref="608393136"/>
    <nd ref="608393265"/>
    <tag k="highway" v="residential"/>
    <tag k="name" v="South Rincon Drive"/>
  </way>
</osm>
