<?xml version='1.0' encoding='UTF-8'?>
<osm version="0.6" generator="libosmium/2.20.0">
  <way id="47853113" version="2" timestamp="2010-07-08T09:53:48Z" uid="74617" user="JohnSmith" changeset="5164427">
    <nd ref="608606601"/>
    <nd ref="608606605"/>
    <tag k="highway" v="residential"/>
    <tag k="maxspeed" v="50"/>
    <tag k="maxspeed:source" v="default residential speed limit in Australia"/>
    <tag k="name" v="Wilunga Street"/>
  </way>
  <way id="47853306" version="3" timestamp="2010-10-07T18:43:02Z" uid="9581" user="Lobelt" changeset="5980318">
    <nd ref="367061227"/>
    <nd ref="608609330"/>
    <nd ref="608609329"/>
    <nd ref="608609332"/>
    <nd ref="608609331"/>
    <nd ref="608609335"/>
    <nd ref="608609333"/>
    <tag k="access" v="permissive"/>
    <tag k="highway" v="track"/>
    <tag k="motorcar" v="agricultural"/>
    <tag k="motorcycle" v="agricultural"/>
    <tag k="surface" v="ground"/>
    <tag k="tracktype" v="grade4"/>
    <tag k="width" v="2.5"/>
  </way>
  <way id="47853307" version="3" timestamp="2010-10-07T18:41:15Z" uid="9581" user="Lobelt" changeset="5980318">
    <nd ref="608609336"/>
    <nd ref="608609338"/>
    <nd ref="608609339"/>
    <nd ref="608609340"/>
    <nd ref="608609341"/>
    <nd ref="608609342"/>
    <nd ref="608609343"/>
    <nd ref="608609344"/>
    <tag k="access" v="permissive"/>
    <tag k="highway" v="track"/>
    <tag k="motorcar" v="agricultural"/>
    <tag k="motorcycle" v="agricultural"/>
    <tag k="surface" v="paved"/>
    <tag k="tracktype" v="grade1"/>
    <tag k="width" v="2.5"/>
  </way>
  <way id="47853427" version="2" timestamp="2010-04-03T04:21:32Z" uid="20587" user="balrog-kun" changeset="4309442">
    <nd ref="608611931"/>
    <nd ref="608611933"/>
    <nd ref="41814636"/>
    <tag k="highway" v="residential"/>
    <tag k="name" v="West Avalon Drive"/>
  </way>
  <way id="47853762" version="2" timestamp="2010-04-03T04:21:32Z" uid="20587" user="balrog-kun" changeset="4309442">
    <nd ref="608615036"/>
    <nd ref="608499984"/>
    <tag k="highway" v="residential"/>
    <tag k="name" v="West Cora Lane"/>
  </way>
  <way id="47853763" version="2" timestamp="2010-04-03T04:21:33Z" uid="20587" user="balrog-kun" changeset="4309442">
    <nd ref="608615038"/>
    <nd ref="608615039"/>
    <tag k="highway" v="residential"/>
    <tag k="name" v="West Cora Lane"/>
  </way>
  <way id="47853764" version="2" timestamp="2010-04-03T04:21:33Z" uid="20587" user="balrog-kun" changeset="4309442">
    <nd ref="608615042"/>
    <nd ref="608615038"/>
    <tag k="highway" v="residential"/>
    <tag k="name" v="North 143 Avenue"/>
  </way>
  <way id="47853765" version="2" timestamp="2010-04-03T04:21:33Z" uid="20587" user="balrog-kun" changeset="4309442">
    <nd ref="608615043"/>
    <nd ref="608615039"/>
    <tag k="highway" v="residential"/>
    <tag k="name" v="North 142  Drive"/>
  </way>
  <way id="47853766" version="2" timestamp="2010-04-03T04:21:33Z" uid="20587" user="balrog-kun" changeset="4309442">
    <nd ref="608615045"/>
    <nd ref="608615047"/>
    <nd ref="608615042"/>
    <nd ref="608615050"/>
    <nd ref="608615043"/>
    <tag k="highway" v="residential"/>
    <tag k="name" v="West Lexington Avenue"/>
  </way>
  <way id="47853767" version="2" timestamp="2010-04-03T04:21:33Z" uid="20587" user="balrog-kun" changeset="4309442">
    <nd ref="608615064"/>
    <nd ref="608615055"/>
    <tag k="highway" v="residential"/>
    <tag k="name" v="West Monterey Way"/>
  </way>
</osm>
