<?xml version='1.0' encoding='UTF-8'?>
<osm version="0.6" generator="libosmium/2.20.0">
  <way id="47908094" version="1" timestamp="2010-01-08T15:00:33Z" uid="64977" user="CLoeser" changeset="3570767">
    <nd ref="609216699"/>
    <nd ref="609216700"/>
    <nd ref="609216701"/>
    <nd ref="609216702"/>
    <nd ref="609216703"/>
    <tag k="waterway" v="drain"/>
  </way>
  <way id="47908095" version="1" timestamp="2010-01-08T15:00:34Z" uid="64977" user="CLoeser" changeset="3570767">
    <nd ref="609216703"/>
    <nd ref="609216704"/>
    <nd ref="609216705"/>
    <tag k="tunnel" v="yes"/>
    <tag k="waterway" v="drain"/>
  </way>
  <way id="47908096" version="1" timestamp="2010-01-08T15:00:34Z" uid="64977" user="CLoeser" changeset="3570767">
    <nd ref="609216705"/>
    <nd ref="609216692"/>
    <tag k="waterway" v="drain"/>
  </way>
  <way id="47908097" version="1" timestamp="2010-01-08T15:00:35Z" uid="64977" user="CLoeser" changeset="3570767">
    <nd ref="609216706"/>
    <nd ref="609216707"/>
    <nd ref="609216708"/>
    <nd ref="609216709"/>
    <nd ref="609216710"/>
    <nd ref="609216711"/>
    <nd ref="609216712"/>
    <nd ref="609216713"/>
    <nd ref="609216714"/>
    <nd ref="609216715"/>
    <nd ref="609216716"/>
    <nd ref="609216702"/>
    <tag k="waterway" v="drain"/>
  </way>
  <way id="47908270" version="2" timestamp="2010-01-10T15:56:25Z" uid="136042" user="Gent" changeset="3588360"/>
  <way id="47908363" version="2" timestamp="2010-02-08T08:09:58Z" uid="74617" user="JohnSmith" changeset="3821259">
    <nd ref="79891161"/>
    <nd ref="609219103"/>
    <nd ref="609219106"/>
    <nd ref="609219107"/>
    <nd ref="609219108"/>
    <nd ref="609219109"/>
    <nd ref="609219110"/>
    <nd ref="609219112"/>
    <nd ref="609219114"/>
    <nd ref="609219115"/>
    <nd ref="609219118"/>
    <nd ref="609219126"/>
    <nd ref="609219136"/>
    <nd ref="609219137"/>
    <nd ref="609219138"/>
    <nd ref="609219139"/>
    <nd ref="609219140"/>
    <nd ref="609219141"/>
    <nd ref="609219142"/>
    <nd ref="609219143"/>
    <nd ref="79970468"/>
    <nd ref="609219144"/>
    <nd ref="609219145"/>
    <nd ref="609219146"/>
    <nd ref="609219147"/>
    <nd ref="609219148"/>
    <nd ref="609219149"/>
    <nd ref="609219150"/>
    <nd ref="79970404"/>
    <nd ref="79970334"/>
    <tag k="highway" v="residential"/>
    <tag k="maxspeed" v="50"/>
    <tag k="name" v="Marina Boulevard"/>
    <tag k="source" v="nearmap"/>
  </way>
  <way id="47908376" version="2" timestamp="2010-02-08T08:10:37Z" uid="74617" user="JohnSmith" changeset="3821259">
    <nd ref="79970404"/>
    <nd ref="609219151"/>
    <nd ref="609219152"/>
    <nd ref="609219153"/>
    <nd ref="609219154"/>
    <nd ref="609219167"/>
    <nd ref="609219172"/>
    <nd ref="609219181"/>
    <nd ref="609219184"/>
    <tag k="highway" v="residential"/>
    <tag k="maxspeed" v="50"/>
    <tag k="source" v="nearmap"/>
  </way>
  <way id="47908376" version="5" timestamp="2010-07-17T01:38:31Z" uid="74617" user="JohnSmith" changeset="5238900">
    <nd ref="79970404"/>
    <nd ref="661064671"/>
    <nd ref="609219151"/>
    <nd ref="609219152"/>
    <nd ref="660963149"/>
    <nd ref="609219153"/>
    <nd ref="609219154"/>
    <nd ref="660963150"/>
    <nd ref="609219167"/>
    <nd ref="660963151"/>
    <nd ref="609219172"/>
    <nd ref="609219181"/>
    <nd ref="609219184"/>
    <tag k="highway" v="residential"/>
    <tag k="maxspeed" v="50"/>
    <tag k="name" v="The Peninsular"/>
    <tag k="source" v="nearmap"/>
  </way>
  <way id="47908394" version="2" timestamp="2010-02-08T08:09:58Z" uid="74617" user="JohnSmith" changeset="3821259">
    <nd ref="79970468"/>
    <nd ref="609219197"/>
    <nd ref="609219207"/>
    <nd ref="609219222"/>
    <nd ref="609219233"/>
    <nd ref="609219243"/>
    <nd ref="609219253"/>
    <nd ref="609219254"/>
    <nd ref="609219261"/>
    <nd ref="609219265"/>
    <nd ref="609219271"/>
    <nd ref="609219243"/>
    <tag k="highway" v="residential"/>
    <tag k="maxspeed" v="50"/>
    <tag k="source" v="nearmap"/>
  </way>
  <way id="47908394" version="4" timestamp="2010-07-17T01:38:29Z" uid="74617" user="JohnSmith" changeset="5238900">
    <nd ref="79970468"/>
    <nd ref="660963135"/>
    <nd ref="609219197"/>
    <nd ref="660963165"/>
    <nd ref="609219207"/>
    <nd ref="609219222"/>
    <nd ref="609219233"/>
    <nd ref="609219243"/>
    <nd ref="609219253"/>
    <nd ref="660962836"/>
    <nd ref="609219254"/>
    <nd ref="609219261"/>
    <nd ref="609219265"/>
    <nd ref="609219271"/>
    <nd ref="609219243"/>
    <tag k="highway" v="residential"/>
    <tag k="maxspeed" v="50"/>
    <tag k="name" v="Northpoint"/>
    <tag k="source" v="nearmap"/>
  </way>
  <way id="47908395" version="2" timestamp="2010-02-08T08:10:08Z" uid="74617" user="JohnSmith" changeset="3821259">
    <nd ref="609219273"/>
    <nd ref="609219274"/>
    <nd ref="609219261"/>
    <tag k="highway" v="residential"/>
    <tag k="maxspeed" v="50"/>
    <tag k="source" v="nearmap"/>
  </way>
  <way id="47908395" version="4" timestamp="2010-07-17T06:11:11Z" uid="74617" user="JohnSmith" changeset="5239516">
    <nd ref="609219273"/>
    <nd ref="660962812"/>
    <nd ref="609219274"/>
    <nd ref="609219261"/>
    <tag k="highway" v="residential"/>
    <tag k="maxspeed" v="50"/>
    <tag k="name" v="Northpoint"/>
    <tag k="source" v="nearmap"/>
  </way>
  <way id="47908400" version="2" timestamp="2010-02-08T08:10:04Z" uid="74617" user="JohnSmith" changeset="3821259">
    <nd ref="609219275"/>
    <nd ref="609219277"/>
    <nd ref="609219280"/>
    <nd ref="609219283"/>
    <nd ref="609219284"/>
    <nd ref="609219299"/>
    <nd ref="609219309"/>
    <nd ref="609219143"/>
    <tag k="highway" v="residential"/>
    <tag k="maxspeed" v="50"/>
    <tag k="source" v="nearmap"/>
  </way>
  <way id="47908400" version="5" timestamp="2010-07-17T01:38:29Z" uid="74617" user="JohnSmith" changeset="5238900">
    <nd ref="609219275"/>
    <nd ref="609219277"/>
    <nd ref="609219280"/>
    <nd ref="609219283"/>
    <nd ref="609219284"/>
    <nd ref="661064563"/>
    <nd ref="661064575"/>
    <nd ref="609219299"/>
    <nd ref="609219309"/>
    <nd ref="661064437"/>
    <nd ref="660962744"/>
    <nd ref="609219143"/>
    <tag k="highway" v="residential"/>
    <tag k="maxspeed" v="50"/>
    <tag k="name" v="The Promontory"/>
    <tag k="source" v="nearmap"/>
  </way>
  <way id="47908402" version="2" timestamp="2010-02-08T08:10:07Z" uid="74617" user="JohnSmith" changeset="3821259">
    <nd ref="609219140"/>
    <nd ref="609219310"/>
    <nd ref="609219311"/>
    <nd ref="609219313"/>
    <tag k="highway" v="residential"/>
    <tag k="maxspeed" v="50"/>
    <tag k="source" v="nearmap"/>
  </way>
  <way id="47908402" version="4" timestamp="2010-07-17T01:38:31Z" uid="74617" user="JohnSmith" changeset="5238900">
    <nd ref="609219140"/>
    <nd ref="609219310"/>
    <nd ref="660962717"/>
    <nd ref="609219311"/>
    <nd ref="609219313"/>
    <tag k="highway" v="residential"/>
    <tag k="maxspeed" v="50"/>
    <tag k="name" v="Whitehaven Place"/>
    <tag k="source" v="nearmap"/>
  </way>
  <way id="47908404" version="2" timestamp="2010-02-08T08:10:07Z" uid="74617" user="JohnSmith" changeset="3821259">
    <nd ref="609219311"/>
    <nd ref="609219324"/>
    <tag k="highway" v="residential"/>
    <tag k="maxspeed" v="50"/>
    <tag k="source" v="nearmap"/>
  </way>
  <way id="47908404" version="4" timestamp="2010-07-17T01:38:28Z" uid="74617" user="JohnSmith" changeset="5238900">
    <nd ref="609219311"/>
    <nd ref="660962731"/>
    <nd ref="609219324"/>
    <tag k="highway" v="residential"/>
    <tag k="maxspeed" v="50"/>
    <tag k="name" v="Whitehaven Place"/>
    <tag k="source" v="nearmap"/>
  </way>
  <way id="47908408" version="2" timestamp="2010-02-08T08:10:08Z" uid="74617" user="JohnSmith" changeset="3821259">
    <nd ref="609219114"/>
    <nd ref="609219327"/>
    <nd ref="609219332"/>
    <nd ref="609219333"/>
    <nd ref="609219336"/>
    <nd ref="609219344"/>
    <tag k="highway" v="residential"/>
    <tag k="maxspeed" v="50"/>
    <tag k="source" v="nearmap"/>
  </way>
  <way id="47908408" version="4" timestamp="2010-07-17T01:38:25Z" uid="74617" user="JohnSmith" changeset="5238900">
    <nd ref="609219114"/>
    <nd ref="661064487"/>
    <nd ref="609219327"/>
    <nd ref="609219332"/>
    <nd ref="661064503"/>
    <nd ref="661064504"/>
    <nd ref="609219333"/>
    <nd ref="661064510"/>
    <nd ref="609219336"/>
    <nd ref="661064533"/>
    <nd ref="661064534"/>
    <tag k="highway" v="residential"/>
    <tag k="maxspeed" v="50"/>
    <tag k="name" v="Harbour Promade"/>
    <tag k="oneway" v="yes"/>
    <tag k="source" v="nearmap"/>
  </way>
  <way id="47908411" version="2" timestamp="2010-02-08T08:10:08Z" uid="74617" user="JohnSmith" changeset="3821259">
    <nd ref="609219344"/>
    <nd ref="609219349"/>
    <nd ref="609219355"/>
    <tag k="highway" v="residential"/>
    <tag k="maxspeed" v="50"/>
    <tag k="source" v="nearmap"/>
  </way>
  <way id="47908411" version="4" timestamp="2010-07-17T01:38:26Z" uid="74617" user="JohnSmith" changeset="5238900">
    <nd ref="661064545"/>
    <nd ref="609219349"/>
    <nd ref="661064550"/>
    <nd ref="609219355"/>
    <tag k="highway" v="service"/>
    <tag k="maxspeed" v="50"/>
    <tag k="source" v="nearmap"/>
  </way>
  <way id="47908411" version="5" timestamp="2010-07-17T11:33:41Z" uid="74617" user="JohnSmith" changeset="5241745">
    <nd ref="661064545"/>
    <nd ref="609219349"/>
    <nd ref="661064550"/>
    <nd ref="609219355"/>
    <nd ref="821792799"/>
    <tag k="highway" v="service"/>
    <tag k="maxspeed" v="50"/>
    <tag k="source" v="nearmap"/>
  </way>
  <way id="47908419" version="2" timestamp="2010-02-08T08:10:08Z" uid="74617" user="JohnSmith" changeset="3821259">
    <nd ref="609219344"/>
    <nd ref="609219390"/>
    <nd ref="609219407"/>
    <tag k="highway" v="residential"/>
    <tag k="maxspeed" v="50"/>
    <tag k="source" v="nearmap"/>
  </way>
  <way id="47908419" version="3" timestamp="2010-07-17T11:33:41Z" uid="74617" user="JohnSmith" changeset="5241745">
    <nd ref="609219344"/>
    <nd ref="821792798"/>
    <nd ref="609219390"/>
    <nd ref="609219407"/>
    <tag k="highway" v="residential"/>
    <tag k="maxspeed" v="50"/>
    <tag k="source" v="nearmap"/>
  </way>
  <way id="47908420" version="2" timestamp="2010-02-08T08:10:07Z" uid="74617" user="JohnSmith" changeset="3821259">
    <nd ref="609219422"/>
    <nd ref="609219423"/>
    <nd ref="609219424"/>
    <nd ref="609219425"/>
    <nd ref="609219407"/>
    <tag k="highway" v="residential"/>
    <tag k="maxspeed" v="50"/>
    <tag k="source" v="nearmap"/>
  </way>
  <way id="47908421" version="2" timestamp="2010-02-08T08:10:07Z" uid="74617" user="JohnSmith" changeset="3821259">
    <nd ref="609219407"/>
    <nd ref="609219426"/>
    <nd ref="609219427"/>
    <nd ref="609219428"/>
    <tag k="highway" v="residential"/>
    <tag k="maxspeed" v="50"/>
    <tag k="source" v="nearmap"/>
  </way>
  <way id="47908422" version="2" timestamp="2010-02-08T08:09:57Z" uid="74617" user="JohnSmith" changeset="3821259">
    <nd ref="609219429"/>
    <nd ref="609219430"/>
    <nd ref="609219431"/>
    <nd ref="609219145"/>
    <tag k="highway" v="residential"/>
    <tag k="maxspeed" v="50"/>
    <tag k="source" v="nearmap"/>
  </way>
  <way id="47908422" version="5" timestamp="2010-07-17T01:38:30Z" uid="74617" user="JohnSmith" changeset="5238900">
    <nd ref="609219429"/>
    <nd ref="609219430"/>
    <nd ref="609219431"/>
    <nd ref="661064594"/>
    <nd ref="660963067"/>
    <nd ref="609219145"/>
    <tag k="highway" v="residential"/>
    <tag k="maxspeed" v="50"/>
    <tag k="name" v="Pectoral Place"/>
    <tag k="source" v="nearmap"/>
  </way>
  <way id="47908423" version="2" timestamp="2010-02-08T08:10:37Z" uid="74617" user="JohnSmith" changeset="3821259">
    <nd ref="609219430"/>
    <nd ref="609219435"/>
    <tag k="highway" v="residential"/>
    <tag k="maxspeed" v="50"/>
    <tag k="source" v="nearmap"/>
  </way>
  <way id="47908423" version="4" timestamp="2010-07-17T01:38:29Z" uid="74617" user="JohnSmith" changeset="5238900">
    <nd ref="609219430"/>
    <nd ref="661064656"/>
    <nd ref="609219435"/>
    <tag k="highway" v="residential"/>
    <tag k="maxspeed" v="50"/>
    <tag k="name" v="Pectoral Place"/>
    <tag k="source" v="nearmap"/>
  </way>
  <way id="47908424" version="2" timestamp="2010-02-08T08:10:37Z" uid="74617" user="JohnSmith" changeset="3821259">
    <nd ref="609219153"/>
    <nd ref="609219436"/>
    <nd ref="609219437"/>
    <nd ref="609219438"/>
    <tag k="highway" v="residential"/>
    <tag k="maxspeed" v="50"/>
    <tag k="source" v="nearmap"/>
  </way>
  <way id="47908424" version="3" timestamp="2010-07-17T01:38:26Z" uid="74617" user="JohnSmith" changeset="5238900">
    <nd ref="609219153"/>
    <nd ref="609219436"/>
    <nd ref="609219437"/>
    <nd ref="609219438"/>
    <tag k="highway" v="residential"/>
    <tag k="maxspeed" v="50"/>
    <tag k="source" v="nearmap"/>
    <tag k="validate:no:sign" v="2010-07-17"/>
  </way>
  <way id="47908424" version="4" timestamp="2010-07-17T11:36:33Z" uid="74617" user="JohnSmith" changeset="5241745">
    <nd ref="609219153"/>
    <nd ref="609219436"/>
    <nd ref="609219437"/>
    <nd ref="609219438"/>
    <tag k="fixme:sign:no" v="2010-07-17"/>
    <tag k="highway" v="residential"/>
    <tag k="maxspeed" v="50"/>
    <tag k="source" v="nearmap"/>
  </way>
  <way id="47908425" version="2" timestamp="2010-02-08T08:10:04Z" uid="74617" user="JohnSmith" changeset="3821259">
    <nd ref="609219441"/>
    <nd ref="609219464"/>
    <nd ref="278088750"/>
    <nd ref="609219487"/>
    <nd ref="609219500"/>
    <nd ref="609219441"/>
    <tag k="highway" v="residential"/>
    <tag k="maxspeed" v="50"/>
    <tag k="source" v="nearmap"/>
  </way>
  <way id="47908425" version="4" timestamp="2010-07-17T01:38:30Z" uid="74617" user="JohnSmith" changeset="5238900">
    <nd ref="609219441"/>
    <nd ref="609219464"/>
    <nd ref="661064383"/>
    <nd ref="278088750"/>
    <nd ref="609219487"/>
    <nd ref="609219500"/>
    <nd ref="661064361"/>
    <nd ref="609219441"/>
    <tag k="highway" v="residential"/>
    <tag k="maxspeed" v="50"/>
    <tag k="name" v="Seaside Drive"/>
    <tag k="source" v="nearmap"/>
  </way>
  <way id="47908426" version="2" timestamp="2010-02-08T08:10:05Z" uid="74617" user="JohnSmith" changeset="3821259">
    <nd ref="609219525"/>
    <nd ref="609219464"/>
    <tag k="highway" v="residential"/>
    <tag k="maxspeed" v="50"/>
    <tag k="source" v="nearmap"/>
  </way>
  <way id="47908428" version="2" timestamp="2010-02-08T08:09:58Z" uid="74617" user="JohnSmith" changeset="3821259">
    <nd ref="609219602"/>
    <nd ref="298113750"/>
    <nd ref="298113670"/>
    <nd ref="298113671"/>
    <nd ref="298113672"/>
    <nd ref="298113751"/>
    <nd ref="298113749"/>
    <nd ref="298113674"/>
    <nd ref="298113735"/>
    <nd ref="298113676"/>
    <nd ref="298113677"/>
    <nd ref="298113746"/>
    <nd ref="298113678"/>
    <nd ref="298113736"/>
    <nd ref="298113680"/>
    <nd ref="298113737"/>
    <nd ref="298113738"/>
    <nd ref="298113752"/>
    <nd ref="298113684"/>
    <nd ref="298113732"/>
    <nd ref="298113754"/>
    <nd ref="298113686"/>
    <nd ref="298113755"/>
    <nd ref="298113756"/>
    <nd ref="298113743"/>
    <nd ref="298113690"/>
    <nd ref="298113744"/>
    <nd ref="298113692"/>
    <nd ref="298113693"/>
    <nd ref="298113601"/>
    <nd ref="298113745"/>
    <nd ref="298113574"/>
    <tag k="highway" v="residential"/>
    <tag k="maxspeed" v="50"/>
  </way>
  <way id="47908428" version="5" timestamp="2010-07-17T02:07:27Z" uid="74617" user="JohnSmith" changeset="5238945">
    <nd ref="609219602"/>
    <nd ref="298113670"/>
    <nd ref="298113671"/>
    <nd ref="298113672"/>
    <nd ref="298113751"/>
    <nd ref="298113749"/>
    <nd ref="298113674"/>
    <nd ref="298113735"/>
    <nd ref="298113676"/>
    <nd ref="298113677"/>
    <nd ref="298113746"/>
    <nd ref="298113678"/>
    <nd ref="298113736"/>
    <nd ref="298113680"/>
    <nd ref="298113737"/>
    <nd ref="298113738"/>
    <nd ref="298113752"/>
    <nd ref="298113684"/>
    <nd ref="298113732"/>
    <nd ref="298113754"/>
    <nd ref="298113686"/>
    <nd ref="298113755"/>
    <nd ref="298113756"/>
    <nd ref="298113743"/>
    <nd ref="298113690"/>
    <nd ref="298113744"/>
    <nd ref="660647336"/>
    <nd ref="298113692"/>
    <nd ref="298113693"/>
    <nd ref="298113601"/>
    <nd ref="298113745"/>
    <nd ref="298113574"/>
    <tag k="highway" v="residential"/>
    <tag k="maxspeed" v="50"/>
    <tag k="name" v="Cosmos Avenue"/>
  </way>
  <way id="47908428" version="6" timestamp="2010-07-17T11:39:41Z" uid="74617" user="JohnSmith" changeset="5241745"/>
  <way id="47908431" version="2" timestamp="2010-02-08T08:10:37Z" uid="74617" user="JohnSmith" changeset="3821259">
    <nd ref="609219616"/>
    <nd ref="609219698"/>
    <tag k="bridge" v="yes"/>
    <tag k="highway" v="residential"/>
    <tag k="layer" v="1"/>
    <tag k="maxspeed" v="50"/>
    <tag k="source" v="nearmap"/>
  </way>
  <way id="47908435" version="2" timestamp="2010-02-08T08:10:37Z" uid="74617" user="JohnSmith" changeset="3821259">
    <nd ref="609219698"/>
    <nd ref="609219642"/>
    <tag k="highway" v="residential"/>
    <tag k="maxspeed" v="50"/>
    <tag k="source" v="nearmap"/>
  </way>
  <way id="47908435" version="5" timestamp="2010-07-17T06:10:41Z" uid="74617" user="JohnSmith" changeset="5239516">
    <nd ref="660963225"/>
    <nd ref="661064731"/>
    <nd ref="660963226"/>
    <nd ref="660963235"/>
    <nd ref="609219698"/>
    <tag k="highway" v="residential"/>
    <tag k="maxspeed" v="50"/>
    <tag k="name" v="Eagles Landing"/>
    <tag k="oneway" v="yes"/>
    <tag k="source" v="nearmap"/>
  </way>
  <way id="47908436" version="2" timestamp="2010-04-03T04:21:40Z" uid="20587" user="balrog-kun" changeset="4309442">
    <nd ref="609219575"/>
    <nd ref="609219501"/>
    <tag k="highway" v="residential"/>
    <tag k="name" v="East Locust Drive"/>
  </way>
  <way id="47908437" version="2" timestamp="2010-04-03T04:21:40Z" uid="20587" user="balrog-kun" changeset="4309442">
    <nd ref="609219469"/>
    <nd ref="609219478"/>
    <nd ref="609219482"/>
    <nd ref="609219483"/>
    <nd ref="609219444"/>
    <tag k="highway" v="residential"/>
    <tag k="name" v="East Jade Drive"/>
  </way>
  <way id="47908438" version="2" timestamp="2010-04-03T04:21:41Z" uid="20587" user="balrog-kun" changeset="4309442">
    <nd ref="609219538"/>
    <nd ref="609219595"/>
    <nd ref="609219596"/>
    <nd ref="609219597"/>
    <nd ref="609219615"/>
    <nd ref="609219614"/>
    <nd ref="609219613"/>
    <nd ref="609219612"/>
    <nd ref="609219611"/>
    <nd ref="609219610"/>
    <nd ref="609219609"/>
    <nd ref="609219608"/>
    <nd ref="609219607"/>
    <nd ref="609219606"/>
    <nd ref="609219605"/>
    <nd ref="609219604"/>
    <tag k="highway" v="residential"/>
    <tag k="name" v="South Senate Place"/>
  </way>
  <way id="47908439" version="2" timestamp="2010-04-03T04:21:41Z" uid="20587" user="balrog-kun" changeset="4309442">
    <nd ref="609219573"/>
    <nd ref="609219574"/>
    <tag k="highway" v="residential"/>
    <tag k="name" v="East Jade Drive"/>
  </way>
  <way id="47908440" version="2" timestamp="2010-04-03T04:21:41Z" uid="20587" user="balrog-kun" changeset="4309442">
    <nd ref="609219469"/>
    <nd ref="609219468"/>
    <nd ref="609219472"/>
    <nd ref="609219473"/>
    <nd ref="609219470"/>
    <nd ref="609219471"/>
    <nd ref="609219476"/>
    <nd ref="609219477"/>
    <nd ref="609219474"/>
    <nd ref="609219475"/>
    <nd ref="609219479"/>
    <nd ref="609219480"/>
    <tag k="highway" v="residential"/>
    <tag k="name" v="South Jesse Street"/>
  </way>
  <way id="47908441" version="2" timestamp="2010-04-03T04:21:41Z" uid="20587" user="balrog-kun" changeset="4309442">
    <nd ref="609219553"/>
    <nd ref="609219561"/>
    <tag k="highway" v="residential"/>
    <tag k="name" v="South Newport Street"/>
  </way>
  <way id="47908442" version="2" timestamp="2010-04-03T04:21:41Z" uid="20587" user="balrog-kun" changeset="4309442">
    <nd ref="609219571"/>
    <nd ref="609219585"/>
    <tag k="highway" v="residential"/>
    <tag k="name" v="East Redwood Drive"/>
  </way>
  <way id="47908443" version="2" timestamp="2010-04-03T04:21:41Z" uid="20587" user="balrog-kun" changeset="4309442">
    <nd ref="609219450"/>
    <nd ref="609219451"/>
    <nd ref="609219452"/>
    <nd ref="609219454"/>
    <nd ref="609219453"/>
    <nd ref="609219456"/>
    <nd ref="609219455"/>
    <nd ref="609219458"/>
    <nd ref="609219457"/>
    <nd ref="609219460"/>
    <nd ref="609219459"/>
    <nd ref="609219462"/>
    <nd ref="609219461"/>
    <nd ref="609219465"/>
    <nd ref="609219463"/>
    <nd ref="609219467"/>
    <nd ref="609219466"/>
    <tag k="highway" v="residential"/>
    <tag k="name" v="South Senate Place"/>
  </way>
  <way id="47908444" version="2" timestamp="2010-04-03T04:21:41Z" uid="20587" user="balrog-kun" changeset="4309442">
    <nd ref="609219502"/>
    <nd ref="609219550"/>
    <tag k="highway" v="residential"/>
    <tag k="name" v="South Windstream Place"/>
  </way>
  <way id="47908445" version="2" timestamp="2010-04-03T04:21:41Z" uid="20587" user="balrog-kun" changeset="4309442">
    <nd ref="609219576"/>
    <nd ref="609219577"/>
    <nd ref="609219565"/>
    <nd ref="609219566"/>
    <nd ref="609219567"/>
    <nd ref="609219568"/>
    <nd ref="609219569"/>
    <nd ref="609219570"/>
    <nd ref="609219523"/>
    <tag k="highway" v="residential"/>
    <tag k="name" v="East Carob Drive"/>
  </way>
  <way id="47908446" version="2" timestamp="2010-04-03T04:21:41Z" uid="20587" user="balrog-kun" changeset="4309442">
    <nd ref="609219444"/>
    <nd ref="609219446"/>
    <nd ref="609219447"/>
    <nd ref="609219448"/>
    <nd ref="609219449"/>
    <tag k="highway" v="residential"/>
    <tag k="name" v="East Jade Drive"/>
  </way>
  <way id="47908447" version="2" timestamp="2010-04-03T04:21:41Z" uid="20587" user="balrog-kun" changeset="4309442">
    <nd ref="609219562"/>
    <nd ref="609219598"/>
    <tag k="highway" v="residential"/>
    <tag k="name" v="South Senate Place"/>
  </way>
  <way id="47908448" version="2" timestamp="2010-04-03T04:21:41Z" uid="20587" user="balrog-kun" changeset="4309442">
    <nd ref="609219445"/>
    <nd ref="609219440"/>
    <tag k="highway" v="residential"/>
    <tag k="name" v="South Spring Drive"/>
  </way>
  <way id="47908449" version="2" timestamp="2010-04-03T04:21:41Z" uid="20587" user="balrog-kun" changeset="4309442">
    <nd ref="609219554"/>
    <nd ref="609219510"/>
    <tag k="highway" v="residential"/>
    <tag k="name" v="South Springs Drive"/>
  </way>
  <way id="47908450" version="2" timestamp="2010-04-03T04:21:42Z" uid="20587" user="balrog-kun" changeset="4309442">
    <nd ref="609219625"/>
    <nd ref="609219626"/>
    <nd ref="609219623"/>
    <nd ref="609219624"/>
    <nd ref="609219621"/>
    <nd ref="609219622"/>
    <nd ref="609219619"/>
    <nd ref="609219620"/>
    <nd ref="609219617"/>
    <nd ref="609219618"/>
    <nd ref="609219445"/>
    <tag k="highway" v="residential"/>
    <tag k="name" v="East Indigo Drive"/>
  </way>
  <way id="47908451" version="2" timestamp="2010-04-03T04:21:42Z" uid="20587" user="balrog-kun" changeset="4309442">
    <nd ref="609219443"/>
    <nd ref="609219444"/>
    <tag k="highway" v="residential"/>
    <tag k="name" v="South Crosscreek Drive"/>
  </way>
  <way id="47908452" version="2" timestamp="2010-02-08T08:10:37Z" uid="74617" user="JohnSmith" changeset="3821259">
    <nd ref="609219642"/>
    <nd ref="609219751"/>
    <tag k="highway" v="residential"/>
    <tag k="maxspeed" v="50"/>
    <tag k="source" v="nearmap"/>
  </way>
  <way id="47908452" version="5" timestamp="2010-07-17T02:57:00Z" uid="74617" user="JohnSmith" changeset="5239017">
    <nd ref="609219642"/>
    <nd ref="660963211"/>
    <nd ref="660963210"/>
    <nd ref="660963209"/>
    <nd ref="660963208"/>
    <nd ref="660963207"/>
    <nd ref="660963206"/>
    <nd ref="660963224"/>
    <nd ref="660963223"/>
    <nd ref="660963225"/>
    <nd ref="660963222"/>
    <nd ref="609219642"/>
    <nd ref="661064724"/>
    <nd ref="609219751"/>
    <tag k="highway" v="residential"/>
    <tag k="maxspeed" v="50"/>
    <tag k="name" v="Seaeagle Place"/>
    <tag k="source" v="nearmap"/>
  </way>
  <way id="47908453" version="2" timestamp="2010-04-03T04:21:42Z" uid="20587" user="balrog-kun" changeset="4309442">
    <nd ref="609219564"/>
    <nd ref="609219555"/>
    <tag k="highway" v="residential"/>
    <tag k="name" v="East Ebony Drive"/>
  </way>
  <way id="47908454" version="2" timestamp="2010-04-03T04:21:42Z" uid="20587" user="balrog-kun" changeset="4309442">
    <nd ref="609219628"/>
    <nd ref="609219627"/>
    <nd ref="609219511"/>
    <tag k="highway" v="residential"/>
    <tag k="name" v="East Jade Drive"/>
  </way>
  <way id="47908455" version="2" timestamp="2010-04-03T04:21:42Z" uid="20587" user="balrog-kun" changeset="4309442">
    <nd ref="609219440"/>
    <nd ref="609219442"/>
    <tag k="highway" v="residential"/>
    <tag k="name" v="East Appleby Road"/>
  </way>
  <way id="47908456" version="2" timestamp="2010-04-03T04:21:42Z" uid="20587" user="balrog-kun" changeset="4309442">
    <nd ref="609219517"/>
    <nd ref="609219572"/>
    <tag k="highway" v="residential"/>
    <tag k="name" v="South Hudson Place"/>
  </way>
  <way id="47908458" version="3" timestamp="2010-04-03T04:21:42Z" uid="20587" user="balrog-kun" changeset="4309442">
    <nd ref="609219440"/>
    <nd ref="609219974"/>
    <tag k="highway" v="residential"/>
    <tag k="name" v="East Appleby Road"/>
  </way>
  <way id="47908459" version="2" timestamp="2010-04-03T04:21:42Z" uid="20587" user="balrog-kun" changeset="4309442">
    <nd ref="609219554"/>
    <nd ref="609219557"/>
    <nd ref="609219556"/>
    <nd ref="609219559"/>
    <nd ref="609219558"/>
    <tag k="highway" v="residential"/>
    <tag k="name" v="East Redwood Drive"/>
  </way>
  <way id="47908460" version="2" timestamp="2010-04-03T04:21:42Z" uid="20587" user="balrog-kun" changeset="4309442">
    <nd ref="609219551"/>
    <nd ref="609219588"/>
    <tag k="highway" v="residential"/>
    <tag k="name" v="East Locust Drive"/>
  </way>
  <way id="47908461" version="2" timestamp="2010-04-03T04:21:42Z" uid="20587" user="balrog-kun" changeset="4309442">
    <nd ref="609219443"/>
    <nd ref="609219634"/>
    <nd ref="609219633"/>
    <nd ref="609219638"/>
    <nd ref="609219637"/>
    <nd ref="609219636"/>
    <nd ref="609219635"/>
    <nd ref="609219644"/>
    <nd ref="609219641"/>
    <nd ref="609219640"/>
    <nd ref="609219639"/>
    <nd ref="609219681"/>
    <nd ref="609219683"/>
    <nd ref="609219684"/>
    <nd ref="609219685"/>
    <nd ref="609219686"/>
    <nd ref="609219604"/>
    <tag k="highway" v="residential"/>
    <tag k="name" v="East Locust Drive"/>
  </way>
  <way id="47908462" version="2" timestamp="2010-04-03T04:21:42Z" uid="20587" user="balrog-kun" changeset="4309442">
    <nd ref="609219580"/>
    <nd ref="609219555"/>
    <tag k="highway" v="residential"/>
    <tag k="name" v="South Newport Street"/>
  </way>
  <way id="47908463" version="2" timestamp="2010-04-03T04:21:42Z" uid="20587" user="balrog-kun" changeset="4309442">
    <nd ref="609219519"/>
    <nd ref="609219516"/>
    <tag k="highway" v="residential"/>
    <tag k="name" v="South Nantucket Court"/>
  </way>
  <way id="47908464" version="2" timestamp="2010-04-03T04:21:43Z" uid="20587" user="balrog-kun" changeset="4309442">
    <nd ref="609219481"/>
    <nd ref="609219648"/>
    <nd ref="609219646"/>
    <nd ref="609219647"/>
    <nd ref="609219651"/>
    <nd ref="609219652"/>
    <nd ref="609219649"/>
    <nd ref="609219650"/>
    <nd ref="609219655"/>
    <nd ref="609219657"/>
    <nd ref="609219653"/>
    <nd ref="609219654"/>
    <nd ref="609219632"/>
    <nd ref="609219631"/>
    <nd ref="609219630"/>
    <nd ref="609219629"/>
    <nd ref="609219625"/>
    <tag k="highway" v="residential"/>
    <tag k="name" v="South Spring Drive"/>
  </way>
  <way id="47908465" version="2" timestamp="2010-04-03T04:21:43Z" uid="20587" user="balrog-kun" changeset="4309442">
    <nd ref="609219582"/>
    <nd ref="609219581"/>
    <tag k="highway" v="residential"/>
    <tag k="name" v="East Ebony Drive"/>
  </way>
  <way id="47908466" version="2" timestamp="2010-04-03T04:21:43Z" uid="20587" user="balrog-kun" changeset="4309442">
    <nd ref="609219518"/>
    <nd ref="609219520"/>
    <tag k="highway" v="residential"/>
    <tag k="name" v="East Aloe Drive"/>
  </way>
  <way id="47908467" version="2" timestamp="2010-04-03T04:21:43Z" uid="20587" user="balrog-kun" changeset="4309442">
    <nd ref="609219445"/>
    <nd ref="609219645"/>
    <nd ref="609219480"/>
    <tag k="highway" v="residential"/>
    <tag k="name" v="East Indigo Drive"/>
  </way>
  <way id="47908468" version="2" timestamp="2010-04-03T04:21:43Z" uid="20587" user="balrog-kun" changeset="4309442">
    <nd ref="609219573"/>
    <nd ref="609219589"/>
    <tag k="highway" v="residential"/>
    <tag k="name" v="South Nantucket Drive"/>
  </way>
  <way id="47908469" version="2" timestamp="2010-04-03T04:21:43Z" uid="20587" user="balrog-kun" changeset="4309442">
    <nd ref="609219510"/>
    <nd ref="609219509"/>
    <tag k="highway" v="residential"/>
    <tag k="name" v="East Iris Drive"/>
  </way>
  <way id="47908470" version="2" timestamp="2010-04-03T04:21:43Z" uid="20587" user="balrog-kun" changeset="4309442">
    <nd ref="609219546"/>
    <nd ref="609219571"/>
    <tag k="highway" v="residential"/>
    <tag k="name" v="South Lantana Ranch Boulevard"/>
  </way>
  <way id="47908471" version="2" timestamp="2010-04-03T04:21:43Z" uid="20587" user="balrog-kun" changeset="4309442">
    <nd ref="609219591"/>
    <nd ref="609219580"/>
    <tag k="highway" v="residential"/>
    <tag k="name" v="East Aloe Drive"/>
  </way>
  <way id="47908472" version="2" timestamp="2010-04-03T04:21:43Z" uid="20587" user="balrog-kun" changeset="4309442">
    <nd ref="609219513"/>
    <nd ref="609219514"/>
    <nd ref="609219507"/>
    <nd ref="609219508"/>
    <nd ref="609219509"/>
    <tag k="highway" v="residential"/>
    <tag k="name" v="South Laurel Way"/>
  </way>
  <way id="47908473" version="2" timestamp="2010-04-03T04:21:43Z" uid="20587" user="balrog-kun" changeset="4309442">
    <nd ref="609219449"/>
    <nd ref="609219680"/>
    <nd ref="609219678"/>
    <nd ref="609219723"/>
    <nd ref="609219724"/>
    <nd ref="609219720"/>
    <nd ref="609219721"/>
    <nd ref="609219718"/>
    <nd ref="609219719"/>
    <nd ref="609219697"/>
    <tag k="highway" v="residential"/>
    <tag k="name" v="South Crosscreek Drive"/>
  </way>
  <way id="47908474" version="2" timestamp="2010-04-03T04:21:44Z" uid="20587" user="balrog-kun" changeset="4309442">
    <nd ref="609219511"/>
    <nd ref="609219512"/>
    <tag k="highway" v="residential"/>
    <tag k="name" v="South Hudson Place"/>
  </way>
  <way id="47908475" version="2" timestamp="2010-04-03T04:21:44Z" uid="20587" user="balrog-kun" changeset="4309442">
    <nd ref="609219550"/>
    <nd ref="609219573"/>
    <tag k="highway" v="residential"/>
    <tag k="name" v="East Jade Drive"/>
  </way>
  <way id="47908476" version="2" timestamp="2010-04-03T04:21:44Z" uid="20587" user="balrog-kun" changeset="4309442">
    <nd ref="609219693"/>
    <nd ref="609219695"/>
    <nd ref="609219659"/>
    <nd ref="609219658"/>
    <nd ref="609219663"/>
    <nd ref="609219661"/>
    <nd ref="609219666"/>
    <nd ref="609219664"/>
    <nd ref="609219670"/>
    <nd ref="609219668"/>
    <nd ref="609219673"/>
    <nd ref="609219671"/>
    <nd ref="609219676"/>
    <nd ref="609219675"/>
    <nd ref="609219443"/>
    <tag k="highway" v="residential"/>
    <tag k="name" v="East Locust Drive"/>
  </way>
  <way id="47908477" version="2" timestamp="2010-04-03T04:21:44Z" uid="20587" user="balrog-kun" changeset="4309442">
    <nd ref="609219501"/>
    <nd ref="609219502"/>
    <tag k="highway" v="residential"/>
    <tag k="name" v="East Locust Drive"/>
  </way>
  <way id="47908478" version="2" timestamp="2010-04-03T04:21:44Z" uid="20587" user="balrog-kun" changeset="4309442">
    <nd ref="609219518"/>
    <nd ref="609219584"/>
    <nd ref="609219583"/>
    <nd ref="609219586"/>
    <nd ref="609219558"/>
    <tag k="highway" v="residential"/>
    <tag k="name" v="South Crosscreek Drive"/>
  </way>
  <way id="47908479" version="2" timestamp="2010-04-03T04:21:44Z" uid="20587" user="balrog-kun" changeset="4309442">
    <nd ref="609219687"/>
    <nd ref="609219523"/>
    <tag k="highway" v="residential"/>
    <tag k="name" v="South Jesse Street"/>
  </way>
  <way id="47908480" version="2" timestamp="2010-04-03T04:21:44Z" uid="20587" user="balrog-kun" changeset="4309442">
    <nd ref="609219449"/>
    <nd ref="609219498"/>
    <nd ref="609219497"/>
    <nd ref="609219496"/>
    <nd ref="609219503"/>
    <nd ref="609219504"/>
    <nd ref="609219505"/>
    <nd ref="609219506"/>
    <nd ref="609219499"/>
    <nd ref="609219450"/>
    <tag k="highway" v="residential"/>
    <tag k="name" v="East Jade Drive"/>
  </way>
  <way id="47908481" version="2" timestamp="2010-04-03T04:21:44Z" uid="20587" user="balrog-kun" changeset="4309442">
    <nd ref="609219522"/>
    <nd ref="609219527"/>
    <tag k="highway" v="residential"/>
    <tag k="name" v="South Windstream Place"/>
  </way>
  <way id="47908482" version="2" timestamp="2010-04-03T04:21:44Z" uid="20587" user="balrog-kun" changeset="4309442">
    <nd ref="609219687"/>
    <nd ref="609219688"/>
    <nd ref="609219689"/>
    <nd ref="609219690"/>
    <nd ref="609219692"/>
    <nd ref="609219571"/>
    <tag k="highway" v="residential"/>
    <tag k="name" v="East Lantana Ranch Boulevard"/>
  </way>
  <way id="47908483" version="2" timestamp="2010-04-03T04:21:45Z" uid="20587" user="balrog-kun" changeset="4309442">
    <nd ref="609219481"/>
    <nd ref="609219488"/>
    <nd ref="609219486"/>
    <nd ref="609219485"/>
    <nd ref="609219484"/>
    <nd ref="609219492"/>
    <nd ref="609219491"/>
    <nd ref="609219490"/>
    <nd ref="609219489"/>
    <nd ref="609219495"/>
    <nd ref="609219494"/>
    <nd ref="609219493"/>
    <nd ref="609219469"/>
    <tag k="highway" v="residential"/>
    <tag k="name" v="East Jade Drive"/>
  </way>
  <way id="47908484" version="2" timestamp="2010-02-08T08:10:38Z" uid="74617" user="JohnSmith" changeset="3821259">
    <nd ref="609219752"/>
    <nd ref="609219753"/>
    <nd ref="609219754"/>
    <nd ref="609219755"/>
    <tag k="highway" v="residential"/>
    <tag k="maxspeed" v="50"/>
    <tag k="source" v="nearmap"/>
  </way>
  <way id="47908484" version="3" timestamp="2010-07-17T02:56:59Z" uid="74617" user="JohnSmith" changeset="5239017">
    <nd ref="609219752"/>
    <nd ref="609219753"/>
    <nd ref="609219754"/>
    <nd ref="609219755"/>
    <tag k="highway" v="residential"/>
    <tag k="maxspeed" v="50"/>
    <tag k="name" v="Baza Place"/>
    <tag k="source" v="nearmap"/>
  </way>
  <way id="47908485" version="2" timestamp="2010-04-03T04:21:45Z" uid="20587" user="balrog-kun" changeset="4309442">
    <nd ref="609219579"/>
    <nd ref="609219578"/>
    <nd ref="609219515"/>
    <tag k="highway" v="residential"/>
    <tag k="name" v="East Carob Place"/>
  </way>
  <way id="47908486" version="2" timestamp="2010-04-03T04:21:45Z" uid="20587" user="balrog-kun" changeset="4309442">
    <nd ref="609219590"/>
    <nd ref="609219589"/>
    <tag k="highway" v="residential"/>
    <tag k="name" v="East Indigo Drive"/>
  </way>
  <way id="47908487" version="2" timestamp="2010-04-03T04:21:45Z" uid="20587" user="balrog-kun" changeset="4309442">
    <nd ref="609219520"/>
    <nd ref="609219548"/>
    <nd ref="609219547"/>
    <nd ref="609219513"/>
    <tag k="highway" v="residential"/>
    <tag k="name" v="South Laurel Way"/>
  </way>
  <way id="47908488" version="2" timestamp="2010-04-03T04:21:45Z" uid="20587" user="balrog-kun" changeset="4309442">
    <nd ref="609219697"/>
    <nd ref="609219716"/>
    <nd ref="609219715"/>
    <nd ref="609219713"/>
    <nd ref="609219712"/>
    <nd ref="609219711"/>
    <nd ref="609219708"/>
    <nd ref="609219706"/>
    <nd ref="609219466"/>
    <tag k="highway" v="residential"/>
    <tag k="name" v="East Indigo Drive"/>
  </way>
  <way id="47908489" version="2" timestamp="2010-04-03T04:21:45Z" uid="20587" user="balrog-kun" changeset="4309442">
    <nd ref="609219560"/>
    <nd ref="609219563"/>
    <tag k="highway" v="residential"/>
    <tag k="name" v="East Carob Place"/>
  </way>
  <way id="47908490" version="2" timestamp="2010-04-03T04:21:45Z" uid="20587" user="balrog-kun" changeset="4309442">
    <nd ref="609219513"/>
    <nd ref="609219546"/>
    <tag k="highway" v="residential"/>
    <tag k="name" v="East Ebony Drive"/>
  </way>
  <way id="47908491" version="3" timestamp="2010-04-03T04:21:45Z" uid="20587" user="balrog-kun" changeset="4309442">
    <nd ref="609219918"/>
    <nd ref="609219743"/>
    <nd ref="609219687"/>
    <tag k="highway" v="residential"/>
    <tag k="name" v="East Lantana Ranch Boulevard"/>
  </way>
  <way id="47908492" version="2" timestamp="2010-04-03T04:21:45Z" uid="20587" user="balrog-kun" changeset="4309442">
    <nd ref="609219581"/>
    <nd ref="609219594"/>
    <nd ref="609219564"/>
    <tag k="highway" v="residential"/>
    <tag k="name" v="East Ebony Drive"/>
  </way>
  <way id="47908493" version="2" timestamp="2010-04-03T04:21:45Z" uid="20587" user="balrog-kun" changeset="4309442">
    <nd ref="609219523"/>
    <nd ref="609219536"/>
    <nd ref="609219537"/>
    <nd ref="609219534"/>
    <nd ref="609219535"/>
    <nd ref="609219532"/>
    <nd ref="609219533"/>
    <nd ref="609219530"/>
    <nd ref="609219531"/>
    <nd ref="609219544"/>
    <nd ref="609219545"/>
    <nd ref="609219542"/>
    <nd ref="609219543"/>
    <nd ref="609219540"/>
    <nd ref="609219541"/>
    <nd ref="609219538"/>
    <tag k="highway" v="residential"/>
    <tag k="name" v="East Carob Drive"/>
  </way>
  <way id="47908494" version="2" timestamp="2010-04-03T04:21:45Z" uid="20587" user="balrog-kun" changeset="4309442">
    <nd ref="609219576"/>
    <nd ref="609219732"/>
    <nd ref="609219733"/>
    <nd ref="609219730"/>
    <nd ref="609219731"/>
    <nd ref="609219728"/>
    <nd ref="609219729"/>
    <nd ref="609219726"/>
    <nd ref="609219727"/>
    <nd ref="609219704"/>
    <nd ref="609219703"/>
    <nd ref="609219701"/>
    <nd ref="609219699"/>
    <nd ref="609219693"/>
    <tag k="highway" v="residential"/>
    <tag k="name" v="South Spring Drive"/>
  </way>
  <way id="47908495" version="2" timestamp="2010-04-03T04:21:45Z" uid="20587" user="balrog-kun" changeset="4309442">
    <nd ref="609219522"/>
    <nd ref="609219521"/>
    <tag k="highway" v="residential"/>
    <tag k="name" v="East Redwood Drive"/>
  </way>
  <way id="47908496" version="2" timestamp="2010-04-03T04:21:45Z" uid="20587" user="balrog-kun" changeset="4309442">
    <nd ref="609219539"/>
    <nd ref="609219549"/>
    <tag k="highway" v="residential"/>
    <tag k="name" v="East Appleby Road"/>
  </way>
  <way id="47908497" version="2" timestamp="2010-04-03T04:21:46Z" uid="20587" user="balrog-kun" changeset="4309442">
    <nd ref="609219582"/>
    <nd ref="609219546"/>
    <tag k="highway" v="residential"/>
    <tag k="name" v="South Lantana Ranch Boulevard"/>
  </way>
  <way id="47908498" version="2" timestamp="2010-04-03T04:21:46Z" uid="20587" user="balrog-kun" changeset="4309442">
    <nd ref="609219526"/>
    <nd ref="609219529"/>
    <nd ref="609219528"/>
    <nd ref="609219522"/>
    <tag k="highway" v="residential"/>
    <tag k="name" v="East Redwood Drive"/>
  </way>
  <way id="47908499" version="2" timestamp="2010-04-03T04:21:46Z" uid="20587" user="balrog-kun" changeset="4309442">
    <nd ref="609219527"/>
    <nd ref="609219592"/>
    <tag k="highway" v="residential"/>
    <tag k="name" v="South Windstream Place"/>
  </way>
  <way id="47908501" version="2" timestamp="2010-04-03T04:21:46Z" uid="20587" user="balrog-kun" changeset="4309442">
    <nd ref="609219521"/>
    <nd ref="609219524"/>
    <tag k="highway" v="residential"/>
    <tag k="name" v="South Nantucket Drive"/>
  </way>
  <way id="47908502" version="2" timestamp="2010-04-03T04:21:46Z" uid="20587" user="balrog-kun" changeset="4309442">
    <nd ref="609219591"/>
    <nd ref="609219564"/>
    <tag k="highway" v="residential"/>
    <tag k="name" v="South Windstream Place"/>
  </way>
  <way id="47908503" version="2" timestamp="2010-04-03T04:21:46Z" uid="20587" user="balrog-kun" changeset="4309442">
    <nd ref="609219515"/>
    <nd ref="609219501"/>
    <tag k="highway" v="residential"/>
    <tag k="name" v="South Windstream Place"/>
  </way>
  <way id="47908504" version="2" timestamp="2010-04-03T04:21:46Z" uid="20587" user="balrog-kun" changeset="4309442">
    <nd ref="609219574"/>
    <nd ref="609219587"/>
    <tag k="highway" v="residential"/>
    <tag k="name" v="South Newport Place"/>
  </way>
  <way id="47908505" version="3" timestamp="2010-04-03T04:21:46Z" uid="20587" user="balrog-kun" changeset="4309442">
    <nd ref="609219582"/>
    <nd ref="609219781"/>
    <tag k="highway" v="residential"/>
    <tag k="name" v="South Lantana Ranch Boulevard"/>
  </way>
  <way id="47908506" version="2" timestamp="2010-04-03T04:21:46Z" uid="20587" user="balrog-kun" changeset="4309442">
    <nd ref="609219517"/>
    <nd ref="609219527"/>
    <tag k="highway" v="residential"/>
    <tag k="name" v="East Iris Drive"/>
  </way>
  <way id="47908507" version="2" timestamp="2010-04-03T04:21:46Z" uid="20587" user="balrog-kun" changeset="4309442">
    <nd ref="609219588"/>
    <nd ref="609219574"/>
    <tag k="highway" v="residential"/>
    <tag k="name" v="South Newport Place"/>
  </way>
  <way id="47908508" version="3" timestamp="2010-04-03T04:21:46Z" uid="20587" user="balrog-kun" changeset="4309442">
    <nd ref="609219600"/>
    <nd ref="41800667"/>
    <tag k="highway" v="residential"/>
    <tag k="name" v="South 124th Street"/>
  </way>
  <way id="47908509" version="2" timestamp="2010-04-03T04:21:46Z" uid="20587" user="balrog-kun" changeset="4309442">
    <nd ref="609219521"/>
    <nd ref="609219593"/>
    <tag k="highway" v="residential"/>
    <tag k="name" v="East Redwood Drive"/>
  </way>
  <way id="47908510" version="2" timestamp="2010-04-03T04:21:46Z" uid="20587" user="balrog-kun" changeset="4309442">
    <nd ref="609219561"/>
    <nd ref="609219563"/>
    <tag k="highway" v="residential"/>
    <tag k="name" v="South Newport Street"/>
  </way>
  <way id="47908511" version="2" timestamp="2010-04-03T04:21:46Z" uid="20587" user="balrog-kun" changeset="4309442">
    <nd ref="609219599"/>
    <nd ref="609219581"/>
    <tag k="highway" v="residential"/>
    <tag k="name" v="South Hudson Place"/>
  </way>
  <way id="47908512" version="2" timestamp="2010-04-03T04:21:46Z" uid="20587" user="balrog-kun" changeset="4309442">
    <nd ref="609219562"/>
    <nd ref="609219517"/>
    <tag k="highway" v="residential"/>
    <tag k="name" v="East Iris Drive"/>
  </way>
  <way id="47908513" version="4" timestamp="2010-04-03T04:21:46Z" uid="20587" user="balrog-kun" changeset="4309442">
    <nd ref="609219561"/>
    <nd ref="609219600"/>
    <nd ref="345750905"/>
    <tag k="highway" v="residential"/>
    <tag k="name" v="East Hemlock Way; E Hemlock Drive"/>
  </way>
  <way id="47908514" version="2" timestamp="2010-04-03T04:21:46Z" uid="20587" user="balrog-kun" changeset="4309442">
    <nd ref="609219515"/>
    <nd ref="609219516"/>
    <tag k="highway" v="residential"/>
    <tag k="name" v="East Carob Place"/>
  </way>
  <way id="47908515" version="2" timestamp="2010-04-03T04:21:46Z" uid="20587" user="balrog-kun" changeset="4309442">
    <nd ref="609219555"/>
    <nd ref="609219593"/>
    <tag k="highway" v="residential"/>
    <tag k="name" v="South Newport Street"/>
  </way>
  <way id="47908516" version="2" timestamp="2010-02-08T08:09:59Z" uid="74617" user="JohnSmith" changeset="3821259">
    <nd ref="609219756"/>
    <nd ref="609219757"/>
    <nd ref="609219758"/>
    <nd ref="609219759"/>
    <nd ref="609219760"/>
    <tag k="highway" v="residential"/>
    <tag k="maxspeed" v="50"/>
    <tag k="source" v="nearmap"/>
  </way>
  <way id="47908516" version="4" timestamp="2010-07-17T02:56:59Z" uid="74617" user="JohnSmith" changeset="5239017">
    <nd ref="660963180"/>
    <nd ref="609219756"/>
    <tag k="highway" v="footway"/>
    <tag k="maxspeed" v="50"/>
    <tag k="name" v="Raptor Parade"/>
    <tag k="source" v="nearmap"/>
  </way>
  <way id="47908517" version="2" timestamp="2010-04-03T04:21:47Z" uid="20587" user="balrog-kun" changeset="4309442">
    <nd ref="609219560"/>
    <nd ref="609219551"/>
    <tag k="highway" v="residential"/>
    <tag k="name" v="South Nantucket Drive"/>
  </way>
  <way id="47908518" version="2" timestamp="2010-04-03T04:21:47Z" uid="20587" user="balrog-kun" changeset="4309442">
    <nd ref="609219502"/>
    <nd ref="609219551"/>
    <tag k="highway" v="residential"/>
    <tag k="name" v="East Locust Drive"/>
  </way>
  <way id="47908519" version="2" timestamp="2010-04-03T04:21:47Z" uid="20587" user="balrog-kun" changeset="4309442">
    <nd ref="609219512"/>
    <nd ref="609219590"/>
    <tag k="highway" v="residential"/>
    <tag k="name" v="East Indigo Drive"/>
  </way>
  <way id="47908520" version="2" timestamp="2010-04-03T04:21:47Z" uid="20587" user="balrog-kun" changeset="4309442">
    <nd ref="609219511"/>
    <nd ref="609219550"/>
    <tag k="highway" v="residential"/>
    <tag k="name" v="East Jade Drive"/>
  </way>
  <way id="47908521" version="2" timestamp="2010-04-03T04:21:47Z" uid="20587" user="balrog-kun" changeset="4309442">
    <nd ref="609219590"/>
    <nd ref="609219549"/>
    <tag k="highway" v="residential"/>
    <tag k="name" v="South Windstream Place"/>
  </way>
  <way id="47908522" version="2" timestamp="2010-04-03T04:21:47Z" uid="20587" user="balrog-kun" changeset="4309442">
    <nd ref="609219524"/>
    <nd ref="609219553"/>
    <tag k="highway" v="residential"/>
    <tag k="name" v="East Iris Drive"/>
  </way>
  <way id="47908523" version="2" timestamp="2010-04-03T04:21:47Z" uid="20587" user="balrog-kun" changeset="4309442">
    <nd ref="609219516"/>
    <nd ref="609219560"/>
    <tag k="highway" v="residential"/>
    <tag k="name" v="East Carob Place"/>
  </way>
  <way id="47908524" version="2" timestamp="2010-04-03T04:21:47Z" uid="20587" user="balrog-kun" changeset="4309442">
    <nd ref="609219466"/>
    <nd ref="609219552"/>
    <tag k="highway" v="residential"/>
    <tag k="name" v="South Senate Place"/>
  </way>
  <way id="47908525" version="2" timestamp="2010-04-03T04:21:47Z" uid="20587" user="balrog-kun" changeset="4309442">
    <nd ref="609219585"/>
    <nd ref="609219562"/>
    <tag k="highway" v="residential"/>
    <tag k="name" v="South Senate Place"/>
  </way>
  <way id="47908526" version="2" timestamp="2010-02-08T08:09:58Z" uid="74617" user="JohnSmith" changeset="3821259">
    <nd ref="609219752"/>
    <nd ref="609219761"/>
    <nd ref="609219751"/>
    <nd ref="609219762"/>
    <nd ref="609219760"/>
    <nd ref="609219764"/>
    <nd ref="609219765"/>
    <nd ref="609219767"/>
    <nd ref="609219768"/>
    <nd ref="609219769"/>
    <nd ref="609219770"/>
    <nd ref="609219771"/>
    <nd ref="609219772"/>
    <nd ref="609219773"/>
    <nd ref="609219774"/>
    <nd ref="609219775"/>
    <nd ref="609219776"/>
    <nd ref="609219777"/>
    <nd ref="609219778"/>
    <nd ref="609219752"/>
    <tag k="highway" v="residential"/>
    <tag k="maxspeed" v="50"/>
    <tag k="source" v="nearmap"/>
  </way>
  <way id="47908526" version="4" timestamp="2010-07-17T02:56:59Z" uid="74617" user="JohnSmith" changeset="5239017">
    <nd ref="609219752"/>
    <nd ref="609219761"/>
    <nd ref="609219751"/>
    <nd ref="609219762"/>
    <nd ref="609219760"/>
    <nd ref="609219764"/>
    <nd ref="609219765"/>
    <nd ref="609219767"/>
    <nd ref="609219768"/>
    <nd ref="609219769"/>
    <nd ref="609219770"/>
    <nd ref="609219771"/>
    <nd ref="609219772"/>
    <nd ref="609219773"/>
    <nd ref="660962858"/>
    <nd ref="609219774"/>
    <nd ref="609219775"/>
    <nd ref="609219776"/>
    <nd ref="609219777"/>
    <nd ref="609219778"/>
    <nd ref="609219752"/>
    <tag k="highway" v="residential"/>
    <tag k="maxspeed" v="50"/>
    <tag k="name" v="Raptor Place"/>
    <tag k="source" v="nearmap"/>
  </way>
  <way id="47908527" version="2" timestamp="2010-02-08T08:10:08Z" uid="74617" user="JohnSmith" changeset="3821259">
    <nd ref="609219779"/>
    <nd ref="609219768"/>
    <tag k="highway" v="residential"/>
    <tag k="maxspeed" v="50"/>
    <tag k="source" v="nearmap"/>
  </way>
  <way id="47908527" version="3" timestamp="2010-07-17T02:56:58Z" uid="74617" user="JohnSmith" changeset="5239017">
    <nd ref="609219779"/>
    <nd ref="609219768"/>
    <tag k="highway" v="residential"/>
    <tag k="maxspeed" v="50"/>
    <tag k="name" v="Wingbet Court"/>
    <tag k="source" v="nearmap"/>
  </way>
  <way id="47908601" version="3" timestamp="2010-04-03T04:21:48Z" uid="20587" user="balrog-kun" changeset="4309442">
    <nd ref="609220564"/>
    <nd ref="609220565"/>
    <tag k="highway" v="residential"/>
    <tag k="name" v="East Locust Drive"/>
  </way>
  <way id="47908616" version="3" timestamp="2010-04-03T04:21:48Z" uid="20587" user="balrog-kun" changeset="4309442">
    <nd ref="609220741"/>
    <nd ref="609220742"/>
    <nd ref="609220743"/>
    <nd ref="609220744"/>
    <nd ref="609220746"/>
    <tag k="highway" v="residential"/>
    <tag k="name" v="East Jade Drive"/>
  </way>
  <way id="47908670" version="3" timestamp="2010-04-03T04:21:48Z" uid="20587" user="balrog-kun" changeset="4309442">
    <nd ref="609220749"/>
    <nd ref="609220750"/>
    <tag k="highway" v="residential"/>
    <tag k="name" v="East Jade Drive"/>
  </way>
  <way id="47908672" version="3" timestamp="2010-04-03T04:21:48Z" uid="20587" user="balrog-kun" changeset="4309442">
    <nd ref="609220756"/>
    <nd ref="609220757"/>
    <tag k="highway" v="residential"/>
    <tag k="name" v="South Soho Lane"/>
  </way>
  <way id="47908674" version="3" timestamp="2010-04-03T04:21:48Z" uid="20587" user="balrog-kun" changeset="4309442">
    <nd ref="609220762"/>
    <nd ref="609220763"/>
    <nd ref="609220764"/>
    <nd ref="609220765"/>
    <tag k="highway" v="residential"/>
    <tag k="name" v="East Jade Drive"/>
  </way>
  <way id="47908678" version="3" timestamp="2010-04-03T04:21:48Z" uid="20587" user="balrog-kun" changeset="4309442">
    <nd ref="609220923"/>
    <nd ref="609220927"/>
    <nd ref="609220930"/>
    <nd ref="609220933"/>
    <tag k="highway" v="residential"/>
    <tag k="name" v="East Locust Drive"/>
  </way>
  <way id="47908679" version="4" timestamp="2010-04-03T04:21:48Z" uid="20587" user="balrog-kun" changeset="4309442">
    <nd ref="609220980"/>
    <nd ref="609220984"/>
    <nd ref="609220762"/>
    <nd ref="609220923"/>
    <nd ref="609221127"/>
    <nd ref="609221125"/>
    <tag k="highway" v="residential"/>
    <tag k="name" v="South Tower Avenue"/>
  </way>
  <way id="47908680" version="3" timestamp="2010-04-03T04:21:48Z" uid="20587" user="balrog-kun" changeset="4309442">
    <nd ref="609220756"/>
    <nd ref="609221049"/>
    <nd ref="609221054"/>
    <nd ref="609221058"/>
    <nd ref="609220980"/>
    <tag k="highway" v="residential"/>
    <tag k="name" v="East Indigo Drive"/>
  </way>
  <way id="47908681" version="5" timestamp="2010-04-03T04:21:48Z" uid="20587" user="balrog-kun" changeset="4309442">
    <nd ref="345750279"/>
    <nd ref="609221067"/>
    <nd ref="609221070"/>
    <tag k="highway" v="residential"/>
    <tag k="name" v="South Danyell Drive"/>
  </way>
  <way id="47908682" version="3" timestamp="2010-04-03T04:21:48Z" uid="20587" user="balrog-kun" changeset="4309442">
    <nd ref="609221073"/>
    <nd ref="609221076"/>
    <nd ref="609220564"/>
    <nd ref="609220741"/>
    <nd ref="609221079"/>
    <nd ref="609220749"/>
    <nd ref="609221081"/>
    <nd ref="609221084"/>
    <nd ref="609221088"/>
    <nd ref="609220756"/>
    <tag k="highway" v="residential"/>
    <tag k="name" v="South Soho Lane"/>
  </way>
  <way id="47908696" version="3" timestamp="2010-04-03T04:21:48Z" uid="20587" user="balrog-kun" changeset="4309442">
    <nd ref="609221125"/>
    <nd ref="609221126"/>
    <nd ref="609221070"/>
    <nd ref="609221073"/>
    <tag k="highway" v="residential"/>
    <tag k="name" v="East Carob Place"/>
  </way>
  <way id="47908744" version="4" timestamp="2010-04-03T04:21:48Z" uid="20587" user="balrog-kun" changeset="4309442">
    <nd ref="345750921"/>
    <nd ref="345750920"/>
    <nd ref="345750918"/>
    <nd ref="345750917"/>
    <nd ref="345750916"/>
    <nd ref="345750915"/>
    <tag k="highway" v="residential"/>
    <tag k="name" v="East Indigo Drive"/>
  </way>
  <way id="47908776" version="3" timestamp="2010-02-08T08:10:30Z" uid="74617" user="JohnSmith" changeset="3821259">
    <nd ref="609222396"/>
    <nd ref="609253204"/>
    <nd ref="274132904"/>
    <nd ref="274134155"/>
    <nd ref="274134153"/>
    <nd ref="274131480"/>
    <tag k="highway" v="residential"/>
    <tag k="maxspeed" v="50"/>
  </way>
  <way id="47908784" version="1" timestamp="2010-01-08T15:20:43Z" uid="64977" user="CLoeser" changeset="3570924">
    <nd ref="609223424"/>
    <nd ref="609223428"/>
    <nd ref="609223431"/>
    <nd ref="609223434"/>
    <nd ref="609223444"/>
    <nd ref="609223447"/>
    <nd ref="609223450"/>
    <nd ref="609223456"/>
    <nd ref="609223461"/>
    <nd ref="609223424"/>
    <tag k="natural" v="wood"/>
  </way>
  <way id="47908785" version="1" timestamp="2010-01-08T15:20:45Z" uid="64977" user="CLoeser" changeset="3570924">
    <nd ref="609223471"/>
    <nd ref="609223476"/>
    <nd ref="609223480"/>
    <nd ref="609223484"/>
    <nd ref="609223487"/>
    <nd ref="609223490"/>
    <nd ref="609223493"/>
    <nd ref="609223496"/>
    <nd ref="609223497"/>
    <nd ref="609223498"/>
    <nd ref="609223499"/>
    <nd ref="609223500"/>
    <nd ref="609223501"/>
    <nd ref="609223502"/>
    <nd ref="609223503"/>
    <nd ref="609223504"/>
    <nd ref="609223505"/>
    <nd ref="609223506"/>
    <nd ref="609223507"/>
    <nd ref="609223513"/>
    <nd ref="609223515"/>
    <nd ref="609223518"/>
    <nd ref="609223520"/>
    <nd ref="609223524"/>
    <nd ref="609223526"/>
    <nd ref="609223471"/>
    <tag k="natural" v="wood"/>
    <tag k="source" v="Yahoo"/>
  </way>
  <way id="47908787" version="1" timestamp="2010-01-08T15:20:48Z" uid="64977" user="CLoeser" changeset="3570924">
    <nd ref="609223542"/>
    <nd ref="609223545"/>
    <nd ref="609223547"/>
    <nd ref="609223550"/>
    <nd ref="609223553"/>
    <nd ref="609223556"/>
    <nd ref="609223559"/>
    <nd ref="609223563"/>
    <nd ref="609223567"/>
    <nd ref="609223571"/>
    <nd ref="609223575"/>
    <nd ref="609223577"/>
    <nd ref="609223580"/>
    <nd ref="609223582"/>
    <nd ref="609223592"/>
    <nd ref="609223595"/>
    <nd ref="609223599"/>
    <nd ref="609223601"/>
    <nd ref="609223604"/>
    <nd ref="609223542"/>
    <tag k="natural" v="wood"/>
    <tag k="source" v="Yahoo"/>
  </way>
  <way id="47908788" version="2" timestamp="2010-04-03T04:21:49Z" uid="20587" user="balrog-kun" changeset="4309442">
    <nd ref="345749358"/>
    <nd ref="345749361"/>
    <nd ref="345749364"/>
    <nd ref="345749368"/>
    <tag k="highway" v="residential"/>
    <tag k="name" v="East Aloe Drive"/>
  </way>
  <way id="47908794" version="1" timestamp="2010-01-08T15:20:54Z" uid="64977" user="CLoeser" changeset="3570924">
    <nd ref="609223735"/>
    <nd ref="609223736"/>
    <tag k="waterway" v="drain"/>
  </way>
  <way id="47908795" version="1" timestamp="2010-01-08T15:20:54Z" uid="64977" user="CLoeser" changeset="3570924">
    <nd ref="609223736"/>
    <nd ref="609223738"/>
    <tag k="tunnel" v="yes"/>
    <tag k="waterway" v="drain"/>
  </way>
  <way id="47908796" version="1" timestamp="2010-01-08T15:20:54Z" uid="64977" user="CLoeser" changeset="3570924">
    <nd ref="609223738"/>
    <nd ref="609223742"/>
    <nd ref="609223744"/>
    <tag k="waterway" v="drain"/>
  </way>
  <way id="47908798" version="1" timestamp="2010-01-08T15:20:56Z" uid="64977" user="CLoeser" changeset="3570924">
    <nd ref="609223749"/>
    <nd ref="609223751"/>
    <nd ref="609223754"/>
    <nd ref="609223756"/>
    <nd ref="609223759"/>
    <nd ref="609223761"/>
    <nd ref="609223764"/>
    <nd ref="609223767"/>
    <nd ref="609223770"/>
    <nd ref="609223773"/>
    <nd ref="609223776"/>
    <nd ref="609223778"/>
    <nd ref="609223780"/>
    <nd ref="609223782"/>
    <nd ref="609223785"/>
    <nd ref="609223787"/>
    <nd ref="609223790"/>
    <nd ref="609223793"/>
    <nd ref="609223795"/>
    <nd ref="609223798"/>
    <nd ref="609223801"/>
    <nd ref="609223819"/>
    <nd ref="609223749"/>
    <tag k="landuse" v="farm"/>
  </way>
  <way id="47908885" version="2" timestamp="2010-04-03T04:21:49Z" uid="20587" user="balrog-kun" changeset="4309442">
    <nd ref="609229287"/>
    <nd ref="609229302"/>
    <nd ref="609229137"/>
    <tag k="highway" v="residential"/>
    <tag k="name" v="South Hudson Place"/>
  </way>
  <way id="47908886" version="2" timestamp="2010-04-03T04:21:49Z" uid="20587" user="balrog-kun" changeset="4309442">
    <nd ref="609229312"/>
    <nd ref="609229314"/>
    <nd ref="609229315"/>
    <nd ref="609229300"/>
    <nd ref="609229161"/>
    <tag k="highway" v="residential"/>
    <tag k="name" v="South Hudson Place"/>
  </way>
  <way id="47908887" version="2" timestamp="2010-04-03T04:21:49Z" uid="20587" user="balrog-kun" changeset="4309442">
    <nd ref="609229281"/>
    <nd ref="609229333"/>
    <nd ref="609229331"/>
    <nd ref="609229329"/>
    <nd ref="609229327"/>
    <nd ref="609229277"/>
    <tag k="highway" v="residential"/>
    <tag k="name" v="East Yellowstone Place"/>
  </way>
  <way id="47908888" version="2" timestamp="2010-04-03T04:21:49Z" uid="20587" user="balrog-kun" changeset="4309442">
    <nd ref="609229204"/>
    <nd ref="609229303"/>
    <tag k="highway" v="residential"/>
    <tag k="name" v="South Nantucket Drive"/>
  </way>
  <way id="47908889" version="2" timestamp="2010-04-03T04:21:49Z" uid="20587" user="balrog-kun" changeset="4309442">
    <nd ref="609229240"/>
    <nd ref="609229274"/>
    <tag k="highway" v="residential"/>
    <tag k="name" v="South Hudson Place"/>
  </way>
  <way id="47908890" version="2" timestamp="2010-04-03T04:21:49Z" uid="20587" user="balrog-kun" changeset="4309442">
    <nd ref="609229175"/>
    <nd ref="609229202"/>
    <tag k="highway" v="residential"/>
    <tag k="name" v="South Newport Street"/>
  </way>
  <way id="47908891" version="2" timestamp="2010-04-03T04:21:49Z" uid="20587" user="balrog-kun" changeset="4309442">
    <nd ref="609229305"/>
    <nd ref="609229307"/>
    <nd ref="609229308"/>
    <nd ref="609229310"/>
    <nd ref="609229146"/>
    <tag k="highway" v="residential"/>
    <tag k="name" v="East Yellowstone Place"/>
  </way>
  <way id="47908892" version="2" timestamp="2010-04-03T04:21:49Z" uid="20587" user="balrog-kun" changeset="4309442">
    <nd ref="609229209"/>
    <nd ref="609229143"/>
    <tag k="highway" v="residential"/>
    <tag k="name" v="East Prescott Place"/>
  </way>
  <way id="47908893" version="2" timestamp="2010-04-03T04:21:49Z" uid="20587" user="balrog-kun" changeset="4309442">
    <nd ref="609229303"/>
    <nd ref="609229352"/>
    <nd ref="609229175"/>
    <tag k="highway" v="residential"/>
    <tag k="name" v="East Coconino Drive"/>
  </way>
  <way id="47908894" version="2" timestamp="2010-04-03T04:21:50Z" uid="20587" user="balrog-kun" changeset="4309442">
    <nd ref="609229204"/>
    <nd ref="609229209"/>
    <tag k="highway" v="residential"/>
    <tag k="name" v="East Prescott Place"/>
  </way>
  <way id="47908895" version="2" timestamp="2010-04-03T04:21:50Z" uid="20587" user="balrog-kun" changeset="4309442">
    <nd ref="609229149"/>
    <nd ref="609229200"/>
    <tag k="highway" v="residential"/>
    <tag k="name" v="South Windstream Place"/>
  </way>
  <way id="47908896" version="2" timestamp="2010-04-03T04:21:50Z" uid="20587" user="balrog-kun" changeset="4309442">
    <nd ref="609229186"/>
    <nd ref="609229206"/>
    <tag k="highway" v="residential"/>
    <tag k="name" v="South Bedford Drive"/>
  </way>
  <way id="47908897" version="2" timestamp="2010-04-03T04:21:50Z" uid="20587" user="balrog-kun" changeset="4309442">
    <nd ref="609229186"/>
    <nd ref="609229336"/>
    <nd ref="609229338"/>
    <nd ref="609229340"/>
    <tag k="highway" v="residential"/>
    <tag k="name" v="East Zion Way"/>
  </way>
  <way id="47908898" version="2" timestamp="2010-04-03T04:21:50Z" uid="20587" user="balrog-kun" changeset="4309442">
    <nd ref="609229161"/>
    <nd ref="609229163"/>
    <nd ref="609229165"/>
    <nd ref="609229189"/>
    <nd ref="609229192"/>
    <nd ref="609229194"/>
    <nd ref="609229195"/>
    <nd ref="609229178"/>
    <nd ref="609229181"/>
    <nd ref="609229184"/>
    <tag k="highway" v="residential"/>
    <tag k="name" v="East Yellowstone Place"/>
  </way>
  <way id="47908899" version="2" timestamp="2010-04-03T04:21:50Z" uid="20587" user="balrog-kun" changeset="4309442">
    <nd ref="609229350"/>
    <nd ref="609229340"/>
    <tag k="highway" v="residential"/>
    <tag k="name" v="South Senate Place"/>
  </way>
  <way id="47908900" version="2" timestamp="2010-04-03T04:21:50Z" uid="20587" user="balrog-kun" changeset="4309442">
    <nd ref="609229175"/>
    <nd ref="609229140"/>
    <tag k="highway" v="residential"/>
    <tag k="name" v="East Coconino Drive"/>
  </way>
  <way id="47908901" version="2" timestamp="2010-04-03T04:21:50Z" uid="20587" user="balrog-kun" changeset="4309442">
    <nd ref="609229149"/>
    <nd ref="609229168"/>
    <nd ref="609229170"/>
    <nd ref="609229173"/>
    <tag k="highway" v="residential"/>
    <tag k="name" v="East Grand Canyon Drive"/>
  </way>
  <way id="47908902" version="2" timestamp="2010-04-03T04:21:50Z" uid="20587" user="balrog-kun" changeset="4309442">
    <nd ref="609229312"/>
    <nd ref="609229322"/>
    <nd ref="609229320"/>
    <nd ref="609229319"/>
    <nd ref="609229317"/>
    <nd ref="609229200"/>
    <tag k="highway" v="residential"/>
    <tag k="name" v="East Zion Way"/>
  </way>
  <way id="47908904" version="2" timestamp="2010-04-03T04:21:50Z" uid="20587" user="balrog-kun" changeset="4309442">
    <nd ref="609229137"/>
    <nd ref="609229157"/>
    <nd ref="609229154"/>
    <nd ref="609229151"/>
    <tag k="highway" v="residential"/>
    <tag k="name" v="South Hudson Place"/>
  </way>
  <way id="47908905" version="2" timestamp="2010-04-03T04:21:50Z" uid="20587" user="balrog-kun" changeset="4309442">
    <nd ref="609229298"/>
    <nd ref="609229335"/>
    <tag k="highway" v="residential"/>
    <tag k="name" v="East Alamosa Drive"/>
  </way>
  <way id="47908907" version="2" timestamp="2010-04-03T04:21:50Z" uid="20587" user="balrog-kun" changeset="4309442">
    <nd ref="609229143"/>
    <nd ref="609229140"/>
    <tag k="highway" v="residential"/>
    <tag k="name" v="South Newport Street"/>
  </way>
  <way id="47908908" version="2" timestamp="2010-04-03T04:21:50Z" uid="20587" user="balrog-kun" changeset="4309442">
    <nd ref="609229348"/>
    <nd ref="609229209"/>
    <tag k="highway" v="residential"/>
    <tag k="name" v="South Newport Street"/>
  </way>
  <way id="47908909" version="2" timestamp="2010-04-03T04:21:50Z" uid="20587" user="balrog-kun" changeset="4309442">
    <nd ref="609229129"/>
    <nd ref="609229146"/>
    <tag k="highway" v="residential"/>
    <tag k="name" v="South Newport Street"/>
  </way>
  <way id="47908910" version="2" timestamp="2010-04-03T04:21:50Z" uid="20587" user="balrog-kun" changeset="4309442">
    <nd ref="609229283"/>
    <nd ref="609229325"/>
    <nd ref="609229324"/>
    <tag k="highway" v="residential"/>
    <tag k="name" v="East Kaibab Place"/>
  </way>
  <way id="47908911" version="2" timestamp="2010-04-03T04:21:51Z" uid="20587" user="balrog-kun" changeset="4309442">
    <nd ref="609229268"/>
    <nd ref="609229234"/>
    <tag k="highway" v="residential"/>
    <tag k="name" v="South Newport Street"/>
  </way>
  <way id="47908912" version="2" timestamp="2010-04-03T04:21:51Z" uid="20587" user="balrog-kun" changeset="4309442">
    <nd ref="609229281"/>
    <nd ref="609229279"/>
    <tag k="highway" v="residential"/>
    <tag k="name" v="South Crosscreek Circle"/>
  </way>
  <way id="47908913" version="2" timestamp="2010-04-03T04:21:51Z" uid="20587" user="balrog-kun" changeset="4309442">
    <nd ref="609229263"/>
    <nd ref="609229353"/>
    <nd ref="609229350"/>
    <tag k="highway" v="residential"/>
    <tag k="name" v="East Grand Canyon Drive"/>
  </way>
  <way id="47908914" version="2" timestamp="2010-04-03T04:21:51Z" uid="20587" user="balrog-kun" changeset="4309442">
    <nd ref="609229277"/>
    <nd ref="609229276"/>
    <nd ref="609229161"/>
    <tag k="highway" v="residential"/>
    <tag k="name" v="East Yellowstone Place"/>
  </way>
  <way id="47908915" version="2" timestamp="2010-04-03T04:21:51Z" uid="20587" user="balrog-kun" changeset="4309442">
    <nd ref="609229357"/>
    <nd ref="609229355"/>
    <nd ref="609229382"/>
    <nd ref="609229384"/>
    <nd ref="609229270"/>
    <tag k="highway" v="residential"/>
    <tag k="name" v="East Grand Canyon Drive"/>
  </way>
  <way id="47908916" version="2" timestamp="2010-04-03T04:21:51Z" uid="20587" user="balrog-kun" changeset="4309442">
    <nd ref="609229270"/>
    <nd ref="609229264"/>
    <nd ref="609229266"/>
    <nd ref="609229247"/>
    <nd ref="609229263"/>
    <tag k="highway" v="residential"/>
    <tag k="name" v="East Grand Canyon Drive"/>
  </way>
  <way id="47908917" version="2" timestamp="2010-04-03T04:21:51Z" uid="20587" user="balrog-kun" changeset="4309442">
    <nd ref="609229137"/>
    <nd ref="609229377"/>
    <nd ref="609229379"/>
    <tag k="highway" v="residential"/>
    <tag k="name" v="East Prescott Place"/>
  </way>
  <way id="47908918" version="2" timestamp="2010-04-03T04:21:51Z" uid="20587" user="balrog-kun" changeset="4309442">
    <nd ref="609229151"/>
    <nd ref="609229283"/>
    <tag k="highway" v="residential"/>
    <tag k="name" v="South Hudson Place"/>
  </way>
  <way id="47908919" version="2" timestamp="2010-04-03T04:21:51Z" uid="20587" user="balrog-kun" changeset="4309442">
    <nd ref="609229240"/>
    <nd ref="609229237"/>
    <nd ref="609229238"/>
    <nd ref="609229231"/>
    <nd ref="609229234"/>
    <tag k="highway" v="residential"/>
    <tag k="name" v="East Glacier Place"/>
  </way>
  <way id="47908920" version="2" timestamp="2010-04-03T04:21:51Z" uid="20587" user="balrog-kun" changeset="4309442">
    <nd ref="609229345"/>
    <nd ref="609229341"/>
    <nd ref="609229343"/>
    <nd ref="609229362"/>
    <nd ref="609229270"/>
    <tag k="highway" v="residential"/>
    <tag k="name" v="South Bedford Drive"/>
  </way>
  <way id="47908921" version="2" timestamp="2010-04-03T04:21:51Z" uid="20587" user="balrog-kun" changeset="4309442">
    <nd ref="609229202"/>
    <nd ref="609229272"/>
    <nd ref="609229268"/>
    <tag k="highway" v="residential"/>
    <tag k="name" v="South Newport Street"/>
  </way>
  <way id="47908922" version="2" timestamp="2010-04-03T04:21:51Z" uid="20587" user="balrog-kun" changeset="4309442">
    <nd ref="609229285"/>
    <nd ref="609229348"/>
    <tag k="highway" v="residential"/>
    <tag k="name" v="East Tonto Drive"/>
  </way>
  <way id="47908923" version="2" timestamp="2010-04-03T04:21:51Z" uid="20587" user="balrog-kun" changeset="4309442">
    <nd ref="609229207"/>
    <nd ref="609229198"/>
    <nd ref="609229197"/>
    <nd ref="609229202"/>
    <tag k="highway" v="residential"/>
    <tag k="name" v="East Kaibab Place"/>
  </way>
  <way id="47908924" version="2" timestamp="2010-04-03T04:21:51Z" uid="20587" user="balrog-kun" changeset="4309442">
    <nd ref="609229206"/>
    <nd ref="609229361"/>
    <nd ref="609229281"/>
    <tag k="highway" v="residential"/>
    <tag k="name" v="East Yellowstone Place"/>
  </way>
  <way id="47908925" version="2" timestamp="2010-04-03T04:21:52Z" uid="20587" user="balrog-kun" changeset="4309442">
    <nd ref="609229200"/>
    <nd ref="609229222"/>
    <nd ref="609229220"/>
    <nd ref="609229228"/>
    <nd ref="609229225"/>
    <nd ref="609229212"/>
    <nd ref="609229210"/>
    <nd ref="609229217"/>
    <nd ref="609229214"/>
    <nd ref="609229242"/>
    <nd ref="609229244"/>
    <nd ref="609229129"/>
    <tag k="highway" v="residential"/>
    <tag k="name" v="East Zion Way"/>
  </way>
  <way id="47908926" version="2" timestamp="2010-04-03T04:21:52Z" uid="20587" user="balrog-kun" changeset="4309442">
    <nd ref="609229305"/>
    <nd ref="609229359"/>
    <tag k="highway" v="residential"/>
    <tag k="name" v="South Nantucket Drive"/>
  </way>
  <way id="47908927" version="3" timestamp="2010-04-03T04:21:52Z" uid="20587" user="balrog-kun" changeset="4309442">
    <nd ref="42601512"/>
    <nd ref="609229285"/>
    <tag k="highway" v="residential"/>
    <tag k="name" v="South Windstream Place"/>
  </way>
  <way id="47908928" version="2" timestamp="2010-04-03T04:21:52Z" uid="20587" user="balrog-kun" changeset="4309442">
    <nd ref="609229298"/>
    <nd ref="609229263"/>
    <tag k="highway" v="residential"/>
    <tag k="name" v="South Crosscreek Drive"/>
  </way>
  <way id="47908929" version="2" timestamp="2010-04-03T04:21:52Z" uid="20587" user="balrog-kun" changeset="4309442">
    <nd ref="609229234"/>
    <nd ref="609229173"/>
    <tag k="highway" v="residential"/>
    <tag k="name" v="South Newport Street"/>
  </way>
  <way id="47908930" version="2" timestamp="2010-04-03T04:21:52Z" uid="20587" user="balrog-kun" changeset="4309442">
    <nd ref="609229151"/>
    <nd ref="609229295"/>
    <nd ref="609229293"/>
    <tag k="highway" v="residential"/>
    <tag k="name" v="East Coconino Drive"/>
  </way>
  <way id="47908931" version="3" timestamp="2010-04-03T04:21:52Z" uid="20587" user="balrog-kun" changeset="4309442">
    <nd ref="609229277"/>
    <nd ref="609219781"/>
    <tag k="highway" v="residential"/>
    <tag k="name" v="South Lantana Ranch Boulevard"/>
  </way>
  <way id="47908932" version="2" timestamp="2010-04-03T04:21:52Z" uid="20587" user="balrog-kun" changeset="4309442">
    <nd ref="609229287"/>
    <nd ref="609229285"/>
    <tag k="highway" v="residential"/>
    <tag k="name" v="East Tonto Drive"/>
  </way>
  <way id="47908933" version="2" timestamp="2010-04-03T04:21:53Z" uid="20587" user="balrog-kun" changeset="4309442">
    <nd ref="609229184"/>
    <nd ref="609229380"/>
    <tag k="highway" v="residential"/>
    <tag k="name" v="South Windstream Place"/>
  </way>
  <way id="47908934" version="3" timestamp="2010-04-03T04:21:53Z" uid="20587" user="balrog-kun" changeset="4309442">
    <nd ref="609229370"/>
    <nd ref="609229371"/>
    <nd ref="609229373"/>
    <nd ref="337220022"/>
    <tag k="highway" v="residential"/>
    <tag k="name" v="East Alamosa Drive"/>
  </way>
  <way id="47908935" version="2" timestamp="2010-04-03T04:21:53Z" uid="20587" user="balrog-kun" changeset="4309442">
    <nd ref="609229274"/>
    <nd ref="609229292"/>
    <nd ref="609229290"/>
    <nd ref="609229149"/>
    <tag k="highway" v="residential"/>
    <tag k="name" v="East Grand Canyon Drive"/>
  </way>
  <way id="47908936" version="2" timestamp="2010-04-03T04:21:53Z" uid="20587" user="balrog-kun" changeset="4309442">
    <nd ref="609229283"/>
    <nd ref="609229368"/>
    <nd ref="609229335"/>
    <tag k="highway" v="residential"/>
    <tag k="name" v="South Hudson Place"/>
  </way>
  <way id="47908937" version="3" timestamp="2010-04-03T04:21:53Z" uid="20587" user="balrog-kun" changeset="4309442">
    <nd ref="609229268"/>
    <nd ref="609233495"/>
    <tag k="highway" v="residential"/>
    <tag k="name" v="East Alamosa Drive"/>
  </way>
</osm>
