<?xml version='1.0' encoding='UTF-8'?>
<osm version="0.6" generator="libosmium/2.20.0">
  <way id="47922021" version="3" timestamp="2011-04-20T07:31:05Z" uid="115477" user="wowik" changeset="7913535">
    <nd ref="609447277"/>
    <nd ref="609447284"/>
    <nd ref="609447289"/>
    <nd ref="609447297"/>
    <nd ref="609447303"/>
    <nd ref="609447313"/>
    <nd ref="609447277"/>
    <tag k="addr:city" v="Москва"/>
    <tag k="addr:country" v="RU"/>
    <tag k="addr:housenumber" v="20Б"/>
    <tag k="addr:street" v="Новинский бульвар"/>
    <tag k="building" v="yes"/>
    <tag k="cladr:code" v="77000000000722600"/>
  </way>
  <way id="47922078" version="2" timestamp="2010-05-30T18:13:08Z" uid="9581" user="Lobelt" changeset="4855432">
    <nd ref="609449588"/>
    <nd ref="759795322"/>
    <nd ref="258941552"/>
    <tag k="railway" v="rail"/>
  </way>
  <way id="47922419" version="2" timestamp="2010-11-01T18:57:50Z" uid="9581" user="Lobelt" changeset="6259686">
    <nd ref="310275272"/>
    <nd ref="309748731"/>
    <tag k="highway" v="motorway"/>
    <tag k="int_ref" v="E 40"/>
    <tag k="lanes" v="3"/>
    <tag k="maxspeed" v="no"/>
    <tag k="oneway" v="yes"/>
    <tag k="ref" v="A 4"/>
  </way>
</osm>
