<?xml version='1.0' encoding='UTF-8'?>
<osm version="0.6" generator="libosmium/2.20.0">
  <way id="48009573" version="1" timestamp="2010-01-09T19:40:40Z" uid="33382" user="de_muur" changeset="3581085">
    <nd ref="30441486"/>
    <nd ref="29224975"/>
    <nd ref="29224976"/>
    <nd ref="29535847"/>
    <tag k="cycleway" v="track"/>
    <tag k="highway" v="primary"/>
    <tag k="lanes" v="2"/>
    <tag k="maxspeed" v="50"/>
    <tag k="name" v="Sebaldsbrücker Heerstraße"/>
    <tag k="oneway" v="yes"/>
    <tag k="ref" v="B 75"/>
    <tag k="surface" v="paved"/>
  </way>
  <way id="48009575" version="1" timestamp="2010-01-09T19:40:40Z" uid="33382" user="de_muur" changeset="3581085">
    <nd ref="108135240"/>
    <nd ref="207136673"/>
    <nd ref="207136689"/>
    <nd ref="31248644"/>
    <nd ref="29224961"/>
    <nd ref="30391956"/>
    <tag k="cycleway" v="track"/>
    <tag k="highway" v="primary"/>
    <tag k="lanes" v="2"/>
    <tag k="name" v="Sebaldsbrücker Heerstraße"/>
    <tag k="oneway" v="yes"/>
    <tag k="osmarender:renderName" v="no"/>
    <tag k="ref" v="B 75"/>
    <tag k="source" v="survey"/>
  </way>
  <way id="48009577" version="1" timestamp="2010-01-09T19:40:41Z" uid="33382" user="de_muur" changeset="3581085">
    <nd ref="29535847"/>
    <nd ref="29224977"/>
    <nd ref="29535844"/>
    <nd ref="29224978"/>
    <tag k="cycleway" v="track"/>
    <tag k="highway" v="primary"/>
    <tag k="lanes" v="2"/>
    <tag k="maxspeed" v="50"/>
    <tag k="name" v="Sebaldsbrücker Heerstraße"/>
    <tag k="oneway" v="yes"/>
    <tag k="ref" v="B 75"/>
    <tag k="surface" v="paved"/>
  </way>
  <way id="48009578" version="1" timestamp="2010-01-09T19:40:41Z" uid="33382" user="de_muur" changeset="3581085">
    <nd ref="29993604"/>
    <nd ref="29224979"/>
    <nd ref="207136778"/>
    <nd ref="29224980"/>
    <nd ref="29224982"/>
    <nd ref="29224983"/>
    <tag k="cycleway" v="track"/>
    <tag k="highway" v="primary"/>
    <tag k="lanes" v="2"/>
    <tag k="maxspeed" v="50"/>
    <tag k="name" v="Sebaldsbrücker Heerstraße"/>
    <tag k="oneway" v="yes"/>
    <tag k="ref" v="B 75"/>
    <tag k="surface" v="paved"/>
  </way>
  <way id="48009578" version="2" timestamp="2010-02-16T17:35:27Z" uid="33382" user="de_muur" changeset="3894220">
    <nd ref="29993604"/>
    <nd ref="29224979"/>
    <nd ref="29193490"/>
    <tag k="cycleway" v="track"/>
    <tag k="highway" v="primary"/>
    <tag k="lanes" v="2"/>
    <tag k="maxspeed" v="50"/>
    <tag k="name" v="Sebaldsbrücker Heerstraße"/>
    <tag k="oneway" v="yes"/>
    <tag k="ref" v="B 75"/>
    <tag k="surface" v="paved"/>
  </way>
  <way id="48009579" version="1" timestamp="2010-01-09T19:40:41Z" uid="33382" user="de_muur" changeset="3581085">
    <nd ref="30442179"/>
    <nd ref="171388288"/>
    <nd ref="29224954"/>
    <tag k="cycleway" v="track"/>
    <tag k="highway" v="primary"/>
    <tag k="lanes" v="2"/>
    <tag k="maxspeed" v="50"/>
    <tag k="name" v="Sebaldsbrücker Heerstraße"/>
    <tag k="oneway" v="yes"/>
    <tag k="ref" v="B 75"/>
    <tag k="surface" v="paved"/>
  </way>
  <way id="48009581" version="1" timestamp="2010-01-09T19:40:41Z" uid="33382" user="de_muur" changeset="3581085">
    <nd ref="610447005"/>
    <nd ref="29626728"/>
    <nd ref="29224986"/>
    <nd ref="29224987"/>
    <nd ref="30007092"/>
    <nd ref="29626720"/>
    <nd ref="29224989"/>
    <nd ref="29224991"/>
    <nd ref="30007089"/>
    <nd ref="29224992"/>
    <nd ref="29224993"/>
    <nd ref="29224995"/>
    <tag k="cycleway" v="track"/>
    <tag k="highway" v="primary"/>
    <tag k="maxheight" v="3.65"/>
    <tag k="maxspeed" v="50"/>
    <tag k="name" v="Sebaldsbrücker Heerstraße"/>
    <tag k="oneway" v="yes"/>
    <tag k="ref" v="B 75"/>
    <tag k="surface" v="paved"/>
  </way>
  <way id="48009581" version="2" timestamp="2010-02-16T17:35:45Z" uid="33382" user="de_muur" changeset="3894220"/>
  <way id="48009582" version="1" timestamp="2010-01-09T19:40:42Z" uid="33382" user="de_muur" changeset="3581085">
    <nd ref="29224949"/>
    <nd ref="610447001"/>
    <nd ref="29224950"/>
    <nd ref="442296900"/>
    <nd ref="442296914"/>
    <nd ref="29224951"/>
    <nd ref="29224952"/>
    <nd ref="29535880"/>
    <nd ref="29535883"/>
    <tag k="cycleway" v="track"/>
    <tag k="highway" v="primary"/>
    <tag k="maxspeed" v="50"/>
    <tag k="name" v="Sebaldsbrücker Heerstraße"/>
    <tag k="oneway" v="yes"/>
    <tag k="ref" v="B 75"/>
    <tag k="surface" v="paved"/>
  </way>
  <way id="48009582" version="2" timestamp="2010-02-16T17:35:27Z" uid="33382" user="de_muur" changeset="3894220">
    <nd ref="29626728"/>
    <nd ref="610447003"/>
    <nd ref="423272597"/>
    <nd ref="29224950"/>
    <nd ref="29224982"/>
    <nd ref="29224980"/>
    <nd ref="29535880"/>
    <nd ref="29193490"/>
    <tag k="cycleway" v="track"/>
    <tag k="highway" v="primary"/>
    <tag k="maxspeed" v="50"/>
    <tag k="name" v="Sebaldsbrücker Heerstraße"/>
    <tag k="ref" v="B 75"/>
    <tag k="surface" v="paved"/>
  </way>
  <way id="48009941" version="2" timestamp="2010-03-28T11:39:47Z" uid="20587" user="balrog-kun" changeset="4254597">
    <nd ref="95637491"/>
    <nd ref="443508823"/>
    <nd ref="443508794"/>
    <nd ref="443508793"/>
    <nd ref="610509404"/>
    <nd ref="610509387"/>
    <tag k="highway" v="residential"/>
    <tag k="name" v="Southampton Place"/>
    <tag k="tiger:tlid" v="617497428:617497435"/>
  </way>
  <way id="48009942" version="2" timestamp="2010-03-28T11:39:47Z" uid="20587" user="balrog-kun" changeset="4254597">
    <nd ref="610509384"/>
    <nd ref="610509386"/>
    <nd ref="610509380"/>
    <nd ref="610509382"/>
    <nd ref="610509379"/>
    <nd ref="610509370"/>
    <nd ref="610509373"/>
    <nd ref="610509375"/>
    <nd ref="443508836"/>
    <tag k="highway" v="service"/>
    <tag k="name" v="Dunkirk Drive"/>
    <tag k="tiger:tlid" v="617497451:617497455:617497468"/>
  </way>
</osm>
