<?xml version='1.0' encoding='UTF-8'?>
<osm version="0.6" generator="libosmium/2.20.0">
  <way id="48003025" version="1" timestamp="2010-01-09T18:38:21Z" uid="201749" user="geoluk" changeset="3580476">
    <nd ref="610475729"/>
    <nd ref="610475730"/>
  </way>
  <way id="48003025" version="2" timestamp="2010-01-09T18:38:25Z" uid="201749" user="geoluk" changeset="3580476"/>
  <way id="48003041" version="3" timestamp="2010-04-02T17:54:10Z" uid="20587" user="balrog-kun" changeset="4304500">
    <nd ref="60000556"/>
    <nd ref="610475952"/>
    <nd ref="610475954"/>
    <nd ref="610475955"/>
    <nd ref="610475956"/>
    <nd ref="610475957"/>
    <nd ref="610475958"/>
    <nd ref="610475959"/>
    <nd ref="610475960"/>
    <tag k="highway" v="trunk"/>
    <tag k="name" v="Aurora Avenue North"/>
    <tag k="oneway" v="yes"/>
    <tag k="ref" v="WA 99"/>
  </way>
  <way id="48003046" version="4" timestamp="2010-04-02T17:54:10Z" uid="20587" user="balrog-kun" changeset="4304500">
    <nd ref="610475960"/>
    <nd ref="60000632"/>
    <tag k="bridge" v="yes"/>
    <tag k="highway" v="trunk"/>
    <tag k="layer" v="1"/>
    <tag k="name" v="Aurora Avenue North"/>
    <tag k="oneway" v="yes"/>
    <tag k="ref" v="WA 99"/>
  </way>
  <way id="48003053" version="4" timestamp="2010-04-02T17:54:11Z" uid="20587" user="balrog-kun" changeset="4304500">
    <nd ref="610475961"/>
    <nd ref="610475962"/>
    <nd ref="610475963"/>
    <nd ref="610475964"/>
    <nd ref="610475965"/>
    <nd ref="610475966"/>
    <nd ref="610475967"/>
    <nd ref="610475968"/>
    <nd ref="610475969"/>
    <nd ref="610475939"/>
    <tag k="bridge" v="yes"/>
    <tag k="fixme" v="what is the actual extent of this bridge?"/>
    <tag k="highway" v="trunk"/>
    <tag k="name" v="Aurora Avenue North"/>
    <tag k="oneway" v="yes"/>
    <tag k="ref" v="WA 99"/>
  </way>
  <way id="48003054" version="4" timestamp="2010-04-02T17:54:11Z" uid="20587" user="balrog-kun" changeset="4304500">
    <nd ref="60000633"/>
    <nd ref="610475961"/>
    <tag k="bridge" v="yes"/>
    <tag k="highway" v="trunk"/>
    <tag k="layer" v="1"/>
    <tag k="name" v="Aurora Avenue North"/>
    <tag k="oneway" v="yes"/>
    <tag k="ref" v="WA 99"/>
  </way>
  <way id="48003346" version="2" timestamp="2011-04-20T07:30:31Z" uid="115477" user="wowik" changeset="7913535">
    <nd ref="610480721"/>
    <nd ref="610480719"/>
    <nd ref="610480720"/>
    <nd ref="610480722"/>
    <nd ref="610480721"/>
    <tag k="addr:city" v="Москва"/>
    <tag k="addr:country" v="RU"/>
    <tag k="addr:housenumber" v="8 с2"/>
    <tag k="building" v="yes"/>
    <tag k="cladr:code" v="77000000000208500"/>
  </way>
  <way id="48003401" version="2" timestamp="2010-04-03T17:18:25Z" uid="20587" user="balrog-kun" changeset="4313610">
    <nd ref="142769555"/>
    <nd ref="610481129"/>
    <nd ref="143294298"/>
    <nd ref="143294302"/>
    <tag k="highway" v="residential"/>
    <tag k="name" v="West Chee Dodge Boulevard"/>
    <tag k="tiger:cfcc" v="A41"/>
    <tag k="tiger:county" v="McKinley, NM"/>
    <tag k="tiger:name_base" v="Chee Dodge"/>
    <tag k="tiger:name_direction_prefix" v="W"/>
    <tag k="tiger:name_type" v="Blvd"/>
    <tag k="tiger:reviewed" v="no"/>
    <tag k="tiger:separated" v="no"/>
    <tag k="tiger:source" v="tiger_import_dch_v0.6_20070829"/>
    <tag k="tiger:tlid" v="178955817:178955818"/>
  </way>
  <way id="48003403" version="2" timestamp="2010-04-03T17:18:25Z" uid="20587" user="balrog-kun" changeset="4313610">
    <nd ref="142769537"/>
    <nd ref="142769541"/>
    <nd ref="142769544"/>
    <nd ref="142769547"/>
    <nd ref="142769548"/>
    <nd ref="142769550"/>
    <nd ref="142769553"/>
    <nd ref="142769555"/>
    <nd ref="142769558"/>
    <nd ref="142769560"/>
    <nd ref="142769563"/>
    <nd ref="142769566"/>
    <tag k="highway" v="residential"/>
    <tag k="name" v="Mentmore Road"/>
    <tag k="name_1" v="County Road 1"/>
    <tag k="tiger:cfcc" v="A41"/>
    <tag k="tiger:county" v="McKinley, NM"/>
    <tag k="tiger:name_base" v="Mentmore"/>
    <tag k="tiger:name_base_1" v="County Road 1"/>
    <tag k="tiger:name_type" v="Rd"/>
    <tag k="tiger:reviewed" v="no"/>
    <tag k="tiger:separated" v="no"/>
    <tag k="tiger:source" v="tiger_import_dch_v0.6_20070829"/>
    <tag k="tiger:tlid" v="178962214"/>
  </way>
  <way id="48003738" version="2" timestamp="2010-04-02T17:54:11Z" uid="20587" user="balrog-kun" changeset="4304500">
    <nd ref="30759113"/>
    <nd ref="610484050"/>
    <nd ref="124182019"/>
    <nd ref="610484055"/>
    <tag k="highway" v="footway"/>
    <tag k="name" v="Northeast 80th St Sidewalk"/>
  </way>
  <way id="48003741" version="3" timestamp="2010-04-02T17:54:11Z" uid="20587" user="balrog-kun" changeset="4304500">
    <nd ref="610484055"/>
    <nd ref="610484067"/>
    <tag k="bridge" v="yes"/>
    <tag k="highway" v="footway"/>
    <tag k="layer" v="1"/>
    <tag k="name" v="Northeast 80th St Sidewalk"/>
  </way>
  <way id="48003743" version="2" timestamp="2010-04-02T17:54:12Z" uid="20587" user="balrog-kun" changeset="4304500">
    <nd ref="610484067"/>
    <nd ref="610484039"/>
    <nd ref="610484069"/>
    <nd ref="610484071"/>
    <nd ref="53072465"/>
    <tag k="highway" v="footway"/>
    <tag k="name" v="Northeast 80th St Sidewalk"/>
  </way>
</osm>
