<?xml version='1.0' encoding='UTF-8'?>
<osm version="0.6" generator="libosmium/2.20.0">
  <way id="48022085" version="3" timestamp="2010-07-25T07:00:46Z" uid="4467" user="Rosscoe" changeset="5309221">
    <nd ref="269289768"/>
    <nd ref="610738816"/>
    <tag k="bicycle" v="designated"/>
    <tag k="bridge" v="yes"/>
    <tag k="foot" v="designated"/>
    <tag k="highway" v="path"/>
    <tag k="horse" v="no"/>
    <tag k="layer" v="1"/>
    <tag k="name" v="Waurn Ponds Trail"/>
    <tag k="surface" v="paved"/>
  </way>
  <way id="48022087" version="2" timestamp="2010-07-25T07:00:48Z" uid="4467" user="Rosscoe" changeset="5309221">
    <nd ref="610643258"/>
    <nd ref="610643257"/>
    <tag k="bridge" v="yes"/>
    <tag k="highway" v="primary"/>
    <tag k="layer" v="1"/>
    <tag k="maxspeed" v="70"/>
    <tag k="name" v="Surf Coast Highway"/>
    <tag k="oneway" v="yes"/>
    <tag k="ref" v="B100"/>
  </way>
  <way id="48022089" version="2" timestamp="2010-07-25T07:00:50Z" uid="4467" user="Rosscoe" changeset="5309221">
    <nd ref="270450185"/>
    <nd ref="610643259"/>
    <tag k="bridge" v="yes"/>
    <tag k="highway" v="primary"/>
    <tag k="layer" v="1"/>
    <tag k="maxspeed" v="70"/>
    <tag k="name" v="Surf Coast Highway"/>
    <tag k="oneway" v="yes"/>
    <tag k="ref" v="B100"/>
  </way>
</osm>
