<?xml version='1.0' encoding='UTF-8'?>
<osm version="0.6" generator="libosmium/2.20.0">
  <way id="48064298" version="8" timestamp="2010-07-03T21:23:03Z" uid="4467" user="Rosscoe" changeset="5128149">
    <nd ref="120156505"/>
    <nd ref="798876522"/>
    <nd ref="798872080"/>
    <tag k="highway" v="secondary"/>
    <tag k="name" v="N Hamilton Street"/>
    <tag k="oneway" v="yes"/>
    <tag k="ref" v="417"/>
    <tag k="tiger:cfcc" v="A41"/>
    <tag k="tiger:name_base" v="Hamilton"/>
    <tag k="tiger:name_direction_prefix" v="N"/>
    <tag k="tiger:name_type" v="St"/>
    <tag k="tiger:reviewed" v="no"/>
    <tag k="tiger:separated" v="no"/>
    <tag k="tiger:source" v="tiger_import_dch_v0.7_20071117"/>
    <tag k="tiger:tlid" v="14758552:14717052:14719634:14717056:14758775:14717079:14758540:14746550:14758542:14717138:14754298:14754299:14717190:14760156:14741932"/>
    <tag k="tiger:zip_left" v="14870"/>
    <tag k="tiger:zip_right" v="14870"/>
  </way>
  <way id="48064299" version="5" timestamp="2010-07-03T21:22:59Z" uid="4467" user="Rosscoe" changeset="5128149">
    <nd ref="120156527"/>
    <nd ref="611033230"/>
    <nd ref="611033232"/>
    <tag k="bridge" v="yes"/>
    <tag k="highway" v="secondary"/>
    <tag k="layer" v="1"/>
    <tag k="name" v="N Hamilton Street"/>
    <tag k="oneway" v="yes"/>
    <tag k="ref" v="417"/>
    <tag k="tiger:cfcc" v="A45"/>
    <tag k="tiger:name_base" v="Hamilton"/>
    <tag k="tiger:name_direction_prefix" v="N"/>
    <tag k="tiger:name_type" v="St"/>
    <tag k="tiger:reviewed" v="no"/>
    <tag k="tiger:separated" v="yes"/>
    <tag k="tiger:source" v="tiger_import_dch_v0.7_20071117"/>
    <tag k="tiger:tlid" v="14749598:14749599:14727280:14758554"/>
  </way>
  <way id="48064301" version="5" timestamp="2010-07-03T21:22:57Z" uid="4467" user="Rosscoe" changeset="5128149">
    <nd ref="611033236"/>
    <nd ref="611033238"/>
    <nd ref="120156505"/>
    <tag k="bridge" v="yes"/>
    <tag k="highway" v="secondary"/>
    <tag k="layer" v="1"/>
    <tag k="name" v="N Hamilton Street"/>
    <tag k="oneway" v="yes"/>
    <tag k="ref" v="417"/>
    <tag k="tiger:cfcc" v="A41"/>
    <tag k="tiger:name_base" v="Hamilton"/>
    <tag k="tiger:name_direction_prefix" v="N"/>
    <tag k="tiger:name_type" v="St"/>
    <tag k="tiger:reviewed" v="no"/>
    <tag k="tiger:separated" v="no"/>
    <tag k="tiger:source" v="tiger_import_dch_v0.7_20071117"/>
    <tag k="tiger:tlid" v="14758552:14717052:14719634:14717056:14758775:14717079:14758540:14746550:14758542:14717138:14754298:14754299:14717190:14760156:14741932"/>
    <tag k="tiger:zip_left" v="14870"/>
    <tag k="tiger:zip_right" v="14870"/>
  </way>
</osm>
