<?xml version='1.0' encoding='UTF-8'?>
<osm version="0.6" generator="libosmium/2.20.0">
  <way id="48101060" version="5" timestamp="2010-04-29T11:23:14Z" uid="74617" user="JohnSmith" changeset="4555025">
    <nd ref="611392603"/>
    <nd ref="611392972"/>
    <nd ref="611393381"/>
    <nd ref="611393741"/>
    <nd ref="611393746"/>
    <nd ref="611393750"/>
    <nd ref="611393759"/>
    <nd ref="711773616"/>
    <nd ref="611393765"/>
    <tag k="highway" v="residential"/>
    <tag k="name" v="Hulme Drive"/>
  </way>
  <way id="48101073" version="2" timestamp="2010-04-29T11:23:20Z" uid="74617" user="JohnSmith" changeset="4555025">
    <nd ref="611390772"/>
    <nd ref="711773659"/>
    <nd ref="611390773"/>
    <nd ref="611390774"/>
    <tag k="highway" v="residential"/>
    <tag k="name" v="Lesley Court"/>
  </way>
  <way id="48101169" version="3" timestamp="2010-03-28T11:40:21Z" uid="20587" user="balrog-kun" changeset="4254597">
    <nd ref="65363322"/>
    <nd ref="612497395"/>
    <tag k="bridge" v="yes"/>
    <tag k="highway" v="motorway"/>
    <tag k="layer" v="1"/>
    <tag k="name" v="James Lick Freeway"/>
    <tag k="name_1" v="United States Highway 101"/>
    <tag k="oneway" v="yes"/>
    <tag k="ref" v="US 101"/>
    <tag k="tiger:cfcc" v="A15"/>
    <tag k="tiger:county" v="San Francisco, CA"/>
    <tag k="tiger:name_base" v="James Lick"/>
    <tag k="tiger:name_base_1" v="I-80"/>
    <tag k="tiger:name_type" v="Fwy"/>
    <tag k="tiger:separated" v="yes"/>
    <tag k="tiger:source" v="tiger_import_dch_v0.6_20070809"/>
    <tag k="tiger:tlid" v="192301793:192301789:192301791:192301794:192301724:192301715:192298658:192302408:192301787:192302305:192302307:192295120:192295121:192294562:192281753:192298790:192296655:192298789:192281755:192301760:192301761:192301363:192301367:192301370:192301373:19230"/>
  </way>
  <way id="48101173" version="2" timestamp="2010-03-28T11:40:21Z" uid="20587" user="balrog-kun" changeset="4254597">
    <nd ref="611394151"/>
    <nd ref="65283868"/>
    <nd ref="65285941"/>
    <nd ref="65371678"/>
    <nd ref="65282824"/>
    <nd ref="65282735"/>
    <nd ref="65371679"/>
    <nd ref="65371681"/>
    <nd ref="65371683"/>
    <nd ref="65371687"/>
    <nd ref="65371689"/>
    <nd ref="65371692"/>
    <nd ref="65371693"/>
    <nd ref="252992433"/>
    <nd ref="65371696"/>
    <nd ref="434335505"/>
    <nd ref="65371702"/>
    <tag k="highway" v="motorway"/>
    <tag k="layer" v="1"/>
    <tag k="name" v="James Lick Freeway"/>
    <tag k="name_1" v="I-80"/>
    <tag k="oneway" v="yes"/>
    <tag k="ref" v="US 101"/>
    <tag k="tiger:cfcc" v="A15"/>
    <tag k="tiger:county" v="San Francisco, CA"/>
    <tag k="tiger:name_base" v="James Lick"/>
    <tag k="tiger:name_base_1" v="I-80"/>
    <tag k="tiger:name_type" v="Fwy"/>
    <tag k="tiger:separated" v="yes"/>
    <tag k="tiger:source" v="tiger_import_dch_v0.6_20070809"/>
    <tag k="tiger:tlid" v="192301705:192301708:192301710:192287827:192298737:192298738:192287811:192287817:192298739:192298660:192298741:192298743:192298745:192298746:192288001:192298659:192298671:192298460:192298523:192298524:192298459:192288041:192298365:192298366"/>
  </way>
  <way id="48101177" version="3" timestamp="2010-03-28T11:40:22Z" uid="20587" user="balrog-kun" changeset="4254597">
    <nd ref="65371670"/>
    <nd ref="65363330"/>
    <nd ref="65371672"/>
    <nd ref="65335612"/>
    <nd ref="611394152"/>
    <tag k="highway" v="motorway"/>
    <tag k="name" v="James Lick Freeway"/>
    <tag k="name_1" v="I-80"/>
    <tag k="oneway" v="yes"/>
    <tag k="ref" v="US 101"/>
    <tag k="tiger:cfcc" v="A15"/>
    <tag k="tiger:county" v="San Francisco, CA"/>
    <tag k="tiger:name_base" v="James Lick"/>
    <tag k="tiger:name_base_1" v="I-80"/>
    <tag k="tiger:name_type" v="Fwy"/>
    <tag k="tiger:separated" v="yes"/>
    <tag k="tiger:source" v="tiger_import_dch_v0.6_20070809"/>
    <tag k="tiger:tlid" v="192301705:192301708:192301710:192287827:192298737:192298738:192287811:192287817:192298739:192298660:192298741:192298743:192298745:192298746:192288001:192298659:192298671:192298460:192298523:192298524:192298459:192288041:192298365:192298366"/>
  </way>
  <way id="48101182" version="2" timestamp="2010-03-28T11:40:22Z" uid="20587" user="balrog-kun" changeset="4254597">
    <nd ref="611394152"/>
    <nd ref="65286566"/>
    <nd ref="611394151"/>
    <tag k="bridge" v="yes"/>
    <tag k="highway" v="motorway"/>
    <tag k="layer" v="1"/>
    <tag k="name" v="James Lick Freeway"/>
    <tag k="name_1" v="I-80"/>
    <tag k="oneway" v="yes"/>
    <tag k="ref" v="US 101"/>
    <tag k="tiger:cfcc" v="A15"/>
    <tag k="tiger:county" v="San Francisco, CA"/>
    <tag k="tiger:name_base" v="James Lick"/>
    <tag k="tiger:name_base_1" v="I-80"/>
    <tag k="tiger:name_type" v="Fwy"/>
    <tag k="tiger:separated" v="yes"/>
    <tag k="tiger:source" v="tiger_import_dch_v0.6_20070809"/>
    <tag k="tiger:tlid" v="192301705:192301708:192301710:192287827:192298737:192298738:192287811:192287817:192298739:192298660:192298741:192298743:192298745:192298746:192288001:192298659:192298671:192298460:192298523:192298524:192298459:192288041:192298365:192298366"/>
  </way>
  <way id="48101183" version="3" timestamp="2010-03-28T11:40:23Z" uid="20587" user="balrog-kun" changeset="4254597">
    <nd ref="432660036"/>
    <nd ref="432660038"/>
    <tag k="bridge" v="yes"/>
    <tag k="highway" v="motorway"/>
    <tag k="layer" v="1"/>
    <tag k="name" v="James Lick Freeway"/>
    <tag k="oneway" v="yes"/>
    <tag k="ref" v="US 101"/>
  </way>
  <way id="48101184" version="2" timestamp="2010-03-28T11:40:23Z" uid="20587" user="balrog-kun" changeset="4254597">
    <nd ref="432660038"/>
    <nd ref="65282176"/>
    <tag k="highway" v="motorway"/>
    <tag k="name" v="James Lick Freeway"/>
    <tag k="oneway" v="yes"/>
    <tag k="ref" v="US 101"/>
  </way>
  <way id="48101560" version="3" timestamp="2010-04-29T11:36:53Z" uid="74617" user="JohnSmith" changeset="4555025">
    <nd ref="711794482"/>
    <nd ref="611400030"/>
    <nd ref="711794609"/>
    <nd ref="711794746"/>
    <nd ref="611400047"/>
    <nd ref="711794726"/>
    <nd ref="611400051"/>
    <nd ref="611400052"/>
    <nd ref="711794751"/>
    <nd ref="611400054"/>
    <nd ref="611400062"/>
    <nd ref="711794710"/>
    <nd ref="611400065"/>
    <nd ref="711794425"/>
    <nd ref="611399621"/>
    <nd ref="711794497"/>
    <nd ref="611399596"/>
    <nd ref="711794649"/>
    <nd ref="711794476"/>
    <nd ref="611399514"/>
    <tag k="highway" v="residential"/>
    <tag k="name" v="Talgai Drive"/>
  </way>
  <way id="48101782" version="2" timestamp="2010-04-29T11:36:59Z" uid="74617" user="JohnSmith" changeset="4555025"/>
</osm>
