<?xml version='1.0' encoding='UTF-8'?>
<osm version="0.6" generator="libosmium/2.20.0">
  <way id="48181000" version="2" timestamp="2010-04-03T04:29:14Z" uid="20587" user="balrog-kun" changeset="4309442">
    <nd ref="612421240"/>
    <nd ref="612421168"/>
    <nd ref="612421279"/>
    <nd ref="612421266"/>
    <nd ref="612421304"/>
    <tag k="highway" v="residential"/>
    <tag k="name" v="East Sunset Drive"/>
  </way>
  <way id="48181001" version="2" timestamp="2010-04-03T04:29:14Z" uid="20587" user="balrog-kun" changeset="4309442">
    <nd ref="612421160"/>
    <nd ref="612421251"/>
    <nd ref="612421240"/>
    <tag k="highway" v="residential"/>
    <tag k="name" v="South Cloud Road"/>
  </way>
  <way id="48181002" version="2" timestamp="2010-04-03T04:29:14Z" uid="20587" user="balrog-kun" changeset="4309442">
    <nd ref="612421337"/>
    <nd ref="612421350"/>
    <nd ref="612421346"/>
    <tag k="highway" v="residential"/>
    <tag k="name" v="East Evia De Palmas"/>
  </way>
  <way id="48181003" version="2" timestamp="2010-04-03T04:29:14Z" uid="20587" user="balrog-kun" changeset="4309442">
    <nd ref="612421373"/>
    <nd ref="612421376"/>
    <tag k="highway" v="residential"/>
    <tag k="name" v="East Cherrywood Court"/>
  </way>
  <way id="48181004" version="2" timestamp="2010-04-03T04:29:14Z" uid="20587" user="balrog-kun" changeset="4309442">
    <nd ref="612421363"/>
    <nd ref="612421375"/>
    <tag k="highway" v="residential"/>
    <tag k="name" v="East Pecan Lane"/>
  </way>
  <way id="48181005" version="3" timestamp="2010-04-03T04:29:14Z" uid="20587" user="balrog-kun" changeset="4309442">
    <nd ref="612422128"/>
    <nd ref="612421311"/>
    <nd ref="612421314"/>
    <tag k="highway" v="residential"/>
    <tag k="name" v="East Via De Arboles"/>
  </way>
  <way id="48181006" version="2" timestamp="2010-04-03T04:29:14Z" uid="20587" user="balrog-kun" changeset="4309442">
    <nd ref="612421314"/>
    <nd ref="612421351"/>
    <nd ref="612421353"/>
    <tag k="highway" v="residential"/>
    <tag k="name" v="South 205th Court"/>
  </way>
  <way id="48181007" version="2" timestamp="2010-04-03T04:29:14Z" uid="20587" user="balrog-kun" changeset="4309442">
    <nd ref="612421359"/>
    <nd ref="612421358"/>
    <nd ref="612421363"/>
    <tag k="highway" v="residential"/>
    <tag k="name" v="East Pecan Lane"/>
  </way>
  <way id="48181008" version="2" timestamp="2010-04-03T04:29:14Z" uid="20587" user="balrog-kun" changeset="4309442">
    <nd ref="612421346"/>
    <nd ref="612421363"/>
    <tag k="highway" v="residential"/>
    <tag k="name" v="South 205th Street"/>
  </way>
  <way id="48181010" version="2" timestamp="2010-04-03T04:29:15Z" uid="20587" user="balrog-kun" changeset="4309442">
    <nd ref="612421346"/>
    <nd ref="612421356"/>
    <tag k="highway" v="residential"/>
    <tag k="name" v="East Evia De Palmas"/>
  </way>
  <way id="48181013" version="2" timestamp="2010-04-03T04:29:15Z" uid="20587" user="balrog-kun" changeset="4309442">
    <nd ref="612421363"/>
    <nd ref="612421362"/>
    <nd ref="612421360"/>
    <nd ref="612421369"/>
    <nd ref="612421371"/>
    <nd ref="612421365"/>
    <nd ref="612421367"/>
    <nd ref="612421373"/>
    <tag k="highway" v="residential"/>
    <tag k="name" v="South 205th Street"/>
  </way>
  <way id="48181045" version="1" timestamp="2010-01-12T18:02:35Z" uid="115477" user="wowik" changeset="3604898">
    <nd ref="503113679"/>
    <nd ref="424234861"/>
    <nd ref="305071009"/>
    <tag k="highway" v="primary"/>
    <tag k="lanes" v="2"/>
    <tag k="name" v="Проезд 4806"/>
    <tag k="oneway" v="yes"/>
  </way>
  <way id="48181045" version="2" timestamp="2010-02-16T16:09:55Z" uid="115477" user="wowik" changeset="3893434">
    <nd ref="503113679"/>
    <nd ref="424234861"/>
    <nd ref="305071009"/>
    <tag k="addr:postcode" v="124460"/>
    <tag k="cladr:code" v="77000002000453700"/>
    <tag k="cladr:name" v="4806-й"/>
    <tag k="cladr:suffix" v="Проезд"/>
    <tag k="highway" v="primary"/>
    <tag k="lanes" v="2"/>
    <tag k="name" v="Проезд 4806"/>
    <tag k="oneway" v="yes"/>
    <tag k="sorting_name" v="Проезд 4806"/>
  </way>
  <way id="48181045" version="3" timestamp="2010-11-18T08:57:08Z" uid="115477" user="wowik" changeset="6398408">
    <nd ref="503113679"/>
    <nd ref="424234861"/>
    <nd ref="305071009"/>
    <tag k="addr:postcode" v="124460"/>
    <tag k="cladr:code" v="77000002000453700"/>
    <tag k="cladr:name" v="4806-й"/>
    <tag k="cladr:suffix" v="Проезд"/>
    <tag k="highway" v="primary"/>
    <tag k="lanes" v="2"/>
    <tag k="name" v="Проезд N 4806"/>
    <tag k="oneway" v="yes"/>
    <tag k="sorting_name" v="Проезд 4806"/>
  </way>
  <way id="48181045" version="4" timestamp="2011-01-12T14:22:08Z" uid="115477" user="wowik" changeset="6947623">
    <nd ref="503113679"/>
    <nd ref="424234861"/>
    <nd ref="1099952801"/>
    <nd ref="305071009"/>
    <tag k="addr:postcode" v="124460"/>
    <tag k="cladr:code" v="77000002000453700"/>
    <tag k="cladr:name" v="4806-й"/>
    <tag k="cladr:suffix" v="Проезд"/>
    <tag k="highway" v="primary"/>
    <tag k="lanes" v="2"/>
    <tag k="name" v="Проезд N 4806"/>
    <tag k="oneway" v="yes"/>
    <tag k="sorting_name" v="Проезд 4806"/>
  </way>
  <way id="48181046" version="1" timestamp="2010-01-12T18:02:35Z" uid="115477" user="wowik" changeset="3604898">
    <nd ref="593337688"/>
    <nd ref="593337694"/>
    <nd ref="593337638"/>
    <nd ref="593337697"/>
    <tag k="addr:postcode" v="124482"/>
    <tag k="cladr:code" v="77000002000306700"/>
    <tag k="cladr:name" v="Центральный"/>
    <tag k="cladr:suffix" v="Проспект"/>
    <tag k="highway" v="primary"/>
    <tag k="lanes" v="2"/>
    <tag k="name" v="Центральный проспект"/>
    <tag k="omkum:code" v="30485"/>
    <tag k="oneway" v="yes"/>
    <tag k="sorting_name" v="Центральный  проспект"/>
  </way>
  <way id="48181046" version="2" timestamp="2010-04-02T07:28:08Z" uid="115477" user="wowik" changeset="4300781">
    <nd ref="593337688"/>
    <nd ref="593337694"/>
    <nd ref="593337638"/>
    <nd ref="593337697"/>
    <tag k="addr:postcode" v="124460"/>
    <tag k="cladr:code" v="77000002000453700"/>
    <tag k="cladr:name" v="4806-й"/>
    <tag k="cladr:suffix" v="Проезд"/>
    <tag k="highway" v="primary"/>
    <tag k="lanes" v="2"/>
    <tag k="name" v="Проезд 4806"/>
    <tag k="omkum:code" v="30485"/>
    <tag k="oneway" v="yes"/>
    <tag k="sorting_name" v="Проезд 4806"/>
  </way>
  <way id="48181046" version="4" timestamp="2010-11-18T08:57:07Z" uid="115477" user="wowik" changeset="6398408">
    <nd ref="593337688"/>
    <nd ref="593337694"/>
    <nd ref="593337638"/>
    <nd ref="593337697"/>
    <tag k="addr:postcode" v="124460"/>
    <tag k="cladr:code" v="77000002000453700"/>
    <tag k="cladr:name" v="4806-й"/>
    <tag k="cladr:suffix" v="Проезд"/>
    <tag k="highway" v="primary"/>
    <tag k="lanes" v="2"/>
    <tag k="name" v="Проезд N 4806"/>
    <tag k="oneway" v="yes"/>
    <tag k="sorting_name" v="Проезд 4806"/>
  </way>
  <way id="48181046" version="5" timestamp="2011-01-12T14:20:17Z" uid="115477" user="wowik" changeset="6947600">
    <nd ref="593337688"/>
    <nd ref="593337694"/>
    <nd ref="593337638"/>
    <tag k="addr:postcode" v="124460"/>
    <tag k="cladr:code" v="77000002000453700"/>
    <tag k="cladr:name" v="4806-й"/>
    <tag k="cladr:suffix" v="Проезд"/>
    <tag k="highway" v="primary"/>
    <tag k="lanes" v="2"/>
    <tag k="name" v="Проезд N 4806"/>
    <tag k="oneway" v="yes"/>
    <tag k="sorting_name" v="Проезд 4806"/>
  </way>
  <way id="48181048" version="2" timestamp="2010-04-03T04:29:15Z" uid="20587" user="balrog-kun" changeset="4309442">
    <nd ref="612421308"/>
    <nd ref="612422128"/>
    <tag k="highway" v="residential"/>
    <tag k="name" v="East Via De Arboles"/>
  </way>
  <way id="48181111" version="1" timestamp="2010-01-12T18:06:57Z" uid="115477" user="wowik" changeset="3604898">
    <nd ref="612423631"/>
    <nd ref="612423634"/>
    <nd ref="612423636"/>
    <nd ref="612423638"/>
    <nd ref="612423631"/>
    <tag k="name" v="Площадь Шокина"/>
    <tag k="website" v="http://mosopen.ru/document/1354_pp_2009-12-08"/>
  </way>
  <way id="48181111" version="2" timestamp="2010-01-13T11:19:44Z" uid="115477" user="wowik" changeset="3609126">
    <nd ref="612423631"/>
    <nd ref="612423634"/>
    <nd ref="612423638"/>
    <nd ref="612423631"/>
    <tag k="name" v="Площадь Шокина"/>
    <tag k="website" v="http://mosopen.ru/document/1354_pp_2009-12-08"/>
  </way>
  <way id="48181111" version="3" timestamp="2010-01-14T15:39:40Z" uid="115477" user="wowik" changeset="3617803">
    <nd ref="612423631"/>
    <nd ref="612423634"/>
    <nd ref="612423638"/>
    <nd ref="612423631"/>
    <tag k="area" v="yes"/>
    <tag k="name" v="Площадь Шокина"/>
    <tag k="website" v="http://mosopen.ru/document/1354_pp_2009-12-08"/>
  </way>
  <way id="48181130" version="6" timestamp="2010-07-03T22:07:55Z" uid="4467" user="Rosscoe" changeset="5128505">
    <nd ref="105960479"/>
    <nd ref="106019169"/>
    <nd ref="106019171"/>
    <nd ref="106019173"/>
    <nd ref="106019174"/>
    <tag k="highway" v="primary"/>
    <tag k="maxspeed" v="40 mph"/>
    <tag k="name" v="Boal Avenue"/>
    <tag k="old_ref_legislative" v="307"/>
    <tag k="oneway" v="yes"/>
    <tag k="ref" v="US 322 Business"/>
    <tag k="tiger:cfcc" v="A21"/>
    <tag k="tiger:county" v="Centre, PA"/>
    <tag k="tiger:name_base" v="Boal"/>
    <tag k="tiger:name_base_1" v="US Hwy 322 (Bus)"/>
    <tag k="tiger:name_type" v="Ave"/>
    <tag k="tiger:separated" v="no"/>
    <tag k="tiger:source" v="tiger_import_dch_v0.6_20070829"/>
    <tag k="tiger:tlid" v="50398750:50398751:50398748:50398749"/>
    <tag k="tiger:upload_uuid" v="bulk_upload.pl-581644c1-bab1-48ed-84ed-ad8c17badfb4"/>
    <tag k="tiger:zip_left" v="16827"/>
  </way>
  <way id="48181291" version="3" timestamp="2011-01-02T08:46:13Z" uid="20587" user="balrog-kun" changeset="6835962">
    <nd ref="612426251"/>
    <nd ref="612771863"/>
    <nd ref="1078394363"/>
    <tag k="aeroway" v="runway"/>
    <tag k="ele" v="178"/>
    <tag k="name" v="06/24"/>
    <tag k="ref" v="06/24"/>
    <tag k="surface" v="grass"/>
    <tag k="width" v="100"/>
  </way>
  <way id="48181502" version="2" timestamp="2010-04-03T04:29:15Z" uid="20587" user="balrog-kun" changeset="4309442">
    <nd ref="41988677"/>
    <nd ref="41680925"/>
    <nd ref="42445555"/>
    <nd ref="42327645"/>
    <nd ref="42445556"/>
    <nd ref="42445557"/>
    <tag k="highway" v="residential"/>
    <tag k="name" v="South Crismon Road"/>
    <tag k="name_1" v="Crismon Road"/>
    <tag k="tiger:cfcc" v="A41"/>
    <tag k="tiger:county" v="Maricopa, AZ"/>
    <tag k="tiger:name_base" v="Crismon"/>
    <tag k="tiger:name_base_1" v="Crismon"/>
    <tag k="tiger:name_direction_prefix" v="S"/>
    <tag k="tiger:name_type" v="Rd"/>
    <tag k="tiger:name_type_1" v="Rd"/>
    <tag k="tiger:reviewed" v="no"/>
    <tag k="tiger:separated" v="no"/>
    <tag k="tiger:source" v="tiger_import_dch_v0.6_20070809"/>
    <tag k="tiger:tlid" v="128801912:128382015:128382018:128857852:128857854:128857855:128382021:128839611:128838165:128838167:128297819:128297723:128326074"/>
    <tag k="tiger:zip_left" v="85242"/>
    <tag k="tiger:zip_right" v="85242"/>
  </way>
  <way id="48181660" version="3" timestamp="2010-04-03T04:29:15Z" uid="20587" user="balrog-kun" changeset="4309442">
    <nd ref="612435863"/>
    <nd ref="41670578"/>
    <nd ref="41756182"/>
    <tag k="highway" v="residential"/>
    <tag k="name" v="South 202nd Street"/>
    <tag k="tiger:cfcc" v="A41"/>
    <tag k="tiger:county" v="Maricopa, AZ"/>
    <tag k="tiger:name_base" v="202nd"/>
    <tag k="tiger:name_direction_prefix" v="S"/>
    <tag k="tiger:name_type" v="St"/>
    <tag k="tiger:reviewed" v="no"/>
    <tag k="tiger:separated" v="no"/>
    <tag k="tiger:source" v="tiger_import_dch_v0.6_20070809"/>
    <tag k="tiger:tlid" v="128150767:128838149:128297967:128297968:128150812:128150952:128297735"/>
    <tag k="tiger:zip_left" v="85242"/>
    <tag k="tiger:zip_right" v="85242"/>
  </way>
  <way id="48181742" version="2" timestamp="2010-04-02T17:54:24Z" uid="20587" user="balrog-kun" changeset="4304500">
    <nd ref="46970481"/>
    <nd ref="612439241"/>
    <nd ref="46927660"/>
    <tag k="highway" v="residential"/>
    <tag k="name" v="South Underwood Street"/>
    <tag k="tiger:cfcc" v="A41"/>
    <tag k="tiger:county" v="Benton, WA"/>
    <tag k="tiger:name_base" v="Underwood"/>
    <tag k="tiger:name_direction_prefix" v="S"/>
    <tag k="tiger:name_type" v="St"/>
    <tag k="tiger:reviewed" v="no"/>
    <tag k="tiger:separated" v="no"/>
    <tag k="tiger:source" v="tiger_import_dch_v0.6_20070830"/>
    <tag k="tiger:tlid" v="174991810:174991867"/>
    <tag k="tiger:zip_left" v="99337"/>
    <tag k="tiger:zip_right" v="99337"/>
  </way>
  <way id="48181743" version="2" timestamp="2010-04-02T17:54:25Z" uid="20587" user="balrog-kun" changeset="4304500">
    <nd ref="46930345"/>
    <nd ref="612439358"/>
    <nd ref="612439362"/>
    <nd ref="612439365"/>
    <tag k="highway" v="residential"/>
    <tag k="name" v="South Underwood Street"/>
    <tag k="tiger:cfcc" v="A41"/>
    <tag k="tiger:county" v="Benton, WA"/>
    <tag k="tiger:name_base" v="Underwood"/>
    <tag k="tiger:name_direction_prefix" v="S"/>
    <tag k="tiger:name_type" v="St"/>
    <tag k="tiger:reviewed" v="no"/>
    <tag k="tiger:separated" v="no"/>
    <tag k="tiger:source" v="tiger_import_dch_v0.6_20070830"/>
    <tag k="tiger:tlid" v="174991810:174991867"/>
    <tag k="tiger:zip_left" v="99337"/>
    <tag k="tiger:zip_right" v="99337"/>
  </way>
  <way id="48181759" version="2" timestamp="2010-04-02T17:54:25Z" uid="20587" user="balrog-kun" changeset="4304500">
    <nd ref="46903175"/>
    <nd ref="46973021"/>
    <tag k="highway" v="residential"/>
    <tag k="name" v="West 17th Avenue"/>
    <tag k="tiger:cfcc" v="A41"/>
    <tag k="tiger:county" v="Benton, WA"/>
    <tag k="tiger:name_base" v="17th"/>
    <tag k="tiger:name_direction_prefix" v="W"/>
    <tag k="tiger:name_type" v="Ave"/>
    <tag k="tiger:reviewed" v="no"/>
    <tag k="tiger:separated" v="no"/>
    <tag k="tiger:source" v="tiger_import_dch_v0.6_20070830"/>
    <tag k="tiger:tlid" v="174990981:175003335:175003336:174991888"/>
    <tag k="tiger:zip_left" v="99337"/>
    <tag k="tiger:zip_right" v="99337"/>
  </way>
</osm>
