<?xml version='1.0' encoding='UTF-8'?>
<osm version="0.6" generator="libosmium/2.20.0">
  <way id="4819028" version="6" timestamp="2010-07-09T04:10:38Z" uid="4467" user="Rosscoe" changeset="5170895">
    <nd ref="30962287"/>
    <nd ref="292152693"/>
    <tag k="bridge" v="yes"/>
    <tag k="highway" v="service"/>
    <tag k="layer" v="1"/>
    <tag k="note" v="Bridge over Hacking River"/>
    <tag k="source" v="survey"/>
  </way>
  <way id="4819029" version="7" timestamp="2010-03-29T18:26:26Z" uid="74617" user="JohnSmith" changeset="4270084">
    <nd ref="30962274"/>
    <nd ref="30962276"/>
    <nd ref="30962281"/>
    <nd ref="30962282"/>
    <nd ref="30962283"/>
    <nd ref="30962284"/>
    <nd ref="30962285"/>
    <nd ref="30962286"/>
    <nd ref="30962287"/>
    <nd ref="30962322"/>
    <nd ref="290304134"/>
    <nd ref="290304135"/>
    <nd ref="290304136"/>
    <nd ref="290304137"/>
    <nd ref="290304138"/>
    <nd ref="290304139"/>
    <nd ref="290304140"/>
    <nd ref="290304141"/>
    <nd ref="290304142"/>
    <nd ref="290304143"/>
    <nd ref="290304144"/>
    <nd ref="290304145"/>
    <nd ref="290304146"/>
    <tag k="highway" v="service"/>
  </way>
  <way id="4819221" version="1" timestamp="2007-06-27T10:18:27Z" uid="8807" user="brendanpuck" changeset="116038">
    <nd ref="30964732"/>
    <nd ref="30964712"/>
    <nd ref="30964719"/>
    <nd ref="30964720"/>
    <tag k="created_by" v="Brendan Puckeridge"/>
    <tag k="highway" v="residential"/>
    <tag k="is_in" v="Australia, New South Wales, Sydney, Killara"/>
    <tag k="name" v="Greengate Road"/>
  </way>
  <way id="4819245" version="2" timestamp="2008-04-01T06:29:47Z" uid="30201" user="rrankin" changeset="3201">
    <nd ref="30964993"/>
    <nd ref="30964992"/>
    <nd ref="30964991"/>
    <nd ref="30964990"/>
    <nd ref="30964986"/>
    <nd ref="30964985"/>
    <nd ref="30964984"/>
    <nd ref="255189172"/>
    <nd ref="30964983"/>
    <nd ref="30964982"/>
    <nd ref="30964981"/>
    <nd ref="30964980"/>
    <nd ref="30964979"/>
    <nd ref="30964978"/>
    <nd ref="30964977"/>
    <nd ref="30964976"/>
    <nd ref="30964975"/>
    <nd ref="30964974"/>
    <nd ref="30964973"/>
    <nd ref="30964972"/>
    <nd ref="30964971"/>
    <nd ref="30964970"/>
    <nd ref="30964969"/>
    <nd ref="30964968"/>
    <nd ref="30964967"/>
    <nd ref="30964966"/>
    <nd ref="30964965"/>
    <nd ref="30964964"/>
    <nd ref="30964963"/>
    <nd ref="30964962"/>
    <nd ref="30964961"/>
    <nd ref="30964960"/>
    <nd ref="30964949"/>
    <nd ref="30964948"/>
    <nd ref="30964947"/>
    <nd ref="30964946"/>
    <nd ref="30964945"/>
    <nd ref="30964944"/>
    <nd ref="30964943"/>
    <nd ref="30964942"/>
    <nd ref="30964941"/>
    <nd ref="30964940"/>
    <nd ref="30964939"/>
    <nd ref="30964938"/>
    <nd ref="30964937"/>
    <nd ref="30964936"/>
    <nd ref="30964935"/>
    <nd ref="30964934"/>
    <nd ref="30964933"/>
    <nd ref="30964932"/>
    <nd ref="30964931"/>
    <nd ref="30964930"/>
    <nd ref="30964929"/>
    <nd ref="30964928"/>
    <nd ref="30964927"/>
    <nd ref="30964926"/>
    <nd ref="30964925"/>
    <nd ref="30964924"/>
    <nd ref="30964923"/>
    <nd ref="30964922"/>
    <nd ref="30964921"/>
    <nd ref="30964920"/>
    <nd ref="30964919"/>
    <nd ref="30964918"/>
    <nd ref="30964917"/>
    <nd ref="30964916"/>
    <nd ref="30964915"/>
    <nd ref="30964914"/>
    <nd ref="30964913"/>
    <nd ref="30964912"/>
    <nd ref="30964911"/>
    <nd ref="30964901"/>
    <nd ref="30964899"/>
    <nd ref="30964898"/>
    <nd ref="30964894"/>
    <nd ref="30964893"/>
    <nd ref="30964892"/>
    <nd ref="30964890"/>
    <nd ref="30964889"/>
    <nd ref="30964886"/>
    <nd ref="30964885"/>
    <nd ref="30964884"/>
    <nd ref="30964883"/>
    <nd ref="30964881"/>
    <nd ref="30964874"/>
    <nd ref="30964873"/>
    <nd ref="30964857"/>
    <nd ref="30964850"/>
    <nd ref="30964849"/>
    <nd ref="30964848"/>
    <nd ref="30964847"/>
    <nd ref="30964846"/>
    <nd ref="30964845"/>
    <nd ref="30964844"/>
    <nd ref="30964843"/>
    <nd ref="30964842"/>
    <nd ref="30964841"/>
    <nd ref="30964840"/>
    <nd ref="30964839"/>
    <nd ref="30964838"/>
    <nd ref="30964836"/>
    <nd ref="30964835"/>
    <nd ref="30964830"/>
    <nd ref="30964829"/>
    <nd ref="30964828"/>
    <nd ref="30964695"/>
    <nd ref="30964694"/>
    <nd ref="30964693"/>
    <nd ref="30964692"/>
    <tag k="created_by" v="JOSM"/>
    <tag k="highway" v="tertiary"/>
    <tag k="name" v="Tallowa Dam Road"/>
    <tag k="source" v="survey"/>
  </way>
  <way id="4819275" version="3" timestamp="2007-11-24T16:57:50Z" uid="8328" user="benpre" changeset="609315">
    <nd ref="30965090"/>
    <nd ref="30965091"/>
    <nd ref="30965092"/>
    <nd ref="30965093"/>
    <nd ref="32310159"/>
    <nd ref="32310160"/>
    <nd ref="32310161"/>
    <nd ref="32310162"/>
    <nd ref="32310164"/>
    <nd ref="32310165"/>
    <nd ref="32310166"/>
    <nd ref="32310167"/>
    <nd ref="32310168"/>
    <nd ref="32310171"/>
    <nd ref="96129980"/>
    <nd ref="32310173"/>
    <nd ref="32310174"/>
    <nd ref="33828479"/>
    <nd ref="32310175"/>
    <nd ref="32310176"/>
    <nd ref="32310190"/>
    <nd ref="32310192"/>
    <nd ref="32310196"/>
    <nd ref="32310198"/>
    <nd ref="32310200"/>
    <nd ref="32310202"/>
    <nd ref="32310205"/>
    <nd ref="32310207"/>
    <nd ref="32310210"/>
    <nd ref="32310212"/>
    <nd ref="32310213"/>
    <nd ref="32310214"/>
    <nd ref="32310216"/>
    <nd ref="32310217"/>
    <nd ref="32310218"/>
    <nd ref="32310219"/>
    <nd ref="32310220"/>
    <nd ref="32310221"/>
    <nd ref="32310223"/>
    <nd ref="32310224"/>
    <tag k="created_by" v="Potlatch 0.4c"/>
    <tag k="highway" v="secondary"/>
    <tag k="name" v="Königswinterer Straße"/>
  </way>
  <way id="4819408" version="4" timestamp="2009-10-05T21:26:31Z" uid="30201" user="rrankin" changeset="2755592">
    <nd ref="361578886"/>
    <nd ref="32172280"/>
    <nd ref="32172277"/>
    <nd ref="30966661"/>
    <nd ref="30966662"/>
    <nd ref="30966663"/>
    <nd ref="30966664"/>
    <nd ref="30966665"/>
    <nd ref="30966897"/>
    <nd ref="30966669"/>
    <nd ref="30966670"/>
    <nd ref="30966671"/>
    <tag k="highway" v="primary"/>
    <tag k="name" v="Moss Vale Road"/>
    <tag k="source" v="survey"/>
  </way>
  <way id="4819415" version="2" timestamp="2008-05-09T00:47:38Z" uid="26515" user="Simon Ward" changeset="375927">
    <nd ref="30966913"/>
    <nd ref="21600726"/>
    <nd ref="21600725"/>
    <nd ref="21600724"/>
    <nd ref="21600723"/>
    <nd ref="21600722"/>
    <nd ref="21600721"/>
    <tag k="created_by" v="Potlatch alpha"/>
    <tag k="highway" v="cycleway"/>
    <tag k="name" v="Fallowfield Loop Line"/>
    <tag k="ncn_ref" v="60"/>
    <tag k="ref" v="NCN Route 6 &amp; 60"/>
  </way>
  <way id="4819415" version="3" timestamp="2008-05-22T20:49:40Z" uid="26515" user="Simon Ward" changeset="500734">
    <nd ref="30966913"/>
    <nd ref="21600726"/>
    <tag k="created_by" v="Potlatch alpha"/>
    <tag k="highway" v="cycleway"/>
    <tag k="ncn_ref" v="60"/>
    <tag k="ref" v="NCN Route 6 &amp; 60"/>
  </way>
  <way id="4819415" version="4" timestamp="2008-05-23T19:06:25Z" uid="26515" user="Simon Ward" changeset="506396">
    <nd ref="30966913"/>
    <nd ref="266549264"/>
    <tag k="created_by" v="Potlatch alpha"/>
    <tag k="highway" v="cycleway"/>
    <tag k="ncn_ref" v="60"/>
    <tag k="ref" v="NCN Route 6 &amp; 60"/>
  </way>
  <way id="4819415" version="5" timestamp="2008-05-23T19:17:40Z" uid="26515" user="Simon Ward" changeset="506396">
    <nd ref="30966913"/>
    <nd ref="266550371"/>
    <nd ref="266550372"/>
    <tag k="created_by" v="Potlatch alpha"/>
    <tag k="highway" v="cycleway"/>
  </way>
  <way id="4819492" version="4" timestamp="2010-07-07T08:43:37Z" uid="74617" user="JohnSmith" changeset="5156250">
    <nd ref="26921423"/>
    <nd ref="26921424"/>
    <nd ref="26921427"/>
    <nd ref="26921428"/>
    <nd ref="26921578"/>
    <nd ref="26921579"/>
    <nd ref="26921580"/>
    <nd ref="26921581"/>
    <nd ref="26921582"/>
    <nd ref="26921393"/>
    <tag k="highway" v="residential"/>
    <tag k="maxspeed" v="50"/>
    <tag k="maxspeed:source" v="default residential speed limit in Australia"/>
    <tag k="name" v="Banksia Street"/>
    <tag k="source" v="image"/>
  </way>
  <way id="4819493" version="6" timestamp="2010-07-07T08:48:24Z" uid="74617" user="JohnSmith" changeset="5156250">
    <nd ref="26921602"/>
    <nd ref="26921603"/>
    <nd ref="26921608"/>
    <nd ref="26921600"/>
    <nd ref="454854480"/>
    <nd ref="26921611"/>
    <nd ref="26921613"/>
    <nd ref="26921614"/>
    <nd ref="26921616"/>
    <nd ref="26921618"/>
    <nd ref="26921620"/>
    <nd ref="26921622"/>
    <nd ref="26921624"/>
    <nd ref="26921626"/>
    <nd ref="26921629"/>
    <nd ref="454849288"/>
    <nd ref="26921631"/>
    <tag k="highway" v="residential"/>
    <tag k="maxspeed" v="50"/>
    <tag k="maxspeed:source" v="default residential speed limit in Australia"/>
    <tag k="name" v="Coolibah Crescent"/>
  </way>
  <way id="4819494" version="9" timestamp="2010-07-07T08:44:53Z" uid="74617" user="JohnSmith" changeset="5156250">
    <nd ref="26921632"/>
    <nd ref="454849287"/>
    <nd ref="26921636"/>
    <nd ref="26921638"/>
    <nd ref="26921641"/>
    <nd ref="26921644"/>
    <nd ref="26921646"/>
    <nd ref="26921647"/>
    <nd ref="26921648"/>
    <nd ref="26921650"/>
    <nd ref="26921653"/>
    <nd ref="26921633"/>
    <tag k="highway" v="residential"/>
    <tag k="maxspeed" v="50"/>
    <tag k="maxspeed:source" v="default residential speed limit in Australia"/>
    <tag k="name" v="Sundew Crescent"/>
    <tag k="source" v="image"/>
  </way>
  <way id="4819495" version="7" timestamp="2010-07-07T08:50:00Z" uid="74617" user="JohnSmith" changeset="5156250">
    <nd ref="26932131"/>
    <nd ref="26932141"/>
    <nd ref="26932145"/>
    <nd ref="26921599"/>
    <tag k="highway" v="residential"/>
    <tag k="maxspeed" v="50"/>
    <tag k="maxspeed:source" v="default residential speed limit in Australia"/>
    <tag k="name" v="Wonga Street"/>
    <tag k="oneway" v="yes"/>
    <tag k="source" v="nearmap"/>
  </way>
  <way id="4819496" version="3" timestamp="2010-07-07T08:49:26Z" uid="74617" user="JohnSmith" changeset="5156250">
    <nd ref="26921579"/>
    <nd ref="26921591"/>
    <nd ref="26921592"/>
    <nd ref="26921593"/>
    <nd ref="26921594"/>
    <nd ref="26921595"/>
    <nd ref="26921596"/>
    <nd ref="26921597"/>
    <nd ref="26921598"/>
    <nd ref="26921391"/>
    <nd ref="26921421"/>
    <tag k="highway" v="residential"/>
    <tag k="maxspeed" v="50"/>
    <tag k="maxspeed:source" v="default residential speed limit in Australia"/>
    <tag k="name" v="Mulga Street"/>
    <tag k="source" v="image"/>
  </way>
  <way id="4819497" version="3" timestamp="2010-07-07T08:45:54Z" uid="74617" user="JohnSmith" changeset="5156250">
    <nd ref="26921578"/>
    <nd ref="26921585"/>
    <nd ref="26921586"/>
    <nd ref="26921587"/>
    <nd ref="26921588"/>
    <nd ref="26921589"/>
    <nd ref="26921590"/>
    <nd ref="26921386"/>
    <tag k="highway" v="residential"/>
    <tag k="maxspeed" v="50"/>
    <tag k="maxspeed:source" v="default residential speed limit in Australia"/>
    <tag k="name" v="Myall Street"/>
    <tag k="source" v="image"/>
  </way>
  <way id="4819499" version="3" timestamp="2010-07-07T08:47:18Z" uid="74617" user="JohnSmith" changeset="5156250">
    <nd ref="26921392"/>
    <nd ref="26921422"/>
    <tag k="highway" v="residential"/>
    <tag k="maxspeed" v="50"/>
    <tag k="maxspeed:source" v="default residential speed limit in Australia"/>
    <tag k="name" v="Wilga Place"/>
    <tag k="source" v="image"/>
  </way>
  <way id="4819500" version="2" timestamp="2010-07-07T08:46:56Z" uid="74617" user="JohnSmith" changeset="5156250">
    <nd ref="26903222"/>
    <nd ref="26903231"/>
    <tag k="highway" v="residential"/>
    <tag k="maxspeed" v="50"/>
    <tag k="maxspeed:source" v="default residential speed limit in Australia"/>
    <tag k="name" v="Lobelia Street"/>
  </way>
  <way id="4819501" version="2" timestamp="2010-07-07T08:43:19Z" uid="74617" user="JohnSmith" changeset="5156250">
    <nd ref="26903221"/>
    <nd ref="26903232"/>
    <tag k="highway" v="residential"/>
    <tag k="maxspeed" v="50"/>
    <tag k="maxspeed:source" v="default residential speed limit in Australia"/>
    <tag k="name" v="Grevillea Street"/>
  </way>
  <way id="4819502" version="2" timestamp="2010-07-07T08:48:07Z" uid="74617" user="JohnSmith" changeset="5156250">
    <nd ref="26903220"/>
    <nd ref="26903233"/>
    <tag k="highway" v="residential"/>
    <tag k="maxspeed" v="50"/>
    <tag k="maxspeed:source" v="default residential speed limit in Australia"/>
    <tag k="name" v="Dianella Street"/>
  </way>
  <way id="4819503" version="2" timestamp="2010-07-07T08:44:34Z" uid="74617" user="JohnSmith" changeset="5156250">
    <nd ref="26903219"/>
    <nd ref="26903234"/>
    <tag k="highway" v="residential"/>
    <tag k="maxspeed" v="50"/>
    <tag k="maxspeed:source" v="default residential speed limit in Australia"/>
    <tag k="name" v="Caladenia Street"/>
  </way>
  <way id="4819504" version="3" timestamp="2010-07-07T08:48:02Z" uid="74617" user="JohnSmith" changeset="5156250">
    <nd ref="26903217"/>
    <nd ref="26903219"/>
    <nd ref="26903220"/>
    <nd ref="26903221"/>
    <nd ref="26903222"/>
    <nd ref="26903226"/>
    <tag k="highway" v="residential"/>
    <tag k="maxspeed" v="50"/>
    <tag k="maxspeed:source" v="default residential speed limit in Australia"/>
    <tag k="name" v="Scrivener Street"/>
  </way>
  <way id="4819505" version="4" timestamp="2010-07-07T08:44:28Z" uid="74617" user="JohnSmith" changeset="5156250">
    <nd ref="26921393"/>
    <nd ref="26921583"/>
    <nd ref="26921584"/>
    <nd ref="26903216"/>
    <tag k="highway" v="residential"/>
    <tag k="maxspeed" v="50"/>
    <tag k="maxspeed:source" v="default residential speed limit in Australia"/>
    <tag k="name" v="Brigalow Street"/>
    <tag k="source" v="image"/>
  </way>
  <way id="4819506" version="3" timestamp="2010-07-07T08:49:21Z" uid="74617" user="JohnSmith" changeset="5156250">
    <nd ref="26903236"/>
    <nd ref="26903245"/>
    <nd ref="26903256"/>
    <nd ref="26903257"/>
    <nd ref="26903258"/>
    <nd ref="26903259"/>
    <nd ref="26903260"/>
    <nd ref="26903261"/>
    <nd ref="26903262"/>
    <nd ref="26903263"/>
    <tag k="highway" v="residential"/>
    <tag k="maxspeed" v="50"/>
    <tag k="maxspeed:source" v="default residential speed limit in Australia"/>
    <tag k="name" v="Jarrah Street"/>
  </way>
  <way id="4819682" version="3" timestamp="2008-09-16T10:33:24Z" uid="1066" user="pavel" changeset="646258">
    <nd ref="277482262"/>
    <nd ref="25953687"/>
    <tag k="created_by" v="JOSM"/>
    <tag k="highway" v="residential"/>
    <tag k="name" v="V lipkách"/>
    <tag k="name:source" v="nameit/uir-adr"/>
  </way>
  <way id="4819683" version="2" timestamp="2008-09-16T10:37:55Z" uid="1066" user="pavel" changeset="646258">
    <nd ref="25953683"/>
    <nd ref="25953684"/>
    <tag k="created_by" v="JOSM"/>
    <tag k="highway" v="residential"/>
    <tag k="name" v="Ve smrčině"/>
    <tag k="name:source" v="nameit/uir-adr"/>
  </way>
  <way id="4819694" version="2" timestamp="2008-09-16T10:44:34Z" uid="1066" user="pavel" changeset="646258">
    <nd ref="25682154"/>
    <nd ref="25681666"/>
    <tag k="created_by" v="JOSM"/>
    <tag k="highway" v="residential"/>
    <tag k="name" v="Ortenovo nám."/>
    <tag k="name:source" v="nameit/uir-adr"/>
  </way>
  <way id="4819695" version="2" timestamp="2008-09-16T10:43:04Z" uid="1066" user="pavel" changeset="646258">
    <nd ref="25682154"/>
    <nd ref="25682155"/>
    <tag k="created_by" v="JOSM"/>
    <tag k="highway" v="residential"/>
    <tag k="name" v="Ortenovo nám."/>
    <tag k="name:source" v="nameit/uir-adr"/>
  </way>
  <way id="4819697" version="2" timestamp="2008-09-16T10:13:51Z" uid="1066" user="pavel" changeset="646258">
    <nd ref="21311936"/>
    <nd ref="21311937"/>
    <tag k="created_by" v="JOSM"/>
    <tag k="highway" v="residential"/>
    <tag k="name" v="Minská"/>
    <tag k="name:source" v="nameit/uir-adr"/>
  </way>
  <way id="4819699" version="2" timestamp="2008-09-04T23:25:36Z" uid="1066" user="pavel" changeset="533817">
    <nd ref="25936006"/>
    <nd ref="25936005"/>
    <tag k="created_by" v="JOSM"/>
    <tag k="highway" v="residential"/>
    <tag k="name" v="Španělská"/>
    <tag k="name:source" v="nameit/uir-adr"/>
  </way>
  <way id="4819722" version="5" timestamp="2008-09-16T10:15:24Z" uid="1066" user="pavel" changeset="646258">
    <nd ref="32436739"/>
    <nd ref="32436752"/>
    <nd ref="62137878"/>
    <nd ref="245782202"/>
    <nd ref="32436740"/>
    <nd ref="32436727"/>
    <nd ref="245781476"/>
    <nd ref="245781477"/>
    <nd ref="245781478"/>
    <nd ref="245781479"/>
    <nd ref="245781480"/>
    <nd ref="245781481"/>
    <nd ref="25970191"/>
    <nd ref="25970181"/>
    <nd ref="25970179"/>
    <nd ref="245577492"/>
    <tag k="created_by" v="JOSM"/>
    <tag k="highway" v="residential"/>
    <tag k="name" v="Boční I"/>
    <tag k="name:source" v="nameit/uir-adr"/>
  </way>
  <way id="4819724" version="4" timestamp="2008-09-16T10:15:06Z" uid="1066" user="pavel" changeset="646258">
    <nd ref="25970165"/>
    <nd ref="25970178"/>
    <nd ref="25970180"/>
    <nd ref="25970190"/>
    <nd ref="245781465"/>
    <nd ref="245781466"/>
    <nd ref="245781467"/>
    <nd ref="245781468"/>
    <nd ref="245781469"/>
    <nd ref="245781470"/>
    <nd ref="245781471"/>
    <nd ref="245781472"/>
    <nd ref="245782372"/>
    <nd ref="245781473"/>
    <nd ref="245781474"/>
    <nd ref="245781475"/>
    <nd ref="32436739"/>
    <tag k="created_by" v="JOSM"/>
    <tag k="highway" v="residential"/>
    <tag k="name" v="Boční I"/>
    <tag k="name:source" v="nameit/uir-adr"/>
  </way>
  <way id="4819726" version="3" timestamp="2008-09-16T10:10:05Z" uid="1066" user="pavel" changeset="646258">
    <nd ref="25970176"/>
    <nd ref="25970175"/>
    <nd ref="25970165"/>
    <tag k="created_by" v="JOSM"/>
    <tag k="highway" v="residential"/>
    <tag k="name" v="Boční I"/>
    <tag k="name:source" v="nameit/uir-adr"/>
  </way>
  <way id="4819729" version="2" timestamp="2007-11-24T19:45:58Z" uid="1066" user="pavel" changeset="608440">
    <nd ref="25972445"/>
    <nd ref="25972448"/>
    <nd ref="130487996"/>
    <nd ref="25972451"/>
    <tag k="created_by" v="JOSM"/>
    <tag k="highway" v="residential"/>
  </way>
  <way id="4819729" version="3" timestamp="2008-09-16T10:09:36Z" uid="1066" user="pavel" changeset="646258">
    <nd ref="25972445"/>
    <nd ref="25972448"/>
    <nd ref="130487996"/>
    <nd ref="25972451"/>
    <tag k="created_by" v="JOSM"/>
    <tag k="highway" v="residential"/>
    <tag k="name" v="Jakutská"/>
    <tag k="name:source" v="nameit/uir-adr"/>
  </way>
  <way id="4819730" version="2" timestamp="2007-11-24T19:46:04Z" uid="1066" user="pavel" changeset="608440">
    <nd ref="25972445"/>
    <nd ref="130487977"/>
    <nd ref="25972443"/>
    <tag k="created_by" v="JOSM"/>
    <tag k="highway" v="residential"/>
  </way>
  <way id="4819916" version="2" timestamp="2008-08-11T10:22:40Z" uid="6269" user="Mueck" changeset="188275">
    <nd ref="24554678"/>
    <nd ref="30972828"/>
    <nd ref="15843282"/>
    <nd ref="15843283"/>
    <tag k="created_by" v="Potlatch 0.10b"/>
    <tag k="highway" v="tertiary"/>
  </way>
  <way id="4819916" version="6" timestamp="2011-01-26T17:56:03Z" uid="6269" user="Mueck" changeset="7094659">
    <nd ref="24554678"/>
    <nd ref="1122142558"/>
    <nd ref="30972828"/>
    <nd ref="1122143075"/>
    <nd ref="530273299"/>
    <nd ref="15843282"/>
    <nd ref="15843283"/>
    <tag k="highway" v="tertiary"/>
    <tag k="name" v="Tulpenstraße"/>
  </way>
  <way id="4819919" version="2" timestamp="2008-08-11T10:21:41Z" uid="6269" user="Mueck" changeset="188275">
    <nd ref="24546296"/>
    <nd ref="27159242"/>
    <nd ref="24913405"/>
    <nd ref="24913406"/>
    <nd ref="24913407"/>
    <nd ref="24913408"/>
    <nd ref="24913409"/>
    <nd ref="24913410"/>
    <nd ref="24913411"/>
    <nd ref="24913412"/>
    <tag k="created_by" v="Potlatch 0.10b"/>
    <tag k="highway" v="tertiary"/>
    <tag k="name" v="Scheibenhardter Weg"/>
    <tag k="note" v="im SHP des NVK: III"/>
  </way>
  <way id="4819919" version="3" timestamp="2010-05-21T21:10:55Z" uid="6269" user="Mueck" changeset="4770044">
    <nd ref="24546296"/>
    <nd ref="27159242"/>
    <nd ref="24913405"/>
    <nd ref="24913406"/>
    <nd ref="24913407"/>
    <nd ref="24913408"/>
    <nd ref="24913409"/>
    <nd ref="24913410"/>
    <nd ref="24913411"/>
    <nd ref="24913412"/>
    <tag k="highway" v="tertiary"/>
    <tag k="name" v="Scheibenhardter Weg"/>
    <tag k="note" v="im SHP des NVK: III"/>
  </way>
  <way id="4819919" version="4" timestamp="2010-05-23T16:25:07Z" uid="6269" user="Mueck" changeset="4784635">
    <nd ref="24546296"/>
    <nd ref="27159242"/>
    <nd ref="24913405"/>
    <nd ref="24913406"/>
    <nd ref="24913407"/>
    <nd ref="24913408"/>
    <nd ref="24913409"/>
    <nd ref="24913410"/>
    <nd ref="24913411"/>
    <nd ref="24913412"/>
    <tag k="highway" v="tertiary"/>
    <tag k="name" v="Scheibenhardter Weg"/>
    <tag k="note" v="im SHP des NVK: III"/>
    <tag k="surface" v="asphalt"/>
  </way>
  <way id="4819920" version="2" timestamp="2008-08-11T10:21:28Z" uid="6269" user="Mueck" changeset="188275">
    <nd ref="24913412"/>
    <nd ref="30972834"/>
    <tag k="bridge" v="true"/>
    <tag k="created_by" v="Potlatch 0.10b"/>
    <tag k="highway" v="tertiary"/>
    <tag k="layer" v="1"/>
    <tag k="name" v="Scheibenhardter Weg"/>
  </way>
  <way id="4819920" version="4" timestamp="2010-05-23T16:24:14Z" uid="6269" user="Mueck" changeset="4784635">
    <nd ref="24913412"/>
    <nd ref="30972834"/>
    <tag k="bridge" v="yes"/>
    <tag k="highway" v="tertiary"/>
    <tag k="layer" v="1"/>
    <tag k="maxweight" v="3"/>
    <tag k="name" v="Scheibenhardter Weg"/>
  </way>
  <way id="4819921" version="2" timestamp="2008-08-11T10:21:15Z" uid="6269" user="Mueck" changeset="188275">
    <nd ref="24913422"/>
    <nd ref="24913423"/>
    <nd ref="24627365"/>
    <tag k="created_by" v="Potlatch 0.10b"/>
    <tag k="highway" v="tertiary"/>
    <tag k="name" v="Scheibenhardter Weg"/>
  </way>
  <way id="4819921" version="3" timestamp="2010-05-23T16:19:01Z" uid="6269" user="Mueck" changeset="4784635">
    <nd ref="24913421"/>
    <nd ref="746578533"/>
    <nd ref="24913422"/>
    <nd ref="24913423"/>
    <nd ref="24627365"/>
    <tag k="highway" v="tertiary"/>
    <tag k="name" v="Scheibenhardter Weg"/>
    <tag k="note" v="im SHP des NVK: III"/>
  </way>
  <way id="4819921" version="4" timestamp="2010-05-23T16:22:33Z" uid="6269" user="Mueck" changeset="4784635">
    <nd ref="24913421"/>
    <nd ref="746578533"/>
    <nd ref="24913422"/>
    <nd ref="24913423"/>
    <nd ref="24627365"/>
    <tag k="highway" v="tertiary"/>
    <tag k="maxspeed" v="30"/>
    <tag k="name" v="Scheibenhardter Weg"/>
    <tag k="note" v="im SHP des NVK: III"/>
  </way>
  <way id="4819922" version="2" timestamp="2008-08-11T10:22:17Z" uid="6269" user="Mueck" changeset="188275">
    <nd ref="24913420"/>
    <nd ref="24913421"/>
    <nd ref="24913422"/>
    <tag k="bridge" v="true"/>
    <tag k="created_by" v="Potlatch 0.10b"/>
    <tag k="highway" v="tertiary"/>
    <tag k="layer" v="1"/>
    <tag k="name" v="Scheibenhardter Weg"/>
    <tag k="note" v="im SHP des NVK: III"/>
  </way>
  <way id="4819922" version="4" timestamp="2010-05-23T16:18:50Z" uid="6269" user="Mueck" changeset="4784635">
    <nd ref="24913420"/>
    <nd ref="746578681"/>
    <tag k="bridge" v="yes"/>
    <tag k="highway" v="tertiary"/>
    <tag k="layer" v="1"/>
    <tag k="name" v="Scheibenhardter Weg"/>
    <tag k="note" v="im SHP des NVK: III"/>
  </way>
  <way id="4819922" version="5" timestamp="2010-05-23T16:19:19Z" uid="6269" user="Mueck" changeset="4784635">
    <nd ref="24913420"/>
    <nd ref="746578681"/>
    <tag k="highway" v="tertiary"/>
    <tag k="name" v="Scheibenhardter Weg"/>
    <tag k="note" v="im SHP des NVK: III"/>
  </way>
  <way id="4819922" version="6" timestamp="2010-05-23T16:19:26Z" uid="6269" user="Mueck" changeset="4784635">
    <nd ref="30972834"/>
    <nd ref="24913413"/>
    <nd ref="24913414"/>
    <nd ref="24913415"/>
    <nd ref="24913417"/>
    <nd ref="24913419"/>
    <nd ref="29031183"/>
    <nd ref="746576176"/>
    <nd ref="24913420"/>
    <nd ref="746578681"/>
    <tag k="highway" v="tertiary"/>
    <tag k="name" v="Scheibenhardter Weg"/>
    <tag k="note" v="im SHP des NVK: III"/>
  </way>
  <way id="4819922" version="7" timestamp="2010-05-23T16:24:59Z" uid="6269" user="Mueck" changeset="4784635">
    <nd ref="30972834"/>
    <nd ref="24913413"/>
    <nd ref="24913414"/>
    <nd ref="24913415"/>
    <nd ref="24913417"/>
    <nd ref="24913419"/>
    <nd ref="29031183"/>
    <nd ref="746576176"/>
    <nd ref="24913420"/>
    <nd ref="746578681"/>
    <tag k="highway" v="tertiary"/>
    <tag k="name" v="Scheibenhardter Weg"/>
    <tag k="note" v="im SHP des NVK: III"/>
    <tag k="surface" v="asphalt"/>
  </way>
  <way id="4819958" version="2" timestamp="2008-07-08T22:52:06Z" uid="6975" user="ulfl" changeset="443284">
    <nd ref="11795652"/>
    <nd ref="30973331"/>
    <tag k="bridge" v="yes"/>
    <tag k="highway" v="secondary"/>
    <tag k="layer" v="1"/>
    <tag k="oneway" v="yes"/>
  </way>
</osm>
