<?xml version='1.0' encoding='UTF-8'?>
<osm version="0.6" generator="libosmium/2.20.0">
  <way id="48279410" version="1" timestamp="2010-01-14T14:06:18Z" uid="20587" user="balrog-kun" changeset="3617185">
    <nd ref="613500890"/>
    <nd ref="613500893"/>
    <tag k="highway" v="living_street"/>
  </way>
  <way id="48279412" version="1" timestamp="2010-01-14T14:06:18Z" uid="20587" user="balrog-kun" changeset="3617185">
    <nd ref="613500894"/>
    <nd ref="613500890"/>
    <nd ref="613500891"/>
    <tag k="highway" v="living_street"/>
  </way>
  <way id="48279412" version="2" timestamp="2011-05-11T10:55:53Z" uid="20587" user="balrog-kun" changeset="8110972"/>
  <way id="48279415" version="1" timestamp="2010-01-14T14:06:18Z" uid="20587" user="balrog-kun" changeset="3617185">
    <nd ref="533674870"/>
    <nd ref="610824758"/>
    <nd ref="32572882"/>
    <nd ref="32572883"/>
    <nd ref="262833576"/>
    <nd ref="248200332"/>
    <nd ref="313206729"/>
    <nd ref="308595100"/>
    <nd ref="32892160"/>
    <nd ref="32892156"/>
    <tag k="access" v="designation"/>
    <tag k="bicycle" v="yes"/>
    <tag k="highway" v="tertiary"/>
    <tag k="maxspeed" v="30"/>
    <tag k="name" v="Nowy Świat"/>
    <tag k="psv" v="yes"/>
    <tag k="wikipedia" v="Nowy Świat Street"/>
  </way>
  <way id="48279415" version="2" timestamp="2010-04-26T04:43:28Z" uid="20587" user="balrog-kun" changeset="4528260">
    <nd ref="533674870"/>
    <nd ref="706923162"/>
    <nd ref="610824758"/>
    <nd ref="32572882"/>
    <nd ref="32572883"/>
    <nd ref="262833576"/>
    <nd ref="248200332"/>
    <nd ref="313206729"/>
    <nd ref="308595100"/>
    <nd ref="32892160"/>
    <nd ref="32892156"/>
    <tag k="access" v="designation"/>
    <tag k="bicycle" v="yes"/>
    <tag k="highway" v="tertiary"/>
    <tag k="maxspeed" v="30"/>
    <tag k="name" v="Nowy Świat"/>
    <tag k="psv" v="yes"/>
    <tag k="wikipedia" v="Nowy Świat Street"/>
  </way>
  <way id="48279415" version="3" timestamp="2010-05-01T17:18:48Z" uid="20587" user="balrog-kun" changeset="4577369">
    <nd ref="533674870"/>
    <nd ref="706923162"/>
    <nd ref="610824758"/>
    <nd ref="32572882"/>
    <nd ref="32572883"/>
    <nd ref="262833576"/>
    <nd ref="248200332"/>
    <nd ref="313206729"/>
    <nd ref="308595100"/>
    <nd ref="32892160"/>
    <nd ref="32892156"/>
    <tag k="access" v="designation"/>
    <tag k="bicycle" v="yes"/>
    <tag k="highway" v="tertiary"/>
    <tag k="lanes" v="2"/>
    <tag k="maxspeed" v="30"/>
    <tag k="name" v="Nowy Świat"/>
    <tag k="psv" v="yes"/>
    <tag k="wikipedia" v="Nowy Świat Street"/>
  </way>
  <way id="48279415" version="4" timestamp="2010-05-23T15:04:26Z" uid="20587" user="balrog-kun" changeset="4784060">
    <nd ref="533674870"/>
    <nd ref="706923162"/>
    <nd ref="610824758"/>
    <nd ref="32572882"/>
    <nd ref="32572883"/>
    <nd ref="262833576"/>
    <nd ref="746513271"/>
    <nd ref="248200332"/>
    <nd ref="313206729"/>
    <nd ref="308595100"/>
    <nd ref="32892160"/>
    <nd ref="32892156"/>
    <tag k="access" v="designated"/>
    <tag k="bicycle" v="yes"/>
    <tag k="highway" v="tertiary"/>
    <tag k="lanes" v="2"/>
    <tag k="maxspeed" v="30"/>
    <tag k="name" v="Nowy Świat"/>
    <tag k="psv" v="yes"/>
    <tag k="wikipedia" v="Nowy Świat Street"/>
  </way>
  <way id="48279420" version="1" timestamp="2010-01-14T14:06:19Z" uid="20587" user="balrog-kun" changeset="3617185">
    <nd ref="32528268"/>
    <nd ref="533674870"/>
    <tag k="access" v="designation"/>
    <tag k="bicycle" v="yes"/>
    <tag k="highway" v="tertiary"/>
    <tag k="maxspeed" v="50"/>
    <tag k="name" v="Nowy Świat"/>
    <tag k="psv" v="yes"/>
    <tag k="wikipedia" v="Nowy Świat Street"/>
  </way>
  <way id="48279423" version="1" timestamp="2010-01-14T14:06:19Z" uid="20587" user="balrog-kun" changeset="3617185">
    <nd ref="613500925"/>
    <nd ref="224783736"/>
    <tag k="highway" v="steps"/>
    <tag k="name" v="Pasaż Arnolda Szyfmana"/>
  </way>
  <way id="48279423" version="2" timestamp="2010-06-04T12:06:26Z" uid="20587" user="balrog-kun" changeset="4900606">
    <nd ref="613500925"/>
    <nd ref="764342577"/>
    <tag k="highway" v="steps"/>
    <tag k="name" v="Pasaż Arnolda Szyfmana"/>
    <tag k="tunnel" v="yes"/>
  </way>
  <way id="48279425" version="1" timestamp="2010-01-14T14:06:19Z" uid="20587" user="balrog-kun" changeset="3617185">
    <nd ref="35966363"/>
    <nd ref="35966382"/>
    <nd ref="35966381"/>
    <nd ref="38454360"/>
    <nd ref="35966380"/>
    <nd ref="35966383"/>
    <tag k="highway" v="primary_link"/>
    <tag k="name" v="Grodzka"/>
    <tag k="oneway" v="yes"/>
    <tag k="wikipedia" v="pl:Ulica Grodzka w Warszawie"/>
  </way>
  <way id="48279425" version="2" timestamp="2010-05-27T12:17:43Z" uid="20587" user="balrog-kun" changeset="4821472">
    <nd ref="35966363"/>
    <nd ref="750715649"/>
    <nd ref="750714916"/>
    <nd ref="35966382"/>
    <nd ref="35966381"/>
    <nd ref="38454360"/>
    <nd ref="35966380"/>
    <nd ref="35966383"/>
    <tag k="highway" v="primary_link"/>
    <tag k="lanes" v="1"/>
    <tag k="name" v="Grodzka"/>
    <tag k="oneway" v="yes"/>
    <tag k="wikipedia" v="pl:Ulica Grodzka w Warszawie"/>
  </way>
  <way id="48279427" version="1" timestamp="2010-01-14T14:06:19Z" uid="20587" user="balrog-kun" changeset="3617185">
    <nd ref="35966363"/>
    <nd ref="35966362"/>
    <nd ref="31156831"/>
    <tag k="highway" v="primary"/>
    <tag k="int_ref" v="E77"/>
    <tag k="name" v="Wybrzeże Gdańskie"/>
    <tag k="oneway" v="yes"/>
    <tag k="ref" v="7"/>
    <tag k="wikipedia" v="pl:Ulica Wybrzeże Gdańskie w Warszawie"/>
  </way>
  <way id="48279427" version="2" timestamp="2010-05-27T12:17:29Z" uid="20587" user="balrog-kun" changeset="4821472">
    <nd ref="35966363"/>
    <nd ref="35966362"/>
    <nd ref="750714937"/>
    <nd ref="31156831"/>
    <tag k="highway" v="primary"/>
    <tag k="int_ref" v="E77"/>
    <tag k="name" v="Wybrzeże Gdańskie"/>
    <tag k="oneway" v="yes"/>
    <tag k="ref" v="7"/>
    <tag k="wikipedia" v="pl:Ulica Wybrzeże Gdańskie w Warszawie"/>
  </way>
  <way id="48279429" version="1" timestamp="2010-01-14T14:06:20Z" uid="20587" user="balrog-kun" changeset="3617185">
    <nd ref="254518037"/>
    <nd ref="613500941"/>
    <nd ref="613500936"/>
    <nd ref="613500937"/>
    <nd ref="613500938"/>
    <tag k="highway" v="tertiary"/>
    <tag k="oneway" v="yes"/>
  </way>
  <way id="48279429" version="2" timestamp="2010-01-15T23:45:00Z" uid="20587" user="balrog-kun" changeset="3628425"/>
  <way id="48279432" version="1" timestamp="2010-01-14T14:06:20Z" uid="20587" user="balrog-kun" changeset="3617185">
    <nd ref="59978680"/>
    <nd ref="254518039"/>
    <nd ref="59978684"/>
    <tag k="highway" v="primary"/>
    <tag k="name" v="Targowa"/>
    <tag k="oneway" v="yes"/>
    <tag k="wikipedia" v="pl:Ulica Targowa w Warszawie"/>
  </way>
  <way id="48279432" version="2" timestamp="2010-01-15T23:44:58Z" uid="20587" user="balrog-kun" changeset="3628425">
    <nd ref="59978680"/>
    <nd ref="614473683"/>
    <nd ref="254518039"/>
    <nd ref="59978684"/>
    <tag k="highway" v="primary"/>
    <tag k="name" v="Targowa"/>
    <tag k="oneway" v="yes"/>
    <tag k="wikipedia" v="pl:Ulica Targowa w Warszawie"/>
  </way>
  <way id="48279432" version="3" timestamp="2010-02-22T17:31:59Z" uid="20587" user="balrog-kun" changeset="3945448">
    <nd ref="59978680"/>
    <nd ref="614473683"/>
    <nd ref="254518039"/>
    <nd ref="59978684"/>
    <tag k="highway" v="primary"/>
    <tag k="lanes" v="2"/>
    <tag k="name" v="Targowa"/>
    <tag k="oneway" v="yes"/>
    <tag k="wikipedia" v="pl:Ulica Targowa w Warszawie"/>
  </way>
  <way id="48279432" version="4" timestamp="2010-02-26T12:47:48Z" uid="20587" user="balrog-kun" changeset="3979892">
    <nd ref="59978680"/>
    <nd ref="614473683"/>
    <nd ref="254518039"/>
    <nd ref="59978684"/>
    <tag k="highway" v="primary"/>
    <tag k="lanes" v="2"/>
    <tag k="maxheight" v="3.5"/>
    <tag k="name" v="Targowa"/>
    <tag k="oneway" v="yes"/>
    <tag k="wikipedia" v="pl:Ulica Targowa w Warszawie"/>
  </way>
  <way id="48279432" version="6" timestamp="2010-12-23T22:53:08Z" uid="20587" user="balrog-kun" changeset="6750470">
    <nd ref="59978680"/>
    <nd ref="614473683"/>
    <nd ref="254518039"/>
    <nd ref="59978684"/>
    <tag k="highway" v="secondary"/>
    <tag k="lanes" v="2"/>
    <tag k="name" v="Targowa"/>
    <tag k="oneway" v="yes"/>
    <tag k="wikipedia" v="pl:Ulica Targowa w Warszawie"/>
  </way>
  <way id="48279434" version="1" timestamp="2010-01-14T14:06:20Z" uid="20587" user="balrog-kun" changeset="3617185">
    <nd ref="59978688"/>
    <nd ref="613500938"/>
    <nd ref="59978677"/>
    <nd ref="254518041"/>
    <nd ref="262833496"/>
    <nd ref="59978680"/>
    <tag k="highway" v="primary"/>
    <tag k="name" v="Targowa"/>
    <tag k="oneway" v="yes"/>
    <tag k="wikipedia" v="pl:Ulica Targowa w Warszawie"/>
  </way>
  <way id="48279434" version="2" timestamp="2010-01-15T23:44:57Z" uid="20587" user="balrog-kun" changeset="3628425">
    <nd ref="59978688"/>
    <nd ref="613500938"/>
    <nd ref="59978677"/>
    <nd ref="614473662"/>
    <nd ref="254518041"/>
    <nd ref="262833496"/>
    <nd ref="614473677"/>
    <nd ref="59978680"/>
    <tag k="highway" v="primary"/>
    <tag k="name" v="Targowa"/>
    <tag k="oneway" v="yes"/>
    <tag k="wikipedia" v="pl:Ulica Targowa w Warszawie"/>
  </way>
  <way id="48279434" version="3" timestamp="2010-02-22T17:31:59Z" uid="20587" user="balrog-kun" changeset="3945448">
    <nd ref="59978688"/>
    <nd ref="613500938"/>
    <nd ref="59978677"/>
    <nd ref="614473662"/>
    <nd ref="254518041"/>
    <nd ref="262833496"/>
    <nd ref="614473677"/>
    <nd ref="59978680"/>
    <tag k="highway" v="primary"/>
    <tag k="lanes" v="3"/>
    <tag k="name" v="Targowa"/>
    <tag k="oneway" v="yes"/>
    <tag k="wikipedia" v="pl:Ulica Targowa w Warszawie"/>
  </way>
  <way id="48279434" version="4" timestamp="2010-02-26T12:47:48Z" uid="20587" user="balrog-kun" changeset="3979892">
    <nd ref="59978688"/>
    <nd ref="613500938"/>
    <nd ref="59978677"/>
    <nd ref="614473662"/>
    <nd ref="254518041"/>
    <nd ref="262833496"/>
    <nd ref="614473677"/>
    <nd ref="59978680"/>
    <tag k="highway" v="primary"/>
    <tag k="lanes" v="3"/>
    <tag k="maxheight" v="3.5"/>
    <tag k="name" v="Targowa"/>
    <tag k="oneway" v="yes"/>
    <tag k="wikipedia" v="pl:Ulica Targowa w Warszawie"/>
  </way>
  <way id="48279434" version="6" timestamp="2010-12-23T22:53:07Z" uid="20587" user="balrog-kun" changeset="6750470">
    <nd ref="59978688"/>
    <nd ref="613500938"/>
    <nd ref="59978677"/>
    <nd ref="614473662"/>
    <nd ref="254518041"/>
    <nd ref="262833496"/>
    <nd ref="614473677"/>
    <nd ref="59978680"/>
    <tag k="highway" v="secondary"/>
    <tag k="lanes" v="3"/>
    <tag k="name" v="Targowa"/>
    <tag k="oneway" v="yes"/>
    <tag k="wikipedia" v="pl:Ulica Targowa w Warszawie"/>
  </way>
  <way id="48279436" version="1" timestamp="2010-01-14T14:06:20Z" uid="20587" user="balrog-kun" changeset="3617185">
    <nd ref="367697297"/>
    <nd ref="613500991"/>
    <nd ref="367697292"/>
    <tag k="highway" v="footway"/>
    <tag k="layer" v="-1"/>
    <tag k="tunnel" v="yes"/>
  </way>
  <way id="48279437" version="1" timestamp="2010-01-14T14:06:20Z" uid="20587" user="balrog-kun" changeset="3617185">
    <nd ref="613500987"/>
    <nd ref="613500985"/>
    <tag k="highway" v="steps"/>
  </way>
  <way id="48279438" version="1" timestamp="2010-01-14T14:06:20Z" uid="20587" user="balrog-kun" changeset="3617185">
    <nd ref="613500970"/>
    <nd ref="613500974"/>
    <tag k="highway" v="steps"/>
  </way>
  <way id="48279439" version="1" timestamp="2010-01-14T14:06:20Z" uid="20587" user="balrog-kun" changeset="3617185">
    <nd ref="613500974"/>
    <nd ref="613500989"/>
    <nd ref="613500987"/>
    <tag k="highway" v="footway"/>
    <tag k="layer" v="-1"/>
    <tag k="tunnel" v="yes"/>
  </way>
  <way id="48279440" version="1" timestamp="2010-01-14T14:06:20Z" uid="20587" user="balrog-kun" changeset="3617185">
    <nd ref="613500961"/>
    <nd ref="613500958"/>
    <tag k="highway" v="steps"/>
  </way>
  <way id="48279441" version="1" timestamp="2010-01-14T14:06:20Z" uid="20587" user="balrog-kun" changeset="3617185">
    <nd ref="613500972"/>
    <nd ref="613500983"/>
    <tag k="highway" v="steps"/>
  </way>
  <way id="48279442" version="1" timestamp="2010-01-14T14:06:21Z" uid="20587" user="balrog-kun" changeset="3617185">
    <nd ref="613500983"/>
    <nd ref="613500981"/>
    <nd ref="613500961"/>
    <tag k="highway" v="footway"/>
    <tag k="layer" v="-1"/>
    <tag k="tunnel" v="yes"/>
  </way>
  <way id="48279443" version="1" timestamp="2010-01-14T14:06:21Z" uid="20587" user="balrog-kun" changeset="3617185">
    <nd ref="613500959"/>
    <nd ref="613500963"/>
    <tag k="highway" v="steps"/>
  </way>
  <way id="48279444" version="1" timestamp="2010-01-14T14:06:21Z" uid="20587" user="balrog-kun" changeset="3617185">
    <nd ref="613500991"/>
    <nd ref="613500989"/>
    <nd ref="613500981"/>
    <nd ref="613500965"/>
    <tag k="highway" v="footway"/>
    <tag k="layer" v="-1"/>
    <tag k="tunnel" v="yes"/>
  </way>
  <way id="48279446" version="1" timestamp="2010-01-14T14:06:21Z" uid="20587" user="balrog-kun" changeset="3617185">
    <nd ref="613500967"/>
    <nd ref="613500960"/>
    <tag k="highway" v="steps"/>
  </way>
  <way id="48279448" version="1" timestamp="2010-01-14T14:06:21Z" uid="8619" user="cetest" changeset="3617186">
    <nd ref="613500915"/>
    <nd ref="613500917"/>
    <nd ref="613500919"/>
    <nd ref="613500921"/>
    <nd ref="613500915"/>
    <tag k="amenity" v="place_of_worship"/>
    <tag k="denomination" v="catholic"/>
    <tag k="name" v="Église Sainte-Anne"/>
    <tag k="religion" v="christian"/>
  </way>
  <way id="48279450" version="1" timestamp="2010-01-14T14:06:21Z" uid="8619" user="cetest" changeset="3617186">
    <nd ref="613501041"/>
    <nd ref="613501016"/>
    <nd ref="613501017"/>
    <nd ref="613501040"/>
    <nd ref="613501041"/>
    <tag k="building" v="yes"/>
    <tag k="name" v="Quartier Général de Simple Police 4ème Compagnie"/>
  </way>
  <way id="48279450" version="2" timestamp="2010-01-21T22:39:23Z" uid="59758" user="rendle" changeset="3679067">
    <nd ref="613501041"/>
    <nd ref="613501016"/>
    <nd ref="613501017"/>
    <nd ref="613501040"/>
    <nd ref="613501041"/>
    <tag k="building" v="yes"/>
    <tag k="key" v="Police headquarters 4th company"/>
    <tag k="name" v="Quartier Général de Simple Police 4ème Compagnie"/>
  </way>
  <way id="48279450" version="3" timestamp="2010-01-21T22:40:03Z" uid="59758" user="rendle" changeset="3679083">
    <nd ref="613501041"/>
    <nd ref="613501016"/>
    <nd ref="613501017"/>
    <nd ref="613501040"/>
    <nd ref="613501041"/>
    <tag k="building" v="yes"/>
    <tag k="name" v="Quartier Général de Simple Police 4ème Compagnie"/>
    <tag k="name:en" v="Police headquarters 4th company"/>
  </way>
  <way id="48279452" version="1" timestamp="2010-01-14T14:06:21Z" uid="8619" user="cetest" changeset="3617186">
    <nd ref="613500951"/>
    <nd ref="613501015"/>
    <nd ref="613500928"/>
    <nd ref="613500935"/>
    <nd ref="613500922"/>
    <nd ref="613500933"/>
    <nd ref="613500932"/>
    <nd ref="613500940"/>
    <nd ref="613500930"/>
    <nd ref="613500939"/>
    <nd ref="613500951"/>
    <tag k="building" v="yes"/>
    <tag k="name" v="Banque de la Republique d&apos;Haiti"/>
  </way>
  <way id="48279453" version="1" timestamp="2010-01-14T14:06:21Z" uid="20587" user="balrog-kun" changeset="3617185">
    <nd ref="613500963"/>
    <nd ref="613500965"/>
    <nd ref="613500967"/>
    <tag k="highway" v="footway"/>
    <tag k="layer" v="-1"/>
    <tag k="tunnel" v="yes"/>
  </way>
  <way id="48279454" version="1" timestamp="2010-01-14T14:06:21Z" uid="20587" user="balrog-kun" changeset="3617185">
    <nd ref="367697292"/>
    <nd ref="613500995"/>
    <tag k="highway" v="steps"/>
  </way>
  <way id="48279457" version="1" timestamp="2010-01-14T14:06:22Z" uid="8619" user="cetest" changeset="3617186">
    <nd ref="613500997"/>
    <nd ref="613500966"/>
    <nd ref="613500969"/>
    <nd ref="613500964"/>
    <nd ref="613500997"/>
    <tag k="building" v="yes"/>
    <tag k="name" v="Département de Tourisme"/>
  </way>
  <way id="48279459" version="1" timestamp="2010-01-14T14:06:22Z" uid="8619" user="cetest" changeset="3617186">
    <nd ref="613501042"/>
    <nd ref="613500999"/>
    <nd ref="613501001"/>
    <nd ref="613500984"/>
    <nd ref="613501003"/>
    <nd ref="613501010"/>
    <nd ref="613501042"/>
    <tag k="building" v="yes"/>
    <tag k="name" v="Douane de Port-au-Prince"/>
  </way>
  <way id="48279459" version="3" timestamp="2010-01-21T22:33:05Z" uid="59758" user="rendle" changeset="3679008">
    <nd ref="613501042"/>
    <nd ref="613501001"/>
    <nd ref="613500984"/>
    <nd ref="613501003"/>
    <nd ref="613501010"/>
    <nd ref="613501042"/>
    <tag k="building" v="yes"/>
    <tag k="name" v="Douane de Port-au-Prince"/>
    <tag k="name:en" v="Port-au-Prince customs office"/>
  </way>
  <way id="48279462" version="1" timestamp="2010-01-14T14:06:22Z" uid="8619" user="cetest" changeset="3617186">
    <nd ref="613500976"/>
    <nd ref="613500978"/>
    <nd ref="613500945"/>
    <nd ref="613500942"/>
    <nd ref="613500980"/>
    <nd ref="613500977"/>
    <nd ref="613500944"/>
    <nd ref="613500979"/>
    <nd ref="613500976"/>
    <tag k="building" v="yes"/>
    <tag k="name" v="Administration Générale des Postes"/>
  </way>
  <way id="48279462" version="2" timestamp="2010-01-21T22:31:01Z" uid="59758" user="rendle" changeset="3679008">
    <nd ref="613500976"/>
    <nd ref="613500978"/>
    <nd ref="613500945"/>
    <nd ref="613500942"/>
    <nd ref="613500980"/>
    <nd ref="613500977"/>
    <nd ref="613500944"/>
    <nd ref="613500979"/>
    <nd ref="613500976"/>
    <tag k="building" v="yes"/>
    <tag k="name" v="Administration Générale des Postes"/>
    <tag k="name:en" v="Postal services general administration"/>
  </way>
  <way id="48279464" version="1" timestamp="2010-01-14T14:06:22Z" uid="8619" user="cetest" changeset="3617186">
    <nd ref="613500971"/>
    <nd ref="613500982"/>
    <nd ref="613500949"/>
    <nd ref="613500973"/>
    <nd ref="613500971"/>
    <tag k="building" v="yes"/>
    <tag k="name" v="Département des Affaires Etrangéres et des Cultes"/>
  </way>
  <way id="48279464" version="2" timestamp="2010-01-21T22:29:55Z" uid="59758" user="rendle" changeset="3679008">
    <nd ref="613500971"/>
    <nd ref="613500982"/>
    <nd ref="613500949"/>
    <nd ref="613500973"/>
    <nd ref="613500971"/>
    <tag k="building" v="yes"/>
    <tag k="name:en" v="Department of Foreign Affairs"/>
  </way>
  <way id="48279466" version="1" timestamp="2010-01-14T14:06:22Z" uid="8619" user="cetest" changeset="3617186">
    <nd ref="613500956"/>
    <nd ref="613500952"/>
    <nd ref="613500962"/>
    <nd ref="613500954"/>
    <nd ref="613500956"/>
    <tag k="building" v="yes"/>
    <tag k="name" v="Banque de l&apos;Union Haitienne SA"/>
  </way>
  <way id="48279469" version="1" timestamp="2010-01-14T14:06:22Z" uid="8619" user="cetest" changeset="3617186">
    <nd ref="613501007"/>
    <nd ref="613501008"/>
    <nd ref="613501012"/>
    <nd ref="613501011"/>
    <nd ref="613501009"/>
    <nd ref="613501006"/>
    <nd ref="613501007"/>
    <tag k="building" v="yes"/>
    <tag k="name" v="Administration Portuaire"/>
  </way>
  <way id="48279469" version="2" timestamp="2010-01-21T22:32:37Z" uid="59758" user="rendle" changeset="3679008">
    <nd ref="613501007"/>
    <nd ref="613501008"/>
    <nd ref="613501012"/>
    <nd ref="613501011"/>
    <nd ref="613501009"/>
    <nd ref="613501006"/>
    <nd ref="613501007"/>
    <tag k="building" v="yes"/>
    <tag k="name" v="Administration Portuaire"/>
    <tag k="name:en" v="Port administration"/>
  </way>
  <way id="48279471" version="1" timestamp="2010-01-14T14:06:23Z" uid="8619" user="cetest" changeset="3617186">
    <nd ref="613500994"/>
    <nd ref="613500988"/>
    <nd ref="613500975"/>
    <nd ref="613500986"/>
    <nd ref="613500994"/>
    <tag k="sport" v="swimming"/>
  </way>
  <way id="48279474" version="1" timestamp="2010-01-14T14:06:23Z" uid="8619" user="cetest" changeset="3617186">
    <nd ref="613501035"/>
    <nd ref="613501026"/>
    <nd ref="613501027"/>
    <nd ref="613501034"/>
    <nd ref="613501035"/>
    <tag k="amenity" v="school"/>
    <tag k="name" v="Petit Seminaire Collège Saint-Martail"/>
  </way>
  <way id="48279475" version="1" timestamp="2010-01-14T14:06:23Z" uid="8619" user="cetest" changeset="3617186">
    <nd ref="613501020"/>
    <nd ref="613501021"/>
    <nd ref="613501028"/>
    <nd ref="613501029"/>
    <nd ref="613501020"/>
    <tag k="building" v="yes"/>
    <tag k="name" v="Centre de Santé de la Cathédrale"/>
  </way>
  <way id="48279477" version="1" timestamp="2010-01-14T14:06:23Z" uid="8619" user="cetest" changeset="3617186">
    <nd ref="613501018"/>
    <nd ref="613501013"/>
    <nd ref="613501014"/>
    <nd ref="613501019"/>
    <nd ref="613501018"/>
    <tag k="building" v="yes"/>
    <tag k="name" v="RCA Global Communications"/>
  </way>
  <way id="48279480" version="1" timestamp="2010-01-14T14:06:23Z" uid="8619" user="cetest" changeset="3617186">
    <nd ref="613501025"/>
    <nd ref="613501024"/>
    <nd ref="613501022"/>
    <nd ref="613501023"/>
    <nd ref="613501025"/>
    <tag k="amenity" v="place_of_worship"/>
    <tag k="denomination" v="catholic"/>
    <tag k="name" v="Cathédrale de la SainteTrinité"/>
    <tag k="religion" v="christian"/>
  </way>
  <way id="48279480" version="2" timestamp="2010-01-18T02:43:29Z" uid="20587" user="balrog-kun" changeset="3647634">
    <nd ref="613501025"/>
    <nd ref="613501024"/>
    <nd ref="613501022"/>
    <nd ref="613501023"/>
    <nd ref="613501025"/>
    <tag k="amenity" v="place_of_worship"/>
    <tag k="denomination" v="catholic"/>
    <tag k="name" v="Cathédrale de la SainteTrinité"/>
    <tag k="official_name" v="Eglise Episcopale d&apos;Haiti"/>
    <tag k="official_name:en" v="Episcopal Diocese of Haiti"/>
    <tag k="religion" v="christian"/>
    <tag k="wikipedia" v="Episcopal Diocese of Haiti"/>
  </way>
  <way id="48279482" version="1" timestamp="2010-01-14T14:06:23Z" uid="8619" user="cetest" changeset="3617186">
    <nd ref="613501037"/>
    <nd ref="613501039"/>
    <nd ref="613501036"/>
    <nd ref="613501038"/>
    <nd ref="613501037"/>
    <tag k="building" v="yes"/>
    <tag k="name" v="Archives Nationales"/>
  </way>
  <way id="48279483" version="1" timestamp="2010-01-14T14:06:24Z" uid="8619" user="cetest" changeset="3617186">
    <nd ref="613501033"/>
    <nd ref="613501032"/>
    <nd ref="613501030"/>
    <nd ref="613501031"/>
    <nd ref="613501033"/>
    <tag k="amenity" v="place_of_worship"/>
    <tag k="denomination" v="catholic"/>
    <tag k="name" v="Ancienne Cathedrale"/>
    <tag k="religion" v="christian"/>
  </way>
</osm>
