<?xml version='1.0' encoding='UTF-8'?>
<osm version="0.6" generator="libosmium/2.20.0">
  <way id="48320128" version="1" timestamp="2010-01-15T00:32:52Z" uid="34428" user="usm78-gis" changeset="3621431">
    <nd ref="21754242"/>
    <nd ref="238182633"/>
    <nd ref="21754225"/>
    <nd ref="21754224"/>
    <nd ref="21754223"/>
    <nd ref="21754222"/>
    <nd ref="21754221"/>
    <nd ref="21754220"/>
    <nd ref="21754219"/>
    <tag k="addr:postcode" v="197706"/>
    <tag k="cladr:code" v="78000010000001300"/>
    <tag k="cladr:name" v="Воскова"/>
    <tag k="cladr:suffix" v="Улица"/>
    <tag k="highway" v="primary"/>
    <tag k="name" v="Воскова ул."/>
  </way>
  <way id="48320142" version="1" timestamp="2010-01-15T00:32:55Z" uid="34428" user="usm78-gis" changeset="3621431">
    <nd ref="21754225"/>
    <nd ref="21754224"/>
    <tag k="addr:postcode" v="197706"/>
    <tag k="cladr:code" v="78000010000001300"/>
    <tag k="cladr:name" v="Воскова"/>
    <tag k="cladr:suffix" v="Улица"/>
    <tag k="highway" v="primary"/>
    <tag k="name" v="Воскова ул."/>
  </way>
  <way id="48320153" version="1" timestamp="2010-01-15T00:32:57Z" uid="34428" user="usm78-gis" changeset="3621431">
    <nd ref="21754224"/>
    <nd ref="21754223"/>
    <nd ref="21754222"/>
    <nd ref="21754221"/>
    <nd ref="21754220"/>
    <nd ref="21754219"/>
    <tag k="addr:postcode" v="197706"/>
    <tag k="cladr:code" v="78000010000001300"/>
    <tag k="cladr:name" v="Воскова"/>
    <tag k="cladr:suffix" v="Улица"/>
    <tag k="highway" v="primary"/>
    <tag k="name" v="Воскова ул."/>
  </way>
  <way id="48320201" version="1" timestamp="2010-01-15T00:33:06Z" uid="34428" user="usm78-gis" changeset="3621431">
    <nd ref="456028876"/>
    <nd ref="250419159"/>
    <nd ref="21754231"/>
    <nd ref="21754230"/>
    <nd ref="21754227"/>
    <tag k="highway" v="primary"/>
    <tag k="name" v="Токарева ул."/>
  </way>
  <way id="48320201" version="2" timestamp="2010-01-15T00:33:07Z" uid="34428" user="usm78-gis" changeset="3621431">
    <nd ref="456028876"/>
    <nd ref="250419159"/>
    <tag k="highway" v="primary"/>
    <tag k="name" v="Токарева ул."/>
  </way>
  <way id="48320206" version="2" timestamp="2010-02-07T10:23:49Z" uid="8619" user="cetest" changeset="3812489">
    <nd ref="612906542"/>
    <nd ref="632244959"/>
    <nd ref="613947520"/>
    <nd ref="613947524"/>
    <nd ref="613947526"/>
    <nd ref="330932917"/>
    <tag k="highway" v="residential"/>
    <tag k="source" v="GeoEye"/>
  </way>
  <way id="48320206" version="3" timestamp="2010-02-07T10:24:10Z" uid="8619" user="cetest" changeset="3812496">
    <nd ref="612906542"/>
    <nd ref="632244959"/>
    <nd ref="613947520"/>
    <nd ref="632245095"/>
    <nd ref="613947524"/>
    <nd ref="632245097"/>
    <nd ref="613947526"/>
    <nd ref="330932917"/>
    <tag k="highway" v="residential"/>
    <tag k="source" v="GeoEye"/>
  </way>
  <way id="48320209" version="2" timestamp="2010-02-07T10:23:49Z" uid="8619" user="cetest" changeset="3812489">
    <nd ref="330932453"/>
    <nd ref="632244960"/>
    <nd ref="613947530"/>
    <nd ref="613947532"/>
    <nd ref="613947477"/>
    <nd ref="613947488"/>
    <nd ref="613947490"/>
    <nd ref="613947534"/>
    <tag k="highway" v="residential"/>
    <tag k="source" v="GeoEye"/>
  </way>
  <way id="48320211" version="4" timestamp="2010-02-07T10:39:28Z" uid="8619" user="cetest" changeset="3812648">
    <nd ref="330932960"/>
    <nd ref="632258764"/>
    <nd ref="613947522"/>
    <nd ref="613947495"/>
    <nd ref="613947497"/>
    <nd ref="613947499"/>
    <nd ref="613947501"/>
    <nd ref="613947482"/>
    <nd ref="613947484"/>
    <nd ref="613947486"/>
    <nd ref="613947444"/>
    <nd ref="613947446"/>
    <nd ref="613947450"/>
    <nd ref="613947452"/>
    <nd ref="613947457"/>
    <nd ref="613947459"/>
    <nd ref="613947461"/>
    <nd ref="613947448"/>
    <tag k="highway" v="residential"/>
    <tag k="source" v="GeoEye"/>
  </way>
  <way id="48320213" version="2" timestamp="2010-02-07T10:39:28Z" uid="8619" user="cetest" changeset="3812648">
    <nd ref="613947472"/>
    <nd ref="613947474"/>
    <nd ref="613947475"/>
    <nd ref="613947506"/>
    <nd ref="612913058"/>
    <tag k="highway" v="track"/>
    <tag k="source" v="GeoEye"/>
  </way>
  <way id="48320223" version="1" timestamp="2010-01-15T00:33:07Z" uid="34428" user="usm78-gis" changeset="3621431">
    <nd ref="250419159"/>
    <nd ref="21754231"/>
    <nd ref="21754230"/>
    <nd ref="21754227"/>
    <tag k="highway" v="primary"/>
    <tag k="name" v="Токарева ул."/>
  </way>
  <way id="48320223" version="5" timestamp="2010-05-24T00:17:08Z" uid="34428" user="usm78-gis" changeset="4789169">
    <nd ref="250419159"/>
    <nd ref="662423354"/>
    <nd ref="662433026"/>
    <nd ref="746886731"/>
    <tag k="addr:postcode" v="197706"/>
    <tag k="cladr:code" v="78000010000006600"/>
    <tag k="cladr:name" v="Токарева"/>
    <tag k="cladr:suffix" v="Улица"/>
    <tag k="highway" v="primary"/>
    <tag k="name" v="Токарева ул."/>
  </way>
  <way id="48320370" version="1" timestamp="2010-01-15T00:33:31Z" uid="34428" user="usm78-gis" changeset="3621431">
    <nd ref="456735028"/>
    <nd ref="279662680"/>
    <nd ref="279662682"/>
    <nd ref="395036591"/>
    <tag k="cladr:code" v="78000000000178400"/>
    <tag k="cladr:name" v="Гагаринская"/>
    <tag k="cladr:suffix" v="Улица"/>
    <tag k="highway" v="residential"/>
    <tag k="name" v="Гагаринская ул."/>
  </way>
  <way id="48320410" version="1" timestamp="2010-01-15T00:33:39Z" uid="34428" user="usm78-gis" changeset="3621431">
    <nd ref="456735075"/>
    <nd ref="279662739"/>
    <tag k="highway" v="residential"/>
    <tag k="name" v="Мосина ул."/>
  </way>
  <way id="48320414" version="1" timestamp="2010-01-15T00:33:41Z" uid="34428" user="usm78-gis" changeset="3621431">
    <nd ref="456735060"/>
    <nd ref="456735075"/>
    <tag k="highway" v="residential"/>
    <tag k="name" v="Мосина ул."/>
  </way>
</osm>
