<?xml version='1.0' encoding='UTF-8'?>
<osm version="0.6" generator="libosmium/2.20.0">
  <way id="48502152" version="2" timestamp="2010-07-07T07:39:02Z" uid="74617" user="JohnSmith" changeset="5156250">
    <nd ref="616238679"/>
    <nd ref="616238680"/>
    <nd ref="616238682"/>
    <tag k="fixme" v="needs GPS survey"/>
    <tag k="highway" v="residential"/>
    <tag k="maxspeed" v="50"/>
    <tag k="maxspeed:source" v="default residential speed limit in Australia"/>
    <tag k="name" v="Carthage Street"/>
    <tag k="oneway" v="yes"/>
    <tag k="source" v="voice"/>
  </way>
  <way id="48502152" version="3" timestamp="2011-01-07T08:26:18Z" uid="4467" user="Rosscoe" changeset="6890142">
    <nd ref="616238679"/>
    <nd ref="616238680"/>
    <nd ref="616238682"/>
    <nd ref="1087954933"/>
    <nd ref="1087954834"/>
    <nd ref="1087955134"/>
    <tag k="fixme" v="needs GPS survey"/>
    <tag k="highway" v="residential"/>
    <tag k="maxspeed" v="50"/>
    <tag k="maxspeed:source" v="default residential speed limit in Australia"/>
    <tag k="name" v="Carthage Street"/>
    <tag k="oneway" v="yes"/>
    <tag k="source" v="voice"/>
  </way>
  <way id="48502153" version="2" timestamp="2010-07-07T07:39:30Z" uid="74617" user="JohnSmith" changeset="5156250">
    <nd ref="616238679"/>
    <nd ref="598797529"/>
    <tag k="highway" v="residential"/>
    <tag k="maxspeed" v="50"/>
    <tag k="maxspeed:source" v="default residential speed limit in Australia"/>
    <tag k="name" v="Carthage Street"/>
  </way>
  <way id="48502153" version="3" timestamp="2011-01-07T08:25:42Z" uid="4467" user="Rosscoe" changeset="6890142">
    <nd ref="616238679"/>
    <nd ref="1087954837"/>
    <nd ref="598797529"/>
    <tag k="highway" v="residential"/>
    <tag k="maxspeed" v="50"/>
    <tag k="maxspeed:source" v="default residential speed limit in Australia"/>
    <tag k="name" v="Carthage Street"/>
  </way>
  <way id="48502153" version="4" timestamp="2011-05-11T04:54:41Z" uid="74617" user="JohnSmith" changeset="8108472">
    <nd ref="616238679"/>
    <nd ref="1087954837"/>
    <nd ref="1280008247"/>
    <nd ref="598797529"/>
    <tag k="highway" v="residential"/>
    <tag k="maxspeed" v="50"/>
    <tag k="maxspeed:source" v="default residential speed limit in Australia"/>
    <tag k="name" v="Carthage Street"/>
  </way>
  <way id="48502154" version="2" timestamp="2010-07-07T07:39:52Z" uid="74617" user="JohnSmith" changeset="5156250">
    <nd ref="154621186"/>
    <nd ref="616238679"/>
    <tag k="highway" v="residential"/>
    <tag k="maxspeed" v="50"/>
    <tag k="maxspeed:source" v="default residential speed limit in Australia"/>
    <tag k="name" v="Carthage Street"/>
    <tag k="oneway" v="yes"/>
  </way>
  <way id="48502154" version="4" timestamp="2011-01-07T08:25:30Z" uid="4467" user="Rosscoe" changeset="6890142">
    <nd ref="1087955134"/>
    <nd ref="598797547"/>
    <nd ref="843091255"/>
    <nd ref="154621186"/>
    <nd ref="1087954898"/>
    <nd ref="616238679"/>
    <tag k="highway" v="residential"/>
    <tag k="maxspeed" v="50"/>
    <tag k="maxspeed:source" v="default residential speed limit in Australia"/>
    <tag k="name" v="Carthage Street"/>
    <tag k="oneway" v="yes"/>
  </way>
  <way id="48502155" version="2" timestamp="2010-07-07T07:40:17Z" uid="74617" user="JohnSmith" changeset="5156250">
    <nd ref="616238693"/>
    <nd ref="616238679"/>
    <tag k="fixme" v="road extends further, needs survey"/>
    <tag k="highway" v="residential"/>
    <tag k="maxspeed" v="50"/>
    <tag k="maxspeed:source" v="default residential speed limit in Australia"/>
    <tag k="name" v="Kelso Avenue"/>
    <tag k="source" v="voice"/>
  </way>
  <way id="48502155" version="5" timestamp="2011-05-11T04:48:48Z" uid="74617" user="JohnSmith" changeset="8108450">
    <nd ref="616238679"/>
    <nd ref="843091101"/>
    <tag k="highway" v="residential"/>
    <tag k="maxspeed" v="50"/>
    <tag k="maxspeed:source" v="default residential speed limit in Australia"/>
    <tag k="name" v="Kelso Avenue"/>
    <tag k="source" v="bing"/>
    <tag k="source:name" v="voice"/>
    <tag k="surface" v="asphalt"/>
  </way>
  <way id="48502157" version="2" timestamp="2011-05-11T04:48:50Z" uid="74617" user="JohnSmith" changeset="8108450">
    <nd ref="616238697"/>
    <nd ref="616238698"/>
    <nd ref="598797560"/>
    <nd ref="616238699"/>
    <nd ref="598797713"/>
    <nd ref="616238701"/>
    <nd ref="105542419"/>
    <nd ref="616238702"/>
    <nd ref="154659740"/>
    <nd ref="616238703"/>
    <nd ref="616238704"/>
    <nd ref="1280002654"/>
    <nd ref="616238705"/>
    <nd ref="616238697"/>
    <tag k="highway" v="primary"/>
    <tag k="junction" v="roundabout"/>
    <tag k="source" v="survey"/>
    <tag k="surface" v="asphalt"/>
  </way>
  <way id="48502158" version="2" timestamp="2010-07-07T07:41:16Z" uid="74617" user="JohnSmith" changeset="5156250">
    <nd ref="154659740"/>
    <nd ref="181869635"/>
    <tag k="highway" v="residential"/>
    <tag k="maxspeed" v="50"/>
    <tag k="maxspeed:source" v="default residential speed limit in Australia"/>
    <tag k="name" v="Fitzroy Street"/>
    <tag k="source" v="survey"/>
  </way>
  <way id="48502159" version="2" timestamp="2011-05-11T04:48:47Z" uid="74617" user="JohnSmith" changeset="8108450">
    <nd ref="616238704"/>
    <nd ref="598797711"/>
    <nd ref="1280002653"/>
    <nd ref="843135310"/>
    <tag k="highway" v="primary"/>
    <tag k="name" v="Marius Street"/>
    <tag k="oneway" v="yes"/>
    <tag k="source" v="survey"/>
    <tag k="surface" v="asphalt"/>
  </way>
  <way id="48502160" version="2" timestamp="2010-07-07T07:41:08Z" uid="74617" user="JohnSmith" changeset="5156250">
    <nd ref="140819821"/>
    <nd ref="616238715"/>
    <nd ref="616238716"/>
    <tag k="highway" v="residential"/>
    <tag k="maxspeed" v="50"/>
    <tag k="maxspeed:source" v="default residential speed limit in Australia"/>
    <tag k="name" v="Marius Street"/>
    <tag k="oneway" v="yes"/>
    <tag k="source" v="survey"/>
  </way>
  <way id="48502167" version="4" timestamp="2010-05-07T23:43:05Z" uid="4467" user="Rosscoe" changeset="4635033">
    <nd ref="31091820"/>
    <nd ref="31091821"/>
    <nd ref="269886930"/>
    <nd ref="31091822"/>
    <nd ref="31091823"/>
    <nd ref="31091824"/>
    <nd ref="31091825"/>
    <nd ref="31091826"/>
    <nd ref="616261257"/>
    <nd ref="31091827"/>
    <nd ref="616261262"/>
    <tag k="highway" v="trunk"/>
    <tag k="name" v="Great Eastern Highway Bypass"/>
    <tag k="oneway" v="yes"/>
    <tag k="ref" v="NH94"/>
  </way>
  <way id="48502167" version="5" timestamp="2010-05-08T05:08:35Z" uid="4467" user="Rosscoe" changeset="4635734">
    <nd ref="616238922"/>
    <nd ref="616238933"/>
    <nd ref="31091820"/>
    <nd ref="31091821"/>
    <nd ref="269886930"/>
    <nd ref="31091822"/>
    <nd ref="31091823"/>
    <nd ref="31091824"/>
    <nd ref="31091825"/>
    <nd ref="31091826"/>
    <nd ref="616261257"/>
    <nd ref="31091827"/>
    <nd ref="616261262"/>
    <tag k="highway" v="trunk"/>
    <tag k="name" v="Great Eastern Highway;Great Eastern Highway Bypass"/>
    <tag k="oneway" v="yes"/>
    <tag k="ref" v="NH94"/>
  </way>
  <way id="48502167" version="8" timestamp="2010-06-11T14:43:59Z" uid="4467" user="Rosscoe" changeset="4963074">
    <nd ref="616238904"/>
    <nd ref="616238905"/>
    <nd ref="616238922"/>
    <nd ref="616238933"/>
    <nd ref="31091820"/>
    <nd ref="31091821"/>
    <nd ref="269886930"/>
    <nd ref="31091822"/>
    <nd ref="31091823"/>
    <nd ref="31091824"/>
    <nd ref="31091825"/>
    <nd ref="31091826"/>
    <nd ref="616261257"/>
    <nd ref="31091827"/>
    <nd ref="731942522"/>
    <tag k="highway" v="trunk"/>
    <tag k="name" v="Great Eastern Highway Bypass"/>
    <tag k="oneway" v="yes"/>
    <tag k="ref" v="NH94"/>
  </way>
  <way id="48502186" version="5" timestamp="2010-05-07T13:30:18Z" uid="4467" user="Rosscoe" changeset="4630035">
    <nd ref="32557236"/>
    <nd ref="270455715"/>
    <nd ref="270454699"/>
    <nd ref="270455693"/>
    <nd ref="32557233"/>
    <nd ref="270454437"/>
    <nd ref="33236463"/>
    <nd ref="270454550"/>
    <nd ref="270454243"/>
    <nd ref="33236461"/>
    <nd ref="270454215"/>
    <nd ref="269886937"/>
    <nd ref="33236457"/>
    <nd ref="33236456"/>
    <nd ref="33236455"/>
    <tag k="highway" v="trunk"/>
    <tag k="name" v="Great Eastern Highway"/>
    <tag k="oneway" v="yes"/>
    <tag k="ref" v="NR1"/>
  </way>
  <way id="48502186" version="6" timestamp="2010-05-08T08:34:10Z" uid="4467" user="Rosscoe" changeset="4636634">
    <nd ref="32557236"/>
    <nd ref="270455715"/>
    <nd ref="270454699"/>
    <nd ref="270455693"/>
    <nd ref="32557233"/>
    <nd ref="270454437"/>
    <nd ref="33236463"/>
    <nd ref="270454550"/>
    <nd ref="270454243"/>
    <nd ref="33236461"/>
    <nd ref="270454215"/>
    <nd ref="269886937"/>
    <nd ref="33236457"/>
    <nd ref="33236456"/>
    <nd ref="33236455"/>
    <tag k="highway" v="trunk"/>
    <tag k="name" v="Great Eastern Highway"/>
    <tag k="ref" v="NR1"/>
  </way>
  <way id="48502186" version="7" timestamp="2010-06-11T15:00:36Z" uid="4467" user="Rosscoe" changeset="4963171">
    <nd ref="32557236"/>
    <nd ref="769203776"/>
    <nd ref="270455715"/>
    <nd ref="270454699"/>
    <nd ref="769203706"/>
    <nd ref="769203777"/>
    <nd ref="270455693"/>
    <nd ref="32557233"/>
    <nd ref="270454437"/>
    <nd ref="33236463"/>
    <nd ref="270454550"/>
    <nd ref="270454243"/>
    <nd ref="33236461"/>
    <nd ref="270454215"/>
    <nd ref="269886937"/>
    <nd ref="33236457"/>
    <nd ref="769203735"/>
    <nd ref="33236456"/>
    <nd ref="33236455"/>
    <tag k="highway" v="trunk"/>
    <tag k="name" v="Great Eastern Highway"/>
    <tag k="ref" v="NR1"/>
    <tag k="source" v="nearmap"/>
  </way>
  <way id="48502187" version="4" timestamp="2010-05-07T23:43:25Z" uid="4467" user="Rosscoe" changeset="4635033">
    <nd ref="33236455"/>
    <nd ref="616238937"/>
    <nd ref="616238938"/>
    <nd ref="616238917"/>
    <nd ref="616238924"/>
    <nd ref="616238918"/>
    <nd ref="616238920"/>
    <tag k="highway" v="trunk"/>
    <tag k="name" v="Great Eastern Highway"/>
    <tag k="ref" v="NR1"/>
  </way>
  <way id="48502187" version="5" timestamp="2010-05-08T05:08:29Z" uid="4467" user="Rosscoe" changeset="4635734">
    <nd ref="33236455"/>
    <nd ref="616238937"/>
    <nd ref="616238938"/>
    <nd ref="616238917"/>
    <nd ref="616238924"/>
    <nd ref="616238918"/>
    <nd ref="616238920"/>
    <nd ref="616238922"/>
    <nd ref="725882228"/>
    <nd ref="616238907"/>
    <tag k="highway" v="trunk"/>
    <tag k="name" v="Great Eastern Highway"/>
    <tag k="ref" v="NR1"/>
  </way>
  <way id="48502187" version="7" timestamp="2010-06-11T14:44:14Z" uid="4467" user="Rosscoe" changeset="4963074">
    <nd ref="33236455"/>
    <nd ref="616238937"/>
    <nd ref="616238938"/>
    <nd ref="616238917"/>
    <nd ref="616238924"/>
    <nd ref="616238918"/>
    <nd ref="616238920"/>
    <nd ref="616238922"/>
    <nd ref="725882228"/>
    <nd ref="616238907"/>
    <tag k="highway" v="trunk_link"/>
    <tag k="name" v="Great Eastern Highway"/>
    <tag k="oneway" v="yes"/>
    <tag k="ref" v="NR1"/>
  </way>
  <way id="48502187" version="8" timestamp="2010-06-11T15:00:29Z" uid="4467" user="Rosscoe" changeset="4963171">
    <nd ref="33236455"/>
    <nd ref="616238937"/>
    <nd ref="616238938"/>
    <nd ref="616238917"/>
    <nd ref="616238924"/>
    <nd ref="616238918"/>
    <nd ref="616238920"/>
    <nd ref="616238922"/>
    <nd ref="725882228"/>
    <nd ref="616238907"/>
    <tag k="highway" v="trunk"/>
    <tag k="name" v="Great Eastern Highway"/>
    <tag k="oneway" v="yes"/>
    <tag k="ref" v="NR1"/>
    <tag k="source" v="nearmap"/>
  </way>
  <way id="48502193" version="2" timestamp="2010-06-11T14:44:13Z" uid="4467" user="Rosscoe" changeset="4963074">
    <nd ref="31092855"/>
    <nd ref="616238850"/>
    <tag k="highway" v="service"/>
    <tag k="service" v="driveway"/>
  </way>
  <way id="48502194" version="4" timestamp="2010-05-07T23:41:57Z" uid="4467" user="Rosscoe" changeset="4635033">
    <nd ref="31092858"/>
    <nd ref="616238909"/>
    <nd ref="616238904"/>
    <nd ref="616238905"/>
    <nd ref="616238922"/>
    <nd ref="616238933"/>
    <nd ref="31091820"/>
    <tag k="highway" v="trunk"/>
    <tag k="name" v="Great Eastern Highway"/>
    <tag k="oneway" v="yes"/>
    <tag k="ref" v="NH94;NR1"/>
  </way>
  <way id="48502194" version="5" timestamp="2010-05-08T04:34:11Z" uid="4467" user="Rosscoe" changeset="4635644">
    <nd ref="31092858"/>
    <nd ref="616238904"/>
    <nd ref="616238905"/>
    <nd ref="616238922"/>
    <nd ref="616238933"/>
    <nd ref="31091820"/>
    <tag k="highway" v="trunk"/>
    <tag k="name" v="Great Eastern Highway"/>
    <tag k="oneway" v="yes"/>
    <tag k="ref" v="NH94;NR1"/>
  </way>
  <way id="48502194" version="6" timestamp="2010-05-08T05:08:31Z" uid="4467" user="Rosscoe" changeset="4635734">
    <nd ref="31092858"/>
    <nd ref="616238904"/>
    <nd ref="616238905"/>
    <nd ref="616238922"/>
    <tag k="highway" v="trunk"/>
    <tag k="name" v="Great Eastern Highway"/>
    <tag k="oneway" v="yes"/>
    <tag k="ref" v="NH94;NR1"/>
  </way>
  <way id="48502194" version="7" timestamp="2010-06-11T14:43:23Z" uid="4467" user="Rosscoe" changeset="4963074">
    <nd ref="31092858"/>
    <nd ref="769200812"/>
    <nd ref="616238904"/>
    <tag k="highway" v="trunk"/>
    <tag k="name" v="Great Eastern Highway"/>
    <tag k="oneway" v="yes"/>
    <tag k="ref" v="NH94;NR1"/>
  </way>
  <way id="48502195" version="4" timestamp="2010-05-08T05:08:30Z" uid="4467" user="Rosscoe" changeset="4635734">
    <nd ref="616238924"/>
    <nd ref="616238925"/>
    <nd ref="616238926"/>
    <nd ref="616238927"/>
    <nd ref="616238933"/>
    <tag k="highway" v="trunk"/>
    <tag k="name" v="Great Eastern Highway"/>
    <tag k="oneway" v="yes"/>
  </way>
  <way id="48502195" version="5" timestamp="2010-06-11T14:43:15Z" uid="4467" user="Rosscoe" changeset="4963074">
    <nd ref="616238924"/>
    <nd ref="616238925"/>
    <nd ref="616238926"/>
    <nd ref="616238927"/>
    <nd ref="616238933"/>
    <tag k="highway" v="trunk_link"/>
    <tag k="oneway" v="yes"/>
  </way>
  <way id="48502195" version="6" timestamp="2010-06-11T15:00:05Z" uid="4467" user="Rosscoe" changeset="4963171">
    <nd ref="616238924"/>
    <nd ref="616238925"/>
    <nd ref="616238926"/>
    <nd ref="616238927"/>
    <nd ref="616238933"/>
    <tag k="highway" v="trunk_link"/>
    <tag k="oneway" v="yes"/>
    <tag k="source" v="nearmap"/>
  </way>
  <way id="48502196" version="5" timestamp="2010-05-07T16:09:31Z" uid="4467" user="Rosscoe" changeset="4631418">
    <nd ref="616238920"/>
    <nd ref="616238923"/>
    <nd ref="616238911"/>
    <nd ref="616238907"/>
    <nd ref="692591384"/>
    <nd ref="31092858"/>
    <tag k="highway" v="trunk"/>
    <tag k="name" v="Great Eastern Highway"/>
    <tag k="oneway" v="yes"/>
    <tag k="ref" v="NH94;NR1"/>
  </way>
  <way id="48502196" version="6" timestamp="2010-05-08T04:34:21Z" uid="4467" user="Rosscoe" changeset="4635644"/>
  <way id="48502197" version="3" timestamp="2010-05-07T23:41:59Z" uid="4467" user="Rosscoe" changeset="4635033">
    <nd ref="616238934"/>
    <nd ref="616238935"/>
    <nd ref="616238912"/>
    <nd ref="616238913"/>
    <tag k="highway" v="trunk_link"/>
    <tag k="name" v="Great Eastern Highway Bypass"/>
    <tag k="ref" v="NH94"/>
  </way>
  <way id="48502197" version="4" timestamp="2010-05-08T05:08:34Z" uid="4467" user="Rosscoe" changeset="4635734">
    <nd ref="616238912"/>
    <nd ref="616238913"/>
    <nd ref="616238922"/>
    <nd ref="725882225"/>
    <nd ref="725882224"/>
    <nd ref="616238916"/>
    <tag k="highway" v="trunk_link"/>
    <tag k="name" v="Great Eastern Highway Bypass"/>
    <tag k="ref" v="NH94"/>
  </way>
  <way id="48502197" version="6" timestamp="2010-06-11T14:43:28Z" uid="4467" user="Rosscoe" changeset="4963074">
    <nd ref="616238912"/>
    <nd ref="616238913"/>
    <nd ref="616238922"/>
    <nd ref="725882225"/>
    <nd ref="725882224"/>
    <nd ref="616238916"/>
    <tag k="highway" v="trunk_link"/>
    <tag k="oneway" v="yes"/>
  </way>
  <way id="48502197" version="7" timestamp="2010-06-11T15:00:49Z" uid="4467" user="Rosscoe" changeset="4963171">
    <nd ref="616238912"/>
    <nd ref="616238913"/>
    <nd ref="616238922"/>
    <nd ref="725882225"/>
    <nd ref="725882224"/>
    <nd ref="616238916"/>
    <tag k="highway" v="trunk_link"/>
    <tag k="oneway" v="yes"/>
    <tag k="source" v="nearmap"/>
  </way>
  <way id="48502198" version="5" timestamp="2010-05-08T04:34:18Z" uid="4467" user="Rosscoe" changeset="4635644"/>
  <way id="48502355" version="8" timestamp="2011-05-11T08:56:17Z" uid="74617" user="JohnSmith" changeset="8110082">
    <nd ref="230250997"/>
    <nd ref="230251017"/>
    <nd ref="230251041"/>
    <nd ref="230251068"/>
    <nd ref="230251093"/>
    <nd ref="230251116"/>
    <nd ref="230251143"/>
    <nd ref="1280116563"/>
    <nd ref="230251169"/>
    <nd ref="230251188"/>
    <tag k="highway" v="trunk"/>
    <tag k="maxspeed" v="80"/>
    <tag k="name" v="New England Highway"/>
    <tag k="source" v="survey"/>
    <tag k="surface" v="asphalt"/>
  </way>
  <way id="48502425" version="3" timestamp="2010-03-28T11:42:31Z" uid="20587" user="balrog-kun" changeset="4254597">
    <nd ref="253706499"/>
    <nd ref="253706495"/>
    <nd ref="253706496"/>
    <nd ref="253706497"/>
    <nd ref="610225770"/>
    <tag k="highway" v="unclassified"/>
    <tag k="name" v="Telegraph North Frontage Road"/>
  </way>
  <way id="48502431" version="2" timestamp="2010-03-28T11:42:31Z" uid="20587" user="balrog-kun" changeset="4254597">
    <nd ref="616243348"/>
    <nd ref="253875166"/>
    <nd ref="616243416"/>
    <tag k="highway" v="residential"/>
    <tag k="name" v="Cord Avenue"/>
    <tag k="source" v="usgs_imagery;LACA"/>
    <tag k="source_ref" v="ABK6391-001"/>
  </way>
  <way id="48502432" version="2" timestamp="2010-03-28T11:42:31Z" uid="20587" user="balrog-kun" changeset="4254597">
    <nd ref="616243415"/>
    <nd ref="253875166"/>
    <tag k="highway" v="residential"/>
    <tag k="name" v="Raviller Drive"/>
    <tag k="source" v="usgs_imagery;LACA"/>
    <tag k="source_ref" v="ABK6391-001"/>
  </way>
  <way id="48502433" version="2" timestamp="2010-03-28T11:42:32Z" uid="20587" user="balrog-kun" changeset="4254597">
    <nd ref="123092246"/>
    <nd ref="253718286"/>
    <nd ref="123342383"/>
    <tag k="highway" v="residential"/>
    <tag k="name" v="Manzanar Avenue"/>
    <tag k="tiger:cfcc" v="A41"/>
    <tag k="tiger:county" v="Los Angeles, CA"/>
    <tag k="tiger:name_base" v="Manzanar"/>
    <tag k="tiger:name_type" v="Ave"/>
    <tag k="tiger:separated" v="no"/>
    <tag k="tiger:source" v="tiger_import_dch_v0.6_20070809"/>
    <tag k="tiger:tlid" v="141737975:141737977:141738019"/>
    <tag k="tiger:zip_left" v="90240"/>
    <tag k="tiger:zip_right" v="90240"/>
  </way>
  <way id="48502434" version="3" timestamp="2010-03-28T11:42:32Z" uid="20587" user="balrog-kun" changeset="4254597">
    <nd ref="616243587"/>
    <nd ref="616243598"/>
    <tag k="highway" v="residential"/>
    <tag k="name" v="Telegraph South Frontage Road"/>
    <tag k="source" v="usgs_imagery"/>
  </way>
  <way id="48502435" version="2" timestamp="2010-03-28T11:42:32Z" uid="20587" user="balrog-kun" changeset="4254597">
    <nd ref="616243374"/>
    <nd ref="122628949"/>
    <tag k="highway" v="residential"/>
    <tag k="name" v="Cedardale Drive"/>
    <tag k="source" v="usgs_imagery;LACA"/>
    <tag k="source_ref" v="ABK8007-002"/>
  </way>
  <way id="48502436" version="2" timestamp="2010-03-28T11:42:32Z" uid="20587" user="balrog-kun" changeset="4254597">
    <nd ref="616243379"/>
    <nd ref="616243380"/>
    <nd ref="616243376"/>
    <tag k="highway" v="residential"/>
    <tag k="name" v="Orr and Day West Frontage Road"/>
    <tag k="source" v="usgs_imagery"/>
  </way>
  <way id="48502437" version="2" timestamp="2010-03-28T11:42:32Z" uid="20587" user="balrog-kun" changeset="4254597">
    <nd ref="616243381"/>
    <nd ref="616243378"/>
    <tag k="highway" v="residential"/>
    <tag k="name" v="Orr and Day East Frontage Road"/>
    <tag k="source" v="usgs_imagery"/>
  </way>
  <way id="48502438" version="2" timestamp="2010-03-28T11:42:32Z" uid="20587" user="balrog-kun" changeset="4254597">
    <nd ref="123074786"/>
    <nd ref="616243799"/>
    <nd ref="616243798"/>
    <nd ref="616243797"/>
    <nd ref="616243796"/>
    <nd ref="616243795"/>
    <nd ref="616243794"/>
    <nd ref="616243793"/>
    <nd ref="616243792"/>
    <nd ref="616243791"/>
    <nd ref="616243789"/>
    <nd ref="616243788"/>
    <tag k="highway" v="unclassified"/>
    <tag k="name" v="Mercury Lane"/>
    <tag k="source" v="usgs_imagery;LACA;LACDPW"/>
    <tag k="source_ref" v="ABK6369-027;TR1266-090"/>
  </way>
  <way id="48502439" version="2" timestamp="2010-03-29T10:51:51Z" uid="20587" user="balrog-kun" changeset="4266090">
    <nd ref="616243788"/>
    <nd ref="616243774"/>
    <nd ref="616243767"/>
    <tag k="highway" v="unclassified"/>
    <tag k="name" v="Stealth Parkway"/>
    <tag k="source" v="usgs_imagery;LACA;LACDPW"/>
    <tag k="source_ref" v="ABK6369-027;TR1266-090"/>
  </way>
  <way id="48502440" version="2" timestamp="2010-03-28T11:42:32Z" uid="20587" user="balrog-kun" changeset="4254597">
    <nd ref="123027987"/>
    <nd ref="610224039"/>
    <nd ref="122592217"/>
    <nd ref="122695705"/>
    <nd ref="122695744"/>
    <nd ref="123177175"/>
    <nd ref="123177180"/>
    <nd ref="123177183"/>
    <nd ref="122656337"/>
    <nd ref="122775702"/>
    <nd ref="122706838"/>
    <nd ref="123177186"/>
    <nd ref="122851201"/>
    <nd ref="253897040"/>
    <nd ref="123177188"/>
    <nd ref="616243777"/>
    <nd ref="123177190"/>
    <tag k="highway" v="residential"/>
    <tag k="name" v="Rex Road"/>
    <tag k="tiger:cfcc" v="A41"/>
    <tag k="tiger:county" v="Los Angeles, CA"/>
    <tag k="tiger:name_base" v="Rex"/>
    <tag k="tiger:name_type" v="Rd"/>
    <tag k="tiger:separated" v="no"/>
    <tag k="tiger:source" v="tiger_import_dch_v0.6_20070809"/>
    <tag k="tiger:tlid" v="142658864:142658865"/>
    <tag k="tiger:zip_left" v="90660"/>
    <tag k="tiger:zip_right" v="90660"/>
  </way>
  <way id="48502441" version="2" timestamp="2010-03-28T11:42:33Z" uid="20587" user="balrog-kun" changeset="4254597">
    <nd ref="616243779"/>
    <nd ref="616243778"/>
    <nd ref="616243786"/>
    <nd ref="616243782"/>
    <nd ref="616243783"/>
    <nd ref="616243784"/>
    <tag k="highway" v="residential"/>
    <tag k="name" v="Washington Blvd South Frontage Road"/>
    <tag k="source" v="usgs_imagery;LACDPW"/>
    <tag k="source_ref" v="TR0341-022"/>
  </way>
  <way id="48502442" version="2" timestamp="2010-03-28T11:42:33Z" uid="20587" user="balrog-kun" changeset="4254597">
    <nd ref="616243787"/>
    <nd ref="616243781"/>
    <nd ref="616243780"/>
    <tag k="highway" v="residential"/>
    <tag k="name" v="Washington Blvd North Frontage Road"/>
    <tag k="tiger:cfcc" v="A41"/>
    <tag k="tiger:county" v="Los Angeles, CA"/>
    <tag k="tiger:name_base" v="Pico Vista"/>
    <tag k="tiger:name_type" v="Rd"/>
    <tag k="tiger:separated" v="no"/>
    <tag k="tiger:source" v="tiger_import_dch_v0.6_20070809"/>
    <tag k="tiger:tlid" v="141738780:141738781:141738784:141738782:141738783:141738785:141738786:141738787:141738788:141738847:141738672:141738674"/>
    <tag k="tiger:zip_left" v="90660"/>
    <tag k="tiger:zip_right" v="90660"/>
  </way>
  <way id="48502445" version="2" timestamp="2010-03-28T11:42:33Z" uid="20587" user="balrog-kun" changeset="4254597">
    <nd ref="616243736"/>
    <nd ref="616243738"/>
    <nd ref="616243731"/>
    <nd ref="616243732"/>
    <nd ref="616243733"/>
    <nd ref="616243734"/>
    <nd ref="616243726"/>
    <tag k="highway" v="residential"/>
    <tag k="name" v="Norwalk Blvd West Frontage Road"/>
  </way>
  <way id="48502451" version="2" timestamp="2010-03-28T11:42:33Z" uid="20587" user="balrog-kun" changeset="4254597">
    <nd ref="122492886"/>
    <nd ref="122978360"/>
    <tag k="highway" v="residential"/>
    <tag k="name" v="Rockne Avenue"/>
    <tag k="tiger:cfcc" v="A41"/>
    <tag k="tiger:county" v="Los Angeles, CA"/>
    <tag k="tiger:name_base" v="Rockne"/>
    <tag k="tiger:name_type" v="Ave"/>
    <tag k="tiger:separated" v="no"/>
    <tag k="tiger:source" v="tiger_import_dch_v0.6_20070809"/>
    <tag k="tiger:tlid" v="141739040:141739041:141739048"/>
    <tag k="tiger:zip_left" v="90606"/>
    <tag k="tiger:zip_right" v="90606"/>
  </way>
  <way id="48502456" version="2" timestamp="2010-03-28T11:42:33Z" uid="20587" user="balrog-kun" changeset="4254597">
    <nd ref="254028675"/>
    <nd ref="616243894"/>
    <tag k="bridge" v="yes"/>
    <tag k="highway" v="motorway"/>
    <tag k="layer" v="1"/>
    <tag k="name" v="San Gabriel River Freeway"/>
    <tag k="oneway" v="yes"/>
    <tag k="ref" v="I 605"/>
  </way>
  <way id="48502457" version="2" timestamp="2010-03-28T11:42:34Z" uid="20587" user="balrog-kun" changeset="4254597">
    <nd ref="616243894"/>
    <nd ref="254028685"/>
    <nd ref="25266673"/>
    <nd ref="254028694"/>
    <nd ref="25266674"/>
    <nd ref="254028673"/>
    <nd ref="254027005"/>
    <nd ref="254027023"/>
    <nd ref="529158356"/>
    <tag k="highway" v="motorway"/>
    <tag k="layer" v="1"/>
    <tag k="name" v="San Gabriel River Freeway"/>
    <tag k="oneway" v="yes"/>
    <tag k="ref" v="I 605"/>
  </way>
  <way id="48502459" version="2" timestamp="2010-03-28T11:42:34Z" uid="20587" user="balrog-kun" changeset="4254597">
    <nd ref="616243887"/>
    <nd ref="254028676"/>
    <tag k="bridge" v="yes"/>
    <tag k="highway" v="motorway"/>
    <tag k="layer" v="1"/>
    <tag k="name" v="San Gabriel River Freeway"/>
    <tag k="oneway" v="yes"/>
    <tag k="ref" v="I 605"/>
  </way>
  <way id="48502461" version="2" timestamp="2010-03-28T11:42:34Z" uid="20587" user="balrog-kun" changeset="4254597">
    <nd ref="254028676"/>
    <nd ref="668170"/>
    <nd ref="254035774"/>
    <nd ref="668171"/>
    <nd ref="528649294"/>
    <tag k="highway" v="motorway"/>
    <tag k="layer" v="1"/>
    <tag k="name" v="San Gabriel River Freeway"/>
    <tag k="oneway" v="yes"/>
    <tag k="ref" v="I 605"/>
  </way>
  <way id="48502462" version="2" timestamp="2010-03-28T11:42:34Z" uid="20587" user="balrog-kun" changeset="4254597">
    <nd ref="122681005"/>
    <nd ref="122681008"/>
    <tag k="highway" v="residential"/>
    <tag k="name" v="Dunlap Crossing Road"/>
    <tag k="source" v="usgs_imagery;LACDPW"/>
    <tag k="source_ref" v="TR0380-024"/>
    <tag k="tiger:cfcc" v="A41"/>
    <tag k="tiger:county" v="Los Angeles, CA"/>
    <tag k="tiger:name_base" v="Dunlap Crossing"/>
    <tag k="tiger:name_type" v="Rd"/>
    <tag k="tiger:separated" v="no"/>
    <tag k="tiger:source" v="tiger_import_dch_v0.6_20070809"/>
    <tag k="tiger:tlid" v="141738945:141814513:141814514:142657094:142657095"/>
    <tag k="tiger:zip_left" v="90606"/>
    <tag k="tiger:zip_right" v="90606"/>
  </way>
  <way id="48502476" version="2" timestamp="2010-03-28T11:42:35Z" uid="20587" user="balrog-kun" changeset="4254597">
    <nd ref="616243976"/>
    <nd ref="616243977"/>
    <nd ref="616243978"/>
    <tag k="highway" v="residential"/>
    <tag k="name" v="Orange Place"/>
    <tag k="source" v="usgs_imagery;LACA"/>
    <tag k="source_ref" v="ABK8132-033"/>
  </way>
  <way id="48502804" version="1" timestamp="2010-01-18T14:28:32Z" uid="43863" user="Rundling" changeset="3650572">
    <nd ref="616251609"/>
    <nd ref="616251618"/>
    <nd ref="616251619"/>
    <nd ref="616251627"/>
    <nd ref="616251631"/>
    <nd ref="616251632"/>
    <nd ref="616251633"/>
    <nd ref="616251630"/>
    <nd ref="616251628"/>
    <nd ref="616251629"/>
    <nd ref="616251623"/>
    <nd ref="616251624"/>
    <nd ref="616251626"/>
    <nd ref="616251621"/>
    <nd ref="616251622"/>
    <nd ref="616251620"/>
    <nd ref="616251616"/>
    <nd ref="616251615"/>
    <nd ref="616251614"/>
    <nd ref="616251613"/>
    <nd ref="616251617"/>
    <nd ref="616251606"/>
    <nd ref="616251608"/>
    <nd ref="616251610"/>
    <nd ref="616251611"/>
    <nd ref="616251612"/>
    <nd ref="616251609"/>
    <tag k="landuse" v="residential"/>
  </way>
  <way id="48502804" version="2" timestamp="2010-01-24T09:35:39Z" uid="43863" user="Rundling" changeset="3698756">
    <nd ref="616251609"/>
    <nd ref="616251618"/>
    <nd ref="616251619"/>
    <nd ref="616251627"/>
    <nd ref="616251631"/>
    <nd ref="616251632"/>
    <nd ref="616251633"/>
    <nd ref="616251630"/>
    <nd ref="616251628"/>
    <nd ref="616251629"/>
    <nd ref="616251623"/>
    <nd ref="616251624"/>
    <nd ref="616251626"/>
    <nd ref="616251621"/>
    <nd ref="616251622"/>
    <nd ref="616251620"/>
    <nd ref="616251616"/>
    <nd ref="616251615"/>
    <nd ref="616251614"/>
    <nd ref="619103519"/>
    <nd ref="619103515"/>
    <nd ref="619103516"/>
    <nd ref="619103517"/>
    <nd ref="619103518"/>
    <nd ref="619103500"/>
    <nd ref="619103513"/>
    <nd ref="619103514"/>
    <nd ref="619103499"/>
    <nd ref="616251613"/>
    <nd ref="616251617"/>
    <nd ref="616251606"/>
    <nd ref="616251608"/>
    <nd ref="616251610"/>
    <nd ref="616251611"/>
    <nd ref="616251612"/>
    <nd ref="616251609"/>
    <tag k="landuse" v="residential"/>
  </way>
  <way id="48502847" version="1" timestamp="2010-01-18T14:31:28Z" uid="13367" user="nubok" changeset="3650594">
    <nd ref="616252179"/>
    <nd ref="616252181"/>
    <nd ref="616252182"/>
    <nd ref="616252183"/>
    <nd ref="616252184"/>
    <nd ref="616252185"/>
    <nd ref="616252186"/>
    <nd ref="616252187"/>
    <nd ref="616252188"/>
    <nd ref="616252179"/>
    <tag k="natural" v="wood"/>
    <tag k="source" v="Yahoo"/>
  </way>
  <way id="48502848" version="1" timestamp="2010-01-18T14:31:30Z" uid="13367" user="nubok" changeset="3650594">
    <nd ref="616252190"/>
    <nd ref="616252192"/>
    <nd ref="616252193"/>
    <nd ref="616252194"/>
    <nd ref="616252195"/>
    <nd ref="616252196"/>
    <nd ref="616252197"/>
    <nd ref="616252199"/>
    <nd ref="616252190"/>
    <tag k="natural" v="wood"/>
    <tag k="source" v="Yahoo"/>
  </way>
  <way id="48502849" version="1" timestamp="2010-01-18T14:31:34Z" uid="13367" user="nubok" changeset="3650594">
    <nd ref="616252200"/>
    <nd ref="616252201"/>
    <nd ref="616252203"/>
    <nd ref="616252204"/>
    <nd ref="616252205"/>
    <nd ref="616252206"/>
    <nd ref="616252207"/>
    <nd ref="616252208"/>
    <nd ref="616252209"/>
    <nd ref="616252210"/>
    <nd ref="616252212"/>
    <nd ref="616252213"/>
    <nd ref="616252214"/>
    <nd ref="616252215"/>
    <nd ref="616252216"/>
    <nd ref="616252217"/>
    <nd ref="616252218"/>
    <nd ref="616252219"/>
    <nd ref="616252221"/>
    <nd ref="616252222"/>
    <nd ref="616252223"/>
    <nd ref="616252226"/>
    <nd ref="616252227"/>
    <nd ref="616252200"/>
    <tag k="natural" v="wood"/>
    <tag k="source" v="Yahoo"/>
  </way>
  <way id="48502968" version="4" timestamp="2010-07-25T07:02:50Z" uid="4467" user="Rosscoe" changeset="5309221">
    <nd ref="557593280"/>
    <nd ref="557593281"/>
    <tag k="bicycle" v="no"/>
    <tag k="bridge" v="yes"/>
    <tag k="foot" v="no"/>
    <tag k="highway" v="primary"/>
    <tag k="layer" v="1"/>
    <tag k="name" v="Moreton Drive"/>
    <tag k="oneway" v="yes"/>
  </way>
  <way id="48502971" version="1" timestamp="2010-01-18T14:37:51Z" uid="13367" user="nubok" changeset="3650653">
    <nd ref="616254106"/>
    <nd ref="616254107"/>
    <nd ref="616254108"/>
    <nd ref="616254109"/>
    <nd ref="616254106"/>
    <tag k="natural" v="wood"/>
    <tag k="source" v="Yahoo"/>
  </way>
  <way id="48502972" version="1" timestamp="2010-01-18T14:37:52Z" uid="13367" user="nubok" changeset="3650653">
    <nd ref="616254111"/>
    <nd ref="616254112"/>
    <nd ref="616254113"/>
    <nd ref="616254114"/>
    <nd ref="616254116"/>
    <nd ref="616254117"/>
    <nd ref="616254118"/>
    <nd ref="616254111"/>
    <tag k="natural" v="wood"/>
    <tag k="source" v="Yahoo"/>
  </way>
  <way id="48502973" version="1" timestamp="2010-01-18T14:37:53Z" uid="13367" user="nubok" changeset="3650653">
    <nd ref="616254120"/>
    <nd ref="616254121"/>
    <nd ref="616254122"/>
    <nd ref="616254124"/>
    <nd ref="616254120"/>
    <tag k="natural" v="wood"/>
    <tag k="source" v="Yahoo"/>
  </way>
  <way id="48502974" version="1" timestamp="2010-01-18T14:37:54Z" uid="13367" user="nubok" changeset="3650653">
    <nd ref="616254125"/>
    <nd ref="616254127"/>
    <nd ref="616254128"/>
    <nd ref="616254129"/>
    <nd ref="616254130"/>
    <nd ref="616254125"/>
    <tag k="natural" v="wood"/>
    <tag k="source" v="Yahoo"/>
  </way>
  <way id="48502975" version="1" timestamp="2010-01-18T14:37:55Z" uid="13367" user="nubok" changeset="3650653">
    <nd ref="616254131"/>
    <nd ref="616254132"/>
    <nd ref="616254133"/>
    <nd ref="616254135"/>
    <nd ref="616254136"/>
    <nd ref="616254131"/>
    <tag k="natural" v="wood"/>
    <tag k="source" v="Yahoo"/>
  </way>
  <way id="48502977" version="3" timestamp="2010-07-25T07:02:52Z" uid="4467" user="Rosscoe" changeset="5309221">
    <nd ref="557604821"/>
    <nd ref="557604838"/>
    <tag k="bicycle" v="no"/>
    <tag k="bridge" v="yes"/>
    <tag k="foot" v="no"/>
    <tag k="highway" v="primary"/>
    <tag k="layer" v="1"/>
    <tag k="name" v="Moreton Drive"/>
    <tag k="oneway" v="yes"/>
  </way>
  <way id="48502978" version="1" timestamp="2010-01-18T14:37:58Z" uid="13367" user="nubok" changeset="3650653">
    <nd ref="616254141"/>
    <nd ref="616254142"/>
    <nd ref="616254143"/>
    <nd ref="616254144"/>
    <nd ref="616254141"/>
    <tag k="natural" v="wood"/>
    <tag k="source" v="Yahoo"/>
  </way>
  <way id="48502990" version="4" timestamp="2010-03-28T11:42:35Z" uid="20587" user="balrog-kun" changeset="4254597">
    <nd ref="122780685"/>
    <nd ref="616255399"/>
    <nd ref="122974275"/>
    <nd ref="331218934"/>
    <nd ref="616255892"/>
    <nd ref="616255893"/>
    <nd ref="331218935"/>
    <nd ref="123452407"/>
    <tag k="highway" v="residential"/>
    <tag k="name" v="Swinton Avenue"/>
    <tag k="tiger:cfcc" v="A41"/>
    <tag k="tiger:county" v="Los Angeles, CA"/>
    <tag k="tiger:name_base" v="Swinton"/>
    <tag k="tiger:name_type" v="Ave"/>
    <tag k="tiger:reviewed" v="no"/>
    <tag k="tiger:separated" v="no"/>
    <tag k="tiger:source" v="tiger_import_dch_v0.6_20070809"/>
    <tag k="tiger:tlid" v="141542823:141542832:141542836:141542841"/>
    <tag k="tiger:zip_left" v="91344"/>
    <tag k="tiger:zip_right" v="91344"/>
  </way>
</osm>
