<?xml version='1.0' encoding='UTF-8'?>
<osm version="0.6" generator="libosmium/2.20.0">
  <way id="48806404" version="1" timestamp="2010-01-24T15:02:04Z" uid="8619" user="cetest" changeset="3701860">
    <nd ref="619250088"/>
    <nd ref="330950749"/>
    <nd ref="330950770"/>
    <nd ref="382507117"/>
    <nd ref="330950771"/>
    <nd ref="330950766"/>
    <nd ref="330950768"/>
    <nd ref="330950760"/>
    <nd ref="330950763"/>
    <nd ref="330950756"/>
    <nd ref="330950758"/>
    <nd ref="330950782"/>
    <nd ref="382507086"/>
    <nd ref="330950779"/>
    <nd ref="619216930"/>
    <nd ref="330950778"/>
    <nd ref="330950777"/>
    <nd ref="330950775"/>
    <nd ref="330950774"/>
    <tag k="haiti:code" v="NC"/>
    <tag k="haiti:import_file" v="6.osm"/>
    <tag k="haiti:nom" v="None"/>
    <tag k="haiti:nom2" v="None"/>
    <tag k="haiti:objectid" v="288"/>
    <tag k="haiti:source" v="CNIGS and CartONG"/>
    <tag k="haiti:source_file" v="intersect8_polyid__6.shp"/>
    <tag k="haiti:type" v="Autre Route"/>
    <tag k="highway" v="residential"/>
  </way>
  <way id="48806405" version="1" timestamp="2010-01-24T15:02:04Z" uid="8619" user="cetest" changeset="3701860">
    <nd ref="330950748"/>
    <nd ref="619250088"/>
    <tag k="haiti:code" v="NC"/>
    <tag k="haiti:import_file" v="6.osm"/>
    <tag k="haiti:nom" v="None"/>
    <tag k="haiti:nom2" v="None"/>
    <tag k="haiti:objectid" v="288"/>
    <tag k="haiti:source" v="CNIGS and CartONG"/>
    <tag k="haiti:source_file" v="intersect8_polyid__6.shp"/>
    <tag k="haiti:type" v="Autre Route"/>
    <tag k="highway" v="residential"/>
  </way>
  <way id="48806421" version="1" timestamp="2010-01-24T15:02:44Z" uid="7617" user="Franc" changeset="3701870">
    <nd ref="28886058"/>
    <nd ref="54897222"/>
    <nd ref="28886056"/>
    <nd ref="28886055"/>
    <nd ref="29976325"/>
    <tag k="highway" v="unclassified"/>
    <tag k="name" v="Shepard Street"/>
  </way>
  <way id="48806421" version="2" timestamp="2010-07-10T11:49:35Z" uid="7617" user="Franc" changeset="5181893">
    <nd ref="29976326"/>
    <nd ref="619250240"/>
    <nd ref="28886058"/>
    <nd ref="809951416"/>
    <tag k="highway" v="unclassified"/>
    <tag k="name" v="Shepherd Street"/>
    <tag k="restriction" v="school_zone"/>
  </way>
  <way id="48806422" version="1" timestamp="2010-01-24T15:02:44Z" uid="7617" user="Franc" changeset="3701870">
    <nd ref="619250237"/>
    <nd ref="29376125"/>
    <nd ref="619250238"/>
    <nd ref="29376129"/>
    <tag k="highway" v="unclassified"/>
    <tag k="name" v="Thompson Street"/>
    <tag k="restriction" v="school_zone"/>
  </way>
  <way id="48806423" version="1" timestamp="2010-01-24T15:02:45Z" uid="7617" user="Franc" changeset="3701870">
    <nd ref="30790588"/>
    <nd ref="31641401"/>
    <tag k="highway" v="unclassified"/>
    <tag k="name" v="Chalder Street"/>
  </way>
  <way id="48806424" version="1" timestamp="2010-01-24T15:02:45Z" uid="7617" user="Franc" changeset="3701870">
    <nd ref="619250299"/>
    <nd ref="33660682"/>
    <nd ref="619250291"/>
    <nd ref="12050231"/>
    <tag k="highway" v="secondary"/>
    <tag k="lcn_ref" v="L2"/>
    <tag k="name" v="Percival Road"/>
    <tag k="source" v="survey"/>
  </way>
  <way id="48806424" version="2" timestamp="2011-04-15T10:26:35Z" uid="7617" user="Franc" changeset="7868334">
    <nd ref="619250299"/>
    <nd ref="33660682"/>
    <tag k="highway" v="secondary"/>
    <tag k="lcn_ref" v="L2"/>
    <tag k="name" v="Percival Road"/>
    <tag k="source" v="survey"/>
  </way>
  <way id="48806424" version="3" timestamp="2011-06-14T12:04:53Z" uid="7617" user="Franc" changeset="8436623">
    <nd ref="619250299"/>
    <nd ref="33660682"/>
    <tag k="highway" v="tertiary"/>
    <tag k="lcn_ref" v="L2"/>
    <tag k="name" v="Percival Road"/>
    <tag k="source" v="survey"/>
  </way>
  <way id="48806425" version="1" timestamp="2010-01-24T15:02:45Z" uid="7617" user="Franc" changeset="3701870">
    <nd ref="619250271"/>
    <nd ref="29376563"/>
    <nd ref="599205487"/>
    <nd ref="599205486"/>
    <nd ref="29376631"/>
    <nd ref="599205488"/>
    <nd ref="29376643"/>
    <tag k="highway" v="residential"/>
    <tag k="name" v="Newington Road"/>
    <tag k="restriction" v="school_zone"/>
    <tag k="source" v="survey"/>
  </way>
  <way id="48806425" version="2" timestamp="2010-07-08T02:53:38Z" uid="74617" user="JohnSmith" changeset="5163091">
    <nd ref="619250271"/>
    <nd ref="29376563"/>
    <nd ref="599205487"/>
    <nd ref="599205486"/>
    <nd ref="29376631"/>
    <nd ref="599205488"/>
    <nd ref="29376643"/>
    <tag k="highway" v="residential"/>
    <tag k="maxspeed" v="50"/>
    <tag k="maxspeed:source" v="default residential speed limit in Australia"/>
    <tag k="name" v="Newington Road"/>
    <tag k="restriction" v="school_zone"/>
    <tag k="source" v="survey"/>
  </way>
  <way id="48806426" version="1" timestamp="2010-01-24T15:02:45Z" uid="7617" user="Franc" changeset="3701870">
    <nd ref="619250296"/>
    <nd ref="15164383"/>
    <nd ref="47310067"/>
    <nd ref="26363948"/>
    <tag k="highway" v="secondary"/>
    <tag k="name" v="Liberty Street"/>
    <tag k="source" v="survey"/>
  </way>
  <way id="48806427" version="1" timestamp="2010-01-24T15:02:45Z" uid="7617" user="Franc" changeset="3701870">
    <nd ref="619250245"/>
    <nd ref="619250246"/>
    <nd ref="28886079"/>
    <tag k="highway" v="service"/>
    <tag k="source" v="nearmap"/>
  </way>
  <way id="48806428" version="1" timestamp="2010-01-24T15:02:45Z" uid="7617" user="Franc" changeset="3701870">
    <nd ref="29376643"/>
    <nd ref="15168233"/>
    <nd ref="15168241"/>
    <nd ref="28915919"/>
    <nd ref="29824056"/>
    <nd ref="619250279"/>
    <nd ref="29055510"/>
    <nd ref="29604098"/>
    <nd ref="30884100"/>
    <nd ref="619250280"/>
    <nd ref="582304525"/>
    <nd ref="29976437"/>
    <tag k="highway" v="residential"/>
    <tag k="name" v="Newington Road"/>
    <tag k="source" v="survey"/>
  </way>
  <way id="48806428" version="2" timestamp="2010-04-17T06:27:03Z" uid="4467" user="Rosscoe" changeset="4444754">
    <nd ref="29376643"/>
    <nd ref="15168233"/>
    <nd ref="699565216"/>
    <tag k="highway" v="residential"/>
    <tag k="name" v="Newington Road"/>
    <tag k="source" v="survey"/>
  </way>
  <way id="48806428" version="3" timestamp="2010-07-08T02:55:21Z" uid="74617" user="JohnSmith" changeset="5163091">
    <nd ref="29376643"/>
    <nd ref="15168233"/>
    <nd ref="699565216"/>
    <tag k="highway" v="residential"/>
    <tag k="maxspeed" v="50"/>
    <tag k="maxspeed:source" v="default residential speed limit in Australia"/>
    <tag k="name" v="Newington Road"/>
    <tag k="source" v="survey"/>
  </way>
  <way id="48806429" version="1" timestamp="2010-01-24T15:02:46Z" uid="7617" user="Franc" changeset="3701870">
    <nd ref="619250274"/>
    <nd ref="619250275"/>
    <nd ref="619250276"/>
    <nd ref="619250277"/>
    <nd ref="619250274"/>
    <tag k="leisure" v="playground"/>
    <tag k="source" v="nearmap"/>
  </way>
  <way id="48806429" version="2" timestamp="2010-05-23T12:01:59Z" uid="7617" user="Franc" changeset="4782535">
    <nd ref="619250274"/>
    <nd ref="619250275"/>
    <nd ref="746334643"/>
    <nd ref="619250276"/>
    <nd ref="619250277"/>
    <nd ref="619250274"/>
    <tag k="leisure" v="playground"/>
    <tag k="source" v="nearmap"/>
  </way>
  <way id="48806430" version="1" timestamp="2010-01-24T15:02:46Z" uid="7617" user="Franc" changeset="3701870">
    <nd ref="619250288"/>
    <nd ref="605032353"/>
    <tag k="highway" v="residential"/>
    <tag k="name" v="Cambridge Street"/>
  </way>
  <way id="48806430" version="2" timestamp="2010-07-07T22:11:25Z" uid="74617" user="JohnSmith" changeset="5161069">
    <nd ref="619250288"/>
    <nd ref="605032353"/>
    <tag k="highway" v="residential"/>
    <tag k="maxspeed" v="50"/>
    <tag k="maxspeed:source" v="default residential speed limit in Australia"/>
    <tag k="name" v="Cambridge Street"/>
  </way>
  <way id="48806431" version="1" timestamp="2010-01-24T15:02:46Z" uid="7617" user="Franc" changeset="3701870">
    <nd ref="619250286"/>
    <nd ref="29376703"/>
    <nd ref="15164383"/>
    <tag k="highway" v="residential"/>
    <tag k="name" v="Cavendish Street"/>
  </way>
  <way id="48806431" version="2" timestamp="2010-07-07T22:10:30Z" uid="74617" user="JohnSmith" changeset="5161069">
    <nd ref="619250286"/>
    <nd ref="29376703"/>
    <nd ref="15164383"/>
    <tag k="highway" v="residential"/>
    <tag k="maxspeed" v="50"/>
    <tag k="maxspeed:source" v="default residential speed limit in Australia"/>
    <tag k="name" v="Cavendish Street"/>
  </way>
  <way id="48806432" version="1" timestamp="2010-01-24T15:02:46Z" uid="7617" user="Franc" changeset="3701870">
    <nd ref="109024518"/>
    <nd ref="29604080"/>
    <tag k="highway" v="residential"/>
    <tag k="lcn" v="yes"/>
    <tag k="lcn_ref" v="L5"/>
    <tag k="name" v="Holt Street"/>
  </way>
  <way id="48806432" version="2" timestamp="2010-07-08T02:55:33Z" uid="74617" user="JohnSmith" changeset="5163091">
    <nd ref="109024518"/>
    <nd ref="29604080"/>
    <tag k="highway" v="residential"/>
    <tag k="lcn" v="yes"/>
    <tag k="lcn_ref" v="L5"/>
    <tag k="maxspeed" v="50"/>
    <tag k="maxspeed:source" v="default residential speed limit in Australia"/>
    <tag k="name" v="Holt Street"/>
  </way>
  <way id="48806433" version="1" timestamp="2010-01-24T15:02:46Z" uid="7617" user="Franc" changeset="3701870">
    <nd ref="619250284"/>
    <nd ref="619250285"/>
    <nd ref="619250286"/>
    <tag k="highway" v="residential"/>
    <tag k="name" v="Cavendish Street"/>
    <tag k="restriction" v="school_zone"/>
  </way>
  <way id="48806433" version="2" timestamp="2010-07-08T02:53:25Z" uid="74617" user="JohnSmith" changeset="5163091">
    <nd ref="619250284"/>
    <nd ref="619250285"/>
    <nd ref="619250286"/>
    <tag k="highway" v="residential"/>
    <tag k="maxspeed" v="50"/>
    <tag k="maxspeed:source" v="default residential speed limit in Australia"/>
    <tag k="name" v="Cavendish Street"/>
    <tag k="restriction" v="school_zone"/>
  </way>
  <way id="48806434" version="1" timestamp="2010-01-24T15:02:46Z" uid="7617" user="Franc" changeset="3701870">
    <nd ref="619250281"/>
    <nd ref="12603340"/>
    <nd ref="32619307"/>
    <nd ref="12603357"/>
    <nd ref="299129189"/>
    <nd ref="252311358"/>
    <nd ref="29604080"/>
    <nd ref="619250282"/>
    <tag k="highway" v="primary"/>
    <tag k="name" v="Stanmore Road"/>
    <tag k="ref" v="S54"/>
    <tag k="restriction" v="school_zone"/>
  </way>
  <way id="48806434" version="2" timestamp="2010-04-01T17:17:37Z" uid="74617" user="JohnSmith" changeset="4295913">
    <nd ref="619250281"/>
    <nd ref="12603340"/>
    <nd ref="32619307"/>
    <nd ref="12603357"/>
    <nd ref="299129189"/>
    <nd ref="252311358"/>
    <nd ref="29604080"/>
    <nd ref="619250282"/>
    <tag k="highway" v="primary"/>
    <tag k="name" v="Stanmore Road"/>
    <tag k="restriction" v="school_zone"/>
  </way>
  <way id="48806434" version="3" timestamp="2010-07-12T10:07:23Z" uid="30201" user="rrankin" changeset="5197434">
    <nd ref="619250281"/>
    <nd ref="12603340"/>
    <nd ref="32619307"/>
    <nd ref="12603357"/>
    <nd ref="299129189"/>
    <nd ref="252311358"/>
    <nd ref="29604080"/>
    <nd ref="619250282"/>
    <tag k="highway" v="primary"/>
    <tag k="maxspeed" v="60"/>
    <tag k="name" v="Stanmore Road"/>
    <tag k="restriction" v="school_zone"/>
  </way>
  <way id="48806434" version="5" timestamp="2010-11-15T11:03:10Z" uid="7617" user="Franc" changeset="6376469">
    <nd ref="619250281"/>
    <nd ref="12603340"/>
    <nd ref="32619307"/>
    <nd ref="12603357"/>
    <nd ref="989975849"/>
    <nd ref="299129189"/>
    <nd ref="831418630"/>
    <nd ref="252311358"/>
    <nd ref="29604080"/>
    <nd ref="831418619"/>
    <nd ref="619250282"/>
    <tag k="highway" v="primary"/>
    <tag k="maxspeed" v="60"/>
    <tag k="name" v="Stanmore Road"/>
    <tag k="restriction" v="school_zone"/>
  </way>
  <way id="48806435" version="1" timestamp="2010-01-24T15:02:46Z" uid="7617" user="Franc" changeset="3701870">
    <nd ref="619250282"/>
    <nd ref="93303108"/>
    <tag k="highway" v="primary"/>
    <tag k="name" v="Stanmore Road"/>
    <tag k="ref" v="S54"/>
  </way>
  <way id="48806435" version="2" timestamp="2010-04-01T17:17:37Z" uid="74617" user="JohnSmith" changeset="4295913">
    <nd ref="619250282"/>
    <nd ref="93303108"/>
    <tag k="highway" v="primary"/>
    <tag k="name" v="Stanmore Road"/>
  </way>
  <way id="48806435" version="3" timestamp="2010-07-14T01:35:17Z" uid="30201" user="rrankin" changeset="5213603">
    <nd ref="619250282"/>
    <nd ref="93303108"/>
    <tag k="highway" v="primary"/>
    <tag k="maxspeed" v="60"/>
    <tag k="name" v="Stanmore Road"/>
  </way>
  <way id="48806436" version="1" timestamp="2010-01-24T15:02:46Z" uid="7617" user="Franc" changeset="3701870">
    <nd ref="619250289"/>
    <nd ref="266719768"/>
    <nd ref="83092259"/>
    <tag k="highway" v="footway"/>
    <tag k="lcn_ref" v="L5"/>
    <tag k="surface" v="paved"/>
  </way>
  <way id="48806436" version="2" timestamp="2010-01-26T07:15:46Z" uid="30201" user="rrankin" changeset="3717037">
    <nd ref="266719768"/>
    <nd ref="83092259"/>
    <tag k="highway" v="footway"/>
    <tag k="lcn_ref" v="L5"/>
    <tag k="surface" v="paved"/>
  </way>
  <way id="48806437" version="1" timestamp="2010-01-24T15:02:47Z" uid="7617" user="Franc" changeset="3701870">
    <nd ref="619250295"/>
    <nd ref="26363980"/>
    <tag k="highway" v="residential"/>
    <tag k="name" v="Cambridge Street"/>
    <tag k="restriction" v="school_zone"/>
    <tag k="source" v="survey"/>
  </way>
  <way id="48806437" version="2" timestamp="2010-07-07T22:10:41Z" uid="74617" user="JohnSmith" changeset="5161069">
    <nd ref="619250295"/>
    <nd ref="26363980"/>
    <tag k="highway" v="residential"/>
    <tag k="maxspeed" v="50"/>
    <tag k="maxspeed:source" v="default residential speed limit in Australia"/>
    <tag k="name" v="Cambridge Street"/>
    <tag k="restriction" v="school_zone"/>
    <tag k="source" v="survey"/>
  </way>
  <way id="48806438" version="1" timestamp="2010-01-24T15:02:47Z" uid="7617" user="Franc" changeset="3701870">
    <nd ref="619250297"/>
    <nd ref="26363980"/>
    <nd ref="619250294"/>
    <nd ref="619250296"/>
    <tag k="highway" v="secondary"/>
    <tag k="name" v="Liberty Street"/>
    <tag k="restriction" v="school_zone"/>
    <tag k="source" v="survey"/>
  </way>
  <way id="48806439" version="1" timestamp="2010-01-24T15:02:47Z" uid="7617" user="Franc" changeset="3701870">
    <nd ref="619250302"/>
    <nd ref="619250303"/>
    <nd ref="619250304"/>
    <nd ref="619250301"/>
    <nd ref="619250305"/>
    <nd ref="619250306"/>
    <nd ref="619250302"/>
    <tag k="leisure" v="playground"/>
    <tag k="source" v="nearmap"/>
  </way>
  <way id="48806440" version="1" timestamp="2010-01-24T15:02:47Z" uid="7617" user="Franc" changeset="3701870">
    <nd ref="49162545"/>
    <nd ref="619250300"/>
    <nd ref="26363942"/>
    <nd ref="619250299"/>
    <tag k="highway" v="secondary"/>
    <tag k="lcn_ref" v="L2"/>
    <tag k="name" v="Percival Road"/>
    <tag k="restriction" v="school_zone"/>
    <tag k="source" v="survey"/>
  </way>
  <way id="48806440" version="2" timestamp="2011-06-14T12:04:52Z" uid="7617" user="Franc" changeset="8436623">
    <nd ref="49162545"/>
    <nd ref="619250300"/>
    <nd ref="26363942"/>
    <nd ref="619250299"/>
    <tag k="highway" v="tertiary"/>
    <tag k="lcn_ref" v="L2"/>
    <tag k="name" v="Percival Road"/>
    <tag k="restriction" v="school_zone"/>
    <tag k="source" v="survey"/>
  </way>
  <way id="48806441" version="1" timestamp="2010-01-24T15:02:47Z" uid="7617" user="Franc" changeset="3701870">
    <nd ref="619250310"/>
    <nd ref="619250308"/>
    <nd ref="619250307"/>
    <tag k="highway" v="service"/>
    <tag k="source" v="nearmap"/>
  </way>
  <way id="48806441" version="3" timestamp="2010-11-18T10:15:51Z" uid="7617" user="Franc" changeset="6398783"/>
  <way id="48806442" version="1" timestamp="2010-01-24T15:02:47Z" uid="7617" user="Franc" changeset="3701870">
    <nd ref="619250308"/>
    <nd ref="619250309"/>
    <tag k="highway" v="service"/>
    <tag k="source" v="nearmap"/>
  </way>
  <way id="48806443" version="1" timestamp="2010-01-24T15:02:47Z" uid="7617" user="Franc" changeset="3701870">
    <nd ref="619250315"/>
    <nd ref="12226010"/>
    <tag k="highway" v="secondary"/>
    <tag k="name" v="Ross Street"/>
  </way>
  <way id="48806444" version="1" timestamp="2010-01-24T15:02:48Z" uid="7617" user="Franc" changeset="3701870">
    <nd ref="619250321"/>
    <nd ref="619250320"/>
    <nd ref="12226005"/>
    <tag k="highway" v="secondary"/>
    <tag k="name" v="Minogue Crescent"/>
    <tag k="restriction" v="school_zone"/>
  </way>
  <way id="48806444" version="2" timestamp="2011-04-08T10:35:32Z" uid="7617" user="Franc" changeset="7802806">
    <nd ref="619250321"/>
    <nd ref="619250320"/>
    <nd ref="1237084869"/>
    <nd ref="12226005"/>
    <tag k="highway" v="secondary"/>
    <tag k="name" v="Minogue Crescent"/>
    <tag k="restriction" v="school_zone"/>
  </way>
  <way id="48806445" version="1" timestamp="2010-01-24T15:02:48Z" uid="7617" user="Franc" changeset="3701870">
    <nd ref="619250322"/>
    <nd ref="263074683"/>
    <nd ref="47383817"/>
    <nd ref="263074722"/>
    <nd ref="120603789"/>
    <nd ref="30884304"/>
    <nd ref="11978140"/>
    <tag k="highway" v="secondary"/>
    <tag k="name" v="Bridge Road"/>
    <tag k="source" v="survey"/>
  </way>
  <way id="48806445" version="4" timestamp="2011-04-08T10:35:28Z" uid="7617" user="Franc" changeset="7802806">
    <nd ref="619250322"/>
    <nd ref="263074683"/>
    <nd ref="47383817"/>
    <nd ref="263074722"/>
    <nd ref="1237084868"/>
    <nd ref="120603789"/>
    <nd ref="30884304"/>
    <nd ref="11978140"/>
    <tag k="highway" v="primary"/>
    <tag k="lcn" v="yes"/>
    <tag k="name" v="Bridge Road"/>
    <tag k="source" v="survey"/>
  </way>
  <way id="48806659" version="1" timestamp="2010-01-24T15:06:29Z" uid="8619" user="cetest" changeset="3701903">
    <nd ref="248042790"/>
    <nd ref="619252533"/>
    <nd ref="619252535"/>
    <nd ref="619252537"/>
    <nd ref="619252538"/>
    <nd ref="619252541"/>
    <nd ref="619252542"/>
    <nd ref="619252544"/>
    <nd ref="619252546"/>
    <nd ref="619252548"/>
    <tag k="name" v="Ravine Sèche"/>
    <tag k="waterway" v="stream"/>
  </way>
  <way id="48806660" version="1" timestamp="2010-01-24T15:06:29Z" uid="8619" user="cetest" changeset="3701903">
    <nd ref="619252550"/>
    <nd ref="619252536"/>
    <nd ref="619252539"/>
    <nd ref="619252540"/>
    <nd ref="619252550"/>
    <tag k="man_made" v="works"/>
    <tag k="name" v="Gravière"/>
  </way>
</osm>
