<?xml version='1.0' encoding='UTF-8'?>
<osm version="0.6" generator="libosmium/2.20.0">
  <way id="48840087" version="3" timestamp="2010-07-08T16:55:11Z" uid="74617" user="JohnSmith" changeset="5167338">
    <nd ref="619586799"/>
    <nd ref="619588007"/>
    <nd ref="619586800"/>
    <tag k="highway" v="residential"/>
    <tag k="maxspeed" v="50"/>
    <tag k="maxspeed:source" v="default residential speed limit in Australia"/>
    <tag k="name" v="Fisher Street"/>
  </way>
  <way id="48840087" version="4" timestamp="2011-02-07T11:14:41Z" uid="4467" user="Rosscoe" changeset="7214726">
    <nd ref="619586799"/>
    <nd ref="619588007"/>
    <nd ref="619586800"/>
    <tag k="highway" v="residential"/>
    <tag k="maxspeed" v="50"/>
    <tag k="name" v="Fisher Street"/>
    <tag k="source:maxspeed" v="default residential speed limit in Australia"/>
  </way>
  <way id="48840105" version="2" timestamp="2010-07-08T16:54:49Z" uid="74617" user="JohnSmith" changeset="5167338">
    <nd ref="619587335"/>
    <nd ref="619587345"/>
    <tag k="highway" v="residential"/>
    <tag k="maxspeed" v="50"/>
    <tag k="maxspeed:source" v="default residential speed limit in Australia"/>
    <tag k="name" v="Orama Avenue"/>
  </way>
  <way id="48840105" version="3" timestamp="2011-02-07T11:15:28Z" uid="4467" user="Rosscoe" changeset="7214726">
    <nd ref="619587335"/>
    <nd ref="619587345"/>
    <tag k="highway" v="residential"/>
    <tag k="maxspeed" v="50"/>
    <tag k="name" v="Orama Avenue"/>
    <tag k="source:maxspeed" v="default residential speed limit in Australia"/>
  </way>
  <way id="48840128" version="2" timestamp="2010-07-08T16:56:22Z" uid="74617" user="JohnSmith" changeset="5167338">
    <nd ref="619588007"/>
    <nd ref="619588014"/>
    <nd ref="619588017"/>
    <nd ref="619588019"/>
    <nd ref="619588022"/>
    <nd ref="619588024"/>
    <nd ref="619588026"/>
    <nd ref="612112819"/>
    <tag k="highway" v="residential"/>
    <tag k="maxspeed" v="50"/>
    <tag k="maxspeed:source" v="default residential speed limit in Australia"/>
    <tag k="name" v="Bowden Street"/>
  </way>
  <way id="48840128" version="3" timestamp="2011-02-07T11:13:15Z" uid="4467" user="Rosscoe" changeset="7214726">
    <nd ref="619588007"/>
    <nd ref="619588014"/>
    <nd ref="619588017"/>
    <nd ref="619588019"/>
    <nd ref="619588022"/>
    <nd ref="619588024"/>
    <nd ref="619588026"/>
    <nd ref="612112819"/>
    <tag k="highway" v="residential"/>
    <tag k="maxspeed" v="50"/>
    <tag k="name" v="Bowden Street"/>
    <tag k="source:maxspeed" v="default residential speed limit in Australia"/>
  </way>
  <way id="48840199" version="7" timestamp="2010-03-23T11:46:36Z" uid="4467" user="Rosscoe" changeset="4211337">
    <nd ref="619718718"/>
    <nd ref="648896190"/>
    <nd ref="648896249"/>
    <nd ref="648896295"/>
    <nd ref="619587345"/>
    <nd ref="619586800"/>
    <nd ref="619590007"/>
    <nd ref="619590005"/>
    <nd ref="619590013"/>
    <tag k="highway" v="secondary"/>
    <tag k="name" v="Dowling Street"/>
  </way>
  <way id="48840199" version="8" timestamp="2010-03-24T07:00:29Z" uid="4467" user="Rosscoe" changeset="4218623">
    <nd ref="619718718"/>
    <nd ref="673064375"/>
    <nd ref="648896190"/>
    <nd ref="648896249"/>
    <nd ref="648896295"/>
    <nd ref="619587345"/>
    <nd ref="619586800"/>
    <nd ref="619590007"/>
    <nd ref="619590005"/>
    <nd ref="619590013"/>
    <tag k="highway" v="secondary"/>
    <tag k="name" v="Dowling Street"/>
  </way>
  <way id="48840199" version="9" timestamp="2010-03-24T07:10:50Z" uid="4467" user="Rosscoe" changeset="4218684">
    <nd ref="619718718"/>
    <nd ref="673064375"/>
    <nd ref="648896190"/>
    <nd ref="648896249"/>
    <nd ref="648896295"/>
    <nd ref="619587345"/>
    <nd ref="619586800"/>
    <nd ref="619590007"/>
    <tag k="highway" v="secondary"/>
    <tag k="name" v="Dowling Street"/>
    <tag k="source" v="survey"/>
  </way>
  <way id="48840269" version="2" timestamp="2010-07-08T16:55:46Z" uid="74617" user="JohnSmith" changeset="5167338">
    <nd ref="619591872"/>
    <nd ref="619591879"/>
    <tag k="highway" v="residential"/>
    <tag k="maxspeed" v="50"/>
    <tag k="maxspeed:source" v="default residential speed limit in Australia"/>
    <tag k="name" v="Lambert Street"/>
  </way>
  <way id="48840269" version="3" timestamp="2011-02-07T11:14:46Z" uid="4467" user="Rosscoe" changeset="7214726">
    <nd ref="619591872"/>
    <nd ref="619591879"/>
    <tag k="highway" v="residential"/>
    <tag k="maxspeed" v="50"/>
    <tag k="name" v="Lambert Street"/>
    <tag k="source:maxspeed" v="default residential speed limit in Australia"/>
  </way>
</osm>
