<?xml version='1.0' encoding='UTF-8'?>
<osm version="0.6" generator="libosmium/2.20.0">
  <way id="48905013" version="2" timestamp="2010-07-09T22:11:17Z" uid="74617" user="JohnSmith" changeset="5176956">
    <nd ref="47382892"/>
    <nd ref="587610969"/>
    <nd ref="587610970"/>
    <nd ref="47382893"/>
    <tag k="highway" v="residential"/>
    <tag k="maxspeed" v="50"/>
    <tag k="maxspeed:source" v="default residential speed limit in Australia"/>
    <tag k="name" v="Spicer Court"/>
  </way>
  <way id="48905312" version="3" timestamp="2010-06-19T09:37:30Z" uid="7617" user="Franc" changeset="5022166">
    <nd ref="26397654"/>
    <nd ref="775997152"/>
    <nd ref="26397655"/>
    <nd ref="775997147"/>
    <nd ref="30602997"/>
    <tag k="highway" v="motorway_link"/>
    <tag k="layer" v="-1"/>
    <tag k="maxspeed" v="60"/>
    <tag k="name" v="Prospect Highway Exit"/>
    <tag k="oneway" v="yes"/>
  </way>
  <way id="48905319" version="2" timestamp="2010-02-10T09:04:49Z" uid="7617" user="Franc" changeset="3838548">
    <nd ref="583239725"/>
    <nd ref="33888710"/>
    <nd ref="19123563"/>
    <nd ref="19123560"/>
    <nd ref="251851050"/>
    <nd ref="634823154"/>
    <nd ref="33298778"/>
    <nd ref="33681349"/>
    <tag k="highway" v="primary"/>
    <tag k="maxspeed" v="60"/>
    <tag k="name" v="Parramatta Road"/>
    <tag k="oneway" v="yes"/>
    <tag k="ref" v="S31"/>
  </way>
  <way id="48905319" version="3" timestamp="2010-04-01T17:25:21Z" uid="74617" user="JohnSmith" changeset="4295913">
    <nd ref="583239725"/>
    <nd ref="33888710"/>
    <nd ref="19123563"/>
    <nd ref="19123560"/>
    <nd ref="251851050"/>
    <nd ref="634823154"/>
    <nd ref="33298778"/>
    <nd ref="33681349"/>
    <tag k="highway" v="primary"/>
    <tag k="maxspeed" v="60"/>
    <tag k="name" v="Parramatta Road"/>
    <tag k="oneway" v="yes"/>
  </way>
  <way id="48905319" version="4" timestamp="2011-06-19T12:27:22Z" uid="7617" user="Franc" changeset="8483425">
    <nd ref="583239725"/>
    <nd ref="33888710"/>
    <nd ref="19123563"/>
    <tag k="highway" v="primary"/>
    <tag k="maxspeed" v="60"/>
    <tag k="name" v="Parramatta Road"/>
    <tag k="oneway" v="yes"/>
  </way>
  <way id="48905321" version="2" timestamp="2010-04-01T07:35:02Z" uid="74617" user="JohnSmith" changeset="4291360">
    <nd ref="21703109"/>
    <nd ref="32006351"/>
    <tag k="bicycle" v="no"/>
    <tag k="highway" v="motorway"/>
    <tag k="lanes" v="4"/>
    <tag k="maxspeed" v="90"/>
    <tag k="name" v="Western Motorway"/>
    <tag k="oneway" v="yes"/>
  </way>
  <way id="48905321" version="3" timestamp="2010-04-01T07:51:10Z" uid="74617" user="JohnSmith" changeset="4291360">
    <nd ref="21703109"/>
    <nd ref="32006351"/>
    <tag k="bicycle" v="no"/>
    <tag k="highway" v="motorway"/>
    <tag k="lanes" v="4"/>
    <tag k="maxspeed" v="90"/>
    <tag k="oneway" v="yes"/>
  </way>
  <way id="48905323" version="6" timestamp="2011-06-19T12:27:34Z" uid="7617" user="Franc" changeset="8483425">
    <nd ref="84423019"/>
    <nd ref="84418283"/>
    <nd ref="84418284"/>
    <nd ref="84418286"/>
    <nd ref="84418287"/>
    <nd ref="305543193"/>
    <nd ref="42601439"/>
    <nd ref="84418289"/>
    <nd ref="29377084"/>
    <nd ref="84419684"/>
    <tag k="bus_lane" v="Mo-Fr 06:00-10:00"/>
    <tag k="bus_lane:bicycle" v="yes"/>
    <tag k="highway" v="primary"/>
    <tag k="maxspeed" v="60"/>
    <tag k="name" v="Anzac Parade"/>
    <tag k="oneway" v="yes"/>
    <tag k="source" v="Yahoo Imagery;nearmap"/>
  </way>
  <way id="48905325" version="2" timestamp="2010-02-24T07:32:05Z" uid="7617" user="Franc" changeset="3960510">
    <nd ref="84421842"/>
    <nd ref="652380969"/>
    <nd ref="652380966"/>
    <nd ref="84417410"/>
    <nd ref="18319836"/>
    <tag k="highway" v="primary"/>
    <tag k="maxspeed" v="60"/>
    <tag k="name" v="Anzac Parade"/>
    <tag k="oneway" v="yes"/>
    <tag k="source" v="Yahoo Imagery"/>
  </way>
  <way id="48905650" version="2" timestamp="2010-04-06T15:37:33Z" uid="20587" user="balrog-kun" changeset="4342727">
    <nd ref="620610959"/>
    <nd ref="582157932"/>
    <nd ref="582157934"/>
    <nd ref="582157936"/>
    <nd ref="582157941"/>
    <nd ref="582157943"/>
    <nd ref="582157945"/>
    <nd ref="582157948"/>
    <nd ref="582157952"/>
    <nd ref="582157956"/>
    <nd ref="582157959"/>
    <nd ref="582157963"/>
    <nd ref="582157967"/>
    <nd ref="582157970"/>
    <nd ref="582157974"/>
    <nd ref="582157978"/>
    <nd ref="582157981"/>
    <nd ref="582157986"/>
    <nd ref="582157988"/>
    <nd ref="582157990"/>
    <nd ref="582157992"/>
    <nd ref="582157995"/>
    <nd ref="582157996"/>
    <nd ref="582157997"/>
    <nd ref="582157998"/>
    <nd ref="582158001"/>
    <nd ref="80175788"/>
    <tag k="highway" v="residential"/>
    <tag k="name" v="Brookdale Road"/>
  </way>
</osm>
