<?xml version='1.0' encoding='UTF-8'?>
<osm version="0.6" generator="libosmium/2.20.0">
  <way id="48955614" version="2" timestamp="2010-06-01T06:24:12Z" uid="4467" user="Rosscoe" changeset="4871997">
    <nd ref="621152577"/>
    <nd ref="621152579"/>
    <tag k="highway" v="residential"/>
    <tag k="name" v="Carstens Court"/>
  </way>
  <way id="48955614" version="3" timestamp="2010-07-06T18:05:31Z" uid="74617" user="JohnSmith" changeset="5152225">
    <nd ref="621152577"/>
    <nd ref="621152579"/>
    <tag k="highway" v="residential"/>
    <tag k="maxspeed" v="50"/>
    <tag k="maxspeed:source" v="default residential speed limit in Australia"/>
    <tag k="name" v="Carstens Court"/>
  </way>
  <way id="48955786" version="5" timestamp="2011-01-07T05:17:12Z" uid="4467" user="Rosscoe" changeset="6889518">
    <nd ref="621153923"/>
    <nd ref="230249302"/>
    <nd ref="230249282"/>
    <nd ref="230249260"/>
    <nd ref="230249245"/>
    <nd ref="230249222"/>
    <nd ref="412138134"/>
    <nd ref="230249183"/>
    <nd ref="621153925"/>
    <nd ref="230249176"/>
    <nd ref="230249154"/>
    <nd ref="230249135"/>
    <nd ref="35297627"/>
    <nd ref="230249117"/>
    <nd ref="230249093"/>
    <nd ref="230249067"/>
    <nd ref="230249044"/>
    <nd ref="230249032"/>
    <tag k="highway" v="trunk"/>
    <tag k="maxspeed" v="50"/>
    <tag k="name" v="New England Highway"/>
    <tag k="source" v="survey"/>
    <tag k="surface" v="asphalt"/>
  </way>
  <way id="48955787" version="3" timestamp="2010-07-25T22:01:29Z" uid="4467" user="Rosscoe" changeset="5317120">
    <nd ref="230249324"/>
    <nd ref="621153923"/>
    <tag k="bridge" v="yes"/>
    <tag k="fixme" v="check exact position of bridge"/>
    <tag k="highway" v="trunk"/>
    <tag k="layer" v="1"/>
    <tag k="name" v="New England Highway"/>
    <tag k="source" v="voice"/>
  </way>
  <way id="48955791" version="2" timestamp="2011-01-07T05:17:13Z" uid="4467" user="Rosscoe" changeset="6889518">
    <nd ref="621153936"/>
    <nd ref="621153938"/>
    <nd ref="230249183"/>
    <tag k="highway" v="residential"/>
    <tag k="name" v="Thomas Street"/>
    <tag k="source" v="survey"/>
    <tag k="surface" v="unpaved"/>
  </way>
  <way id="48955795" version="2" timestamp="2011-01-07T05:17:13Z" uid="4467" user="Rosscoe" changeset="6889518">
    <nd ref="440561730"/>
    <nd ref="621153944"/>
    <nd ref="1087777162"/>
    <nd ref="1087776989"/>
    <nd ref="1087776936"/>
    <tag k="highway" v="residential"/>
    <tag k="source" v="voice"/>
    <tag k="surface" v="asphalt"/>
  </way>
  <way id="48955797" version="2" timestamp="2011-01-07T05:17:13Z" uid="4467" user="Rosscoe" changeset="6889518">
    <nd ref="621153946"/>
    <nd ref="547989294"/>
    <nd ref="621153947"/>
    <tag k="highway" v="residential"/>
    <tag k="name" v="Wellington Street"/>
    <tag k="source" v="survey"/>
    <tag k="surface" v="asphalt"/>
  </way>
  <way id="48955800" version="2" timestamp="2011-01-07T05:17:14Z" uid="4467" user="Rosscoe" changeset="6889518">
    <nd ref="621153948"/>
    <nd ref="621153953"/>
    <nd ref="621153947"/>
    <nd ref="621153936"/>
    <tag k="highway" v="residential"/>
    <tag k="name" v="Thomas Street"/>
    <tag k="source" v="survey"/>
    <tag k="surface" v="asphalt"/>
  </way>
</osm>
