<?xml version='1.0' encoding='UTF-8'?>
<osm version="0.6" generator="libosmium/2.20.0">
  <way id="48953673" version="2" timestamp="2010-05-27T14:48:38Z" uid="4467" user="Rosscoe" changeset="4822768">
    <nd ref="621128083"/>
    <nd ref="621128084"/>
    <nd ref="621128085"/>
    <nd ref="621128086"/>
    <nd ref="621128087"/>
    <nd ref="621128088"/>
    <nd ref="621128089"/>
    <nd ref="621128090"/>
    <nd ref="621128091"/>
    <nd ref="621128092"/>
    <nd ref="621128093"/>
    <nd ref="621128094"/>
    <nd ref="621128095"/>
    <tag k="highway" v="residential"/>
    <tag k="name" v="Janal Place"/>
  </way>
  <way id="48953673" version="3" timestamp="2010-07-06T18:04:51Z" uid="74617" user="JohnSmith" changeset="5152225">
    <nd ref="621128083"/>
    <nd ref="621128084"/>
    <nd ref="621128085"/>
    <nd ref="621128086"/>
    <nd ref="621128087"/>
    <nd ref="621128088"/>
    <nd ref="621128089"/>
    <nd ref="621128090"/>
    <nd ref="621128091"/>
    <nd ref="621128092"/>
    <nd ref="621128093"/>
    <nd ref="621128094"/>
    <nd ref="621128095"/>
    <tag k="highway" v="residential"/>
    <tag k="maxspeed" v="50"/>
    <tag k="maxspeed:source" v="default residential speed limit in Australia"/>
    <tag k="name" v="Janal Place"/>
  </way>
  <way id="48953674" version="2" timestamp="2010-05-27T14:48:51Z" uid="4467" user="Rosscoe" changeset="4822768">
    <nd ref="621128096"/>
    <nd ref="621128097"/>
    <tag k="highway" v="residential"/>
    <tag k="name" v="Thunder Drive"/>
  </way>
  <way id="48953674" version="3" timestamp="2010-07-06T18:01:21Z" uid="74617" user="JohnSmith" changeset="5152225">
    <nd ref="621128096"/>
    <nd ref="621128097"/>
    <tag k="highway" v="residential"/>
    <tag k="maxspeed" v="50"/>
    <tag k="maxspeed:source" v="default residential speed limit in Australia"/>
    <tag k="name" v="Thunder Drive"/>
  </way>
  <way id="48953675" version="2" timestamp="2010-05-27T14:47:28Z" uid="4467" user="Rosscoe" changeset="4822768">
    <nd ref="621128098"/>
    <nd ref="621128099"/>
    <nd ref="621128100"/>
    <nd ref="621128101"/>
    <nd ref="621128102"/>
    <nd ref="621128103"/>
    <nd ref="621128104"/>
    <tag k="highway" v="residential"/>
    <tag k="name" v="Ajax Court"/>
  </way>
  <way id="48953675" version="3" timestamp="2010-07-06T17:59:30Z" uid="74617" user="JohnSmith" changeset="5152225">
    <nd ref="621128098"/>
    <nd ref="621128099"/>
    <nd ref="621128100"/>
    <nd ref="621128101"/>
    <nd ref="621128102"/>
    <nd ref="621128103"/>
    <nd ref="621128104"/>
    <tag k="highway" v="residential"/>
    <tag k="maxspeed" v="50"/>
    <tag k="maxspeed:source" v="default residential speed limit in Australia"/>
    <tag k="name" v="Ajax Court"/>
  </way>
  <way id="48953676" version="2" timestamp="2010-05-27T14:48:33Z" uid="4467" user="Rosscoe" changeset="4822768">
    <nd ref="621128105"/>
    <nd ref="621128106"/>
    <nd ref="621128107"/>
    <nd ref="621128108"/>
    <tag k="highway" v="residential"/>
    <tag k="name" v="Rodburn Drive"/>
  </way>
  <way id="48953676" version="3" timestamp="2010-07-06T18:05:23Z" uid="74617" user="JohnSmith" changeset="5152225">
    <nd ref="621128105"/>
    <nd ref="621128106"/>
    <nd ref="621128107"/>
    <nd ref="621128108"/>
    <tag k="highway" v="residential"/>
    <tag k="maxspeed" v="50"/>
    <tag k="maxspeed:source" v="default residential speed limit in Australia"/>
    <tag k="name" v="Rodburn Drive"/>
  </way>
  <way id="48953677" version="2" timestamp="2010-06-01T06:32:44Z" uid="4467" user="Rosscoe" changeset="4872033">
    <nd ref="621128109"/>
    <nd ref="621128110"/>
    <tag k="highway" v="residential"/>
    <tag k="name" v="Holst Place"/>
  </way>
  <way id="48953677" version="3" timestamp="2010-07-06T18:03:20Z" uid="74617" user="JohnSmith" changeset="5152225">
    <nd ref="621128109"/>
    <nd ref="621128110"/>
    <tag k="highway" v="residential"/>
    <tag k="maxspeed" v="50"/>
    <tag k="maxspeed:source" v="default residential speed limit in Australia"/>
    <tag k="name" v="Holst Place"/>
  </way>
</osm>
