<?xml version='1.0' encoding='UTF-8'?>
<osm version="0.6" generator="libosmium/2.20.0">
  <way id="48998075" version="2" timestamp="2010-07-09T07:45:53Z" uid="74617" user="JohnSmith" changeset="5171569">
    <nd ref="621893044"/>
    <nd ref="427964494"/>
    <nd ref="571469084"/>
    <nd ref="427964502"/>
    <nd ref="427964503"/>
    <nd ref="427964493"/>
    <nd ref="427964504"/>
    <nd ref="427964505"/>
    <nd ref="427964506"/>
    <nd ref="621893042"/>
    <tag k="highway" v="residential"/>
    <tag k="maxspeed" v="50"/>
    <tag k="maxspeed:source" v="default residential speed limit in Australia"/>
    <tag k="name" v="Vista Close"/>
    <tag k="source" v="survey"/>
  </way>
  <way id="48998126" version="2" timestamp="2010-03-28T11:45:26Z" uid="20587" user="balrog-kun" changeset="4254597">
    <nd ref="621893866"/>
    <nd ref="621893883"/>
    <nd ref="621893880"/>
    <tag k="highway" v="track"/>
    <tag k="name" v="198th Street East"/>
    <tag k="tiger:cfcc" v="A41"/>
    <tag k="tiger:county" v="Los Angeles, CA"/>
    <tag k="tiger:name_base" v="198th"/>
    <tag k="tiger:name_direction_suffix" v="E"/>
    <tag k="tiger:name_type" v="St"/>
    <tag k="tiger:separated" v="no"/>
    <tag k="tiger:source" v="tiger_import_dch_v0.6_20070809"/>
    <tag k="tiger:tlid" v="142672026:141850987"/>
    <tag k="tiger:zip_left" v="93544"/>
    <tag k="tiger:zip_right" v="93544"/>
  </way>
  <way id="48998127" version="2" timestamp="2010-03-28T11:45:26Z" uid="20587" user="balrog-kun" changeset="4254597">
    <nd ref="621893877"/>
    <nd ref="621893876"/>
    <nd ref="621893866"/>
    <nd ref="621893878"/>
    <nd ref="621893928"/>
    <tag k="highway" v="track"/>
    <tag k="name" v="Avenue V-4"/>
  </way>
  <way id="48998128" version="2" timestamp="2010-03-28T11:45:26Z" uid="20587" user="balrog-kun" changeset="4254597">
    <nd ref="621893907"/>
    <nd ref="621893896"/>
    <nd ref="621893892"/>
    <nd ref="621893879"/>
    <nd ref="621893884"/>
    <nd ref="621893878"/>
    <nd ref="621893858"/>
    <tag k="highway" v="track"/>
    <tag k="name" v="200th Street East"/>
    <tag k="source" v="yahoo_imagery;LACA"/>
    <tag k="source_ref" v="ABK3081-022"/>
  </way>
  <way id="48998129" version="2" timestamp="2010-03-28T11:45:26Z" uid="20587" user="balrog-kun" changeset="4254597">
    <nd ref="621893858"/>
    <nd ref="621893923"/>
    <nd ref="621893929"/>
    <nd ref="621893930"/>
    <tag k="highway" v="track"/>
    <tag k="name" v="Avenue V-6"/>
  </way>
  <way id="48998130" version="2" timestamp="2010-03-28T11:45:26Z" uid="20587" user="balrog-kun" changeset="4254597">
    <nd ref="621893908"/>
    <nd ref="621893909"/>
    <nd ref="621893910"/>
    <nd ref="621893912"/>
    <nd ref="621893913"/>
    <nd ref="621893903"/>
    <nd ref="621893901"/>
    <nd ref="621893893"/>
    <nd ref="621893881"/>
    <nd ref="621893882"/>
    <nd ref="621893877"/>
    <tag k="highway" v="track"/>
    <tag k="name" v="197th Street East"/>
  </way>
  <way id="48998131" version="3" timestamp="2010-03-28T11:45:26Z" uid="20587" user="balrog-kun" changeset="4254597">
    <nd ref="621893931"/>
    <nd ref="621893935"/>
    <nd ref="621893933"/>
    <nd ref="621893934"/>
    <nd ref="621893879"/>
    <nd ref="621893880"/>
    <nd ref="621893881"/>
    <nd ref="621893865"/>
    <nd ref="621893864"/>
    <nd ref="621893859"/>
    <nd ref="621893860"/>
    <nd ref="621893861"/>
    <nd ref="622249339"/>
    <nd ref="622249340"/>
    <nd ref="621893810"/>
    <nd ref="621893811"/>
    <nd ref="621893812"/>
    <nd ref="621893795"/>
    <nd ref="621893796"/>
    <nd ref="621893797"/>
    <nd ref="621893798"/>
    <nd ref="621893799"/>
    <nd ref="621893800"/>
    <nd ref="621893801"/>
    <nd ref="621893802"/>
    <nd ref="621893803"/>
    <nd ref="621893804"/>
    <nd ref="621893805"/>
    <nd ref="621893806"/>
    <nd ref="621893807"/>
    <nd ref="621893808"/>
    <nd ref="621893809"/>
    <nd ref="621893787"/>
    <nd ref="621893788"/>
    <nd ref="621893789"/>
    <nd ref="621893790"/>
    <nd ref="621893791"/>
    <nd ref="621893792"/>
    <nd ref="621893793"/>
    <nd ref="621893794"/>
    <tag k="highway" v="track"/>
    <tag k="name" v="Avenue V"/>
  </way>
  <way id="48998132" version="2" timestamp="2010-03-28T11:45:27Z" uid="20587" user="balrog-kun" changeset="4254597">
    <nd ref="621893882"/>
    <nd ref="621893883"/>
    <nd ref="621893884"/>
    <nd ref="621893932"/>
    <tag k="highway" v="track"/>
    <tag k="name" v="Avenue V-2"/>
  </way>
  <way id="48998133" version="2" timestamp="2010-03-28T11:45:27Z" uid="20587" user="balrog-kun" changeset="4254597">
    <nd ref="621893936"/>
    <nd ref="621893949"/>
    <nd ref="621893941"/>
    <nd ref="621893947"/>
    <nd ref="621893892"/>
    <nd ref="621893894"/>
    <nd ref="621893893"/>
    <nd ref="621893886"/>
    <nd ref="621893885"/>
    <tag k="highway" v="track"/>
    <tag k="name" v="Avenue U-14"/>
  </way>
  <way id="48998135" version="2" timestamp="2010-03-28T11:45:27Z" uid="20587" user="balrog-kun" changeset="4254597">
    <nd ref="621893904"/>
    <nd ref="315088302"/>
    <nd ref="621639662"/>
    <nd ref="621639661"/>
    <nd ref="621639660"/>
    <nd ref="621639659"/>
    <nd ref="122822177"/>
    <nd ref="621639666"/>
    <nd ref="621639667"/>
    <nd ref="621639668"/>
    <nd ref="621639665"/>
    <nd ref="621639664"/>
    <nd ref="621639663"/>
    <nd ref="123453163"/>
    <nd ref="123453171"/>
    <nd ref="621639697"/>
    <nd ref="123160432"/>
    <nd ref="123453176"/>
    <nd ref="621639718"/>
    <nd ref="122943514"/>
    <nd ref="621639721"/>
    <nd ref="621639722"/>
    <nd ref="621639723"/>
    <nd ref="621639720"/>
    <nd ref="621639724"/>
    <nd ref="621639725"/>
    <nd ref="621639719"/>
    <nd ref="621639728"/>
    <nd ref="621639729"/>
    <nd ref="621639727"/>
    <nd ref="621639726"/>
    <nd ref="621639734"/>
    <nd ref="621639735"/>
    <nd ref="621639736"/>
    <nd ref="621639737"/>
    <nd ref="621639733"/>
    <nd ref="123453184"/>
    <tag k="highway" v="track"/>
    <tag k="name" v="195th Street East"/>
    <tag k="tiger:cfcc" v="A41"/>
    <tag k="tiger:county" v="Los Angeles, CA"/>
    <tag k="tiger:name_base" v="195th"/>
    <tag k="tiger:name_direction_suffix" v="E"/>
    <tag k="tiger:name_type" v="St"/>
    <tag k="tiger:reviewed" v="no"/>
    <tag k="tiger:separated" v="no"/>
    <tag k="tiger:source" v="tiger_import_dch_v0.6_20070809"/>
    <tag k="tiger:tlid" v="141825655:141826016:142672002:141825966:141825967:141515291"/>
  </way>
  <way id="48998136" version="2" timestamp="2010-03-28T11:45:27Z" uid="20587" user="balrog-kun" changeset="4254597">
    <nd ref="621893905"/>
    <nd ref="621893906"/>
    <nd ref="621893912"/>
    <tag k="highway" v="track"/>
    <tag k="name" v="Avenue U-8"/>
  </way>
  <way id="48998137" version="2" timestamp="2010-03-28T11:45:27Z" uid="20587" user="balrog-kun" changeset="4254597">
    <nd ref="621893913"/>
    <nd ref="621893918"/>
    <nd ref="621893914"/>
    <nd ref="621893915"/>
    <nd ref="621893916"/>
    <nd ref="621893907"/>
    <nd ref="621893945"/>
    <nd ref="621893937"/>
    <nd ref="621893938"/>
    <tag k="highway" v="track"/>
    <tag k="name" v="Antelope Highway"/>
    <tag k="old_name" v="Ave U-8"/>
  </way>
  <way id="48998138" version="2" timestamp="2010-03-28T11:45:27Z" uid="20587" user="balrog-kun" changeset="4254597">
    <nd ref="621893917"/>
    <nd ref="621893952"/>
    <nd ref="621893951"/>
    <tag k="highway" v="track"/>
    <tag k="name" v="Avenue U-8"/>
    <tag k="source" v="yahoo_imagery;LACA"/>
    <tag k="source_ref" v="ABK3081-022"/>
  </way>
  <way id="48998139" version="2" timestamp="2010-03-28T11:45:27Z" uid="20587" user="balrog-kun" changeset="4254597">
    <nd ref="621893945"/>
    <nd ref="621893944"/>
    <nd ref="621893943"/>
    <nd ref="621893942"/>
    <nd ref="621893952"/>
    <nd ref="621893953"/>
    <nd ref="621893954"/>
    <nd ref="621893955"/>
    <nd ref="621893956"/>
    <tag k="highway" v="track"/>
    <tag k="name" v="Pequot Avenue"/>
    <tag k="source" v="yahoo_imagery;LACA"/>
    <tag k="source_ref" v="ABK3081-022"/>
  </way>
  <way id="48998140" version="2" timestamp="2010-03-28T11:45:27Z" uid="20587" user="balrog-kun" changeset="4254597">
    <nd ref="621893918"/>
    <nd ref="621893897"/>
    <nd ref="621893898"/>
    <nd ref="621893899"/>
    <nd ref="621893900"/>
    <tag k="highway" v="track"/>
    <tag k="name" v="Samaria Avenue"/>
    <tag k="source" v="yahoo_imagery;LACA"/>
    <tag k="source_ref" v="ABK3081-022"/>
  </way>
  <way id="48998141" version="2" timestamp="2010-03-28T11:45:28Z" uid="20587" user="balrog-kun" changeset="4254597">
    <nd ref="621893902"/>
    <nd ref="621893894"/>
    <tag k="highway" v="track"/>
    <tag k="name" v="198th Street East"/>
  </way>
  <way id="48998142" version="2" timestamp="2010-03-28T11:45:28Z" uid="20587" user="balrog-kun" changeset="4254597">
    <nd ref="621893823"/>
    <nd ref="621893826"/>
    <nd ref="621893843"/>
    <tag k="highway" v="track"/>
    <tag k="name" v="200th Street East"/>
  </way>
  <way id="48998143" version="2" timestamp="2010-03-28T11:45:28Z" uid="20587" user="balrog-kun" changeset="4254597">
    <nd ref="621893906"/>
    <nd ref="621893890"/>
    <nd ref="621893888"/>
    <nd ref="621893886"/>
    <nd ref="621893865"/>
    <tag k="highway" v="track"/>
    <tag k="name" v="196th Street East"/>
  </way>
  <way id="48998144" version="2" timestamp="2010-03-28T11:45:28Z" uid="20587" user="balrog-kun" changeset="4254597">
    <nd ref="621893946"/>
    <nd ref="621893947"/>
    <nd ref="621893934"/>
    <tag k="highway" v="track"/>
    <tag k="name" v="201st Street East"/>
  </way>
  <way id="48998145" version="2" timestamp="2010-03-28T11:45:29Z" uid="20587" user="balrog-kun" changeset="4254597">
    <nd ref="621893948"/>
    <nd ref="621893949"/>
    <nd ref="621893935"/>
    <tag k="highway" v="track"/>
    <tag k="name" v="203rd Street East"/>
  </way>
  <way id="48998146" version="2" timestamp="2010-03-28T11:45:29Z" uid="20587" user="balrog-kun" changeset="4254597">
    <nd ref="621460584"/>
    <nd ref="621893948"/>
    <nd ref="621893940"/>
    <nd ref="621893946"/>
    <nd ref="621893896"/>
    <nd ref="621893902"/>
    <nd ref="621893900"/>
    <nd ref="621893901"/>
    <nd ref="621893888"/>
    <nd ref="621893887"/>
    <tag k="highway" v="track"/>
    <tag k="name" v="Avenue U-12"/>
    <tag k="source" v="yahoo_imagery;LACA"/>
    <tag k="source_ref" v="ABK3081-023"/>
  </way>
  <way id="48998147" version="2" timestamp="2010-03-28T11:45:29Z" uid="20587" user="balrog-kun" changeset="4254597">
    <nd ref="621893814"/>
    <nd ref="621893815"/>
    <nd ref="621893827"/>
    <nd ref="621893825"/>
    <nd ref="621893826"/>
    <nd ref="621893919"/>
    <nd ref="621893920"/>
    <nd ref="621893921"/>
    <nd ref="621893922"/>
    <tag k="highway" v="track"/>
    <tag k="name" v="Avenue V-14"/>
  </way>
  <way id="48998148" version="2" timestamp="2010-03-28T11:45:29Z" uid="20587" user="balrog-kun" changeset="4254597">
    <nd ref="621893785"/>
    <nd ref="621893824"/>
    <tag k="highway" v="track"/>
    <tag k="name" v="197th Street East"/>
  </way>
  <way id="48998149" version="2" timestamp="2010-03-28T11:45:29Z" uid="20587" user="balrog-kun" changeset="4254597">
    <nd ref="621893827"/>
    <nd ref="621893828"/>
    <tag k="highway" v="track"/>
    <tag k="name" v="197th Street East"/>
  </way>
  <way id="48998150" version="2" timestamp="2010-03-28T11:45:29Z" uid="20587" user="balrog-kun" changeset="4254597">
    <nd ref="621893889"/>
    <nd ref="621893890"/>
    <nd ref="621893903"/>
    <tag k="highway" v="track"/>
    <tag k="name" v="Avenue U-10"/>
  </way>
  <way id="48998151" version="2" timestamp="2010-03-28T11:45:29Z" uid="20587" user="balrog-kun" changeset="4254597">
    <nd ref="621893924"/>
    <nd ref="621893925"/>
    <nd ref="621893926"/>
    <nd ref="621893927"/>
    <tag k="highway" v="track"/>
    <tag k="name" v="Avenue V-10"/>
  </way>
  <way id="48998152" version="2" timestamp="2010-03-28T11:45:29Z" uid="20587" user="balrog-kun" changeset="4254597">
    <nd ref="621893938"/>
    <nd ref="621893939"/>
    <nd ref="621893940"/>
    <nd ref="621893941"/>
    <nd ref="621893933"/>
    <tag k="highway" v="track"/>
    <tag k="name" v="202nd Street East"/>
  </way>
</osm>
