<?xml version='1.0' encoding='UTF-8'?>
<osm version="0.6" generator="libosmium/2.20.0">
  <way id="49155279" version="1" timestamp="2010-01-30T18:42:26Z" uid="9581" user="Lobelt" changeset="3753654">
    <nd ref="623504182"/>
    <nd ref="623504170"/>
    <nd ref="394765526"/>
    <nd ref="394765528"/>
    <nd ref="394765529"/>
    <nd ref="394765530"/>
    <nd ref="394765531"/>
    <tag k="name" v="Pößnitz"/>
    <tag k="waterway" v="stream"/>
  </way>
  <way id="49155280" version="1" timestamp="2010-01-30T18:42:26Z" uid="9581" user="Lobelt" changeset="3753654">
    <nd ref="623504180"/>
    <nd ref="623504182"/>
    <tag k="layer" v="-1"/>
    <tag k="name" v="Pößnitz"/>
    <tag k="tunnel" v="yes"/>
    <tag k="waterway" v="stream"/>
  </way>
  <way id="49155849" version="4" timestamp="2010-04-04T01:33:41Z" uid="20587" user="balrog-kun" changeset="4318254">
    <nd ref="511211158"/>
    <nd ref="511211161"/>
    <tag k="bridge" v="yes"/>
    <tag k="highway" v="residential"/>
    <tag k="layer" v="1"/>
    <tag k="name" v="East Hunton Creek Road"/>
    <tag k="tiger:cfcc" v="A41"/>
    <tag k="tiger:county" v="Platte, WY"/>
    <tag k="tiger:name_base" v="Hunton Creek"/>
    <tag k="tiger:name_direction_prefix" v="E"/>
    <tag k="tiger:name_type" v="Rd"/>
    <tag k="tiger:reviewed" v="aerial"/>
    <tag k="tiger:separated" v="no"/>
    <tag k="tiger:source" v="tiger_import_dch_v0.6_20070830"/>
    <tag k="tiger:tlid" v="160423666"/>
  </way>
  <way id="49155851" version="2" timestamp="2010-04-04T01:33:41Z" uid="20587" user="balrog-kun" changeset="4318254">
    <nd ref="511211161"/>
    <nd ref="157959031"/>
    <nd ref="157937344"/>
    <tag k="highway" v="residential"/>
    <tag k="name" v="East Hunton Creek Road"/>
    <tag k="tiger:cfcc" v="A41"/>
    <tag k="tiger:county" v="Platte, WY"/>
    <tag k="tiger:name_base" v="Hunton Creek"/>
    <tag k="tiger:name_direction_prefix" v="E"/>
    <tag k="tiger:name_type" v="Rd"/>
    <tag k="tiger:reviewed" v="aerial"/>
    <tag k="tiger:separated" v="no"/>
    <tag k="tiger:source" v="tiger_import_dch_v0.6_20070830"/>
    <tag k="tiger:tlid" v="160423666"/>
  </way>
  <way id="49155857" version="4" timestamp="2011-03-13T19:49:34Z" uid="16922" user="amai" changeset="7549540">
    <nd ref="623509046"/>
    <nd ref="623509043"/>
    <nd ref="623426481"/>
    <nd ref="623509048"/>
    <nd ref="1200639648"/>
    <nd ref="623509050"/>
    <nd ref="623509052"/>
    <nd ref="623509055"/>
    <nd ref="623509057"/>
    <nd ref="623509058"/>
    <nd ref="623509060"/>
    <nd ref="623534841"/>
    <nd ref="717484822"/>
    <nd ref="623509097"/>
    <nd ref="623509099"/>
    <nd ref="623509101"/>
    <nd ref="623509102"/>
    <nd ref="623509103"/>
    <nd ref="623509104"/>
    <nd ref="623509106"/>
    <nd ref="623509087"/>
    <nd ref="623426513"/>
    <nd ref="623509089"/>
    <nd ref="623509091"/>
    <nd ref="623509093"/>
    <nd ref="623509095"/>
    <nd ref="623509065"/>
    <nd ref="623509067"/>
    <nd ref="623509069"/>
    <nd ref="623509071"/>
    <nd ref="623509073"/>
    <nd ref="623509075"/>
    <nd ref="623509077"/>
    <nd ref="623509079"/>
    <nd ref="623509081"/>
    <nd ref="623509083"/>
    <nd ref="623509085"/>
    <tag k="highway" v="tertiary"/>
    <tag k="name" v="ถนนเพชรเจริญ"/>
    <tag k="name:en" v="Thanon Petch Charoen"/>
    <tag k="name:th" v="ถนนเพชรเจริญ"/>
    <tag k="ref" v="2275"/>
  </way>
</osm>
