<?xml version='1.0' encoding='UTF-8'?>
<osm version="0.6" generator="libosmium/2.20.0">
  <way id="4925045" version="5" timestamp="2010-04-22T15:54:27Z" uid="6269" user="Mueck" changeset="4496191">
    <nd ref="21593570"/>
    <nd ref="496277119"/>
    <nd ref="496277131"/>
    <nd ref="21593563"/>
    <nd ref="496277129"/>
    <nd ref="50712410"/>
    <nd ref="496277128"/>
    <nd ref="21593564"/>
    <nd ref="496277126"/>
    <nd ref="21593565"/>
    <nd ref="496277125"/>
    <nd ref="21593566"/>
    <nd ref="496277123"/>
    <nd ref="21593567"/>
    <nd ref="496277122"/>
    <nd ref="21593568"/>
    <nd ref="496277130"/>
    <nd ref="496277121"/>
    <nd ref="21593569"/>
    <nd ref="496277120"/>
    <nd ref="21593570"/>
    <tag k="highway" v="primary"/>
    <tag k="junction" v="roundabout"/>
    <tag k="maxspeed" v="50"/>
    <tag k="motorroad" v="no"/>
  </way>
  <way id="4925153" version="1" timestamp="2007-08-05T21:15:35Z" uid="6975" user="ulfl" changeset="192961">
    <nd ref="29812335"/>
    <nd ref="29812336"/>
    <nd ref="29812337"/>
    <nd ref="29812338"/>
    <tag k="created_by" v="JOSM"/>
    <tag k="highway" v="residential"/>
    <tag k="name" v="Egidienplatz"/>
  </way>
  <way id="4925154" version="1" timestamp="2007-08-10T19:02:50Z" uid="6975" user="ulfl" changeset="202059">
    <nd ref="32329035"/>
    <nd ref="21643422"/>
    <nd ref="31344592"/>
    <tag k="created_by" v="JOSM"/>
    <tag k="highway" v="residential"/>
    <tag k="name" v="Sieben Zeilen"/>
    <tag k="oneway" v="true"/>
  </way>
  <way id="4925154" version="7" timestamp="2010-06-25T16:02:51Z" uid="49111" user="Markus B" changeset="5074896">
    <nd ref="31344592"/>
    <nd ref="790046345"/>
    <nd ref="340128165"/>
    <nd ref="790046342"/>
    <nd ref="31344588"/>
    <nd ref="340128160"/>
    <nd ref="790046334"/>
    <nd ref="790046335"/>
    <nd ref="33588852"/>
    <nd ref="790046336"/>
    <nd ref="340128158"/>
    <nd ref="31344589"/>
    <nd ref="340128155"/>
    <nd ref="340128153"/>
    <nd ref="162328007"/>
    <nd ref="340128151"/>
    <nd ref="31344591"/>
    <nd ref="128163113"/>
    <nd ref="31344593"/>
    <nd ref="21643423"/>
    <nd ref="340128150"/>
    <nd ref="340128152"/>
    <nd ref="32329035"/>
    <nd ref="340128154"/>
    <nd ref="340128156"/>
    <nd ref="21643422"/>
    <nd ref="340128159"/>
    <nd ref="31344592"/>
    <tag k="highway" v="residential"/>
    <tag k="name" v="Webersplatz"/>
    <tag k="oneway" v="yes"/>
  </way>
  <way id="4925154" version="8" timestamp="2010-06-26T09:30:22Z" uid="49111" user="Markus B" changeset="5079533">
    <nd ref="31344592"/>
    <nd ref="790046345"/>
    <nd ref="340128165"/>
    <nd ref="790046342"/>
    <nd ref="31344588"/>
    <nd ref="340128160"/>
    <nd ref="790046334"/>
    <nd ref="790046335"/>
    <nd ref="33588852"/>
    <nd ref="790046336"/>
    <nd ref="340128158"/>
    <nd ref="31344589"/>
    <nd ref="340128155"/>
    <nd ref="340128153"/>
    <nd ref="162328007"/>
    <nd ref="340128151"/>
    <nd ref="128163113"/>
    <nd ref="790874341"/>
    <nd ref="31344593"/>
    <nd ref="790874343"/>
    <nd ref="21643423"/>
    <nd ref="340128150"/>
    <nd ref="340128152"/>
    <nd ref="32329035"/>
    <nd ref="340128154"/>
    <nd ref="340128156"/>
    <nd ref="21643422"/>
    <nd ref="340128159"/>
    <nd ref="31344592"/>
    <tag k="highway" v="residential"/>
    <tag k="name" v="Webersplatz"/>
    <tag k="oneway" v="yes"/>
  </way>
  <way id="4925164" version="3" timestamp="2009-05-29T10:06:47Z" uid="6269" user="Mueck" changeset="1349546">
    <nd ref="32329091"/>
    <nd ref="408740817"/>
    <tag k="bridge" v="yes"/>
    <tag k="created_by" v="JOSM"/>
    <tag k="highway" v="tertiary"/>
    <tag k="layer" v="2"/>
    <tag k="name" v="Sankt-Lorenz-Brücke"/>
  </way>
  <way id="4925218" version="1" timestamp="2007-07-19T17:37:59Z" uid="6454" user="B10xxx" changeset="153411">
    <nd ref="32329553"/>
    <nd ref="32329566"/>
    <nd ref="32329562"/>
    <nd ref="32329557"/>
    <nd ref="32329554"/>
    <nd ref="32329561"/>
    <nd ref="32329565"/>
    <nd ref="32329555"/>
    <nd ref="32329558"/>
    <nd ref="32329560"/>
    <nd ref="32329564"/>
    <nd ref="32329552"/>
    <nd ref="32329567"/>
    <nd ref="32329563"/>
    <nd ref="32329559"/>
    <nd ref="32329556"/>
    <nd ref="32329553"/>
    <tag k="created_by" v="JOSM"/>
    <tag k="name" v="Buckow-See"/>
    <tag k="natural" v="water"/>
  </way>
  <way id="4925219" version="1" timestamp="2007-07-19T17:37:59Z" uid="6454" user="B10xxx" changeset="153411">
    <nd ref="31013136"/>
    <nd ref="32329572"/>
    <nd ref="32329568"/>
    <nd ref="32329581"/>
    <nd ref="32329577"/>
    <nd ref="32329575"/>
    <nd ref="32329571"/>
    <nd ref="32329582"/>
    <nd ref="32329578"/>
    <nd ref="32329570"/>
    <nd ref="32329574"/>
    <nd ref="32329579"/>
    <nd ref="32329583"/>
    <nd ref="32329569"/>
    <nd ref="32329573"/>
    <nd ref="32329576"/>
    <nd ref="32329580"/>
    <nd ref="32329584"/>
    <tag k="created_by" v="JOSM"/>
    <tag k="railway" v="rail"/>
  </way>
  <way id="4925285" version="2" timestamp="2008-03-21T16:55:11Z" uid="20587" user="balrog-kun" changeset="364232">
    <nd ref="30895846"/>
    <nd ref="32049228"/>
    <nd ref="253213094"/>
    <nd ref="32329946"/>
    <nd ref="32049234"/>
    <tag k="created_by" v="PiotrC"/>
    <tag k="highway" v="secondary"/>
    <tag k="name" v="Żwirki i Wigury"/>
    <tag k="oneway" v="yes"/>
  </way>
  <way id="4925285" version="4" timestamp="2008-10-28T08:39:43Z" uid="20587" user="balrog-kun" changeset="609926">
    <nd ref="30895846"/>
    <nd ref="32049228"/>
    <nd ref="253213094"/>
    <nd ref="32329946"/>
    <nd ref="32049234"/>
    <tag k="created_by" v="PiotrC"/>
    <tag k="highway" v="secondary"/>
    <tag k="name" v="Franciszka Żwirki i Stanisława Wigury"/>
    <tag k="oneway" v="yes"/>
    <tag k="ref" v="634"/>
  </way>
  <way id="4925285" version="5" timestamp="2008-12-04T13:44:03Z" uid="20587" user="balrog-kun" changeset="109823">
    <nd ref="30895846"/>
    <nd ref="316628085"/>
    <nd ref="32049228"/>
    <nd ref="253213094"/>
    <nd ref="32329946"/>
    <nd ref="32049234"/>
    <tag k="created_by" v="PiotrC"/>
    <tag k="highway" v="secondary"/>
    <tag k="name" v="Franciszka Żwirki i Stanisława Wigury"/>
    <tag k="oneway" v="yes"/>
    <tag k="ref" v="634"/>
  </way>
  <way id="4925285" version="6" timestamp="2008-12-04T14:35:59Z" uid="20587" user="balrog-kun" changeset="109823">
    <nd ref="30895846"/>
    <nd ref="316632602"/>
    <nd ref="316628085"/>
    <nd ref="32049228"/>
    <nd ref="253213094"/>
    <nd ref="32329946"/>
    <nd ref="32049234"/>
    <tag k="created_by" v="PiotrC"/>
    <tag k="highway" v="secondary"/>
    <tag k="name" v="Franciszka Żwirki i Stanisława Wigury"/>
    <tag k="oneway" v="yes"/>
    <tag k="ref" v="634"/>
  </way>
  <way id="4925285" version="8" timestamp="2010-05-01T18:53:23Z" uid="20587" user="balrog-kun" changeset="4578264">
    <nd ref="30895846"/>
    <nd ref="715791288"/>
    <nd ref="316632602"/>
    <nd ref="316628085"/>
    <nd ref="253213094"/>
    <nd ref="32329946"/>
    <nd ref="32049234"/>
    <tag k="highway" v="secondary"/>
    <tag k="name" v="Franciszka Żwirki i Stanisława Wigury"/>
    <tag k="oneway" v="yes"/>
    <tag k="ref" v="634"/>
  </way>
  <way id="4925286" version="3" timestamp="2008-10-28T08:39:43Z" uid="20587" user="balrog-kun" changeset="609926">
    <nd ref="32049233"/>
    <nd ref="32049218"/>
    <nd ref="32049219"/>
    <tag k="created_by" v="PiotrC"/>
    <tag k="highway" v="secondary"/>
    <tag k="name" v="Franciszka Żwirki i Stanisława Wigury"/>
    <tag k="oneway" v="yes"/>
    <tag k="ref" v="634"/>
  </way>
  <way id="4925286" version="4" timestamp="2008-12-04T13:44:03Z" uid="20587" user="balrog-kun" changeset="109823">
    <nd ref="32049233"/>
    <nd ref="316628062"/>
    <nd ref="32049218"/>
    <nd ref="32049219"/>
    <tag k="created_by" v="PiotrC"/>
    <tag k="highway" v="secondary"/>
    <tag k="name" v="Franciszka Żwirki i Stanisława Wigury"/>
    <tag k="oneway" v="yes"/>
    <tag k="ref" v="634"/>
  </way>
  <way id="4925286" version="5" timestamp="2010-06-23T02:27:09Z" uid="20587" user="balrog-kun" changeset="5056010">
    <nd ref="32049233"/>
    <nd ref="316628062"/>
    <nd ref="783649763"/>
    <nd ref="32049218"/>
    <nd ref="32049219"/>
    <tag k="highway" v="secondary"/>
    <tag k="name" v="Franciszka Żwirki i Stanisława Wigury"/>
    <tag k="oneway" v="yes"/>
    <tag k="ref" v="634"/>
  </way>
  <way id="4925286" version="6" timestamp="2010-06-24T02:51:53Z" uid="20587" user="balrog-kun" changeset="5063204">
    <nd ref="32049233"/>
    <nd ref="316628062"/>
    <nd ref="786449585"/>
    <nd ref="783649763"/>
    <nd ref="32049218"/>
    <nd ref="32049219"/>
    <tag k="highway" v="secondary"/>
    <tag k="name" v="Franciszka Żwirki i Stanisława Wigury"/>
    <tag k="oneway" v="yes"/>
    <tag k="ref" v="634"/>
  </way>
  <way id="4925288" version="2" timestamp="2008-10-09T01:48:33Z" uid="20587" user="balrog-kun" changeset="194107">
    <nd ref="32329834"/>
    <nd ref="32329835"/>
    <nd ref="32572891"/>
    <nd ref="32329836"/>
    <nd ref="32594456"/>
    <nd ref="303205617"/>
    <nd ref="32594485"/>
    <nd ref="32594458"/>
    <nd ref="32594460"/>
    <nd ref="303205622"/>
    <nd ref="32594635"/>
    <tag k="created_by" v="PiotrC"/>
    <tag k="highway" v="secondary"/>
    <tag k="name" v="Raszyńska"/>
    <tag k="oneway" v="yes"/>
  </way>
  <way id="4925288" version="3" timestamp="2008-10-28T08:39:41Z" uid="20587" user="balrog-kun" changeset="609926">
    <nd ref="32329834"/>
    <nd ref="32329835"/>
    <nd ref="32572891"/>
    <nd ref="32329836"/>
    <nd ref="32594456"/>
    <nd ref="303205617"/>
    <nd ref="32594485"/>
    <nd ref="32594458"/>
    <nd ref="32594460"/>
    <nd ref="303205622"/>
    <nd ref="32594635"/>
    <tag k="created_by" v="PiotrC"/>
    <tag k="highway" v="secondary"/>
    <tag k="name" v="Raszyńska"/>
    <tag k="oneway" v="yes"/>
    <tag k="ref" v="634"/>
  </way>
  <way id="4925288" version="4" timestamp="2009-12-11T11:10:03Z" uid="20587" user="balrog-kun" changeset="3348099">
    <nd ref="32329834"/>
    <nd ref="32329835"/>
    <nd ref="32572891"/>
    <nd ref="32329836"/>
    <nd ref="32594456"/>
    <nd ref="303205617"/>
    <nd ref="32594485"/>
    <nd ref="32594458"/>
    <nd ref="32594460"/>
    <nd ref="303205622"/>
    <nd ref="32594635"/>
    <tag k="highway" v="secondary"/>
    <tag k="maxspeed" v="50"/>
    <tag k="name" v="Raszyńska"/>
    <tag k="oneway" v="yes"/>
    <tag k="ref" v="634"/>
  </way>
  <way id="4925288" version="5" timestamp="2010-01-21T17:05:53Z" uid="20587" user="balrog-kun" changeset="3676232">
    <nd ref="32329834"/>
    <nd ref="32329835"/>
    <nd ref="32572891"/>
    <nd ref="32329836"/>
    <nd ref="32594456"/>
    <nd ref="303205617"/>
    <nd ref="32594485"/>
    <nd ref="32594458"/>
    <nd ref="32594460"/>
    <nd ref="303205622"/>
    <nd ref="32594635"/>
    <tag k="highway" v="secondary"/>
    <tag k="maxspeed" v="50"/>
    <tag k="maxweight" v="2.5"/>
    <tag k="name" v="Raszyńska"/>
    <tag k="oneway" v="yes"/>
    <tag k="ref" v="634"/>
  </way>
  <way id="4925288" version="6" timestamp="2010-05-01T17:19:00Z" uid="20587" user="balrog-kun" changeset="4577369">
    <nd ref="32329834"/>
    <nd ref="32329835"/>
    <nd ref="32572891"/>
    <nd ref="32329836"/>
    <nd ref="32594456"/>
    <nd ref="303205617"/>
    <nd ref="32594485"/>
    <nd ref="32594458"/>
    <nd ref="32594460"/>
    <nd ref="303205622"/>
    <nd ref="32594635"/>
    <tag k="highway" v="secondary"/>
    <tag k="lanes" v="3"/>
    <tag k="maxspeed" v="50"/>
    <tag k="maxweight" v="2.5"/>
    <tag k="name" v="Raszyńska"/>
    <tag k="oneway" v="yes"/>
    <tag k="ref" v="634"/>
  </way>
  <way id="4925289" version="2" timestamp="2009-05-03T13:57:06Z" uid="30632" user="antblant" changeset="1061510">
    <nd ref="32329829"/>
    <nd ref="32329830"/>
    <tag k="created_by" v="JOSM"/>
    <tag k="highway" v="secondary"/>
    <tag k="oneway" v="yes"/>
  </way>
  <way id="4925289" version="3" timestamp="2010-05-01T17:19:14Z" uid="20587" user="balrog-kun" changeset="4577369">
    <nd ref="32329829"/>
    <nd ref="32329830"/>
    <tag k="highway" v="secondary"/>
    <tag k="lanes" v="2"/>
    <tag k="oneway" v="yes"/>
  </way>
  <way id="4925290" version="2" timestamp="2008-04-01T20:21:15Z" uid="20587" user="balrog-kun" changeset="8794">
    <nd ref="32329830"/>
    <nd ref="32048667"/>
    <nd ref="32606515"/>
    <nd ref="32329833"/>
    <nd ref="255309064"/>
    <nd ref="32329834"/>
    <tag k="created_by" v="JOSM"/>
    <tag k="highway" v="secondary"/>
    <tag k="name" v="Andrzeja Krzyckiego"/>
  </way>
  <way id="4925290" version="3" timestamp="2008-10-28T08:39:42Z" uid="20587" user="balrog-kun" changeset="609926">
    <nd ref="32329830"/>
    <nd ref="32048667"/>
    <nd ref="32606515"/>
    <nd ref="32329833"/>
    <nd ref="255309064"/>
    <nd ref="32329834"/>
    <tag k="created_by" v="JOSM"/>
    <tag k="highway" v="secondary"/>
    <tag k="name" v="Andrzeja Krzyckiego"/>
    <tag k="ref" v="634"/>
  </way>
  <way id="4925290" version="4" timestamp="2008-10-30T13:57:30Z" uid="20587" user="balrog-kun" changeset="630541">
    <nd ref="32329830"/>
    <nd ref="32048667"/>
    <nd ref="32606515"/>
    <nd ref="32329833"/>
    <nd ref="255309064"/>
    <nd ref="32329834"/>
    <tag k="created_by" v="JOSM"/>
    <tag k="highway" v="secondary"/>
    <tag k="name" v="Andrzeja Krzyckiego"/>
    <tag k="note" v="TODO: oneway?"/>
    <tag k="ref" v="634"/>
  </way>
  <way id="4925290" version="5" timestamp="2008-11-14T20:57:00Z" uid="20587" user="balrog-kun" changeset="747594">
    <nd ref="32329830"/>
    <nd ref="32048667"/>
    <nd ref="32606515"/>
    <nd ref="32329833"/>
    <nd ref="255309064"/>
    <nd ref="32329834"/>
    <tag k="created_by" v="JOSM"/>
    <tag k="highway" v="secondary"/>
    <tag k="name" v="Andrzeja Krzyckiego"/>
    <tag k="oneway" v="yes"/>
    <tag k="ref" v="634"/>
  </way>
  <way id="4925290" version="6" timestamp="2009-06-05T12:27:44Z" uid="20587" user="balrog-kun" changeset="1428938">
    <nd ref="32329830"/>
    <nd ref="415948011"/>
    <nd ref="32048667"/>
    <nd ref="32606515"/>
    <nd ref="32329833"/>
    <nd ref="255309064"/>
    <nd ref="32329834"/>
    <tag k="created_by" v="JOSM"/>
    <tag k="highway" v="secondary"/>
    <tag k="name" v="Andrzeja Krzyckiego"/>
    <tag k="oneway" v="yes"/>
    <tag k="ref" v="634"/>
  </way>
  <way id="4925290" version="7" timestamp="2009-07-25T23:49:27Z" uid="20587" user="balrog-kun" changeset="1939605">
    <nd ref="32329830"/>
    <nd ref="415948011"/>
    <nd ref="448040991"/>
    <nd ref="32048667"/>
    <nd ref="32606515"/>
    <nd ref="32329833"/>
    <nd ref="255309064"/>
    <nd ref="32329834"/>
    <tag k="highway" v="secondary"/>
    <tag k="name" v="Andrzeja Krzyckiego"/>
    <tag k="oneway" v="yes"/>
    <tag k="ref" v="634"/>
  </way>
  <way id="4925290" version="8" timestamp="2010-05-01T17:19:47Z" uid="20587" user="balrog-kun" changeset="4577369">
    <nd ref="32329830"/>
    <nd ref="415948011"/>
    <nd ref="448040991"/>
    <nd ref="32048667"/>
    <nd ref="32606515"/>
    <nd ref="32329833"/>
    <nd ref="255309064"/>
    <nd ref="32329834"/>
    <tag k="highway" v="secondary"/>
    <tag k="lanes" v="2"/>
    <tag k="name" v="Andrzeja Krzyckiego"/>
    <tag k="oneway" v="yes"/>
    <tag k="ref" v="634"/>
  </way>
  <way id="4925290" version="9" timestamp="2010-05-01T17:58:06Z" uid="20587" user="balrog-kun" changeset="4577705">
    <nd ref="32329830"/>
    <nd ref="415948011"/>
    <nd ref="715755566"/>
    <nd ref="715755683"/>
    <nd ref="32048667"/>
    <nd ref="32606515"/>
    <nd ref="32329833"/>
    <nd ref="255309064"/>
    <nd ref="32329834"/>
    <tag k="highway" v="secondary"/>
    <tag k="lanes" v="2"/>
    <tag k="name" v="Andrzeja Krzyckiego"/>
    <tag k="oneway" v="yes"/>
    <tag k="ref" v="634"/>
  </way>
  <way id="4925290" version="10" timestamp="2010-12-20T19:51:45Z" uid="20587" user="balrog-kun" changeset="6719279">
    <nd ref="32329830"/>
    <nd ref="415948011"/>
    <nd ref="715755566"/>
    <nd ref="715755683"/>
    <nd ref="32048667"/>
    <nd ref="32606515"/>
    <nd ref="1052381770"/>
    <nd ref="32329833"/>
    <nd ref="255309064"/>
    <nd ref="1052381765"/>
    <nd ref="32329834"/>
    <tag k="highway" v="secondary"/>
    <tag k="lanes" v="2"/>
    <tag k="name" v="Andrzeja Krzyckiego"/>
    <tag k="oneway" v="yes"/>
    <tag k="ref" v="634"/>
  </way>
  <way id="4925291" version="2" timestamp="2008-02-20T23:08:43Z" uid="20587" user="balrog-kun" changeset="169156">
    <nd ref="32329841"/>
    <nd ref="248591682"/>
    <nd ref="32329837"/>
    <tag k="created_by" v="JOSM"/>
    <tag k="highway" v="residential"/>
    <tag k="name" v="Miecznikowa"/>
  </way>
  <way id="4925291" version="4" timestamp="2008-04-03T18:43:51Z" uid="20587" user="balrog-kun" changeset="31907">
    <nd ref="32329841"/>
    <nd ref="248591682"/>
    <nd ref="255582375"/>
    <nd ref="32329837"/>
    <tag k="created_by" v="Potlatch 0.7b"/>
    <tag k="highway" v="residential"/>
    <tag k="name" v="Ilji Miecznikowa"/>
  </way>
  <way id="4925291" version="5" timestamp="2009-11-11T01:59:11Z" uid="20587" user="balrog-kun" changeset="3087092">
    <nd ref="32329841"/>
    <nd ref="560634867"/>
    <nd ref="248591682"/>
    <nd ref="255582375"/>
    <nd ref="32329837"/>
    <tag k="highway" v="residential"/>
    <tag k="name" v="Ilji Miecznikowa"/>
  </way>
  <way id="4925292" version="4" timestamp="2008-04-01T20:21:14Z" uid="20587" user="balrog-kun" changeset="8794">
    <nd ref="30901479"/>
    <nd ref="32329842"/>
    <nd ref="32329843"/>
    <nd ref="54094101"/>
    <nd ref="32329844"/>
    <nd ref="32329845"/>
    <nd ref="32329846"/>
    <nd ref="32329847"/>
    <nd ref="32329848"/>
    <nd ref="32329849"/>
    <nd ref="32329852"/>
    <nd ref="32329851"/>
    <nd ref="255309072"/>
    <nd ref="32329850"/>
    <tag k="created_by" v="Potlatch 0.7b"/>
    <tag k="highway" v="trunk"/>
    <tag k="int_ref" v="E30"/>
    <tag k="name" v="Wawelska"/>
    <tag k="oneway" v="yes"/>
    <tag k="ref" v="2"/>
  </way>
  <way id="4925292" version="5" timestamp="2008-10-05T21:15:42Z" uid="30632" user="antblant" changeset="84131">
    <nd ref="30901479"/>
    <nd ref="32329842"/>
    <nd ref="32329843"/>
    <nd ref="54094101"/>
    <nd ref="32329844"/>
    <nd ref="32329845"/>
    <nd ref="32329846"/>
    <nd ref="32329847"/>
    <nd ref="32329848"/>
    <nd ref="32329849"/>
    <nd ref="32329852"/>
    <nd ref="32329851"/>
    <nd ref="255309072"/>
    <nd ref="32329850"/>
    <tag k="created_by" v="Potlatch 0.10c"/>
    <tag k="highway" v="trunk"/>
    <tag k="int_ref" v=""/>
    <tag k="name" v="Wawelska"/>
    <tag k="oneway" v="yes"/>
    <tag k="ref" v="2"/>
  </way>
  <way id="4925292" version="7" timestamp="2008-10-28T09:16:07Z" uid="20587" user="balrog-kun" changeset="609926">
    <nd ref="30901479"/>
    <nd ref="308197304"/>
    <nd ref="32329842"/>
    <nd ref="32329843"/>
    <nd ref="54094101"/>
    <nd ref="32329844"/>
    <nd ref="32329845"/>
    <nd ref="32329846"/>
    <nd ref="32329847"/>
    <nd ref="32329848"/>
    <nd ref="32329849"/>
    <nd ref="32329852"/>
    <nd ref="32329851"/>
    <nd ref="255309072"/>
    <nd ref="32329850"/>
    <tag k="created_by" v="xybot"/>
    <tag k="highway" v="trunk"/>
    <tag k="name" v="Wawelska"/>
    <tag k="oneway" v="yes"/>
    <tag k="ref" v="2"/>
  </way>
  <way id="4925292" version="8" timestamp="2008-11-19T18:37:48Z" uid="20587" user="balrog-kun" changeset="767985">
    <nd ref="30901479"/>
    <nd ref="308197304"/>
    <nd ref="32329842"/>
    <nd ref="32329843"/>
    <nd ref="54094101"/>
    <nd ref="32329846"/>
    <nd ref="32329847"/>
    <nd ref="32329848"/>
    <nd ref="32329849"/>
    <nd ref="32329852"/>
    <nd ref="32329851"/>
    <nd ref="255309072"/>
    <nd ref="32329850"/>
    <tag k="created_by" v="xybot"/>
    <tag k="highway" v="trunk"/>
    <tag k="name" v="Wawelska"/>
    <tag k="oneway" v="yes"/>
    <tag k="ref" v="2"/>
  </way>
  <way id="4925292" version="11" timestamp="2009-01-08T15:20:44Z" uid="20587" user="balrog-kun" changeset="756602">
    <nd ref="30901479"/>
    <nd ref="308197304"/>
    <nd ref="32329842"/>
    <nd ref="32329843"/>
    <nd ref="54094101"/>
    <nd ref="313665439"/>
    <nd ref="32329846"/>
    <nd ref="32329847"/>
    <nd ref="32329848"/>
    <nd ref="32329849"/>
    <nd ref="32329852"/>
    <nd ref="32329851"/>
    <nd ref="255309072"/>
    <nd ref="32329850"/>
    <tag k="created_by" v="Potlatch 0.10f"/>
    <tag k="highway" v="trunk"/>
    <tag k="name" v="Wawelska"/>
    <tag k="oneway" v="yes"/>
    <tag k="ref" v="2"/>
    <tag k="wikipedia" v="pl:Ulica Wawelska w Warszawie"/>
  </way>
  <way id="4925292" version="12" timestamp="2009-01-11T01:05:16Z" uid="20587" user="balrog-kun" changeset="769936">
    <nd ref="30901479"/>
    <nd ref="308197304"/>
    <nd ref="32329842"/>
    <nd ref="32329843"/>
    <nd ref="54094101"/>
    <nd ref="313665439"/>
    <nd ref="32329846"/>
    <nd ref="32329847"/>
    <nd ref="32329848"/>
    <nd ref="32329849"/>
    <nd ref="32329852"/>
    <nd ref="331106187"/>
    <nd ref="32329851"/>
    <nd ref="255309072"/>
    <nd ref="32329850"/>
    <tag k="created_by" v="Potlatch 0.10f"/>
    <tag k="highway" v="trunk"/>
    <tag k="name" v="Wawelska"/>
    <tag k="oneway" v="yes"/>
    <tag k="ref" v="2"/>
    <tag k="wikipedia" v="pl:Ulica Wawelska w Warszawie"/>
  </way>
  <way id="4925292" version="16" timestamp="2009-06-05T12:27:44Z" uid="20587" user="balrog-kun" changeset="1428938">
    <nd ref="30901479"/>
    <nd ref="415948008"/>
    <nd ref="415948014"/>
    <nd ref="32329842"/>
    <nd ref="54094101"/>
    <nd ref="313665439"/>
    <nd ref="32329847"/>
    <nd ref="32329849"/>
    <nd ref="331106187"/>
    <nd ref="32329851"/>
    <nd ref="255309072"/>
    <nd ref="32329850"/>
    <tag k="created_by" v="Merkaartor 0.12"/>
    <tag k="highway" v="primary"/>
    <tag k="int_ref" v="E 30"/>
    <tag k="name" v="Wawelska"/>
    <tag k="oneway" v="yes"/>
    <tag k="ref" v="2"/>
    <tag k="wikipedia" v="pl:Ulica Wawelska w Warszawie"/>
  </way>
  <way id="4925292" version="17" timestamp="2009-11-01T02:37:14Z" uid="20587" user="balrog-kun" changeset="3003332">
    <nd ref="30901479"/>
    <nd ref="415948008"/>
    <nd ref="415948014"/>
    <nd ref="32329842"/>
    <nd ref="54094101"/>
    <nd ref="313665439"/>
    <nd ref="549639044"/>
    <nd ref="32329847"/>
    <nd ref="32329849"/>
    <nd ref="331106187"/>
    <nd ref="32329851"/>
    <nd ref="255309072"/>
    <nd ref="32329850"/>
    <tag k="highway" v="primary"/>
    <tag k="int_ref" v="E 30"/>
    <tag k="name" v="Wawelska"/>
    <tag k="oneway" v="yes"/>
    <tag k="ref" v="2"/>
    <tag k="wikipedia" v="pl:Ulica Wawelska w Warszawie"/>
  </way>
  <way id="4925292" version="18" timestamp="2009-11-12T18:11:27Z" uid="20587" user="balrog-kun" changeset="3100206">
    <nd ref="30901479"/>
    <nd ref="415948008"/>
    <nd ref="415948014"/>
    <nd ref="32329842"/>
    <nd ref="54094101"/>
    <nd ref="313665439"/>
    <nd ref="549639044"/>
    <nd ref="32329847"/>
    <nd ref="561287140"/>
    <nd ref="32329849"/>
    <nd ref="561287135"/>
    <nd ref="331106187"/>
    <nd ref="32329851"/>
    <nd ref="255309072"/>
    <nd ref="32329850"/>
    <tag k="highway" v="primary"/>
    <tag k="int_ref" v="E 30"/>
    <tag k="name" v="Wawelska"/>
    <tag k="oneway" v="yes"/>
    <tag k="ref" v="2"/>
    <tag k="wikipedia" v="pl:Ulica Wawelska w Warszawie"/>
  </way>
  <way id="4925292" version="19" timestamp="2010-01-10T10:26:12Z" uid="20587" user="balrog-kun" changeset="3585409">
    <nd ref="30901479"/>
    <nd ref="415948008"/>
    <nd ref="415948014"/>
    <nd ref="32329842"/>
    <nd ref="54094101"/>
    <nd ref="313665439"/>
    <nd ref="549639044"/>
    <nd ref="32329847"/>
    <nd ref="561287140"/>
    <nd ref="32329849"/>
    <nd ref="561287135"/>
    <nd ref="331106187"/>
    <nd ref="32329851"/>
    <nd ref="255309072"/>
    <nd ref="32329850"/>
    <tag k="highway" v="primary"/>
    <tag k="int_ref" v="E 30"/>
    <tag k="maxweight" v="10"/>
    <tag k="name" v="Wawelska"/>
    <tag k="oneway" v="yes"/>
    <tag k="ref" v="2"/>
    <tag k="wikipedia" v="pl:Ulica Wawelska w Warszawie"/>
  </way>
  <way id="4925292" version="20" timestamp="2010-01-22T14:32:20Z" uid="20587" user="balrog-kun" changeset="3683630">
    <nd ref="30901479"/>
    <nd ref="415948008"/>
    <nd ref="415948014"/>
    <nd ref="32329842"/>
    <nd ref="54094101"/>
    <nd ref="313665439"/>
    <nd ref="549639044"/>
    <nd ref="32329847"/>
    <nd ref="561287140"/>
    <nd ref="32329849"/>
    <nd ref="561287135"/>
    <nd ref="331106187"/>
    <nd ref="32329851"/>
    <nd ref="618122582"/>
    <nd ref="255309072"/>
    <nd ref="32329850"/>
    <tag k="highway" v="primary"/>
    <tag k="int_ref" v="E 30"/>
    <tag k="maxweight" v="10"/>
    <tag k="name" v="Wawelska"/>
    <tag k="oneway" v="yes"/>
    <tag k="ref" v="2"/>
    <tag k="wikipedia" v="pl:Ulica Wawelska w Warszawie"/>
  </way>
  <way id="4925292" version="21" timestamp="2010-05-01T17:19:27Z" uid="20587" user="balrog-kun" changeset="4577369">
    <nd ref="30901479"/>
    <nd ref="415948008"/>
    <nd ref="415948014"/>
    <nd ref="32329842"/>
    <nd ref="54094101"/>
    <nd ref="313665439"/>
    <nd ref="549639044"/>
    <nd ref="32329847"/>
    <nd ref="561287140"/>
    <nd ref="32329849"/>
    <nd ref="561287135"/>
    <nd ref="331106187"/>
    <nd ref="32329851"/>
    <nd ref="618122582"/>
    <nd ref="255309072"/>
    <nd ref="32329850"/>
    <tag k="highway" v="primary"/>
    <tag k="int_ref" v="E 30"/>
    <tag k="lanes" v="2"/>
    <tag k="maxweight" v="10"/>
    <tag k="name" v="Wawelska"/>
    <tag k="oneway" v="yes"/>
    <tag k="ref" v="2"/>
    <tag k="wikipedia" v="pl:Ulica Wawelska w Warszawie"/>
  </way>
  <way id="4925292" version="22" timestamp="2010-05-01T17:58:03Z" uid="20587" user="balrog-kun" changeset="4577705">
    <nd ref="30901479"/>
    <nd ref="415948008"/>
    <nd ref="415948014"/>
    <nd ref="32329842"/>
    <nd ref="715755557"/>
    <nd ref="54094101"/>
    <nd ref="313665439"/>
    <nd ref="549639044"/>
    <nd ref="32329847"/>
    <nd ref="561287140"/>
    <nd ref="32329849"/>
    <nd ref="561287135"/>
    <nd ref="331106187"/>
    <nd ref="32329851"/>
    <nd ref="618122582"/>
    <nd ref="255309072"/>
    <nd ref="32329850"/>
    <tag k="highway" v="primary"/>
    <tag k="int_ref" v="E 30"/>
    <tag k="lanes" v="3"/>
    <tag k="maxweight" v="10"/>
    <tag k="name" v="Wawelska"/>
    <tag k="oneway" v="yes"/>
    <tag k="ref" v="2"/>
    <tag k="wikipedia" v="pl:Ulica Wawelska w Warszawie"/>
  </way>
  <way id="4925293" version="2" timestamp="2010-05-01T17:19:35Z" uid="20587" user="balrog-kun" changeset="4577369">
    <nd ref="27167042"/>
    <nd ref="32329851"/>
    <tag k="highway" v="primary"/>
    <tag k="lanes" v="3"/>
  </way>
  <way id="4925294" version="3" timestamp="2010-05-01T17:19:08Z" uid="20587" user="balrog-kun" changeset="4577369">
    <nd ref="32329850"/>
    <nd ref="27167044"/>
    <tag k="highway" v="primary"/>
    <tag k="lanes" v="3"/>
  </way>
  <way id="4925295" version="2" timestamp="2008-10-09T01:48:32Z" uid="20587" user="balrog-kun" changeset="194107">
    <nd ref="32594646"/>
    <nd ref="54094226"/>
    <nd ref="32594645"/>
    <nd ref="303205613"/>
    <nd ref="303205614"/>
    <nd ref="32594637"/>
    <tag k="created_by" v="JOSM"/>
    <tag k="highway" v="primary"/>
    <tag k="name" v="Grójecka"/>
    <tag k="oneway" v="yes"/>
  </way>
  <way id="4925295" version="3" timestamp="2008-10-28T08:39:41Z" uid="20587" user="balrog-kun" changeset="609926">
    <nd ref="32594646"/>
    <nd ref="54094226"/>
    <nd ref="32594645"/>
    <nd ref="303205613"/>
    <nd ref="303205614"/>
    <nd ref="32594637"/>
    <tag k="created_by" v="JOSM"/>
    <tag k="highway" v="primary"/>
    <tag k="name" v="Grójecka"/>
    <tag k="oneway" v="yes"/>
    <tag k="ref" v="631"/>
  </way>
  <way id="4925295" version="4" timestamp="2009-01-08T15:15:45Z" uid="20587" user="balrog-kun" changeset="756602">
    <nd ref="32594646"/>
    <nd ref="54094226"/>
    <nd ref="32594645"/>
    <nd ref="303205613"/>
    <nd ref="303205614"/>
    <nd ref="32594637"/>
    <tag k="created_by" v="JOSM"/>
    <tag k="highway" v="primary"/>
    <tag k="name" v="Grójecka"/>
    <tag k="oneway" v="yes"/>
    <tag k="ref" v="631"/>
    <tag k="wikipedia" v="pl:Ulica Grójecka w Warszawie"/>
  </way>
  <way id="4925295" version="5" timestamp="2009-01-08T20:08:26Z" uid="20587" user="balrog-kun" changeset="757533">
    <nd ref="32594646"/>
    <nd ref="54094226"/>
    <nd ref="32594645"/>
    <nd ref="303205613"/>
    <nd ref="303205614"/>
    <nd ref="330286054"/>
    <nd ref="32594637"/>
    <tag k="created_by" v="JOSM"/>
    <tag k="highway" v="primary"/>
    <tag k="name" v="Grójecka"/>
    <tag k="oneway" v="yes"/>
    <tag k="ref" v="631"/>
    <tag k="wikipedia" v="pl:Ulica Grójecka w Warszawie"/>
  </way>
  <way id="4925295" version="7" timestamp="2009-11-12T18:11:25Z" uid="20587" user="balrog-kun" changeset="3100206">
    <nd ref="32594646"/>
    <nd ref="561287181"/>
    <nd ref="561287351"/>
    <nd ref="54094226"/>
    <nd ref="32594645"/>
    <nd ref="303205613"/>
    <nd ref="303205614"/>
    <nd ref="330286054"/>
    <nd ref="32594637"/>
    <tag k="highway" v="secondary"/>
    <tag k="name" v="Grójecka"/>
    <tag k="oneway" v="yes"/>
    <tag k="ref" v="631"/>
    <tag k="wikipedia" v="pl:Ulica Grójecka w Warszawie"/>
  </way>
  <way id="4925295" version="8" timestamp="2010-01-21T17:05:53Z" uid="20587" user="balrog-kun" changeset="3676232">
    <nd ref="32594646"/>
    <nd ref="561287181"/>
    <nd ref="561287351"/>
    <nd ref="54094226"/>
    <nd ref="32594645"/>
    <nd ref="303205613"/>
    <nd ref="303205614"/>
    <nd ref="330286054"/>
    <nd ref="32594637"/>
    <tag k="highway" v="secondary"/>
    <tag k="maxspeed" v="50"/>
    <tag k="name" v="Grójecka"/>
    <tag k="oneway" v="yes"/>
    <tag k="ref" v="631"/>
    <tag k="wikipedia" v="pl:Ulica Grójecka w Warszawie"/>
  </way>
  <way id="4925295" version="9" timestamp="2010-05-01T17:19:18Z" uid="20587" user="balrog-kun" changeset="4577369">
    <nd ref="32594646"/>
    <nd ref="561287181"/>
    <nd ref="561287351"/>
    <nd ref="54094226"/>
    <nd ref="32594645"/>
    <nd ref="303205613"/>
    <nd ref="303205614"/>
    <nd ref="330286054"/>
    <nd ref="32594637"/>
    <tag k="highway" v="secondary"/>
    <tag k="lanes" v="3"/>
    <tag k="maxspeed" v="50"/>
    <tag k="name" v="Grójecka"/>
    <tag k="oneway" v="yes"/>
    <tag k="ref" v="631"/>
    <tag k="wikipedia" v="pl:Ulica Grójecka w Warszawie"/>
  </way>
  <way id="4925296" version="2" timestamp="2008-10-28T08:39:44Z" uid="20587" user="balrog-kun" changeset="609926">
    <nd ref="32329855"/>
    <nd ref="32329850"/>
    <tag k="created_by" v="JOSM"/>
    <tag k="highway" v="primary"/>
    <tag k="name" v="Grójecka"/>
    <tag k="oneway" v="yes"/>
    <tag k="ref" v="631"/>
  </way>
  <way id="4925296" version="4" timestamp="2009-01-08T15:15:46Z" uid="20587" user="balrog-kun" changeset="756602">
    <nd ref="32329855"/>
    <nd ref="32329850"/>
    <tag k="created_by" v="Potlatch 0.10f"/>
    <tag k="highway" v="primary"/>
    <tag k="name" v="Grójecka"/>
    <tag k="oneway" v="yes"/>
    <tag k="ref" v="631"/>
    <tag k="wikipedia" v="pl:Ulica Grójecka w Warszawie"/>
  </way>
  <way id="4925296" version="5" timestamp="2009-01-11T01:05:17Z" uid="20587" user="balrog-kun" changeset="769936">
    <nd ref="32329855"/>
    <nd ref="331106190"/>
    <nd ref="32329850"/>
    <tag k="created_by" v="Potlatch 0.10f"/>
    <tag k="highway" v="primary"/>
    <tag k="name" v="Grójecka"/>
    <tag k="oneway" v="yes"/>
    <tag k="ref" v="631"/>
    <tag k="wikipedia" v="pl:Ulica Grójecka w Warszawie"/>
  </way>
  <way id="4925297" version="1" timestamp="2007-07-22T15:18:31Z" uid="4667" user="MapZ" changeset="160133">
    <nd ref="27167059"/>
    <nd ref="27167057"/>
    <nd ref="27167055"/>
    <nd ref="27167053"/>
    <nd ref="32573080"/>
    <nd ref="27167051"/>
    <nd ref="27167048"/>
    <nd ref="27167046"/>
    <nd ref="27167044"/>
    <tag k="created_by" v="JOSM"/>
    <tag k="highway" v="trunk"/>
    <tag k="int_ref" v="E30"/>
    <tag k="name" v="Kopińska"/>
    <tag k="ref" v="2"/>
  </way>
  <way id="4925297" version="6" timestamp="2008-10-05T21:14:33Z" uid="30632" user="antblant" changeset="84131">
    <nd ref="27167059"/>
    <nd ref="27167053"/>
    <nd ref="27167051"/>
    <nd ref="27167048"/>
    <nd ref="27167046"/>
    <nd ref="27167044"/>
    <tag k="created_by" v="Potlatch 0.10c"/>
    <tag k="highway" v="trunk"/>
    <tag k="name" v="Kopińska"/>
    <tag k="ref" v="2"/>
  </way>
  <way id="4925297" version="7" timestamp="2008-11-19T18:37:50Z" uid="20587" user="balrog-kun" changeset="767985">
    <nd ref="27167059"/>
    <nd ref="27167053"/>
    <nd ref="27167046"/>
    <nd ref="27167044"/>
    <tag k="created_by" v="Potlatch 0.10c"/>
    <tag k="highway" v="trunk"/>
    <tag k="name" v="Kopińska"/>
    <tag k="ref" v="2"/>
  </way>
  <way id="4925297" version="9" timestamp="2009-01-11T01:05:17Z" uid="20587" user="balrog-kun" changeset="769936">
    <nd ref="27167059"/>
    <nd ref="27167053"/>
    <nd ref="27167046"/>
    <nd ref="331106192"/>
    <nd ref="27167044"/>
    <tag k="created_by" v="Potlatch 0.10f"/>
    <tag k="highway" v="trunk"/>
    <tag k="name" v="Kopińska"/>
    <tag k="ref" v="2"/>
  </way>
  <way id="4925297" version="10" timestamp="2009-01-20T10:06:42Z" uid="20587" user="balrog-kun" changeset="815696">
    <nd ref="27167059"/>
    <nd ref="334007833"/>
    <nd ref="27167053"/>
    <nd ref="334007835"/>
    <nd ref="27167046"/>
    <nd ref="331106192"/>
    <nd ref="27167044"/>
    <tag k="created_by" v="Potlatch 0.10f"/>
    <tag k="highway" v="trunk"/>
    <tag k="name" v="Kopińska"/>
    <tag k="ref" v="2"/>
  </way>
  <way id="4925297" version="11" timestamp="2009-02-02T10:09:01Z" uid="20587" user="balrog-kun" changeset="65616">
    <nd ref="27167059"/>
    <nd ref="339975569"/>
    <nd ref="334007833"/>
    <nd ref="27167053"/>
    <nd ref="334007835"/>
    <nd ref="27167046"/>
    <nd ref="331106192"/>
    <nd ref="27167044"/>
    <tag k="created_by" v="Potlatch 0.10f"/>
    <tag k="highway" v="trunk"/>
    <tag k="name" v="Kopińska"/>
    <tag k="ref" v="2"/>
  </way>
  <way id="4925297" version="15" timestamp="2010-05-01T17:19:26Z" uid="20587" user="balrog-kun" changeset="4577369">
    <nd ref="27167059"/>
    <nd ref="339975569"/>
    <nd ref="334007833"/>
    <nd ref="27167053"/>
    <nd ref="334007835"/>
    <nd ref="331106192"/>
    <nd ref="27167044"/>
    <tag k="highway" v="primary"/>
    <tag k="int_ref" v="E 30"/>
    <tag k="lanes" v="2"/>
    <tag k="name" v="Kopińska"/>
    <tag k="ref" v="2"/>
  </way>
  <way id="4925298" version="8" timestamp="2008-10-05T21:15:54Z" uid="30632" user="antblant" changeset="84131">
    <nd ref="32329850"/>
    <nd ref="32329853"/>
    <nd ref="32329854"/>
    <nd ref="32329857"/>
    <nd ref="31156751"/>
    <nd ref="31156750"/>
    <nd ref="31156748"/>
    <tag k="created_by" v="Potlatch 0.10c"/>
    <tag k="highway" v="trunk"/>
    <tag k="name" v="Kopińska"/>
    <tag k="ref" v="2"/>
  </way>
  <way id="4925298" version="9" timestamp="2008-11-19T18:37:50Z" uid="20587" user="balrog-kun" changeset="767985">
    <nd ref="32329850"/>
    <nd ref="32329853"/>
    <nd ref="31156751"/>
    <nd ref="31156750"/>
    <nd ref="31156748"/>
    <tag k="created_by" v="Potlatch 0.10c"/>
    <tag k="highway" v="trunk"/>
    <tag k="name" v="Kopińska"/>
    <tag k="ref" v="2"/>
  </way>
  <way id="4925298" version="11" timestamp="2009-01-11T01:05:18Z" uid="20587" user="balrog-kun" changeset="769936">
    <nd ref="32329850"/>
    <nd ref="331106191"/>
    <nd ref="32329853"/>
    <nd ref="31156751"/>
    <nd ref="31156750"/>
    <nd ref="31156748"/>
    <tag k="created_by" v="Potlatch 0.10f"/>
    <tag k="highway" v="trunk"/>
    <tag k="name" v="Kopińska"/>
    <tag k="ref" v="2"/>
  </way>
  <way id="4925298" version="12" timestamp="2009-01-20T10:06:42Z" uid="20587" user="balrog-kun" changeset="815696">
    <nd ref="32329850"/>
    <nd ref="331106191"/>
    <nd ref="32329853"/>
    <nd ref="334007837"/>
    <nd ref="31156751"/>
    <nd ref="334007830"/>
    <nd ref="31156750"/>
    <nd ref="31156748"/>
    <tag k="created_by" v="Potlatch 0.10f"/>
    <tag k="highway" v="trunk"/>
    <tag k="name" v="Kopińska"/>
    <tag k="ref" v="2"/>
  </way>
  <way id="4925298" version="13" timestamp="2009-02-02T10:09:02Z" uid="20587" user="balrog-kun" changeset="65616">
    <nd ref="32329850"/>
    <nd ref="331106191"/>
    <nd ref="32329853"/>
    <nd ref="334007837"/>
    <nd ref="31156751"/>
    <nd ref="334007830"/>
    <nd ref="31156750"/>
    <nd ref="339975571"/>
    <nd ref="31156748"/>
    <tag k="created_by" v="Potlatch 0.10f"/>
    <tag k="highway" v="trunk"/>
    <tag k="name" v="Kopińska"/>
    <tag k="ref" v="2"/>
  </way>
  <way id="4925298" version="17" timestamp="2010-05-01T17:18:49Z" uid="20587" user="balrog-kun" changeset="4577369">
    <nd ref="32329850"/>
    <nd ref="331106191"/>
    <nd ref="334007837"/>
    <nd ref="31156751"/>
    <nd ref="334007830"/>
    <nd ref="339975571"/>
    <nd ref="31156748"/>
    <tag k="highway" v="primary"/>
    <tag k="int_ref" v="E 30"/>
    <tag k="lanes" v="2"/>
    <tag k="name" v="Kopińska"/>
    <tag k="ref" v="2"/>
  </way>
  <way id="4925299" version="4" timestamp="2008-10-05T21:14:19Z" uid="30632" user="antblant" changeset="84131">
    <nd ref="27167068"/>
    <nd ref="27167066"/>
    <nd ref="27167064"/>
    <nd ref="253169142"/>
    <nd ref="27167059"/>
    <tag k="created_by" v="Potlatch 0.10c"/>
    <tag k="highway" v="trunk"/>
    <tag k="name" v="Sokołowskiego &quot;Grzymały&quot;"/>
    <tag k="ref" v="2"/>
  </way>
  <way id="4925299" version="7" timestamp="2009-02-02T10:09:01Z" uid="20587" user="balrog-kun" changeset="65616">
    <nd ref="27167068"/>
    <nd ref="27167066"/>
    <nd ref="27167064"/>
    <nd ref="339975561"/>
    <nd ref="253169142"/>
    <nd ref="339975564"/>
    <nd ref="27167059"/>
    <tag k="created_by" v="Potlatch 0.10f"/>
    <tag k="highway" v="trunk"/>
    <tag k="name" v="Mieczysława &quot;Grzymały&quot; Sokołowskiego"/>
    <tag k="ref" v="2"/>
  </way>
  <way id="4925299" version="12" timestamp="2009-12-06T23:55:56Z" uid="20587" user="balrog-kun" changeset="3311730">
    <nd ref="27167068"/>
    <nd ref="27167066"/>
    <nd ref="339975561"/>
    <nd ref="582762479"/>
    <nd ref="253169142"/>
    <tag k="highway" v="primary"/>
    <tag k="int_ref" v="E 30"/>
    <tag k="lanes" v="2"/>
    <tag k="name" v="Mieczysława &quot;Grzymały&quot; Sokołowskiego"/>
    <tag k="ref" v="2"/>
  </way>
  <way id="4925304" version="8" timestamp="2008-10-26T02:41:40Z" uid="20587" user="balrog-kun" changeset="576102">
    <nd ref="27167120"/>
    <nd ref="307573742"/>
    <nd ref="27167123"/>
    <nd ref="253167864"/>
    <nd ref="27167119"/>
    <tag k="created_by" v="Potlatch 0.7b"/>
    <tag k="highway" v="primary"/>
    <tag k="name" v="Aleje Jerozolimskie"/>
    <tag k="oneway" v="yes"/>
    <tag k="ref" v="2"/>
  </way>
  <way id="4925305" version="5" timestamp="2009-05-14T16:01:47Z" uid="20587" user="balrog-kun" changeset="1189743">
    <nd ref="27167561"/>
    <nd ref="27167559"/>
    <nd ref="27167131"/>
    <nd ref="27167130"/>
    <nd ref="27167092"/>
    <nd ref="27167091"/>
    <nd ref="399279476"/>
    <nd ref="27167090"/>
    <tag k="created_by" v="Potlatch 0.7b"/>
    <tag k="highway" v="primary"/>
    <tag k="name" v="Aleje Jerozolimskie"/>
    <tag k="oneway" v="yes"/>
    <tag k="ref" v="8"/>
  </way>
  <way id="4925308" version="6" timestamp="2009-05-31T16:24:30Z" uid="20587" user="balrog-kun" changeset="1370750">
    <nd ref="31174060"/>
    <nd ref="32329860"/>
    <nd ref="32329862"/>
    <nd ref="32329864"/>
    <nd ref="32329866"/>
    <nd ref="32329868"/>
    <nd ref="32329870"/>
    <nd ref="32329872"/>
    <nd ref="32329874"/>
    <nd ref="253166859"/>
    <nd ref="32329876"/>
    <nd ref="32329878"/>
    <nd ref="32329880"/>
    <nd ref="413543373"/>
    <nd ref="32329882"/>
    <nd ref="32329884"/>
    <nd ref="344328060"/>
    <tag k="created_by" v="Merkaartor 0.13"/>
    <tag k="highway" v="secondary"/>
    <tag k="name" v="Aleje Jerozolimskie"/>
    <tag k="oneway" v="yes"/>
    <tag k="ref" v="719"/>
  </way>
  <way id="4925308" version="7" timestamp="2009-05-31T17:10:13Z" uid="20587" user="balrog-kun" changeset="1371225">
    <nd ref="344328037"/>
    <nd ref="413561781"/>
    <nd ref="413543815"/>
    <nd ref="413543791"/>
    <nd ref="344328040"/>
    <nd ref="413543783"/>
    <nd ref="162224398"/>
    <nd ref="413543788"/>
    <nd ref="344328049"/>
    <nd ref="413543775"/>
    <nd ref="413543442"/>
    <nd ref="413543446"/>
    <nd ref="344328054"/>
    <nd ref="413543518"/>
    <nd ref="413543527"/>
    <nd ref="413543406"/>
    <nd ref="253165621"/>
    <nd ref="413543432"/>
    <nd ref="253165561"/>
    <nd ref="344328058"/>
    <nd ref="410546180"/>
    <nd ref="410546174"/>
    <nd ref="344328059"/>
    <nd ref="413543335"/>
    <nd ref="344328060"/>
    <nd ref="32329884"/>
    <nd ref="32329882"/>
    <nd ref="413543373"/>
    <nd ref="32329880"/>
    <nd ref="32329878"/>
    <nd ref="32329876"/>
    <nd ref="253166859"/>
    <nd ref="32329874"/>
    <nd ref="32329872"/>
    <nd ref="32329870"/>
    <nd ref="32329868"/>
    <nd ref="32329866"/>
    <nd ref="32329864"/>
    <nd ref="32329862"/>
    <nd ref="32329860"/>
    <nd ref="31174060"/>
    <tag k="created_by" v="Merkaartor 0.13"/>
    <tag k="highway" v="secondary"/>
    <tag k="name" v="Aleje Jerozolimskie"/>
    <tag k="oneway" v="yes"/>
    <tag k="ref" v="719"/>
  </way>
  <way id="4925316" version="4" timestamp="2008-10-09T01:48:31Z" uid="20587" user="balrog-kun" changeset="194107">
    <nd ref="27167079"/>
    <nd ref="303205883"/>
    <nd ref="27167078"/>
    <nd ref="303205861"/>
    <nd ref="303205859"/>
    <nd ref="27167077"/>
    <nd ref="27167076"/>
    <tag k="created_by" v="Potlatch 0.7b"/>
    <tag k="highway" v="primary"/>
    <tag k="name" v="Aleje Jerozolimskie"/>
    <tag k="oneway" v="yes"/>
    <tag k="ref" v="8"/>
  </way>
  <way id="4925318" version="3" timestamp="2008-03-21T16:55:10Z" uid="20587" user="balrog-kun" changeset="364232">
    <nd ref="32329919"/>
    <nd ref="32329935"/>
    <nd ref="32329927"/>
    <nd ref="32329936"/>
    <nd ref="32329937"/>
    <nd ref="32048671"/>
    <nd ref="32329938"/>
    <nd ref="32329939"/>
    <nd ref="32329940"/>
    <nd ref="32329941"/>
    <nd ref="32329942"/>
    <nd ref="32329943"/>
    <nd ref="32329944"/>
    <tag k="created_by" v="JOSM"/>
    <tag k="highway" v="tertiary"/>
    <tag k="name" v="1 Sierpnia"/>
  </way>
  <way id="4925318" version="4" timestamp="2008-11-13T15:50:05Z" uid="20587" user="balrog-kun" changeset="742968">
    <nd ref="32329919"/>
    <nd ref="32329935"/>
    <nd ref="32329927"/>
    <nd ref="32329936"/>
    <nd ref="32329937"/>
    <nd ref="32048671"/>
    <nd ref="32329938"/>
    <nd ref="32329939"/>
    <nd ref="32329940"/>
    <nd ref="32329941"/>
    <nd ref="311778066"/>
    <nd ref="32329942"/>
    <nd ref="32329943"/>
    <nd ref="32329944"/>
    <tag k="created_by" v="JOSM"/>
    <tag k="highway" v="tertiary"/>
    <tag k="name" v="1 Sierpnia"/>
  </way>
  <way id="4925318" version="5" timestamp="2008-11-18T13:13:21Z" uid="20587" user="balrog-kun" changeset="765458">
    <nd ref="32329919"/>
    <nd ref="32329935"/>
    <nd ref="32329927"/>
    <nd ref="32329936"/>
    <nd ref="32048671"/>
    <nd ref="32329939"/>
    <nd ref="32329940"/>
    <nd ref="32329941"/>
    <nd ref="311778066"/>
    <nd ref="312990839"/>
    <nd ref="32329942"/>
    <nd ref="32329943"/>
    <nd ref="32329944"/>
    <tag k="created_by" v="JOSM"/>
    <tag k="highway" v="tertiary"/>
    <tag k="name" v="1 Sierpnia"/>
  </way>
  <way id="4925318" version="6" timestamp="2009-05-13T18:32:04Z" uid="20587" user="balrog-kun" changeset="1178274">
    <nd ref="32329919"/>
    <nd ref="395501917"/>
    <nd ref="32329935"/>
    <nd ref="32329927"/>
    <nd ref="32329936"/>
    <nd ref="32048671"/>
    <nd ref="32329939"/>
    <nd ref="32329940"/>
    <nd ref="32329941"/>
    <nd ref="311778066"/>
    <nd ref="312990839"/>
    <nd ref="32329942"/>
    <nd ref="32329943"/>
    <nd ref="32329944"/>
    <tag k="created_by" v="JOSM"/>
    <tag k="highway" v="tertiary"/>
    <tag k="name" v="1 Sierpnia"/>
  </way>
  <way id="4925318" version="7" timestamp="2009-05-25T00:43:34Z" uid="20587" user="balrog-kun" changeset="1312332">
    <nd ref="32329919"/>
    <nd ref="395501917"/>
    <nd ref="32329935"/>
    <nd ref="32329927"/>
    <nd ref="32329936"/>
    <nd ref="32048671"/>
    <nd ref="410795622"/>
    <nd ref="410795624"/>
    <nd ref="32329939"/>
    <nd ref="410795626"/>
    <nd ref="32329940"/>
    <nd ref="32329941"/>
    <nd ref="311778066"/>
    <nd ref="312990839"/>
    <nd ref="32329942"/>
    <nd ref="32329943"/>
    <nd ref="32329944"/>
    <tag k="created_by" v="JOSM"/>
    <tag k="highway" v="tertiary"/>
    <tag k="name" v="1 Sierpnia"/>
  </way>
  <way id="4925319" version="3" timestamp="2008-03-21T16:55:11Z" uid="20587" user="balrog-kun" changeset="364232"/>
  <way id="4925320" version="2" timestamp="2009-05-25T00:43:34Z" uid="20587" user="balrog-kun" changeset="1312332">
    <nd ref="32329927"/>
    <nd ref="32329928"/>
    <nd ref="410795635"/>
    <nd ref="410795636"/>
    <nd ref="32329929"/>
    <nd ref="32329930"/>
    <nd ref="32329931"/>
    <nd ref="410795637"/>
    <nd ref="410795638"/>
    <nd ref="32329932"/>
    <tag k="created_by" v="JOSM"/>
    <tag k="highway" v="residential"/>
    <tag k="name" v="Strubiczów"/>
  </way>
  <way id="4925321" version="3" timestamp="2009-05-13T19:43:34Z" uid="20587" user="balrog-kun" changeset="1179230">
    <nd ref="32329923"/>
    <nd ref="32329924"/>
    <nd ref="32329925"/>
    <nd ref="395614254"/>
    <nd ref="32329926"/>
    <nd ref="32329927"/>
    <tag k="created_by" v="Potlatch 0.7b"/>
    <tag k="highway" v="residential"/>
    <tag k="name" v="Strubiczów"/>
  </way>
  <way id="4925321" version="4" timestamp="2009-05-25T00:43:38Z" uid="20587" user="balrog-kun" changeset="1312332"/>
  <way id="4925322" version="6" timestamp="2009-06-06T15:40:37Z" uid="20587" user="balrog-kun" changeset="1439629">
    <nd ref="32329947"/>
    <nd ref="416537247"/>
    <nd ref="32329948"/>
    <nd ref="170550698"/>
    <nd ref="32329950"/>
    <nd ref="32329951"/>
    <nd ref="198156311"/>
    <tag k="created_by" v="Potlatch 0.7b"/>
    <tag k="highway" v="residential"/>
    <tag k="name" v="Jana Sabały"/>
  </way>
  <way id="4925323" version="5" timestamp="2009-05-25T00:43:38Z" uid="20587" user="balrog-kun" changeset="1312332">
    <nd ref="32329932"/>
    <nd ref="253175504"/>
    <nd ref="253175505"/>
    <nd ref="32329933"/>
    <nd ref="410795623"/>
    <nd ref="32048671"/>
    <tag k="created_by" v="Potlatch 0.7b"/>
    <tag k="highway" v="residential"/>
    <tag k="name" v="Radarowa"/>
  </way>
  <way id="4925324" version="10" timestamp="2008-07-08T13:38:43Z" uid="20587" user="balrog-kun" changeset="435086">
    <nd ref="32329970"/>
    <nd ref="277147318"/>
    <nd ref="32329969"/>
    <nd ref="32329968"/>
    <nd ref="32329967"/>
    <nd ref="32329966"/>
    <nd ref="32329965"/>
    <nd ref="32329964"/>
    <nd ref="32329963"/>
    <nd ref="32329962"/>
    <nd ref="32329961"/>
    <nd ref="32329960"/>
    <nd ref="32329959"/>
    <nd ref="32329958"/>
    <nd ref="32329957"/>
    <nd ref="252165988"/>
    <nd ref="32329956"/>
    <nd ref="32329955"/>
    <nd ref="32329947"/>
    <nd ref="32329954"/>
    <nd ref="32329952"/>
    <nd ref="252166037"/>
    <tag k="created_by" v="Potlatch 0.7b"/>
    <tag k="highway" v="secondary"/>
    <tag k="name" v="17 Stycznia"/>
    <tag k="oneway" v="yes"/>
  </way>
  <way id="4925324" version="11" timestamp="2008-07-15T16:38:10Z" uid="20587" user="balrog-kun" changeset="498938">
    <nd ref="32329970"/>
    <nd ref="277147318"/>
    <nd ref="32329969"/>
    <nd ref="278765947"/>
    <nd ref="32329968"/>
    <nd ref="32329967"/>
    <nd ref="32329966"/>
    <nd ref="32329965"/>
    <nd ref="32329964"/>
    <nd ref="32329963"/>
    <nd ref="32329962"/>
    <nd ref="32329961"/>
    <nd ref="32329960"/>
    <nd ref="32329959"/>
    <nd ref="32329958"/>
    <nd ref="32329957"/>
    <nd ref="252165988"/>
    <nd ref="32329956"/>
    <nd ref="32329955"/>
    <nd ref="32329947"/>
    <nd ref="32329954"/>
    <nd ref="32329952"/>
    <nd ref="252166037"/>
    <tag k="created_by" v="Potlatch 0.7b"/>
    <tag k="highway" v="secondary"/>
    <tag k="name" v="17 Stycznia"/>
    <tag k="oneway" v="yes"/>
  </way>
  <way id="4925325" version="2" timestamp="2010-06-23T19:35:13Z" uid="20587" user="balrog-kun" changeset="5061349"/>
  <way id="4925457" version="3" timestamp="2010-07-08T09:44:41Z" uid="74617" user="JohnSmith" changeset="5164427">
    <nd ref="32326753"/>
    <nd ref="32331424"/>
    <nd ref="32331425"/>
    <nd ref="32331426"/>
    <nd ref="32331427"/>
    <nd ref="32331428"/>
    <nd ref="32331429"/>
    <nd ref="32331430"/>
    <nd ref="32331431"/>
    <nd ref="32331432"/>
    <nd ref="32331433"/>
    <nd ref="32331434"/>
    <nd ref="32331435"/>
    <nd ref="32331436"/>
    <nd ref="32331437"/>
    <nd ref="32331438"/>
    <nd ref="32331439"/>
    <nd ref="32331440"/>
    <nd ref="32331441"/>
    <nd ref="32331442"/>
    <nd ref="32331443"/>
    <nd ref="32331444"/>
    <nd ref="32331445"/>
    <nd ref="32331446"/>
    <nd ref="32331447"/>
    <nd ref="32331448"/>
    <nd ref="32331449"/>
    <tag k="highway" v="residential"/>
    <tag k="maxspeed" v="50"/>
    <tag k="maxspeed:source" v="default residential speed limit in Australia"/>
    <tag k="name" v="Morstone Street"/>
  </way>
  <way id="4925459" version="2" timestamp="2010-07-08T09:45:25Z" uid="74617" user="JohnSmith" changeset="5164427">
    <nd ref="32331459"/>
    <nd ref="32331460"/>
    <nd ref="32331441"/>
    <tag k="highway" v="residential"/>
    <tag k="maxspeed" v="50"/>
    <tag k="maxspeed:source" v="default residential speed limit in Australia"/>
  </way>
  <way id="4925467" version="2" timestamp="2010-07-08T09:41:55Z" uid="74617" user="JohnSmith" changeset="5164427">
    <nd ref="32331504"/>
    <nd ref="32331505"/>
    <nd ref="32331443"/>
    <tag k="highway" v="residential"/>
    <tag k="maxspeed" v="50"/>
    <tag k="maxspeed:source" v="default residential speed limit in Australia"/>
  </way>
  <way id="4925468" version="2" timestamp="2010-07-08T09:42:33Z" uid="74617" user="JohnSmith" changeset="5164427">
    <nd ref="32331442"/>
    <nd ref="32331506"/>
    <nd ref="32331507"/>
    <tag k="highway" v="residential"/>
    <tag k="maxspeed" v="50"/>
    <tag k="maxspeed:source" v="default residential speed limit in Australia"/>
  </way>
  <way id="4925470" version="2" timestamp="2010-07-08T09:43:36Z" uid="74617" user="JohnSmith" changeset="5164427">
    <nd ref="32331510"/>
    <nd ref="32331446"/>
    <tag k="highway" v="residential"/>
    <tag k="maxspeed" v="50"/>
    <tag k="maxspeed:source" v="default residential speed limit in Australia"/>
  </way>
  <way id="4925471" version="2" timestamp="2010-07-08T09:40:14Z" uid="74617" user="JohnSmith" changeset="5164427">
    <nd ref="32331511"/>
    <nd ref="32331512"/>
    <nd ref="32331447"/>
    <tag k="highway" v="residential"/>
    <tag k="maxspeed" v="50"/>
    <tag k="maxspeed:source" v="default residential speed limit in Australia"/>
  </way>
  <way id="4925472" version="2" timestamp="2010-07-08T09:43:31Z" uid="74617" user="JohnSmith" changeset="5164427">
    <nd ref="32331434"/>
    <nd ref="32331513"/>
    <tag k="highway" v="residential"/>
    <tag k="maxspeed" v="50"/>
    <tag k="maxspeed:source" v="default residential speed limit in Australia"/>
  </way>
  <way id="4925473" version="2" timestamp="2010-07-08T09:40:11Z" uid="74617" user="JohnSmith" changeset="5164427">
    <nd ref="32331514"/>
    <nd ref="32331513"/>
    <nd ref="32331515"/>
    <tag k="highway" v="residential"/>
    <tag k="maxspeed" v="50"/>
    <tag k="maxspeed:source" v="default residential speed limit in Australia"/>
  </way>
  <way id="4925479" version="2" timestamp="2010-07-08T09:45:01Z" uid="74617" user="JohnSmith" changeset="5164427">
    <nd ref="32331431"/>
    <nd ref="32331531"/>
    <nd ref="32331532"/>
    <tag k="highway" v="residential"/>
    <tag k="maxspeed" v="50"/>
    <tag k="maxspeed:source" v="default residential speed limit in Australia"/>
  </way>
  <way id="4925480" version="3" timestamp="2010-07-08T09:40:01Z" uid="74617" user="JohnSmith" changeset="5164427">
    <nd ref="32326364"/>
    <nd ref="32331538"/>
    <nd ref="32331622"/>
    <nd ref="32331621"/>
    <nd ref="32331620"/>
    <nd ref="32331619"/>
    <nd ref="32331618"/>
    <nd ref="32331617"/>
    <nd ref="32331616"/>
    <nd ref="32331615"/>
    <nd ref="32331614"/>
    <nd ref="32331613"/>
    <nd ref="32331612"/>
    <nd ref="32331611"/>
    <nd ref="32331610"/>
    <nd ref="32331609"/>
    <nd ref="32331608"/>
    <nd ref="32331607"/>
    <nd ref="32326751"/>
    <tag k="highway" v="residential"/>
    <tag k="maxspeed" v="50"/>
    <tag k="maxspeed:source" v="default residential speed limit in Australia"/>
    <tag k="name" v="Weddel Drive"/>
  </way>
  <way id="4925485" version="2" timestamp="2010-07-08T09:40:44Z" uid="74617" user="JohnSmith" changeset="5164427">
    <nd ref="32331625"/>
    <nd ref="32331626"/>
    <nd ref="32331622"/>
    <tag k="highway" v="residential"/>
    <tag k="maxspeed" v="50"/>
    <tag k="maxspeed:source" v="default residential speed limit in Australia"/>
  </way>
  <way id="4925486" version="2" timestamp="2010-07-08T09:44:51Z" uid="74617" user="JohnSmith" changeset="5164427">
    <nd ref="32331627"/>
    <nd ref="32331628"/>
    <nd ref="32331629"/>
    <tag k="highway" v="residential"/>
    <tag k="maxspeed" v="50"/>
    <tag k="maxspeed:source" v="default residential speed limit in Australia"/>
  </way>
  <way id="4925488" version="2" timestamp="2010-07-08T09:44:49Z" uid="74617" user="JohnSmith" changeset="5164427">
    <nd ref="32331620"/>
    <nd ref="32331629"/>
    <nd ref="32331653"/>
    <nd ref="32331654"/>
    <nd ref="32331655"/>
    <tag k="highway" v="residential"/>
    <tag k="maxspeed" v="50"/>
    <tag k="maxspeed:source" v="default residential speed limit in Australia"/>
  </way>
  <way id="4925489" version="2" timestamp="2010-07-08T09:41:23Z" uid="74617" user="JohnSmith" changeset="5164427">
    <nd ref="32331656"/>
    <nd ref="32331616"/>
    <tag k="highway" v="residential"/>
    <tag k="maxspeed" v="50"/>
    <tag k="maxspeed:source" v="default residential speed limit in Australia"/>
  </way>
  <way id="4925491" version="2" timestamp="2010-07-08T09:42:16Z" uid="74617" user="JohnSmith" changeset="5164427">
    <nd ref="32331664"/>
    <nd ref="32331665"/>
    <nd ref="32331612"/>
    <tag k="highway" v="residential"/>
    <tag k="maxspeed" v="50"/>
    <tag k="maxspeed:source" v="default residential speed limit in Australia"/>
  </way>
  <way id="4925492" version="3" timestamp="2010-07-08T09:42:57Z" uid="74617" user="JohnSmith" changeset="5164427">
    <nd ref="32326362"/>
    <nd ref="32331666"/>
    <nd ref="32331695"/>
    <nd ref="32331689"/>
    <nd ref="32436539"/>
    <nd ref="32436540"/>
    <nd ref="32436541"/>
    <nd ref="32436542"/>
    <nd ref="32436543"/>
    <nd ref="32331688"/>
    <nd ref="32331684"/>
    <nd ref="32436544"/>
    <nd ref="32331678"/>
    <nd ref="32436545"/>
    <nd ref="32436546"/>
    <nd ref="32436547"/>
    <nd ref="32436548"/>
    <nd ref="32325697"/>
    <tag k="highway" v="residential"/>
    <tag k="maxspeed" v="50"/>
    <tag k="maxspeed:source" v="default residential speed limit in Australia"/>
    <tag k="name" v="Honeysuckle Drive"/>
  </way>
  <way id="4925496" version="2" timestamp="2010-07-08T09:41:13Z" uid="74617" user="JohnSmith" changeset="5164427">
    <nd ref="32331678"/>
    <nd ref="32331679"/>
    <tag k="highway" v="residential"/>
    <tag k="maxspeed" v="50"/>
    <tag k="maxspeed:source" v="default residential speed limit in Australia"/>
  </way>
  <way id="4925498" version="2" timestamp="2010-07-08T09:42:05Z" uid="74617" user="JohnSmith" changeset="5164427">
    <nd ref="32331685"/>
    <nd ref="32331686"/>
    <nd ref="32331687"/>
    <nd ref="32331688"/>
    <tag k="highway" v="residential"/>
    <tag k="maxspeed" v="50"/>
    <tag k="maxspeed:source" v="default residential speed limit in Australia"/>
  </way>
  <way id="4925499" version="2" timestamp="2010-07-08T09:44:38Z" uid="74617" user="JohnSmith" changeset="5164427">
    <nd ref="32331689"/>
    <nd ref="32331690"/>
    <nd ref="32331691"/>
    <tag k="highway" v="residential"/>
    <tag k="maxspeed" v="50"/>
    <tag k="maxspeed:source" v="default residential speed limit in Australia"/>
  </way>
  <way id="4925503" version="3" timestamp="2010-07-08T09:42:44Z" uid="74617" user="JohnSmith" changeset="5164427">
    <nd ref="32331694"/>
    <nd ref="32331695"/>
    <nd ref="32331696"/>
    <nd ref="32331697"/>
    <nd ref="32331698"/>
    <nd ref="32331699"/>
    <nd ref="32331700"/>
    <nd ref="32331701"/>
    <nd ref="32331666"/>
    <tag k="highway" v="residential"/>
    <tag k="maxspeed" v="50"/>
    <tag k="maxspeed:source" v="default residential speed limit in Australia"/>
    <tag k="name" v="Serissa Crescent"/>
  </way>
  <way id="4925532" version="2" timestamp="2009-07-05T06:54:25Z" uid="4467" user="Rosscoe" changeset="1736100">
    <nd ref="32331795"/>
    <nd ref="32331796"/>
    <nd ref="32331797"/>
    <nd ref="32331798"/>
    <nd ref="32331832"/>
    <nd ref="32331799"/>
    <nd ref="32331754"/>
    <nd ref="32331800"/>
    <nd ref="32331801"/>
    <nd ref="32331802"/>
    <nd ref="32331803"/>
    <nd ref="32331804"/>
    <nd ref="32331805"/>
    <nd ref="32331806"/>
    <nd ref="32331807"/>
    <nd ref="32331808"/>
    <nd ref="32331809"/>
    <nd ref="32331810"/>
    <nd ref="32331811"/>
    <nd ref="32331812"/>
    <nd ref="32331813"/>
    <nd ref="32331814"/>
    <nd ref="32331815"/>
    <nd ref="32331816"/>
    <nd ref="32331817"/>
    <nd ref="32331818"/>
    <nd ref="32331819"/>
    <nd ref="32331820"/>
    <nd ref="32331822"/>
    <tag k="created_by" v="Potlatch alpha"/>
    <tag k="highway" v="secondary"/>
    <tag k="name" v="Robert Towns Blvd"/>
  </way>
  <way id="4925532" version="3" timestamp="2010-04-25T15:05:58Z" uid="4467" user="Rosscoe" changeset="4522433">
    <nd ref="32331795"/>
    <nd ref="32331796"/>
    <nd ref="32331797"/>
    <nd ref="32331798"/>
    <nd ref="32331832"/>
    <nd ref="32331799"/>
    <nd ref="32331754"/>
    <nd ref="32331800"/>
    <nd ref="32331801"/>
    <nd ref="32331802"/>
    <nd ref="32331803"/>
    <nd ref="32331804"/>
    <nd ref="32331805"/>
    <nd ref="32331806"/>
    <nd ref="32331807"/>
    <nd ref="32331808"/>
    <nd ref="32331809"/>
    <nd ref="32331810"/>
    <nd ref="32331811"/>
    <nd ref="32331812"/>
    <nd ref="32331813"/>
    <nd ref="32331814"/>
    <nd ref="32331815"/>
    <nd ref="32331816"/>
    <nd ref="32331817"/>
    <nd ref="32331818"/>
    <nd ref="32331819"/>
    <nd ref="32331820"/>
    <nd ref="32331822"/>
    <tag k="highway" v="secondary"/>
    <tag k="name" v="Robert Towns Boulevard"/>
  </way>
  <way id="4925546" version="2" timestamp="2009-06-30T00:31:38Z" uid="4467" user="Rosscoe" changeset="1683463">
    <nd ref="32331817"/>
    <nd ref="32331934"/>
    <nd ref="32331935"/>
    <nd ref="32331936"/>
    <nd ref="32331937"/>
    <nd ref="32331921"/>
    <nd ref="32331938"/>
    <nd ref="32331939"/>
    <nd ref="32331940"/>
    <tag k="created_by" v="Potlatch alpha"/>
    <tag k="highway" v="secondary"/>
    <tag k="name" v="Andrew Ball Drive"/>
  </way>
  <way id="4925559" version="3" timestamp="2010-04-25T15:06:01Z" uid="4467" user="Rosscoe" changeset="4522433">
    <nd ref="32332025"/>
    <nd ref="32332027"/>
    <nd ref="32332028"/>
    <nd ref="32332032"/>
    <tag k="highway" v="unclassified"/>
    <tag k="name" v="Gallipoli Drive"/>
  </way>
  <way id="4925568" version="3" timestamp="2010-05-31T02:27:19Z" uid="4467" user="Rosscoe" changeset="4859125">
    <nd ref="32331822"/>
    <nd ref="32332082"/>
    <nd ref="32332027"/>
    <nd ref="32332083"/>
    <nd ref="760155892"/>
    <tag k="highway" v="secondary"/>
    <tag k="name" v="Melton Black Drive"/>
    <tag k="oneway" v="yes"/>
  </way>
  <way id="4925587" version="2" timestamp="2009-07-05T06:54:25Z" uid="4467" user="Rosscoe" changeset="1736100">
    <nd ref="32331829"/>
    <nd ref="32332182"/>
    <nd ref="434308641"/>
    <nd ref="32332183"/>
    <nd ref="434308642"/>
    <nd ref="32332184"/>
    <nd ref="434308643"/>
    <nd ref="434308644"/>
    <nd ref="32332185"/>
    <nd ref="32331831"/>
    <nd ref="32332186"/>
    <nd ref="32332187"/>
    <nd ref="32332114"/>
    <nd ref="32332188"/>
    <nd ref="31275135"/>
    <nd ref="31275066"/>
    <tag k="created_by" v="Potlatch alpha"/>
    <tag k="highway" v="unclassified"/>
    <tag k="source" v="survey"/>
  </way>
  <way id="4925732" version="4" timestamp="2009-01-06T10:45:24Z" uid="27600" user="Islanit" changeset="744602">
    <nd ref="32333405"/>
    <nd ref="32333407"/>
    <nd ref="328971179"/>
    <nd ref="31304716"/>
    <nd ref="31304824"/>
    <tag k="created_by" v="Potlatch 0.10f"/>
    <tag k="highway" v="residential"/>
    <tag k="maxspeed" v="30"/>
    <tag k="name" v="Wiesingerweg"/>
    <tag k="postal_code" v="20253"/>
  </way>
  <way id="4925775" version="3" timestamp="2008-07-24T13:46:58Z" uid="20587" user="balrog-kun" changeset="582294">
    <nd ref="31156851"/>
    <nd ref="31156853"/>
    <nd ref="32611561"/>
    <nd ref="32611553"/>
    <nd ref="35969931"/>
    <tag k="created_by" v="Potlatch 0.7b"/>
    <tag k="highway" v="primary"/>
    <tag k="name" v="Aleja Księcia Józefa Poniatowskiego"/>
    <tag k="oneway" v="yes"/>
  </way>
  <way id="4925775" version="4" timestamp="2008-10-06T20:23:28Z" uid="20587" user="balrog-kun" changeset="108077">
    <nd ref="31156851"/>
    <nd ref="31156853"/>
    <nd ref="32611561"/>
    <nd ref="32611553"/>
    <nd ref="302711446"/>
    <nd ref="302711570"/>
    <nd ref="302711573"/>
    <nd ref="302711576"/>
    <nd ref="302711578"/>
    <nd ref="302711465"/>
    <tag k="created_by" v="Potlatch 0.7b"/>
    <tag k="highway" v="primary"/>
    <tag k="name" v="Aleja Księcia Józefa Poniatowskiego"/>
    <tag k="oneway" v="yes"/>
  </way>
  <way id="4925775" version="5" timestamp="2008-10-30T12:55:50Z" uid="20587" user="balrog-kun" changeset="630541">
    <nd ref="31156851"/>
    <nd ref="31156853"/>
    <nd ref="32611561"/>
    <nd ref="32611553"/>
    <nd ref="302711446"/>
    <nd ref="302711570"/>
    <nd ref="302711573"/>
    <nd ref="302711576"/>
    <nd ref="302711578"/>
    <nd ref="302711465"/>
    <tag k="created_by" v="Potlatch 0.7b"/>
    <tag k="highway" v="primary"/>
    <tag k="name" v="Aleja Księcia Józefa Poniatowskiego"/>
    <tag k="oneway" v="yes"/>
    <tag k="ref" v="631"/>
  </way>
  <way id="4925775" version="7" timestamp="2010-02-26T14:19:56Z" uid="20587" user="balrog-kun" changeset="3980270">
    <nd ref="31156851"/>
    <nd ref="31156853"/>
    <nd ref="32611561"/>
    <nd ref="32611553"/>
    <nd ref="302711446"/>
    <nd ref="302711570"/>
    <nd ref="302711573"/>
    <nd ref="302711576"/>
    <nd ref="302711578"/>
    <nd ref="302711465"/>
    <tag k="highway" v="secondary"/>
    <tag k="maxweight" v="2.5"/>
    <tag k="name" v="Aleja Księcia Józefa Poniatowskiego"/>
    <tag k="oneway" v="yes"/>
    <tag k="ref" v="631"/>
  </way>
  <way id="4925775" version="9" timestamp="2010-05-01T17:19:20Z" uid="20587" user="balrog-kun" changeset="4577369">
    <nd ref="31156851"/>
    <nd ref="31156853"/>
    <nd ref="32611561"/>
    <nd ref="32611553"/>
    <nd ref="302711446"/>
    <nd ref="302711570"/>
    <nd ref="660018788"/>
    <nd ref="660018790"/>
    <nd ref="302711573"/>
    <nd ref="302711576"/>
    <nd ref="302711578"/>
    <nd ref="302711465"/>
    <tag k="highway" v="secondary"/>
    <tag k="lanes" v="3"/>
    <tag k="maxweight" v="2.5"/>
    <tag k="name" v="Aleja Księcia Józefa Poniatowskiego"/>
    <tag k="oneway" v="yes"/>
    <tag k="ref" v="631"/>
  </way>
  <way id="4925777" version="2" timestamp="2008-03-26T00:05:45Z" uid="20587" user="balrog-kun" changeset="397044">
    <nd ref="32215281"/>
    <nd ref="32215282"/>
    <nd ref="32215283"/>
    <nd ref="32215284"/>
    <nd ref="32215285"/>
    <nd ref="32333980"/>
    <nd ref="32215286"/>
    <nd ref="254021331"/>
    <nd ref="32215287"/>
    <nd ref="32215288"/>
    <nd ref="254021349"/>
    <nd ref="32215289"/>
    <nd ref="32334016"/>
    <nd ref="32215290"/>
    <nd ref="32334014"/>
    <nd ref="32215291"/>
    <nd ref="32215292"/>
    <tag k="created_by" v="JOSM"/>
    <tag k="highway" v="trunk"/>
    <tag k="oneway" v="yes"/>
  </way>
  <way id="4925777" version="4" timestamp="2008-07-18T06:19:19Z" uid="20587" user="balrog-kun" changeset="529028">
    <nd ref="32215281"/>
    <nd ref="32215282"/>
    <nd ref="32215283"/>
    <nd ref="32215284"/>
    <nd ref="32215285"/>
    <nd ref="32333980"/>
    <nd ref="32215286"/>
    <nd ref="254021331"/>
    <nd ref="32215287"/>
    <nd ref="32215288"/>
    <nd ref="254021349"/>
    <nd ref="32215289"/>
    <nd ref="32334016"/>
    <nd ref="32215290"/>
    <nd ref="32334014"/>
    <nd ref="32215291"/>
    <nd ref="32215292"/>
    <tag k="created_by" v="Potlatch 0.8a"/>
    <tag k="highway" v="trunk"/>
    <tag k="layer" v="1"/>
    <tag k="name" v="Trasa Siekierkowska"/>
    <tag k="oneway" v="yes"/>
  </way>
  <way id="4925777" version="5" timestamp="2008-12-13T22:55:42Z" uid="20587" user="balrog-kun" changeset="354744">
    <nd ref="32215281"/>
    <nd ref="32215282"/>
    <nd ref="32215283"/>
    <nd ref="318495801"/>
    <nd ref="318495800"/>
    <nd ref="32215284"/>
    <nd ref="318495873"/>
    <nd ref="318495803"/>
    <nd ref="318495802"/>
    <nd ref="32215285"/>
    <tag k="bridge" v="yes"/>
    <tag k="created_by" v="Potlatch 0.8a"/>
    <tag k="highway" v="trunk"/>
    <tag k="layer" v="1"/>
    <tag k="name" v="Trasa Siekierkowska"/>
    <tag k="oneway" v="yes"/>
  </way>
  <way id="4925777" version="6" timestamp="2009-01-07T14:24:42Z" uid="20587" user="balrog-kun" changeset="752764">
    <nd ref="32215281"/>
    <nd ref="32215282"/>
    <nd ref="32215283"/>
    <nd ref="318495801"/>
    <nd ref="318495800"/>
    <nd ref="32215284"/>
    <nd ref="318495873"/>
    <nd ref="318495803"/>
    <nd ref="318495802"/>
    <nd ref="32215285"/>
    <tag k="bridge" v="yes"/>
    <tag k="created_by" v="Potlatch 0.8a"/>
    <tag k="highway" v="trunk"/>
    <tag k="layer" v="1"/>
    <tag k="name" v="Trasa Siekierkowska"/>
    <tag k="oneway" v="yes"/>
    <tag k="wikipedia" v="pl:Trasa Siekierkowska w Warszawie"/>
  </way>
  <way id="4925777" version="7" timestamp="2009-12-31T18:18:02Z" uid="20587" user="balrog-kun" changeset="3503286">
    <nd ref="32215281"/>
    <nd ref="32215282"/>
    <nd ref="32215283"/>
    <nd ref="318495801"/>
    <nd ref="318495800"/>
    <nd ref="32215284"/>
    <nd ref="318495873"/>
    <nd ref="318495803"/>
    <nd ref="318495802"/>
    <nd ref="32215285"/>
    <tag k="bridge" v="yes"/>
    <tag k="highway" v="trunk"/>
    <tag k="layer" v="1"/>
    <tag k="maxspeed" v="80"/>
    <tag k="name" v="Trasa Siekierkowska"/>
    <tag k="oneway" v="yes"/>
    <tag k="wikipedia" v="pl:Trasa Siekierkowska w Warszawie"/>
  </way>
  <way id="4925777" version="8" timestamp="2010-06-05T23:33:01Z" uid="20587" user="balrog-kun" changeset="4913470">
    <nd ref="32215281"/>
    <nd ref="32215282"/>
    <nd ref="765373293"/>
    <nd ref="32215283"/>
    <nd ref="318495801"/>
    <nd ref="318495800"/>
    <nd ref="32215284"/>
    <nd ref="318495873"/>
    <nd ref="318495803"/>
    <nd ref="318495802"/>
    <nd ref="32215285"/>
    <tag k="bridge" v="yes"/>
    <tag k="highway" v="trunk"/>
    <tag k="layer" v="1"/>
    <tag k="maxspeed" v="80"/>
    <tag k="name" v="Trasa Siekierkowska"/>
    <tag k="oneway" v="yes"/>
    <tag k="wikipedia" v="pl:Trasa Siekierkowska w Warszawie"/>
  </way>
  <way id="4925778" version="2" timestamp="2008-10-26T12:47:33Z" uid="20587" user="balrog-kun" changeset="579333">
    <nd ref="32333978"/>
    <nd ref="307666001"/>
    <nd ref="307666005"/>
    <nd ref="29167757"/>
    <nd ref="32333962"/>
    <nd ref="32333963"/>
    <tag k="bridge" v="yes"/>
    <tag k="created_by" v="JOSM"/>
    <tag k="highway" v="trunk"/>
    <tag k="layer" v="1"/>
    <tag k="oneway" v="yes"/>
  </way>
  <way id="4925778" version="3" timestamp="2009-12-31T18:17:53Z" uid="20587" user="balrog-kun" changeset="3503286">
    <nd ref="32333978"/>
    <nd ref="307666001"/>
    <nd ref="307666005"/>
    <nd ref="29167757"/>
    <nd ref="32333962"/>
    <nd ref="32333963"/>
    <tag k="bridge" v="yes"/>
    <tag k="highway" v="trunk"/>
    <tag k="layer" v="1"/>
    <tag k="maxspeed" v="70"/>
    <tag k="oneway" v="yes"/>
  </way>
  <way id="4925778" version="4" timestamp="2010-06-05T23:33:16Z" uid="20587" user="balrog-kun" changeset="4913470">
    <nd ref="32333978"/>
    <nd ref="307666001"/>
    <nd ref="307666005"/>
    <nd ref="29167757"/>
    <nd ref="765373263"/>
    <nd ref="32333962"/>
    <nd ref="32333963"/>
    <tag k="bridge" v="yes"/>
    <tag k="highway" v="trunk"/>
    <tag k="layer" v="1"/>
    <tag k="maxspeed" v="70"/>
    <tag k="oneway" v="yes"/>
  </way>
  <way id="4925779" version="4" timestamp="2008-07-18T06:19:18Z" uid="20587" user="balrog-kun" changeset="529028">
    <nd ref="32333973"/>
    <nd ref="256169803"/>
    <nd ref="99349992"/>
    <nd ref="32333974"/>
    <tag k="bridge" v="yes"/>
    <tag k="created_by" v="JOSM"/>
    <tag k="highway" v="trunk"/>
    <tag k="layer" v="1"/>
    <tag k="name" v="Most Siekierkowski"/>
    <tag k="oneway" v="yes"/>
  </way>
  <way id="4925779" version="5" timestamp="2009-01-07T14:24:41Z" uid="20587" user="balrog-kun" changeset="752764">
    <nd ref="32333973"/>
    <nd ref="256169803"/>
    <nd ref="99349992"/>
    <nd ref="32333974"/>
    <tag k="bridge" v="yes"/>
    <tag k="created_by" v="JOSM"/>
    <tag k="highway" v="trunk"/>
    <tag k="layer" v="1"/>
    <tag k="name" v="Most Siekierkowski"/>
    <tag k="oneway" v="yes"/>
    <tag k="wikipedia" v="pl:Trasa Siekierkowska w Warszawie"/>
  </way>
  <way id="4925779" version="6" timestamp="2010-06-05T23:32:51Z" uid="20587" user="balrog-kun" changeset="4913470">
    <nd ref="32333973"/>
    <nd ref="256169803"/>
    <nd ref="765372755"/>
    <nd ref="99349992"/>
    <nd ref="32333974"/>
    <tag k="bridge" v="yes"/>
    <tag k="highway" v="trunk"/>
    <tag k="layer" v="1"/>
    <tag k="name" v="Most Siekierkowski"/>
    <tag k="oneway" v="yes"/>
    <tag k="wikipedia" v="pl:Trasa Siekierkowska w Warszawie"/>
  </way>
  <way id="4925779" version="7" timestamp="2010-06-20T03:22:54Z" uid="20587" user="balrog-kun" changeset="5029412">
    <nd ref="32333973"/>
    <nd ref="256169803"/>
    <nd ref="765372755"/>
    <nd ref="99349992"/>
    <nd ref="32333974"/>
    <tag k="bridge" v="yes"/>
    <tag k="height" v="9.08"/>
    <tag k="highway" v="trunk"/>
    <tag k="layer" v="1"/>
    <tag k="name" v="Most Siekierkowski"/>
    <tag k="oneway" v="yes"/>
    <tag k="wikipedia" v="pl:Trasa Siekierkowska w Warszawie"/>
  </way>
  <way id="4925780" version="2" timestamp="2008-06-14T14:02:34Z" uid="20587" user="balrog-kun" changeset="156673">
    <nd ref="28396112"/>
    <nd ref="32333978"/>
    <tag k="created_by" v="JOSM"/>
    <tag k="highway" v="trunk"/>
    <tag k="layer" v="1"/>
    <tag k="oneway" v="yes"/>
  </way>
  <way id="4925780" version="3" timestamp="2009-12-31T18:17:47Z" uid="20587" user="balrog-kun" changeset="3503286">
    <nd ref="28396112"/>
    <nd ref="32333978"/>
    <tag k="highway" v="trunk"/>
    <tag k="layer" v="1"/>
    <tag k="maxspeed" v="70"/>
    <tag k="oneway" v="yes"/>
  </way>
  <way id="4925780" version="4" timestamp="2010-06-05T23:33:09Z" uid="20587" user="balrog-kun" changeset="4913470">
    <nd ref="28396112"/>
    <nd ref="765373253"/>
    <nd ref="765372899"/>
    <nd ref="32333978"/>
    <tag k="highway" v="trunk"/>
    <tag k="layer" v="1"/>
    <tag k="maxspeed" v="70"/>
    <tag k="oneway" v="yes"/>
  </way>
  <way id="4925780" version="5" timestamp="2010-06-05T23:46:43Z" uid="20587" user="balrog-kun" changeset="4913508">
    <nd ref="28396112"/>
    <nd ref="765373253"/>
    <nd ref="765372899"/>
    <nd ref="765373733"/>
    <nd ref="32333978"/>
    <tag k="highway" v="trunk"/>
    <tag k="layer" v="1"/>
    <tag k="maxspeed" v="70"/>
    <tag k="oneway" v="yes"/>
  </way>
  <way id="4925781" version="2" timestamp="2008-02-24T00:58:50Z" uid="20587" user="balrog-kun" changeset="196214">
    <nd ref="32333974"/>
    <nd ref="248988879"/>
    <nd ref="29167813"/>
    <tag k="created_by" v="JOSM"/>
    <tag k="highway" v="trunk"/>
    <tag k="oneway" v="yes"/>
  </way>
  <way id="4925781" version="3" timestamp="2008-03-26T00:39:23Z" uid="20587" user="balrog-kun" changeset="397044">
    <nd ref="32333974"/>
    <nd ref="254022889"/>
    <tag k="created_by" v="JOSM"/>
    <tag k="highway" v="trunk"/>
    <tag k="oneway" v="yes"/>
  </way>
  <way id="4925781" version="5" timestamp="2009-02-10T18:10:05Z" uid="20587" user="balrog-kun" changeset="324729">
    <nd ref="32333974"/>
    <nd ref="295167068"/>
    <nd ref="254022889"/>
    <tag k="created_by" v="Potlatch 0.10b"/>
    <tag k="highway" v="trunk"/>
    <tag k="oneway" v="yes"/>
    <tag k="wikipedia" v="pl:Trasa Siekierkowska w Warszawie ["/>
  </way>
  <way id="4925781" version="6" timestamp="2009-10-03T19:27:30Z" uid="20587" user="balrog-kun" changeset="2728543">
    <nd ref="32333974"/>
    <nd ref="295167068"/>
    <nd ref="254022889"/>
    <tag k="highway" v="trunk"/>
    <tag k="oneway" v="yes"/>
    <tag k="wikipedia" v="pl:Trasa Siekierkowska w Warszawie"/>
  </way>
  <way id="4925781" version="7" timestamp="2010-06-05T23:33:24Z" uid="20587" user="balrog-kun" changeset="4913470">
    <nd ref="32333974"/>
    <nd ref="765373460"/>
    <nd ref="295167068"/>
    <nd ref="254022889"/>
    <tag k="highway" v="trunk"/>
    <tag k="oneway" v="yes"/>
    <tag k="wikipedia" v="pl:Trasa Siekierkowska w Warszawie"/>
  </way>
  <way id="4925782" version="2" timestamp="2009-12-31T18:17:54Z" uid="20587" user="balrog-kun" changeset="3503286">
    <nd ref="32215292"/>
    <nd ref="32215293"/>
    <nd ref="32215294"/>
    <nd ref="32333979"/>
    <tag k="bridge" v="yes"/>
    <tag k="highway" v="trunk"/>
    <tag k="layer" v="1"/>
    <tag k="maxspeed" v="60"/>
    <tag k="oneway" v="yes"/>
  </way>
  <way id="4925782" version="3" timestamp="2010-06-05T23:32:59Z" uid="20587" user="balrog-kun" changeset="4913470">
    <nd ref="32215292"/>
    <nd ref="32215293"/>
    <nd ref="765373699"/>
    <nd ref="32215294"/>
    <nd ref="32333979"/>
    <tag k="bridge" v="yes"/>
    <tag k="highway" v="trunk"/>
    <tag k="layer" v="1"/>
    <tag k="maxspeed" v="60"/>
    <tag k="oneway" v="yes"/>
  </way>
  <way id="4925783" version="2" timestamp="2008-06-14T14:02:33Z" uid="20587" user="balrog-kun" changeset="156673">
    <nd ref="32333979"/>
    <nd ref="29169081"/>
    <tag k="created_by" v="JOSM"/>
    <tag k="highway" v="trunk"/>
    <tag k="layer" v="1"/>
    <tag k="oneway" v="yes"/>
  </way>
  <way id="4925783" version="3" timestamp="2009-12-31T18:17:47Z" uid="20587" user="balrog-kun" changeset="3503286">
    <nd ref="32333979"/>
    <nd ref="29169081"/>
    <tag k="highway" v="trunk"/>
    <tag k="layer" v="1"/>
    <tag k="maxspeed" v="60"/>
    <tag k="oneway" v="yes"/>
  </way>
  <way id="4925783" version="4" timestamp="2010-06-05T23:33:14Z" uid="20587" user="balrog-kun" changeset="4913470">
    <nd ref="32333979"/>
    <nd ref="765373564"/>
    <nd ref="29169081"/>
    <tag k="highway" v="trunk"/>
    <tag k="layer" v="1"/>
    <tag k="maxspeed" v="60"/>
    <tag k="oneway" v="yes"/>
  </way>
  <way id="4925784" version="2" timestamp="2008-02-24T01:28:45Z" uid="20587" user="balrog-kun" changeset="196214">
    <nd ref="32333963"/>
    <nd ref="32333964"/>
    <nd ref="32334015"/>
    <nd ref="32333965"/>
    <nd ref="32334017"/>
    <nd ref="32333966"/>
    <nd ref="32333967"/>
    <nd ref="32333968"/>
    <nd ref="32333969"/>
    <nd ref="32333981"/>
    <nd ref="32333970"/>
    <nd ref="32333971"/>
    <nd ref="248994633"/>
    <nd ref="32333972"/>
    <nd ref="32333973"/>
    <tag k="created_by" v="JOSM"/>
    <tag k="highway" v="trunk"/>
    <tag k="oneway" v="yes"/>
  </way>
  <way id="4925784" version="3" timestamp="2008-03-26T00:05:47Z" uid="20587" user="balrog-kun" changeset="397044">
    <nd ref="32333963"/>
    <nd ref="32333964"/>
    <nd ref="32334015"/>
    <nd ref="32333965"/>
    <nd ref="32334017"/>
    <nd ref="32333966"/>
    <nd ref="254021359"/>
    <nd ref="32333967"/>
    <nd ref="32333968"/>
    <nd ref="254021357"/>
    <nd ref="32333969"/>
    <nd ref="32333981"/>
    <nd ref="32333970"/>
    <nd ref="32333971"/>
    <nd ref="248994633"/>
    <nd ref="32333972"/>
    <nd ref="32333973"/>
    <tag k="created_by" v="JOSM"/>
    <tag k="highway" v="trunk"/>
    <tag k="oneway" v="yes"/>
  </way>
  <way id="4925784" version="6" timestamp="2008-07-18T06:19:20Z" uid="20587" user="balrog-kun" changeset="529028">
    <nd ref="32333963"/>
    <nd ref="32333964"/>
    <nd ref="32334015"/>
    <nd ref="32333965"/>
    <nd ref="32334017"/>
    <nd ref="32333966"/>
    <nd ref="254021359"/>
    <nd ref="32333967"/>
    <nd ref="32333968"/>
    <nd ref="254021357"/>
    <nd ref="32333969"/>
    <nd ref="32333981"/>
    <nd ref="32333970"/>
    <nd ref="32333971"/>
    <nd ref="248994633"/>
    <nd ref="32333972"/>
    <nd ref="32333973"/>
    <tag k="created_by" v="Potlatch 0.8a"/>
    <tag k="highway" v="trunk"/>
    <tag k="lanes" v="3"/>
    <tag k="layer" v="1"/>
    <tag k="name" v="Trasa Siekierkowska"/>
    <tag k="oneway" v="yes"/>
  </way>
  <way id="4925784" version="7" timestamp="2008-10-26T12:47:33Z" uid="20587" user="balrog-kun" changeset="579333">
    <nd ref="32333963"/>
    <nd ref="32333964"/>
    <nd ref="307666007"/>
    <nd ref="32334015"/>
    <nd ref="32333965"/>
    <nd ref="32334017"/>
    <nd ref="32333966"/>
    <nd ref="254021359"/>
    <nd ref="32333967"/>
    <nd ref="32333968"/>
    <nd ref="254021357"/>
    <nd ref="32333969"/>
    <nd ref="32333981"/>
    <nd ref="32333970"/>
    <nd ref="32333971"/>
    <nd ref="248994633"/>
    <nd ref="32333972"/>
    <nd ref="32333973"/>
    <tag k="created_by" v="Potlatch 0.8a"/>
    <tag k="highway" v="trunk"/>
    <tag k="lanes" v="3"/>
    <tag k="layer" v="1"/>
    <tag k="name" v="Trasa Siekierkowska"/>
    <tag k="oneway" v="yes"/>
  </way>
  <way id="4925784" version="8" timestamp="2008-12-13T22:55:42Z" uid="20587" user="balrog-kun" changeset="354744">
    <nd ref="32333963"/>
    <nd ref="32333964"/>
    <nd ref="307666007"/>
    <nd ref="318495838"/>
    <nd ref="32334015"/>
    <nd ref="318495839"/>
    <nd ref="32333965"/>
    <nd ref="32334017"/>
    <nd ref="32333966"/>
    <nd ref="254021359"/>
    <nd ref="32333967"/>
    <nd ref="318495833"/>
    <nd ref="32333968"/>
    <nd ref="254021357"/>
    <nd ref="318496173"/>
    <tag k="created_by" v="Potlatch 0.8a"/>
    <tag k="highway" v="trunk"/>
    <tag k="lanes" v="3"/>
    <tag k="layer" v="1"/>
    <tag k="name" v="Trasa Siekierkowska"/>
    <tag k="oneway" v="yes"/>
  </way>
  <way id="4925784" version="9" timestamp="2009-01-07T14:24:43Z" uid="20587" user="balrog-kun" changeset="752764">
    <nd ref="32333963"/>
    <nd ref="32333964"/>
    <nd ref="307666007"/>
    <nd ref="318495838"/>
    <nd ref="32334015"/>
    <nd ref="318495839"/>
    <nd ref="32333965"/>
    <nd ref="32334017"/>
    <nd ref="32333966"/>
    <nd ref="254021359"/>
    <nd ref="32333967"/>
    <nd ref="318495833"/>
    <nd ref="32333968"/>
    <nd ref="254021357"/>
    <nd ref="318496173"/>
    <tag k="created_by" v="Potlatch 0.8a"/>
    <tag k="highway" v="trunk"/>
    <tag k="lanes" v="3"/>
    <tag k="layer" v="1"/>
    <tag k="name" v="Trasa Siekierkowska"/>
    <tag k="oneway" v="yes"/>
    <tag k="wikipedia" v="pl:Trasa Siekierkowska w Warszawie"/>
  </way>
  <way id="4925784" version="10" timestamp="2009-12-31T18:17:54Z" uid="20587" user="balrog-kun" changeset="3503286">
    <nd ref="32333963"/>
    <nd ref="32333964"/>
    <nd ref="307666007"/>
    <nd ref="318495838"/>
    <nd ref="32334015"/>
    <nd ref="318495839"/>
    <nd ref="32333965"/>
    <nd ref="32334017"/>
    <nd ref="32333966"/>
    <nd ref="254021359"/>
    <nd ref="32333967"/>
    <nd ref="318495833"/>
    <nd ref="32333968"/>
    <nd ref="254021357"/>
    <nd ref="318496173"/>
    <tag k="highway" v="trunk"/>
    <tag k="lanes" v="3"/>
    <tag k="layer" v="1"/>
    <tag k="maxspeed" v="80"/>
    <tag k="name" v="Trasa Siekierkowska"/>
    <tag k="oneway" v="yes"/>
    <tag k="wikipedia" v="pl:Trasa Siekierkowska w Warszawie"/>
  </way>
  <way id="4925784" version="11" timestamp="2010-06-05T23:33:22Z" uid="20587" user="balrog-kun" changeset="4913470">
    <nd ref="32333963"/>
    <nd ref="32333964"/>
    <nd ref="307666007"/>
    <nd ref="765373116"/>
    <nd ref="318495838"/>
    <nd ref="32334015"/>
    <nd ref="318495839"/>
    <nd ref="32333965"/>
    <nd ref="32334017"/>
    <nd ref="32333966"/>
    <nd ref="254021359"/>
    <nd ref="32333967"/>
    <nd ref="318495833"/>
    <nd ref="32333968"/>
    <nd ref="254021357"/>
    <nd ref="318496173"/>
    <tag k="highway" v="trunk"/>
    <tag k="lanes" v="3"/>
    <tag k="layer" v="1"/>
    <tag k="maxspeed" v="80"/>
    <tag k="name" v="Trasa Siekierkowska"/>
    <tag k="oneway" v="yes"/>
    <tag k="wikipedia" v="pl:Trasa Siekierkowska w Warszawie"/>
  </way>
  <way id="4925786" version="3" timestamp="2008-03-26T00:39:23Z" uid="20587" user="balrog-kun" changeset="397044">
    <nd ref="32215280"/>
    <nd ref="151007005"/>
    <nd ref="254022890"/>
    <tag k="created_by" v="Potlatch 0.5d"/>
    <tag k="highway" v="trunk_link"/>
    <tag k="oneway" v="yes"/>
  </way>
  <way id="4925786" version="4" timestamp="2008-06-27T02:36:02Z" uid="20587" user="balrog-kun" changeset="307391">
    <nd ref="32215280"/>
    <nd ref="273582866"/>
    <nd ref="151007005"/>
    <nd ref="254022890"/>
    <tag k="created_by" v="Potlatch 0.5d"/>
    <tag k="highway" v="trunk_link"/>
    <tag k="oneway" v="yes"/>
  </way>
  <way id="4925786" version="5" timestamp="2008-07-18T06:19:20Z" uid="20587" user="balrog-kun" changeset="529028">
    <nd ref="32215280"/>
    <nd ref="273582866"/>
    <nd ref="279233125"/>
    <nd ref="151007005"/>
    <nd ref="254022890"/>
    <tag k="created_by" v="Potlatch 0.5d"/>
    <tag k="highway" v="trunk_link"/>
    <tag k="oneway" v="yes"/>
  </way>
  <way id="4925786" version="6" timestamp="2009-02-10T18:10:06Z" uid="20587" user="balrog-kun" changeset="324729">
    <nd ref="32215280"/>
    <nd ref="273582866"/>
    <nd ref="279233125"/>
    <nd ref="151007005"/>
    <nd ref="254022890"/>
    <tag k="created_by" v="Potlatch 0.5d"/>
    <tag k="highway" v="trunk_link"/>
    <tag k="oneway" v="yes"/>
    <tag k="wikipedia" v="pl:Węzeł Bora-Komorowskiego"/>
  </way>
  <way id="4925787" version="2" timestamp="2008-03-26T00:05:46Z" uid="20587" user="balrog-kun" changeset="397044">
    <nd ref="32333987"/>
    <nd ref="254021311"/>
    <nd ref="32333986"/>
    <nd ref="32334170"/>
    <nd ref="32333977"/>
    <tag k="created_by" v="piotrc@plusnet.pl"/>
    <tag k="highway" v="primary"/>
    <tag k="name" v="Czerniakowska"/>
    <tag k="oneway" v="yes"/>
    <tag k="ref" v="7"/>
  </way>
  <way id="4925787" version="3" timestamp="2010-06-05T23:32:46Z" uid="20587" user="balrog-kun" changeset="4913470">
    <nd ref="32333987"/>
    <nd ref="765373974"/>
    <nd ref="254021311"/>
    <nd ref="765373333"/>
    <nd ref="32333986"/>
    <nd ref="765372713"/>
    <nd ref="765372966"/>
    <nd ref="32334170"/>
    <nd ref="32333977"/>
    <tag k="highway" v="primary"/>
    <tag k="name" v="Czerniakowska"/>
    <tag k="oneway" v="yes"/>
    <tag k="ref" v="7"/>
  </way>
  <way id="4925788" version="2" timestamp="2008-03-26T00:05:48Z" uid="20587" user="balrog-kun" changeset="397044">
    <nd ref="32333988"/>
    <nd ref="254021458"/>
    <nd ref="32333987"/>
    <tag k="created_by" v="JOSM"/>
    <tag k="highway" v="primary"/>
    <tag k="name" v="Czerniakowska"/>
    <tag k="oneway" v="yes"/>
    <tag k="ref" v="724"/>
  </way>
  <way id="4925788" version="3" timestamp="2008-10-26T12:47:34Z" uid="20587" user="balrog-kun" changeset="579333">
    <nd ref="32333988"/>
    <nd ref="307665972"/>
    <nd ref="254021458"/>
    <nd ref="32333987"/>
    <tag k="created_by" v="JOSM"/>
    <tag k="highway" v="primary"/>
    <tag k="name" v="Czerniakowska"/>
    <tag k="oneway" v="yes"/>
    <tag k="ref" v="724"/>
  </way>
  <way id="4925788" version="4" timestamp="2009-11-01T13:38:34Z" uid="20587" user="balrog-kun" changeset="3006344">
    <nd ref="32333988"/>
    <nd ref="307665972"/>
    <nd ref="254021458"/>
    <nd ref="32333987"/>
    <tag k="highway" v="primary"/>
    <tag k="name" v="Czerniakowska"/>
    <tag k="oneway" v="yes"/>
    <tag k="ref" v="724"/>
  </way>
  <way id="4925788" version="5" timestamp="2010-06-05T23:33:04Z" uid="20587" user="balrog-kun" changeset="4913470">
    <nd ref="32333988"/>
    <nd ref="765372685"/>
    <nd ref="307665972"/>
    <nd ref="765373021"/>
    <nd ref="254021458"/>
    <nd ref="32333987"/>
    <tag k="highway" v="primary"/>
    <tag k="name" v="Czerniakowska"/>
    <tag k="oneway" v="yes"/>
    <tag k="ref" v="724"/>
  </way>
  <way id="4925789" version="2" timestamp="2008-03-26T00:05:48Z" uid="20587" user="balrog-kun" changeset="397044">
    <nd ref="32333992"/>
    <nd ref="254021313"/>
    <nd ref="32333986"/>
    <tag k="created_by" v="JOSM"/>
    <tag k="highway" v="primary_link"/>
  </way>
  <way id="4925789" version="3" timestamp="2008-10-26T12:47:34Z" uid="20587" user="balrog-kun" changeset="579333">
    <nd ref="32333992"/>
    <nd ref="307666100"/>
    <nd ref="254021313"/>
    <nd ref="307666101"/>
    <nd ref="32333986"/>
    <tag k="created_by" v="JOSM"/>
    <tag k="highway" v="primary_link"/>
  </way>
  <way id="4925789" version="4" timestamp="2010-06-05T23:33:19Z" uid="20587" user="balrog-kun" changeset="4913470">
    <nd ref="32333992"/>
    <nd ref="307666100"/>
    <nd ref="765373927"/>
    <nd ref="765373037"/>
    <nd ref="765372943"/>
    <nd ref="765373167"/>
    <nd ref="32333986"/>
    <tag k="highway" v="primary_link"/>
    <tag k="oneway" v="yes"/>
  </way>
  <way id="4925790" version="2" timestamp="2008-03-26T00:05:48Z" uid="20587" user="balrog-kun" changeset="397044">
    <nd ref="32333996"/>
    <nd ref="254021449"/>
    <nd ref="32333997"/>
    <tag k="created_by" v="JOSM"/>
    <tag k="highway" v="primary_link"/>
  </way>
  <way id="4925790" version="3" timestamp="2008-10-26T12:47:34Z" uid="20587" user="balrog-kun" changeset="579333">
    <nd ref="32333996"/>
    <nd ref="307665998"/>
    <nd ref="254021449"/>
    <nd ref="307665999"/>
    <nd ref="32333997"/>
    <tag k="created_by" v="JOSM"/>
    <tag k="highway" v="primary_link"/>
  </way>
  <way id="4925790" version="4" timestamp="2010-06-05T23:32:54Z" uid="20587" user="balrog-kun" changeset="4913470">
    <nd ref="32333996"/>
    <nd ref="765373670"/>
    <nd ref="765372841"/>
    <nd ref="765373071"/>
    <nd ref="765372663"/>
    <nd ref="765372980"/>
    <nd ref="765373740"/>
    <tag k="highway" v="primary_link"/>
    <tag k="oneway" v="yes"/>
  </way>
  <way id="4925791" version="2" timestamp="2008-06-14T14:02:34Z" uid="20587" user="balrog-kun" changeset="156673">
    <nd ref="28396110"/>
    <nd ref="32333994"/>
    <nd ref="270290736"/>
    <nd ref="32333996"/>
    <tag k="created_by" v="JOSM"/>
    <tag k="highway" v="primary"/>
  </way>
  <way id="4925791" version="3" timestamp="2009-12-31T18:17:47Z" uid="20587" user="balrog-kun" changeset="3503286">
    <nd ref="28396110"/>
    <nd ref="32333994"/>
    <nd ref="270290736"/>
    <nd ref="32333996"/>
    <tag k="highway" v="primary"/>
    <tag k="maxspeed" v="60"/>
  </way>
  <way id="4925791" version="4" timestamp="2010-06-05T23:33:11Z" uid="20587" user="balrog-kun" changeset="4913470">
    <nd ref="28396110"/>
    <nd ref="32333994"/>
    <nd ref="270290736"/>
    <nd ref="765373313"/>
    <nd ref="32333996"/>
    <tag k="highway" v="primary"/>
    <tag k="maxspeed" v="60"/>
  </way>
  <way id="4925792" version="2" timestamp="2008-03-26T00:05:42Z" uid="20587" user="balrog-kun" changeset="397044">
    <nd ref="32333996"/>
    <nd ref="254021636"/>
    <nd ref="32333987"/>
    <nd ref="254021556"/>
    <nd ref="32333995"/>
    <nd ref="32334001"/>
    <nd ref="32333999"/>
    <nd ref="32334017"/>
    <tag k="created_by" v="JOSM"/>
    <tag k="highway" v="primary"/>
    <tag k="oneway" v="yes"/>
  </way>
  <way id="4925792" version="3" timestamp="2008-10-26T12:47:32Z" uid="20587" user="balrog-kun" changeset="579333">
    <nd ref="32333996"/>
    <nd ref="254021636"/>
    <nd ref="32333987"/>
    <nd ref="254021556"/>
    <nd ref="307665969"/>
    <nd ref="32333995"/>
    <nd ref="307666008"/>
    <nd ref="32334001"/>
    <nd ref="32333999"/>
    <nd ref="32334017"/>
    <tag k="created_by" v="JOSM"/>
    <tag k="highway" v="primary"/>
    <tag k="oneway" v="yes"/>
  </way>
  <way id="4925792" version="4" timestamp="2010-06-05T23:33:10Z" uid="20587" user="balrog-kun" changeset="4913470">
    <nd ref="32333996"/>
    <nd ref="765373663"/>
    <nd ref="254021636"/>
    <nd ref="765373234"/>
    <nd ref="765373819"/>
    <nd ref="32333987"/>
    <nd ref="254021556"/>
    <nd ref="765373322"/>
    <nd ref="307665969"/>
    <nd ref="32333995"/>
    <nd ref="765373310"/>
    <nd ref="765372656"/>
    <nd ref="765373566"/>
    <nd ref="307666008"/>
    <nd ref="765372751"/>
    <nd ref="765372936"/>
    <nd ref="765373379"/>
    <nd ref="318495839"/>
    <tag k="highway" v="primary"/>
    <tag k="oneway" v="yes"/>
  </way>
  <way id="4925793" version="2" timestamp="2008-03-26T00:05:43Z" uid="20587" user="balrog-kun" changeset="397044">
    <nd ref="32334014"/>
    <nd ref="254021316"/>
    <nd ref="32334000"/>
    <nd ref="32333993"/>
    <nd ref="32333992"/>
    <nd ref="254021554"/>
    <nd ref="254021634"/>
    <nd ref="29169080"/>
    <tag k="created_by" v="JOSM"/>
    <tag k="highway" v="primary"/>
    <tag k="oneway" v="yes"/>
  </way>
  <way id="4925793" version="3" timestamp="2008-04-30T22:30:48Z" uid="20587" user="balrog-kun" changeset="298271">
    <nd ref="32334014"/>
    <nd ref="254021316"/>
    <nd ref="32334000"/>
    <nd ref="32333993"/>
    <nd ref="32333992"/>
    <nd ref="254021554"/>
    <nd ref="29169080"/>
    <tag k="created_by" v="JOSM"/>
    <tag k="highway" v="primary"/>
    <tag k="oneway" v="yes"/>
  </way>
  <way id="4925793" version="4" timestamp="2008-07-23T00:53:48Z" uid="20587" user="balrog-kun" changeset="572553">
    <nd ref="32334014"/>
    <nd ref="254021316"/>
    <nd ref="32334000"/>
    <nd ref="280378083"/>
    <nd ref="32333993"/>
    <nd ref="32333992"/>
    <nd ref="254021554"/>
    <nd ref="29169080"/>
    <tag k="created_by" v="JOSM"/>
    <tag k="highway" v="primary"/>
    <tag k="oneway" v="yes"/>
  </way>
  <way id="4925793" version="5" timestamp="2010-06-05T23:32:40Z" uid="20587" user="balrog-kun" changeset="4913470">
    <nd ref="32334014"/>
    <nd ref="254021316"/>
    <nd ref="32334000"/>
    <nd ref="280378083"/>
    <nd ref="32333993"/>
    <nd ref="32333992"/>
    <nd ref="765373540"/>
    <nd ref="254021554"/>
    <nd ref="765373743"/>
    <nd ref="29169080"/>
    <tag k="highway" v="primary"/>
    <tag k="oneway" v="yes"/>
  </way>
  <way id="4925795" version="2" timestamp="2008-03-26T00:05:43Z" uid="20587" user="balrog-kun" changeset="397044">
    <nd ref="32333983"/>
    <nd ref="32333982"/>
    <nd ref="254021308"/>
    <nd ref="32333984"/>
    <tag k="created_by" v="piotrc@plusnet.pl"/>
    <tag k="highway" v="primary"/>
    <tag k="int_ref" v="E67 , E77"/>
    <tag k="name" v="Czerniakowska"/>
    <tag k="oneway" v="yes"/>
    <tag k="ref" v="7"/>
  </way>
  <way id="4925795" version="3" timestamp="2008-04-30T22:30:48Z" uid="20587" user="balrog-kun" changeset="298271">
    <nd ref="32333983"/>
    <nd ref="32333982"/>
    <nd ref="254021308"/>
    <nd ref="29169080"/>
    <tag k="created_by" v="piotrc@plusnet.pl"/>
    <tag k="highway" v="primary"/>
    <tag k="int_ref" v="E67 , E77"/>
    <tag k="name" v="Czerniakowska"/>
    <tag k="oneway" v="yes"/>
    <tag k="ref" v="7"/>
  </way>
  <way id="4925795" version="4" timestamp="2010-06-05T23:33:16Z" uid="20587" user="balrog-kun" changeset="4913470">
    <nd ref="32333983"/>
    <nd ref="32333982"/>
    <nd ref="765373723"/>
    <nd ref="254021308"/>
    <nd ref="29169080"/>
    <tag k="highway" v="primary"/>
    <tag k="int_ref" v="E67 , E77"/>
    <tag k="name" v="Czerniakowska"/>
    <tag k="oneway" v="yes"/>
    <tag k="ref" v="7"/>
  </way>
  <way id="4925796" version="2" timestamp="2009-11-01T13:38:35Z" uid="20587" user="balrog-kun" changeset="3006344">
    <nd ref="32333997"/>
    <nd ref="32333985"/>
    <nd ref="32334011"/>
    <nd ref="32334002"/>
    <nd ref="34816518"/>
    <tag k="highway" v="primary"/>
    <tag k="name" v="Czerniakowska"/>
    <tag k="oneway" v="yes"/>
    <tag k="ref" v="724"/>
  </way>
  <way id="4925797" version="2" timestamp="2008-10-26T12:47:32Z" uid="20587" user="balrog-kun" changeset="579333">
    <nd ref="32334004"/>
    <nd ref="32334005"/>
    <nd ref="307665967"/>
    <nd ref="32334006"/>
    <nd ref="307666052"/>
    <nd ref="307665966"/>
    <nd ref="32334007"/>
    <nd ref="307665965"/>
    <nd ref="32334008"/>
    <nd ref="32334009"/>
    <nd ref="32334010"/>
    <tag k="bridge" v="yes"/>
    <tag k="created_by" v="JOSM"/>
    <tag k="highway" v="primary"/>
    <tag k="layer" v="2"/>
    <tag k="oneway" v="yes"/>
  </way>
  <way id="4925797" version="3" timestamp="2010-06-05T23:33:08Z" uid="20587" user="balrog-kun" changeset="4913470">
    <nd ref="32334004"/>
    <nd ref="32334005"/>
    <nd ref="307665967"/>
    <nd ref="765373363"/>
    <nd ref="32334006"/>
    <nd ref="307666052"/>
    <nd ref="307665966"/>
    <nd ref="765372914"/>
    <nd ref="32334007"/>
    <nd ref="307665965"/>
    <nd ref="32334008"/>
    <nd ref="32334009"/>
    <nd ref="32334010"/>
    <tag k="bridge" v="yes"/>
    <tag k="highway" v="primary"/>
    <tag k="layer" v="2"/>
    <tag k="oneway" v="yes"/>
  </way>
  <way id="4925798" version="2" timestamp="2008-12-13T22:55:41Z" uid="20587" user="balrog-kun" changeset="354744">
    <nd ref="32215291"/>
    <nd ref="318495836"/>
    <nd ref="318495835"/>
    <nd ref="32334004"/>
    <tag k="created_by" v="JOSM"/>
    <tag k="highway" v="primary_link"/>
  </way>
  <way id="4925800" version="2" timestamp="2009-11-01T13:38:35Z" uid="20587" user="balrog-kun" changeset="3006344">
    <nd ref="34816519"/>
    <nd ref="32334003"/>
    <nd ref="32333988"/>
    <tag k="highway" v="primary"/>
    <tag k="name" v="Czerniakowska"/>
    <tag k="oneway" v="yes"/>
    <tag k="ref" v="724"/>
  </way>
  <way id="4925801" version="2" timestamp="2008-03-26T00:05:44Z" uid="20587" user="balrog-kun" changeset="397044">
    <nd ref="32333999"/>
    <nd ref="32334013"/>
    <nd ref="32334019"/>
    <nd ref="254021351"/>
    <nd ref="254021353"/>
    <nd ref="254021355"/>
    <nd ref="254021357"/>
    <tag k="created_by" v="JOSM"/>
    <tag k="highway" v="tertiary"/>
    <tag k="oneway" v="yes"/>
  </way>
  <way id="4925801" version="3" timestamp="2008-06-14T14:02:33Z" uid="20587" user="balrog-kun" changeset="156673">
    <nd ref="32333999"/>
    <nd ref="32334013"/>
    <nd ref="32334019"/>
    <nd ref="270290728"/>
    <nd ref="254021351"/>
    <nd ref="254021353"/>
    <nd ref="270290731"/>
    <nd ref="254021355"/>
    <nd ref="254021357"/>
    <tag k="created_by" v="JOSM"/>
    <tag k="highway" v="tertiary"/>
    <tag k="oneway" v="yes"/>
  </way>
  <way id="4925801" version="4" timestamp="2010-06-05T23:33:21Z" uid="20587" user="balrog-kun" changeset="4913470">
    <nd ref="765372751"/>
    <nd ref="765372857"/>
    <nd ref="32333999"/>
    <nd ref="765373971"/>
    <nd ref="765373466"/>
    <nd ref="765373121"/>
    <nd ref="32334013"/>
    <nd ref="765373592"/>
    <nd ref="765373151"/>
    <nd ref="765372695"/>
    <nd ref="32334019"/>
    <nd ref="765373009"/>
    <nd ref="270290728"/>
    <nd ref="254021351"/>
    <nd ref="254021353"/>
    <nd ref="270290731"/>
    <nd ref="765372984"/>
    <nd ref="765373519"/>
    <nd ref="254021355"/>
    <nd ref="765372950"/>
    <nd ref="254021357"/>
    <tag k="highway" v="tertiary"/>
    <tag k="oneway" v="yes"/>
  </way>
  <way id="4925802" version="2" timestamp="2008-03-26T00:05:53Z" uid="20587" user="balrog-kun" changeset="397044"/>
  <way id="4925811" version="14" timestamp="2009-11-05T04:06:37Z" uid="36809" user="pfoten_weg_!_" changeset="3037787">
    <nd ref="29874060"/>
    <nd ref="29874061"/>
    <nd ref="29874062"/>
    <nd ref="29874064"/>
    <nd ref="29874065"/>
    <nd ref="29874066"/>
    <nd ref="29874067"/>
    <nd ref="29874068"/>
    <nd ref="29874074"/>
    <nd ref="29874076"/>
    <nd ref="29874077"/>
    <nd ref="29874078"/>
    <nd ref="29874079"/>
    <nd ref="29874080"/>
    <nd ref="29874081"/>
    <nd ref="29874082"/>
    <nd ref="29874083"/>
    <nd ref="29874084"/>
    <nd ref="29874085"/>
    <nd ref="309348073"/>
    <nd ref="29874086"/>
    <nd ref="309348076"/>
    <nd ref="29874087"/>
    <nd ref="29874088"/>
    <nd ref="31513219"/>
    <nd ref="31513221"/>
    <nd ref="31513222"/>
    <nd ref="31513226"/>
    <nd ref="321869486"/>
    <nd ref="309348084"/>
    <nd ref="31513230"/>
    <nd ref="31513232"/>
    <nd ref="31513233"/>
    <nd ref="31513234"/>
    <nd ref="31513235"/>
    <nd ref="31513236"/>
    <nd ref="31513237"/>
    <nd ref="31513238"/>
    <nd ref="31513239"/>
    <nd ref="31513491"/>
    <nd ref="31513492"/>
    <nd ref="31513493"/>
    <nd ref="31513494"/>
    <nd ref="31513495"/>
    <nd ref="31513496"/>
    <nd ref="31513497"/>
    <nd ref="31513498"/>
    <nd ref="31513499"/>
    <nd ref="31513500"/>
    <nd ref="31513501"/>
    <nd ref="31513502"/>
    <nd ref="31513503"/>
    <nd ref="31513505"/>
    <nd ref="31513509"/>
    <nd ref="31513510"/>
    <nd ref="31513511"/>
    <nd ref="31513512"/>
    <nd ref="31513513"/>
    <nd ref="31513514"/>
    <nd ref="31513515"/>
    <nd ref="31513516"/>
    <nd ref="31513517"/>
    <nd ref="31513518"/>
    <nd ref="309347709"/>
    <nd ref="309347710"/>
    <nd ref="309347711"/>
    <nd ref="31513574"/>
    <nd ref="31691148"/>
    <nd ref="31691149"/>
    <nd ref="309347712"/>
    <nd ref="309347713"/>
    <nd ref="309347589"/>
    <nd ref="309347590"/>
    <nd ref="309347591"/>
    <nd ref="31691150"/>
    <nd ref="31691151"/>
    <nd ref="31691157"/>
    <nd ref="31691158"/>
    <nd ref="31691160"/>
    <nd ref="31691164"/>
    <nd ref="31691167"/>
    <nd ref="31691171"/>
    <nd ref="31691177"/>
    <nd ref="31691180"/>
    <nd ref="31691182"/>
    <nd ref="31691184"/>
    <nd ref="31691186"/>
    <nd ref="31691188"/>
    <nd ref="31691189"/>
    <nd ref="31691192"/>
    <nd ref="31691195"/>
    <nd ref="31691199"/>
    <nd ref="31691201"/>
    <nd ref="31691204"/>
    <nd ref="31691207"/>
    <nd ref="31691210"/>
    <nd ref="308653298"/>
    <nd ref="31691147"/>
    <nd ref="31691146"/>
    <nd ref="31691144"/>
    <nd ref="31691143"/>
    <nd ref="31691142"/>
    <nd ref="31691141"/>
    <nd ref="31691140"/>
    <nd ref="31691139"/>
    <nd ref="31691137"/>
    <nd ref="31691135"/>
    <nd ref="31691134"/>
    <nd ref="31691133"/>
    <nd ref="31691131"/>
    <nd ref="31691130"/>
    <nd ref="31691129"/>
    <nd ref="31691128"/>
    <nd ref="31691127"/>
    <nd ref="31691125"/>
    <nd ref="31691124"/>
    <nd ref="31691123"/>
    <nd ref="31691122"/>
    <nd ref="309347470"/>
    <nd ref="31691112"/>
    <nd ref="31691107"/>
    <nd ref="31691105"/>
    <nd ref="31691103"/>
    <nd ref="31691101"/>
    <nd ref="31513489"/>
    <nd ref="31513488"/>
    <nd ref="31513487"/>
    <nd ref="31513486"/>
    <nd ref="309347714"/>
    <nd ref="31513485"/>
    <nd ref="31513484"/>
    <nd ref="31513483"/>
    <nd ref="309347715"/>
    <nd ref="31513482"/>
    <nd ref="31513481"/>
    <nd ref="31513480"/>
    <nd ref="309348112"/>
    <nd ref="31513477"/>
    <nd ref="31513476"/>
    <nd ref="31513475"/>
    <nd ref="31513474"/>
    <nd ref="31513473"/>
    <nd ref="31513472"/>
    <nd ref="31513471"/>
    <nd ref="31513470"/>
    <nd ref="31513469"/>
    <nd ref="31513468"/>
    <nd ref="31513467"/>
    <nd ref="31513466"/>
    <nd ref="31513261"/>
    <nd ref="31513260"/>
    <nd ref="31513259"/>
    <nd ref="31513258"/>
    <nd ref="31513257"/>
    <nd ref="31513256"/>
    <nd ref="31513255"/>
    <nd ref="31513252"/>
    <nd ref="309348113"/>
    <nd ref="309348114"/>
    <nd ref="31513249"/>
    <nd ref="309348115"/>
    <nd ref="309348116"/>
    <nd ref="309348117"/>
    <nd ref="31513244"/>
    <nd ref="29873997"/>
    <nd ref="29873998"/>
    <nd ref="29874000"/>
    <nd ref="29874001"/>
    <nd ref="309348118"/>
    <nd ref="29874002"/>
    <nd ref="29874003"/>
    <nd ref="29874004"/>
    <nd ref="29874005"/>
    <nd ref="29874006"/>
    <nd ref="29874007"/>
    <nd ref="29874008"/>
    <nd ref="29874009"/>
    <nd ref="29874010"/>
    <nd ref="29874011"/>
    <nd ref="29874012"/>
    <nd ref="29874013"/>
    <nd ref="29874014"/>
    <nd ref="29874015"/>
    <nd ref="29874016"/>
    <nd ref="29874017"/>
    <nd ref="29874019"/>
    <nd ref="309347246"/>
    <nd ref="309347256"/>
    <nd ref="29874020"/>
    <nd ref="29874021"/>
    <nd ref="29874022"/>
    <nd ref="29874023"/>
    <nd ref="29874024"/>
    <nd ref="29874026"/>
    <nd ref="29874027"/>
    <nd ref="29874028"/>
    <nd ref="29874034"/>
    <nd ref="29874038"/>
    <nd ref="29874040"/>
    <nd ref="29874041"/>
    <nd ref="29874042"/>
    <nd ref="29874053"/>
    <nd ref="29874349"/>
    <nd ref="29874335"/>
    <nd ref="29874060"/>
    <tag k="natural" v="water"/>
    <tag k="waterway" v="riverbank"/>
  </way>
  <way id="4925823" version="2" timestamp="2008-10-26T12:47:31Z" uid="20587" user="balrog-kun" changeset="579333">
    <nd ref="28396114"/>
    <nd ref="28396116"/>
    <nd ref="307666047"/>
    <nd ref="28396118"/>
    <nd ref="28396120"/>
    <nd ref="28396122"/>
    <nd ref="28396127"/>
    <nd ref="32334169"/>
    <tag k="bridge" v="yes"/>
    <tag k="created_by" v="JOSM"/>
    <tag k="highway" v="primary"/>
    <tag k="int_ref" v="E67 , E77"/>
    <tag k="layer" v="2"/>
    <tag k="oneway" v="yes"/>
    <tag k="ref" v="7"/>
  </way>
  <way id="4925823" version="3" timestamp="2009-12-31T18:17:53Z" uid="20587" user="balrog-kun" changeset="3503286">
    <nd ref="28396114"/>
    <nd ref="28396116"/>
    <nd ref="307666047"/>
    <nd ref="28396118"/>
    <nd ref="28396120"/>
    <nd ref="28396122"/>
    <nd ref="28396127"/>
    <nd ref="32334169"/>
    <tag k="bridge" v="yes"/>
    <tag k="highway" v="primary"/>
    <tag k="int_ref" v="E67 , E77"/>
    <tag k="layer" v="2"/>
    <tag k="maxspeed" v="70"/>
    <tag k="oneway" v="yes"/>
    <tag k="ref" v="7"/>
  </way>
  <way id="4925840" version="1" timestamp="2007-08-16T17:03:31Z" uid="6975" user="ulfl" changeset="221375">
    <nd ref="32334258"/>
    <nd ref="34674399"/>
    <nd ref="31384641"/>
    <tag k="created_by" v="JOSM"/>
    <tag k="highway" v="residential"/>
    <tag k="name" v="Meuschelstraße"/>
    <tag k="oneway" v="true"/>
  </way>
  <way id="4925874" version="1" timestamp="2007-08-16T16:56:59Z" uid="6975" user="ulfl" changeset="221375">
    <nd ref="33139556"/>
    <nd ref="34674318"/>
    <nd ref="31350366"/>
    <nd ref="31350367"/>
    <nd ref="31224164"/>
    <nd ref="31350368"/>
    <nd ref="32334580"/>
    <tag k="created_by" v="JOSM"/>
    <tag k="highway" v="residential"/>
    <tag k="name" v="Nietzschestraße"/>
  </way>
</osm>
