<?xml version='1.0' encoding='UTF-8'?>
<osm version="0.6" generator="libosmium/2.20.0">
  <way id="49260374" version="2" timestamp="2010-03-28T11:46:21Z" uid="20587" user="balrog-kun" changeset="4254597">
    <nd ref="57913292"/>
    <nd ref="625647956"/>
    <nd ref="625647943"/>
    <nd ref="625647938"/>
    <nd ref="625647932"/>
    <nd ref="625647957"/>
    <nd ref="625647958"/>
    <nd ref="625647959"/>
    <nd ref="625647960"/>
    <tag k="highway" v="secondary"/>
    <tag k="name" v="Treat Boulevard"/>
    <tag k="oneway" v="yes"/>
    <tag k="tiger:cfcc" v="A41"/>
    <tag k="tiger:county" v="Contra Costa, CA"/>
    <tag k="tiger:name_base" v="Treat"/>
    <tag k="tiger:name_type" v="Blvd"/>
    <tag k="tiger:separated" v="no"/>
    <tag k="tiger:source" v="tiger_import_dch_v0.6_20070809"/>
    <tag k="tiger:tlid" v="192116943:192116944:192111105:192058262:192058282:192058365:192058368:192086257"/>
    <tag k="tiger:zip_left" v="94521"/>
    <tag k="tiger:zip_right" v="94521"/>
  </way>
  <way id="49260375" version="2" timestamp="2010-03-28T11:46:22Z" uid="20587" user="balrog-kun" changeset="4254597">
    <nd ref="625648150"/>
    <nd ref="625648152"/>
    <nd ref="625648154"/>
    <nd ref="57790496"/>
    <nd ref="625648161"/>
    <nd ref="625648164"/>
    <nd ref="625648167"/>
    <tag k="highway" v="secondary"/>
    <tag k="name" v="Treat Boulevard"/>
    <tag k="oneway" v="yes"/>
  </way>
  <way id="49260391" version="2" timestamp="2010-03-28T11:46:22Z" uid="20587" user="balrog-kun" changeset="4254597">
    <nd ref="625648835"/>
    <nd ref="625648837"/>
    <nd ref="625648839"/>
    <nd ref="625648832"/>
    <tag k="highway" v="secondary"/>
    <tag k="name" v="Clayton Road"/>
    <tag k="oneway" v="yes"/>
  </way>
  <way id="49260393" version="2" timestamp="2010-03-28T11:46:22Z" uid="20587" user="balrog-kun" changeset="4254597">
    <nd ref="625648932"/>
    <nd ref="625648935"/>
    <nd ref="625648940"/>
    <nd ref="625648943"/>
    <nd ref="625648946"/>
    <nd ref="625648948"/>
    <nd ref="625648950"/>
    <tag k="highway" v="secondary"/>
    <tag k="name" v="Clayton Road"/>
    <tag k="oneway" v="yes"/>
  </way>
  <way id="49260396" version="2" timestamp="2010-03-28T11:46:22Z" uid="20587" user="balrog-kun" changeset="4254597">
    <nd ref="625648987"/>
    <nd ref="625648988"/>
    <nd ref="625648990"/>
    <nd ref="625648876"/>
    <tag k="highway" v="secondary"/>
    <tag k="name" v="Clayton Road"/>
    <tag k="oneway" v="yes"/>
  </way>
  <way id="49260397" version="2" timestamp="2010-03-28T11:46:22Z" uid="20587" user="balrog-kun" changeset="4254597">
    <nd ref="625649006"/>
    <nd ref="625649012"/>
    <nd ref="625649016"/>
    <nd ref="57873209"/>
    <tag k="highway" v="secondary"/>
    <tag k="name" v="Clayton Road"/>
    <tag k="oneway" v="yes"/>
  </way>
</osm>
