<?xml version='1.0' encoding='UTF-8'?>
<osm version="0.6" generator="libosmium/2.20.0">
  <way id="49629137" version="1" timestamp="2010-02-05T21:36:51Z" uid="33382" user="de_muur" changeset="3800948">
    <nd ref="109653586"/>
    <nd ref="76650068"/>
    <tag k="cycleway" v="track"/>
    <tag k="highway" v="tertiary"/>
    <tag k="maxspeed" v="50"/>
    <tag k="name" v="Hemelinger Hafendamm"/>
    <tag k="surface" v="paved"/>
  </way>
  <way id="49629138" version="1" timestamp="2010-02-05T21:36:51Z" uid="33382" user="de_muur" changeset="3800948">
    <nd ref="197766749"/>
    <nd ref="303353602"/>
    <nd ref="76648692"/>
    <nd ref="303353615"/>
    <nd ref="108277068"/>
    <nd ref="206140048"/>
    <nd ref="76648693"/>
    <nd ref="303353068"/>
    <nd ref="76648695"/>
    <nd ref="303353069"/>
    <nd ref="76648696"/>
    <nd ref="303353070"/>
    <tag k="cycleway" v="track"/>
    <tag k="highway" v="tertiary"/>
    <tag k="maxspeed" v="50"/>
    <tag k="name" v="Hemelinger Hafendamm"/>
    <tag k="surface" v="paved"/>
  </way>
  <way id="49629310" version="1" timestamp="2010-02-05T21:42:12Z" uid="6269" user="Mueck" changeset="3800954">
    <nd ref="25249079"/>
    <nd ref="25249081"/>
    <nd ref="409547253"/>
    <nd ref="409547254"/>
    <nd ref="25249054"/>
    <nd ref="25249056"/>
    <nd ref="25249057"/>
    <nd ref="25249063"/>
    <tag k="foot" v="designated"/>
    <tag k="highway" v="cycleway"/>
    <tag k="name" v="Langenbruchweg"/>
  </way>
  <way id="49629310" version="2" timestamp="2010-02-05T21:44:13Z" uid="6269" user="Mueck" changeset="3800954">
    <nd ref="25249079"/>
    <nd ref="25249081"/>
    <nd ref="409547253"/>
    <nd ref="409547254"/>
    <nd ref="25249054"/>
    <nd ref="25249056"/>
    <nd ref="25249057"/>
    <nd ref="25249063"/>
    <tag k="foot" v="designated"/>
    <tag k="highway" v="cycleway"/>
    <tag k="name" v="Rußweg"/>
    <tag k="note" v="Rußweg bis hier?"/>
  </way>
  <way id="49629310" version="3" timestamp="2010-05-13T17:25:44Z" uid="6269" user="Mueck" changeset="4688501">
    <nd ref="25249079"/>
    <nd ref="25249081"/>
    <nd ref="409547253"/>
    <nd ref="409547254"/>
    <nd ref="25249054"/>
    <nd ref="25249056"/>
    <nd ref="25249057"/>
    <nd ref="25249063"/>
    <tag k="bicycle" v="yes"/>
    <tag k="foot" v="designated"/>
    <tag k="highway" v="service"/>
    <tag k="motor_vehicle" v="destination"/>
    <tag k="name" v="Rußweg"/>
    <tag k="note" v="Rußweg bis hier?"/>
  </way>
  <way id="49629318" version="1" timestamp="2010-02-05T21:44:10Z" uid="59758" user="rendle" changeset="3800993">
    <nd ref="631057083"/>
    <nd ref="631057084"/>
    <tag k="name" v="Platform 1"/>
    <tag k="name:nl" v="Spoor 1"/>
    <tag k="railway" v="platform"/>
  </way>
  <way id="49629324" version="1" timestamp="2010-02-05T21:44:53Z" uid="59758" user="rendle" changeset="3800993">
    <nd ref="631057885"/>
    <nd ref="631057887"/>
    <tag k="name" v="Platform 2"/>
    <tag k="name:nl" v="Spoor 2"/>
    <tag k="railway" v="platform"/>
  </way>
  <way id="49629339" version="1" timestamp="2010-02-05T21:45:53Z" uid="59758" user="rendle" changeset="3800993">
    <nd ref="631059025"/>
    <nd ref="631059029"/>
    <nd ref="631059033"/>
    <nd ref="631059037"/>
    <nd ref="631059025"/>
    <tag k="amenity" v="parking"/>
    <tag k="name" v="Station"/>
  </way>
  <way id="49629399" version="1" timestamp="2010-02-05T21:49:09Z" uid="59758" user="rendle" changeset="3800993">
    <nd ref="495264737"/>
    <nd ref="631066379"/>
    <tag k="highway" v="service"/>
  </way>
  <way id="49629558" version="2" timestamp="2011-05-20T19:49:31Z" uid="20587" user="balrog-kun" changeset="8201657">
    <nd ref="35967847"/>
    <nd ref="342516040"/>
    <nd ref="631073113"/>
    <nd ref="1293753567"/>
    <nd ref="631073118"/>
    <tag k="highway" v="footway"/>
  </way>
  <way id="49629611" version="2" timestamp="2010-04-06T15:38:14Z" uid="20587" user="balrog-kun" changeset="4342727">
    <nd ref="80849150"/>
    <nd ref="631077470"/>
    <nd ref="631077466"/>
    <nd ref="631077451"/>
    <nd ref="631077457"/>
    <nd ref="631077460"/>
    <nd ref="631077462"/>
    <nd ref="631077465"/>
    <nd ref="631077473"/>
    <tag k="highway" v="residential"/>
    <tag k="is_in" v="Pennington, SD"/>
    <tag k="name" v="Airport Road"/>
    <tag k="oneway" v="yes"/>
    <tag k="source" v="Yahoo"/>
  </way>
  <way id="49629628" version="2" timestamp="2010-04-06T15:38:14Z" uid="20587" user="balrog-kun" changeset="4342727">
    <nd ref="631078109"/>
    <nd ref="631078113"/>
    <nd ref="631078199"/>
    <nd ref="631078201"/>
    <nd ref="631078031"/>
    <nd ref="631077997"/>
    <nd ref="631078001"/>
    <nd ref="631077602"/>
    <nd ref="631077603"/>
    <tag k="highway" v="residential"/>
    <tag k="is_in" v="Pennington, SD"/>
    <tag k="name" v="Terminal Road"/>
    <tag k="oneway" v="yes"/>
    <tag k="source" v="Yahoo"/>
  </way>
</osm>
