<?xml version='1.0' encoding='UTF-8'?>
<osm version="0.6" generator="libosmium/2.20.0">
  <way id="49741963" version="5" timestamp="2010-04-28T03:24:46Z" uid="4467" user="Rosscoe" changeset="4546295">
    <nd ref="268703617"/>
    <nd ref="260541556"/>
    <nd ref="260541557"/>
    <nd ref="260541558"/>
    <nd ref="260541559"/>
    <nd ref="260541560"/>
    <nd ref="709713337"/>
    <tag k="highway" v="residential"/>
    <tag k="name" v="Doveton Avenue"/>
  </way>
  <way id="49741963" version="6" timestamp="2010-07-08T18:43:54Z" uid="74617" user="JohnSmith" changeset="5167338">
    <nd ref="268703617"/>
    <nd ref="260541556"/>
    <nd ref="260541557"/>
    <nd ref="260541558"/>
    <nd ref="260541559"/>
    <nd ref="260541560"/>
    <nd ref="709713337"/>
    <tag k="highway" v="residential"/>
    <tag k="maxspeed" v="50"/>
    <tag k="maxspeed:source" v="default residential speed limit in Australia"/>
    <tag k="name" v="Doveton Avenue"/>
  </way>
  <way id="49741964" version="2" timestamp="2010-07-08T18:26:11Z" uid="74617" user="JohnSmith" changeset="5167338">
    <nd ref="260541555"/>
    <nd ref="268703617"/>
    <tag k="highway" v="residential"/>
    <tag k="maxspeed" v="50"/>
    <tag k="maxspeed:source" v="default residential speed limit in Australia"/>
    <tag k="name" v="Doveton Avenue"/>
  </way>
  <way id="49741967" version="2" timestamp="2010-07-25T07:07:05Z" uid="4467" user="Rosscoe" changeset="5309221">
    <nd ref="632181377"/>
    <nd ref="380265922"/>
    <tag k="bridge" v="yes"/>
    <tag k="highway" v="tertiary"/>
    <tag k="layer" v="1"/>
    <tag k="name" v="Frawley Road"/>
  </way>
  <way id="49741968" version="2" timestamp="2010-04-28T03:25:02Z" uid="4467" user="Rosscoe" changeset="4546295">
    <nd ref="380265922"/>
    <nd ref="29902001"/>
    <nd ref="260542412"/>
    <nd ref="709713226"/>
    <tag k="highway" v="tertiary"/>
    <tag k="name" v="Frawley Road"/>
  </way>
  <way id="49741970" version="2" timestamp="2010-07-08T18:17:00Z" uid="74617" user="JohnSmith" changeset="5167338">
    <nd ref="255359341"/>
    <nd ref="255359342"/>
    <nd ref="255359343"/>
    <nd ref="255359344"/>
    <nd ref="255359345"/>
    <nd ref="255359346"/>
    <nd ref="255359347"/>
    <nd ref="234191717"/>
    <tag k="highway" v="residential"/>
    <tag k="maxspeed" v="50"/>
    <tag k="maxspeed:source" v="default residential speed limit in Australia"/>
    <tag k="name" v="Wattle Drive"/>
  </way>
  <way id="49741971" version="2" timestamp="2010-04-26T05:43:42Z" uid="4467" user="Rosscoe" changeset="4528463">
    <nd ref="255359350"/>
    <nd ref="255358904"/>
    <nd ref="255359358"/>
    <nd ref="706931013"/>
    <tag k="highway" v="tertiary"/>
    <tag k="name" v="Box Street"/>
  </way>
  <way id="49741980" version="3" timestamp="2010-03-22T07:36:21Z" uid="20587" user="balrog-kun" changeset="4199043">
    <nd ref="38833627"/>
    <nd ref="632181598"/>
    <nd ref="632181597"/>
    <nd ref="632181596"/>
    <nd ref="632181595"/>
    <nd ref="632181594"/>
    <nd ref="632181593"/>
    <nd ref="632181592"/>
    <nd ref="632181591"/>
    <nd ref="632181590"/>
    <nd ref="632181589"/>
    <nd ref="632181588"/>
    <nd ref="632181584"/>
    <nd ref="632181587"/>
    <nd ref="632181586"/>
    <tag k="highway" v="secondary"/>
    <tag k="name" v="North State Highway"/>
    <tag k="name 1" v="N Hwy 99W"/>
    <tag k="oneway" v="yes"/>
  </way>
</osm>
