<?xml version='1.0' encoding='UTF-8'?>
<osm version="0.6" generator="libosmium/2.20.0">
  <way id="4983146" version="3" timestamp="2008-08-18T12:09:29Z" uid="36809" user="pfoten_weg_!_" changeset="306127">
    <nd ref="33047598"/>
    <nd ref="33047616"/>
    <nd ref="33047617"/>
    <nd ref="33047066"/>
    <nd ref="33047619"/>
    <tag k="created_by" v="RambaZamba"/>
    <tag k="highway" v="residential"/>
    <tag k="name" v="Rabenkopfstraße"/>
  </way>
  <way id="4983146" version="5" timestamp="2008-10-01T02:42:38Z" uid="36809" user="pfoten_weg_!_" changeset="5644">
    <nd ref="33047598"/>
    <nd ref="33047616"/>
    <nd ref="289483686"/>
    <nd ref="33047617"/>
    <nd ref="33047066"/>
    <nd ref="33047619"/>
    <tag k="created_by" v="RambaZamba"/>
    <tag k="highway" v="residential"/>
    <tag k="name" v="Rabenkopfstraße"/>
  </way>
  <way id="4983146" version="8" timestamp="2009-06-08T13:40:10Z" uid="36809" user="pfoten_weg_!_" changeset="1458869">
    <nd ref="33047598"/>
    <nd ref="289484801"/>
    <nd ref="289483686"/>
    <nd ref="33047066"/>
    <nd ref="33047619"/>
    <tag k="created_by" v="RambaZamba"/>
    <tag k="highway" v="residential"/>
    <tag k="name" v="Rabenkopfstraße"/>
    <tag k="source" v="survey"/>
  </way>
  <way id="4983146" version="10" timestamp="2009-08-28T21:17:40Z" uid="36809" user="pfoten_weg_!_" changeset="2295155">
    <nd ref="33047598"/>
    <nd ref="289484801"/>
    <nd ref="289483686"/>
    <nd ref="33047066"/>
    <nd ref="33047619"/>
    <tag k="discovered_by" v="RambaZamba"/>
    <tag k="highway" v="residential"/>
    <tag k="name" v="Rabenkopfstraße"/>
    <tag k="source" v="survey"/>
  </way>
  <way id="4983146" version="12" timestamp="2009-09-01T10:36:04Z" uid="36809" user="pfoten_weg_!_" changeset="2335754">
    <nd ref="33047598"/>
    <nd ref="289484801"/>
    <nd ref="289483686"/>
    <nd ref="33047066"/>
    <nd ref="33047619"/>
    <tag k="highway" v="residential"/>
    <tag k="name" v="Rabenkopfstraße"/>
    <tag k="source" v="survey"/>
  </way>
  <way id="4983146" version="13" timestamp="2009-10-13T23:41:12Z" uid="36809" user="pfoten_weg_!_" changeset="2841273">
    <nd ref="33047598"/>
    <nd ref="289484801"/>
    <nd ref="289483686"/>
    <nd ref="33047066"/>
    <nd ref="33047619"/>
    <tag k="highway" v="residential"/>
    <tag k="name" v="Rabenkopfstraße"/>
  </way>
  <way id="4983257" version="2" timestamp="2008-10-01T02:46:15Z" uid="36809" user="pfoten_weg_!_" changeset="5644">
    <nd ref="33047480"/>
    <nd ref="33047179"/>
    <tag k="created_by" v="RambaZamba"/>
    <tag k="highway" v="residential"/>
  </way>
  <way id="4983308" version="2" timestamp="2008-10-01T02:48:15Z" uid="36809" user="pfoten_weg_!_" changeset="5644">
    <nd ref="31115726"/>
    <nd ref="33048293"/>
    <nd ref="33048294"/>
    <nd ref="33048295"/>
    <nd ref="33048296"/>
    <nd ref="33048297"/>
    <nd ref="33048298"/>
    <nd ref="33048462"/>
    <nd ref="33048299"/>
    <nd ref="33048300"/>
    <nd ref="33048301"/>
    <nd ref="33048302"/>
    <tag k="created_by" v="RambaZamba"/>
    <tag k="highway" v="residential"/>
    <tag k="name" v="Gabriel-Max-Straße"/>
  </way>
  <way id="4983308" version="5" timestamp="2009-06-08T13:40:15Z" uid="36809" user="pfoten_weg_!_" changeset="1458869">
    <nd ref="31115726"/>
    <nd ref="33048293"/>
    <nd ref="33048294"/>
    <nd ref="33048295"/>
    <nd ref="33048296"/>
    <nd ref="33048297"/>
    <nd ref="33048298"/>
    <tag k="created_by" v="RambaZamba"/>
    <tag k="highway" v="residential"/>
    <tag k="name" v="Gabriel-Max-Straße"/>
    <tag k="source" v="survey"/>
  </way>
  <way id="4983308" version="7" timestamp="2009-08-28T21:04:19Z" uid="36809" user="pfoten_weg_!_" changeset="2295155">
    <nd ref="31115726"/>
    <nd ref="33048293"/>
    <nd ref="33048294"/>
    <nd ref="33048295"/>
    <nd ref="33048296"/>
    <nd ref="33048297"/>
    <nd ref="33048298"/>
    <tag k="discovered_by" v="RambaZamba"/>
    <tag k="highway" v="residential"/>
    <tag k="name" v="Gabriel-Max-Straße"/>
    <tag k="source" v="survey"/>
  </way>
  <way id="4983308" version="9" timestamp="2009-09-04T21:13:27Z" uid="36809" user="pfoten_weg_!_" changeset="2374562">
    <nd ref="31115726"/>
    <nd ref="33048293"/>
    <nd ref="33048294"/>
    <nd ref="33048295"/>
    <nd ref="33048296"/>
    <nd ref="33048297"/>
    <nd ref="33048298"/>
    <tag k="highway" v="residential"/>
    <tag k="name" v="Gabriel-Max-Straße"/>
    <tag k="source" v="survey"/>
  </way>
  <way id="4983308" version="10" timestamp="2009-10-13T23:46:53Z" uid="36809" user="pfoten_weg_!_" changeset="2841273">
    <nd ref="31115726"/>
    <nd ref="33048293"/>
    <nd ref="33048294"/>
    <nd ref="33048295"/>
    <nd ref="33048296"/>
    <nd ref="33048297"/>
    <nd ref="33048298"/>
    <tag k="highway" v="residential"/>
    <tag k="name" v="Gabriel-Max-Straße"/>
  </way>
  <way id="4983310" version="1" timestamp="2007-07-28T22:32:57Z" uid="8931" user="bluepup" changeset="176386">
    <nd ref="33048276"/>
    <nd ref="33048272"/>
    <nd ref="33048271"/>
    <nd ref="33048270"/>
    <nd ref="33048269"/>
    <nd ref="33048277"/>
    <nd ref="33048274"/>
    <nd ref="33048276"/>
    <tag k="amenity" v="parking"/>
    <tag k="created_by" v="JOSM"/>
  </way>
  <way id="4983314" version="3" timestamp="2008-10-01T02:47:58Z" uid="36809" user="pfoten_weg_!_" changeset="5644">
    <nd ref="33046932"/>
    <nd ref="33048307"/>
    <nd ref="33048309"/>
    <nd ref="33048310"/>
    <nd ref="33048303"/>
    <nd ref="33048302"/>
    <nd ref="33048311"/>
    <tag k="created_by" v="RambaZamba"/>
    <tag k="highway" v="residential"/>
    <tag k="name" v="Prößlstraße"/>
  </way>
  <way id="4983314" version="7" timestamp="2009-06-08T13:40:15Z" uid="36809" user="pfoten_weg_!_" changeset="1458869">
    <nd ref="33046932"/>
    <nd ref="33048307"/>
    <nd ref="33048309"/>
    <tag k="created_by" v="RambaZamba"/>
    <tag k="highway" v="residential"/>
    <tag k="name" v="Prößlstraße"/>
    <tag k="source" v="survey"/>
  </way>
  <way id="4983314" version="9" timestamp="2009-08-28T21:09:04Z" uid="36809" user="pfoten_weg_!_" changeset="2295155">
    <nd ref="33046932"/>
    <nd ref="33048307"/>
    <nd ref="33048309"/>
    <tag k="discovered_by" v="RambaZamba"/>
    <tag k="highway" v="residential"/>
    <tag k="name" v="Prößlstraße"/>
    <tag k="source" v="survey"/>
  </way>
  <way id="4983314" version="11" timestamp="2009-09-01T10:50:31Z" uid="36809" user="pfoten_weg_!_" changeset="2335754">
    <nd ref="33046932"/>
    <nd ref="33048307"/>
    <nd ref="33048309"/>
    <tag k="highway" v="residential"/>
    <tag k="name" v="Prößlstraße"/>
    <tag k="source" v="survey"/>
  </way>
  <way id="4983314" version="12" timestamp="2009-10-13T23:46:54Z" uid="36809" user="pfoten_weg_!_" changeset="2841273">
    <nd ref="33046932"/>
    <nd ref="33048307"/>
    <nd ref="33048309"/>
    <tag k="highway" v="residential"/>
    <tag k="name" v="Prößlstraße"/>
  </way>
  <way id="4983317" version="2" timestamp="2008-10-01T02:47:54Z" uid="36809" user="pfoten_weg_!_" changeset="5644">
    <nd ref="33048309"/>
    <nd ref="33048300"/>
    <tag k="created_by" v="RambaZamba"/>
    <tag k="highway" v="residential"/>
  </way>
  <way id="4983345" version="3" timestamp="2008-10-01T02:47:25Z" uid="36809" user="pfoten_weg_!_" changeset="5644">
    <nd ref="33048455"/>
    <nd ref="33046933"/>
    <nd ref="33048456"/>
    <nd ref="33048299"/>
    <tag k="created_by" v="RambaZamba"/>
    <tag k="highway" v="residential"/>
    <tag k="name" v="Hermine-Bland-Straße"/>
  </way>
  <way id="4983345" version="4" timestamp="2009-02-15T13:17:01Z" uid="36809" user="pfoten_weg_!_" changeset="463903">
    <nd ref="33048455"/>
    <nd ref="33046933"/>
    <nd ref="33048456"/>
    <nd ref="33048299"/>
    <tag k="created_by" v="RambaZamba"/>
    <tag k="highway" v="residential"/>
    <tag k="name" v="Hermine-Bland-Straße"/>
    <tag k="source" v="survey"/>
  </way>
  <way id="4983345" version="6" timestamp="2009-06-08T13:40:14Z" uid="36809" user="pfoten_weg_!_" changeset="1458869">
    <nd ref="33048455"/>
    <nd ref="33046933"/>
    <nd ref="33048456"/>
    <nd ref="33048299"/>
    <tag k="created_by" v="RambaZamba"/>
    <tag k="highway" v="residential"/>
    <tag k="name" v="Hermine-Bland-Straße"/>
    <tag k="source" v="survey"/>
  </way>
  <way id="4983345" version="8" timestamp="2009-08-28T21:02:45Z" uid="36809" user="pfoten_weg_!_" changeset="2295155">
    <nd ref="33048455"/>
    <nd ref="33046933"/>
    <nd ref="33048456"/>
    <nd ref="33048299"/>
    <tag k="discovered_by" v="RambaZamba"/>
    <tag k="highway" v="residential"/>
    <tag k="name" v="Hermine-Bland-Straße"/>
    <tag k="source" v="survey"/>
  </way>
  <way id="4983345" version="10" timestamp="2009-09-01T10:36:50Z" uid="36809" user="pfoten_weg_!_" changeset="2335754">
    <nd ref="33048455"/>
    <nd ref="33046933"/>
    <nd ref="33048456"/>
    <nd ref="33048299"/>
    <tag k="highway" v="residential"/>
    <tag k="name" v="Hermine-Bland-Straße"/>
    <tag k="source" v="survey"/>
  </way>
  <way id="4983345" version="11" timestamp="2009-10-13T23:46:52Z" uid="36809" user="pfoten_weg_!_" changeset="2841273">
    <nd ref="33048455"/>
    <nd ref="33046933"/>
    <nd ref="33048456"/>
    <nd ref="33048299"/>
    <tag k="highway" v="residential"/>
    <tag k="name" v="Hermine-Bland-Straße"/>
  </way>
  <way id="4983353" version="6" timestamp="2008-10-01T02:47:37Z" uid="36809" user="pfoten_weg_!_" changeset="5644">
    <nd ref="33048462"/>
    <nd ref="33048497"/>
    <nd ref="292052683"/>
    <nd ref="33048498"/>
    <nd ref="33048297"/>
    <tag k="created_by" v="RambaZamba"/>
    <tag k="highway" v="residential"/>
    <tag k="name" v="Alois-Wohlmuth-Straße"/>
    <tag k="oneway" v="yes"/>
  </way>
  <way id="4983353" version="7" timestamp="2009-02-15T13:17:02Z" uid="36809" user="pfoten_weg_!_" changeset="463903">
    <nd ref="33048462"/>
    <nd ref="33048497"/>
    <nd ref="292052683"/>
    <nd ref="33048498"/>
    <nd ref="33048297"/>
    <tag k="created_by" v="RambaZamba"/>
    <tag k="highway" v="residential"/>
    <tag k="name" v="Alois-Wohlmuth-Straße"/>
    <tag k="oneway" v="yes"/>
    <tag k="source" v="survey"/>
  </way>
  <way id="4983353" version="9" timestamp="2009-06-08T13:40:14Z" uid="36809" user="pfoten_weg_!_" changeset="1458869">
    <nd ref="33048462"/>
    <nd ref="33048497"/>
    <nd ref="292052683"/>
    <nd ref="33048498"/>
    <nd ref="33048297"/>
    <tag k="created_by" v="RambaZamba"/>
    <tag k="highway" v="residential"/>
    <tag k="name" v="Alois-Wohlmuth-Straße"/>
    <tag k="oneway" v="yes"/>
    <tag k="source" v="survey"/>
  </way>
  <way id="4983353" version="11" timestamp="2009-08-28T21:15:48Z" uid="36809" user="pfoten_weg_!_" changeset="2295155">
    <nd ref="33048462"/>
    <nd ref="33048497"/>
    <nd ref="292052683"/>
    <nd ref="33048498"/>
    <nd ref="33048297"/>
    <tag k="discovered_by" v="RambaZamba"/>
    <tag k="highway" v="residential"/>
    <tag k="name" v="Alois-Wohlmuth-Straße"/>
    <tag k="oneway" v="yes"/>
    <tag k="source" v="survey"/>
  </way>
  <way id="4983353" version="13" timestamp="2009-09-01T10:32:53Z" uid="36809" user="pfoten_weg_!_" changeset="2335754">
    <nd ref="33048462"/>
    <nd ref="33048497"/>
    <nd ref="292052683"/>
    <nd ref="33048498"/>
    <nd ref="33048297"/>
    <tag k="highway" v="residential"/>
    <tag k="name" v="Alois-Wohlmuth-Straße"/>
    <tag k="oneway" v="yes"/>
    <tag k="source" v="survey"/>
  </way>
  <way id="4983353" version="14" timestamp="2009-10-13T23:46:52Z" uid="36809" user="pfoten_weg_!_" changeset="2841273">
    <nd ref="33048462"/>
    <nd ref="33048497"/>
    <nd ref="292052683"/>
    <nd ref="33048498"/>
    <nd ref="33048297"/>
    <tag k="highway" v="residential"/>
    <tag k="name" v="Alois-Wohlmuth-Straße"/>
    <tag k="oneway" v="yes"/>
  </way>
  <way id="4983361" version="3" timestamp="2008-10-01T02:49:27Z" uid="36809" user="pfoten_weg_!_" changeset="5644">
    <nd ref="149393165"/>
    <nd ref="33048529"/>
    <tag k="created_by" v="RambaZamba"/>
    <tag k="highway" v="residential"/>
    <tag k="name" v="Waldschmidtstraße"/>
  </way>
  <way id="4983361" version="4" timestamp="2009-02-15T13:17:26Z" uid="36809" user="pfoten_weg_!_" changeset="463903">
    <nd ref="149393165"/>
    <nd ref="33048529"/>
    <tag k="created_by" v="RambaZamba"/>
    <tag k="highway" v="residential"/>
    <tag k="name" v="Waldschmidtstraße"/>
    <tag k="source" v="survey"/>
  </way>
  <way id="4983361" version="6" timestamp="2009-06-08T13:40:19Z" uid="36809" user="pfoten_weg_!_" changeset="1458869">
    <nd ref="149393165"/>
    <nd ref="33048529"/>
    <tag k="created_by" v="RambaZamba"/>
    <tag k="highway" v="residential"/>
    <tag k="name" v="Waldschmidtstraße"/>
    <tag k="source" v="survey"/>
  </way>
  <way id="4983361" version="7" timestamp="2009-08-04T01:53:07Z" uid="36809" user="pfoten_weg_!_" changeset="2031346">
    <nd ref="149393165"/>
    <nd ref="33048529"/>
    <tag k="discovered_by" v="RambaZamba"/>
    <tag k="highway" v="residential"/>
    <tag k="name" v="Waldschmidtstraße"/>
    <tag k="source" v="survey"/>
  </way>
  <way id="4983361" version="9" timestamp="2009-08-28T20:58:07Z" uid="36809" user="pfoten_weg_!_" changeset="2295155">
    <nd ref="149393165"/>
    <nd ref="33048529"/>
    <tag k="discovered_by" v="RambaZamba"/>
    <tag k="highway" v="residential"/>
    <tag k="name" v="Waldschmidtstraße"/>
    <tag k="source" v="survey"/>
  </way>
  <way id="4983361" version="11" timestamp="2009-09-01T10:48:43Z" uid="36809" user="pfoten_weg_!_" changeset="2335754">
    <nd ref="149393165"/>
    <nd ref="33048529"/>
    <tag k="highway" v="residential"/>
    <tag k="name" v="Waldschmidtstraße"/>
    <tag k="source" v="survey"/>
  </way>
  <way id="4983361" version="12" timestamp="2009-10-13T23:46:13Z" uid="36809" user="pfoten_weg_!_" changeset="2841273">
    <nd ref="149393165"/>
    <nd ref="33048529"/>
    <tag k="highway" v="residential"/>
    <tag k="name" v="Waldschmidtstraße"/>
  </way>
  <way id="4983406" version="3" timestamp="2008-10-01T02:49:11Z" uid="36809" user="pfoten_weg_!_" changeset="5644">
    <nd ref="33048708"/>
    <nd ref="33048820"/>
    <nd ref="33048821"/>
    <nd ref="33046937"/>
    <tag k="created_by" v="RambaZamba"/>
    <tag k="highway" v="residential"/>
    <tag k="name" v="Willroider Straße"/>
  </way>
  <way id="4983406" version="4" timestamp="2009-02-15T13:17:23Z" uid="36809" user="pfoten_weg_!_" changeset="463903">
    <nd ref="33048708"/>
    <nd ref="33048820"/>
    <nd ref="33048821"/>
    <nd ref="33046937"/>
    <tag k="created_by" v="RambaZamba"/>
    <tag k="highway" v="residential"/>
    <tag k="name" v="Willroider Straße"/>
    <tag k="source" v="survey"/>
  </way>
  <way id="4983406" version="6" timestamp="2009-06-08T13:40:18Z" uid="36809" user="pfoten_weg_!_" changeset="1458869">
    <nd ref="33048708"/>
    <nd ref="33048820"/>
    <nd ref="33048821"/>
    <nd ref="33046937"/>
    <tag k="created_by" v="RambaZamba"/>
    <tag k="highway" v="residential"/>
    <tag k="name" v="Willroider Straße"/>
    <tag k="source" v="survey"/>
  </way>
  <way id="4983406" version="9" timestamp="2009-09-01T10:31:27Z" uid="36809" user="pfoten_weg_!_" changeset="2335754">
    <nd ref="33048708"/>
    <nd ref="33048820"/>
    <nd ref="33048821"/>
    <nd ref="33046937"/>
    <tag k="highway" v="residential"/>
    <tag k="name" v="Willroiderstraße"/>
    <tag k="source" v="survey"/>
  </way>
  <way id="4983406" version="10" timestamp="2009-10-13T23:48:08Z" uid="36809" user="pfoten_weg_!_" changeset="2841273">
    <nd ref="33048708"/>
    <nd ref="33048820"/>
    <nd ref="33048821"/>
    <nd ref="33046937"/>
    <tag k="highway" v="residential"/>
    <tag k="name" v="Willroiderstraße"/>
  </way>
  <way id="4983422" version="5" timestamp="2008-10-01T02:48:46Z" uid="36809" user="pfoten_weg_!_" changeset="5644">
    <nd ref="33048959"/>
    <nd ref="201408029"/>
    <tag k="created_by" v="RambaZamba"/>
    <tag k="foot" v="yes"/>
    <tag k="highway" v="cycleway"/>
    <tag k="source" v="survey"/>
  </way>
  <way id="4983422" version="7" timestamp="2009-06-08T13:40:18Z" uid="36809" user="pfoten_weg_!_" changeset="1458869">
    <nd ref="33048959"/>
    <nd ref="201408029"/>
    <tag k="created_by" v="RambaZamba"/>
    <tag k="foot" v="yes"/>
    <tag k="highway" v="cycleway"/>
    <tag k="source" v="survey"/>
  </way>
  <way id="4983422" version="9" timestamp="2009-09-01T10:36:49Z" uid="36809" user="pfoten_weg_!_" changeset="2335754">
    <nd ref="33048959"/>
    <nd ref="201408029"/>
    <tag k="foot" v="yes"/>
    <tag k="highway" v="cycleway"/>
    <tag k="source" v="survey"/>
  </way>
  <way id="4983422" version="10" timestamp="2009-10-13T23:48:12Z" uid="36809" user="pfoten_weg_!_" changeset="2841273">
    <nd ref="33048959"/>
    <nd ref="201408029"/>
    <tag k="foot" v="yes"/>
    <tag k="highway" v="cycleway"/>
  </way>
  <way id="4983425" version="6" timestamp="2008-10-01T02:51:21Z" uid="36809" user="pfoten_weg_!_" changeset="5644">
    <nd ref="36264909"/>
    <nd ref="266992447"/>
    <nd ref="201442893"/>
    <tag k="bicycle" v="no"/>
    <tag k="created_by" v="RambaZamba"/>
    <tag k="highway" v="footway"/>
    <tag k="source" v="survey"/>
  </way>
  <way id="4983425" version="8" timestamp="2009-06-08T13:40:21Z" uid="36809" user="pfoten_weg_!_" changeset="1458869">
    <nd ref="36264909"/>
    <nd ref="266992447"/>
    <nd ref="201442893"/>
    <tag k="bicycle" v="no"/>
    <tag k="created_by" v="RambaZamba"/>
    <tag k="highway" v="footway"/>
    <tag k="source" v="survey"/>
  </way>
  <way id="4983425" version="10" timestamp="2009-09-01T10:46:26Z" uid="36809" user="pfoten_weg_!_" changeset="2335754">
    <nd ref="36264909"/>
    <nd ref="266992447"/>
    <nd ref="201442893"/>
    <tag k="bicycle" v="no"/>
    <tag k="highway" v="footway"/>
    <tag k="source" v="survey"/>
  </way>
  <way id="4983425" version="11" timestamp="2009-10-13T23:48:12Z" uid="36809" user="pfoten_weg_!_" changeset="2841273">
    <nd ref="36264909"/>
    <nd ref="266992447"/>
    <nd ref="201442893"/>
    <tag k="bicycle" v="no"/>
    <tag k="highway" v="footway"/>
  </way>
  <way id="4983434" version="4" timestamp="2008-10-01T02:51:05Z" uid="36809" user="pfoten_weg_!_" changeset="5644">
    <nd ref="149389023"/>
    <nd ref="33049009"/>
    <tag k="created_by" v="RambaZamba"/>
    <tag k="highway" v="residential"/>
    <tag k="name" v="Faistenbergerstraße"/>
    <tag k="source" v="survey"/>
  </way>
  <way id="4983434" version="6" timestamp="2009-06-08T13:40:21Z" uid="36809" user="pfoten_weg_!_" changeset="1458869">
    <nd ref="149389023"/>
    <nd ref="33049009"/>
    <tag k="created_by" v="RambaZamba"/>
    <tag k="highway" v="residential"/>
    <tag k="name" v="Faistenbergerstraße"/>
    <tag k="source" v="survey"/>
  </way>
  <way id="4983434" version="8" timestamp="2009-08-28T20:58:08Z" uid="36809" user="pfoten_weg_!_" changeset="2295155">
    <nd ref="149389023"/>
    <nd ref="33049009"/>
    <tag k="discovered_by" v="RambaZamba"/>
    <tag k="highway" v="residential"/>
    <tag k="name" v="Faistenbergerstraße"/>
    <tag k="source" v="survey"/>
  </way>
  <way id="4983434" version="10" timestamp="2009-09-01T10:31:31Z" uid="36809" user="pfoten_weg_!_" changeset="2335754">
    <nd ref="149389023"/>
    <nd ref="33049009"/>
    <tag k="highway" v="residential"/>
    <tag k="name" v="Faistenbergerstraße"/>
    <tag k="source" v="survey"/>
  </way>
  <way id="4983434" version="11" timestamp="2009-10-13T23:46:56Z" uid="36809" user="pfoten_weg_!_" changeset="2841273">
    <nd ref="149389023"/>
    <nd ref="33049009"/>
    <tag k="highway" v="residential"/>
    <tag k="name" v="Faistenbergerstraße"/>
  </way>
  <way id="4983435" version="2" timestamp="2008-10-01T02:51:08Z" uid="36809" user="pfoten_weg_!_" changeset="5644">
    <nd ref="33048295"/>
    <nd ref="33049012"/>
    <nd ref="33049013"/>
    <nd ref="33048705"/>
    <tag k="created_by" v="RambaZamba"/>
    <tag k="highway" v="residential"/>
    <tag k="name" v="Defreggerstraße"/>
  </way>
  <way id="4983435" version="3" timestamp="2009-02-15T13:17:52Z" uid="36809" user="pfoten_weg_!_" changeset="463903">
    <nd ref="33048295"/>
    <nd ref="33049012"/>
    <nd ref="33049013"/>
    <nd ref="33048705"/>
    <tag k="created_by" v="RambaZamba"/>
    <tag k="highway" v="residential"/>
    <tag k="name" v="Defreggerstraße"/>
    <tag k="source" v="survey"/>
  </way>
  <way id="4983435" version="5" timestamp="2009-06-08T13:40:21Z" uid="36809" user="pfoten_weg_!_" changeset="1458869">
    <nd ref="33048295"/>
    <nd ref="33049012"/>
    <nd ref="33049013"/>
    <nd ref="33048705"/>
    <tag k="created_by" v="RambaZamba"/>
    <tag k="highway" v="residential"/>
    <tag k="name" v="Defreggerstraße"/>
    <tag k="source" v="survey"/>
  </way>
  <way id="4983435" version="7" timestamp="2009-09-04T21:19:22Z" uid="36809" user="pfoten_weg_!_" changeset="2374562">
    <nd ref="33048295"/>
    <nd ref="33049012"/>
    <nd ref="33049013"/>
    <nd ref="33048705"/>
    <tag k="highway" v="residential"/>
    <tag k="name" v="Defreggerstraße"/>
    <tag k="source" v="survey"/>
  </way>
  <way id="4983435" version="8" timestamp="2009-10-13T23:44:11Z" uid="36809" user="pfoten_weg_!_" changeset="2841273">
    <nd ref="33048295"/>
    <nd ref="33049012"/>
    <nd ref="33049013"/>
    <nd ref="33048705"/>
    <tag k="highway" v="residential"/>
    <tag k="name" v="Defreggerstraße"/>
  </way>
  <way id="4983611" version="2" timestamp="2008-08-18T12:08:54Z" uid="36809" user="pfoten_weg_!_" changeset="306127">
    <nd ref="33049106"/>
    <nd ref="33049107"/>
    <nd ref="31615585"/>
    <tag k="created_by" v="RambaZamba"/>
    <tag k="highway" v="residential"/>
    <tag k="name" v="Schilcherweg"/>
  </way>
  <way id="4983611" version="4" timestamp="2008-10-01T02:53:17Z" uid="36809" user="pfoten_weg_!_" changeset="5644">
    <nd ref="33049106"/>
    <nd ref="33049107"/>
    <tag k="created_by" v="RambaZamba"/>
    <tag k="highway" v="residential"/>
    <tag k="name" v="Schilcherweg"/>
  </way>
  <way id="4983611" version="5" timestamp="2009-02-15T13:18:26Z" uid="36809" user="pfoten_weg_!_" changeset="463903">
    <nd ref="33049106"/>
    <nd ref="33049107"/>
    <tag k="created_by" v="RambaZamba"/>
    <tag k="highway" v="residential"/>
    <tag k="name" v="Schilcherweg"/>
    <tag k="source" v="survey"/>
  </way>
  <way id="4983611" version="7" timestamp="2009-10-13T23:42:03Z" uid="36809" user="pfoten_weg_!_" changeset="2841273">
    <nd ref="33049106"/>
    <nd ref="33049107"/>
    <tag k="highway" v="residential"/>
    <tag k="name" v="Schilcherweg"/>
  </way>
  <way id="4983619" version="2" timestamp="2008-08-18T12:09:22Z" uid="36809" user="pfoten_weg_!_" changeset="306127">
    <nd ref="33049143"/>
    <nd ref="33049144"/>
    <nd ref="33049208"/>
    <nd ref="33049145"/>
    <nd ref="33049147"/>
    <nd ref="33049148"/>
    <tag k="created_by" v="RambaZamba"/>
    <tag k="highway" v="residential"/>
    <tag k="name" v="Wunderhornstraße"/>
  </way>
  <way id="4983619" version="3" timestamp="2008-10-01T02:55:01Z" uid="36809" user="pfoten_weg_!_" changeset="5644">
    <nd ref="33049143"/>
    <nd ref="33049144"/>
    <nd ref="33049208"/>
    <nd ref="33049145"/>
    <nd ref="33049147"/>
    <nd ref="33049148"/>
    <tag k="created_by" v="RambaZamba"/>
    <tag k="highway" v="residential"/>
    <tag k="name" v="Wunderhornstraße"/>
  </way>
  <way id="4983619" version="4" timestamp="2009-02-15T13:18:38Z" uid="36809" user="pfoten_weg_!_" changeset="463903">
    <nd ref="33049143"/>
    <nd ref="33049144"/>
    <nd ref="33049208"/>
    <nd ref="33049145"/>
    <nd ref="33049147"/>
    <nd ref="33049148"/>
    <tag k="created_by" v="RambaZamba"/>
    <tag k="highway" v="residential"/>
    <tag k="name" v="Wunderhornstraße"/>
    <tag k="source" v="survey"/>
  </way>
  <way id="4983619" version="6" timestamp="2009-08-28T21:15:33Z" uid="36809" user="pfoten_weg_!_" changeset="2295155">
    <nd ref="33049143"/>
    <nd ref="33049144"/>
    <nd ref="33049208"/>
    <nd ref="33049145"/>
    <nd ref="33049147"/>
    <nd ref="33049148"/>
    <tag k="discovered_by" v="RambaZamba"/>
    <tag k="highway" v="residential"/>
    <tag k="name" v="Wunderhornstraße"/>
    <tag k="source" v="survey"/>
  </way>
  <way id="4983619" version="8" timestamp="2009-09-01T10:52:56Z" uid="36809" user="pfoten_weg_!_" changeset="2335754">
    <nd ref="33049143"/>
    <nd ref="33049144"/>
    <nd ref="33049208"/>
    <nd ref="33049145"/>
    <nd ref="33049147"/>
    <nd ref="33049148"/>
    <tag k="highway" v="residential"/>
    <tag k="name" v="Wunderhornstraße"/>
    <tag k="source" v="survey"/>
  </way>
  <way id="4983619" version="9" timestamp="2009-10-13T23:42:04Z" uid="36809" user="pfoten_weg_!_" changeset="2841273">
    <nd ref="33049143"/>
    <nd ref="33049144"/>
    <nd ref="33049208"/>
    <nd ref="33049145"/>
    <nd ref="33049147"/>
    <nd ref="33049148"/>
    <tag k="highway" v="residential"/>
    <tag k="name" v="Wunderhornstraße"/>
  </way>
  <way id="4983623" version="2" timestamp="2008-08-18T12:09:23Z" uid="36809" user="pfoten_weg_!_" changeset="306127">
    <nd ref="33049147"/>
    <nd ref="33049164"/>
    <nd ref="33049165"/>
    <nd ref="33049166"/>
    <nd ref="33049167"/>
    <nd ref="33049144"/>
    <nd ref="33049168"/>
    <nd ref="33049169"/>
    <nd ref="33049170"/>
    <nd ref="33049147"/>
    <tag k="created_by" v="RambaZamba"/>
    <tag k="highway" v="residential"/>
    <tag k="name" v="Reinekestraße"/>
  </way>
  <way id="4983623" version="3" timestamp="2008-10-01T02:55:27Z" uid="36809" user="pfoten_weg_!_" changeset="5644">
    <nd ref="33049147"/>
    <nd ref="33049164"/>
    <nd ref="33049165"/>
    <nd ref="33049166"/>
    <nd ref="33049167"/>
    <nd ref="33049144"/>
    <nd ref="33049168"/>
    <nd ref="33049169"/>
    <nd ref="33049170"/>
    <nd ref="33049147"/>
    <tag k="created_by" v="RambaZamba"/>
    <tag k="highway" v="residential"/>
    <tag k="name" v="Reinekestraße"/>
  </way>
  <way id="4983623" version="4" timestamp="2009-02-15T13:18:39Z" uid="36809" user="pfoten_weg_!_" changeset="463903">
    <nd ref="33049147"/>
    <nd ref="33049164"/>
    <nd ref="33049165"/>
    <nd ref="33049166"/>
    <nd ref="33049167"/>
    <nd ref="33049144"/>
    <nd ref="33049168"/>
    <nd ref="33049169"/>
    <nd ref="33049170"/>
    <nd ref="33049147"/>
    <tag k="created_by" v="RambaZamba"/>
    <tag k="highway" v="residential"/>
    <tag k="name" v="Reinekestraße"/>
    <tag k="source" v="survey"/>
  </way>
  <way id="4983623" version="7" timestamp="2009-08-28T21:08:13Z" uid="36809" user="pfoten_weg_!_" changeset="2295155">
    <nd ref="33049147"/>
    <nd ref="33049164"/>
    <nd ref="33049166"/>
    <nd ref="33049167"/>
    <nd ref="33049144"/>
    <nd ref="33049168"/>
    <nd ref="33049169"/>
    <nd ref="33049170"/>
    <nd ref="33049147"/>
    <tag k="discovered_by" v="RambaZamba"/>
    <tag k="highway" v="residential"/>
    <tag k="name" v="Reinekestraße"/>
    <tag k="source" v="survey"/>
  </way>
  <way id="4983623" version="9" timestamp="2009-09-01T10:40:21Z" uid="36809" user="pfoten_weg_!_" changeset="2335754">
    <nd ref="33049147"/>
    <nd ref="33049164"/>
    <nd ref="33049166"/>
    <nd ref="33049167"/>
    <nd ref="33049144"/>
    <nd ref="33049168"/>
    <nd ref="33049169"/>
    <nd ref="33049170"/>
    <nd ref="33049147"/>
    <tag k="highway" v="residential"/>
    <tag k="name" v="Reinekestraße"/>
    <tag k="source" v="survey"/>
  </way>
  <way id="4983623" version="10" timestamp="2009-10-13T23:42:04Z" uid="36809" user="pfoten_weg_!_" changeset="2841273">
    <nd ref="33049147"/>
    <nd ref="33049164"/>
    <nd ref="33049166"/>
    <nd ref="33049167"/>
    <nd ref="33049144"/>
    <nd ref="33049168"/>
    <nd ref="33049169"/>
    <nd ref="33049170"/>
    <nd ref="33049147"/>
    <tag k="highway" v="residential"/>
    <tag k="name" v="Reinekestraße"/>
  </way>
  <way id="4983625" version="2" timestamp="2008-08-18T12:09:25Z" uid="36809" user="pfoten_weg_!_" changeset="306127">
    <nd ref="33049169"/>
    <nd ref="33049145"/>
    <tag k="created_by" v="RambaZamba"/>
    <tag k="highway" v="residential"/>
    <tag k="name" v="Vierheiligstraße"/>
  </way>
  <way id="4983625" version="3" timestamp="2008-10-01T02:55:36Z" uid="36809" user="pfoten_weg_!_" changeset="5644">
    <nd ref="33049169"/>
    <nd ref="33049145"/>
    <tag k="created_by" v="RambaZamba"/>
    <tag k="highway" v="residential"/>
    <tag k="name" v="Vierheiligstraße"/>
  </way>
  <way id="4983625" version="4" timestamp="2009-02-15T13:18:40Z" uid="36809" user="pfoten_weg_!_" changeset="463903">
    <nd ref="33049169"/>
    <nd ref="33049145"/>
    <tag k="created_by" v="RambaZamba"/>
    <tag k="highway" v="residential"/>
    <tag k="name" v="Vierheiligstraße"/>
    <tag k="source" v="survey"/>
  </way>
  <way id="4983625" version="6" timestamp="2009-08-28T21:11:31Z" uid="36809" user="pfoten_weg_!_" changeset="2295155">
    <nd ref="33049169"/>
    <nd ref="33049145"/>
    <tag k="discovered_by" v="RambaZamba"/>
    <tag k="highway" v="residential"/>
    <tag k="name" v="Vierheiligstraße"/>
    <tag k="source" v="survey"/>
  </way>
  <way id="4983625" version="8" timestamp="2009-09-01T10:43:59Z" uid="36809" user="pfoten_weg_!_" changeset="2335754">
    <nd ref="33049169"/>
    <nd ref="33049145"/>
    <tag k="highway" v="residential"/>
    <tag k="name" v="Vierheiligstraße"/>
    <tag k="source" v="survey"/>
  </way>
  <way id="4983625" version="9" timestamp="2009-10-13T23:42:46Z" uid="36809" user="pfoten_weg_!_" changeset="2841273">
    <nd ref="33049169"/>
    <nd ref="33049145"/>
    <tag k="highway" v="residential"/>
    <tag k="name" v="Vierheiligstraße"/>
  </way>
  <way id="4983654" version="4" timestamp="2009-06-08T13:40:23Z" uid="36809" user="pfoten_weg_!_" changeset="1458869">
    <nd ref="32341587"/>
    <nd ref="317977535"/>
    <nd ref="33049496"/>
    <nd ref="33049617"/>
    <nd ref="33049497"/>
    <nd ref="33049498"/>
    <nd ref="33049499"/>
    <nd ref="33049500"/>
    <nd ref="33049501"/>
    <nd ref="33049319"/>
    <tag k="created_by" v="RambaZamba"/>
    <tag k="highway" v="residential"/>
    <tag k="name" v="Griechenstraße"/>
    <tag k="source" v="survey"/>
  </way>
  <way id="4983665" version="3" timestamp="2009-06-08T13:40:23Z" uid="36809" user="pfoten_weg_!_" changeset="1458869">
    <nd ref="33049497"/>
    <nd ref="33049563"/>
    <nd ref="33049564"/>
    <nd ref="33049565"/>
    <nd ref="33049566"/>
    <tag k="created_by" v="RambaZamba"/>
    <tag k="highway" v="residential"/>
    <tag k="name" v="Grauertstraße"/>
    <tag k="source" v="survey"/>
  </way>
  <way id="4983672" version="4" timestamp="2009-06-08T13:40:24Z" uid="36809" user="pfoten_weg_!_" changeset="1458869">
    <nd ref="33049591"/>
    <nd ref="33049518"/>
    <nd ref="335577906"/>
    <nd ref="33049610"/>
    <nd ref="33049615"/>
    <nd ref="33049585"/>
    <nd ref="32342978"/>
    <tag k="created_by" v="RambaZamba"/>
    <tag k="highway" v="residential"/>
    <tag k="name" v="Langobardenstraße"/>
    <tag k="source" v="survey"/>
  </way>
  <way id="4983674" version="3" timestamp="2009-06-08T13:40:24Z" uid="36809" user="pfoten_weg_!_" changeset="1458869">
    <nd ref="33049615"/>
    <nd ref="33049616"/>
    <nd ref="33049617"/>
    <tag k="created_by" v="RambaZamba"/>
    <tag k="highway" v="residential"/>
    <tag k="name" v="Griechenplatz"/>
    <tag k="source" v="survey"/>
  </way>
  <way id="4983675" version="3" timestamp="2009-06-08T13:40:24Z" uid="36809" user="pfoten_weg_!_" changeset="1458869">
    <nd ref="33049616"/>
    <nd ref="33049656"/>
    <tag k="created_by" v="RambaZamba"/>
    <tag k="highway" v="residential"/>
    <tag k="name" v="Sabine-Schmitt-Straße"/>
    <tag k="source" v="survey"/>
  </way>
  <way id="4983678" version="4" timestamp="2009-06-08T13:40:25Z" uid="36809" user="pfoten_weg_!_" changeset="1458869">
    <nd ref="33049616"/>
    <nd ref="33049583"/>
    <nd ref="33049852"/>
    <tag k="created_by" v="RambaZamba"/>
    <tag k="highway" v="cycleway"/>
    <tag k="source" v="survey"/>
  </way>
  <way id="4983755" version="3" timestamp="2008-07-05T18:29:32Z" uid="6975" user="ulfl" changeset="398437">
    <nd ref="33049838"/>
    <nd ref="33049839"/>
    <nd ref="33049783"/>
    <nd ref="33049840"/>
    <nd ref="33049843"/>
    <nd ref="33049838"/>
    <tag k="leisure" v="pitch"/>
  </way>
  <way id="4983762" version="2" timestamp="2008-10-01T02:58:30Z" uid="36809" user="pfoten_weg_!_" changeset="5644">
    <nd ref="33050064"/>
    <nd ref="33050065"/>
    <nd ref="27468329"/>
    <nd ref="33050066"/>
    <nd ref="33050067"/>
    <nd ref="33050068"/>
    <nd ref="21042227"/>
    <tag k="created_by" v="RambaZamba"/>
    <tag k="highway" v="residential"/>
    <tag k="name" v="Schönchenstraße"/>
  </way>
  <way id="4983762" version="3" timestamp="2009-02-15T13:19:16Z" uid="36809" user="pfoten_weg_!_" changeset="463903">
    <nd ref="33050064"/>
    <nd ref="33050065"/>
    <nd ref="27468329"/>
    <nd ref="33050066"/>
    <nd ref="33050067"/>
    <nd ref="33050068"/>
    <nd ref="21042227"/>
    <tag k="created_by" v="RambaZamba"/>
    <tag k="highway" v="residential"/>
    <tag k="name" v="Schönchenstraße"/>
    <tag k="source" v="survey"/>
  </way>
  <way id="4983762" version="5" timestamp="2009-06-08T13:40:28Z" uid="36809" user="pfoten_weg_!_" changeset="1458869">
    <nd ref="33050064"/>
    <nd ref="33050065"/>
    <nd ref="27468329"/>
    <nd ref="33050066"/>
    <nd ref="33050067"/>
    <nd ref="33050068"/>
    <nd ref="21042227"/>
    <tag k="created_by" v="RambaZamba"/>
    <tag k="highway" v="residential"/>
    <tag k="name" v="Schönchenstraße"/>
    <tag k="source" v="survey"/>
  </way>
  <way id="4983762" version="7" timestamp="2009-10-13T23:50:30Z" uid="36809" user="pfoten_weg_!_" changeset="2841273">
    <nd ref="33050064"/>
    <nd ref="33050065"/>
    <nd ref="27468329"/>
    <nd ref="33050066"/>
    <nd ref="33050067"/>
    <nd ref="33050068"/>
    <nd ref="21042227"/>
    <tag k="highway" v="residential"/>
    <tag k="name" v="Schönchenstraße"/>
  </way>
  <way id="4983767" version="1" timestamp="2007-08-16T17:03:32Z" uid="6975" user="ulfl" changeset="221375">
    <nd ref="31224150"/>
    <nd ref="34674398"/>
    <nd ref="33050105"/>
    <tag k="created_by" v="JOSM"/>
    <tag k="highway" v="residential"/>
    <tag k="name" v="Schillerstraße"/>
  </way>
  <way id="4983771" version="3" timestamp="2009-06-08T13:40:28Z" uid="36809" user="pfoten_weg_!_" changeset="1458869">
    <nd ref="27468327"/>
    <nd ref="33050130"/>
    <nd ref="33050067"/>
    <tag k="created_by" v="RambaZamba"/>
    <tag k="highway" v="residential"/>
    <tag k="name" v="Heinrich-Kröller-Straße"/>
    <tag k="source" v="survey"/>
  </way>
  <way id="4983771" version="5" timestamp="2009-10-13T23:50:30Z" uid="36809" user="pfoten_weg_!_" changeset="2841273">
    <nd ref="27468327"/>
    <nd ref="33050130"/>
    <nd ref="33050067"/>
    <tag k="highway" v="residential"/>
    <tag k="name" v="Heinrich-Kröller-Straße"/>
  </way>
  <way id="4983775" version="2" timestamp="2008-10-01T02:58:20Z" uid="36809" user="pfoten_weg_!_" changeset="5644">
    <nd ref="21042225"/>
    <nd ref="33223261"/>
    <nd ref="33223262"/>
    <nd ref="33223241"/>
    <nd ref="33223263"/>
    <nd ref="33050136"/>
    <nd ref="33050352"/>
    <nd ref="33050307"/>
    <nd ref="33050064"/>
    <nd ref="33050138"/>
    <nd ref="32341578"/>
    <tag k="created_by" v="RambaZamba"/>
    <tag k="highway" v="residential"/>
    <tag k="name" v="Theodolindenstraße"/>
  </way>
  <way id="4983775" version="6" timestamp="2009-06-08T13:40:28Z" uid="36809" user="pfoten_weg_!_" changeset="1458869">
    <nd ref="21042225"/>
    <nd ref="33223261"/>
    <nd ref="33223262"/>
    <nd ref="33223241"/>
    <nd ref="33223263"/>
    <nd ref="333769395"/>
    <nd ref="33050136"/>
    <nd ref="33050352"/>
    <nd ref="33050307"/>
    <nd ref="33050064"/>
    <nd ref="33050138"/>
    <nd ref="371721128"/>
    <nd ref="32341578"/>
    <tag k="created_by" v="RambaZamba"/>
    <tag k="highway" v="residential"/>
    <tag k="name" v="Theodolindenstraße"/>
    <tag k="source" v="survey"/>
  </way>
  <way id="4983775" version="10" timestamp="2009-10-13T23:43:26Z" uid="36809" user="pfoten_weg_!_" changeset="2841273">
    <nd ref="21042225"/>
    <nd ref="33223261"/>
    <nd ref="33223262"/>
    <nd ref="33223241"/>
    <nd ref="33223263"/>
    <nd ref="333769395"/>
    <nd ref="33050136"/>
    <nd ref="33050352"/>
    <nd ref="33050307"/>
    <nd ref="33050064"/>
    <nd ref="33050138"/>
    <tag k="highway" v="residential"/>
    <tag k="lit" v="yes"/>
    <tag k="name" v="Theodolindenstraße"/>
  </way>
  <way id="4983778" version="2" timestamp="2008-10-01T02:57:25Z" uid="36809" user="pfoten_weg_!_" changeset="5644">
    <nd ref="33050138"/>
    <nd ref="33043209"/>
    <tag k="created_by" v="RambaZamba"/>
    <tag k="highway" v="residential"/>
  </way>
  <way id="4983778" version="7" timestamp="2009-06-08T13:40:26Z" uid="36809" user="pfoten_weg_!_" changeset="1458869">
    <nd ref="33050138"/>
    <nd ref="378303326"/>
    <nd ref="330695889"/>
    <tag k="created_by" v="RambaZamba"/>
    <tag k="highway" v="residential"/>
    <tag k="name" v="Theodolindenstraße"/>
    <tag k="source" v="survey"/>
  </way>
  <way id="4983778" version="10" timestamp="2009-10-13T23:48:22Z" uid="36809" user="pfoten_weg_!_" changeset="2841273">
    <nd ref="330695889"/>
    <nd ref="378303326"/>
    <nd ref="33050138"/>
    <tag k="highway" v="residential"/>
    <tag k="name" v="Theodolindenplatz"/>
    <tag k="oneway" v="yes"/>
  </way>
  <way id="4983780" version="2" timestamp="2008-10-01T02:57:26Z" uid="36809" user="pfoten_weg_!_" changeset="5644">
    <nd ref="33050293"/>
    <nd ref="33050294"/>
    <nd ref="33050295"/>
    <nd ref="33050296"/>
    <tag k="created_by" v="RambaZamba"/>
    <tag k="highway" v="residential"/>
    <tag k="name" v="Reinerstraße"/>
  </way>
  <way id="4983780" version="3" timestamp="2009-02-15T13:19:07Z" uid="36809" user="pfoten_weg_!_" changeset="463903">
    <nd ref="33050293"/>
    <nd ref="33050294"/>
    <nd ref="33050295"/>
    <nd ref="33050296"/>
    <tag k="created_by" v="RambaZamba"/>
    <tag k="highway" v="residential"/>
    <tag k="name" v="Reinerstraße"/>
    <tag k="source" v="survey"/>
  </way>
  <way id="4983780" version="5" timestamp="2009-06-08T13:40:26Z" uid="36809" user="pfoten_weg_!_" changeset="1458869">
    <nd ref="33050293"/>
    <nd ref="33050294"/>
    <nd ref="33050295"/>
    <nd ref="33050296"/>
    <tag k="created_by" v="RambaZamba"/>
    <tag k="highway" v="residential"/>
    <tag k="name" v="Reinerstraße"/>
    <tag k="source" v="survey"/>
  </way>
  <way id="4983780" version="7" timestamp="2009-10-13T23:48:19Z" uid="36809" user="pfoten_weg_!_" changeset="2841273">
    <nd ref="33050293"/>
    <nd ref="33050294"/>
    <nd ref="33050295"/>
    <nd ref="33050296"/>
    <tag k="highway" v="residential"/>
    <tag k="name" v="Reinerstraße"/>
  </way>
  <way id="4983784" version="2" timestamp="2008-10-01T02:57:13Z" uid="36809" user="pfoten_weg_!_" changeset="5644">
    <nd ref="33050307"/>
    <nd ref="33050337"/>
    <nd ref="33050338"/>
    <nd ref="33050339"/>
    <nd ref="33050294"/>
    <tag k="created_by" v="RambaZamba"/>
    <tag k="highway" v="residential"/>
    <tag k="name" v="Herzog-Garibald-Straße"/>
  </way>
  <way id="4983784" version="3" timestamp="2009-02-15T13:19:05Z" uid="36809" user="pfoten_weg_!_" changeset="463903">
    <nd ref="33050307"/>
    <nd ref="33050337"/>
    <nd ref="33050338"/>
    <nd ref="33050339"/>
    <nd ref="33050294"/>
    <tag k="created_by" v="RambaZamba"/>
    <tag k="highway" v="residential"/>
    <tag k="name" v="Herzog-Garibald-Straße"/>
    <tag k="source" v="survey"/>
  </way>
  <way id="4983784" version="5" timestamp="2009-06-08T13:40:26Z" uid="36809" user="pfoten_weg_!_" changeset="1458869">
    <nd ref="33050307"/>
    <nd ref="33050337"/>
    <nd ref="33050338"/>
    <nd ref="33050339"/>
    <nd ref="33050294"/>
    <tag k="created_by" v="RambaZamba"/>
    <tag k="highway" v="residential"/>
    <tag k="name" v="Herzog-Garibald-Straße"/>
    <tag k="source" v="survey"/>
  </way>
  <way id="4983784" version="7" timestamp="2009-10-13T23:43:23Z" uid="36809" user="pfoten_weg_!_" changeset="2841273">
    <nd ref="33050307"/>
    <nd ref="33050337"/>
    <nd ref="33050338"/>
    <nd ref="33050339"/>
    <nd ref="33050294"/>
    <tag k="highway" v="residential"/>
    <tag k="name" v="Herzog-Garibald-Straße"/>
  </way>
  <way id="4983787" version="2" timestamp="2008-10-01T02:57:18Z" uid="36809" user="pfoten_weg_!_" changeset="5644">
    <nd ref="33050339"/>
    <nd ref="33050343"/>
    <nd ref="33050344"/>
    <nd ref="33050345"/>
    <tag k="created_by" v="RambaZamba"/>
    <tag k="highway" v="residential"/>
    <tag k="name" v="Klara-Heese-Straße"/>
  </way>
  <way id="4983787" version="3" timestamp="2009-02-15T13:19:06Z" uid="36809" user="pfoten_weg_!_" changeset="463903">
    <nd ref="33050339"/>
    <nd ref="33050343"/>
    <nd ref="33050344"/>
    <nd ref="33050345"/>
    <tag k="created_by" v="RambaZamba"/>
    <tag k="highway" v="residential"/>
    <tag k="name" v="Klara-Heese-Straße"/>
    <tag k="source" v="survey"/>
  </way>
  <way id="4983787" version="5" timestamp="2009-06-08T13:40:26Z" uid="36809" user="pfoten_weg_!_" changeset="1458869">
    <nd ref="33050339"/>
    <nd ref="33050343"/>
    <nd ref="33050344"/>
    <nd ref="33050345"/>
    <tag k="created_by" v="RambaZamba"/>
    <tag k="highway" v="residential"/>
    <tag k="name" v="Klara-Heese-Straße"/>
    <tag k="source" v="survey"/>
  </way>
  <way id="4983787" version="7" timestamp="2009-10-13T23:43:24Z" uid="36809" user="pfoten_weg_!_" changeset="2841273">
    <nd ref="33050339"/>
    <nd ref="33050343"/>
    <nd ref="33050344"/>
    <nd ref="33050345"/>
    <tag k="highway" v="residential"/>
    <tag k="name" v="Klara-Heese-Straße"/>
  </way>
  <way id="4983789" version="2" timestamp="2008-10-01T02:57:18Z" uid="36809" user="pfoten_weg_!_" changeset="5644">
    <nd ref="33050344"/>
    <nd ref="33050352"/>
    <tag k="created_by" v="RambaZamba"/>
    <tag k="highway" v="residential"/>
    <tag k="name" v="Petristraße"/>
  </way>
  <way id="4983789" version="3" timestamp="2009-02-15T13:19:06Z" uid="36809" user="pfoten_weg_!_" changeset="463903">
    <nd ref="33050344"/>
    <nd ref="33050352"/>
    <tag k="created_by" v="RambaZamba"/>
    <tag k="highway" v="residential"/>
    <tag k="name" v="Petristraße"/>
    <tag k="source" v="survey"/>
  </way>
  <way id="4983789" version="5" timestamp="2009-06-08T13:40:26Z" uid="36809" user="pfoten_weg_!_" changeset="1458869">
    <nd ref="33050344"/>
    <nd ref="33050352"/>
    <tag k="created_by" v="RambaZamba"/>
    <tag k="highway" v="residential"/>
    <tag k="name" v="Petristraße"/>
    <tag k="source" v="survey"/>
  </way>
  <way id="4983789" version="7" timestamp="2009-10-13T23:50:29Z" uid="36809" user="pfoten_weg_!_" changeset="2841273">
    <nd ref="33050344"/>
    <nd ref="33050352"/>
    <tag k="highway" v="residential"/>
    <tag k="name" v="Petristraße"/>
  </way>
  <way id="4983842" version="8" timestamp="2009-09-23T13:32:01Z" uid="9581" user="Lobelt" changeset="2595487">
    <nd ref="33050792"/>
    <nd ref="260569767"/>
    <tag k="highway" v="primary"/>
    <tag k="name" v="Straße des Friedens"/>
    <tag k="ref" v="B 2"/>
  </way>
  <way id="4983845" version="12" timestamp="2010-09-27T19:39:42Z" uid="9581" user="Lobelt" changeset="5895011">
    <nd ref="33050681"/>
    <nd ref="33050682"/>
    <nd ref="33050683"/>
    <nd ref="33050684"/>
    <nd ref="33050692"/>
    <nd ref="33050693"/>
    <nd ref="33050694"/>
    <nd ref="33050695"/>
    <nd ref="33050702"/>
    <nd ref="33050703"/>
    <nd ref="919690271"/>
    <nd ref="33050706"/>
    <nd ref="33050707"/>
    <nd ref="33050708"/>
    <nd ref="33050709"/>
    <nd ref="33050711"/>
    <nd ref="33050712"/>
    <tag k="highway" v="primary"/>
    <tag k="maxspeed" v="70"/>
    <tag k="ref" v="B 2"/>
  </way>
  <way id="4983846" version="6" timestamp="2010-09-27T19:39:43Z" uid="9581" user="Lobelt" changeset="5895011">
    <nd ref="33050712"/>
    <nd ref="33050713"/>
    <nd ref="33050714"/>
    <nd ref="33050715"/>
    <nd ref="33050716"/>
    <nd ref="33050719"/>
    <nd ref="33050720"/>
    <nd ref="33050721"/>
    <nd ref="33050722"/>
    <nd ref="33050725"/>
    <nd ref="33050728"/>
    <nd ref="33050733"/>
    <nd ref="33050737"/>
    <nd ref="33050738"/>
    <nd ref="33050739"/>
    <nd ref="33050740"/>
    <nd ref="33050741"/>
    <nd ref="33050744"/>
    <tag k="highway" v="primary"/>
    <tag k="maxspeed" v="50"/>
    <tag k="ref" v="B 2"/>
  </way>
  <way id="4983847" version="8" timestamp="2010-09-27T19:39:44Z" uid="9581" user="Lobelt" changeset="5895011">
    <nd ref="33050753"/>
    <nd ref="33050756"/>
    <nd ref="33050757"/>
    <nd ref="33050758"/>
    <nd ref="33050759"/>
    <nd ref="33050760"/>
    <nd ref="33050761"/>
    <nd ref="33050762"/>
    <nd ref="33050763"/>
    <nd ref="33050764"/>
    <nd ref="33050765"/>
    <nd ref="497312690"/>
    <nd ref="33050767"/>
    <nd ref="33050768"/>
    <nd ref="33050769"/>
    <nd ref="33050770"/>
    <nd ref="33050771"/>
    <nd ref="33050772"/>
    <nd ref="33050773"/>
    <nd ref="33050774"/>
    <nd ref="33050775"/>
    <nd ref="33050776"/>
    <nd ref="33050777"/>
    <nd ref="33050778"/>
    <nd ref="33050779"/>
    <nd ref="33050780"/>
    <nd ref="33050781"/>
    <nd ref="33050782"/>
    <nd ref="33050783"/>
    <nd ref="33050784"/>
    <nd ref="33050785"/>
    <nd ref="33050786"/>
    <nd ref="33050787"/>
    <nd ref="33050788"/>
    <nd ref="33050789"/>
    <nd ref="33050790"/>
    <nd ref="33050791"/>
    <nd ref="21666659"/>
    <tag k="highway" v="primary"/>
    <tag k="ref" v="B 2"/>
  </way>
  <way id="4983847" version="9" timestamp="2010-09-27T19:46:18Z" uid="9581" user="Lobelt" changeset="5895109">
    <nd ref="33050753"/>
    <nd ref="33050756"/>
    <nd ref="33050759"/>
    <nd ref="33050760"/>
    <nd ref="33050761"/>
    <nd ref="33050763"/>
    <nd ref="33050764"/>
    <nd ref="33050765"/>
    <tag k="highway" v="primary"/>
    <tag k="maxspeed" v="100"/>
    <tag k="ref" v="B 2"/>
  </way>
  <way id="4983901" version="1" timestamp="2007-08-19T19:09:28Z" uid="6975" user="ulfl" changeset="236620">
    <nd ref="33567735"/>
    <nd ref="33051073"/>
    <nd ref="33051072"/>
    <nd ref="33050106"/>
    <nd ref="35205078"/>
    <nd ref="35205080"/>
    <nd ref="35205081"/>
    <nd ref="35205083"/>
    <nd ref="35205084"/>
    <tag k="created_by" v="JOSM"/>
    <tag k="highway" v="residential"/>
    <tag k="name" v="Cranachstraße"/>
  </way>
  <way id="4983905" version="1" timestamp="2007-08-19T18:42:35Z" uid="6975" user="ulfl" changeset="236620">
    <nd ref="33329759"/>
    <nd ref="31889246"/>
    <nd ref="35199678"/>
    <nd ref="31224850"/>
    <nd ref="31348542"/>
    <nd ref="31348543"/>
    <tag k="created_by" v="JOSM"/>
    <tag k="highway" v="residential"/>
    <tag k="name" v="Uhlandstraße"/>
  </way>
  <way id="4983917" version="2" timestamp="2008-07-05T14:30:50Z" uid="6975" user="ulfl" changeset="398437">
    <nd ref="33051284"/>
    <nd ref="33051285"/>
    <nd ref="33051286"/>
    <nd ref="33051287"/>
    <nd ref="33051284"/>
    <tag k="amenity" v="parking"/>
  </way>
  <way id="4983926" version="2" timestamp="2007-11-26T11:48:09Z" uid="9581" user="Lobelt" changeset="623243">
    <nd ref="27594814"/>
    <nd ref="27594817"/>
    <nd ref="134669815"/>
    <nd ref="27594819"/>
    <nd ref="33050792"/>
    <tag k="created_by" v="Potlatch 0.5d"/>
    <tag k="highway" v="primary"/>
  </way>
  <way id="4983930" version="7" timestamp="2009-09-22T20:40:32Z" uid="9581" user="Lobelt" changeset="2576235">
    <nd ref="505818023"/>
    <nd ref="271812917"/>
    <tag k="bridge" v="yes"/>
    <tag k="highway" v="primary"/>
    <tag k="layer" v="1"/>
    <tag k="name" v="Theaterstraße"/>
    <tag k="postal_code" v="07545"/>
    <tag k="ref" v="B 2"/>
  </way>
  <way id="4983932" version="4" timestamp="2007-12-02T12:17:20Z" uid="9581" user="Lobelt" changeset="44251">
    <nd ref="27594744"/>
    <nd ref="146079347"/>
    <nd ref="147985867"/>
    <nd ref="27594747"/>
    <nd ref="27594749"/>
    <nd ref="27594751"/>
    <nd ref="27594753"/>
    <nd ref="27594755"/>
    <nd ref="27594757"/>
    <nd ref="27594759"/>
    <nd ref="27594762"/>
    <nd ref="27594764"/>
    <nd ref="27594766"/>
    <nd ref="145967591"/>
    <nd ref="27594768"/>
    <tag k="created_by" v="JOSM"/>
    <tag k="highway" v="primary"/>
  </way>
  <way id="4983933" version="2" timestamp="2007-12-02T12:17:23Z" uid="9581" user="Lobelt" changeset="44251">
    <nd ref="27594732"/>
    <nd ref="27594734"/>
    <nd ref="27594737"/>
    <nd ref="27594739"/>
    <nd ref="27594742"/>
    <nd ref="147985863"/>
    <nd ref="27594744"/>
    <tag k="created_by" v="JOSM"/>
    <tag k="highway" v="primary"/>
  </way>
  <way id="4983933" version="10" timestamp="2008-09-09T09:12:07Z" uid="9581" user="Lobelt" changeset="581818">
    <nd ref="27594732"/>
    <nd ref="288344707"/>
    <nd ref="295274470"/>
    <nd ref="27594734"/>
    <nd ref="27594737"/>
    <nd ref="27594739"/>
    <nd ref="264785942"/>
    <nd ref="247678752"/>
    <nd ref="27594742"/>
    <nd ref="276280053"/>
    <nd ref="264785058"/>
    <tag k="created_by" v="Potlatch 0.10b"/>
    <tag k="highway" v="primary"/>
    <tag k="name" v="Langenberger Straße"/>
    <tag k="ref" v="B 7"/>
  </way>
  <way id="4983964" version="2" timestamp="2010-05-12T09:05:56Z" uid="4467" user="Rosscoe" changeset="4675391">
    <nd ref="33051578"/>
    <nd ref="33051579"/>
    <nd ref="33051580"/>
    <nd ref="33051581"/>
    <nd ref="33051582"/>
    <nd ref="33051583"/>
    <nd ref="33051584"/>
    <nd ref="33051585"/>
    <nd ref="33051586"/>
    <nd ref="33051587"/>
    <nd ref="33051588"/>
    <nd ref="33051589"/>
    <nd ref="33051590"/>
    <nd ref="33051591"/>
    <nd ref="33051592"/>
    <nd ref="33051593"/>
    <nd ref="33051594"/>
    <nd ref="33051595"/>
    <nd ref="33051596"/>
    <nd ref="33051598"/>
    <nd ref="33051599"/>
    <nd ref="33051601"/>
    <nd ref="33051602"/>
    <nd ref="33051604"/>
    <nd ref="33051605"/>
    <nd ref="33051606"/>
    <nd ref="33051609"/>
    <nd ref="33051610"/>
    <nd ref="33051611"/>
    <nd ref="33051612"/>
    <nd ref="33051613"/>
    <nd ref="33051614"/>
    <nd ref="33051615"/>
    <nd ref="33051616"/>
    <nd ref="33051617"/>
    <nd ref="33051618"/>
    <nd ref="33051619"/>
    <nd ref="33051620"/>
    <nd ref="33051621"/>
    <nd ref="33051622"/>
    <nd ref="33051623"/>
    <nd ref="33051624"/>
    <nd ref="33051625"/>
    <nd ref="33051626"/>
    <nd ref="33051628"/>
    <nd ref="33051629"/>
    <nd ref="33051630"/>
    <nd ref="33051578"/>
    <tag k="amenity" v="university"/>
    <tag k="name" v="Murdoch University"/>
  </way>
</osm>
