<?xml version='1.0' encoding='UTF-8'?>
<osm version="0.6" generator="libosmium/2.20.0">
  <way id="49852057" version="2" timestamp="2010-05-01T12:43:20Z" uid="151899" user="Bikeman2000" changeset="4574490">
    <nd ref="205213358"/>
    <nd ref="205213360"/>
    <nd ref="205213361"/>
    <nd ref="715314833"/>
    <nd ref="205213362"/>
    <tag k="bicycle" v="yes"/>
    <tag k="highway" v="service"/>
    <tag k="motorcar" v="permissive"/>
    <tag k="name" v="BauenhÃ¤user Weg"/>
  </way>
  <way id="49852370" version="3" timestamp="2010-07-09T06:36:00Z" uid="74617" user="JohnSmith" changeset="5171134">
    <nd ref="360351053"/>
    <nd ref="360351043"/>
    <nd ref="360351050"/>
    <nd ref="633432056"/>
    <nd ref="633432045"/>
    <nd ref="360351045"/>
    <nd ref="253707942"/>
    <nd ref="633423904"/>
    <tag k="highway" v="residential"/>
    <tag k="maxspeed" v="50"/>
    <tag k="maxspeed:source" v="default residential speed limit in Australia"/>
    <tag k="name" v="Fortrose Avenue"/>
  </way>
  <way id="49852372" version="2" timestamp="2010-07-09T06:39:39Z" uid="74617" user="JohnSmith" changeset="5171134">
    <nd ref="633423905"/>
    <nd ref="633423906"/>
    <nd ref="633417689"/>
    <tag k="highway" v="residential"/>
    <tag k="maxspeed" v="50"/>
    <tag k="maxspeed:source" v="default residential speed limit in Australia"/>
    <tag k="name" v="Bach Cresent"/>
  </way>
  <way id="49852373" version="2" timestamp="2010-07-09T06:40:42Z" uid="74617" user="JohnSmith" changeset="5171134">
    <nd ref="633423907"/>
    <nd ref="370224019"/>
    <tag k="highway" v="residential"/>
    <tag k="maxspeed" v="50"/>
    <tag k="maxspeed:source" v="default residential speed limit in Australia"/>
    <tag k="name" v="Caruso Avenue"/>
  </way>
  <way id="49852669" version="3" timestamp="2010-07-09T06:37:00Z" uid="74617" user="JohnSmith" changeset="5171134">
    <nd ref="633426583"/>
    <nd ref="633426585"/>
    <nd ref="370223280"/>
    <tag k="highway" v="residential"/>
    <tag k="maxspeed" v="50"/>
    <tag k="maxspeed:source" v="default residential speed limit in Australia"/>
    <tag k="name" v="Marinoff Street"/>
  </way>
  <way id="49852671" version="2" timestamp="2010-07-09T06:40:30Z" uid="74617" user="JohnSmith" changeset="5171134">
    <nd ref="633426587"/>
    <nd ref="633426588"/>
    <nd ref="633426589"/>
    <nd ref="633426590"/>
    <nd ref="100137145"/>
    <tag k="highway" v="residential"/>
    <tag k="maxspeed" v="50"/>
    <tag k="maxspeed:source" v="default residential speed limit in Australia"/>
    <tag k="name" v="Leven Avenue"/>
  </way>
  <way id="49852671" version="3" timestamp="2010-07-10T13:41:45Z" uid="4467" user="Rosscoe" changeset="5182665">
    <nd ref="633426587"/>
    <nd ref="633426588"/>
    <nd ref="810025790"/>
    <tag k="highway" v="residential"/>
    <tag k="maxspeed" v="50"/>
    <tag k="maxspeed:source" v="default residential speed limit in Australia"/>
    <tag k="name" v="Leven Avenue"/>
  </way>
  <way id="49852672" version="2" timestamp="2010-07-09T06:39:38Z" uid="74617" user="JohnSmith" changeset="5171134">
    <nd ref="633426591"/>
    <nd ref="633426589"/>
    <nd ref="180058551"/>
    <nd ref="180059461"/>
    <tag k="highway" v="residential"/>
    <tag k="maxspeed" v="50"/>
    <tag k="maxspeed:source" v="default residential speed limit in Australia"/>
    <tag k="name" v="Alisa Avenue"/>
  </way>
  <way id="49852672" version="3" timestamp="2010-07-10T13:41:32Z" uid="4467" user="Rosscoe" changeset="5182665">
    <nd ref="633426591"/>
    <nd ref="810026368"/>
    <nd ref="810026543"/>
    <tag k="highway" v="residential"/>
    <tag k="maxspeed" v="50"/>
    <tag k="maxspeed:source" v="default residential speed limit in Australia"/>
    <tag k="name" v="Alisa Avenue"/>
  </way>
  <way id="49852673" version="2" timestamp="2010-07-09T06:40:40Z" uid="74617" user="JohnSmith" changeset="5171134">
    <nd ref="633426591"/>
    <nd ref="633426592"/>
    <tag k="highway" v="residential"/>
    <tag k="maxspeed" v="50"/>
    <tag k="maxspeed:source" v="default residential speed limit in Australia"/>
    <tag k="name" v="Pape Avenue"/>
  </way>
  <way id="49852786" version="2" timestamp="2010-07-09T06:35:55Z" uid="74617" user="JohnSmith" changeset="5171134">
    <nd ref="360351060"/>
    <nd ref="633432056"/>
    <tag k="highway" v="residential"/>
    <tag k="maxspeed" v="50"/>
    <tag k="maxspeed:source" v="default residential speed limit in Australia"/>
    <tag k="name" v="Singleton Avenue"/>
  </way>
</osm>
