<?xml version='1.0' encoding='UTF-8'?>
<osm version="0.6" generator="libosmium/2.20.0">
  <way id="50052119" version="1" timestamp="2010-02-11T06:18:20Z" uid="9719" user="dvaey" changeset="3845717">
    <nd ref="26410006"/>
    <nd ref="635687117"/>
    <nd ref="635687118"/>
    <nd ref="635687119"/>
    <nd ref="635687120"/>
    <nd ref="635687121"/>
    <nd ref="635687122"/>
    <nd ref="635687123"/>
    <nd ref="635687124"/>
    <nd ref="635687125"/>
    <nd ref="635687126"/>
    <nd ref="635687127"/>
    <nd ref="635687128"/>
    <tag k="railway" v="rail"/>
  </way>
  <way id="50052135" version="1" timestamp="2010-02-11T06:19:35Z" uid="9719" user="dvaey" changeset="3845717">
    <nd ref="635687476"/>
    <nd ref="635687477"/>
    <nd ref="635687478"/>
    <nd ref="635687479"/>
    <nd ref="635687480"/>
    <nd ref="635687481"/>
    <nd ref="635687121"/>
    <tag k="railway" v="rail"/>
  </way>
  <way id="50052137" version="2" timestamp="2011-05-20T15:34:07Z" uid="115477" user="wowik" changeset="8198206">
    <nd ref="635687503"/>
    <nd ref="635687519"/>
    <nd ref="635687518"/>
    <nd ref="635687504"/>
    <nd ref="635687503"/>
    <tag k="note" v="Посносили вроде"/>
  </way>
  <way id="50052138" version="2" timestamp="2011-05-20T15:34:10Z" uid="115477" user="wowik" changeset="8198206">
    <nd ref="635687506"/>
    <nd ref="635687505"/>
    <nd ref="635687521"/>
    <nd ref="635687520"/>
    <nd ref="635687506"/>
    <tag k="note" v="Посносили вроде"/>
  </way>
  <way id="50052139" version="2" timestamp="2011-05-20T15:34:08Z" uid="115477" user="wowik" changeset="8198206">
    <nd ref="635687502"/>
    <nd ref="635687483"/>
    <nd ref="635687484"/>
    <nd ref="635687501"/>
    <nd ref="635687502"/>
    <tag k="note" v="Посносили вроде"/>
  </way>
  <way id="50052140" version="2" timestamp="2011-05-20T15:34:08Z" uid="115477" user="wowik" changeset="8198206">
    <nd ref="635687486"/>
    <nd ref="635687488"/>
    <nd ref="635687487"/>
    <nd ref="635687485"/>
    <nd ref="635687486"/>
    <tag k="note" v="Посносили вроде"/>
  </way>
  <way id="50052141" version="2" timestamp="2011-05-20T15:34:11Z" uid="115477" user="wowik" changeset="8198206">
    <nd ref="635687496"/>
    <nd ref="635687494"/>
    <nd ref="635687495"/>
    <nd ref="635687493"/>
    <nd ref="635687496"/>
    <tag k="note" v="Посносили вроде"/>
  </way>
  <way id="50052142" version="2" timestamp="2011-05-20T15:34:09Z" uid="115477" user="wowik" changeset="8198206">
    <nd ref="635687498"/>
    <nd ref="635687500"/>
    <nd ref="635687497"/>
    <nd ref="635687499"/>
    <nd ref="635687498"/>
    <tag k="note" v="Посносили вроде"/>
  </way>
  <way id="50052143" version="2" timestamp="2011-05-20T15:34:07Z" uid="115477" user="wowik" changeset="8198206">
    <nd ref="635687491"/>
    <nd ref="635687489"/>
    <nd ref="635687507"/>
    <nd ref="635687490"/>
    <nd ref="635687491"/>
    <tag k="note" v="Посносили вроде"/>
  </way>
  <way id="50052144" version="2" timestamp="2011-05-20T10:38:15Z" uid="115477" user="wowik" changeset="8197430">
    <nd ref="635687492"/>
    <nd ref="635687509"/>
    <nd ref="635687508"/>
    <nd ref="635687510"/>
    <nd ref="635687492"/>
    <tag k="addr:housenumber" v="288 с20"/>
    <tag k="addr:street" v="Ленинградское шоссе"/>
    <tag k="building" v="yes"/>
  </way>
  <way id="50052145" version="2" timestamp="2011-05-20T15:34:09Z" uid="115477" user="wowik" changeset="8198206">
    <nd ref="635687522"/>
    <nd ref="635687524"/>
    <nd ref="635687523"/>
    <nd ref="635687525"/>
    <nd ref="635687522"/>
    <tag k="note" v="Посносили вроде"/>
  </way>
  <way id="50052146" version="2" timestamp="2011-05-20T15:34:07Z" uid="115477" user="wowik" changeset="8198206">
    <nd ref="635687527"/>
    <nd ref="635687529"/>
    <nd ref="635687526"/>
    <nd ref="635687528"/>
    <nd ref="635687527"/>
    <tag k="note" v="Посносили вроде"/>
  </way>
  <way id="50052147" version="2" timestamp="2011-05-20T15:34:10Z" uid="115477" user="wowik" changeset="8198206">
    <nd ref="635687512"/>
    <nd ref="635687511"/>
    <nd ref="635687513"/>
    <nd ref="635687530"/>
    <nd ref="635687512"/>
    <tag k="note" v="Посносили вроде"/>
  </way>
  <way id="50052148" version="2" timestamp="2011-05-20T15:34:10Z" uid="115477" user="wowik" changeset="8198206">
    <nd ref="635687514"/>
    <nd ref="635687517"/>
    <nd ref="635687515"/>
    <nd ref="635687516"/>
    <nd ref="635687514"/>
    <tag k="note" v="Посносили вроде"/>
  </way>
  <way id="50052149" version="1" timestamp="2010-02-11T06:20:26Z" uid="9719" user="dvaey" changeset="3845717">
    <nd ref="635687532"/>
    <nd ref="635687533"/>
    <nd ref="635687534"/>
    <nd ref="635687535"/>
    <nd ref="635687536"/>
    <nd ref="635687537"/>
    <nd ref="635687538"/>
    <nd ref="635687539"/>
    <tag k="railway" v="rail"/>
  </way>
  <way id="50052159" version="2" timestamp="2010-04-02T17:55:30Z" uid="20587" user="balrog-kun" changeset="4304500">
    <nd ref="53146325"/>
    <nd ref="53082570"/>
    <tag k="highway" v="residential"/>
    <tag k="incline" v="yes"/>
    <tag k="name" v="West Raye Street"/>
    <tag k="oneway" v="yes"/>
    <tag k="tiger:cfcc" v="A41"/>
    <tag k="tiger:county" v="King, WA"/>
    <tag k="tiger:name_base" v="Raye"/>
    <tag k="tiger:name_direction_prefix" v="W"/>
    <tag k="tiger:name_type" v="St"/>
    <tag k="tiger:separated" v="no"/>
    <tag k="tiger:source" v="tiger_import_dch_v0.6_20070830"/>
    <tag k="tiger:tlid" v="186581270:186581276:186581300:186581279:186581185"/>
    <tag k="tiger:zip_left" v="98119"/>
    <tag k="tiger:zip_right" v="98119"/>
  </way>
  <way id="50052162" version="2" timestamp="2010-04-02T17:55:30Z" uid="20587" user="balrog-kun" changeset="4304500">
    <nd ref="53199156"/>
    <nd ref="244285016"/>
    <nd ref="53129930"/>
    <tag k="highway" v="residential"/>
    <tag k="name" v="West Raye Street"/>
    <tag k="tiger:cfcc" v="A41"/>
    <tag k="tiger:county" v="King, WA"/>
    <tag k="tiger:name_base" v="Raye"/>
    <tag k="tiger:name_direction_prefix" v="W"/>
    <tag k="tiger:name_type" v="St"/>
    <tag k="tiger:separated" v="no"/>
    <tag k="tiger:source" v="tiger_import_dch_v0.6_20070830"/>
    <tag k="tiger:tlid" v="186581270:186581276:186581300:186581279:186581185"/>
    <tag k="tiger:zip_left" v="98119"/>
    <tag k="tiger:zip_right" v="98119"/>
  </way>
  <way id="50052164" version="2" timestamp="2010-04-02T17:55:30Z" uid="20587" user="balrog-kun" changeset="4304500">
    <nd ref="53129930"/>
    <nd ref="53082570"/>
    <tag k="highway" v="residential"/>
    <tag k="incline" v="yes"/>
    <tag k="name" v="West Raye Street"/>
    <tag k="oneway" v="yes"/>
    <tag k="tiger:cfcc" v="A41"/>
    <tag k="tiger:county" v="King, WA"/>
    <tag k="tiger:name_base" v="Raye"/>
    <tag k="tiger:name_direction_prefix" v="W"/>
    <tag k="tiger:name_type" v="St"/>
    <tag k="tiger:separated" v="no"/>
    <tag k="tiger:source" v="tiger_import_dch_v0.6_20070830"/>
    <tag k="tiger:tlid" v="186581270:186581276:186581300:186581279:186581185"/>
    <tag k="tiger:zip_left" v="98119"/>
    <tag k="tiger:zip_right" v="98119"/>
  </way>
  <way id="50052168" version="2" timestamp="2010-04-02T17:55:31Z" uid="20587" user="balrog-kun" changeset="4304500">
    <nd ref="53068481"/>
    <nd ref="244285015"/>
    <nd ref="53068484"/>
    <tag k="highway" v="residential"/>
    <tag k="name" v="West Newell Street"/>
    <tag k="tiger:cfcc" v="A41"/>
    <tag k="tiger:county" v="King, WA"/>
    <tag k="tiger:name_base" v="Newell"/>
    <tag k="tiger:name_direction_prefix" v="W"/>
    <tag k="tiger:name_type" v="St"/>
    <tag k="tiger:reviewed" v="no"/>
    <tag k="tiger:separated" v="no"/>
    <tag k="tiger:source" v="tiger_import_dch_v0.6_20070830"/>
    <tag k="tiger:tlid" v="186581268:186581183"/>
    <tag k="tiger:zip_left" v="98119"/>
    <tag k="tiger:zip_right" v="98119"/>
  </way>
  <way id="50052172" version="2" timestamp="2010-04-02T17:55:31Z" uid="20587" user="balrog-kun" changeset="4304500">
    <nd ref="60412828"/>
    <nd ref="53115446"/>
    <nd ref="53227448"/>
    <tag k="highway" v="residential"/>
    <tag k="name" v="Northwest Dock Place"/>
    <tag k="tiger:cfcc" v="A41"/>
    <tag k="tiger:county" v="King, WA"/>
    <tag k="tiger:name_base" v="Dock"/>
    <tag k="tiger:name_direction_prefix" v="NW"/>
    <tag k="tiger:name_type" v="Pl"/>
    <tag k="tiger:reviewed" v="no"/>
    <tag k="tiger:separated" v="no"/>
    <tag k="tiger:source" v="tiger_import_dch_v0.6_20070830"/>
    <tag k="tiger:tlid" v="186659941:186659947:186659951:186659962"/>
    <tag k="tiger:zip_left" v="98107"/>
    <tag k="tiger:zip_right" v="98107"/>
  </way>
  <way id="50052175" version="2" timestamp="2010-04-02T17:55:31Z" uid="20587" user="balrog-kun" changeset="4304500">
    <nd ref="60412830"/>
    <nd ref="53115447"/>
    <tag k="highway" v="residential"/>
    <tag k="name" v="Northwest Ione Place"/>
    <tag k="tiger:cfcc" v="A41"/>
    <tag k="tiger:county" v="King, WA"/>
    <tag k="tiger:name_base" v="Ione"/>
    <tag k="tiger:name_direction_prefix" v="NW"/>
    <tag k="tiger:name_type" v="Pl"/>
    <tag k="tiger:reviewed" v="no"/>
    <tag k="tiger:separated" v="no"/>
    <tag k="tiger:source" v="tiger_import_dch_v0.6_20070830"/>
    <tag k="tiger:tlid" v="186659937:186659943:186659945:186659957"/>
    <tag k="tiger:zip_left" v="98107"/>
    <tag k="tiger:zip_right" v="98107"/>
  </way>
  <way id="50052214" version="1" timestamp="2010-02-11T06:21:53Z" uid="9719" user="dvaey" changeset="3845717">
    <nd ref="635687539"/>
    <nd ref="635688133"/>
    <nd ref="635688134"/>
    <nd ref="635688135"/>
    <nd ref="635688136"/>
    <nd ref="635688137"/>
    <nd ref="635688138"/>
    <nd ref="635688139"/>
    <nd ref="635688140"/>
    <tag k="railway" v="rail"/>
  </way>
  <way id="50052219" version="1" timestamp="2010-02-11T06:22:58Z" uid="9719" user="dvaey" changeset="3845717">
    <nd ref="635688144"/>
    <nd ref="635688145"/>
    <nd ref="635688146"/>
    <nd ref="635688147"/>
    <nd ref="635688148"/>
  </way>
  <way id="50052219" version="2" timestamp="2010-02-11T06:23:35Z" uid="9719" user="dvaey" changeset="3845717">
    <nd ref="635688144"/>
    <nd ref="635688145"/>
    <nd ref="635688146"/>
    <nd ref="635688147"/>
    <nd ref="635688148"/>
    <tag k="railway" v="rail"/>
  </way>
  <way id="50052219" version="3" timestamp="2010-02-11T06:25:42Z" uid="9719" user="dvaey" changeset="3845717">
    <nd ref="635688144"/>
    <nd ref="635688145"/>
    <nd ref="635688146"/>
    <nd ref="635688147"/>
    <nd ref="635688148"/>
    <nd ref="635690693"/>
    <nd ref="635690696"/>
    <nd ref="32843273"/>
    <tag k="railway" v="rail"/>
  </way>
  <way id="50052273" version="2" timestamp="2010-04-28T11:47:36Z" uid="115477" user="wowik" changeset="4548366">
    <nd ref="635688647"/>
    <nd ref="635688739"/>
    <nd ref="635688754"/>
    <nd ref="635688755"/>
    <nd ref="635688759"/>
    <nd ref="635688760"/>
    <nd ref="635688762"/>
    <nd ref="635688756"/>
    <nd ref="635688757"/>
    <nd ref="635688758"/>
    <nd ref="635688674"/>
    <nd ref="635688677"/>
    <nd ref="635688679"/>
    <nd ref="635688681"/>
    <nd ref="635688683"/>
    <nd ref="635688686"/>
    <nd ref="635688688"/>
    <nd ref="635688690"/>
    <nd ref="635688692"/>
    <nd ref="635688694"/>
    <nd ref="635688737"/>
    <nd ref="635688649"/>
    <nd ref="635688652"/>
    <nd ref="635688654"/>
    <nd ref="635688656"/>
    <nd ref="635688659"/>
    <nd ref="635688661"/>
    <nd ref="635688663"/>
    <nd ref="635688665"/>
    <nd ref="635688668"/>
    <nd ref="635688670"/>
    <nd ref="635688672"/>
    <nd ref="635688647"/>
    <tag k="natural" v="water"/>
  </way>
  <way id="50052275" version="1" timestamp="2010-02-11T06:24:57Z" uid="9719" user="dvaey" changeset="3845717">
    <nd ref="635689530"/>
    <nd ref="635689533"/>
    <nd ref="635689535"/>
    <nd ref="635689538"/>
    <nd ref="635689541"/>
    <nd ref="635689543"/>
  </way>
  <way id="50052275" version="2" timestamp="2010-02-11T06:27:39Z" uid="9719" user="dvaey" changeset="3845717">
    <nd ref="635689530"/>
    <nd ref="635689533"/>
    <nd ref="635689535"/>
    <nd ref="635689538"/>
    <nd ref="635689541"/>
    <nd ref="635689543"/>
    <tag k="railway" v="rail"/>
  </way>
  <way id="50052275" version="3" timestamp="2010-02-24T20:19:42Z" uid="30201" user="rrankin" changeset="3966273">
    <nd ref="635689530"/>
    <nd ref="635689533"/>
    <nd ref="635689535"/>
    <nd ref="635689538"/>
    <nd ref="635689541"/>
    <nd ref="635688334"/>
    <tag k="railway" v="rail"/>
  </way>
  <way id="50052802" version="1" timestamp="2010-02-11T06:27:56Z" uid="9719" user="dvaey" changeset="3845717">
    <nd ref="635687539"/>
    <nd ref="635687119"/>
  </way>
  <way id="50052802" version="2" timestamp="2010-02-11T06:30:01Z" uid="9719" user="dvaey" changeset="3845843">
    <nd ref="635687539"/>
    <nd ref="635687119"/>
    <tag k="railway" v="rail"/>
  </way>
  <way id="50052843" version="2" timestamp="2011-05-20T15:21:49Z" uid="115477" user="wowik" changeset="8198206">
    <nd ref="635692150"/>
    <nd ref="635692149"/>
    <nd ref="635692152"/>
    <nd ref="635692151"/>
    <nd ref="635692150"/>
    <tag k="addr:city" v="Москва"/>
    <tag k="addr:country" v="RU"/>
    <tag k="addr:housenumber" v="236 с1"/>
    <tag k="addr:street" v="Ленинградское шоссе"/>
    <tag k="building" v="yes"/>
  </way>
  <way id="50052844" version="2" timestamp="2011-05-20T15:21:49Z" uid="115477" user="wowik" changeset="8198206">
    <nd ref="635692156"/>
    <nd ref="635692153"/>
    <nd ref="635692155"/>
    <nd ref="635692154"/>
    <nd ref="635692156"/>
    <tag k="addr:city" v="Москва"/>
    <tag k="addr:country" v="RU"/>
    <tag k="addr:housenumber" v="236"/>
    <tag k="addr:street" v="Ленинградское шоссе"/>
    <tag k="building" v="yes"/>
  </way>
  <way id="50052845" version="2" timestamp="2011-05-20T15:34:10Z" uid="115477" user="wowik" changeset="8198206">
    <nd ref="635692159"/>
    <nd ref="635692166"/>
    <nd ref="635692157"/>
    <nd ref="635692158"/>
    <nd ref="635692159"/>
    <tag k="addr:city" v="Москва"/>
    <tag k="addr:country" v="RU"/>
    <tag k="addr:housenumber" v="236 с13"/>
    <tag k="addr:street" v="Ленинградское шоссе"/>
    <tag k="building" v="yes"/>
  </way>
  <way id="50052846" version="2" timestamp="2011-05-20T15:34:08Z" uid="115477" user="wowik" changeset="8198206">
    <nd ref="635692167"/>
    <nd ref="635692168"/>
    <nd ref="635692169"/>
    <nd ref="635692160"/>
    <nd ref="635692167"/>
    <tag k="addr:city" v="Москва"/>
    <tag k="addr:country" v="RU"/>
    <tag k="addr:housenumber" v="236 с17"/>
    <tag k="addr:street" v="Ленинградское шоссе"/>
    <tag k="building" v="yes"/>
  </way>
  <way id="50052847" version="2" timestamp="2011-05-20T15:34:06Z" uid="115477" user="wowik" changeset="8198206">
    <nd ref="635692162"/>
    <nd ref="635692170"/>
    <nd ref="635692171"/>
    <nd ref="635692161"/>
    <nd ref="635692162"/>
    <tag k="addr:city" v="Москва"/>
    <tag k="addr:country" v="RU"/>
    <tag k="addr:housenumber" v="236 с3"/>
    <tag k="addr:street" v="Ленинградское шоссе"/>
    <tag k="building" v="yes"/>
  </way>
  <way id="50052848" version="2" timestamp="2011-05-20T15:34:06Z" uid="115477" user="wowik" changeset="8198206">
    <nd ref="635692177"/>
    <nd ref="635692164"/>
    <nd ref="635692178"/>
    <nd ref="635692163"/>
    <nd ref="635692165"/>
    <nd ref="1293313193"/>
    <nd ref="1293313123"/>
    <nd ref="635692176"/>
    <nd ref="1293313162"/>
    <nd ref="1293313172"/>
    <nd ref="1293313144"/>
    <nd ref="1293313086"/>
    <nd ref="635692177"/>
    <tag k="addr:city" v="Москва"/>
    <tag k="addr:country" v="RU"/>
    <tag k="addr:housenumber" v="236 с10"/>
    <tag k="addr:street" v="Ленинградское шоссе"/>
    <tag k="building" v="yes"/>
  </way>
  <way id="50052849" version="2" timestamp="2011-05-20T15:34:09Z" uid="115477" user="wowik" changeset="8198206">
    <nd ref="635692173"/>
    <nd ref="635692175"/>
    <nd ref="1293313211"/>
    <nd ref="1293313074"/>
    <nd ref="1293313202"/>
    <nd ref="1293313192"/>
    <nd ref="635692172"/>
    <nd ref="1293313119"/>
    <nd ref="1293313186"/>
    <nd ref="1293313201"/>
    <nd ref="1293313142"/>
    <nd ref="635692174"/>
    <nd ref="635692173"/>
    <tag k="addr:city" v="Москва"/>
    <tag k="addr:country" v="RU"/>
    <tag k="addr:housenumber" v="236 с14"/>
    <tag k="addr:street" v="Ленинградское шоссе"/>
    <tag k="building" v="yes"/>
  </way>
  <way id="50052900" version="2" timestamp="2010-03-28T11:48:28Z" uid="20587" user="balrog-kun" changeset="4254597">
    <nd ref="123375090"/>
    <nd ref="122781792"/>
    <nd ref="571360920"/>
    <nd ref="122747958"/>
    <nd ref="571363888"/>
    <nd ref="589875101"/>
    <nd ref="589875108"/>
    <nd ref="589875115"/>
    <nd ref="123642615"/>
    <nd ref="123642616"/>
    <nd ref="123327136"/>
    <nd ref="589874708"/>
    <nd ref="589874712"/>
    <nd ref="123642617"/>
    <nd ref="122772865"/>
    <nd ref="123642618"/>
    <nd ref="571360997"/>
    <nd ref="571361256"/>
    <nd ref="123642621"/>
    <nd ref="442394592"/>
    <nd ref="442394590"/>
    <nd ref="442394591"/>
    <nd ref="123191430"/>
    <nd ref="442394594"/>
    <nd ref="442394593"/>
    <nd ref="442394598"/>
    <nd ref="122974212"/>
    <nd ref="442394599"/>
    <nd ref="122974196"/>
    <nd ref="123642623"/>
    <nd ref="123642624"/>
    <nd ref="123609408"/>
    <tag k="cycleway" v="lane"/>
    <tag k="highway" v="tertiary"/>
    <tag k="name" v="Crest Road"/>
    <tag k="tiger:cfcc" v="A41"/>
    <tag k="tiger:county" v="Los Angeles, CA"/>
    <tag k="tiger:name_base" v="Crest"/>
    <tag k="tiger:name_type" v="Rd"/>
    <tag k="tiger:separated" v="no"/>
    <tag k="tiger:source" v="tiger_import_dch_v0.6_20070809"/>
    <tag k="tiger:tlid" v="141585050:141585052:141585054:141585057:141585058:141585063:141585548:141585550:141585551:141585554:141585587:142681068:142681069:141585604:142665889:141585608:141585563:142665890:141585716:141775095:141687572:141687576:142449608"/>
    <tag k="tiger:zip_left" v="90275"/>
    <tag k="tiger:zip_right" v="90275"/>
  </way>
  <way id="50052958" version="2" timestamp="2010-07-06T10:05:24Z" uid="74617" user="JohnSmith" changeset="5147679">
    <nd ref="635693461"/>
    <nd ref="635693462"/>
    <tag k="highway" v="residential"/>
    <tag k="maxspeed" v="50"/>
    <tag k="maxspeed:source" v="default residential speed limit in Australia"/>
    <tag k="name" v="Pacific Close"/>
    <tag k="surface" v="asphalt"/>
  </way>
  <way id="50052959" version="2" timestamp="2010-07-06T10:01:12Z" uid="74617" user="JohnSmith" changeset="5147679">
    <nd ref="635693463"/>
    <nd ref="635693462"/>
    <nd ref="635693464"/>
    <tag k="highway" v="residential"/>
    <tag k="maxspeed" v="50"/>
    <tag k="maxspeed:source" v="default residential speed limit in Australia"/>
    <tag k="name" v="Pacific Close"/>
    <tag k="surface" v="asphalt"/>
  </way>
</osm>
