<?xml version='1.0' encoding='UTF-8'?>
<osm version="0.6" generator="libosmium/2.20.0">
  <way id="50087791" version="2" timestamp="2010-04-07T14:19:47Z" uid="20587" user="balrog-kun" changeset="4353646">
    <nd ref="153408929"/>
    <nd ref="152533618"/>
    <tag k="highway" v="residential"/>
    <tag k="name" v="Addicks Clodine Road"/>
    <tag k="tiger:cfcc" v="A41"/>
    <tag k="tiger:county" v="Harris, TX"/>
    <tag k="tiger:name_base" v="Addicks Clodine"/>
    <tag k="tiger:name_type" v="Rd"/>
    <tag k="tiger:reviewed" v="no"/>
    <tag k="tiger:separated" v="no"/>
    <tag k="tiger:source" v="tiger_import_dch_v0.6_20070830"/>
    <tag k="tiger:tlid" v="96017030:233480045:96154698:96628797"/>
  </way>
  <way id="50087907" version="1" timestamp="2010-02-11T20:17:28Z" uid="110593" user="esetzer" changeset="3851654">
    <nd ref="83628804"/>
    <nd ref="83547453"/>
    <nd ref="83628815"/>
    <nd ref="83628817"/>
    <nd ref="83628818"/>
    <nd ref="83583601"/>
    <nd ref="83586787"/>
    <nd ref="509905038"/>
    <nd ref="83628819"/>
    <nd ref="83628820"/>
    <nd ref="83600867"/>
    <nd ref="83628821"/>
    <nd ref="83628822"/>
    <nd ref="83628824"/>
    <nd ref="83551109"/>
    <nd ref="83548080"/>
    <nd ref="83587106"/>
    <nd ref="83569603"/>
    <tag k="highway" v="tertiary"/>
    <tag k="name" v="South 500 East"/>
    <tag k="name_1" v="S 500  E"/>
    <tag k="name_2" v="S 5th East"/>
    <tag k="tiger:cfcc" v="A41"/>
    <tag k="tiger:county" v="Salt Lake, UT"/>
    <tag k="tiger:name_base" v="500 East"/>
    <tag k="tiger:name_base_1" v="500"/>
    <tag k="tiger:name_base_2" v="5th East"/>
    <tag k="tiger:name_direction_prefix" v="S"/>
    <tag k="tiger:name_direction_prefix_1" v="S"/>
    <tag k="tiger:name_direction_prefix_2" v="S"/>
    <tag k="tiger:name_direction_suffix_1" v="E"/>
    <tag k="tiger:reviewed" v="no"/>
    <tag k="tiger:separated" v="no"/>
    <tag k="tiger:source" v="tiger_import_dch_v0.6_20070830"/>
    <tag k="tiger:tlid" v="176080153:176102730:176079818:176079823:176079829:176079831:176079832:176079834:176112167:176112239:176080148:176102728"/>
    <tag k="tiger:upload_uuid" v="bulk_upload.pl-a2da7ec1-da05-434f-a535-e5cc3da32f27"/>
    <tag k="tiger:zip_left" v="84107"/>
    <tag k="tiger:zip_right" v="84107"/>
  </way>
  <way id="50087907" version="2" timestamp="2010-04-03T13:58:24Z" uid="20587" user="balrog-kun" changeset="4312927">
    <nd ref="83628804"/>
    <nd ref="83547453"/>
    <nd ref="83628815"/>
    <nd ref="83628817"/>
    <nd ref="83628818"/>
    <nd ref="83583601"/>
    <nd ref="83586787"/>
    <nd ref="509905038"/>
    <nd ref="83628819"/>
    <nd ref="83628820"/>
    <nd ref="83600867"/>
    <nd ref="83628821"/>
    <nd ref="83628822"/>
    <nd ref="83628824"/>
    <nd ref="83551109"/>
    <nd ref="83548080"/>
    <nd ref="83587106"/>
    <nd ref="83569603"/>
    <tag k="highway" v="tertiary"/>
    <tag k="name" v="South 500 East"/>
    <tag k="name_1" v="South 500  East"/>
    <tag k="name_2" v="South 5th East"/>
    <tag k="tiger:cfcc" v="A41"/>
    <tag k="tiger:county" v="Salt Lake, UT"/>
    <tag k="tiger:name_base" v="500 East"/>
    <tag k="tiger:name_base_1" v="500"/>
    <tag k="tiger:name_base_2" v="5th East"/>
    <tag k="tiger:name_direction_prefix" v="S"/>
    <tag k="tiger:name_direction_prefix_1" v="S"/>
    <tag k="tiger:name_direction_prefix_2" v="S"/>
    <tag k="tiger:name_direction_suffix_1" v="E"/>
    <tag k="tiger:reviewed" v="no"/>
    <tag k="tiger:separated" v="no"/>
    <tag k="tiger:source" v="tiger_import_dch_v0.6_20070830"/>
    <tag k="tiger:tlid" v="176080153:176102730:176079818:176079823:176079829:176079831:176079832:176079834:176112167:176112239:176080148:176102728"/>
    <tag k="tiger:zip_left" v="84107"/>
    <tag k="tiger:zip_right" v="84107"/>
  </way>
  <way id="50087909" version="1" timestamp="2010-02-11T20:17:39Z" uid="110593" user="esetzer" changeset="3851654">
    <nd ref="636019448"/>
    <nd ref="636019451"/>
    <tag k="bridge" v="yes"/>
    <tag k="highway" v="motorway"/>
    <tag k="layer" v="1"/>
    <tag k="maxspeed" v="65mph"/>
    <tag k="name" v="I-80"/>
    <tag k="oneway" v="yes"/>
    <tag k="ref" v="I 80"/>
  </way>
  <way id="50087910" version="1" timestamp="2010-02-11T20:17:39Z" uid="110593" user="esetzer" changeset="3851654">
    <nd ref="636019451"/>
    <nd ref="369131709"/>
    <nd ref="369131657"/>
    <nd ref="369131723"/>
    <tag k="highway" v="motorway"/>
    <tag k="maxspeed" v="65mph"/>
    <tag k="name" v="I-80"/>
    <tag k="oneway" v="yes"/>
    <tag k="ref" v="I 80"/>
  </way>
  <way id="50087911" version="1" timestamp="2010-02-11T20:17:40Z" uid="110593" user="esetzer" changeset="3851654">
    <nd ref="636019449"/>
    <nd ref="369131736"/>
    <nd ref="636019452"/>
    <tag k="highway" v="motorway"/>
    <tag k="maxspeed" v="65mph"/>
    <tag k="name" v="I-80"/>
    <tag k="oneway" v="yes"/>
    <tag k="ref" v="I 80"/>
  </way>
  <way id="50087913" version="1" timestamp="2010-02-11T20:18:00Z" uid="110593" user="esetzer" changeset="3851655">
    <nd ref="636019450"/>
    <nd ref="636019449"/>
    <tag k="bridge" v="yes"/>
    <tag k="highway" v="motorway"/>
    <tag k="layer" v="1"/>
    <tag k="maxspeed" v="65mph"/>
    <tag k="name" v="I-80"/>
    <tag k="oneway" v="yes"/>
    <tag k="ref" v="I 80"/>
  </way>
  <way id="50087917" version="1" timestamp="2010-02-11T20:18:01Z" uid="110593" user="esetzer" changeset="3851655">
    <nd ref="636019452"/>
    <nd ref="635741646"/>
    <tag k="bridge" v="yes"/>
    <tag k="highway" v="motorway"/>
    <tag k="layer" v="1"/>
    <tag k="maxspeed" v="65mph"/>
    <tag k="name" v="I-80"/>
    <tag k="oneway" v="yes"/>
    <tag k="ref" v="I 80"/>
  </way>
  <way id="50087919" version="1" timestamp="2010-02-11T20:18:02Z" uid="110593" user="esetzer" changeset="3851655">
    <nd ref="635741646"/>
    <nd ref="368166743"/>
    <nd ref="368166745"/>
    <nd ref="368166747"/>
    <nd ref="368166748"/>
    <nd ref="368166750"/>
    <tag k="created_by" v="Merkaartor 0.11"/>
    <tag k="highway" v="motorway"/>
    <tag k="maxspeed" v="65mph"/>
    <tag k="name" v="I-80"/>
    <tag k="oneway" v="yes"/>
    <tag k="ref" v="I 80"/>
  </way>
</osm>
