<?xml version='1.0' encoding='UTF-8'?>
<osm version="0.6" generator="libosmium/2.20.0">
  <way id="5018473" version="3" timestamp="2010-07-07T21:29:38Z" uid="74617" user="JohnSmith" changeset="5161069">
    <nd ref="33435724"/>
    <nd ref="33435728"/>
    <nd ref="33435730"/>
    <tag k="highway" v="residential"/>
    <tag k="maxspeed" v="50"/>
    <tag k="maxspeed:source" v="default residential speed limit in Australia"/>
    <tag k="name" v="Moira Street"/>
    <tag k="source" v="survey"/>
  </way>
  <way id="5018478" version="2" timestamp="2010-07-07T21:27:35Z" uid="74617" user="JohnSmith" changeset="5161069">
    <nd ref="33435734"/>
    <nd ref="33435737"/>
    <nd ref="33435740"/>
    <nd ref="33435743"/>
    <nd ref="33435746"/>
    <tag k="highway" v="residential"/>
    <tag k="maxspeed" v="50"/>
    <tag k="maxspeed:source" v="default residential speed limit in Australia"/>
    <tag k="name" v="Gales Street"/>
    <tag k="source" v="survey"/>
  </way>
  <way id="5018750" version="1" timestamp="2007-09-03T08:29:29Z" uid="7617" user="Franc" changeset="310693">
    <nd ref="17853074"/>
    <nd ref="10283155"/>
    <nd ref="29800845"/>
    <nd ref="29800844"/>
    <nd ref="29376103"/>
    <nd ref="28886077"/>
    <nd ref="26448096"/>
    <nd ref="33390532"/>
    <nd ref="33390512"/>
    <nd ref="33390508"/>
    <nd ref="28782894"/>
    <nd ref="15169817"/>
    <tag k="created_by" v="Potlatch alpha"/>
    <tag k="highway" v="secondary"/>
    <tag k="name" v="Unwins Bridge Road"/>
  </way>
  <way id="5018750" version="2" timestamp="2008-03-13T10:59:26Z" uid="7617" user="Franc" changeset="315656">
    <nd ref="17853074"/>
    <nd ref="10283155"/>
    <nd ref="29800845"/>
    <nd ref="29800844"/>
    <nd ref="29376103"/>
    <nd ref="28886077"/>
    <nd ref="26448096"/>
    <nd ref="33390532"/>
    <nd ref="33390512"/>
    <nd ref="33390508"/>
    <nd ref="28782894"/>
    <nd ref="15169817"/>
    <nd ref="29055579"/>
    <nd ref="29801808"/>
    <nd ref="15169816"/>
    <tag k="created_by" v="Potlatch alpha"/>
    <tag k="highway" v="secondary"/>
    <tag k="name" v="Unwins Bridge Road"/>
  </way>
  <way id="5018750" version="9" timestamp="2011-06-05T06:33:19Z" uid="7617" user="Franc" changeset="8345494">
    <nd ref="17853074"/>
    <nd ref="1245057725"/>
    <nd ref="1245057966"/>
    <nd ref="10283155"/>
    <nd ref="1245058057"/>
    <nd ref="1245058052"/>
    <nd ref="1245057618"/>
    <nd ref="1245057886"/>
    <nd ref="1245093345"/>
    <nd ref="29800845"/>
    <nd ref="29800844"/>
    <nd ref="29376103"/>
    <nd ref="1245057795"/>
    <nd ref="28886077"/>
    <nd ref="1239438795"/>
    <nd ref="26448096"/>
    <nd ref="1239438855"/>
    <nd ref="33390532"/>
    <nd ref="1239439018"/>
    <nd ref="33390512"/>
    <nd ref="33390508"/>
    <nd ref="28782894"/>
    <nd ref="15169817"/>
    <tag k="highway" v="secondary"/>
    <tag k="maxspeed" v="50"/>
    <tag k="name" v="Unwins Bridge Road"/>
  </way>
  <way id="5018935" version="3" timestamp="2010-04-06T22:49:40Z" uid="20587" user="balrog-kun" changeset="4350083">
    <nd ref="33447285"/>
    <nd ref="33447286"/>
    <tag k="created_by" v="Potlatch 0.10f"/>
    <tag k="highway" v="tertiary"/>
    <tag k="name" v="North Grapevine Mills North Boulevard"/>
    <tag k="ref" v="Grapevine Mills N Blvd"/>
  </way>
  <way id="5018941" version="3" timestamp="2010-07-09T03:02:54Z" uid="74617" user="JohnSmith" changeset="5170739">
    <nd ref="33447250"/>
    <nd ref="33447333"/>
    <nd ref="33447308"/>
    <nd ref="33447309"/>
    <tag k="highway" v="residential"/>
    <tag k="maxspeed" v="50"/>
    <tag k="maxspeed:source" v="default residential speed limit in Australia"/>
    <tag k="name" v="Millward Street"/>
  </way>
  <way id="5018952" version="3" timestamp="2010-07-09T02:59:44Z" uid="74617" user="JohnSmith" changeset="5170739">
    <nd ref="33447333"/>
    <nd ref="33447334"/>
    <tag k="highway" v="residential"/>
    <tag k="maxspeed" v="50"/>
    <tag k="maxspeed:source" v="default residential speed limit in Australia"/>
    <tag k="name" v="Mayfield Avenue"/>
  </way>
  <way id="5018953" version="4" timestamp="2010-07-09T03:01:51Z" uid="74617" user="JohnSmith" changeset="5170739">
    <nd ref="33447336"/>
    <nd ref="514244287"/>
    <nd ref="33447339"/>
    <nd ref="514244309"/>
    <nd ref="33447337"/>
    <tag k="highway" v="residential"/>
    <tag k="maxspeed" v="50"/>
    <tag k="maxspeed:source" v="default residential speed limit in Australia"/>
    <tag k="name" v="Coronation Street"/>
  </way>
  <way id="5018954" version="4" timestamp="2010-07-09T02:53:40Z" uid="74617" user="JohnSmith" changeset="5170739">
    <nd ref="33447339"/>
    <nd ref="33447348"/>
    <nd ref="33447347"/>
    <tag k="highway" v="residential"/>
    <tag k="maxspeed" v="50"/>
    <tag k="maxspeed:source" v="default residential speed limit in Australia"/>
    <tag k="name" v="Heller Street"/>
  </way>
  <way id="5018967" version="3" timestamp="2010-05-10T06:25:28Z" uid="4467" user="Rosscoe" changeset="4656177">
    <nd ref="33447390"/>
    <nd ref="33543157"/>
    <nd ref="33543497"/>
    <nd ref="33447403"/>
    <nd ref="33447404"/>
    <nd ref="728176640"/>
    <tag k="highway" v="residential"/>
    <tag k="name" v="Newman Street"/>
  </way>
  <way id="5018967" version="4" timestamp="2010-07-09T02:53:27Z" uid="74617" user="JohnSmith" changeset="5170739">
    <nd ref="33447390"/>
    <nd ref="33543157"/>
    <nd ref="33543497"/>
    <nd ref="33447403"/>
    <nd ref="33447404"/>
    <nd ref="728176640"/>
    <tag k="highway" v="residential"/>
    <tag k="maxspeed" v="50"/>
    <tag k="maxspeed:source" v="default residential speed limit in Australia"/>
    <tag k="name" v="Newman Street"/>
  </way>
  <way id="5018972" version="2" timestamp="2009-08-10T01:21:58Z" uid="4467" user="Rosscoe" changeset="2092252">
    <nd ref="33447437"/>
    <nd ref="33447455"/>
    <nd ref="33447456"/>
    <tag k="highway" v="residential"/>
    <tag k="name" v="Munro Street"/>
  </way>
  <way id="5018972" version="3" timestamp="2010-07-09T02:54:09Z" uid="74617" user="JohnSmith" changeset="5170739">
    <nd ref="33447437"/>
    <nd ref="33447455"/>
    <nd ref="33447456"/>
    <tag k="highway" v="residential"/>
    <tag k="maxspeed" v="50"/>
    <tag k="maxspeed:source" v="default residential speed limit in Australia"/>
    <tag k="name" v="Munro Street"/>
  </way>
</osm>
