<?xml version='1.0' encoding='UTF-8'?>
<osm version="0.6" generator="libosmium/2.20.0">
  <way id="50322033" version="1" timestamp="2010-02-14T22:44:04Z" uid="230283" user="AuFCL" changeset="3879256">
    <nd ref="639299418"/>
    <nd ref="639299427"/>
    <nd ref="639299428"/>
    <nd ref="639299429"/>
    <nd ref="639299423"/>
    <nd ref="639299430"/>
    <nd ref="639299431"/>
    <nd ref="639299432"/>
    <nd ref="639299433"/>
    <nd ref="639299434"/>
    <tag k="highway" v="residential"/>
    <tag k="name" v="Brampton Avenue"/>
  </way>
  <way id="50322033" version="2" timestamp="2010-02-14T22:49:04Z" uid="230283" user="AuFCL" changeset="3879256">
    <nd ref="639299418"/>
    <nd ref="639299427"/>
    <nd ref="639299428"/>
    <nd ref="639299429"/>
    <nd ref="639299423"/>
    <nd ref="639299430"/>
    <nd ref="639299431"/>
    <nd ref="639300541"/>
    <nd ref="639299432"/>
    <nd ref="639299433"/>
    <nd ref="639299434"/>
    <tag k="highway" v="residential"/>
    <tag k="name" v="Brampton Avenue"/>
  </way>
  <way id="50322033" version="3" timestamp="2010-02-19T23:39:20Z" uid="230283" user="AuFCL" changeset="3919562">
    <nd ref="639299418"/>
    <nd ref="639299427"/>
    <nd ref="639299428"/>
    <nd ref="647313906"/>
    <nd ref="639299429"/>
    <nd ref="639299423"/>
    <nd ref="639299430"/>
    <nd ref="639299431"/>
    <nd ref="639300541"/>
    <nd ref="639299432"/>
    <nd ref="639299433"/>
    <nd ref="639299434"/>
    <tag k="highway" v="residential"/>
    <tag k="name" v="Brampton Avenue"/>
  </way>
  <way id="50322033" version="4" timestamp="2010-02-19T23:42:03Z" uid="230283" user="AuFCL" changeset="3919562">
    <nd ref="639299418"/>
    <nd ref="639299427"/>
    <nd ref="639299428"/>
    <nd ref="647313906"/>
    <nd ref="639299429"/>
    <nd ref="639299423"/>
    <nd ref="639299430"/>
    <nd ref="647317715"/>
    <nd ref="639299431"/>
    <nd ref="639300541"/>
    <nd ref="639299432"/>
    <nd ref="639299433"/>
    <nd ref="639299434"/>
    <tag k="highway" v="residential"/>
    <tag k="name" v="Brampton Avenue"/>
  </way>
  <way id="50322033" version="5" timestamp="2010-03-06T12:44:40Z" uid="230283" user="AuFCL" changeset="4049525">
    <nd ref="661064226"/>
    <nd ref="639299418"/>
    <tag k="highway" v="residential"/>
    <tag k="name" v="Brampton Avenue"/>
    <tag k="oneway" v="yes"/>
  </way>
  <way id="50322033" version="6" timestamp="2010-07-07T07:15:58Z" uid="74617" user="JohnSmith" changeset="5156250">
    <nd ref="661064226"/>
    <nd ref="639299418"/>
    <tag k="highway" v="residential"/>
    <tag k="maxspeed" v="50"/>
    <tag k="maxspeed:source" v="default residential speed limit in Australia"/>
    <tag k="name" v="Brampton Avenue"/>
    <tag k="oneway" v="yes"/>
  </way>
  <way id="50322048" version="1" timestamp="2010-02-14T22:44:31Z" uid="230283" user="AuFCL" changeset="3879256">
    <nd ref="639299434"/>
    <nd ref="639299518"/>
    <tag k="highway" v="residential"/>
    <tag k="name" v="Sunnybank Drive"/>
  </way>
  <way id="50322048" version="2" timestamp="2010-02-19T23:52:40Z" uid="230283" user="AuFCL" changeset="3919794">
    <nd ref="639299434"/>
    <nd ref="647321457"/>
    <nd ref="639299518"/>
    <tag k="highway" v="residential"/>
    <tag k="name" v="Sunnybank Drive"/>
  </way>
  <way id="50322048" version="3" timestamp="2010-07-07T07:17:19Z" uid="74617" user="JohnSmith" changeset="5156250">
    <nd ref="639299434"/>
    <nd ref="647321457"/>
    <nd ref="639299518"/>
    <tag k="highway" v="residential"/>
    <tag k="maxspeed" v="50"/>
    <tag k="maxspeed:source" v="default residential speed limit in Australia"/>
    <tag k="name" v="Sunnybank Drive"/>
  </way>
  <way id="50322048" version="4" timestamp="2011-03-10T08:30:02Z" uid="49111" user="Markus B" changeset="7511647">
    <nd ref="639299434"/>
    <nd ref="647321457"/>
    <nd ref="639299518"/>
    <tag k="highway" v="residential"/>
    <tag k="maxspeed" v="50"/>
    <tag k="maxspeed:source" v="default residential speed limit in Australia"/>
    <tag k="name" v="Sunnybank Drive"/>
    <tag k="source" v="bing"/>
  </way>
  <way id="50322067" version="1" timestamp="2010-02-14T22:46:11Z" uid="230283" user="AuFCL" changeset="3879256">
    <nd ref="639299434"/>
    <nd ref="639299798"/>
    <nd ref="639299799"/>
    <nd ref="639299800"/>
    <nd ref="639299801"/>
    <nd ref="639299802"/>
    <nd ref="639299803"/>
    <nd ref="639299804"/>
    <nd ref="639299805"/>
    <nd ref="639299806"/>
    <nd ref="639299807"/>
    <nd ref="639299802"/>
    <tag k="highway" v="residential"/>
    <tag k="name" v="Waterview Circuit"/>
  </way>
  <way id="50322067" version="2" timestamp="2010-04-15T23:09:50Z" uid="244897" user="M526244" changeset="4435145">
    <nd ref="639299434"/>
    <nd ref="639299798"/>
    <nd ref="639299799"/>
    <nd ref="639299800"/>
    <nd ref="639299801"/>
    <nd ref="639299802"/>
    <nd ref="639299803"/>
    <nd ref="639299804"/>
    <nd ref="639299805"/>
    <nd ref="639299806"/>
    <nd ref="639299807"/>
    <nd ref="639299802"/>
    <tag k="highway" v="residential"/>
    <tag k="name" v="Waterview Circuit"/>
    <tag k="source" v="survey"/>
  </way>
  <way id="50322067" version="3" timestamp="2010-07-07T07:17:11Z" uid="74617" user="JohnSmith" changeset="5156250">
    <nd ref="639299434"/>
    <nd ref="639299798"/>
    <nd ref="639299799"/>
    <nd ref="639299800"/>
    <nd ref="639299801"/>
    <nd ref="639299802"/>
    <nd ref="639299803"/>
    <nd ref="639299804"/>
    <nd ref="639299805"/>
    <nd ref="639299806"/>
    <nd ref="639299807"/>
    <nd ref="639299802"/>
    <tag k="highway" v="residential"/>
    <tag k="maxspeed" v="50"/>
    <tag k="maxspeed:source" v="default residential speed limit in Australia"/>
    <tag k="name" v="Waterview Circuit"/>
    <tag k="source" v="survey"/>
  </way>
  <way id="50322107" version="1" timestamp="2010-02-14T22:47:25Z" uid="230283" user="AuFCL" changeset="3879256">
    <nd ref="639299984"/>
    <nd ref="639299985"/>
    <nd ref="639299986"/>
    <tag k="FIXME" v="incomplete"/>
    <tag k="highway" v="residential"/>
    <tag k="name" v="Linderman Street"/>
  </way>
  <way id="50322107" version="2" timestamp="2010-02-19T23:53:57Z" uid="230283" user="AuFCL" changeset="3919794">
    <nd ref="647321999"/>
    <nd ref="647322001"/>
    <nd ref="647322002"/>
    <nd ref="639299984"/>
    <nd ref="639299985"/>
    <nd ref="639299986"/>
    <tag k="FIXME" v="incomplete"/>
    <tag k="highway" v="residential"/>
    <tag k="name" v="Linderman Street"/>
  </way>
  <way id="50322107" version="3" timestamp="2010-03-04T01:29:39Z" uid="230283" user="AuFCL" changeset="4029788">
    <nd ref="647321999"/>
    <nd ref="647322001"/>
    <nd ref="647322002"/>
    <nd ref="639299984"/>
    <nd ref="639299985"/>
    <nd ref="639299986"/>
    <nd ref="660020157"/>
    <nd ref="660020158"/>
    <nd ref="660020159"/>
    <nd ref="660020154"/>
    <tag k="highway" v="residential"/>
    <tag k="name" v="Linderman Street"/>
  </way>
  <way id="50322107" version="4" timestamp="2010-06-10T21:56:59Z" uid="244897" user="M526244" changeset="4958625">
    <nd ref="647321999"/>
    <nd ref="647322001"/>
    <nd ref="647322002"/>
    <nd ref="639299984"/>
    <nd ref="639299985"/>
    <nd ref="639299986"/>
    <nd ref="660020157"/>
    <nd ref="660020158"/>
    <nd ref="660020159"/>
    <nd ref="768916488"/>
    <tag k="highway" v="residential"/>
    <tag k="name" v="Linderman Street"/>
  </way>
  <way id="50322107" version="5" timestamp="2010-07-07T07:19:31Z" uid="74617" user="JohnSmith" changeset="5156250">
    <nd ref="647321999"/>
    <nd ref="647322001"/>
    <nd ref="647322002"/>
    <nd ref="639299984"/>
    <nd ref="639299985"/>
    <nd ref="639299986"/>
    <nd ref="660020157"/>
    <nd ref="660020158"/>
    <nd ref="660020159"/>
    <nd ref="768916488"/>
    <tag k="highway" v="residential"/>
    <tag k="maxspeed" v="50"/>
    <tag k="maxspeed:source" v="default residential speed limit in Australia"/>
    <tag k="name" v="Linderman Street"/>
  </way>
  <way id="50322125" version="1" timestamp="2010-02-14T22:48:05Z" uid="230283" user="AuFCL" changeset="3879256">
    <nd ref="631973809"/>
    <nd ref="639299984"/>
    <tag k="FIXME" v="incomplete"/>
    <tag k="highway" v="residential"/>
    <tag k="name" v="Oakland Avenue"/>
  </way>
  <way id="50322125" version="2" timestamp="2010-02-20T00:01:04Z" uid="230283" user="AuFCL" changeset="3919794">
    <nd ref="631973809"/>
    <nd ref="639299984"/>
    <tag k="FIXME" v="incomplete"/>
    <tag k="highway" v="residential"/>
    <tag k="name" v="Daydream Avenue"/>
  </way>
  <way id="50322125" version="3" timestamp="2010-03-04T01:29:39Z" uid="230283" user="AuFCL" changeset="4029788">
    <nd ref="631973809"/>
    <nd ref="639299984"/>
    <nd ref="660020155"/>
    <nd ref="660020156"/>
    <tag k="highway" v="residential"/>
    <tag k="name" v="Daydream Avenue"/>
  </way>
  <way id="50322125" version="4" timestamp="2010-04-15T23:09:54Z" uid="244897" user="M526244" changeset="4435145">
    <nd ref="631973809"/>
    <nd ref="639299984"/>
    <nd ref="660020155"/>
    <nd ref="660020156"/>
    <tag k="highway" v="residential"/>
    <tag k="name" v="Daydream Avenue"/>
    <tag k="source" v="survey"/>
  </way>
  <way id="50322125" version="5" timestamp="2010-07-07T07:16:15Z" uid="74617" user="JohnSmith" changeset="5156250">
    <nd ref="631973809"/>
    <nd ref="639299984"/>
    <nd ref="660020155"/>
    <nd ref="660020156"/>
    <tag k="highway" v="residential"/>
    <tag k="maxspeed" v="50"/>
    <tag k="maxspeed:source" v="default residential speed limit in Australia"/>
    <tag k="name" v="Daydream Avenue"/>
    <tag k="source" v="survey"/>
  </way>
  <way id="50322161" version="1" timestamp="2010-02-14T22:49:05Z" uid="230283" user="AuFCL" changeset="3879256">
    <nd ref="639299986"/>
    <nd ref="639300542"/>
    <nd ref="639300543"/>
    <nd ref="639300544"/>
    <nd ref="639300545"/>
    <nd ref="639300546"/>
    <nd ref="639300547"/>
    <nd ref="639300548"/>
    <nd ref="639300549"/>
    <nd ref="639300550"/>
    <nd ref="639300541"/>
    <tag k="highway" v="residential"/>
    <tag k="name" v="Hayman Street"/>
  </way>
  <way id="50322161" version="2" timestamp="2010-04-15T23:09:51Z" uid="244897" user="M526244" changeset="4435145">
    <nd ref="639299986"/>
    <nd ref="639300542"/>
    <nd ref="639300543"/>
    <nd ref="639300544"/>
    <nd ref="639300545"/>
    <nd ref="639300546"/>
    <nd ref="639300547"/>
    <nd ref="639300548"/>
    <nd ref="639300549"/>
    <nd ref="639300550"/>
    <nd ref="639300541"/>
    <tag k="highway" v="residential"/>
    <tag k="name" v="Hayman Street"/>
    <tag k="source" v="survey"/>
  </way>
  <way id="50322161" version="3" timestamp="2010-07-07T07:20:34Z" uid="74617" user="JohnSmith" changeset="5156250">
    <nd ref="639299986"/>
    <nd ref="639300542"/>
    <nd ref="639300543"/>
    <nd ref="639300544"/>
    <nd ref="639300545"/>
    <nd ref="639300546"/>
    <nd ref="639300547"/>
    <nd ref="639300548"/>
    <nd ref="639300549"/>
    <nd ref="639300550"/>
    <nd ref="639300541"/>
    <tag k="highway" v="residential"/>
    <tag k="maxspeed" v="50"/>
    <tag k="maxspeed:source" v="default residential speed limit in Australia"/>
    <tag k="name" v="Hayman Street"/>
    <tag k="source" v="survey"/>
  </way>
  <way id="50322401" version="2" timestamp="2010-04-04T01:53:56Z" uid="20587" user="balrog-kun" changeset="4318136">
    <nd ref="429994820"/>
    <nd ref="639302283"/>
    <nd ref="639302284"/>
    <nd ref="639302285"/>
    <nd ref="519537393"/>
    <nd ref="55735567"/>
    <nd ref="519537392"/>
    <nd ref="55735568"/>
    <nd ref="55696972"/>
    <nd ref="55735569"/>
    <nd ref="55735571"/>
    <nd ref="469069682"/>
    <nd ref="469069566"/>
    <nd ref="419315395"/>
    <nd ref="55735583"/>
    <nd ref="55735584"/>
    <nd ref="55735586"/>
    <nd ref="621089161"/>
    <nd ref="55735587"/>
    <nd ref="555828969"/>
    <nd ref="55735590"/>
    <nd ref="423623601"/>
    <nd ref="423623602"/>
    <nd ref="55734643"/>
    <nd ref="55735592"/>
    <tag k="highway" v="secondary"/>
    <tag k="name" v="Rangewood Drive"/>
    <tag k="tiger:cfcc" v="A41"/>
    <tag k="tiger:county" v="El Paso, CO"/>
    <tag k="tiger:name_base" v="Rangewood"/>
    <tag k="tiger:name_type" v="Dr"/>
    <tag k="tiger:reviewed" v="no"/>
    <tag k="tiger:separated" v="no"/>
    <tag k="tiger:source" v="tiger_import_dch_v0.6_20070809"/>
    <tag k="tiger:tlid" v="105530137:105562498:105562499:105511389:105511478:105510413:105530952:105511322:105562298:105562299:105545321:105530671:105571317:105511319:105561153:105530944:105562530:105547046"/>
  </way>
  <way id="50322403" version="3" timestamp="2010-04-04T01:53:57Z" uid="20587" user="balrog-kun" changeset="4318136">
    <nd ref="639302292"/>
    <nd ref="570586109"/>
    <nd ref="429994820"/>
    <tag k="bridge" v="yes"/>
    <tag k="highway" v="secondary"/>
    <tag k="layer" v="1"/>
    <tag k="name" v="Rangewood Drive"/>
    <tag k="tiger:separated" v="no"/>
    <tag k="tiger:source" v="tiger_import_dch_v0.6_20070809"/>
    <tag k="tiger:tlid" v="105530137:105562498:105562499:105511389:105511478:105510413:105530952:105511322:105562298:105562299:105545321:105530671:105571317:105511319:105561153:105530944:105562530:105547046"/>
  </way>
  <way id="50322587" version="1" timestamp="2010-02-14T22:57:29Z" uid="230283" user="AuFCL" changeset="3879256">
    <nd ref="639303687"/>
    <nd ref="639303688"/>
    <nd ref="639303689"/>
    <nd ref="639303690"/>
    <nd ref="639303691"/>
    <nd ref="639303692"/>
    <nd ref="639303693"/>
    <tag k="highway" v="residential"/>
    <tag k="name" v="Norlyn Avenue"/>
  </way>
  <way id="50322587" version="2" timestamp="2010-03-06T12:44:37Z" uid="230283" user="AuFCL" changeset="4049525">
    <nd ref="639303688"/>
    <nd ref="639303687"/>
    <tag k="highway" v="residential"/>
    <tag k="name" v="Norlyn Avenue"/>
    <tag k="oneway" v="yes"/>
  </way>
  <way id="50322587" version="3" timestamp="2010-07-07T07:17:35Z" uid="74617" user="JohnSmith" changeset="5156250">
    <nd ref="639303688"/>
    <nd ref="639303687"/>
    <tag k="highway" v="residential"/>
    <tag k="maxspeed" v="50"/>
    <tag k="maxspeed:source" v="default residential speed limit in Australia"/>
    <tag k="name" v="Norlyn Avenue"/>
    <tag k="oneway" v="yes"/>
  </way>
  <way id="50322588" version="1" timestamp="2010-02-14T22:57:29Z" uid="230283" user="AuFCL" changeset="3879256">
    <nd ref="639303690"/>
    <nd ref="639303686"/>
    <tag k="highway" v="service"/>
    <tag k="leisure" v="slipway"/>
  </way>
  <way id="50322588" version="2" timestamp="2010-08-21T01:05:29Z" uid="244897" user="M526244" changeset="5548585">
    <nd ref="639303690"/>
    <nd ref="639303686"/>
    <tag k="highway" v="service"/>
  </way>
  <way id="50322780" version="1" timestamp="2010-02-14T23:08:23Z" uid="230283" user="AuFCL" changeset="3879256">
    <nd ref="639303693"/>
    <nd ref="639304972"/>
    <tag k="highway" v="residential"/>
    <tag k="name" v="Latta Avenue"/>
  </way>
  <way id="50322780" version="2" timestamp="2010-07-07T07:16:45Z" uid="74617" user="JohnSmith" changeset="5156250">
    <nd ref="639303693"/>
    <nd ref="639304972"/>
    <tag k="highway" v="residential"/>
    <tag k="maxspeed" v="50"/>
    <tag k="maxspeed:source" v="default residential speed limit in Australia"/>
    <tag k="name" v="Latta Avenue"/>
  </way>
  <way id="50322825" version="1" timestamp="2010-02-14T23:09:01Z" uid="230283" user="AuFCL" changeset="3879256">
    <nd ref="639304972"/>
    <nd ref="639305191"/>
    <tag k="FIXME" v="incomplete"/>
    <tag k="highway" v="residential"/>
    <tag k="name" v="Henry Philp Avenue"/>
  </way>
  <way id="50322825" version="2" timestamp="2010-02-15T23:09:53Z" uid="230283" user="AuFCL" changeset="3887952">
    <nd ref="639304972"/>
    <nd ref="639305191"/>
    <nd ref="640550855"/>
    <nd ref="640552673"/>
    <tag k="FIXME" v="incomplete"/>
    <tag k="highway" v="residential"/>
    <tag k="name" v="Henry Philp Avenue"/>
  </way>
  <way id="50322825" version="3" timestamp="2010-05-21T10:25:12Z" uid="244897" user="M526244" changeset="4764440">
    <nd ref="639304972"/>
    <nd ref="639305191"/>
    <nd ref="640550855"/>
    <nd ref="640552673"/>
    <tag k="highway" v="residential"/>
    <tag k="name" v="Henry Philp Avenue"/>
  </way>
  <way id="50322825" version="4" timestamp="2010-07-07T07:15:44Z" uid="74617" user="JohnSmith" changeset="5156250">
    <nd ref="639304972"/>
    <nd ref="639305191"/>
    <nd ref="640550855"/>
    <nd ref="640552673"/>
    <tag k="highway" v="residential"/>
    <tag k="maxspeed" v="50"/>
    <tag k="maxspeed:source" v="default residential speed limit in Australia"/>
    <tag k="name" v="Henry Philp Avenue"/>
  </way>
  <way id="50322878" version="1" timestamp="2010-02-14T23:11:44Z" uid="230283" user="AuFCL" changeset="3879256">
    <nd ref="639305191"/>
    <nd ref="639305617"/>
    <nd ref="639305617"/>
    <tag k="highway" v="residential"/>
    <tag k="name" v="Bolding Street"/>
  </way>
  <way id="50322878" version="3" timestamp="2010-07-07T07:15:52Z" uid="74617" user="JohnSmith" changeset="5156250">
    <nd ref="639305191"/>
    <nd ref="639305617"/>
    <tag k="highway" v="residential"/>
    <tag k="maxspeed" v="50"/>
    <tag k="maxspeed:source" v="default residential speed limit in Australia"/>
    <tag k="name" v="Bolding Street"/>
  </way>
  <way id="50322879" version="1" timestamp="2010-02-14T23:11:44Z" uid="230283" user="AuFCL" changeset="3879256">
    <nd ref="600387760"/>
    <nd ref="639305617"/>
    <nd ref="600387763"/>
    <tag k="FIXME" v="incomplete"/>
    <tag k="highway" v="residential"/>
    <tag k="name" v="Brunswick Street"/>
    <tag k="source" v="survey"/>
  </way>
  <way id="50322879" version="2" timestamp="2010-02-14T23:15:31Z" uid="230283" user="AuFCL" changeset="3879256">
    <nd ref="600387760"/>
    <nd ref="639305617"/>
    <nd ref="639306077"/>
    <nd ref="600387763"/>
    <tag k="FIXME" v="incomplete"/>
    <tag k="highway" v="residential"/>
    <tag k="name" v="Brunswick Street"/>
    <tag k="source" v="survey"/>
  </way>
  <way id="50322879" version="3" timestamp="2010-02-15T00:03:47Z" uid="230283" user="AuFCL" changeset="3879256">
    <nd ref="600387760"/>
    <nd ref="639305617"/>
    <nd ref="639306077"/>
    <nd ref="600387763"/>
    <nd ref="639316082"/>
    <nd ref="639316087"/>
    <tag k="FIXME" v="incomplete"/>
    <tag k="highway" v="residential"/>
    <tag k="name" v="Brunswick Street"/>
    <tag k="source" v="survey"/>
  </way>
  <way id="50322879" version="4" timestamp="2010-02-15T23:09:53Z" uid="230283" user="AuFCL" changeset="3887952">
    <nd ref="600387760"/>
    <nd ref="639305617"/>
    <nd ref="639306077"/>
    <nd ref="600387763"/>
    <nd ref="639316082"/>
    <nd ref="640552672"/>
    <nd ref="639316087"/>
    <tag k="FIXME" v="incomplete"/>
    <tag k="highway" v="residential"/>
    <tag k="name" v="Brunswick Street"/>
    <tag k="source" v="survey"/>
  </way>
  <way id="50322879" version="5" timestamp="2010-02-25T02:05:38Z" uid="230283" user="AuFCL" changeset="3968473">
    <nd ref="600387760"/>
    <nd ref="639305617"/>
    <nd ref="639306077"/>
    <nd ref="600387763"/>
    <nd ref="653014615"/>
    <nd ref="639316082"/>
    <nd ref="640552672"/>
    <nd ref="639316087"/>
    <tag k="FIXME" v="incomplete"/>
    <tag k="highway" v="residential"/>
    <tag k="name" v="Brunswick Street"/>
    <tag k="source" v="survey"/>
  </way>
  <way id="50322879" version="6" timestamp="2010-05-21T10:25:10Z" uid="244897" user="M526244" changeset="4764440">
    <nd ref="600387760"/>
    <nd ref="639305617"/>
    <nd ref="639306077"/>
    <nd ref="600387763"/>
    <nd ref="653014615"/>
    <nd ref="639316082"/>
    <nd ref="640552672"/>
    <nd ref="639316087"/>
    <tag k="highway" v="residential"/>
    <tag k="name" v="Brunswick Street"/>
    <tag k="source" v="survey"/>
  </way>
  <way id="50322879" version="7" timestamp="2010-07-07T07:19:44Z" uid="74617" user="JohnSmith" changeset="5156250">
    <nd ref="600387760"/>
    <nd ref="639305617"/>
    <nd ref="639306077"/>
    <nd ref="600387763"/>
    <nd ref="653014615"/>
    <nd ref="639316082"/>
    <nd ref="640552672"/>
    <nd ref="639316087"/>
    <tag k="highway" v="residential"/>
    <tag k="maxspeed" v="50"/>
    <tag k="maxspeed:source" v="default residential speed limit in Australia"/>
    <tag k="name" v="Brunswick Street"/>
    <tag k="source" v="survey"/>
  </way>
  <way id="50322880" version="1" timestamp="2010-02-14T23:11:45Z" uid="230283" user="AuFCL" changeset="3879256">
    <nd ref="600387761"/>
    <nd ref="600387760"/>
    <tag k="highway" v="residential"/>
    <tag k="name" v="Richmond Avenue"/>
    <tag k="source" v="survey"/>
  </way>
  <way id="50322880" version="2" timestamp="2010-07-07T07:20:42Z" uid="74617" user="JohnSmith" changeset="5156250">
    <nd ref="600387761"/>
    <nd ref="600387760"/>
    <tag k="highway" v="residential"/>
    <tag k="maxspeed" v="50"/>
    <tag k="maxspeed:source" v="default residential speed limit in Australia"/>
    <tag k="name" v="Richmond Avenue"/>
    <tag k="source" v="survey"/>
  </way>
  <way id="50322926" version="3" timestamp="2010-07-08T20:01:49Z" uid="9581" user="Lobelt" changeset="5169001"/>
  <way id="50322933" version="1" timestamp="2010-02-14T23:15:32Z" uid="230283" user="AuFCL" changeset="3879256">
    <nd ref="639306077"/>
    <nd ref="639306078"/>
  </way>
  <way id="50322933" version="2" timestamp="2010-02-14T23:16:44Z" uid="230283" user="AuFCL" changeset="3879256">
    <nd ref="639306077"/>
    <nd ref="639306078"/>
    <tag k="highway" v="residential"/>
    <tag k="name" v="Greenhalgh Street"/>
  </way>
  <way id="50322933" version="3" timestamp="2010-07-07T07:20:51Z" uid="74617" user="JohnSmith" changeset="5156250">
    <nd ref="639306077"/>
    <nd ref="639306078"/>
    <tag k="highway" v="residential"/>
    <tag k="maxspeed" v="50"/>
    <tag k="maxspeed:source" v="default residential speed limit in Australia"/>
    <tag k="name" v="Greenhalgh Street"/>
  </way>
  <way id="50322934" version="1" timestamp="2010-02-14T23:15:32Z" uid="230283" user="AuFCL" changeset="3879256">
    <nd ref="639306079"/>
    <nd ref="639306080"/>
  </way>
  <way id="50322934" version="2" timestamp="2010-02-14T23:15:43Z" uid="230283" user="AuFCL" changeset="3879256">
    <nd ref="25989441"/>
    <nd ref="639306079"/>
    <nd ref="639306080"/>
    <tag k="highway" v="residential"/>
    <tag k="name" v="Kerr Street"/>
  </way>
  <way id="50322934" version="3" timestamp="2010-03-08T00:03:57Z" uid="230283" user="AuFCL" changeset="4067906">
    <nd ref="25989441"/>
    <nd ref="662690493"/>
    <nd ref="662690473"/>
    <nd ref="639306079"/>
    <nd ref="639306080"/>
    <tag k="highway" v="residential"/>
    <tag k="name" v="Kerr Street"/>
  </way>
  <way id="50322934" version="4" timestamp="2010-03-29T13:05:14Z" uid="74617" user="JohnSmith" changeset="4267192">
    <nd ref="25989441"/>
    <nd ref="662690473"/>
  </way>
  <way id="50322934" version="5" timestamp="2010-04-28T03:04:38Z" uid="244897" user="M526244" changeset="4546200">
    <nd ref="25989441"/>
    <nd ref="662690473"/>
    <tag k="highway" v="residential"/>
    <tag k="source" v="survey"/>
  </way>
  <way id="50322934" version="6" timestamp="2010-06-29T12:30:17Z" uid="244897" user="M526244" changeset="5105582">
    <nd ref="25989441"/>
    <nd ref="662690473"/>
    <tag k="highway" v="residential"/>
    <tag k="name" v="Kerr Street"/>
    <tag k="source" v="survey"/>
  </way>
  <way id="50322934" version="7" timestamp="2010-07-07T07:19:35Z" uid="74617" user="JohnSmith" changeset="5156250">
    <nd ref="25989441"/>
    <nd ref="662690473"/>
    <tag k="highway" v="residential"/>
    <tag k="maxspeed" v="50"/>
    <tag k="maxspeed:source" v="default residential speed limit in Australia"/>
    <tag k="name" v="Kerr Street"/>
    <tag k="source" v="survey"/>
  </way>
  <way id="50322934" version="8" timestamp="2010-07-09T22:10:30Z" uid="244897" user="M526244" changeset="5177584">
    <nd ref="25989441"/>
    <nd ref="662690473"/>
    <tag k="highway" v="residential"/>
    <tag k="maxspeed" v="60km/h"/>
    <tag k="name" v="Kerr Street"/>
    <tag k="source" v="survey"/>
  </way>
  <way id="50322934" version="9" timestamp="2010-08-17T04:47:33Z" uid="4467" user="Rosscoe" changeset="5514446">
    <nd ref="25989441"/>
    <nd ref="662690473"/>
    <tag k="highway" v="residential"/>
    <tag k="maxspeed" v="60"/>
    <tag k="name" v="Kerr Street"/>
    <tag k="source" v="survey"/>
  </way>
  <way id="50322934" version="10" timestamp="2010-08-17T05:12:37Z" uid="4467" user="Rosscoe" changeset="5514517"/>
  <way id="50322935" version="1" timestamp="2010-02-14T23:15:32Z" uid="230283" user="AuFCL" changeset="3879256">
    <nd ref="639306078"/>
    <nd ref="639306081"/>
    <nd ref="639306079"/>
    <tag k="highway" v="residential"/>
    <tag k="name" v="Camoola Avenue"/>
  </way>
  <way id="50322935" version="2" timestamp="2010-07-07T07:18:34Z" uid="74617" user="JohnSmith" changeset="5156250">
    <nd ref="639306078"/>
    <nd ref="639306081"/>
    <nd ref="639306079"/>
    <tag k="highway" v="residential"/>
    <tag k="maxspeed" v="50"/>
    <tag k="maxspeed:source" v="default residential speed limit in Australia"/>
    <tag k="name" v="Camoola Avenue"/>
  </way>
  <way id="50322936" version="1" timestamp="2010-02-14T23:15:32Z" uid="230283" user="AuFCL" changeset="3879256">
    <nd ref="639306079"/>
    <nd ref="25989441"/>
    <tag k="highway" v="residential"/>
    <tag k="name" v="Kerr Street"/>
  </way>
  <way id="50322936" version="2" timestamp="2010-02-14T23:15:44Z" uid="230283" user="AuFCL" changeset="3879256"/>
</osm>
