<?xml version='1.0' encoding='UTF-8'?>
<osm version="0.6" generator="libosmium/2.20.0">
  <way id="5051027" version="1" timestamp="2007-09-29T02:04:24Z" uid="7617" user="Franc" changeset="533424">
    <nd ref="32669762"/>
    <nd ref="32669763"/>
    <nd ref="32669766"/>
    <nd ref="32669768"/>
    <tag k="abutters" v="industrial"/>
    <tag k="created_by" v="JOSM"/>
    <tag k="highway" v="unclassified"/>
    <tag k="is_in" v="Australia, NSW, New South Wales, Thornleigh"/>
    <tag k="name" v="Chilvers Road"/>
  </way>
  <way id="5051027" version="4" timestamp="2010-01-19T02:04:36Z" uid="30201" user="rrankin" changeset="3655734">
    <nd ref="32669762"/>
    <nd ref="32669763"/>
    <tag k="highway" v="residential"/>
    <tag k="is_in" v="Australia, NSW, New South Wales, Thornleigh"/>
    <tag k="name" v="Chilvers Road"/>
    <tag k="oneway" v="yes"/>
  </way>
  <way id="5051027" version="5" timestamp="2010-07-08T00:01:49Z" uid="74617" user="JohnSmith" changeset="5162525">
    <nd ref="32669762"/>
    <nd ref="32669763"/>
    <tag k="highway" v="residential"/>
    <tag k="maxspeed" v="50"/>
    <tag k="maxspeed:source" v="default residential speed limit in Australia"/>
    <tag k="name" v="Chilvers Road"/>
    <tag k="oneway" v="yes"/>
  </way>
  <way id="5051027" version="6" timestamp="2010-07-08T00:12:00Z" uid="74617" user="JohnSmith" changeset="5162525">
    <nd ref="32669762"/>
    <nd ref="32669763"/>
    <tag k="highway" v="residential"/>
    <tag k="maxspeed" v="50"/>
    <tag k="maxspeed:source" v="default residential speed limit in Australia"/>
    <tag k="name" v="Chilvers Road"/>
    <tag k="oneway" v="yes"/>
  </way>
  <way id="5051027" version="7" timestamp="2010-07-14T10:58:44Z" uid="61114" user="Trav" changeset="5215908">
    <nd ref="32669762"/>
    <nd ref="817067275"/>
    <nd ref="817067274"/>
    <nd ref="32669763"/>
    <tag k="highway" v="residential"/>
    <tag k="maxspeed" v="50"/>
    <tag k="maxspeed:source" v="default residential speed limit in Australia"/>
    <tag k="name" v="Chilvers Road"/>
    <tag k="oneway" v="yes"/>
  </way>
  <way id="5051117" version="1" timestamp="2007-08-10T10:44:51Z" uid="6975" user="ulfl" changeset="201068">
    <nd ref="33125225"/>
    <nd ref="20946771"/>
    <nd ref="31344659"/>
    <nd ref="31344660"/>
    <nd ref="33343732"/>
    <nd ref="33343898"/>
    <nd ref="33343735"/>
    <tag k="created_by" v="JOSM"/>
    <tag k="highway" v="secondary"/>
    <tag k="name" v="Hafenstraße"/>
    <tag k="oneway" v="true"/>
  </way>
  <way id="5051118" version="1" timestamp="2007-08-10T10:45:40Z" uid="6975" user="ulfl" changeset="201068">
    <nd ref="33343735"/>
    <nd ref="33343737"/>
    <tag k="bridge" v="yes"/>
    <tag k="created_by" v="JOSM"/>
    <tag k="highway" v="secondary"/>
    <tag k="layer" v="1"/>
    <tag k="name" v="Hafenstraße"/>
    <tag k="oneway" v="true"/>
  </way>
  <way id="5051120" version="2" timestamp="2010-07-07T09:38:34Z" uid="74617" user="JohnSmith" changeset="5156250">
    <nd ref="32555728"/>
    <nd ref="32561427"/>
    <tag k="highway" v="residential"/>
    <tag k="maxspeed" v="50"/>
    <tag k="maxspeed:source" v="default residential speed limit in Australia"/>
    <tag k="name" v="Arthur Street"/>
  </way>
  <way id="5051141" version="2" timestamp="2010-07-07T09:37:59Z" uid="74617" user="JohnSmith" changeset="5156250">
    <nd ref="33954490"/>
    <nd ref="33954492"/>
    <nd ref="33954554"/>
    <nd ref="33954588"/>
    <nd ref="33954599"/>
    <nd ref="33954629"/>
    <nd ref="33954632"/>
    <nd ref="33954640"/>
    <nd ref="33954659"/>
    <nd ref="33954666"/>
    <nd ref="33954670"/>
    <nd ref="33954677"/>
    <nd ref="33954688"/>
    <nd ref="33954693"/>
    <nd ref="33954696"/>
    <tag k="highway" v="residential"/>
    <tag k="maxspeed" v="50"/>
    <tag k="maxspeed:source" v="default residential speed limit in Australia"/>
    <tag k="name" v="Blackall Avenue"/>
  </way>
  <way id="5051373" version="2" timestamp="2008-05-14T16:18:28Z" uid="36809" user="pfoten_weg_!_" changeset="444723">
    <nd ref="32573241"/>
    <nd ref="32573074"/>
    <nd ref="33963635"/>
    <nd ref="33963636"/>
    <nd ref="33957073"/>
    <tag k="created_by" v="Potlatch 0.9a"/>
    <tag k="highway" v="residential"/>
    <tag k="name" v="Hatzfelder Weg"/>
  </way>
  <way id="5051373" version="3" timestamp="2008-06-08T21:33:51Z" uid="36809" user="pfoten_weg_!_" changeset="106443">
    <nd ref="32573241"/>
    <nd ref="32573074"/>
    <nd ref="33963635"/>
    <nd ref="33963636"/>
    <nd ref="33957073"/>
    <tag k="created_by" v="Potlatch 0.9c"/>
    <tag k="highway" v="residential"/>
    <tag k="maxspeed" v="30"/>
    <tag k="name" v="Hatzfelder Weg"/>
  </way>
  <way id="5051373" version="4" timestamp="2008-08-23T23:47:40Z" uid="36809" user="pfoten_weg_!_" changeset="384601">
    <nd ref="32573241"/>
    <nd ref="32573074"/>
    <nd ref="33963635"/>
    <nd ref="33963636"/>
    <nd ref="33957073"/>
    <tag k="created_by" v="RambaZamba"/>
    <tag k="highway" v="residential"/>
    <tag k="maxspeed" v="30"/>
    <tag k="name" v="Hatzfelder Weg"/>
  </way>
  <way id="5051373" version="5" timestamp="2008-10-01T02:16:38Z" uid="36809" user="pfoten_weg_!_" changeset="5644">
    <nd ref="32573241"/>
    <nd ref="32573074"/>
    <nd ref="33963635"/>
    <nd ref="33963636"/>
    <nd ref="33957073"/>
    <tag k="created_by" v="RambaZamba"/>
    <tag k="highway" v="residential"/>
    <tag k="maxspeed" v="30"/>
    <tag k="name" v="Hatzfelder Weg"/>
  </way>
  <way id="5051373" version="6" timestamp="2008-11-18T16:19:49Z" uid="36809" user="pfoten_weg_!_" changeset="764761">
    <nd ref="32573241"/>
    <nd ref="32573074"/>
    <nd ref="33963635"/>
    <nd ref="33963636"/>
    <nd ref="33957073"/>
    <tag k="created_by" v="RambaZamba"/>
    <tag k="highway" v="residential"/>
    <tag k="maxspeed" v="30"/>
    <tag k="name" v="Hatzfelder Weg"/>
    <tag k="source" v="survey"/>
  </way>
  <way id="5051373" version="8" timestamp="2009-09-01T10:39:49Z" uid="36809" user="pfoten_weg_!_" changeset="2335754">
    <nd ref="32573241"/>
    <nd ref="32573074"/>
    <nd ref="33963635"/>
    <nd ref="33963636"/>
    <nd ref="33957073"/>
    <tag k="highway" v="residential"/>
    <tag k="maxspeed" v="30"/>
    <tag k="name" v="Hatzfelder Weg"/>
    <tag k="source" v="survey"/>
  </way>
  <way id="5051373" version="9" timestamp="2009-10-13T23:09:55Z" uid="36809" user="pfoten_weg_!_" changeset="2841175">
    <nd ref="32573241"/>
    <nd ref="32573074"/>
    <nd ref="33963635"/>
    <nd ref="33963636"/>
    <nd ref="33957073"/>
    <tag k="highway" v="residential"/>
    <tag k="maxspeed" v="30"/>
    <tag k="name" v="Hatzfelder Weg"/>
  </way>
  <way id="5051389" version="5" timestamp="2007-10-25T19:38:04Z" uid="8328" user="benpre" changeset="314650">
    <nd ref="33957198"/>
    <nd ref="25007013"/>
    <nd ref="33957213"/>
    <nd ref="79677498"/>
    <nd ref="79677137"/>
    <nd ref="79676541"/>
    <nd ref="33957214"/>
    <tag k="created_by" v="Potlatch alpha"/>
    <tag k="highway" v="residential"/>
  </way>
  <way id="5051405" version="2" timestamp="2008-05-04T12:53:38Z" uid="36809" user="pfoten_weg_!_" changeset="336054">
    <nd ref="21133546"/>
    <nd ref="33957278"/>
    <nd ref="33968585"/>
    <nd ref="33965948"/>
    <nd ref="33957279"/>
    <tag k="created_by" v="Potlatch 0.8c"/>
    <tag k="highway" v="tertiary"/>
    <tag k="name" v="Züricher Straße"/>
  </way>
  <way id="5051405" version="3" timestamp="2008-05-04T12:54:25Z" uid="36809" user="pfoten_weg_!_" changeset="336054">
    <nd ref="21133546"/>
    <nd ref="33957278"/>
    <nd ref="33968585"/>
    <nd ref="33965948"/>
    <nd ref="33957279"/>
    <nd ref="262129485"/>
    <nd ref="262129486"/>
    <tag k="created_by" v="Potlatch 0.8c"/>
    <tag k="highway" v="tertiary"/>
    <tag k="name" v="Züricher Straße"/>
  </way>
  <way id="5051405" version="4" timestamp="2008-05-04T12:55:38Z" uid="36809" user="pfoten_weg_!_" changeset="336054">
    <nd ref="262129486"/>
    <nd ref="262129485"/>
    <nd ref="33957279"/>
    <nd ref="33965948"/>
    <nd ref="33968585"/>
    <nd ref="33957278"/>
    <nd ref="21133546"/>
    <tag k="created_by" v="Potlatch 0.8c"/>
    <tag k="highway" v="tertiary"/>
    <tag k="name" v="Züricher Straße"/>
    <tag k="oneway" v="yes"/>
  </way>
  <way id="5051405" version="5" timestamp="2008-05-06T22:56:29Z" uid="36809" user="pfoten_weg_!_" changeset="356487">
    <nd ref="262129486"/>
    <nd ref="262129485"/>
    <tag k="created_by" v="Potlatch 0.8c"/>
    <tag k="highway" v="tertiary"/>
    <tag k="name" v="Züricher Straße"/>
    <tag k="oneway" v="yes"/>
  </way>
  <way id="5051405" version="6" timestamp="2008-05-06T22:56:44Z" uid="36809" user="pfoten_weg_!_" changeset="356487">
    <nd ref="262129486"/>
    <nd ref="262129485"/>
    <tag k="created_by" v="Potlatch 0.8c"/>
    <tag k="highway" v="tertiary"/>
    <tag k="name" v="Kistlerhofstraße"/>
    <tag k="oneway" v="yes"/>
  </way>
  <way id="5051405" version="7" timestamp="2008-05-06T22:59:14Z" uid="36809" user="pfoten_weg_!_" changeset="356487">
    <nd ref="262129486"/>
    <nd ref="262129485"/>
    <tag k="created_by" v="Potlatch 0.8c"/>
    <tag k="highway" v="tertiary"/>
    <tag k="name" v="Kistlerhofstraße"/>
    <tag k="oneway" v="yes"/>
  </way>
  <way id="5051405" version="8" timestamp="2008-05-12T03:12:54Z" uid="36809" user="pfoten_weg_!_" changeset="425442">
    <nd ref="262129486"/>
    <nd ref="262129485"/>
    <tag k="created_by" v="Potlatch 0.9a"/>
    <tag k="highway" v="tertiary"/>
    <tag k="name" v="Kistlerhofstraße"/>
    <tag k="oneway" v="yes"/>
  </way>
  <way id="5051405" version="11" timestamp="2008-08-21T23:28:45Z" uid="36809" user="pfoten_weg_!_" changeset="363581">
    <nd ref="262129486"/>
    <nd ref="277475908"/>
    <nd ref="262129485"/>
    <tag k="created_by" v="RambaZamba"/>
    <tag k="highway" v="tertiary"/>
    <tag k="maxspeed" v="50"/>
    <tag k="name" v="Kistlerhofstraße"/>
    <tag k="oneway" v="yes"/>
  </way>
  <way id="5051405" version="12" timestamp="2008-09-15T13:03:58Z" uid="36809" user="pfoten_weg_!_" changeset="638986">
    <nd ref="262129486"/>
    <nd ref="277475908"/>
    <nd ref="262129485"/>
    <tag k="created_by" v="RambaZamba"/>
    <tag k="highway" v="tertiary"/>
    <tag k="maxspeed" v="50"/>
    <tag k="name" v="Kistlerhofstraße"/>
    <tag k="oneway" v="yes"/>
    <tag k="source" v="survey "/>
  </way>
  <way id="5051405" version="14" timestamp="2008-09-21T20:08:43Z" uid="36809" user="pfoten_weg_!_" changeset="676192">
    <nd ref="262129485"/>
    <nd ref="277475908"/>
    <nd ref="262129486"/>
    <tag k="created_by" v="RambaZamba"/>
    <tag k="highway" v="tertiary"/>
    <tag k="maxspeed" v="50"/>
    <tag k="name" v="Kistlerhofstraße"/>
    <tag k="oneway" v="-1"/>
    <tag k="source" v="survey"/>
  </way>
  <way id="5051405" version="15" timestamp="2008-09-21T20:14:02Z" uid="36809" user="pfoten_weg_!_" changeset="676192">
    <nd ref="262129486"/>
    <nd ref="277475908"/>
    <nd ref="262129485"/>
    <tag k="created_by" v="RambaZamba"/>
    <tag k="highway" v="tertiary"/>
    <tag k="maxspeed" v="50"/>
    <tag k="name" v="Kistlerhofstraße"/>
    <tag k="oneway" v="yes"/>
    <tag k="source" v="survey"/>
  </way>
  <way id="5051405" version="16" timestamp="2008-10-01T02:14:39Z" uid="36809" user="pfoten_weg_!_" changeset="5644">
    <nd ref="262129486"/>
    <nd ref="277475908"/>
    <nd ref="262129485"/>
    <tag k="created_by" v="RambaZamba"/>
    <tag k="highway" v="tertiary"/>
    <tag k="maxspeed" v="50"/>
    <tag k="name" v="Kistlerhofstraße"/>
    <tag k="oneway" v="yes"/>
    <tag k="source" v="survey"/>
  </way>
  <way id="5051405" version="17" timestamp="2009-03-24T01:04:11Z" uid="36809" user="pfoten_weg_!_" changeset="853978">
    <nd ref="262129486"/>
    <nd ref="277475908"/>
    <nd ref="262129485"/>
    <tag k="created_by" v="RambaZamba"/>
    <tag k="highway" v="tertiary"/>
    <tag k="maxspeed" v="50"/>
    <tag k="name" v="Kistlerhofstraße"/>
    <tag k="oneway" v="yes"/>
    <tag k="ref" v="St"/>
    <tag k="source" v="survey"/>
  </way>
  <way id="5051405" version="21" timestamp="2009-05-23T23:28:47Z" uid="36809" user="pfoten_weg_!_" changeset="1300679"/>
  <way id="5051410" version="2" timestamp="2008-05-04T12:54:41Z" uid="36809" user="pfoten_weg_!_" changeset="336054">
    <nd ref="21133542"/>
    <nd ref="33957343"/>
    <nd ref="33957472"/>
    <nd ref="33969502"/>
    <nd ref="21133546"/>
    <tag k="created_by" v="Potlatch 0.8c"/>
    <tag k="highway" v="tertiary"/>
    <tag k="name" v="Züricher Straße"/>
  </way>
  <way id="5051410" version="3" timestamp="2008-05-04T12:55:24Z" uid="36809" user="pfoten_weg_!_" changeset="336054">
    <nd ref="21133546"/>
    <nd ref="33969502"/>
    <nd ref="33957472"/>
    <nd ref="33957343"/>
    <nd ref="21133542"/>
    <tag k="created_by" v="Potlatch 0.8c"/>
    <tag k="highway" v="tertiary"/>
    <tag k="name" v="Züricher Straße"/>
    <tag k="oneway" v="yes"/>
  </way>
  <way id="5051410" version="4" timestamp="2008-05-08T00:24:52Z" uid="36809" user="pfoten_weg_!_" changeset="361524">
    <nd ref="21133546"/>
    <nd ref="262728367"/>
    <nd ref="33969502"/>
    <nd ref="33957472"/>
    <nd ref="33957343"/>
    <nd ref="21133542"/>
    <tag k="created_by" v="Potlatch 0.8c"/>
    <tag k="highway" v="tertiary"/>
    <tag k="name" v="Züricher Straße"/>
    <tag k="oneway" v="yes"/>
  </way>
  <way id="5051410" version="5" timestamp="2008-05-12T03:12:11Z" uid="36809" user="pfoten_weg_!_" changeset="425442">
    <nd ref="21133546"/>
    <nd ref="262728367"/>
    <nd ref="33969502"/>
    <nd ref="33957472"/>
    <nd ref="33957343"/>
    <nd ref="21133542"/>
    <tag k="created_by" v="Potlatch 0.9a"/>
    <tag k="highway" v="tertiary"/>
    <tag k="name" v="Züricher Straße"/>
    <tag k="oneway" v="yes"/>
  </way>
  <way id="5051410" version="6" timestamp="2008-05-14T19:30:15Z" uid="36809" user="pfoten_weg_!_" changeset="449749">
    <nd ref="21133546"/>
    <nd ref="262728367"/>
    <nd ref="33969502"/>
    <nd ref="33957472"/>
    <nd ref="264549423"/>
    <nd ref="33957343"/>
    <nd ref="21133542"/>
    <tag k="created_by" v="Potlatch 0.9a"/>
    <tag k="highway" v="tertiary"/>
    <tag k="name" v="Züricher Straße"/>
    <tag k="oneway" v="yes"/>
  </way>
  <way id="5051410" version="10" timestamp="2008-07-12T22:26:37Z" uid="36809" user="pfoten_weg_!_" changeset="471811">
    <nd ref="21133546"/>
    <nd ref="262728367"/>
    <nd ref="33969502"/>
    <nd ref="274259746"/>
    <nd ref="278063083"/>
    <nd ref="33957472"/>
    <nd ref="273516790"/>
    <nd ref="264549423"/>
    <nd ref="33957343"/>
    <nd ref="21133542"/>
    <tag k="created_by" v="Potlatch 0.9c"/>
    <tag k="highway" v="tertiary"/>
    <tag k="maxspeed" v="50"/>
    <tag k="name" v="Züricher Straße"/>
    <tag k="oneway" v="yes"/>
  </way>
  <way id="5051410" version="11" timestamp="2008-07-12T22:27:41Z" uid="36809" user="pfoten_weg_!_" changeset="471811">
    <nd ref="21133546"/>
    <nd ref="262728367"/>
    <nd ref="33969502"/>
    <nd ref="274259746"/>
    <nd ref="278063083"/>
    <nd ref="33957343"/>
    <nd ref="21133542"/>
    <tag k="created_by" v="Potlatch 0.9c"/>
    <tag k="highway" v="tertiary"/>
    <tag k="maxspeed" v="50"/>
    <tag k="name" v="Züricher Straße"/>
    <tag k="oneway" v="yes"/>
  </way>
  <way id="5051410" version="16" timestamp="2008-08-06T19:27:54Z" uid="36809" user="pfoten_weg_!_" changeset="108472">
    <nd ref="21133546"/>
    <nd ref="282025798"/>
    <nd ref="262728367"/>
    <nd ref="281653933"/>
    <nd ref="33969502"/>
    <nd ref="274259746"/>
    <nd ref="278063083"/>
    <nd ref="282535295"/>
    <nd ref="33957343"/>
    <nd ref="21133542"/>
    <tag k="created_by" v="RambaZamba"/>
    <tag k="highway" v="tertiary"/>
    <tag k="maxspeed" v="50"/>
    <tag k="name" v="Züricher Straße"/>
    <tag k="oneway" v="yes"/>
  </way>
  <way id="5051410" version="17" timestamp="2008-08-06T20:54:16Z" uid="36809" user="pfoten_weg_!_" changeset="108472">
    <nd ref="21133546"/>
    <nd ref="282025798"/>
    <nd ref="262728367"/>
    <nd ref="281653933"/>
    <nd ref="285598505"/>
    <nd ref="274259746"/>
    <nd ref="278063083"/>
    <nd ref="282535295"/>
    <nd ref="33957343"/>
    <nd ref="21133542"/>
    <tag k="created_by" v="RambaZamba"/>
    <tag k="highway" v="tertiary"/>
    <tag k="maxspeed" v="50"/>
    <tag k="name" v="Züricher Straße"/>
    <tag k="oneway" v="yes"/>
  </way>
  <way id="5051410" version="18" timestamp="2008-08-08T18:06:37Z" uid="36809" user="pfoten_weg_!_" changeset="142705">
    <nd ref="21133546"/>
    <nd ref="286302523"/>
    <nd ref="262728367"/>
    <nd ref="281653933"/>
    <nd ref="285598505"/>
    <nd ref="274259746"/>
    <nd ref="278063083"/>
    <nd ref="282535295"/>
    <nd ref="33957343"/>
    <nd ref="21133542"/>
    <tag k="created_by" v="RambaZamba"/>
    <tag k="highway" v="tertiary"/>
    <tag k="maxspeed" v="50"/>
    <tag k="name" v="Züricher Straße"/>
    <tag k="oneway" v="yes"/>
  </way>
  <way id="5051410" version="19" timestamp="2008-09-15T13:03:40Z" uid="36809" user="pfoten_weg_!_" changeset="638986">
    <nd ref="21133546"/>
    <nd ref="286302523"/>
    <nd ref="262728367"/>
    <nd ref="281653933"/>
    <nd ref="285598505"/>
    <nd ref="274259746"/>
    <nd ref="278063083"/>
    <nd ref="282535295"/>
    <nd ref="33957343"/>
    <nd ref="21133542"/>
    <tag k="created_by" v="RambaZamba"/>
    <tag k="highway" v="tertiary"/>
    <tag k="maxspeed" v="50"/>
    <tag k="name" v="Züricher Straße"/>
    <tag k="oneway" v="yes"/>
    <tag k="source" v="survey "/>
  </way>
  <way id="5051410" version="21" timestamp="2008-09-21T20:08:36Z" uid="36809" user="pfoten_weg_!_" changeset="676192">
    <nd ref="21133542"/>
    <nd ref="33957343"/>
    <nd ref="282535295"/>
    <nd ref="278063083"/>
    <nd ref="274259746"/>
    <nd ref="285598505"/>
    <nd ref="281653933"/>
    <nd ref="262728367"/>
    <nd ref="286302523"/>
    <nd ref="21133546"/>
    <tag k="created_by" v="RambaZamba"/>
    <tag k="highway" v="tertiary"/>
    <tag k="maxspeed" v="50"/>
    <tag k="name" v="Züricher Straße"/>
    <tag k="oneway" v="-1"/>
    <tag k="source" v="survey"/>
  </way>
  <way id="5051410" version="22" timestamp="2008-09-21T20:13:59Z" uid="36809" user="pfoten_weg_!_" changeset="676192">
    <nd ref="21133546"/>
    <nd ref="286302523"/>
    <nd ref="262728367"/>
    <nd ref="281653933"/>
    <nd ref="285598505"/>
    <nd ref="274259746"/>
    <nd ref="278063083"/>
    <nd ref="282535295"/>
    <nd ref="33957343"/>
    <nd ref="21133542"/>
    <tag k="created_by" v="RambaZamba"/>
    <tag k="highway" v="tertiary"/>
    <tag k="maxspeed" v="50"/>
    <tag k="name" v="Züricher Straße"/>
    <tag k="oneway" v="yes"/>
    <tag k="source" v="survey"/>
  </way>
  <way id="5051410" version="23" timestamp="2008-09-24T23:27:24Z" uid="36809" user="pfoten_weg_!_" changeset="693466">
    <nd ref="21133546"/>
    <nd ref="286302523"/>
    <nd ref="262728367"/>
    <nd ref="281653933"/>
    <nd ref="285598505"/>
    <nd ref="299612335"/>
    <nd ref="299612336"/>
    <nd ref="278063083"/>
    <nd ref="282535295"/>
    <nd ref="33957343"/>
    <nd ref="21133542"/>
    <tag k="created_by" v="RambaZamba"/>
    <tag k="highway" v="tertiary"/>
    <tag k="maxspeed" v="50"/>
    <tag k="name" v="Züricher Straße"/>
    <tag k="oneway" v="yes"/>
    <tag k="source" v="survey"/>
  </way>
  <way id="5051410" version="24" timestamp="2008-10-01T02:14:32Z" uid="36809" user="pfoten_weg_!_" changeset="5644">
    <nd ref="21133546"/>
    <nd ref="286302523"/>
    <nd ref="262728367"/>
    <nd ref="281653933"/>
    <nd ref="285598505"/>
    <nd ref="299612335"/>
    <nd ref="299612336"/>
    <nd ref="278063083"/>
    <nd ref="282535295"/>
    <nd ref="33957343"/>
    <nd ref="21133542"/>
    <tag k="created_by" v="RambaZamba"/>
    <tag k="highway" v="tertiary"/>
    <tag k="maxspeed" v="50"/>
    <tag k="name" v="Züricher Straße"/>
    <tag k="oneway" v="yes"/>
    <tag k="source" v="survey"/>
  </way>
  <way id="5051410" version="25" timestamp="2008-10-23T14:19:10Z" uid="36809" user="pfoten_weg_!_" changeset="524906">
    <nd ref="21133546"/>
    <nd ref="286302523"/>
    <nd ref="262728367"/>
    <nd ref="281653933"/>
    <nd ref="285598505"/>
    <tag k="created_by" v="RambaZamba"/>
    <tag k="highway" v="tertiary"/>
    <tag k="maxspeed" v="50"/>
    <tag k="name" v="Züricher Straße"/>
    <tag k="oneway" v="yes"/>
    <tag k="source" v="survey"/>
  </way>
  <way id="5051410" version="26" timestamp="2009-03-24T01:04:11Z" uid="36809" user="pfoten_weg_!_" changeset="853978">
    <nd ref="21133546"/>
    <nd ref="286302523"/>
    <nd ref="262728367"/>
    <nd ref="281653933"/>
    <nd ref="285598505"/>
    <tag k="created_by" v="RambaZamba"/>
    <tag k="highway" v="tertiary"/>
    <tag k="maxspeed" v="50"/>
    <tag k="name" v="Züricher Straße"/>
    <tag k="oneway" v="yes"/>
    <tag k="ref" v="St"/>
    <tag k="source" v="survey"/>
  </way>
  <way id="5051410" version="28" timestamp="2009-05-12T23:18:17Z" uid="36809" user="pfoten_weg_!_" changeset="1170491">
    <nd ref="21133546"/>
    <nd ref="286302523"/>
    <nd ref="262728367"/>
    <nd ref="281653933"/>
    <nd ref="285598505"/>
    <tag k="created_by" v="RambaZamba"/>
    <tag k="highway" v="tertiary"/>
    <tag k="maxspeed" v="50"/>
    <tag k="name" v="Züricher Straße"/>
    <tag k="oneway" v="yes"/>
    <tag k="source" v="survey"/>
  </way>
  <way id="5051413" version="2" timestamp="2010-07-07T09:37:28Z" uid="74617" user="JohnSmith" changeset="5156250">
    <nd ref="32491355"/>
    <nd ref="33957471"/>
    <nd ref="32306149"/>
    <tag k="highway" v="residential"/>
    <tag k="maxspeed" v="50"/>
    <tag k="maxspeed:source" v="default residential speed limit in Australia"/>
    <tag k="name" v="Crest Road"/>
  </way>
  <way id="5051414" version="2" timestamp="2010-07-07T09:37:53Z" uid="74617" user="JohnSmith" changeset="5156250">
    <nd ref="32520294"/>
    <nd ref="33957470"/>
    <tag k="highway" v="residential"/>
    <tag k="maxspeed" v="50"/>
    <tag k="maxspeed:source" v="default residential speed limit in Australia"/>
    <tag k="name" v="Crest Road"/>
    <tag k="oneway" v="yes"/>
  </way>
  <way id="5051436" version="2" timestamp="2010-07-07T09:38:10Z" uid="74617" user="JohnSmith" changeset="5156250">
    <nd ref="32491744"/>
    <nd ref="33957766"/>
    <tag k="highway" v="residential"/>
    <tag k="maxspeed" v="50"/>
    <tag k="maxspeed:source" v="default residential speed limit in Australia"/>
    <tag k="name" v="Myola Street"/>
  </way>
  <way id="5051437" version="3" timestamp="2010-07-07T09:38:40Z" uid="74617" user="JohnSmith" changeset="5156250">
    <nd ref="33957766"/>
    <nd ref="109417747"/>
    <nd ref="109417964"/>
    <tag k="highway" v="residential"/>
    <tag k="maxspeed" v="50"/>
    <tag k="maxspeed:source" v="default residential speed limit in Australia"/>
    <tag k="name" v="King Street"/>
  </way>
  <way id="5051470" version="2" timestamp="2008-08-10T18:42:48Z" uid="20587" user="balrog-kun" changeset="173836">
    <nd ref="33958000"/>
    <nd ref="33957991"/>
    <nd ref="33957992"/>
    <nd ref="33957995"/>
    <nd ref="33957996"/>
    <nd ref="33957997"/>
    <nd ref="33957998"/>
    <nd ref="33957999"/>
    <tag k="created_by" v="JOSM"/>
    <tag k="highway" v="residential"/>
    <tag k="name" v="Słoneczna"/>
  </way>
  <way id="5051471" version="2" timestamp="2009-02-08T04:29:59Z" uid="20587" user="balrog-kun" changeset="270015">
    <nd ref="33958002"/>
    <nd ref="343303484"/>
    <nd ref="343303483"/>
    <nd ref="33958003"/>
    <tag k="created_by" v="JOSM"/>
    <tag k="highway" v="service"/>
    <tag k="name" v="Wybieg"/>
  </way>
  <way id="5051472" version="2" timestamp="2008-04-02T20:29:26Z" uid="20587" user="balrog-kun" changeset="17453">
    <nd ref="33957981"/>
    <nd ref="33957982"/>
    <nd ref="255443748"/>
    <nd ref="33957983"/>
    <nd ref="33958005"/>
    <nd ref="33957984"/>
    <nd ref="33957985"/>
    <nd ref="33957986"/>
    <nd ref="33957987"/>
    <tag k="created_by" v="JOSM"/>
    <tag k="highway" v="residential"/>
    <tag k="name" v="Chocimska"/>
    <tag k="oneway" v="yes"/>
  </way>
  <way id="5051472" version="3" timestamp="2009-02-08T03:40:01Z" uid="20587" user="balrog-kun" changeset="270015">
    <nd ref="33957981"/>
    <nd ref="343300287"/>
    <nd ref="33957982"/>
    <nd ref="255443748"/>
    <nd ref="33957983"/>
    <nd ref="33958005"/>
    <nd ref="33957984"/>
    <nd ref="33957985"/>
    <nd ref="33957986"/>
    <nd ref="33957987"/>
    <tag k="created_by" v="JOSM"/>
    <tag k="highway" v="residential"/>
    <tag k="name" v="Chocimska"/>
    <tag k="oneway" v="yes"/>
  </way>
  <way id="5051475" version="3" timestamp="2011-02-26T23:06:14Z" uid="20587" user="balrog-kun" changeset="7405140"/>
  <way id="5051477" version="3" timestamp="2011-02-26T23:05:47Z" uid="20587" user="balrog-kun" changeset="7405140">
    <nd ref="33693444"/>
    <nd ref="1175878148"/>
    <nd ref="33693445"/>
    <nd ref="1175878248"/>
    <nd ref="33958012"/>
    <nd ref="1175878135"/>
    <nd ref="32889653"/>
    <tag k="highway" v="residential"/>
    <tag k="name" v="Piaseczyńska"/>
  </way>
  <way id="5051478" version="4" timestamp="2011-02-26T23:05:27Z" uid="20587" user="balrog-kun" changeset="7405140">
    <nd ref="33958031"/>
    <nd ref="33958029"/>
    <nd ref="33958028"/>
    <nd ref="254378838"/>
    <nd ref="33958027"/>
    <nd ref="1175877454"/>
    <nd ref="33693444"/>
    <tag k="highway" v="residential"/>
    <tag k="name" v="Piaseczyńska"/>
  </way>
  <way id="5051479" version="3" timestamp="2009-05-14T11:38:29Z" uid="20587" user="balrog-kun" changeset="1187061">
    <nd ref="34817438"/>
    <nd ref="254378096"/>
    <nd ref="254378094"/>
    <nd ref="254378092"/>
    <nd ref="254378090"/>
    <nd ref="398684934"/>
    <nd ref="254378088"/>
    <nd ref="398684958"/>
    <nd ref="254378087"/>
    <nd ref="398684924"/>
    <nd ref="254378085"/>
    <nd ref="254378083"/>
    <nd ref="33958041"/>
    <nd ref="33958040"/>
    <tag k="created_by" v="JOSM"/>
    <tag k="highway" v="track"/>
  </way>
  <way id="5051483" version="2" timestamp="2008-03-26T00:05:53Z" uid="20587" user="balrog-kun" changeset="397044">
    <nd ref="33958018"/>
    <nd ref="254021563"/>
    <nd ref="32320952"/>
    <tag k="created_by" v="JOSM"/>
    <tag k="highway" v="residential"/>
  </way>
  <way id="5051545" version="1" timestamp="2007-09-16T18:38:22Z" uid="1066" user="pavel" changeset="441852">
    <nd ref="31563540"/>
    <nd ref="31563541"/>
    <nd ref="31563542"/>
    <nd ref="31563543"/>
    <nd ref="31563544"/>
    <nd ref="33959096"/>
    <nd ref="33959097"/>
    <nd ref="33959098"/>
    <nd ref="39693412"/>
    <nd ref="33959108"/>
    <nd ref="33959110"/>
    <nd ref="33959111"/>
    <nd ref="33959112"/>
    <nd ref="33959113"/>
    <nd ref="33959114"/>
    <nd ref="33959116"/>
    <nd ref="33959117"/>
    <nd ref="39693422"/>
    <nd ref="33959118"/>
    <nd ref="52743025"/>
    <nd ref="33959119"/>
    <nd ref="33959120"/>
    <nd ref="39693425"/>
    <nd ref="33959122"/>
    <nd ref="33959123"/>
    <nd ref="33959124"/>
    <nd ref="33959125"/>
    <nd ref="33961018"/>
    <nd ref="33959126"/>
    <nd ref="33961020"/>
    <nd ref="33959127"/>
    <nd ref="33961022"/>
    <nd ref="33959128"/>
    <nd ref="33959129"/>
    <nd ref="33959131"/>
    <nd ref="33959132"/>
    <nd ref="33959133"/>
    <nd ref="33959134"/>
    <nd ref="33959135"/>
    <nd ref="33959136"/>
    <nd ref="33959138"/>
    <nd ref="33959139"/>
    <nd ref="33959140"/>
    <nd ref="33959141"/>
    <nd ref="33960145"/>
    <nd ref="33959142"/>
    <nd ref="33959143"/>
    <nd ref="33959144"/>
    <nd ref="33959146"/>
    <nd ref="33959147"/>
    <nd ref="33959148"/>
    <nd ref="33959149"/>
    <nd ref="33959150"/>
    <nd ref="33959151"/>
    <nd ref="33959152"/>
    <nd ref="33959154"/>
    <nd ref="33959155"/>
    <nd ref="33959156"/>
    <nd ref="33959157"/>
    <nd ref="33959158"/>
    <nd ref="33959159"/>
    <nd ref="33959160"/>
    <nd ref="33958277"/>
    <tag k="created_by" v="JOSM"/>
    <tag k="highway" v="motorway"/>
    <tag k="name" v="D5"/>
    <tag k="oneway" v="true"/>
    <tag k="ref" v="D5"/>
  </way>
  <way id="5051585" version="13" timestamp="2009-10-18T10:37:39Z" uid="36809" user="pfoten_weg_!_" changeset="2881819">
    <nd ref="33960105"/>
    <nd ref="33960106"/>
    <nd ref="33960107"/>
    <nd ref="33960108"/>
    <nd ref="33960109"/>
    <nd ref="33960110"/>
    <nd ref="33960111"/>
    <nd ref="33960112"/>
    <nd ref="401793077"/>
    <nd ref="33960113"/>
    <nd ref="33960114"/>
    <nd ref="33960115"/>
    <nd ref="365360018"/>
    <nd ref="401793080"/>
    <nd ref="269600972"/>
    <nd ref="33960117"/>
    <nd ref="33960118"/>
    <nd ref="433033623"/>
    <nd ref="33960119"/>
    <nd ref="433033629"/>
    <nd ref="433033633"/>
    <nd ref="33960121"/>
    <nd ref="33960122"/>
    <nd ref="33960123"/>
    <nd ref="33960124"/>
    <nd ref="272102726"/>
    <nd ref="415548593"/>
    <nd ref="33960125"/>
    <nd ref="8086562"/>
    <tag k="highway" v="primary"/>
    <tag k="ref" v="B 472"/>
  </way>
  <way id="5051585" version="14" timestamp="2009-10-18T12:25:33Z" uid="36809" user="pfoten_weg_!_" changeset="2882318">
    <nd ref="33960105"/>
    <nd ref="33960106"/>
    <nd ref="33960107"/>
    <nd ref="33960108"/>
    <nd ref="33960109"/>
    <nd ref="33960110"/>
    <nd ref="33960111"/>
    <nd ref="33960112"/>
    <nd ref="401793077"/>
    <nd ref="33960113"/>
    <nd ref="33960114"/>
    <nd ref="33960115"/>
    <nd ref="365360018"/>
    <nd ref="401793080"/>
    <nd ref="269600972"/>
    <nd ref="33960117"/>
    <nd ref="33960118"/>
    <nd ref="433033623"/>
    <nd ref="33960119"/>
    <nd ref="433033629"/>
    <nd ref="433033633"/>
    <nd ref="33960121"/>
    <nd ref="33960122"/>
    <nd ref="33960123"/>
    <nd ref="33960124"/>
    <nd ref="272102726"/>
    <nd ref="415548593"/>
    <nd ref="33960125"/>
    <nd ref="8086562"/>
    <tag k="highway" v="primary"/>
    <tag k="ref" v="B 472"/>
  </way>
  <way id="5051655" version="8" timestamp="2009-10-22T21:15:17Z" uid="36809" user="pfoten_weg_!_" changeset="2925600">
    <nd ref="216064372"/>
    <nd ref="216064359"/>
    <nd ref="310826788"/>
    <nd ref="216064346"/>
    <nd ref="216064328"/>
    <nd ref="216064310"/>
    <nd ref="216064299"/>
    <nd ref="216064282"/>
    <nd ref="216064266"/>
    <nd ref="216064249"/>
    <nd ref="216064231"/>
    <nd ref="216064213"/>
    <nd ref="394703595"/>
    <tag k="highway" v="tertiary"/>
    <tag k="name" v="Irschenberger Straße"/>
    <tag k="ref" v="RO 8"/>
  </way>
  <way id="5051696" version="16" timestamp="2009-09-27T23:44:41Z" uid="36809" user="pfoten_weg_!_" changeset="2659720">
    <nd ref="31413295"/>
    <nd ref="428274591"/>
    <nd ref="31413298"/>
    <nd ref="428274592"/>
    <nd ref="31413300"/>
    <nd ref="31413302"/>
    <nd ref="31413304"/>
    <nd ref="31413307"/>
    <nd ref="428274595"/>
    <nd ref="31413309"/>
    <nd ref="31413311"/>
    <nd ref="31413315"/>
    <nd ref="31413317"/>
    <nd ref="31413318"/>
    <nd ref="31413319"/>
    <nd ref="31413320"/>
    <nd ref="31413321"/>
    <nd ref="31413322"/>
    <nd ref="31413323"/>
    <nd ref="394792132"/>
    <tag k="highway" v="tertiary"/>
    <tag k="maxspeed" v="50"/>
    <tag k="name" v="Wattersdorfer Straße"/>
    <tag k="postal_code" v="83629"/>
    <tag k="ref" v="MB 18"/>
  </way>
  <way id="5051821" version="15" timestamp="2009-10-02T19:53:55Z" uid="86259" user="hasse_osm_korinthenkacker" changeset="2716821">
    <nd ref="11591942"/>
    <nd ref="414577681"/>
    <nd ref="414577708"/>
    <nd ref="414576584"/>
    <nd ref="414576585"/>
    <nd ref="30779528"/>
    <nd ref="30779529"/>
    <nd ref="30779530"/>
    <nd ref="30779531"/>
    <nd ref="274647068"/>
    <nd ref="30779532"/>
    <nd ref="274792084"/>
    <nd ref="30779527"/>
    <nd ref="30779526"/>
    <nd ref="408967308"/>
    <nd ref="392832965"/>
    <tag k="highway" v="residential"/>
    <tag k="name" v="Oberhamer Straße"/>
    <tag k="postal_code" v="82054"/>
  </way>
  <way id="5051859" version="4" timestamp="2008-01-27T15:08:04Z" uid="13367" user="nubok" changeset="701321">
    <nd ref="33479845"/>
    <nd ref="33531305"/>
    <nd ref="82656415"/>
    <nd ref="33531299"/>
    <nd ref="243700579"/>
    <nd ref="83122387"/>
    <nd ref="33531306"/>
    <tag k="created_by" v="Potlatch 0.6c"/>
    <tag k="highway" v="residential"/>
    <tag k="name" v="Nachtweide"/>
  </way>
  <way id="5051859" version="5" timestamp="2008-01-27T15:08:26Z" uid="13367" user="nubok" changeset="701321">
    <nd ref="33479845"/>
    <nd ref="33531305"/>
    <nd ref="82656415"/>
    <nd ref="33531299"/>
    <nd ref="243700579"/>
    <nd ref="83122387"/>
    <nd ref="33531306"/>
    <tag k="created_by" v="Potlatch 0.6c"/>
    <tag k="highway" v="residential"/>
    <tag k="name" v="Nachtweide"/>
  </way>
  <way id="5051859" version="6" timestamp="2008-01-27T15:09:23Z" uid="13367" user="nubok" changeset="701321">
    <nd ref="33479845"/>
    <nd ref="33531305"/>
    <nd ref="82656415"/>
    <nd ref="33531299"/>
    <nd ref="243700579"/>
    <nd ref="83122387"/>
    <nd ref="33531306"/>
    <tag k="created_by" v="Potlatch 0.6c"/>
    <tag k="highway" v="residential"/>
    <tag k="name" v="Nachtweide"/>
  </way>
  <way id="5051859" version="7" timestamp="2008-01-27T15:09:31Z" uid="13367" user="nubok" changeset="701321">
    <nd ref="33479845"/>
    <nd ref="33531305"/>
    <nd ref="82656415"/>
    <nd ref="33531299"/>
    <nd ref="243700579"/>
    <nd ref="83122387"/>
    <nd ref="33531306"/>
    <tag k="created_by" v="Potlatch 0.6c"/>
    <tag k="highway" v="residential"/>
    <tag k="name" v="Nachtweide"/>
  </way>
  <way id="5051859" version="8" timestamp="2008-01-31T14:46:54Z" uid="13367" user="nubok" changeset="715219">
    <nd ref="33479845"/>
    <nd ref="33531305"/>
    <nd ref="82656415"/>
    <nd ref="33531299"/>
    <nd ref="83122387"/>
    <nd ref="33531306"/>
    <tag k="created_by" v="Potlatch 0.6c"/>
    <tag k="highway" v="residential"/>
    <tag k="name" v="Nachtweide"/>
  </way>
  <way id="5051859" version="9" timestamp="2008-01-31T14:49:06Z" uid="13367" user="nubok" changeset="715219">
    <nd ref="33479845"/>
    <nd ref="33531305"/>
    <nd ref="82656415"/>
    <nd ref="244321232"/>
    <nd ref="33531299"/>
    <nd ref="83122387"/>
    <nd ref="33531306"/>
    <tag k="created_by" v="Potlatch 0.6c"/>
    <tag k="highway" v="residential"/>
    <tag k="name" v="Nachtweide"/>
  </way>
  <way id="5051859" version="10" timestamp="2008-01-31T14:49:27Z" uid="13367" user="nubok" changeset="715219">
    <nd ref="33479845"/>
    <nd ref="33531305"/>
    <nd ref="82656415"/>
    <nd ref="244321232"/>
    <nd ref="33531299"/>
    <nd ref="83122387"/>
    <nd ref="33531306"/>
    <tag k="created_by" v="Potlatch 0.6c"/>
    <tag k="highway" v="residential"/>
    <tag k="name" v="Nachtweide"/>
  </way>
  <way id="5051859" version="11" timestamp="2008-04-27T10:27:27Z" uid="13367" user="nubok" changeset="264787">
    <nd ref="33479845"/>
    <nd ref="33531305"/>
    <nd ref="82656415"/>
    <nd ref="244321232"/>
    <nd ref="33531299"/>
    <nd ref="83122387"/>
    <nd ref="33531306"/>
    <tag k="created_by" v="Potlatch 0.8b"/>
    <tag k="highway" v="residential"/>
    <tag k="name" v="Nachtweide"/>
  </way>
  <way id="5051859" version="12" timestamp="2008-04-29T20:36:12Z" uid="13367" user="nubok" changeset="286626">
    <nd ref="33479845"/>
    <nd ref="33531305"/>
    <nd ref="82656415"/>
    <nd ref="244321232"/>
    <nd ref="33531299"/>
    <nd ref="83122387"/>
    <nd ref="33531306"/>
    <tag k="created_by" v="Potlatch 0.8b"/>
    <tag k="highway" v="residential"/>
    <tag k="name" v="Nachtweide"/>
  </way>
  <way id="5051859" version="13" timestamp="2008-06-17T20:26:32Z" uid="13367" user="nubok" changeset="198517">
    <nd ref="33479845"/>
    <nd ref="33531305"/>
    <nd ref="82656415"/>
    <nd ref="244321232"/>
    <nd ref="33531299"/>
    <nd ref="83122387"/>
    <nd ref="33531306"/>
    <tag k="created_by" v="Potlatch 0.9c"/>
    <tag k="highway" v="residential"/>
    <tag k="name" v="Nachtweide"/>
  </way>
  <way id="5051859" version="14" timestamp="2008-06-17T20:26:49Z" uid="13367" user="nubok" changeset="198517">
    <nd ref="33479845"/>
    <nd ref="33531305"/>
    <nd ref="82656415"/>
    <nd ref="244321232"/>
    <nd ref="33531299"/>
    <nd ref="83122387"/>
    <nd ref="33531306"/>
    <tag k="created_by" v="Potlatch 0.9c"/>
    <tag k="highway" v="residential"/>
    <tag k="name" v="Nachtweide"/>
  </way>
  <way id="5051859" version="15" timestamp="2008-06-17T20:26:57Z" uid="13367" user="nubok" changeset="198517">
    <nd ref="33479845"/>
    <nd ref="33531305"/>
    <nd ref="82656415"/>
    <nd ref="244321232"/>
    <nd ref="33531299"/>
    <nd ref="83122387"/>
    <nd ref="33531306"/>
    <tag k="created_by" v="Potlatch 0.9c"/>
    <tag k="highway" v="residential"/>
    <tag k="name" v="Nachtweide"/>
  </way>
  <way id="5051859" version="16" timestamp="2008-06-17T20:27:43Z" uid="13367" user="nubok" changeset="198517">
    <nd ref="33479845"/>
    <nd ref="33531305"/>
    <nd ref="82656415"/>
    <nd ref="244321232"/>
    <nd ref="33531299"/>
    <nd ref="83122387"/>
    <nd ref="33531306"/>
    <tag k="created_by" v="Potlatch 0.9c"/>
    <tag k="highway" v="residential"/>
    <tag k="name" v="Nachtweide"/>
  </way>
  <way id="5051859" version="17" timestamp="2008-07-11T13:24:21Z" uid="13367" user="nubok" changeset="459420">
    <nd ref="33479845"/>
    <nd ref="33531305"/>
    <nd ref="82656415"/>
    <nd ref="244321232"/>
    <nd ref="33531299"/>
    <nd ref="83122387"/>
    <nd ref="277732455"/>
    <nd ref="33531306"/>
    <tag k="created_by" v="Potlatch 0.9c"/>
    <tag k="highway" v="residential"/>
    <tag k="name" v="Nachtweide"/>
  </way>
  <way id="5051859" version="18" timestamp="2008-07-25T13:38:10Z" uid="13367" user="nubok" changeset="591777">
    <nd ref="33479845"/>
    <nd ref="33531305"/>
    <nd ref="82656415"/>
    <nd ref="244321232"/>
    <nd ref="33531299"/>
    <nd ref="83122387"/>
    <nd ref="277732455"/>
    <nd ref="33531306"/>
    <tag k="created_by" v="Potlatch 0.10"/>
    <tag k="highway" v="residential"/>
    <tag k="name" v="Nachtweide"/>
  </way>
  <way id="5051922" version="2" timestamp="2008-07-06T10:11:32Z" uid="6975" user="ulfl" changeset="407266">
    <nd ref="33963483"/>
    <nd ref="33963484"/>
    <nd ref="33963485"/>
    <nd ref="33963486"/>
    <nd ref="33963487"/>
    <nd ref="33963488"/>
    <tag k="waterway" v="weir"/>
  </way>
  <way id="5051925" version="2" timestamp="2008-07-06T10:11:30Z" uid="6975" user="ulfl" changeset="407266">
    <nd ref="33963531"/>
    <nd ref="33963532"/>
    <tag k="waterway" v="weir"/>
  </way>
  <way id="5051936" version="3" timestamp="2008-08-23T23:48:32Z" uid="36809" user="pfoten_weg_!_" changeset="384601">
    <nd ref="33963635"/>
    <nd ref="33963641"/>
    <nd ref="33963642"/>
    <nd ref="33963643"/>
    <tag k="created_by" v="RambaZamba"/>
    <tag k="highway" v="residential"/>
    <tag k="maxspeed" v="30"/>
    <tag k="name" v="Arader Straße"/>
  </way>
  <way id="5051936" version="4" timestamp="2008-09-27T20:15:34Z" uid="36809" user="pfoten_weg_!_" changeset="708908"/>
  <way id="5051937" version="2" timestamp="2008-05-12T03:15:07Z" uid="36809" user="pfoten_weg_!_" changeset="425442">
    <nd ref="33963643"/>
    <nd ref="33963648"/>
    <nd ref="263989058"/>
    <nd ref="33963649"/>
    <tag k="created_by" v="Potlatch 0.9a"/>
    <tag k="highway" v="residential"/>
    <tag k="name" v="Teschener Straße"/>
  </way>
  <way id="5051937" version="3" timestamp="2008-05-12T03:15:23Z" uid="36809" user="pfoten_weg_!_" changeset="425442">
    <nd ref="33963643"/>
    <nd ref="33963648"/>
    <nd ref="263989058"/>
    <nd ref="33963649"/>
    <tag k="created_by" v="Potlatch 0.9a"/>
    <tag k="highway" v="residential"/>
    <tag k="name" v="Teschener Straße"/>
  </way>
  <way id="5051937" version="5" timestamp="2008-08-23T23:48:32Z" uid="36809" user="pfoten_weg_!_" changeset="384601">
    <nd ref="33963643"/>
    <nd ref="33963648"/>
    <nd ref="263989058"/>
    <nd ref="33963649"/>
    <tag k="created_by" v="RambaZamba"/>
    <tag k="highway" v="residential"/>
    <tag k="maxspeed" v="30"/>
    <tag k="name" v="Teschener Straße"/>
  </way>
  <way id="5051937" version="6" timestamp="2008-10-01T02:09:44Z" uid="36809" user="pfoten_weg_!_" changeset="5644">
    <nd ref="33963643"/>
    <nd ref="33963648"/>
    <nd ref="263989058"/>
    <nd ref="33963649"/>
    <tag k="created_by" v="RambaZamba"/>
    <tag k="highway" v="residential"/>
    <tag k="maxspeed" v="30"/>
    <tag k="name" v="Teschener Straße"/>
  </way>
  <way id="5051937" version="7" timestamp="2009-02-15T13:11:37Z" uid="36809" user="pfoten_weg_!_" changeset="463903">
    <nd ref="33963643"/>
    <nd ref="33963648"/>
    <nd ref="263989058"/>
    <nd ref="33963649"/>
    <tag k="created_by" v="RambaZamba"/>
    <tag k="highway" v="residential"/>
    <tag k="maxspeed" v="30"/>
    <tag k="name" v="Teschener Straße"/>
    <tag k="source" v="survey"/>
  </way>
  <way id="5051937" version="9" timestamp="2009-09-01T10:30:48Z" uid="36809" user="pfoten_weg_!_" changeset="2335754">
    <nd ref="33963643"/>
    <nd ref="33963648"/>
    <nd ref="263989058"/>
    <nd ref="33963649"/>
    <tag k="highway" v="residential"/>
    <tag k="maxspeed" v="30"/>
    <tag k="name" v="Teschener Straße"/>
    <tag k="source" v="survey"/>
  </way>
  <way id="5051937" version="10" timestamp="2009-10-13T23:15:31Z" uid="36809" user="pfoten_weg_!_" changeset="2841175">
    <nd ref="33963643"/>
    <nd ref="33963648"/>
    <nd ref="263989058"/>
    <nd ref="33963649"/>
    <tag k="highway" v="residential"/>
    <tag k="maxspeed" v="30"/>
    <tag k="name" v="Teschener Straße"/>
  </way>
  <way id="5051991" version="2" timestamp="2008-05-12T03:15:17Z" uid="36809" user="pfoten_weg_!_" changeset="425442">
    <nd ref="33963636"/>
    <nd ref="33964005"/>
    <nd ref="263989059"/>
    <nd ref="33963648"/>
    <tag k="created_by" v="Potlatch 0.9a"/>
    <tag k="highway" v="residential"/>
    <tag k="name" v="Gnadenthaler Straße"/>
  </way>
  <way id="5051991" version="4" timestamp="2008-08-23T23:48:17Z" uid="36809" user="pfoten_weg_!_" changeset="384601">
    <nd ref="33963636"/>
    <nd ref="33964005"/>
    <nd ref="263989059"/>
    <nd ref="33963648"/>
    <tag k="created_by" v="RambaZamba"/>
    <tag k="highway" v="residential"/>
    <tag k="maxspeed" v="30"/>
    <tag k="name" v="Gnadenthaler Straße"/>
  </way>
  <way id="5051991" version="5" timestamp="2008-09-27T20:15:34Z" uid="36809" user="pfoten_weg_!_" changeset="708908"/>
</osm>
