<?xml version='1.0' encoding='UTF-8'?>
<osm version="0.6" generator="libosmium/2.20.0">
  <way id="50590136" version="3" timestamp="2011-05-05T18:15:29Z" uid="115477" user="wowik" changeset="8059528">
    <nd ref="997676819"/>
    <nd ref="997676625"/>
    <tag k="highway" v="motorway_link"/>
    <tag k="lanes" v="2"/>
    <tag k="lit" v="yes"/>
    <tag k="oneway" v="yes"/>
  </way>
  <way id="50590138" version="3" timestamp="2011-05-05T18:15:27Z" uid="115477" user="wowik" changeset="8059528">
    <nd ref="997676622"/>
    <nd ref="1273355027"/>
    <tag k="highway" v="motorway_link"/>
    <tag k="lanes" v="2"/>
    <tag k="lit" v="yes"/>
    <tag k="oneway" v="yes"/>
  </way>
  <way id="50590140" version="2" timestamp="2010-05-26T10:04:11Z" uid="115477" user="wowik" changeset="4811565">
    <nd ref="643883160"/>
    <nd ref="60456046"/>
    <nd ref="643883163"/>
    <nd ref="643883175"/>
    <nd ref="748804222"/>
    <nd ref="60456047"/>
    <nd ref="643883149"/>
    <nd ref="643883151"/>
    <nd ref="60456048"/>
    <nd ref="60456050"/>
    <nd ref="60456051"/>
    <nd ref="643883125"/>
    <nd ref="643883127"/>
    <nd ref="312005243"/>
    <tag k="highway" v="motorway_link"/>
    <tag k="oneway" v="yes"/>
  </way>
  <way id="50590589" version="3" timestamp="2011-03-22T15:13:02Z" uid="23543" user="jkjk" changeset="7637814">
    <nd ref="643897380"/>
    <nd ref="643897751"/>
    <nd ref="643897755"/>
    <nd ref="643897759"/>
    <nd ref="643897764"/>
    <nd ref="643897768"/>
    <nd ref="643897770"/>
    <nd ref="1213419855"/>
    <nd ref="643897775"/>
    <nd ref="643897778"/>
    <tag k="highway" v="unclassified"/>
  </way>
  <way id="50590591" version="2" timestamp="2011-03-22T15:12:51Z" uid="23543" user="jkjk" changeset="7637814">
    <nd ref="643897778"/>
    <nd ref="643897796"/>
    <tag k="bridge" v="yes"/>
    <tag k="highway" v="unclassified"/>
    <tag k="layer" v="1"/>
  </way>
  <way id="50590841" version="1" timestamp="2010-02-17T21:54:49Z" uid="115684" user="jVviJ11dNx" changeset="3904972">
    <nd ref="643905467"/>
    <nd ref="643905470"/>
    <nd ref="643905473"/>
    <nd ref="643905898"/>
    <nd ref="643905900"/>
    <tag k="layer" v="-1"/>
    <tag k="name" v="East Goulburn No. 17 Channel"/>
    <tag k="source" v="nearmap"/>
    <tag k="waterway" v="canal"/>
  </way>
  <way id="50590842" version="1" timestamp="2010-02-17T21:54:49Z" uid="115684" user="jVviJ11dNx" changeset="3904972">
    <nd ref="643905529"/>
    <nd ref="639425989"/>
    <nd ref="639425991"/>
    <nd ref="639425992"/>
    <nd ref="638770239"/>
    <nd ref="638769392"/>
    <nd ref="638770240"/>
    <nd ref="638770241"/>
    <nd ref="638770242"/>
    <tag k="highway" v="tertiary"/>
    <tag k="source" v="nearmap"/>
  </way>
  <way id="50590842" version="2" timestamp="2010-02-27T21:54:52Z" uid="115684" user="jVviJ11dNx" changeset="3993080">
    <nd ref="643905529"/>
    <nd ref="639425989"/>
    <nd ref="642897279"/>
    <nd ref="639425992"/>
    <nd ref="638770239"/>
    <nd ref="638769392"/>
    <nd ref="638770240"/>
    <nd ref="638770241"/>
    <nd ref="638770242"/>
    <tag k="highway" v="tertiary"/>
    <tag k="source" v="nearmap"/>
  </way>
  <way id="50590844" version="1" timestamp="2010-02-17T21:54:49Z" uid="115684" user="jVviJ11dNx" changeset="3904972">
    <nd ref="643905626"/>
    <nd ref="643905627"/>
    <nd ref="643905628"/>
    <nd ref="643905476"/>
    <nd ref="643905479"/>
    <tag k="layer" v="-1"/>
    <tag k="name" v="East Goulburn No. 17 Channel"/>
    <tag k="source" v="nearmap"/>
    <tag k="waterway" v="canal"/>
  </way>
  <way id="50590845" version="1" timestamp="2010-02-17T21:54:49Z" uid="115684" user="jVviJ11dNx" changeset="3904972">
    <nd ref="643905594"/>
    <nd ref="643905630"/>
    <nd ref="643905631"/>
    <nd ref="643905632"/>
    <tag k="layer" v="-1"/>
    <tag k="name" v="East Goulburn No. 17 Channel"/>
    <tag k="source" v="nearmap"/>
    <tag k="waterway" v="canal"/>
  </way>
  <way id="50590846" version="1" timestamp="2010-02-17T21:54:49Z" uid="115684" user="jVviJ11dNx" changeset="3904972">
    <nd ref="643905463"/>
    <nd ref="643905467"/>
    <tag k="layer" v="-1"/>
    <tag k="name" v="East Goulburn No. 17 Channel"/>
    <tag k="source" v="nearmap"/>
    <tag k="tunnel" v="yes"/>
    <tag k="waterway" v="canal"/>
  </way>
  <way id="50590848" version="1" timestamp="2010-02-17T21:54:49Z" uid="115684" user="jVviJ11dNx" changeset="3904972">
    <nd ref="643905499"/>
    <nd ref="643905491"/>
    <tag k="layer" v="-1"/>
    <tag k="name" v="East Goulburn No. 17 Channel"/>
    <tag k="source" v="nearmap"/>
    <tag k="tunnel" v="yes"/>
    <tag k="waterway" v="canal"/>
  </way>
  <way id="50590850" version="1" timestamp="2010-02-17T21:54:49Z" uid="115684" user="jVviJ11dNx" changeset="3904972">
    <nd ref="643905491"/>
    <nd ref="643905463"/>
    <tag k="layer" v="-1"/>
    <tag k="name" v="East Goulburn No. 17 Channel"/>
    <tag k="source" v="nearmap"/>
    <tag k="waterway" v="canal"/>
  </way>
  <way id="50590851" version="1" timestamp="2010-02-17T21:54:50Z" uid="115684" user="jVviJ11dNx" changeset="3904972">
    <nd ref="643905479"/>
    <nd ref="643905482"/>
    <tag k="layer" v="-1"/>
    <tag k="name" v="East Goulburn No. 17 Channel"/>
    <tag k="source" v="nearmap"/>
    <tag k="tunnel" v="yes"/>
    <tag k="waterway" v="canal"/>
  </way>
  <way id="50590852" version="1" timestamp="2010-02-17T21:54:50Z" uid="115684" user="jVviJ11dNx" changeset="3904972">
    <nd ref="643905482"/>
    <nd ref="643905485"/>
    <nd ref="643905488"/>
    <nd ref="643905497"/>
    <nd ref="643905493"/>
    <nd ref="643905514"/>
    <nd ref="643905499"/>
    <tag k="layer" v="-1"/>
    <tag k="name" v="East Goulburn No. 17 Channel"/>
    <tag k="source" v="nearmap"/>
    <tag k="waterway" v="canal"/>
  </way>
  <way id="50590853" version="1" timestamp="2010-02-17T21:54:50Z" uid="115684" user="jVviJ11dNx" changeset="3904972">
    <nd ref="643905526"/>
    <nd ref="643905529"/>
    <tag k="bridge" v="yes"/>
    <tag k="highway" v="tertiary"/>
    <tag k="source" v="nearmap"/>
  </way>
  <way id="50590853" version="3" timestamp="2010-07-25T07:21:34Z" uid="4467" user="Rosscoe" changeset="5309337">
    <nd ref="643905526"/>
    <nd ref="643905529"/>
    <tag k="bridge" v="yes"/>
    <tag k="highway" v="tertiary"/>
    <tag k="layer" v="1"/>
    <tag k="name" v="Pine Lodge South Road"/>
    <tag k="source" v="nearmap"/>
  </way>
  <way id="50590854" version="1" timestamp="2010-02-17T21:54:50Z" uid="115684" user="jVviJ11dNx" changeset="3904972">
    <nd ref="643905601"/>
    <nd ref="643905594"/>
    <tag k="layer" v="-1"/>
    <tag k="name" v="East Goulburn No. 17 Channel"/>
    <tag k="source" v="nearmap"/>
    <tag k="tunnel" v="yes"/>
    <tag k="waterway" v="canal"/>
  </way>
  <way id="50590854" version="2" timestamp="2010-02-27T21:54:52Z" uid="115684" user="jVviJ11dNx" changeset="3993080">
    <nd ref="643905601"/>
    <nd ref="643905594"/>
    <tag k="name" v="East Goulburn No. 17 Channel"/>
    <tag k="source" v="nearmap"/>
    <tag k="waterway" v="canal"/>
  </way>
  <way id="50590855" version="1" timestamp="2010-02-17T21:54:50Z" uid="115684" user="jVviJ11dNx" changeset="3904972">
    <nd ref="643905558"/>
    <nd ref="643905547"/>
    <tag k="layer" v="-1"/>
    <tag k="name" v="East Goulburn No. 17 Channel"/>
    <tag k="source" v="nearmap"/>
    <tag k="tunnel" v="yes"/>
    <tag k="waterway" v="canal"/>
  </way>
  <way id="50590857" version="1" timestamp="2010-02-17T21:54:50Z" uid="115684" user="jVviJ11dNx" changeset="3904972">
    <nd ref="643905547"/>
    <nd ref="643905549"/>
    <nd ref="643905556"/>
    <nd ref="643905554"/>
    <nd ref="643905520"/>
    <nd ref="643905531"/>
    <nd ref="643905534"/>
    <nd ref="643905536"/>
    <nd ref="643905518"/>
    <nd ref="643905523"/>
    <nd ref="643905538"/>
    <nd ref="643905563"/>
    <nd ref="643905561"/>
    <nd ref="643905566"/>
    <nd ref="643905568"/>
    <nd ref="643905572"/>
    <nd ref="643905569"/>
    <nd ref="643905599"/>
    <nd ref="643905597"/>
    <nd ref="643905604"/>
    <nd ref="643905601"/>
    <tag k="layer" v="-1"/>
    <tag k="name" v="East Goulburn No. 17 Channel"/>
    <tag k="source" v="nearmap"/>
    <tag k="waterway" v="canal"/>
  </way>
  <way id="50590858" version="1" timestamp="2010-02-17T21:54:50Z" uid="115684" user="jVviJ11dNx" changeset="3904972">
    <nd ref="643905551"/>
    <nd ref="643905544"/>
    <tag k="layer" v="-1"/>
    <tag k="name" v="East Goulburn No. 17 Channel"/>
    <tag k="source" v="nearmap"/>
    <tag k="tunnel" v="yes"/>
    <tag k="waterway" v="canal"/>
  </way>
  <way id="50590859" version="1" timestamp="2010-02-17T21:54:50Z" uid="115684" user="jVviJ11dNx" changeset="3904972">
    <nd ref="643905544"/>
    <nd ref="643905541"/>
    <nd ref="643905558"/>
    <tag k="layer" v="-1"/>
    <tag k="name" v="East Goulburn No. 17 Channel"/>
    <tag k="source" v="nearmap"/>
    <tag k="waterway" v="canal"/>
  </way>
  <way id="50590861" version="1" timestamp="2010-02-17T21:54:50Z" uid="115684" user="jVviJ11dNx" changeset="3904972">
    <nd ref="643905592"/>
    <nd ref="643905581"/>
    <tag k="layer" v="-1"/>
    <tag k="name" v="East Goulburn No. 17 Channel"/>
    <tag k="source" v="nearmap"/>
    <tag k="tunnel" v="yes"/>
    <tag k="waterway" v="canal"/>
  </way>
  <way id="50590862" version="1" timestamp="2010-02-17T21:54:51Z" uid="115684" user="jVviJ11dNx" changeset="3904972">
    <nd ref="643905581"/>
    <nd ref="643905551"/>
    <tag k="layer" v="-1"/>
    <tag k="name" v="East Goulburn No. 17 Channel"/>
    <tag k="source" v="nearmap"/>
    <tag k="waterway" v="canal"/>
  </way>
  <way id="50590863" version="1" timestamp="2010-02-17T21:54:51Z" uid="115684" user="jVviJ11dNx" changeset="3904972">
    <nd ref="643905576"/>
    <nd ref="643905574"/>
    <tag k="layer" v="-1"/>
    <tag k="name" v="East Goulburn No. 17 Channel"/>
    <tag k="source" v="nearmap"/>
    <tag k="waterway" v="canal"/>
  </way>
  <way id="50590865" version="1" timestamp="2010-02-17T21:54:51Z" uid="115684" user="jVviJ11dNx" changeset="3904972">
    <nd ref="643905574"/>
    <nd ref="643905579"/>
    <tag k="layer" v="-1"/>
    <tag k="name" v="East Goulburn No. 17 Channel"/>
    <tag k="source" v="nearmap"/>
    <tag k="tunnel" v="yes"/>
    <tag k="waterway" v="canal"/>
  </way>
  <way id="50590866" version="1" timestamp="2010-02-17T21:54:51Z" uid="115684" user="jVviJ11dNx" changeset="3904972">
    <nd ref="643905579"/>
    <nd ref="643905592"/>
    <tag k="layer" v="-1"/>
    <tag k="name" v="East Goulburn No. 17 Channel"/>
    <tag k="source" v="nearmap"/>
    <tag k="waterway" v="canal"/>
  </way>
  <way id="50590868" version="1" timestamp="2010-02-17T21:54:51Z" uid="115684" user="jVviJ11dNx" changeset="3904972">
    <nd ref="643905624"/>
    <nd ref="643905626"/>
    <tag k="layer" v="-1"/>
    <tag k="name" v="East Goulburn No. 17 Channel"/>
    <tag k="source" v="nearmap"/>
    <tag k="tunnel" v="yes"/>
    <tag k="waterway" v="canal"/>
  </way>
  <way id="50590869" version="1" timestamp="2010-02-17T21:54:51Z" uid="115684" user="jVviJ11dNx" changeset="3904972">
    <nd ref="643905620"/>
    <nd ref="643905613"/>
    <tag k="layer" v="-1"/>
    <tag k="name" v="East Goulburn No. 17 Channel"/>
    <tag k="source" v="nearmap"/>
    <tag k="tunnel" v="yes"/>
    <tag k="waterway" v="canal"/>
  </way>
  <way id="50590870" version="1" timestamp="2010-02-17T21:54:51Z" uid="115684" user="jVviJ11dNx" changeset="3904972">
    <nd ref="643905613"/>
    <nd ref="643905621"/>
    <nd ref="643905624"/>
    <tag k="layer" v="-1"/>
    <tag k="name" v="East Goulburn No. 17 Channel"/>
    <tag k="source" v="nearmap"/>
    <tag k="waterway" v="canal"/>
  </way>
  <way id="50590872" version="1" timestamp="2010-02-17T21:54:51Z" uid="115684" user="jVviJ11dNx" changeset="3904972">
    <nd ref="643905618"/>
    <nd ref="643905606"/>
    <tag k="layer" v="-1"/>
    <tag k="name" v="East Goulburn No. 17 Channel"/>
    <tag k="source" v="nearmap"/>
    <tag k="tunnel" v="yes"/>
    <tag k="waterway" v="canal"/>
  </way>
  <way id="50590873" version="1" timestamp="2010-02-17T21:54:51Z" uid="115684" user="jVviJ11dNx" changeset="3904972">
    <nd ref="643905606"/>
    <nd ref="643905611"/>
    <nd ref="643905623"/>
    <nd ref="643905615"/>
    <nd ref="643905608"/>
    <nd ref="643905620"/>
    <tag k="layer" v="-1"/>
    <tag k="name" v="East Goulburn No. 17 Channel"/>
    <tag k="source" v="nearmap"/>
    <tag k="waterway" v="canal"/>
  </way>
  <way id="50590877" version="1" timestamp="2010-02-17T21:54:52Z" uid="115684" user="jVviJ11dNx" changeset="3904972">
    <nd ref="643905632"/>
    <nd ref="643905634"/>
    <tag k="layer" v="-1"/>
    <tag k="name" v="East Goulburn No. 17 Channel"/>
    <tag k="source" v="nearmap"/>
    <tag k="tunnel" v="yes"/>
    <tag k="waterway" v="canal"/>
  </way>
  <way id="50590878" version="1" timestamp="2010-02-17T21:54:52Z" uid="115684" user="jVviJ11dNx" changeset="3904972">
    <nd ref="643905634"/>
    <nd ref="643905618"/>
    <tag k="layer" v="-1"/>
    <tag k="name" v="East Goulburn No. 17 Channel"/>
    <tag k="source" v="nearmap"/>
    <tag k="waterway" v="canal"/>
  </way>
  <way id="50590880" version="1" timestamp="2010-02-17T21:54:52Z" uid="115684" user="jVviJ11dNx" changeset="3904972">
    <nd ref="643905689"/>
    <nd ref="643905796"/>
    <nd ref="643905798"/>
    <tag k="layer" v="-1"/>
    <tag k="name" v="East Goulburn No. 17 Channel"/>
    <tag k="source" v="nearmap"/>
    <tag k="waterway" v="canal"/>
  </way>
  <way id="50590882" version="1" timestamp="2010-02-17T21:54:52Z" uid="115684" user="jVviJ11dNx" changeset="3904972">
    <nd ref="643905880"/>
    <nd ref="643905893"/>
    <nd ref="643905875"/>
    <nd ref="643905635"/>
    <nd ref="643905638"/>
    <tag k="layer" v="-1"/>
    <tag k="name" v="East Goulburn No. 17 Channel"/>
    <tag k="source" v="nearmap"/>
    <tag k="waterway" v="canal"/>
  </way>
  <way id="50590883" version="1" timestamp="2010-02-17T21:54:52Z" uid="115684" user="jVviJ11dNx" changeset="3904972">
    <nd ref="643905647"/>
    <nd ref="643905684"/>
    <nd ref="643905686"/>
    <tag k="layer" v="-1"/>
    <tag k="name" v="East Goulburn No. 17 Channel"/>
    <tag k="source" v="nearmap"/>
    <tag k="waterway" v="canal"/>
  </way>
  <way id="50590885" version="1" timestamp="2010-02-17T21:54:52Z" uid="115684" user="jVviJ11dNx" changeset="3904972">
    <nd ref="643905662"/>
    <nd ref="643905647"/>
    <tag k="layer" v="-1"/>
    <tag k="name" v="East Goulburn No. 17 Channel"/>
    <tag k="source" v="nearmap"/>
    <tag k="tunnel" v="yes"/>
    <tag k="waterway" v="canal"/>
  </way>
  <way id="50590887" version="1" timestamp="2010-02-17T21:54:52Z" uid="115684" user="jVviJ11dNx" changeset="3904972">
    <nd ref="643905640"/>
    <nd ref="643905644"/>
    <tag k="layer" v="-1"/>
    <tag k="name" v="East Goulburn No. 17 Channel"/>
    <tag k="source" v="nearmap"/>
    <tag k="tunnel" v="yes"/>
    <tag k="waterway" v="canal"/>
  </way>
  <way id="50590888" version="1" timestamp="2010-02-17T21:54:52Z" uid="115684" user="jVviJ11dNx" changeset="3904972">
    <nd ref="643905644"/>
    <nd ref="643905658"/>
    <nd ref="643905662"/>
    <tag k="layer" v="-1"/>
    <tag k="name" v="East Goulburn No. 17 Channel"/>
    <tag k="source" v="nearmap"/>
    <tag k="waterway" v="canal"/>
  </way>
  <way id="50590890" version="1" timestamp="2010-02-17T21:54:53Z" uid="115684" user="jVviJ11dNx" changeset="3904972">
    <nd ref="643905638"/>
    <nd ref="643905642"/>
    <tag k="layer" v="-1"/>
    <tag k="name" v="East Goulburn No. 17 Channel"/>
    <tag k="source" v="nearmap"/>
    <tag k="tunnel" v="yes"/>
    <tag k="waterway" v="canal"/>
  </way>
  <way id="50590892" version="1" timestamp="2010-02-17T21:54:53Z" uid="115684" user="jVviJ11dNx" changeset="3904972">
    <nd ref="643905642"/>
    <nd ref="643905640"/>
    <tag k="layer" v="-1"/>
    <tag k="name" v="East Goulburn No. 17 Channel"/>
    <tag k="source" v="nearmap"/>
    <tag k="waterway" v="canal"/>
  </way>
  <way id="50590894" version="1" timestamp="2010-02-17T21:54:53Z" uid="115684" user="jVviJ11dNx" changeset="3904972">
    <nd ref="643905694"/>
    <nd ref="643905689"/>
    <tag k="layer" v="-1"/>
    <tag k="name" v="East Goulburn No. 17 Channel"/>
    <tag k="source" v="nearmap"/>
    <tag k="tunnel" v="yes"/>
    <tag k="waterway" v="canal"/>
  </way>
  <way id="50590895" version="1" timestamp="2010-02-17T21:54:53Z" uid="115684" user="jVviJ11dNx" changeset="3904972">
    <nd ref="643905699"/>
    <nd ref="643905692"/>
    <tag k="layer" v="-1"/>
    <tag k="name" v="East Goulburn No. 17 Channel"/>
    <tag k="source" v="nearmap"/>
    <tag k="tunnel" v="yes"/>
    <tag k="waterway" v="canal"/>
  </way>
  <way id="50590897" version="1" timestamp="2010-02-17T21:54:53Z" uid="115684" user="jVviJ11dNx" changeset="3904972">
    <nd ref="643905692"/>
    <nd ref="643905694"/>
    <tag k="layer" v="-1"/>
    <tag k="name" v="East Goulburn No. 17 Channel"/>
    <tag k="source" v="nearmap"/>
    <tag k="waterway" v="canal"/>
  </way>
  <way id="50590899" version="1" timestamp="2010-02-17T21:54:53Z" uid="115684" user="jVviJ11dNx" changeset="3904972">
    <nd ref="643905704"/>
    <nd ref="643905697"/>
    <tag k="layer" v="-1"/>
    <tag k="name" v="East Goulburn No. 17 Channel"/>
    <tag k="source" v="nearmap"/>
    <tag k="tunnel" v="yes"/>
    <tag k="waterway" v="canal"/>
  </way>
  <way id="50590900" version="1" timestamp="2010-02-17T21:54:53Z" uid="115684" user="jVviJ11dNx" changeset="3904972">
    <nd ref="643905697"/>
    <nd ref="643905699"/>
    <tag k="layer" v="-1"/>
    <tag k="name" v="East Goulburn No. 17 Channel"/>
    <tag k="source" v="nearmap"/>
    <tag k="waterway" v="canal"/>
  </way>
  <way id="50590903" version="1" timestamp="2010-02-17T21:54:54Z" uid="115684" user="jVviJ11dNx" changeset="3904972">
    <nd ref="643905674"/>
    <nd ref="643905672"/>
    <tag k="layer" v="-1"/>
    <tag k="name" v="East Goulburn No. 17 Channel"/>
    <tag k="source" v="nearmap"/>
    <tag k="tunnel" v="yes"/>
    <tag k="waterway" v="canal"/>
  </way>
  <way id="50590906" version="1" timestamp="2010-02-17T21:54:54Z" uid="115684" user="jVviJ11dNx" changeset="3904972">
    <nd ref="643905672"/>
    <nd ref="643905664"/>
    <nd ref="643905667"/>
    <nd ref="643905669"/>
    <nd ref="643905701"/>
    <nd ref="643905704"/>
    <tag k="layer" v="-1"/>
    <tag k="name" v="East Goulburn No. 17 Channel"/>
    <tag k="source" v="nearmap"/>
    <tag k="waterway" v="canal"/>
  </way>
  <way id="50590908" version="1" timestamp="2010-02-17T21:54:54Z" uid="115684" user="jVviJ11dNx" changeset="3904972">
    <nd ref="643905686"/>
    <nd ref="643905676"/>
    <tag k="layer" v="-1"/>
    <tag k="name" v="East Goulburn No. 17 Channel"/>
    <tag k="source" v="nearmap"/>
    <tag k="tunnel" v="yes"/>
    <tag k="waterway" v="canal"/>
  </way>
  <way id="50590909" version="1" timestamp="2010-02-17T21:54:54Z" uid="115684" user="jVviJ11dNx" changeset="3904972">
    <nd ref="643905676"/>
    <nd ref="643905679"/>
    <nd ref="643905681"/>
    <nd ref="643905674"/>
    <tag k="layer" v="-1"/>
    <tag k="name" v="East Goulburn No. 17 Channel"/>
    <tag k="source" v="nearmap"/>
    <tag k="waterway" v="canal"/>
  </way>
  <way id="50590910" version="1" timestamp="2010-02-17T21:54:54Z" uid="115684" user="jVviJ11dNx" changeset="3904972">
    <nd ref="643905783"/>
    <nd ref="643905786"/>
    <nd ref="643905788"/>
    <nd ref="643905706"/>
    <nd ref="643905709"/>
    <tag k="layer" v="-1"/>
    <tag k="name" v="East Goulburn No. 17 Channel"/>
    <tag k="source" v="nearmap"/>
    <tag k="waterway" v="canal"/>
  </way>
  <way id="50590912" version="1" timestamp="2010-02-17T21:54:54Z" uid="115684" user="jVviJ11dNx" changeset="3904972">
    <nd ref="643905740"/>
    <nd ref="643905743"/>
    <tag k="layer" v="-1"/>
    <tag k="name" v="East Goulburn No. 17 Channel"/>
    <tag k="source" v="nearmap"/>
    <tag k="tunnel" v="yes"/>
    <tag k="waterway" v="canal"/>
  </way>
  <way id="50590914" version="1" timestamp="2010-02-17T21:54:54Z" uid="115684" user="jVviJ11dNx" changeset="3904972">
    <nd ref="643905743"/>
    <nd ref="643905745"/>
    <nd ref="643905747"/>
    <nd ref="643905750"/>
    <nd ref="643905753"/>
    <tag k="layer" v="-1"/>
    <tag k="name" v="East Goulburn No. 17 Channel"/>
    <tag k="source" v="nearmap"/>
    <tag k="waterway" v="canal"/>
  </way>
  <way id="50590915" version="1" timestamp="2010-02-17T21:54:54Z" uid="115684" user="jVviJ11dNx" changeset="3904972">
    <nd ref="643905723"/>
    <nd ref="643905733"/>
    <tag k="layer" v="-1"/>
    <tag k="name" v="East Goulburn No. 17 Channel"/>
    <tag k="source" v="nearmap"/>
    <tag k="tunnel" v="yes"/>
    <tag k="waterway" v="canal"/>
  </way>
  <way id="50590916" version="1" timestamp="2010-02-17T21:54:54Z" uid="115684" user="jVviJ11dNx" changeset="3904972">
    <nd ref="643905733"/>
    <nd ref="643905736"/>
    <nd ref="643905738"/>
    <nd ref="643905754"/>
    <nd ref="643905756"/>
    <nd ref="643905740"/>
    <tag k="layer" v="-1"/>
    <tag k="name" v="East Goulburn No. 17 Channel"/>
    <tag k="source" v="nearmap"/>
    <tag k="waterway" v="canal"/>
  </way>
  <way id="50590918" version="1" timestamp="2010-02-17T21:54:54Z" uid="115684" user="jVviJ11dNx" changeset="3904972">
    <nd ref="643905719"/>
    <nd ref="643905721"/>
    <tag k="layer" v="-1"/>
    <tag k="name" v="East Goulburn No. 17 Channel"/>
    <tag k="source" v="nearmap"/>
    <tag k="tunnel" v="yes"/>
    <tag k="waterway" v="canal"/>
  </way>
  <way id="50590920" version="1" timestamp="2010-02-17T21:54:55Z" uid="115684" user="jVviJ11dNx" changeset="3904972">
    <nd ref="643905721"/>
    <nd ref="643905723"/>
    <tag k="layer" v="-1"/>
    <tag k="name" v="East Goulburn No. 17 Channel"/>
    <tag k="source" v="nearmap"/>
    <tag k="waterway" v="canal"/>
  </way>
  <way id="50590921" version="1" timestamp="2010-02-17T21:54:55Z" uid="115684" user="jVviJ11dNx" changeset="3904972">
    <nd ref="643905713"/>
    <nd ref="643905715"/>
    <tag k="layer" v="-1"/>
    <tag k="name" v="East Goulburn No. 17 Channel"/>
    <tag k="source" v="nearmap"/>
    <tag k="tunnel" v="yes"/>
    <tag k="waterway" v="canal"/>
  </way>
  <way id="50590923" version="1" timestamp="2010-02-17T21:54:55Z" uid="115684" user="jVviJ11dNx" changeset="3904972">
    <nd ref="643905715"/>
    <nd ref="643905717"/>
    <nd ref="643905719"/>
    <tag k="layer" v="-1"/>
    <tag k="name" v="East Goulburn No. 17 Channel"/>
    <tag k="source" v="nearmap"/>
    <tag k="waterway" v="canal"/>
  </way>
  <way id="50590924" version="1" timestamp="2010-02-17T21:54:55Z" uid="115684" user="jVviJ11dNx" changeset="3904972">
    <nd ref="643905709"/>
    <nd ref="643905711"/>
    <tag k="layer" v="-1"/>
    <tag k="name" v="East Goulburn No. 17 Channel"/>
    <tag k="source" v="nearmap"/>
    <tag k="waterway" v="canal"/>
  </way>
  <way id="50590928" version="1" timestamp="2010-02-17T21:54:55Z" uid="115684" user="jVviJ11dNx" changeset="3904972">
    <nd ref="643905711"/>
    <nd ref="643905713"/>
    <tag k="layer" v="-1"/>
    <tag k="name" v="East Goulburn No. 17 Channel"/>
    <tag k="source" v="nearmap"/>
    <tag k="waterway" v="canal"/>
  </way>
  <way id="50590930" version="1" timestamp="2010-02-17T21:54:55Z" uid="115684" user="jVviJ11dNx" changeset="3904972">
    <nd ref="643905781"/>
    <nd ref="643905783"/>
    <tag k="layer" v="-1"/>
    <tag k="name" v="East Goulburn No. 17 Channel"/>
    <tag k="source" v="nearmap"/>
    <tag k="tunnel" v="yes"/>
    <tag k="waterway" v="canal"/>
  </way>
  <way id="50590931" version="1" timestamp="2010-02-17T21:54:55Z" uid="115684" user="jVviJ11dNx" changeset="3904972">
    <nd ref="643905764"/>
    <nd ref="643905766"/>
    <tag k="layer" v="-1"/>
    <tag k="name" v="East Goulburn No. 17 Channel"/>
    <tag k="source" v="nearmap"/>
    <tag k="tunnel" v="yes"/>
    <tag k="waterway" v="canal"/>
  </way>
  <way id="50590932" version="1" timestamp="2010-02-17T21:54:55Z" uid="115684" user="jVviJ11dNx" changeset="3904972">
    <nd ref="643905766"/>
    <nd ref="643905768"/>
    <nd ref="643905772"/>
    <nd ref="643905774"/>
    <nd ref="643905776"/>
    <nd ref="643905790"/>
    <nd ref="643905793"/>
    <nd ref="643905779"/>
    <nd ref="643905781"/>
    <tag k="layer" v="-1"/>
    <tag k="name" v="East Goulburn No. 17 Channel"/>
    <tag k="source" v="nearmap"/>
    <tag k="waterway" v="canal"/>
  </way>
  <way id="50590934" version="1" timestamp="2010-02-17T21:54:55Z" uid="115684" user="jVviJ11dNx" changeset="3904972">
    <nd ref="643905832"/>
    <nd ref="643905835"/>
    <tag k="layer" v="-1"/>
    <tag k="name" v="East Goulburn No. 17 Channel"/>
    <tag k="source" v="nearmap"/>
    <tag k="tunnel" v="yes"/>
    <tag k="waterway" v="canal"/>
  </way>
  <way id="50590935" version="1" timestamp="2010-02-17T21:54:56Z" uid="115684" user="jVviJ11dNx" changeset="3904972">
    <nd ref="643905835"/>
    <nd ref="643905759"/>
    <nd ref="643905761"/>
    <nd ref="643905764"/>
    <tag k="layer" v="-1"/>
    <tag k="name" v="East Goulburn No. 17 Channel"/>
    <tag k="source" v="nearmap"/>
    <tag k="waterway" v="canal"/>
  </way>
  <way id="50590938" version="1" timestamp="2010-02-17T21:54:56Z" uid="115684" user="jVviJ11dNx" changeset="3904972">
    <nd ref="643905818"/>
    <nd ref="643905821"/>
    <tag k="layer" v="-1"/>
    <tag k="name" v="East Goulburn No. 17 Channel"/>
    <tag k="source" v="nearmap"/>
    <tag k="tunnel" v="yes"/>
    <tag k="waterway" v="canal"/>
  </way>
  <way id="50590939" version="1" timestamp="2010-02-17T21:54:56Z" uid="115684" user="jVviJ11dNx" changeset="3904972">
    <nd ref="643905821"/>
    <nd ref="643905823"/>
    <nd ref="643905826"/>
    <nd ref="643905829"/>
    <nd ref="643905832"/>
    <tag k="layer" v="-1"/>
    <tag k="name" v="East Goulburn No. 17 Channel"/>
    <tag k="source" v="nearmap"/>
    <tag k="waterway" v="canal"/>
  </way>
  <way id="50590941" version="1" timestamp="2010-02-17T21:54:56Z" uid="115684" user="jVviJ11dNx" changeset="3904972">
    <nd ref="643905798"/>
    <nd ref="643905802"/>
    <tag k="layer" v="-1"/>
    <tag k="name" v="East Goulburn No. 17 Channel"/>
    <tag k="source" v="nearmap"/>
    <tag k="tunnel" v="yes"/>
    <tag k="waterway" v="canal"/>
  </way>
  <way id="50590942" version="1" timestamp="2010-02-17T21:54:56Z" uid="115684" user="jVviJ11dNx" changeset="3904972">
    <nd ref="643905802"/>
    <nd ref="643905810"/>
    <nd ref="643905813"/>
    <nd ref="643905814"/>
    <nd ref="643905816"/>
    <nd ref="643905818"/>
    <tag k="layer" v="-1"/>
    <tag k="name" v="East Goulburn No. 17 Channel"/>
    <tag k="source" v="nearmap"/>
    <tag k="waterway" v="canal"/>
  </way>
  <way id="50590943" version="1" timestamp="2010-02-17T21:54:56Z" uid="115684" user="jVviJ11dNx" changeset="3904972">
    <nd ref="643905844"/>
    <nd ref="643905847"/>
    <tag k="bridge" v="yes"/>
    <tag k="highway" v="unclassified"/>
    <tag k="layer" v="1"/>
    <tag k="source" v="nearmap"/>
  </way>
  <way id="50590945" version="1" timestamp="2010-02-17T21:54:56Z" uid="115684" user="jVviJ11dNx" changeset="3904972">
    <nd ref="643905847"/>
    <nd ref="639426398"/>
    <nd ref="639426391"/>
    <nd ref="270455739"/>
    <tag k="highway" v="unclassified"/>
    <tag k="source" v="nearmap"/>
  </way>
  <way id="50590945" version="2" timestamp="2010-02-20T11:53:27Z" uid="115684" user="jVviJ11dNx" changeset="3922655">
    <nd ref="643905847"/>
    <nd ref="639426398"/>
    <nd ref="639426391"/>
    <nd ref="647982054"/>
    <tag k="highway" v="unclassified"/>
    <tag k="source" v="nearmap"/>
  </way>
  <way id="50590947" version="1" timestamp="2010-02-17T21:54:56Z" uid="115684" user="jVviJ11dNx" changeset="3904972">
    <nd ref="643905877"/>
    <nd ref="643905880"/>
    <tag k="layer" v="-1"/>
    <tag k="name" v="East Goulburn No. 17 Channel"/>
    <tag k="source" v="nearmap"/>
    <tag k="tunnel" v="yes"/>
    <tag k="waterway" v="canal"/>
  </way>
  <way id="50590949" version="1" timestamp="2010-02-17T21:54:56Z" uid="115684" user="jVviJ11dNx" changeset="3904972">
    <nd ref="643905837"/>
    <nd ref="643905850"/>
    <tag k="layer" v="-1"/>
    <tag k="name" v="East Goulburn No. 17 Channel"/>
    <tag k="source" v="nearmap"/>
    <tag k="tunnel" v="yes"/>
    <tag k="waterway" v="canal"/>
  </way>
  <way id="50590952" version="1" timestamp="2010-02-17T21:54:57Z" uid="115684" user="jVviJ11dNx" changeset="3904972">
    <nd ref="643905850"/>
    <nd ref="643905853"/>
    <nd ref="643905877"/>
    <tag k="layer" v="-1"/>
    <tag k="name" v="East Goulburn No. 17 Channel"/>
    <tag k="source" v="nearmap"/>
    <tag k="waterway" v="canal"/>
  </way>
  <way id="50590955" version="1" timestamp="2010-02-17T21:54:57Z" uid="115684" user="jVviJ11dNx" changeset="3904972">
    <nd ref="643905855"/>
    <nd ref="643905867"/>
    <tag k="layer" v="-1"/>
    <tag k="name" v="East Goulburn No. 17 Channel"/>
    <tag k="source" v="nearmap"/>
    <tag k="tunnel" v="yes"/>
    <tag k="waterway" v="canal"/>
  </way>
  <way id="50590956" version="1" timestamp="2010-02-17T21:54:57Z" uid="115684" user="jVviJ11dNx" changeset="3904972">
    <nd ref="643905867"/>
    <nd ref="643905861"/>
    <nd ref="643905866"/>
    <nd ref="643905873"/>
    <nd ref="643905870"/>
    <nd ref="643905841"/>
    <nd ref="643905837"/>
    <tag k="layer" v="-1"/>
    <tag k="name" v="East Goulburn No. 17 Channel"/>
    <tag k="source" v="nearmap"/>
    <tag k="waterway" v="canal"/>
  </way>
  <way id="50590957" version="1" timestamp="2010-02-17T21:54:57Z" uid="115684" user="jVviJ11dNx" changeset="3904972">
    <nd ref="643905900"/>
    <nd ref="643905896"/>
    <tag k="layer" v="-1"/>
    <tag k="name" v="East Goulburn No. 17 Channel"/>
    <tag k="source" v="nearmap"/>
    <tag k="tunnel" v="yes"/>
    <tag k="waterway" v="canal"/>
  </way>
  <way id="50590959" version="1" timestamp="2010-02-17T21:54:57Z" uid="115684" user="jVviJ11dNx" changeset="3904972">
    <nd ref="643905896"/>
    <nd ref="643905858"/>
    <nd ref="643905863"/>
    <nd ref="643905855"/>
    <tag k="layer" v="-1"/>
    <tag k="name" v="East Goulburn No. 17 Channel"/>
    <tag k="source" v="nearmap"/>
    <tag k="waterway" v="canal"/>
  </way>
  <way id="50590961" version="1" timestamp="2010-02-17T21:54:57Z" uid="115684" user="jVviJ11dNx" changeset="3904972">
    <nd ref="643905905"/>
    <nd ref="147643721"/>
    <nd ref="640114642"/>
    <nd ref="640912390"/>
    <tag k="highway" v="primary"/>
  </way>
  <way id="50590961" version="2" timestamp="2010-02-25T04:22:16Z" uid="9719" user="dvaey" changeset="3968747">
    <nd ref="643905902"/>
    <nd ref="643905905"/>
    <nd ref="147643721"/>
    <nd ref="640114642"/>
    <nd ref="640912390"/>
    <tag k="highway" v="primary"/>
    <tag k="source" v="nearmap"/>
  </way>
  <way id="50590961" version="3" timestamp="2010-03-28T05:09:42Z" uid="115684" user="jVviJ11dNx" changeset="4252842"/>
  <way id="50590963" version="1" timestamp="2010-02-17T21:54:57Z" uid="115684" user="jVviJ11dNx" changeset="3904972">
    <nd ref="643905902"/>
    <nd ref="643905905"/>
    <tag k="bridge" v="yes"/>
    <tag k="highway" v="primary"/>
    <tag k="layer" v="1"/>
    <tag k="source" v="nearmap"/>
  </way>
  <way id="50590963" version="2" timestamp="2010-02-25T04:22:11Z" uid="9719" user="dvaey" changeset="3968747"/>
</osm>
