<?xml version='1.0' encoding='UTF-8'?>
<osm version="0.6" generator="libosmium/2.20.0">
  <way id="50732038" version="1" timestamp="2010-02-19T13:31:40Z" uid="171838" user="argrath" changeset="3915584">
    <nd ref="538181052"/>
    <nd ref="506588026"/>
    <nd ref="506588037"/>
    <nd ref="506588047"/>
    <tag k="highway" v="unclassified"/>
    <tag k="oneway" v="yes"/>
  </way>
  <way id="50732039" version="1" timestamp="2010-02-19T13:31:41Z" uid="171838" user="argrath" changeset="3915584">
    <nd ref="505083087"/>
    <nd ref="505083091"/>
    <tag k="bridge" v="yes"/>
    <tag k="highway" v="unclassified"/>
  </way>
  <way id="50732040" version="1" timestamp="2010-02-19T13:31:42Z" uid="171838" user="argrath" changeset="3915584">
    <nd ref="505083112"/>
    <nd ref="505083098"/>
    <nd ref="505083103"/>
    <tag k="highway" v="unclassified"/>
    <tag k="oneway" v="yes"/>
  </way>
  <way id="50732138" version="4" timestamp="2011-03-08T02:38:03Z" uid="4467" user="Rosscoe" changeset="7490806">
    <nd ref="253739667"/>
    <nd ref="253739668"/>
    <nd ref="706974767"/>
    <nd ref="646742398"/>
    <tag k="highway" v="service"/>
    <tag k="oneway" v="yes"/>
    <tag k="service" v="driveway"/>
  </way>
  <way id="50732142" version="6" timestamp="2011-03-08T02:39:18Z" uid="4467" user="Rosscoe" changeset="7490806"/>
  <way id="50732312" version="2" timestamp="2010-03-07T10:58:30Z" uid="58091" user="Andreas M" changeset="4059582">
    <nd ref="332892113"/>
    <nd ref="332892115"/>
    <nd ref="332892116"/>
    <nd ref="332891974"/>
    <nd ref="332892117"/>
    <nd ref="332892088"/>
    <tag k="fixme" v="check import"/>
    <tag k="highway" v="residential"/>
    <tag k="is_in:city" v="Unterretzbach"/>
    <tag k="is_in:country_code" v="AT"/>
    <tag k="name" v="Retzer Weg"/>
    <tag k="postal_code" v="2074"/>
    <tag k="source" v="plan.at 2009"/>
  </way>
  <way id="50732313" version="2" timestamp="2010-03-07T10:58:33Z" uid="58091" user="Andreas M" changeset="4059582">
    <nd ref="646743935"/>
    <nd ref="332891677"/>
    <nd ref="498459965"/>
    <nd ref="332891683"/>
    <nd ref="332891684"/>
    <nd ref="332891685"/>
    <nd ref="581065212"/>
    <tag k="fixme" v="check import"/>
    <tag k="highway" v="tertiary"/>
    <tag k="is_in:city" v="Unterretzbach"/>
    <tag k="is_in:country_code" v="AT"/>
    <tag k="name" v="BahnstraÃŸe"/>
    <tag k="postal_code" v="2074"/>
    <tag k="ref" v="L1032"/>
  </way>
  <way id="50732684" version="1" timestamp="2010-02-19T14:02:55Z" uid="17602" user="B10xyz" changeset="3915806">
    <nd ref="646747804"/>
    <nd ref="251838297"/>
    <nd ref="251838298"/>
    <tag k="highway" v="footway"/>
  </way>
  <way id="50732721" version="2" timestamp="2010-04-23T02:32:46Z" uid="4467" user="Rosscoe" changeset="4500275">
    <nd ref="646748231"/>
    <nd ref="202422822"/>
    <nd ref="704213962"/>
    <tag k="cycleway" v="yes"/>
    <tag k="highway" v="primary"/>
    <tag k="maxspeed" v="60"/>
    <tag k="name" v="Thompson Avenue"/>
    <tag k="ref" v="B420"/>
  </way>
  <way id="50732721" version="3" timestamp="2010-04-23T02:34:44Z" uid="4467" user="Rosscoe" changeset="4500279">
    <nd ref="646748231"/>
    <nd ref="704215154"/>
    <tag k="cycleway" v="yes"/>
    <tag k="highway" v="primary"/>
    <tag k="maxspeed" v="60"/>
    <tag k="name" v="Thompson Avenue"/>
    <tag k="ref" v="B420"/>
  </way>
</osm>
