<?xml version='1.0' encoding='UTF-8'?>
<osm version="0.6" generator="libosmium/2.20.0">
  <way id="51075059" version="1" timestamp="2010-02-23T12:41:39Z" uid="7617" user="Franc" changeset="3953003">
    <nd ref="651510710"/>
    <nd ref="606299676"/>
    <tag k="highway" v="residential"/>
    <tag k="name" v="The Promenade"/>
  </way>
  <way id="51075059" version="2" timestamp="2010-07-07T21:31:23Z" uid="74617" user="JohnSmith" changeset="5161069">
    <nd ref="651510710"/>
    <nd ref="606299676"/>
    <tag k="highway" v="residential"/>
    <tag k="maxspeed" v="50"/>
    <tag k="maxspeed:source" v="default residential speed limit in Australia"/>
    <tag k="name" v="The Promenade"/>
  </way>
  <way id="51075060" version="1" timestamp="2010-02-23T12:41:39Z" uid="7617" user="Franc" changeset="3953003">
    <nd ref="651510709"/>
    <nd ref="59744007"/>
    <nd ref="651510710"/>
    <tag k="highway" v="residential"/>
    <tag k="name" v="The Promenade"/>
    <tag k="restriction" v="school_zone"/>
  </way>
  <way id="51075060" version="2" timestamp="2010-07-07T21:30:32Z" uid="74617" user="JohnSmith" changeset="5161069">
    <nd ref="651510709"/>
    <nd ref="59744007"/>
    <nd ref="651510710"/>
    <tag k="highway" v="residential"/>
    <tag k="maxspeed" v="50"/>
    <tag k="maxspeed:source" v="default residential speed limit in Australia"/>
    <tag k="name" v="The Promenade"/>
    <tag k="restriction" v="school_zone"/>
  </way>
  <way id="51075061" version="1" timestamp="2010-02-23T12:41:39Z" uid="7617" user="Franc" changeset="3953003">
    <nd ref="651510711"/>
    <nd ref="59744008"/>
    <tag k="highway" v="residential"/>
    <tag k="name" v="Broughton Street"/>
  </way>
  <way id="51075061" version="2" timestamp="2010-07-07T21:27:59Z" uid="74617" user="JohnSmith" changeset="5161069">
    <nd ref="651510711"/>
    <nd ref="59744008"/>
    <tag k="highway" v="residential"/>
    <tag k="maxspeed" v="50"/>
    <tag k="maxspeed:source" v="default residential speed limit in Australia"/>
    <tag k="name" v="Broughton Street"/>
  </way>
  <way id="51075062" version="1" timestamp="2010-02-23T12:41:39Z" uid="7617" user="Franc" changeset="3953003">
    <nd ref="651510712"/>
    <nd ref="651510713"/>
    <nd ref="651510714"/>
    <nd ref="651510715"/>
    <nd ref="651510716"/>
    <nd ref="651510712"/>
    <tag k="amenity" v="school"/>
    <tag k="source" v="nearmap"/>
  </way>
  <way id="51075063" version="1" timestamp="2010-02-23T12:41:39Z" uid="7617" user="Franc" changeset="3953003">
    <nd ref="651510732"/>
    <nd ref="651510739"/>
    <tag k="highway" v="footway"/>
    <tag k="source" v="nearmap"/>
  </way>
  <way id="51075090" version="2" timestamp="2010-04-02T17:56:14Z" uid="20587" user="balrog-kun" changeset="4304500">
    <nd ref="37108237"/>
    <nd ref="37108242"/>
    <tag k="highway" v="residential"/>
    <tag k="name" v="Diablo Street"/>
    <tag k="tiger:cfcc" v="A41"/>
    <tag k="tiger:county" v="Whatcom, WA"/>
    <tag k="tiger:name_base" v="Diablo"/>
    <tag k="tiger:name_type" v="St"/>
    <tag k="tiger:reviewed" v="no"/>
    <tag k="tiger:separated" v="no"/>
    <tag k="tiger:source" v="tiger_import_dch_v0.6_20070829"/>
    <tag k="tiger:tlid" v="183757025:183757030:183757031:183757036:183757041"/>
  </way>
</osm>
