<?xml version='1.0' encoding='UTF-8'?>
<osm version="0.6" generator="libosmium/2.20.0">
  <way id="51179166" version="2" timestamp="2010-04-06T14:52:27Z" uid="20587" user="balrog-kun" changeset="4342997">
    <nd ref="652846993"/>
    <nd ref="122543099"/>
    <nd ref="122543096"/>
    <nd ref="122543092"/>
    <nd ref="122543089"/>
    <nd ref="122543086"/>
    <nd ref="122543083"/>
    <nd ref="122543078"/>
    <nd ref="122543074"/>
    <nd ref="122242686"/>
    <nd ref="122543071"/>
    <nd ref="122210724"/>
    <nd ref="122543069"/>
    <nd ref="122543066"/>
    <nd ref="122543064"/>
    <nd ref="122300956"/>
    <nd ref="122300921"/>
    <nd ref="122300967"/>
    <nd ref="122331842"/>
    <nd ref="122543062"/>
    <nd ref="122542924"/>
    <tag k="highway" v="secondary"/>
    <tag k="name" v="Southeast Boulevard"/>
    <tag k="name_1" v="State Highway 15"/>
    <tag k="name_2" v="South State Highway K-15"/>
    <tag k="name_3" v="South Southeast Boulevard"/>
    <tag k="oneway" v="yes"/>
    <tag k="ref" v="15"/>
    <tag k="tiger:cfcc" v="A35"/>
    <tag k="tiger:county" v="Sedgwick, KS"/>
    <tag k="tiger:name_base" v="Southeast"/>
    <tag k="tiger:name_base_1" v="State Highway 15"/>
    <tag k="tiger:name_base_2" v="St Hwy K-15"/>
    <tag k="tiger:name_base_3" v="Southeast"/>
    <tag k="tiger:name_direction_prefix_2" v="S"/>
    <tag k="tiger:name_direction_prefix_3" v="S"/>
    <tag k="tiger:name_type" v="Blvd"/>
    <tag k="tiger:name_type_3" v="Blvd"/>
    <tag k="tiger:reviewed" v="no"/>
    <tag k="tiger:separated" v="yes"/>
    <tag k="tiger:source" v="tiger_import_dch_v0.6_20070812"/>
    <tag k="tiger:tlid" v="115708386:115662940:115697026:115675201:115675202:115683829:115683830:115649498:115662942"/>
    <tag k="tiger:zip_left" v="67216"/>
    <tag k="tiger:zip_left_1" v="67216"/>
  </way>
  <way id="51179188" version="4" timestamp="2010-04-06T14:52:28Z" uid="20587" user="balrog-kun" changeset="4342997">
    <nd ref="122244548"/>
    <nd ref="122244538"/>
    <tag k="bridge" v="yes"/>
    <tag k="highway" v="secondary"/>
    <tag k="layer" v="1"/>
    <tag k="name" v="South K-15 Highway"/>
    <tag k="name_1" v="State Highway 15"/>
    <tag k="oneway" v="yes"/>
    <tag k="ref" v="15"/>
    <tag k="tiger:cfcc" v="A35"/>
    <tag k="tiger:county" v="Sedgwick, KS"/>
    <tag k="tiger:name_base" v="K-15"/>
    <tag k="tiger:name_base_1" v="State Highway 15"/>
    <tag k="tiger:name_direction_prefix" v="S"/>
    <tag k="tiger:name_type" v="Hwy"/>
    <tag k="tiger:reviewed" v="aerial"/>
    <tag k="tiger:separated" v="yes"/>
    <tag k="tiger:source" v="tiger_import_dch_v0.6_20070812"/>
    <tag k="tiger:tlid" v="115708414:115708416:115708418:115708419:115691567:115708388:115686868:115686871"/>
    <tag k="tiger:zip_left" v="67216"/>
  </way>
  <way id="51179189" version="2" timestamp="2010-07-08T18:09:32Z" uid="74617" user="JohnSmith" changeset="5167338">
    <nd ref="652847085"/>
    <nd ref="652847086"/>
    <nd ref="652847087"/>
    <nd ref="652847084"/>
    <tag k="highway" v="residential"/>
    <tag k="maxspeed" v="50"/>
    <tag k="maxspeed:source" v="default residential speed limit in Australia"/>
    <tag k="name" v="Illaroo Street"/>
  </way>
  <way id="51179190" version="2" timestamp="2010-07-08T18:08:09Z" uid="74617" user="JohnSmith" changeset="5167338">
    <nd ref="652847088"/>
    <nd ref="652847089"/>
    <nd ref="652847087"/>
    <tag k="highway" v="residential"/>
    <tag k="maxspeed" v="50"/>
    <tag k="maxspeed:source" v="default residential speed limit in Australia"/>
    <tag k="name" v="Kolinda Crescent"/>
  </way>
  <way id="51179191" version="2" timestamp="2010-04-06T14:52:28Z" uid="20587" user="balrog-kun" changeset="4342997">
    <nd ref="122244538"/>
    <nd ref="122244535"/>
    <nd ref="122244532"/>
    <nd ref="122329054"/>
    <nd ref="122244526"/>
    <nd ref="122244522"/>
    <tag k="highway" v="secondary"/>
    <tag k="name" v="South K-15 Highway"/>
    <tag k="name_1" v="State Highway 15"/>
    <tag k="oneway" v="yes"/>
    <tag k="ref" v="15"/>
    <tag k="tiger:cfcc" v="A35"/>
    <tag k="tiger:county" v="Sedgwick, KS"/>
    <tag k="tiger:name_base" v="K-15"/>
    <tag k="tiger:name_base_1" v="State Highway 15"/>
    <tag k="tiger:name_direction_prefix" v="S"/>
    <tag k="tiger:name_type" v="Hwy"/>
    <tag k="tiger:reviewed" v="no"/>
    <tag k="tiger:separated" v="yes"/>
    <tag k="tiger:source" v="tiger_import_dch_v0.6_20070812"/>
    <tag k="tiger:tlid" v="115708414:115708416:115708418:115708419:115691567:115708388:115686868:115686871"/>
    <tag k="tiger:zip_left" v="67216"/>
  </way>
  <way id="51179704" version="1" timestamp="2010-02-24T22:12:45Z" uid="59758" user="rendle" changeset="3967282">
    <nd ref="295981990"/>
    <nd ref="528968869"/>
    <nd ref="293544221"/>
    <nd ref="499422932"/>
    <nd ref="293544179"/>
    <nd ref="499422931"/>
    <nd ref="499422912"/>
    <nd ref="499422914"/>
    <nd ref="499422916"/>
    <nd ref="293544161"/>
    <tag k="highway" v="primary"/>
    <tag k="name" v="Grote baan"/>
    <tag k="ref" v="N70"/>
  </way>
  <way id="51179708" version="1" timestamp="2010-02-24T22:13:02Z" uid="59758" user="rendle" changeset="3967282">
    <nd ref="293544454"/>
    <nd ref="295916730"/>
    <nd ref="528968875"/>
    <nd ref="149185919"/>
    <nd ref="149185917"/>
    <nd ref="499422910"/>
    <nd ref="293544177"/>
    <nd ref="295981990"/>
    <tag k="highway" v="primary"/>
    <tag k="name" v="Grote baan"/>
    <tag k="ref" v="N70"/>
  </way>
  <way id="51179708" version="2" timestamp="2010-02-24T22:19:50Z" uid="59758" user="rendle" changeset="3967282">
    <nd ref="293544454"/>
    <nd ref="295916730"/>
    <nd ref="528968875"/>
    <nd ref="149185919"/>
    <nd ref="149185917"/>
    <nd ref="499422910"/>
    <tag k="highway" v="primary"/>
    <tag k="name" v="Grote baan"/>
    <tag k="ref" v="N70"/>
  </way>
  <way id="51179708" version="3" timestamp="2010-02-24T22:19:54Z" uid="59758" user="rendle" changeset="3967282">
    <nd ref="293544454"/>
    <nd ref="295916730"/>
    <nd ref="528968875"/>
    <nd ref="149185919"/>
    <nd ref="149185917"/>
    <tag k="highway" v="primary"/>
    <tag k="name" v="Grote baan"/>
    <tag k="ref" v="N70"/>
  </way>
  <way id="51179867" version="1" timestamp="2010-02-24T22:19:36Z" uid="59758" user="rendle" changeset="3967282">
    <nd ref="502961230"/>
    <nd ref="496384911"/>
    <nd ref="528968867"/>
    <nd ref="528968865"/>
    <nd ref="528968864"/>
    <nd ref="149208464"/>
    <nd ref="528968863"/>
    <nd ref="443477988"/>
    <nd ref="149208469"/>
    <tag k="highway" v="tertiary"/>
    <tag k="name" v="Hoekstraat"/>
  </way>
  <way id="51179869" version="1" timestamp="2010-02-24T22:19:50Z" uid="59758" user="rendle" changeset="3967282">
    <nd ref="499422910"/>
    <nd ref="293544177"/>
    <nd ref="295981990"/>
    <tag k="highway" v="primary"/>
    <tag k="name" v="Grote baan"/>
    <tag k="ref" v="N70"/>
  </way>
  <way id="51179870" version="1" timestamp="2010-02-24T22:19:53Z" uid="59758" user="rendle" changeset="3967282">
    <nd ref="149185917"/>
    <nd ref="499422910"/>
    <tag k="highway" v="primary"/>
    <tag k="name" v="Grote baan"/>
    <tag k="ref" v="N70"/>
  </way>
</osm>
