<?xml version='1.0' encoding='UTF-8'?>
<osm version="0.6" generator="libosmium/2.20.0">
  <way id="51337790" version="3" timestamp="2011-01-30T18:18:37Z" uid="115477" user="wowik" changeset="7137533">
    <nd ref="644621530"/>
    <nd ref="253146068"/>
    <nd ref="305069002"/>
    <nd ref="305068941"/>
    <nd ref="253042885"/>
    <tag k="highway" v="trunk"/>
    <tag k="int_ref" v="E105"/>
    <tag k="name" v="Ленинградское шоссе"/>
    <tag k="oneway" v="yes"/>
  </way>
  <way id="51337986" version="2" timestamp="2010-04-05T07:07:47Z" uid="4467" user="Rosscoe" changeset="4329775"/>
  <way id="51337988" version="3" timestamp="2010-04-05T07:07:47Z" uid="4467" user="Rosscoe" changeset="4329775">
    <nd ref="655145523"/>
    <nd ref="655145524"/>
    <nd ref="655145533"/>
    <tag k="highway" v="residential"/>
    <tag k="name" v="Leslie Street"/>
    <tag k="source" v="nearmap"/>
  </way>
  <way id="51337988" version="4" timestamp="2010-04-05T07:43:55Z" uid="4467" user="Rosscoe" changeset="4330000">
    <nd ref="655145523"/>
    <nd ref="655145524"/>
    <nd ref="685073233"/>
    <nd ref="655145533"/>
    <tag k="highway" v="residential"/>
    <tag k="name" v="Leslie Street"/>
    <tag k="source" v="nearmap"/>
  </way>
</osm>
