<?xml version='1.0' encoding='UTF-8'?>
<osm version="0.6" generator="libosmium/2.20.0">
  <way id="51633171" version="1" timestamp="2010-03-03T00:54:08Z" uid="230283" user="AuFCL" changeset="4021670">
    <nd ref="659624734"/>
    <nd ref="659624748"/>
    <nd ref="659624749"/>
    <nd ref="659624750"/>
    <nd ref="659624751"/>
    <nd ref="659624752"/>
    <nd ref="659624753"/>
    <nd ref="659624754"/>
    <tag k="highway" v="residential"/>
    <tag k="name" v="Stanley Park Road"/>
  </way>
  <way id="51633171" version="2" timestamp="2010-07-07T07:17:07Z" uid="74617" user="JohnSmith" changeset="5156250">
    <nd ref="659624734"/>
    <nd ref="659624748"/>
    <nd ref="659624749"/>
    <nd ref="659624750"/>
    <nd ref="659624751"/>
    <nd ref="659624752"/>
    <nd ref="659624753"/>
    <nd ref="659624754"/>
    <tag k="highway" v="residential"/>
    <tag k="maxspeed" v="50"/>
    <tag k="maxspeed:source" v="default residential speed limit in Australia"/>
    <tag k="name" v="Stanley Park Road"/>
  </way>
  <way id="51633858" version="1" timestamp="2010-03-03T00:56:42Z" uid="230283" user="AuFCL" changeset="4021670">
    <nd ref="659624751"/>
    <nd ref="659624960"/>
    <tag k="highway" v="residential"/>
    <tag k="name" v="Hyde Park Road"/>
  </way>
  <way id="51633858" version="2" timestamp="2010-07-07T07:18:54Z" uid="74617" user="JohnSmith" changeset="5156250">
    <nd ref="659624751"/>
    <nd ref="659624960"/>
    <tag k="highway" v="residential"/>
    <tag k="maxspeed" v="50"/>
    <tag k="maxspeed:source" v="default residential speed limit in Australia"/>
    <tag k="name" v="Hyde Park Road"/>
  </way>
  <way id="51633863" version="1" timestamp="2010-03-03T00:57:24Z" uid="230283" user="AuFCL" changeset="4021670">
    <nd ref="659624735"/>
    <nd ref="659624983"/>
    <nd ref="659624984"/>
    <nd ref="659624985"/>
    <nd ref="659624986"/>
    <tag k="highway" v="residential"/>
    <tag k="name" v="Green Park Lane"/>
  </way>
  <way id="51633863" version="2" timestamp="2010-07-07T07:17:00Z" uid="74617" user="JohnSmith" changeset="5156250">
    <nd ref="659624735"/>
    <nd ref="659624983"/>
    <nd ref="659624984"/>
    <nd ref="659624985"/>
    <nd ref="659624986"/>
    <tag k="highway" v="residential"/>
    <tag k="maxspeed" v="50"/>
    <tag k="maxspeed:source" v="default residential speed limit in Australia"/>
    <tag k="name" v="Green Park Lane"/>
  </way>
</osm>
