<?xml version='1.0' encoding='UTF-8'?>
<osm version="0.6" generator="libosmium/2.20.0">
  <way id="51745701" version="2" timestamp="2010-06-29T19:07:30Z" uid="74617" user="JohnSmith" changeset="5108182">
    <nd ref="660444194"/>
    <nd ref="660444195"/>
    <nd ref="660444197"/>
    <nd ref="660444198"/>
    <nd ref="660444194"/>
    <tag k="fixme" v="sport=football is ambiguous, see http://wiki.osm.org/wiki/Football for more details"/>
    <tag k="sport" v="football"/>
  </way>
  <way id="51745702" version="1" timestamp="2010-03-04T20:17:45Z" uid="43967" user="railsnail" changeset="4035933">
    <nd ref="660444208"/>
    <nd ref="660444214"/>
    <tag k="name" v="Lienz-Soverzene"/>
    <tag k="operator" v="Verbund APG"/>
    <tag k="power" v="line"/>
    <tag k="voltage" v="220000"/>
  </way>
  <way id="51745702" version="2" timestamp="2010-06-29T18:06:11Z" uid="43967" user="railsnail" changeset="5107789">
    <nd ref="796132500"/>
    <nd ref="660444208"/>
    <nd ref="660444214"/>
    <tag k="name" v="Lienz-Soverzene"/>
    <tag k="operator" v="Verbund APG"/>
    <tag k="power" v="line"/>
    <tag k="voltage" v="220000"/>
  </way>
  <way id="51745702" version="3" timestamp="2010-07-05T11:40:56Z" uid="43967" user="railsnail" changeset="5141282">
    <nd ref="802006075"/>
    <nd ref="802006084"/>
    <nd ref="802006067"/>
    <nd ref="802006071"/>
    <nd ref="796132500"/>
    <nd ref="660444208"/>
    <nd ref="660444214"/>
    <tag k="name" v="Lienz-Soverzene"/>
    <tag k="operator" v="Verbund APG"/>
    <tag k="power" v="line"/>
    <tag k="voltage" v="220000"/>
  </way>
  <way id="51745703" version="1" timestamp="2010-03-04T20:17:45Z" uid="43967" user="railsnail" changeset="4035933">
    <nd ref="660444205"/>
    <nd ref="660444207"/>
    <nd ref="660444210"/>
    <nd ref="660444217"/>
    <tag k="name" v="Amlach-Sillian"/>
    <tag k="operator" v="TIWAG"/>
    <tag k="power" v="line"/>
    <tag k="voltage" v="110000"/>
  </way>
  <way id="51745703" version="2" timestamp="2010-06-29T18:06:11Z" uid="43967" user="railsnail" changeset="5107789">
    <nd ref="660444205"/>
    <nd ref="660444207"/>
    <nd ref="660444210"/>
    <nd ref="660444217"/>
    <nd ref="796132501"/>
    <nd ref="796132503"/>
    <nd ref="796132343"/>
    <nd ref="752882156"/>
    <tag k="name" v="Amlach-Sillian"/>
    <tag k="operator" v="TIWAG"/>
    <tag k="power" v="line"/>
    <tag k="voltage" v="110000"/>
  </way>
  <way id="51745710" version="2" timestamp="2010-06-29T19:05:29Z" uid="74617" user="JohnSmith" changeset="5108182">
    <nd ref="442155465"/>
    <nd ref="442155464"/>
    <nd ref="660444305"/>
    <nd ref="660444306"/>
    <nd ref="660444307"/>
    <nd ref="660444309"/>
    <nd ref="660444310"/>
    <nd ref="660444312"/>
    <nd ref="660444314"/>
    <nd ref="442155467"/>
    <nd ref="442155466"/>
    <nd ref="442155465"/>
    <tag k="fixme" v="sport=football is ambiguous, see http://wiki.osm.org/wiki/Football for more details"/>
    <tag k="sport" v="football"/>
  </way>
  <way id="51745786" version="1" timestamp="2010-03-04T20:20:13Z" uid="43967" user="railsnail" changeset="4035953">
    <nd ref="660445317"/>
    <nd ref="660445319"/>
    <tag k="waterway" v="stream"/>
  </way>
  <way id="51745786" version="2" timestamp="2010-04-27T12:09:11Z" uid="43967" user="railsnail" changeset="4540503">
    <nd ref="660445317"/>
    <nd ref="660445319"/>
    <nd ref="708684433"/>
    <nd ref="708684432"/>
    <nd ref="708684434"/>
    <tag k="waterway" v="stream"/>
  </way>
  <way id="51745786" version="3" timestamp="2010-05-27T15:55:03Z" uid="43967" user="railsnail" changeset="4823371">
    <nd ref="750864102"/>
    <nd ref="751398159"/>
    <nd ref="751398166"/>
    <nd ref="751398176"/>
    <nd ref="751398182"/>
    <nd ref="751398186"/>
    <nd ref="660445317"/>
    <nd ref="660445319"/>
    <nd ref="708684433"/>
    <nd ref="708684432"/>
    <nd ref="708684434"/>
    <tag k="waterway" v="stream"/>
  </way>
  <way id="51745792" version="3" timestamp="2011-05-09T02:52:03Z" uid="4467" user="Rosscoe" changeset="8089228">
    <nd ref="660445302"/>
    <nd ref="1277886469"/>
    <tag k="bridge" v="yes"/>
    <tag k="bridge_number" v="1211"/>
    <tag k="highway" v="tertiary"/>
    <tag k="layer" v="1"/>
    <tag k="name" v="Kelleway Avenue"/>
    <tag k="oneway" v="yes"/>
  </way>
  <way id="51745795" version="2" timestamp="2011-05-09T02:52:52Z" uid="4467" user="Rosscoe" changeset="8089228">
    <nd ref="660445311"/>
    <nd ref="1277886438"/>
    <nd ref="89706604"/>
    <tag k="highway" v="primary"/>
    <tag k="name" v="Gungahlin Drive"/>
  </way>
</osm>
