<?xml version='1.0' encoding='UTF-8'?>
<osm version="0.6" generator="libosmium/2.20.0">
  <way id="51773822" version="2" timestamp="2011-02-13T13:12:56Z" uid="6269" user="Mueck" changeset="7274725">
    <nd ref="20456888"/>
    <nd ref="32540938"/>
    <nd ref="20456886"/>
    <nd ref="20456881"/>
    <nd ref="20456880"/>
    <nd ref="20456917"/>
    <nd ref="20456919"/>
    <nd ref="20456921"/>
    <nd ref="20456923"/>
    <nd ref="506583679"/>
    <nd ref="20456924"/>
    <nd ref="20456926"/>
    <nd ref="20456927"/>
    <nd ref="443318438"/>
    <nd ref="480482166"/>
    <nd ref="20456929"/>
    <nd ref="443318441"/>
    <nd ref="20456931"/>
    <nd ref="20456932"/>
    <tag k="highway" v="residential"/>
    <tag k="name" v="Bannwaldallee"/>
  </way>
  <way id="51773824" version="2" timestamp="2011-01-24T15:46:28Z" uid="6269" user="Mueck" changeset="7073890">
    <nd ref="14961496"/>
    <nd ref="1118812451"/>
    <nd ref="1118812499"/>
    <nd ref="1118812546"/>
    <nd ref="469709257"/>
    <nd ref="635041058"/>
    <tag k="highway" v="secondary"/>
    <tag k="name" v="Ebertstraße"/>
    <tag k="note" v="im SHP des NVK: II"/>
    <tag k="oneway" v="yes"/>
  </way>
  <way id="51773825" version="2" timestamp="2011-01-24T15:46:28Z" uid="6269" user="Mueck" changeset="7073890">
    <nd ref="14852012"/>
    <nd ref="1118812574"/>
    <nd ref="18176850"/>
    <nd ref="311198356"/>
    <nd ref="14963184"/>
    <nd ref="14769681"/>
    <tag k="highway" v="secondary"/>
    <tag k="name" v="Ebertstraße"/>
    <tag k="note" v="im SHP des NVK: II"/>
    <tag k="oneway" v="yes"/>
  </way>
  <way id="51773825" version="3" timestamp="2011-01-30T00:07:28Z" uid="6269" user="Mueck" changeset="7128139">
    <nd ref="14852012"/>
    <nd ref="1118812574"/>
    <nd ref="1127161880"/>
    <nd ref="1127161872"/>
    <nd ref="1127161839"/>
    <nd ref="1127161900"/>
    <nd ref="18176850"/>
    <nd ref="1127161845"/>
    <nd ref="311198356"/>
    <nd ref="14963184"/>
    <nd ref="1127161883"/>
    <nd ref="14769681"/>
    <tag k="highway" v="secondary"/>
    <tag k="name" v="Ebertstraße"/>
    <tag k="note" v="im SHP des NVK: II"/>
    <tag k="oneway" v="yes"/>
  </way>
  <way id="51773825" version="4" timestamp="2011-04-01T15:52:33Z" uid="6269" user="Mueck" changeset="7736182">
    <nd ref="14852012"/>
    <nd ref="1118812574"/>
    <nd ref="1127161880"/>
    <nd ref="1127161872"/>
    <nd ref="1127161839"/>
    <nd ref="1127161900"/>
    <nd ref="18176850"/>
    <nd ref="1127161845"/>
    <nd ref="311198356"/>
    <nd ref="14963184"/>
    <nd ref="1127161883"/>
    <nd ref="1228024975"/>
    <nd ref="14769681"/>
    <tag k="highway" v="secondary"/>
    <tag k="name" v="Ebertstraße"/>
    <tag k="note" v="im SHP des NVK: II"/>
    <tag k="oneway" v="yes"/>
  </way>
  <way id="51773827" version="2" timestamp="2010-06-03T06:48:54Z" uid="6269" user="Mueck" changeset="4889721">
    <nd ref="27046275"/>
    <nd ref="27046274"/>
    <nd ref="27046272"/>
    <tag k="highway" v="residential"/>
    <tag k="name" v="Liststraße"/>
  </way>
  <way id="51773828" version="2" timestamp="2010-09-04T11:56:58Z" uid="6269" user="Mueck" changeset="5677823">
    <nd ref="660690882"/>
    <nd ref="660690883"/>
    <nd ref="660690886"/>
    <tag k="bench" v="yes"/>
    <tag k="bin" v="yes"/>
    <tag k="bus" v="yes"/>
    <tag k="name" v="Kühler Krug"/>
    <tag k="public_transport" v="platform"/>
    <tag k="shelter" v="yes"/>
    <tag k="tram" v="yes"/>
  </way>
  <way id="51773828" version="3" timestamp="2010-09-04T11:59:05Z" uid="6269" user="Mueck" changeset="5677823">
    <nd ref="660690882"/>
    <nd ref="660690883"/>
    <nd ref="660690886"/>
    <tag k="bench" v="yes"/>
    <tag k="bin" v="yes"/>
    <tag k="bus" v="no"/>
    <tag k="name" v="Kühler Krug"/>
    <tag k="public_transport" v="platform"/>
    <tag k="shelter" v="yes"/>
    <tag k="tram" v="yes"/>
  </way>
  <way id="51773828" version="5" timestamp="2011-01-30T18:57:17Z" uid="6269" user="Mueck" changeset="7138054">
    <nd ref="660690882"/>
    <nd ref="660690883"/>
    <nd ref="1125495900"/>
    <nd ref="1125496032"/>
    <nd ref="660690886"/>
    <tag k="bench" v="yes"/>
    <tag k="bin" v="yes"/>
    <tag k="bus" v="no"/>
    <tag k="name" v="Kühler Krug"/>
    <tag k="public_transport" v="platform"/>
    <tag k="railway" v="platform"/>
    <tag k="shelter" v="yes"/>
    <tag k="tram" v="yes"/>
  </way>
  <way id="51773909" version="1" timestamp="2010-03-05T15:14:15Z" uid="23543" user="jkjk" changeset="4041767">
    <nd ref="303493620"/>
    <nd ref="303493625"/>
    <nd ref="303493622"/>
    <nd ref="303493577"/>
    <nd ref="303493624"/>
    <nd ref="303493584"/>
    <nd ref="303493581"/>
    <nd ref="303493606"/>
    <nd ref="303493605"/>
    <tag k="attribution" v="Vialidad"/>
    <tag k="chile:region" v="8"/>
    <tag k="chile:surface" v="ripio"/>
    <tag k="highway" v="tertiary"/>
    <tag k="name" v="Talcamávida - Estero El  Gomero"/>
    <tag k="navibot:categorize" v="yes"/>
    <tag k="ref" v="O-800"/>
    <tag k="source" v="vialidad.cl"/>
    <tag k="surface" v="unpaved"/>
  </way>
</osm>
