<?xml version='1.0' encoding='UTF-8'?>
<osm version="0.6" generator="libosmium/2.20.0">
  <way id="51977115" version="2" timestamp="2010-07-08T18:32:43Z" uid="74617" user="JohnSmith" changeset="5167338">
    <nd ref="470298049"/>
    <nd ref="662810787"/>
    <nd ref="662810789"/>
    <nd ref="198497845"/>
    <nd ref="198497846"/>
    <nd ref="360551099"/>
    <tag k="highway" v="residential"/>
    <tag k="maxspeed" v="50"/>
    <tag k="maxspeed:source" v="default residential speed limit in Australia"/>
    <tag k="name" v="Mills Road"/>
  </way>
  <way id="51977118" version="2" timestamp="2010-07-25T07:24:39Z" uid="4467" user="Rosscoe" changeset="5309337">
    <nd ref="662810818"/>
    <nd ref="662810820"/>
    <tag k="bridge" v="yes"/>
    <tag k="foot" v="yes"/>
    <tag k="highway" v="footway"/>
    <tag k="layer" v="1"/>
  </way>
  <way id="51977120" version="3" timestamp="2010-07-08T18:37:58Z" uid="74617" user="JohnSmith" changeset="5167338">
    <nd ref="662810826"/>
    <nd ref="662810827"/>
    <tag k="bridge" v="yes"/>
    <tag k="highway" v="residential"/>
    <tag k="maxspeed" v="50"/>
    <tag k="maxspeed:source" v="default residential speed limit in Australia"/>
    <tag k="name" v="Mills Road"/>
  </way>
  <way id="51977120" version="4" timestamp="2010-07-25T21:44:32Z" uid="4467" user="Rosscoe" changeset="5316996">
    <nd ref="662810826"/>
    <nd ref="662810827"/>
    <tag k="bridge" v="yes"/>
    <tag k="highway" v="residential"/>
    <tag k="layer" v="1"/>
    <tag k="maxspeed" v="50"/>
    <tag k="maxspeed:source" v="default residential speed limit in Australia"/>
    <tag k="name" v="Mills Road"/>
  </way>
  <way id="51977125" version="2" timestamp="2010-07-08T18:25:24Z" uid="74617" user="JohnSmith" changeset="5167338">
    <nd ref="662810827"/>
    <nd ref="470298049"/>
    <tag k="highway" v="residential"/>
    <tag k="maxspeed" v="50"/>
    <tag k="maxspeed:source" v="default residential speed limit in Australia"/>
    <tag k="name" v="Mills Road"/>
  </way>
  <way id="51977142" version="4" timestamp="2011-02-14T01:13:31Z" uid="4467" user="Rosscoe" changeset="7282344">
    <nd ref="261560233"/>
    <nd ref="662810934"/>
    <nd ref="662810936"/>
    <tag k="highway" v="trunk_link"/>
    <tag k="oneway" v="yes"/>
    <tag k="source" v="nearmap"/>
    <tag k="surface" v="asphalt"/>
  </way>
  <way id="51977145" version="2" timestamp="2010-07-25T07:24:40Z" uid="4467" user="Rosscoe" changeset="5309337">
    <nd ref="268526186"/>
    <nd ref="268526194"/>
    <tag k="bridge" v="yes"/>
    <tag k="highway" v="cycleway"/>
    <tag k="layer" v="1"/>
  </way>
  <way id="51977243" version="2" timestamp="2010-07-08T18:35:20Z" uid="74617" user="JohnSmith" changeset="5167338">
    <nd ref="662811812"/>
    <nd ref="662811813"/>
    <nd ref="662811814"/>
    <nd ref="662811815"/>
    <tag k="highway" v="residential"/>
    <tag k="maxspeed" v="50"/>
    <tag k="maxspeed:source" v="default residential speed limit in Australia"/>
  </way>
  <way id="51977318" version="5" timestamp="2010-12-05T19:56:39Z" uid="8619" user="cetest" changeset="6555696">
    <nd ref="270132151"/>
    <nd ref="662812394"/>
    <nd ref="662812395"/>
    <nd ref="662812390"/>
    <nd ref="662812391"/>
    <nd ref="662812392"/>
    <nd ref="662812393"/>
    <nd ref="662812385"/>
    <nd ref="662812386"/>
    <nd ref="662812387"/>
    <nd ref="662812388"/>
    <nd ref="662812383"/>
    <nd ref="662812384"/>
    <nd ref="662812370"/>
    <nd ref="662812371"/>
    <nd ref="662812372"/>
    <nd ref="662812356"/>
    <nd ref="662812357"/>
    <nd ref="662812333"/>
    <nd ref="662812354"/>
    <nd ref="662812346"/>
    <tag k="highway" v="secondary"/>
    <tag k="name" v="דרך המסילה"/>
    <tag k="name:en" v="Derech HaMesila"/>
    <tag k="oneway" v="yes"/>
    <tag k="ref" v="652"/>
  </way>
  <way id="51977319" version="6" timestamp="2010-12-05T19:55:57Z" uid="8619" user="cetest" changeset="6555696">
    <nd ref="662812349"/>
    <nd ref="1023535672"/>
    <nd ref="270132101"/>
    <nd ref="270132103"/>
    <nd ref="270132106"/>
    <nd ref="270132110"/>
    <nd ref="662812389"/>
    <nd ref="270132113"/>
    <nd ref="270132116"/>
    <nd ref="270132119"/>
    <nd ref="270132122"/>
    <nd ref="270132126"/>
    <nd ref="270132128"/>
    <tag k="highway" v="secondary"/>
    <tag k="name" v="דרך המסילה"/>
    <tag k="name:en" v="Derech HaMesila"/>
    <tag k="oneway" v="yes"/>
    <tag k="ref" v="652"/>
  </way>
  <way id="51977319" version="8" timestamp="2011-03-06T19:36:13Z" uid="8619" user="cetest" changeset="7477547">
    <nd ref="662812349"/>
    <nd ref="1023535672"/>
    <nd ref="270132101"/>
    <nd ref="1189831444"/>
    <nd ref="270132103"/>
    <nd ref="270132106"/>
    <nd ref="270132113"/>
    <nd ref="270132119"/>
    <nd ref="270132122"/>
    <nd ref="270132126"/>
    <nd ref="270132128"/>
    <tag k="highway" v="secondary"/>
    <tag k="name" v="דרך המסילה"/>
    <tag k="name:en" v="Derech HaMesila"/>
    <tag k="oneway" v="yes"/>
    <tag k="ref" v="652"/>
  </way>
  <way id="51977324" version="3" timestamp="2010-12-05T19:56:52Z" uid="8619" user="cetest" changeset="6555696">
    <nd ref="662812363"/>
    <nd ref="1023535797"/>
    <nd ref="270132094"/>
    <nd ref="662812364"/>
    <nd ref="662812352"/>
    <tag k="highway" v="secondary"/>
    <tag k="oneway" v="yes"/>
    <tag k="ref" v="652"/>
  </way>
  <way id="51977325" version="4" timestamp="2010-12-06T19:18:48Z" uid="8619" user="cetest" changeset="6567272">
    <nd ref="662812344"/>
    <nd ref="662812345"/>
    <nd ref="662812365"/>
    <nd ref="662812369"/>
    <nd ref="662812362"/>
    <tag k="highway" v="secondary"/>
    <tag k="oneway" v="yes"/>
    <tag k="ref" v="652"/>
  </way>
  <way id="51977326" version="3" timestamp="2010-12-06T19:18:33Z" uid="8619" user="cetest" changeset="6567272">
    <nd ref="662812358"/>
    <nd ref="662812362"/>
    <nd ref="662812359"/>
    <nd ref="662812382"/>
    <nd ref="662812375"/>
    <nd ref="662812376"/>
    <nd ref="662812377"/>
    <nd ref="270132090"/>
    <nd ref="662812381"/>
    <nd ref="662812379"/>
    <nd ref="662812380"/>
    <nd ref="662812363"/>
    <nd ref="662812360"/>
    <nd ref="662812361"/>
    <nd ref="662812358"/>
    <tag k="highway" v="secondary"/>
    <tag k="junction" v="roundabout"/>
  </way>
</osm>
