<?xml version='1.0' encoding='UTF-8'?>
<osm version="0.6" generator="libosmium/2.20.0">
  <way id="51993199" version="3" timestamp="2010-08-04T17:46:59Z" uid="9581" user="Lobelt" changeset="5401263">
    <nd ref="472087940"/>
    <nd ref="472087944"/>
    <nd ref="472087947"/>
    <nd ref="472087950"/>
    <nd ref="472087953"/>
    <nd ref="472087956"/>
    <nd ref="472087960"/>
    <nd ref="472087963"/>
    <nd ref="472087966"/>
    <nd ref="472087969"/>
    <nd ref="472087972"/>
    <nd ref="472087974"/>
    <nd ref="472087977"/>
    <nd ref="472087979"/>
    <nd ref="472087981"/>
    <nd ref="472087983"/>
    <nd ref="472087985"/>
    <nd ref="472087987"/>
    <nd ref="472087989"/>
    <nd ref="472087992"/>
    <nd ref="472087995"/>
    <nd ref="472087997"/>
    <nd ref="472088000"/>
    <nd ref="472088002"/>
    <nd ref="472088004"/>
    <nd ref="472088005"/>
    <nd ref="472088007"/>
    <nd ref="472088009"/>
    <nd ref="472088011"/>
    <nd ref="472088013"/>
    <nd ref="472088015"/>
    <nd ref="472088018"/>
    <nd ref="472088021"/>
    <nd ref="472088024"/>
    <nd ref="472088027"/>
    <nd ref="472088031"/>
    <nd ref="472088033"/>
    <nd ref="472088036"/>
    <nd ref="472088039"/>
    <nd ref="472088043"/>
    <nd ref="472088045"/>
    <nd ref="472088047"/>
    <tag k="cables" v="6"/>
    <tag k="frequency" v="50"/>
    <tag k="operator" v="EON_Netz"/>
    <tag k="power" v="line"/>
    <tag k="voltage" v="110000"/>
    <tag k="wires" v="single"/>
  </way>
  <way id="51993454" version="4" timestamp="2011-01-25T15:11:01Z" uid="115477" user="wowik" changeset="7084481">
    <nd ref="662950261"/>
    <nd ref="662950262"/>
    <nd ref="1119957620"/>
    <nd ref="1119957474"/>
    <nd ref="1119957534"/>
    <nd ref="1119957476"/>
    <nd ref="662950263"/>
    <nd ref="662950264"/>
    <nd ref="1119957379"/>
    <nd ref="1119957751"/>
    <nd ref="1119957663"/>
    <nd ref="1119957836"/>
    <nd ref="662950261"/>
    <tag k="addr:housenumber" v="5"/>
    <tag k="addr:street" v="улица Соловьиная Роща"/>
    <tag k="amenity" v="kindergarten"/>
    <tag k="building" v="yes"/>
    <tag k="cladr:code" v="77000000000451500"/>
    <tag k="name" v="Детский сад №2454"/>
  </way>
  <way id="51993455" version="4" timestamp="2011-02-16T18:01:38Z" uid="115477" user="wowik" changeset="7306026">
    <nd ref="662950265"/>
    <nd ref="1156508022"/>
    <nd ref="1156508112"/>
    <nd ref="662950266"/>
    <nd ref="1156507747"/>
    <nd ref="1156507666"/>
    <nd ref="662950267"/>
    <nd ref="1156508369"/>
    <nd ref="1156507943"/>
    <nd ref="1156508287"/>
    <nd ref="1156507873"/>
    <nd ref="662950268"/>
    <nd ref="1156507593"/>
    <nd ref="1156508099"/>
    <nd ref="1156507800"/>
    <nd ref="1156508092"/>
    <nd ref="1156508182"/>
    <nd ref="1156508552"/>
    <nd ref="662950265"/>
    <tag k="addr:housenumber" v="2"/>
    <tag k="addr:street" v="улица Соловьиная Роща"/>
    <tag k="building" v="yes"/>
    <tag k="cladr:code" v="77000000000451500"/>
  </way>
  <way id="51993457" version="2" timestamp="2011-01-25T15:11:16Z" uid="115477" user="wowik" changeset="7084481">
    <nd ref="662950269"/>
    <nd ref="662950270"/>
    <nd ref="662950271"/>
    <nd ref="662950272"/>
    <nd ref="662950269"/>
    <tag k="building" v="yes"/>
    <tag k="building:levels" v="1"/>
    <tag k="landuse" v="service"/>
  </way>
  <way id="51993478" version="3" timestamp="2010-07-24T17:18:42Z" uid="171838" user="argrath" changeset="5305609">
    <nd ref="390578149"/>
    <nd ref="568961270"/>
    <nd ref="568968790"/>
    <nd ref="390578152"/>
    <tag k="highway" v="trunk"/>
    <tag k="lanes" v="4"/>
    <tag k="name:ja" v="国道116号線"/>
    <tag k="ref" v="116"/>
  </way>
  <way id="51993693" version="4" timestamp="2011-02-16T18:01:43Z" uid="115477" user="wowik" changeset="7306026">
    <nd ref="662952032"/>
    <nd ref="1156508241"/>
    <nd ref="1156508148"/>
    <nd ref="1156507843"/>
    <nd ref="1156507573"/>
    <nd ref="662952033"/>
    <nd ref="662952034"/>
    <nd ref="1156508430"/>
    <nd ref="1156507650"/>
    <nd ref="662952035"/>
    <nd ref="1156508525"/>
    <nd ref="1156507764"/>
    <nd ref="662952032"/>
    <tag k="addr:housenumber" v="6"/>
    <tag k="addr:street" v="улица Соловьиная Роща"/>
    <tag k="building" v="yes"/>
    <tag k="cladr:code" v="77000000000451500"/>
  </way>
  <way id="51993694" version="3" timestamp="2011-02-16T18:00:54Z" uid="115477" user="wowik" changeset="7306026">
    <nd ref="662952036"/>
    <nd ref="662952037"/>
    <nd ref="1156508044"/>
    <nd ref="1156507951"/>
    <nd ref="1156508510"/>
    <nd ref="1156508394"/>
    <nd ref="662952038"/>
    <nd ref="662952039"/>
    <nd ref="1156508121"/>
    <nd ref="1156508192"/>
    <nd ref="1156507752"/>
    <nd ref="1156507813"/>
    <nd ref="662952036"/>
    <tag k="addr:housenumber" v="4"/>
    <tag k="addr:street" v="улица Соловьиная Роща"/>
    <tag k="building" v="yes"/>
    <tag k="cladr:code" v="77000000000451500"/>
  </way>
  <way id="51993762" version="2" timestamp="2010-04-03T04:30:21Z" uid="20587" user="balrog-kun" changeset="4309442">
    <nd ref="662952332"/>
    <nd ref="662952333"/>
    <nd ref="662952334"/>
    <nd ref="662952335"/>
    <nd ref="662952336"/>
    <nd ref="173949900"/>
    <nd ref="173949899"/>
    <nd ref="662952328"/>
    <nd ref="662952329"/>
    <tag k="highway" v="residential"/>
    <tag k="name" v="South Frontage Road"/>
    <tag k="tiger:cfcc" v="A41"/>
    <tag k="tiger:county" v="Cochise, AZ"/>
    <tag k="tiger:name_base" v="Frontage"/>
    <tag k="tiger:name_direction_prefix" v="S"/>
    <tag k="tiger:name_type" v="Rd"/>
    <tag k="tiger:reviewed" v="no"/>
    <tag k="tiger:separated" v="no"/>
    <tag k="tiger:source" v="tiger_import_dch_v0.6_20070809"/>
    <tag k="tiger:tlid" v="120927721"/>
  </way>
  <way id="51993799" version="2" timestamp="2010-04-03T04:30:21Z" uid="20587" user="balrog-kun" changeset="4309442">
    <nd ref="173922319"/>
    <nd ref="173989782"/>
    <nd ref="173989785"/>
    <nd ref="173989788"/>
    <nd ref="173989792"/>
    <nd ref="173957743"/>
    <tag k="highway" v="residential"/>
    <tag k="name" v="South Calle Estudiante"/>
    <tag k="tiger:cfcc" v="A41"/>
    <tag k="tiger:county" v="Cochise, AZ"/>
    <tag k="tiger:name_base" v="Calle Estudiante"/>
    <tag k="tiger:name_direction_prefix" v="S"/>
    <tag k="tiger:reviewed" v="no"/>
    <tag k="tiger:separated" v="no"/>
    <tag k="tiger:source" v="tiger_import_dch_v0.6_20070809"/>
    <tag k="tiger:tlid" v="120949191:120981287"/>
    <tag k="tiger:zip_left" v="85635"/>
    <tag k="tiger:zip_right" v="85635"/>
  </way>
  <way id="51993803" version="3" timestamp="2011-02-16T18:01:17Z" uid="115477" user="wowik" changeset="7306026">
    <nd ref="662952626"/>
    <nd ref="662952627"/>
    <nd ref="662952628"/>
    <nd ref="662952629"/>
    <nd ref="662952626"/>
    <tag k="addr:housenumber" v="6 с1"/>
    <tag k="addr:street" v="улица Соловьиная Роща"/>
    <tag k="building" v="yes"/>
    <tag k="cladr:code" v="77000000000451500"/>
  </way>
  <way id="51993812" version="2" timestamp="2011-02-16T18:01:14Z" uid="115477" user="wowik" changeset="7306026">
    <nd ref="662954786"/>
    <nd ref="1156508388"/>
    <nd ref="1156508189"/>
    <nd ref="1156508295"/>
    <nd ref="1156508011"/>
    <nd ref="1156507868"/>
    <nd ref="662954805"/>
    <tag k="highway" v="service"/>
    <tag k="living_street" v="yes"/>
  </way>
</osm>
