<?xml version='1.0' encoding='UTF-8'?>
<osm version="0.6" generator="libosmium/2.20.0">
  <way id="52058192" version="2" timestamp="2010-07-08T00:26:16Z" uid="74617" user="JohnSmith" changeset="5162525">
    <nd ref="663553954"/>
    <nd ref="26957745"/>
    <nd ref="654812927"/>
    <nd ref="27028760"/>
    <tag k="highway" v="residential"/>
    <tag k="lcn" v="yes"/>
    <tag k="maxspeed" v="50"/>
    <tag k="maxspeed:source" v="default residential speed limit in Australia"/>
    <tag k="name" v="Terry Road"/>
    <tag k="restriction" v="school_zone"/>
    <tag k="source" v="nearmap"/>
  </way>
  <way id="52058245" version="3" timestamp="2010-08-28T14:12:31Z" uid="4467" user="Rosscoe" changeset="5616438">
    <nd ref="663554240"/>
    <nd ref="663554246"/>
    <tag k="highway" v="residential"/>
    <tag k="name" v="Dean Street"/>
  </way>
  <way id="52058248" version="3" timestamp="2010-08-28T14:12:01Z" uid="4467" user="Rosscoe" changeset="5616438">
    <nd ref="663554264"/>
    <nd ref="663554246"/>
    <tag k="highway" v="residential"/>
    <tag k="name" v="Edward Road"/>
  </way>
  <way id="52058250" version="6" timestamp="2010-08-28T14:11:33Z" uid="4467" user="Rosscoe" changeset="5616438">
    <nd ref="663554266"/>
    <nd ref="663555730"/>
    <nd ref="663554914"/>
    <tag k="highway" v="residential"/>
    <tag k="name" v="Coverly Road"/>
  </way>
  <way id="52058258" version="6" timestamp="2010-08-28T14:12:14Z" uid="4467" user="Rosscoe" changeset="5616438">
    <nd ref="663554368"/>
    <nd ref="663554405"/>
    <tag k="highway" v="residential"/>
    <tag k="name" v="Mcallinden Street"/>
  </way>
  <way id="52058325" version="3" timestamp="2010-08-28T14:12:12Z" uid="4467" user="Rosscoe" changeset="5616438">
    <nd ref="662026203"/>
    <nd ref="617631717"/>
    <nd ref="617631715"/>
    <nd ref="662026199"/>
    <nd ref="663554914"/>
    <tag k="highway" v="residential"/>
    <tag k="name" v="Giblet Street"/>
  </way>
  <way id="52058330" version="2" timestamp="2010-07-08T01:01:07Z" uid="74617" user="JohnSmith" changeset="5162525">
    <nd ref="663554972"/>
    <nd ref="663554973"/>
    <nd ref="663554974"/>
    <nd ref="663554975"/>
    <nd ref="663554976"/>
    <nd ref="663554977"/>
    <nd ref="26959135"/>
    <tag k="highway" v="residential"/>
    <tag k="maxspeed" v="50"/>
    <tag k="maxspeed:source" v="default residential speed limit in Australia"/>
    <tag k="name" v="Mirool Street"/>
    <tag k="source" v="nearmap"/>
  </way>
  <way id="52058331" version="2" timestamp="2010-12-27T10:17:35Z" uid="7617" user="Franc" changeset="6775930">
    <nd ref="663554978"/>
    <nd ref="663554979"/>
    <nd ref="663554980"/>
    <nd ref="663554981"/>
    <nd ref="663554978"/>
    <tag k="leisure" v="park"/>
    <tag k="name" v="Mary Ellen Park"/>
    <tag k="source" v="nearmap"/>
    <tag k="source:name" v="survey"/>
  </way>
  <way id="52058332" version="2" timestamp="2010-12-27T10:17:16Z" uid="7617" user="Franc" changeset="6775930">
    <nd ref="663554982"/>
    <nd ref="663554983"/>
    <nd ref="663554984"/>
    <nd ref="663554985"/>
    <nd ref="663554986"/>
    <nd ref="663554982"/>
    <tag k="leisure" v="park"/>
    <tag k="name" v="Janet Park"/>
    <tag k="source" v="nearmap"/>
    <tag k="source:name" v="survey"/>
  </way>
  <way id="52058418" version="2" timestamp="2010-08-28T14:11:53Z" uid="4467" user="Rosscoe" changeset="5616438">
    <nd ref="663555730"/>
    <nd ref="662026209"/>
    <nd ref="663555076"/>
    <nd ref="601385533"/>
    <nd ref="663555077"/>
    <tag k="highway" v="residential"/>
    <tag k="name" v="Padbury Road"/>
  </way>
  <way id="52058489" version="1" timestamp="2010-03-10T08:39:48Z" uid="20587" user="balrog-kun" changeset="4087085">
    <nd ref="40455530"/>
    <nd ref="40590428"/>
    <nd ref="40589071"/>
    <nd ref="40460167"/>
    <nd ref="40590434"/>
    <tag k="highway" v="tertiary"/>
    <tag k="name" v="Southwest Vista Avenue"/>
    <tag k="tiger:cfcc" v="A41"/>
    <tag k="tiger:county" v="Multnomah, OR"/>
    <tag k="tiger:name_base" v="Vista"/>
    <tag k="tiger:reviewed" v="no"/>
    <tag k="tiger:separated" v="no"/>
    <tag k="tiger:source" v="tiger_import_dch_v0.6_20070808"/>
    <tag k="tiger:tlid" v="157499503:157499514:157533518:157499506:157604564:157500360:157538785:157500316:157500318:157500321:157500306:157500322:157539459:157500293:157533571"/>
    <tag k="tiger:upload_uuid" v="bulk_upload.pl-c48d30be-055e-4884-8c04-6be7c12c48ba"/>
    <tag k="tiger:zip_left" v="97201"/>
    <tag k="tiger:zip_right" v="97201"/>
  </way>
  <way id="52058490" version="1" timestamp="2010-03-10T08:39:48Z" uid="20587" user="balrog-kun" changeset="4087085">
    <nd ref="40590437"/>
    <nd ref="40745633"/>
    <tag k="highway" v="residential"/>
    <tag k="name" v="Southwest Spring Street"/>
    <tag k="noexit" v="yes"/>
    <tag k="tiger:cfcc" v="A41"/>
    <tag k="tiger:county" v="Multnomah, OR"/>
    <tag k="tiger:name_base" v="Spring"/>
    <tag k="tiger:separated" v="no"/>
    <tag k="tiger:source" v="tiger_import_dch_v0.6_20070808"/>
    <tag k="tiger:tlid" v="157500363:157500366:157500370:157500380:157538783:157500474"/>
    <tag k="tiger:upload_uuid" v="bulk_upload.pl-c48d30be-055e-4884-8c04-6be7c12c48ba"/>
    <tag k="tiger:zip_left" v="97201"/>
    <tag k="tiger:zip_right" v="97201"/>
  </way>
  <way id="52058491" version="1" timestamp="2010-03-10T08:39:48Z" uid="20587" user="balrog-kun" changeset="4087085">
    <nd ref="40590435"/>
    <nd ref="40590437"/>
    <tag k="highway" v="tertiary"/>
    <tag k="maxspeed" v="20 mph"/>
    <tag k="name" v="Southwest Vista Avenue"/>
    <tag k="tiger:cfcc" v="A41"/>
    <tag k="tiger:county" v="Multnomah, OR"/>
    <tag k="tiger:name_base" v="Vista"/>
    <tag k="tiger:reviewed" v="no"/>
    <tag k="tiger:separated" v="no"/>
    <tag k="tiger:source" v="tiger_import_dch_v0.6_20070808"/>
    <tag k="tiger:tlid" v="157499503:157499514:157533518:157499506:157604564:157500360:157538785:157500316:157500318:157500321:157500306:157500322:157539459:157500293:157533571"/>
    <tag k="tiger:upload_uuid" v="bulk_upload.pl-c48d30be-055e-4884-8c04-6be7c12c48ba"/>
    <tag k="tiger:zip_left" v="97201"/>
    <tag k="tiger:zip_right" v="97201"/>
  </way>
  <way id="52058492" version="1" timestamp="2010-03-10T08:39:49Z" uid="20587" user="balrog-kun" changeset="4087085">
    <nd ref="40590434"/>
    <nd ref="40590435"/>
    <tag k="highway" v="tertiary"/>
    <tag k="maxspeed" v="25 mph"/>
    <tag k="name" v="Southwest Vista Avenue"/>
    <tag k="tiger:cfcc" v="A41"/>
    <tag k="tiger:county" v="Multnomah, OR"/>
    <tag k="tiger:name_base" v="Vista"/>
    <tag k="tiger:reviewed" v="no"/>
    <tag k="tiger:separated" v="no"/>
    <tag k="tiger:source" v="tiger_import_dch_v0.6_20070808"/>
    <tag k="tiger:tlid" v="157499503:157499514:157533518:157499506:157604564:157500360:157538785:157500316:157500318:157500321:157500306:157500322:157539459:157500293:157533571"/>
    <tag k="tiger:upload_uuid" v="bulk_upload.pl-c48d30be-055e-4884-8c04-6be7c12c48ba"/>
    <tag k="tiger:zip_left" v="97201"/>
    <tag k="tiger:zip_right" v="97201"/>
  </way>
  <way id="52058493" version="1" timestamp="2010-03-10T08:39:49Z" uid="20587" user="balrog-kun" changeset="4087085">
    <nd ref="663556151"/>
    <nd ref="40590388"/>
    <nd ref="40590392"/>
    <nd ref="40590394"/>
    <nd ref="40590395"/>
    <nd ref="40590397"/>
    <nd ref="40429773"/>
    <tag k="highway" v="tertiary"/>
    <tag k="name" v="Southwest Vista Avenue"/>
    <tag k="tiger:cfcc" v="A41"/>
    <tag k="tiger:county" v="Multnomah, OR"/>
    <tag k="tiger:name_base" v="Vista"/>
    <tag k="tiger:reviewed" v="no"/>
    <tag k="tiger:separated" v="no"/>
    <tag k="tiger:source" v="tiger_import_dch_v0.6_20070808"/>
    <tag k="tiger:tlid" v="157573342:157500297"/>
    <tag k="tiger:upload_uuid" v="bulk_upload.pl-c48d30be-055e-4884-8c04-6be7c12c48ba"/>
    <tag k="tiger:zip_left" v="97201"/>
  </way>
  <way id="52058494" version="1" timestamp="2010-03-10T08:39:49Z" uid="20587" user="balrog-kun" changeset="4087085">
    <nd ref="663556153"/>
    <nd ref="663556151"/>
    <tag k="bridge" v="yes"/>
    <tag k="highway" v="tertiary"/>
    <tag k="layer" v="1"/>
    <tag k="name" v="Southwest Vista Avenue"/>
    <tag k="tiger:cfcc" v="A41"/>
    <tag k="tiger:county" v="Multnomah, OR"/>
    <tag k="tiger:name_base" v="Vista"/>
    <tag k="tiger:reviewed" v="no"/>
    <tag k="tiger:separated" v="no"/>
    <tag k="tiger:source" v="tiger_import_dch_v0.6_20070808"/>
    <tag k="tiger:tlid" v="157573342:157500297"/>
    <tag k="tiger:upload_uuid" v="bulk_upload.pl-c48d30be-055e-4884-8c04-6be7c12c48ba"/>
    <tag k="tiger:zip_left" v="97201"/>
  </way>
  <way id="52058495" version="1" timestamp="2010-03-10T08:39:49Z" uid="20587" user="balrog-kun" changeset="4087085">
    <nd ref="663556161"/>
    <nd ref="663556154"/>
    <nd ref="663556156"/>
    <nd ref="663556158"/>
    <nd ref="663556160"/>
    <nd ref="663556163"/>
    <nd ref="663556162"/>
    <nd ref="663556155"/>
    <nd ref="663556161"/>
    <tag k="addr:housename" v="1234"/>
    <tag k="addr:postcode" v="97205"/>
    <tag k="addr:state" v="Southwest Morrison Street"/>
    <tag k="amenity" v="embassy"/>
    <tag k="building" v="office"/>
    <tag k="name" v="Mexican Consulate"/>
    <tag k="name:es" v="Consulado de México"/>
  </way>
  <way id="52058495" version="2" timestamp="2010-03-10T09:21:09Z" uid="20587" user="balrog-kun" changeset="4087406">
    <nd ref="663556161"/>
    <nd ref="663556154"/>
    <nd ref="663556156"/>
    <nd ref="663556158"/>
    <nd ref="663556160"/>
    <nd ref="663556163"/>
    <nd ref="663556162"/>
    <nd ref="663556155"/>
    <nd ref="663556161"/>
    <tag k="addr:housename" v="1234"/>
    <tag k="addr:postcode" v="97205"/>
    <tag k="addr:state" v="Southwest Morrison Street"/>
    <tag k="amenity" v="embassy"/>
    <tag k="building" v="office"/>
    <tag k="name" v="Mexican Consulate"/>
    <tag k="name:es" v="Consulado de México"/>
    <tag k="phone" v="+15032741442"/>
    <tag k="url" v="http://www.sre.gob.mx/portland/"/>
  </way>
  <way id="52058496" version="1" timestamp="2010-03-10T08:39:49Z" uid="20587" user="balrog-kun" changeset="4087085">
    <nd ref="663556164"/>
    <nd ref="663556165"/>
    <nd ref="663556167"/>
    <nd ref="663556166"/>
    <nd ref="663556164"/>
    <tag k="landuse" v="construction"/>
  </way>
  <way id="52058664" version="1" timestamp="2010-03-10T08:50:56Z" uid="27600" user="Islanit" changeset="4087182">
    <nd ref="265088818"/>
    <nd ref="268549097"/>
    <nd ref="268549098"/>
    <nd ref="268549099"/>
    <nd ref="268549100"/>
    <tag k="highway" v="residential"/>
    <tag k="maxspeed" v="30"/>
    <tag k="name" v="Gojenbergsweg"/>
    <tag k="postal_code" v="21029"/>
  </way>
  <way id="52058665" version="6" timestamp="2010-08-13T09:06:03Z" uid="4467" user="Rosscoe" changeset="5479996">
    <nd ref="251341601"/>
    <nd ref="769984363"/>
    <nd ref="249460500"/>
    <nd ref="769959011"/>
    <tag k="highway" v="residential"/>
    <tag k="is_in" v="Adelaide,South Australia,Australia"/>
    <tag k="maxspeed" v="50"/>
    <tag k="name" v="Kingston Street"/>
    <tag k="oneway" v="yes"/>
    <tag k="postal_code" v="5000"/>
    <tag k="source" v="nearmap"/>
    <tag k="source:name" v="survey"/>
  </way>
  <way id="52058817" version="1" timestamp="2010-03-10T08:53:47Z" uid="7617" user="Franc" changeset="4087205">
    <nd ref="663559985"/>
    <nd ref="663559973"/>
    <tag k="highway" v="service"/>
  </way>
  <way id="52058818" version="1" timestamp="2010-03-10T08:53:47Z" uid="7617" user="Franc" changeset="4087205">
    <nd ref="663559972"/>
    <nd ref="663560006"/>
    <nd ref="663560007"/>
    <nd ref="663559988"/>
    <nd ref="663559989"/>
    <nd ref="663559994"/>
    <tag k="highway" v="service"/>
    <tag k="source" v="nearmap"/>
  </way>
  <way id="52058820" version="1" timestamp="2010-03-10T08:53:47Z" uid="7617" user="Franc" changeset="4087205">
    <nd ref="663559966"/>
    <nd ref="663559971"/>
    <nd ref="114325812"/>
    <nd ref="663559986"/>
    <nd ref="114324680"/>
    <nd ref="436169448"/>
    <nd ref="663560004"/>
    <nd ref="663560005"/>
    <tag k="highway" v="secondary"/>
    <tag k="name" v="Veterans Parade"/>
    <tag k="restriction" v="school_zone"/>
    <tag k="source:name" v="survey"/>
  </way>
  <way id="52058823" version="1" timestamp="2010-03-10T08:53:47Z" uid="7617" user="Franc" changeset="4087205">
    <nd ref="663559974"/>
    <nd ref="416264287"/>
    <nd ref="663559965"/>
    <tag k="highway" v="residential"/>
    <tag k="name" v="Berith Street"/>
    <tag k="restriction" v="school_zone"/>
    <tag k="source:name" v="survey"/>
  </way>
  <way id="52058823" version="2" timestamp="2010-07-07T23:31:27Z" uid="74617" user="JohnSmith" changeset="5162525">
    <nd ref="663559974"/>
    <nd ref="416264287"/>
    <nd ref="663559965"/>
    <tag k="highway" v="residential"/>
    <tag k="maxspeed" v="50"/>
    <tag k="maxspeed:source" v="default residential speed limit in Australia"/>
    <tag k="name" v="Berith Street"/>
    <tag k="restriction" v="school_zone"/>
    <tag k="source:name" v="survey"/>
  </way>
  <way id="52058825" version="1" timestamp="2010-03-10T08:53:47Z" uid="7617" user="Franc" changeset="4087205">
    <nd ref="663559937"/>
    <nd ref="163566986"/>
    <nd ref="163564926"/>
    <tag k="highway" v="residential"/>
    <tag k="name" v="Waroon Road"/>
    <tag k="restriction" v="school_zone"/>
    <tag k="source:name" v="survey"/>
  </way>
  <way id="52058825" version="2" timestamp="2010-07-07T23:34:13Z" uid="74617" user="JohnSmith" changeset="5162525">
    <nd ref="663559937"/>
    <nd ref="163566986"/>
    <nd ref="163564926"/>
    <tag k="highway" v="residential"/>
    <tag k="maxspeed" v="50"/>
    <tag k="maxspeed:source" v="default residential speed limit in Australia"/>
    <tag k="name" v="Waroon Road"/>
    <tag k="restriction" v="school_zone"/>
    <tag k="source:name" v="survey"/>
  </way>
  <way id="52058827" version="1" timestamp="2010-03-10T08:53:47Z" uid="7617" user="Franc" changeset="4087205">
    <nd ref="663559953"/>
    <nd ref="114310853"/>
    <nd ref="663559954"/>
    <nd ref="417235671"/>
    <nd ref="417235663"/>
    <nd ref="663559950"/>
    <nd ref="114310852"/>
    <nd ref="114310851"/>
    <nd ref="663559951"/>
    <nd ref="663559952"/>
    <nd ref="114310850"/>
    <nd ref="417235674"/>
    <nd ref="663559957"/>
    <nd ref="663559958"/>
    <nd ref="114310849"/>
    <nd ref="663559949"/>
    <tag k="highway" v="secondary"/>
    <tag k="name" v="South Creek Road"/>
    <tag k="restriction" v="school_zone"/>
    <tag k="source:name" v="survey"/>
  </way>
  <way id="52058831" version="1" timestamp="2010-03-10T08:53:48Z" uid="7617" user="Franc" changeset="4087205">
    <nd ref="663559873"/>
    <nd ref="163565582"/>
    <nd ref="618542743"/>
    <tag k="highway" v="secondary"/>
    <tag k="name" v="Carawa Road"/>
    <tag k="source" v="Yahoo Imagery"/>
    <tag k="source:name" v="survey"/>
  </way>
  <way id="52058834" version="1" timestamp="2010-03-10T08:53:48Z" uid="7617" user="Franc" changeset="4087205">
    <nd ref="663559876"/>
    <nd ref="413326636"/>
    <nd ref="88625011"/>
    <tag k="highway" v="residential"/>
    <tag k="name" v="Davison Street"/>
    <tag k="source" v="survey"/>
  </way>
  <way id="52058834" version="2" timestamp="2010-07-07T23:32:00Z" uid="74617" user="JohnSmith" changeset="5162525">
    <nd ref="663559876"/>
    <nd ref="413326636"/>
    <nd ref="88625011"/>
    <tag k="highway" v="residential"/>
    <tag k="maxspeed" v="50"/>
    <tag k="maxspeed:source" v="default residential speed limit in Australia"/>
    <tag k="name" v="Davison Street"/>
    <tag k="source" v="survey"/>
  </way>
  <way id="52058836" version="1" timestamp="2010-03-10T08:53:48Z" uid="7617" user="Franc" changeset="4087205">
    <nd ref="663559867"/>
    <nd ref="163566165"/>
    <nd ref="663559866"/>
    <nd ref="204388883"/>
    <nd ref="163564926"/>
    <nd ref="663559872"/>
    <nd ref="88625022"/>
    <nd ref="663559873"/>
    <tag k="highway" v="secondary"/>
    <tag k="name" v="Carawa Road"/>
    <tag k="restriction" v="school_zone"/>
    <tag k="source" v="nearmap"/>
    <tag k="source:name" v="survey"/>
  </way>
  <way id="52058840" version="1" timestamp="2010-03-10T08:53:48Z" uid="7617" user="Franc" changeset="4087205">
    <nd ref="663559868"/>
    <nd ref="663559865"/>
    <nd ref="204398635"/>
    <nd ref="204398636"/>
    <nd ref="204398637"/>
    <nd ref="204398638"/>
    <nd ref="204398640"/>
    <nd ref="204398641"/>
    <nd ref="204398642"/>
    <nd ref="204398643"/>
    <nd ref="204398644"/>
    <nd ref="413326627"/>
    <nd ref="204398645"/>
    <nd ref="204398647"/>
    <nd ref="204398648"/>
    <tag k="highway" v="residential"/>
    <tag k="name" v="Lilihina Avenue"/>
    <tag k="source:name" v="survey"/>
  </way>
  <way id="52058840" version="2" timestamp="2010-07-07T23:33:14Z" uid="74617" user="JohnSmith" changeset="5162525">
    <nd ref="663559868"/>
    <nd ref="663559865"/>
    <nd ref="204398635"/>
    <nd ref="204398636"/>
    <nd ref="204398637"/>
    <nd ref="204398638"/>
    <nd ref="204398640"/>
    <nd ref="204398641"/>
    <nd ref="204398642"/>
    <nd ref="204398643"/>
    <nd ref="204398644"/>
    <nd ref="413326627"/>
    <nd ref="204398645"/>
    <nd ref="204398647"/>
    <nd ref="204398648"/>
    <tag k="highway" v="residential"/>
    <tag k="maxspeed" v="50"/>
    <tag k="maxspeed:source" v="default residential speed limit in Australia"/>
    <tag k="name" v="Lilihina Avenue"/>
    <tag k="source:name" v="survey"/>
  </way>
  <way id="52058843" version="1" timestamp="2010-03-10T08:53:48Z" uid="7617" user="Franc" changeset="4087205">
    <nd ref="663559936"/>
    <nd ref="163564182"/>
    <nd ref="163566713"/>
    <nd ref="163566715"/>
    <nd ref="163566716"/>
    <tag k="highway" v="residential"/>
    <tag k="name" v="Carcoola Road"/>
    <tag k="source:name" v="survey"/>
  </way>
  <way id="52058843" version="2" timestamp="2010-07-07T23:36:12Z" uid="74617" user="JohnSmith" changeset="5162525">
    <nd ref="663559936"/>
    <nd ref="163564182"/>
    <nd ref="163566713"/>
    <nd ref="163566715"/>
    <nd ref="163566716"/>
    <tag k="highway" v="residential"/>
    <tag k="maxspeed" v="50"/>
    <tag k="maxspeed:source" v="default residential speed limit in Australia"/>
    <tag k="name" v="Carcoola Road"/>
    <tag k="source:name" v="survey"/>
  </way>
  <way id="52058845" version="1" timestamp="2010-03-10T08:53:48Z" uid="7617" user="Franc" changeset="4087205">
    <nd ref="663559935"/>
    <nd ref="163566711"/>
    <tag k="highway" v="residential"/>
    <tag k="name" v="Pinta Place"/>
    <tag k="restriction" v="school_zone"/>
    <tag k="source:name" v="survey"/>
  </way>
  <way id="52058845" version="2" timestamp="2010-07-07T23:33:50Z" uid="74617" user="JohnSmith" changeset="5162525">
    <nd ref="663559935"/>
    <nd ref="163566711"/>
    <tag k="highway" v="residential"/>
    <tag k="maxspeed" v="50"/>
    <tag k="maxspeed:source" v="default residential speed limit in Australia"/>
    <tag k="name" v="Pinta Place"/>
    <tag k="restriction" v="school_zone"/>
    <tag k="source:name" v="survey"/>
  </way>
  <way id="52058847" version="1" timestamp="2010-03-10T08:53:48Z" uid="7617" user="Franc" changeset="4087205">
    <nd ref="663559949"/>
    <nd ref="114310848"/>
    <nd ref="660942965"/>
    <nd ref="660942964"/>
    <nd ref="618542777"/>
    <tag k="highway" v="secondary"/>
    <tag k="name" v="South Creek Road"/>
    <tag k="source:name" v="survey"/>
  </way>
  <way id="52058849" version="1" timestamp="2010-03-10T08:53:49Z" uid="7617" user="Franc" changeset="4087205">
    <nd ref="663559956"/>
    <nd ref="663559955"/>
    <nd ref="163556180"/>
    <tag k="highway" v="residential"/>
    <tag k="name" v="Thew Parade"/>
    <tag k="source:name" v="survey"/>
  </way>
  <way id="52058849" version="2" timestamp="2010-07-07T23:34:30Z" uid="74617" user="JohnSmith" changeset="5162525">
    <nd ref="663559956"/>
    <nd ref="663559955"/>
    <nd ref="163556180"/>
    <tag k="highway" v="residential"/>
    <tag k="maxspeed" v="50"/>
    <tag k="maxspeed:source" v="default residential speed limit in Australia"/>
    <tag k="name" v="Thew Parade"/>
    <tag k="source:name" v="survey"/>
  </way>
  <way id="52058851" version="1" timestamp="2010-03-10T08:53:49Z" uid="7617" user="Franc" changeset="4087205">
    <nd ref="663559959"/>
    <nd ref="114310849"/>
    <tag k="highway" v="residential"/>
    <tag k="name" v="Inman Road"/>
    <tag k="restriction" v="school_zone"/>
    <tag k="source:name" v="survey"/>
  </way>
  <way id="52058851" version="2" timestamp="2010-07-07T23:35:19Z" uid="74617" user="JohnSmith" changeset="5162525">
    <nd ref="663559959"/>
    <nd ref="114310849"/>
    <tag k="highway" v="residential"/>
    <tag k="maxspeed" v="50"/>
    <tag k="maxspeed:source" v="default residential speed limit in Australia"/>
    <tag k="name" v="Inman Road"/>
    <tag k="restriction" v="school_zone"/>
    <tag k="source:name" v="survey"/>
  </way>
  <way id="52058852" version="1" timestamp="2010-03-10T08:53:49Z" uid="7617" user="Franc" changeset="4087205">
    <nd ref="663559965"/>
    <nd ref="163547566"/>
    <tag k="highway" v="residential"/>
    <tag k="name" v="Berith Street"/>
    <tag k="source:name" v="survey"/>
  </way>
  <way id="52058852" version="2" timestamp="2010-07-07T23:35:55Z" uid="74617" user="JohnSmith" changeset="5162525">
    <nd ref="663559965"/>
    <nd ref="163547566"/>
    <tag k="highway" v="residential"/>
    <tag k="maxspeed" v="50"/>
    <tag k="maxspeed:source" v="default residential speed limit in Australia"/>
    <tag k="name" v="Berith Street"/>
    <tag k="source:name" v="survey"/>
  </way>
  <way id="52058854" version="1" timestamp="2010-03-10T08:53:49Z" uid="7617" user="Franc" changeset="4087205">
    <nd ref="663559970"/>
    <nd ref="663559972"/>
    <nd ref="124801046"/>
    <nd ref="124803647"/>
    <nd ref="124801830"/>
    <nd ref="124800618"/>
    <tag k="highway" v="residential"/>
    <tag k="name" v="Grevillea Street"/>
    <tag k="source:name" v="survey"/>
  </way>
  <way id="52058854" version="2" timestamp="2010-07-07T23:31:38Z" uid="74617" user="JohnSmith" changeset="5162525">
    <nd ref="663559970"/>
    <nd ref="663559972"/>
    <nd ref="124801046"/>
    <nd ref="124803647"/>
    <nd ref="124801830"/>
    <nd ref="124800618"/>
    <tag k="highway" v="residential"/>
    <tag k="maxspeed" v="50"/>
    <tag k="maxspeed:source" v="default residential speed limit in Australia"/>
    <tag k="name" v="Grevillea Street"/>
    <tag k="source:name" v="survey"/>
  </way>
  <way id="52058857" version="1" timestamp="2010-03-10T08:53:49Z" uid="7617" user="Franc" changeset="4087205">
    <nd ref="663560005"/>
    <nd ref="114325814"/>
    <nd ref="618623902"/>
    <tag k="highway" v="secondary"/>
    <tag k="name" v="Veterans Parade"/>
    <tag k="source:name" v="survey"/>
  </way>
  <way id="52058863" version="1" timestamp="2010-03-10T08:53:49Z" uid="7617" user="Franc" changeset="4087205">
    <nd ref="663559976"/>
    <nd ref="663559977"/>
    <nd ref="663559978"/>
    <nd ref="663559979"/>
    <nd ref="663559980"/>
    <nd ref="663559981"/>
    <nd ref="663559982"/>
    <nd ref="663559995"/>
    <nd ref="663559996"/>
    <nd ref="663559997"/>
    <nd ref="663559998"/>
    <nd ref="663559999"/>
    <nd ref="663560001"/>
    <nd ref="663560002"/>
    <nd ref="663559990"/>
    <nd ref="663559991"/>
    <nd ref="663559992"/>
    <nd ref="663559993"/>
    <nd ref="663559983"/>
    <nd ref="663559984"/>
    <nd ref="663559976"/>
    <tag k="amenity" v="parking"/>
    <tag k="source" v="nearmap"/>
  </way>
  <way id="52058866" version="1" timestamp="2010-03-10T08:53:49Z" uid="7617" user="Franc" changeset="4087205">
    <nd ref="663559986"/>
    <nd ref="663559987"/>
    <tag k="highway" v="service"/>
    <tag k="source" v="nearmap"/>
  </way>
  <way id="52058868" version="1" timestamp="2010-03-10T08:53:49Z" uid="7617" user="Franc" changeset="4087205">
    <nd ref="663560003"/>
    <nd ref="663560004"/>
    <tag k="highway" v="service"/>
    <tag k="source" v="nearmap"/>
  </way>
  <way id="52058869" version="1" timestamp="2010-03-10T08:53:49Z" uid="7617" user="Franc" changeset="4087205">
    <nd ref="663559975"/>
    <nd ref="436169447"/>
    <nd ref="114324680"/>
    <tag k="highway" v="secondary"/>
    <tag k="maxspeed" v="50"/>
    <tag k="name" v="Rose Avenue"/>
    <tag k="restriction" v="school_zone"/>
  </way>
</osm>
