<?xml version='1.0' encoding='UTF-8'?>
<osm version="0.6" generator="libosmium/2.20.0">
  <way id="52136014" version="2" timestamp="2010-04-02T17:57:58Z" uid="20587" user="balrog-kun" changeset="4304500">
    <nd ref="664325179"/>
    <nd ref="664325180"/>
    <tag k="highway" v="residential"/>
    <tag k="name" v="241st Avenue Southeast"/>
    <tag k="tiger:cfcc" v="A41"/>
    <tag k="tiger:county" v="King, WA"/>
    <tag k="tiger:name_base" v="241st"/>
    <tag k="tiger:name_direction_suffix" v="SE"/>
    <tag k="tiger:name_type" v="Ave"/>
    <tag k="tiger:reviewed" v="no"/>
    <tag k="tiger:separated" v="no"/>
    <tag k="tiger:source" v="tiger_import_dch_v0.6_20070830"/>
    <tag k="tiger:tlid" v="186689572:186686922"/>
    <tag k="tiger:zip_left" v="98029"/>
    <tag k="tiger:zip_right" v="98029"/>
  </way>
  <way id="52136034" version="2" timestamp="2010-07-07T09:32:29Z" uid="74617" user="JohnSmith" changeset="5156250">
    <nd ref="664325538"/>
    <nd ref="664325539"/>
    <nd ref="664325540"/>
    <nd ref="664325536"/>
    <tag k="highway" v="residential"/>
    <tag k="maxspeed" v="50"/>
    <tag k="maxspeed:source" v="default residential speed limit in Australia"/>
    <tag k="oneway" v="yes"/>
    <tag k="source" v="nearmap"/>
  </way>
  <way id="52136035" version="2" timestamp="2010-07-07T09:33:38Z" uid="74617" user="JohnSmith" changeset="5156250">
    <nd ref="664325535"/>
    <nd ref="664325541"/>
    <nd ref="664325542"/>
    <nd ref="664325543"/>
    <nd ref="664325538"/>
    <tag k="highway" v="residential"/>
    <tag k="maxspeed" v="50"/>
    <tag k="maxspeed:source" v="default residential speed limit in Australia"/>
    <tag k="oneway" v="yes"/>
    <tag k="source" v="nearmap"/>
  </way>
  <way id="52136037" version="2" timestamp="2010-07-07T09:32:40Z" uid="74617" user="JohnSmith" changeset="5156250">
    <nd ref="664325601"/>
    <nd ref="664325602"/>
    <nd ref="246382985"/>
    <tag k="highway" v="residential"/>
    <tag k="maxspeed" v="50"/>
    <tag k="maxspeed:source" v="default residential speed limit in Australia"/>
    <tag k="source" v="nearmap"/>
  </way>
  <way id="52136039" version="2" timestamp="2010-07-07T09:33:03Z" uid="74617" user="JohnSmith" changeset="5156250">
    <nd ref="664325605"/>
    <nd ref="246383024"/>
    <tag k="highway" v="residential"/>
    <tag k="maxspeed" v="50"/>
    <tag k="maxspeed:source" v="default residential speed limit in Australia"/>
    <tag k="source" v="nearmap"/>
  </way>
  <way id="52136040" version="2" timestamp="2010-07-07T09:32:58Z" uid="74617" user="JohnSmith" changeset="5156250">
    <nd ref="664325606"/>
    <nd ref="664325607"/>
    <nd ref="246383031"/>
    <tag k="highway" v="residential"/>
    <tag k="maxspeed" v="50"/>
    <tag k="maxspeed:source" v="default residential speed limit in Australia"/>
    <tag k="source" v="nearmap"/>
  </way>
  <way id="52136041" version="2" timestamp="2010-07-07T09:34:05Z" uid="74617" user="JohnSmith" changeset="5156250">
    <nd ref="664325609"/>
    <nd ref="246383038"/>
    <tag k="highway" v="residential"/>
    <tag k="maxspeed" v="50"/>
    <tag k="maxspeed:source" v="default residential speed limit in Australia"/>
    <tag k="source" v="nearmap"/>
  </way>
  <way id="52136042" version="2" timestamp="2010-07-07T09:33:14Z" uid="74617" user="JohnSmith" changeset="5156250">
    <nd ref="664325611"/>
    <nd ref="664325612"/>
    <nd ref="246383013"/>
    <tag k="highway" v="residential"/>
    <tag k="maxspeed" v="50"/>
    <tag k="maxspeed:source" v="default residential speed limit in Australia"/>
    <tag k="source" v="nearmap"/>
  </way>
  <way id="52136044" version="3" timestamp="2010-06-09T14:44:27Z" uid="9719" user="dvaey" changeset="4945637">
    <nd ref="664325657"/>
    <nd ref="767939959"/>
    <nd ref="664325662"/>
    <nd ref="664325659"/>
    <nd ref="664325663"/>
    <nd ref="664325660"/>
    <tag k="highway" v="secondary"/>
    <tag k="name" v="Canberra Avenue"/>
    <tag k="oneway" v="yes"/>
    <tag k="source" v="nearmap"/>
  </way>
  <way id="52136044" version="4" timestamp="2010-06-09T14:45:08Z" uid="9719" user="dvaey" changeset="4945637">
    <nd ref="767939959"/>
    <nd ref="664325662"/>
    <nd ref="664325659"/>
    <nd ref="664325663"/>
    <nd ref="664325660"/>
    <tag k="highway" v="secondary"/>
    <tag k="name" v="Canberra Avenue"/>
    <tag k="oneway" v="yes"/>
    <tag k="source" v="nearmap"/>
  </way>
  <way id="52136068" version="2" timestamp="2010-07-07T09:32:18Z" uid="74617" user="JohnSmith" changeset="5156250">
    <nd ref="664325815"/>
    <nd ref="664325816"/>
    <nd ref="664325814"/>
    <tag k="highway" v="residential"/>
    <tag k="maxspeed" v="50"/>
    <tag k="maxspeed:source" v="default residential speed limit in Australia"/>
    <tag k="oneway" v="yes"/>
    <tag k="source" v="nearmap"/>
  </way>
  <way id="52136069" version="2" timestamp="2010-07-07T09:33:24Z" uid="74617" user="JohnSmith" changeset="5156250">
    <nd ref="664325813"/>
    <nd ref="664325818"/>
    <nd ref="664325819"/>
    <nd ref="664325815"/>
    <tag k="highway" v="residential"/>
    <tag k="maxspeed" v="50"/>
    <tag k="maxspeed:source" v="default residential speed limit in Australia"/>
    <tag k="oneway" v="yes"/>
    <tag k="source" v="nearmap"/>
  </way>
  <way id="52136070" version="2" timestamp="2010-04-02T17:57:58Z" uid="20587" user="balrog-kun" changeset="4304500">
    <nd ref="664325847"/>
    <nd ref="664325859"/>
    <tag k="highway" v="residential"/>
    <tag k="name" v="242nd Avenue Southeast"/>
    <tag k="tiger:cfcc" v="A41"/>
    <tag k="tiger:county" v="King, WA"/>
    <tag k="tiger:name_base" v="242nd"/>
    <tag k="tiger:name_direction_suffix" v="SE"/>
    <tag k="tiger:name_type" v="Ave"/>
    <tag k="tiger:reviewed" v="no"/>
    <tag k="tiger:separated" v="no"/>
    <tag k="tiger:source" v="tiger_import_dch_v0.6_20070830"/>
    <tag k="tiger:tlid" v="186926903:186922992:186922995:186922996"/>
    <tag k="tiger:zip_left" v="98029"/>
    <tag k="tiger:zip_right" v="98029"/>
  </way>
  <way id="52136091" version="2" timestamp="2010-07-07T09:38:18Z" uid="74617" user="JohnSmith" changeset="5156250">
    <nd ref="664325956"/>
    <nd ref="664325957"/>
    <nd ref="664325958"/>
    <nd ref="664325959"/>
    <nd ref="664325960"/>
    <tag k="highway" v="residential"/>
    <tag k="maxspeed" v="50"/>
    <tag k="maxspeed:source" v="default residential speed limit in Australia"/>
    <tag k="source" v="nearmap"/>
  </way>
  <way id="52136096" version="2" timestamp="2010-07-07T09:39:33Z" uid="74617" user="JohnSmith" changeset="5156250">
    <nd ref="664325982"/>
    <nd ref="664325983"/>
    <nd ref="664325984"/>
    <nd ref="664325985"/>
    <nd ref="664325986"/>
    <nd ref="664325987"/>
    <nd ref="664325988"/>
    <nd ref="664325989"/>
    <tag k="highway" v="residential"/>
    <tag k="maxspeed" v="50"/>
    <tag k="maxspeed:source" v="default residential speed limit in Australia"/>
    <tag k="source" v="nearmap"/>
  </way>
  <way id="52136097" version="2" timestamp="2010-07-07T09:39:55Z" uid="74617" user="JohnSmith" changeset="5156250">
    <nd ref="664325990"/>
    <nd ref="664325989"/>
    <nd ref="664325991"/>
    <tag k="highway" v="residential"/>
    <tag k="maxspeed" v="50"/>
    <tag k="maxspeed:source" v="default residential speed limit in Australia"/>
    <tag k="source" v="nearmap"/>
  </way>
  <way id="52136101" version="2" timestamp="2010-07-07T09:38:08Z" uid="74617" user="JohnSmith" changeset="5156250">
    <nd ref="664326009"/>
    <nd ref="664326010"/>
    <nd ref="664326005"/>
    <nd ref="664326011"/>
    <nd ref="664326012"/>
    <nd ref="664325982"/>
    <nd ref="664326013"/>
    <tag k="highway" v="residential"/>
    <tag k="maxspeed" v="50"/>
    <tag k="maxspeed:source" v="default residential speed limit in Australia"/>
    <tag k="source" v="nearmap"/>
  </way>
  <way id="52136166" version="3" timestamp="2010-07-07T09:38:01Z" uid="74617" user="JohnSmith" changeset="5156250">
    <nd ref="664326510"/>
    <nd ref="664326509"/>
    <tag k="highway" v="residential"/>
    <tag k="maxspeed" v="50"/>
    <tag k="maxspeed:source" v="default residential speed limit in Australia"/>
    <tag k="name" v="Gregg Place"/>
    <tag k="source" v="nearmap"/>
  </way>
  <way id="52136308" version="1" timestamp="2010-03-12T03:42:18Z" uid="115684" user="jVviJ11dNx" changeset="4103366">
    <nd ref="664327498"/>
    <nd ref="664327494"/>
    <tag k="highway" v="residential"/>
    <tag k="source" v="nearmap"/>
  </way>
  <way id="52136309" version="1" timestamp="2010-03-12T03:42:18Z" uid="115684" user="jVviJ11dNx" changeset="4103366">
    <nd ref="249177472"/>
    <nd ref="249172781"/>
    <nd ref="249180588"/>
    <nd ref="249180591"/>
    <nd ref="249180701"/>
    <nd ref="145513712"/>
    <nd ref="249180817"/>
    <tag k="highway" v="primary"/>
    <tag k="name" v="Cobb HIghway"/>
    <tag k="ref" v="NR75"/>
  </way>
  <way id="52136309" version="2" timestamp="2010-03-13T03:19:17Z" uid="115684" user="jVviJ11dNx" changeset="4111493">
    <nd ref="249177472"/>
    <nd ref="249172781"/>
    <nd ref="249180588"/>
    <nd ref="249180591"/>
    <nd ref="249180701"/>
    <nd ref="664988689"/>
    <nd ref="145513712"/>
    <nd ref="664988614"/>
    <nd ref="664988608"/>
    <nd ref="664988606"/>
    <nd ref="249180817"/>
    <tag k="highway" v="primary"/>
    <tag k="name" v="Cobb HIghway"/>
    <tag k="ref" v="NR75"/>
  </way>
  <way id="52136309" version="3" timestamp="2010-04-05T05:25:29Z" uid="4467" user="Rosscoe" changeset="4329302">
    <nd ref="249177472"/>
    <nd ref="249180591"/>
    <nd ref="249180701"/>
    <nd ref="664988689"/>
    <nd ref="145513712"/>
    <nd ref="664988614"/>
    <nd ref="664988608"/>
    <nd ref="664988606"/>
    <nd ref="249180817"/>
    <tag k="highway" v="primary"/>
    <tag k="name" v="Cobb Highway"/>
    <tag k="ref" v="B75"/>
    <tag k="source" v="survey"/>
  </way>
  <way id="52136309" version="4" timestamp="2010-04-26T15:44:50Z" uid="74617" user="JohnSmith" changeset="4532963">
    <nd ref="249177472"/>
    <nd ref="707563689"/>
    <tag k="highway" v="primary"/>
    <tag k="name" v="Cobb Highway"/>
    <tag k="ref" v="B75"/>
    <tag k="source" v="survey"/>
  </way>
  <way id="52136310" version="1" timestamp="2010-03-12T03:42:18Z" uid="115684" user="jVviJ11dNx" changeset="4103366">
    <nd ref="249177275"/>
    <nd ref="664327493"/>
    <nd ref="664327483"/>
    <nd ref="664327484"/>
    <nd ref="664327485"/>
    <nd ref="664327486"/>
    <nd ref="664327487"/>
    <nd ref="664327488"/>
    <nd ref="664327489"/>
    <tag k="highway" v="residential"/>
    <tag k="source" v="nearmap"/>
  </way>
  <way id="52136311" version="1" timestamp="2010-03-12T03:42:18Z" uid="115684" user="jVviJ11dNx" changeset="4103366">
    <nd ref="664327493"/>
    <nd ref="664327491"/>
    <nd ref="664327492"/>
    <tag k="highway" v="residential"/>
    <tag k="source" v="nearmap"/>
  </way>
  <way id="52136312" version="1" timestamp="2010-03-12T03:42:18Z" uid="115684" user="jVviJ11dNx" changeset="4103366">
    <nd ref="249177472"/>
    <nd ref="664327503"/>
    <nd ref="664327513"/>
    <nd ref="664327510"/>
    <nd ref="664327559"/>
    <nd ref="664327560"/>
    <nd ref="664327561"/>
    <nd ref="664327562"/>
    <nd ref="664327563"/>
    <nd ref="664327564"/>
    <tag k="highway" v="residential"/>
    <tag k="source" v="nearmap"/>
  </way>
  <way id="52136313" version="1" timestamp="2010-03-12T03:42:18Z" uid="115684" user="jVviJ11dNx" changeset="4103366">
    <nd ref="664327516"/>
    <nd ref="664327504"/>
    <nd ref="664327505"/>
    <nd ref="664327506"/>
    <nd ref="664327507"/>
    <nd ref="664327495"/>
    <nd ref="664327500"/>
    <tag k="highway" v="residential"/>
    <tag k="source" v="nearmap"/>
  </way>
  <way id="52136314" version="1" timestamp="2010-03-12T03:42:18Z" uid="115684" user="jVviJ11dNx" changeset="4103366">
    <nd ref="664327515"/>
    <nd ref="664327555"/>
    <nd ref="249075517"/>
    <nd ref="664327554"/>
    <nd ref="664327556"/>
    <nd ref="664327557"/>
    <tag k="highway" v="residential"/>
    <tag k="source" v="nearmap"/>
  </way>
  <way id="52136315" version="1" timestamp="2010-03-12T03:42:18Z" uid="115684" user="jVviJ11dNx" changeset="4103366">
    <nd ref="664327499"/>
    <nd ref="664327501"/>
    <nd ref="664327554"/>
    <tag k="highway" v="residential"/>
    <tag k="source" v="nearmap"/>
  </way>
  <way id="52136316" version="1" timestamp="2010-03-12T03:42:18Z" uid="115684" user="jVviJ11dNx" changeset="4103366">
    <nd ref="664327528"/>
    <nd ref="664327501"/>
    <nd ref="249177479"/>
    <nd ref="664327558"/>
    <nd ref="249177274"/>
    <tag k="highway" v="primary"/>
    <tag k="name" v="Riverina Highway; Finley Road"/>
    <tag k="ref" v="B58"/>
  </way>
  <way id="52136316" version="2" timestamp="2010-04-05T05:25:30Z" uid="4467" user="Rosscoe" changeset="4329302">
    <nd ref="664327528"/>
    <nd ref="664327501"/>
    <nd ref="249177479"/>
    <nd ref="664327558"/>
    <nd ref="249177274"/>
    <tag k="highway" v="primary"/>
    <tag k="name" v="Finley Road"/>
    <tag k="ref" v="B58"/>
    <tag k="source" v="survey"/>
  </way>
  <way id="52136317" version="1" timestamp="2010-03-12T03:42:18Z" uid="115684" user="jVviJ11dNx" changeset="4103366">
    <nd ref="664327496"/>
    <nd ref="664327498"/>
    <nd ref="664327497"/>
    <nd ref="664327558"/>
    <tag k="highway" v="residential"/>
    <tag k="source" v="nearmap"/>
  </way>
  <way id="52136318" version="1" timestamp="2010-03-12T03:42:18Z" uid="115684" user="jVviJ11dNx" changeset="4103366">
    <nd ref="664327547"/>
    <nd ref="664327548"/>
    <nd ref="664327549"/>
    <nd ref="664327540"/>
    <nd ref="664327533"/>
    <nd ref="664327534"/>
    <nd ref="249172796"/>
    <tag k="highway" v="primary"/>
    <tag k="name" v="Cobb HIghway"/>
    <tag k="oneway" v="yes"/>
    <tag k="ref" v="B75"/>
    <tag k="source" v="nearmap"/>
  </way>
  <way id="52136318" version="2" timestamp="2010-04-05T05:25:30Z" uid="4467" user="Rosscoe" changeset="4329302">
    <nd ref="664327547"/>
    <nd ref="664327548"/>
    <nd ref="664327549"/>
    <nd ref="664327540"/>
    <nd ref="664327533"/>
    <nd ref="664327534"/>
    <nd ref="249172796"/>
    <tag k="highway" v="primary"/>
    <tag k="name" v="Cobb Highway"/>
    <tag k="oneway" v="yes"/>
    <tag k="ref" v="B75"/>
    <tag k="source" v="nearmap"/>
  </way>
  <way id="52136318" version="3" timestamp="2011-02-12T06:54:48Z" uid="18775" user="drlizau" changeset="7261768">
    <nd ref="664327547"/>
    <nd ref="664327548"/>
    <nd ref="664327549"/>
    <nd ref="664327540"/>
    <nd ref="664327533"/>
    <nd ref="249172796"/>
    <tag k="highway" v="primary"/>
    <tag k="name" v="Cobb Highway"/>
    <tag k="oneway" v="yes"/>
    <tag k="ref" v="B75"/>
    <tag k="source" v="nearmap"/>
  </way>
  <way id="52136319" version="1" timestamp="2010-03-12T03:42:19Z" uid="115684" user="jVviJ11dNx" changeset="4103366">
    <nd ref="249172794"/>
    <nd ref="664327519"/>
    <nd ref="249172792"/>
    <nd ref="664327531"/>
    <nd ref="664327532"/>
    <nd ref="664327529"/>
    <nd ref="664327528"/>
    <tag k="highway" v="primary"/>
    <tag k="name" v="Riverina Highway; Finley Road"/>
    <tag k="oneway" v="yes"/>
    <tag k="ref" v="B58"/>
    <tag k="source" v="nearmap"/>
  </way>
  <way id="52136319" version="2" timestamp="2010-04-05T05:25:31Z" uid="4467" user="Rosscoe" changeset="4329302">
    <nd ref="249172794"/>
    <nd ref="664327519"/>
    <nd ref="249172792"/>
    <nd ref="664327531"/>
    <nd ref="664327532"/>
    <nd ref="664327529"/>
    <nd ref="664327528"/>
    <tag k="highway" v="primary"/>
    <tag k="name" v="Finley Road"/>
    <tag k="oneway" v="yes"/>
    <tag k="ref" v="B58"/>
    <tag k="source" v="survey"/>
  </way>
  <way id="52136320" version="1" timestamp="2010-03-12T03:42:19Z" uid="115684" user="jVviJ11dNx" changeset="4103366">
    <nd ref="664327521"/>
    <nd ref="664327525"/>
    <nd ref="664327524"/>
    <nd ref="249177472"/>
    <tag k="highway" v="primary"/>
    <tag k="name" v="Cobb HIghway"/>
    <tag k="oneway" v="yes"/>
    <tag k="source" v="nearmap"/>
  </way>
  <way id="52136320" version="2" timestamp="2010-04-05T05:25:30Z" uid="4467" user="Rosscoe" changeset="4329302">
    <nd ref="664327521"/>
    <nd ref="664327525"/>
    <nd ref="664327524"/>
    <nd ref="249177472"/>
    <tag k="highway" v="primary"/>
    <tag k="name" v="Cobb Highway"/>
    <tag k="oneway" v="yes"/>
    <tag k="source" v="nearmap"/>
  </way>
  <way id="52136320" version="3" timestamp="2011-02-12T06:54:49Z" uid="18775" user="drlizau" changeset="7261768">
    <nd ref="664327521"/>
    <nd ref="664327524"/>
    <nd ref="249177472"/>
    <tag k="highway" v="primary"/>
    <tag k="name" v="Cobb Highway"/>
    <tag k="oneway" v="yes"/>
    <tag k="source" v="nearmap"/>
  </way>
  <way id="52136321" version="1" timestamp="2010-03-12T03:42:19Z" uid="115684" user="jVviJ11dNx" changeset="4103366">
    <nd ref="249172783"/>
    <nd ref="664327538"/>
    <nd ref="664327546"/>
    <nd ref="664327547"/>
    <tag k="highway" v="primary"/>
    <tag k="name" v="Cobb HIghway"/>
    <tag k="oneway" v="yes"/>
    <tag k="ref" v="B75"/>
    <tag k="source" v="survey"/>
  </way>
  <way id="52136321" version="2" timestamp="2010-04-05T05:25:30Z" uid="4467" user="Rosscoe" changeset="4329302">
    <nd ref="249172783"/>
    <nd ref="664327538"/>
    <nd ref="664327546"/>
    <nd ref="664327547"/>
    <tag k="highway" v="primary"/>
    <tag k="name" v="Cobb Highway"/>
    <tag k="oneway" v="yes"/>
    <tag k="ref" v="B75"/>
    <tag k="source" v="survey"/>
  </way>
  <way id="52136322" version="1" timestamp="2010-03-12T03:42:19Z" uid="115684" user="jVviJ11dNx" changeset="4103366">
    <nd ref="664327539"/>
    <nd ref="664327538"/>
    <tag k="highway" v="service"/>
    <tag k="oneway" v="yes"/>
    <tag k="source" v="nearmap"/>
  </way>
  <way id="52136323" version="1" timestamp="2010-03-12T03:42:19Z" uid="115684" user="jVviJ11dNx" changeset="4103366">
    <nd ref="249172793"/>
    <nd ref="664327537"/>
    <tag k="highway" v="service"/>
    <tag k="oneway" v="yes"/>
    <tag k="source" v="nearmap"/>
  </way>
  <way id="52136324" version="1" timestamp="2010-03-12T03:42:19Z" uid="115684" user="jVviJ11dNx" changeset="4103366">
    <nd ref="664327544"/>
    <nd ref="664327545"/>
    <tag k="highway" v="residential"/>
    <tag k="source" v="nearmap"/>
  </way>
  <way id="52136325" version="1" timestamp="2010-03-12T03:42:19Z" uid="115684" user="jVviJ11dNx" changeset="4103366">
    <nd ref="664327543"/>
    <nd ref="664327545"/>
    <nd ref="664327552"/>
    <tag k="highway" v="residential"/>
    <tag k="source" v="nearmap"/>
  </way>
  <way id="52136326" version="1" timestamp="2010-03-12T03:42:19Z" uid="115684" user="jVviJ11dNx" changeset="4103366">
    <nd ref="664327526"/>
    <nd ref="664327527"/>
    <nd ref="664327537"/>
    <nd ref="664327539"/>
    <nd ref="664327536"/>
    <nd ref="664327541"/>
    <nd ref="664327542"/>
    <nd ref="664327550"/>
    <nd ref="664327551"/>
    <nd ref="664327502"/>
    <nd ref="664327509"/>
    <nd ref="664327512"/>
    <tag k="highway" v="service"/>
    <tag k="source" v="nearmap"/>
  </way>
  <way id="52136327" version="1" timestamp="2010-03-12T03:42:19Z" uid="115684" user="jVviJ11dNx" changeset="4103366">
    <nd ref="664327513"/>
    <nd ref="664327514"/>
    <tag k="highway" v="residential"/>
    <tag k="source" v="nearmap"/>
  </way>
  <way id="52136328" version="1" timestamp="2010-03-12T03:42:19Z" uid="115684" user="jVviJ11dNx" changeset="4103366">
    <nd ref="664327503"/>
    <nd ref="664327512"/>
    <nd ref="664327511"/>
    <nd ref="664327555"/>
    <tag k="highway" v="residential"/>
    <tag k="source" v="nearmap"/>
  </way>
  <way id="52136528" version="1" timestamp="2010-03-12T04:06:59Z" uid="245275" user="Marianian" changeset="4103444">
    <nd ref="312745802"/>
    <nd ref="664323277"/>
    <nd ref="664323278"/>
    <nd ref="664323279"/>
    <nd ref="664288487"/>
    <tag k="highway" v="motorway"/>
    <tag k="lanes" v="3"/>
    <tag k="name" v="Atlantic Highway"/>
    <tag k="oneway" v="yes"/>
    <tag k="ref" v="M39"/>
  </way>
  <way id="52136528" version="2" timestamp="2010-03-12T16:34:23Z" uid="245275" user="Marianian" changeset="4107796">
    <nd ref="312745802"/>
    <nd ref="664598862"/>
    <nd ref="664323277"/>
    <nd ref="664323278"/>
    <nd ref="664323279"/>
    <nd ref="664288487"/>
    <tag k="highway" v="motorway"/>
    <tag k="lanes" v="3"/>
    <tag k="name" v="Atlantic Highway"/>
    <tag k="oneway" v="yes"/>
    <tag k="ref" v="M39"/>
  </way>
  <way id="52136529" version="1" timestamp="2010-03-12T04:06:59Z" uid="245275" user="Marianian" changeset="4103444">
    <nd ref="664288486"/>
    <nd ref="664305089"/>
    <nd ref="664305090"/>
    <tag k="highway" v="motorway"/>
    <tag k="lanes" v="3"/>
    <tag k="name" v="Atlantic Highway"/>
    <tag k="oneway" v="yes"/>
    <tag k="ref" v="M39"/>
    <tag k="tunnel" v="yes"/>
  </way>
  <way id="52136529" version="2" timestamp="2010-03-12T21:49:43Z" uid="245275" user="Marianian" changeset="4109814">
    <nd ref="664288486"/>
    <nd ref="664305089"/>
    <nd ref="664305090"/>
    <tag k="highway" v="motorway"/>
    <tag k="lanes" v="3"/>
    <tag k="name" v="Holmacott Tunnel"/>
    <tag k="oneway" v="yes"/>
    <tag k="ref" v="M39"/>
    <tag k="tunnel" v="yes"/>
  </way>
  <way id="52136530" version="1" timestamp="2010-03-12T04:06:59Z" uid="245275" user="Marianian" changeset="4103444">
    <nd ref="664305090"/>
    <nd ref="664305091"/>
    <nd ref="664305092"/>
    <nd ref="664305093"/>
    <tag k="highway" v="motorway"/>
    <tag k="lanes" v="3"/>
    <tag k="name" v="Atlantic Highway"/>
    <tag k="oneway" v="yes"/>
    <tag k="ref" v="M39"/>
  </way>
  <way id="52136531" version="1" timestamp="2010-03-12T04:06:59Z" uid="245275" user="Marianian" changeset="4103444">
    <nd ref="664288489"/>
    <nd ref="38438640"/>
    <nd ref="664288490"/>
    <nd ref="144791443"/>
    <nd ref="664288491"/>
    <nd ref="144791445"/>
    <nd ref="312745244"/>
    <nd ref="38438639"/>
    <nd ref="664315162"/>
    <nd ref="664315163"/>
    <nd ref="664315164"/>
    <nd ref="664315165"/>
    <nd ref="664315146"/>
    <tag k="highway" v="motorway"/>
    <tag k="lanes" v="3"/>
    <tag k="name" v="Atlantic Highway"/>
    <tag k="oneway" v="yes"/>
    <tag k="ref" v="M39"/>
  </way>
  <way id="52136531" version="2" timestamp="2010-03-12T21:56:33Z" uid="245275" user="Marianian" changeset="4109876">
    <nd ref="664288489"/>
    <nd ref="664746787"/>
    <nd ref="38438640"/>
    <nd ref="664288490"/>
    <nd ref="144791443"/>
    <nd ref="664288491"/>
    <nd ref="144791445"/>
    <nd ref="312745244"/>
    <nd ref="38438639"/>
    <nd ref="664315162"/>
    <nd ref="664315163"/>
    <nd ref="664315164"/>
    <nd ref="664315165"/>
    <nd ref="664315146"/>
    <tag k="highway" v="motorway"/>
    <tag k="lanes" v="3"/>
    <tag k="name" v="Atlantic Highway"/>
    <tag k="oneway" v="yes"/>
    <tag k="ref" v="M39"/>
  </way>
  <way id="52136532" version="1" timestamp="2010-03-12T04:06:59Z" uid="245275" user="Marianian" changeset="4103444">
    <nd ref="664288487"/>
    <nd ref="664288488"/>
    <nd ref="664288489"/>
    <tag k="highway" v="motorway"/>
    <tag k="lanes" v="3"/>
    <tag k="name" v="Atlantic Highway"/>
    <tag k="oneway" v="yes"/>
    <tag k="ref" v="M39"/>
    <tag k="tunnel" v="yes"/>
  </way>
  <way id="52136532" version="2" timestamp="2010-03-12T21:49:35Z" uid="245275" user="Marianian" changeset="4109814">
    <nd ref="664288487"/>
    <nd ref="664288488"/>
    <nd ref="664288489"/>
    <tag k="highway" v="motorway"/>
    <tag k="lanes" v="3"/>
    <tag k="name" v="Holmacott Tunnel"/>
    <tag k="oneway" v="yes"/>
    <tag k="ref" v="M39"/>
    <tag k="tunnel" v="yes"/>
  </way>
  <way id="52136533" version="1" timestamp="2010-03-12T04:07:00Z" uid="245275" user="Marianian" changeset="4103444">
    <nd ref="664315145"/>
    <nd ref="664288477"/>
    <nd ref="664288478"/>
    <nd ref="664288479"/>
    <nd ref="664288480"/>
    <nd ref="664288481"/>
    <nd ref="664288482"/>
    <nd ref="664288483"/>
    <nd ref="664288484"/>
    <nd ref="664305088"/>
    <nd ref="664288485"/>
    <nd ref="664288486"/>
    <tag k="highway" v="motorway"/>
    <tag k="lanes" v="3"/>
    <tag k="name" v="Atlantic Highway"/>
    <tag k="oneway" v="yes"/>
    <tag k="ref" v="M39"/>
  </way>
  <way id="52136534" version="1" timestamp="2010-03-12T04:07:43Z" uid="9719" user="dvaey" changeset="4103441">
    <nd ref="664330297"/>
    <nd ref="664330298"/>
    <tag k="highway" v="service"/>
    <tag k="oneway" v="yes"/>
  </way>
  <way id="52136534" version="2" timestamp="2010-03-12T04:08:44Z" uid="9719" user="dvaey" changeset="4103441">
    <nd ref="664330297"/>
    <nd ref="664330298"/>
    <nd ref="664330319"/>
    <nd ref="664330320"/>
    <nd ref="664330321"/>
    <nd ref="664330322"/>
    <tag k="highway" v="service"/>
    <tag k="oneway" v="yes"/>
  </way>
  <way id="52136534" version="3" timestamp="2010-03-12T04:10:20Z" uid="9719" user="dvaey" changeset="4103441">
    <nd ref="664330297"/>
    <nd ref="664330298"/>
    <nd ref="664330319"/>
    <nd ref="664330320"/>
    <nd ref="664330321"/>
    <nd ref="664330322"/>
    <nd ref="664302644"/>
    <tag k="highway" v="service"/>
    <tag k="oneway" v="yes"/>
  </way>
  <way id="52136534" version="4" timestamp="2010-03-12T04:16:11Z" uid="9719" user="dvaey" changeset="4103441">
    <nd ref="664330926"/>
    <nd ref="664330927"/>
    <nd ref="664330297"/>
    <tag k="highway" v="service"/>
    <tag k="oneway" v="yes"/>
  </way>
  <way id="52136534" version="5" timestamp="2010-03-12T04:20:00Z" uid="9719" user="dvaey" changeset="4103441">
    <nd ref="664331131"/>
    <nd ref="664331132"/>
    <nd ref="664331133"/>
    <nd ref="664331134"/>
    <nd ref="664331135"/>
    <nd ref="664331136"/>
    <nd ref="664331137"/>
    <nd ref="664331138"/>
    <nd ref="664331139"/>
    <nd ref="664331140"/>
    <nd ref="664331141"/>
    <nd ref="664331142"/>
    <nd ref="664331143"/>
    <nd ref="664331144"/>
    <nd ref="664331145"/>
    <nd ref="664331146"/>
    <nd ref="664331147"/>
    <nd ref="664331148"/>
    <nd ref="664331149"/>
    <nd ref="664331150"/>
    <nd ref="664331151"/>
    <nd ref="664331152"/>
    <nd ref="664331153"/>
    <nd ref="664331154"/>
    <nd ref="664331155"/>
    <nd ref="664331156"/>
    <nd ref="664331157"/>
    <nd ref="664331158"/>
    <nd ref="664331159"/>
    <nd ref="664331160"/>
    <nd ref="664331161"/>
    <nd ref="664330926"/>
    <nd ref="664330927"/>
    <nd ref="664330297"/>
    <tag k="highway" v="service"/>
    <tag k="source" v="nearmap"/>
  </way>
  <way id="52136538" version="1" timestamp="2010-03-12T04:09:40Z" uid="9719" user="dvaey" changeset="4103441">
    <nd ref="664302644"/>
    <nd ref="664330323"/>
    <tag k="highway" v="service"/>
  </way>
  <way id="52136610" version="1" timestamp="2010-03-12T04:16:10Z" uid="9719" user="dvaey" changeset="4103441">
    <nd ref="664330297"/>
    <nd ref="664330298"/>
    <nd ref="664330319"/>
    <nd ref="664330320"/>
    <nd ref="664330321"/>
    <nd ref="664330322"/>
    <nd ref="664302644"/>
    <tag k="highway" v="service"/>
    <tag k="oneway" v="yes"/>
  </way>
  <way id="52136614" version="1" timestamp="2010-03-12T04:16:38Z" uid="245275" user="Marianian" changeset="4103458">
    <nd ref="298985951"/>
    <nd ref="298985952"/>
    <nd ref="298985953"/>
    <nd ref="298985954"/>
    <nd ref="298985955"/>
    <nd ref="298985956"/>
    <nd ref="298985958"/>
    <nd ref="298985962"/>
    <nd ref="298985964"/>
    <nd ref="298985966"/>
    <nd ref="298985967"/>
    <nd ref="298985968"/>
    <nd ref="298985969"/>
    <nd ref="298985970"/>
    <nd ref="298985971"/>
    <nd ref="298985972"/>
    <nd ref="298985973"/>
    <nd ref="298985974"/>
    <nd ref="298985975"/>
    <nd ref="298985977"/>
    <nd ref="298985978"/>
    <nd ref="298985979"/>
    <nd ref="298985980"/>
    <nd ref="144791758"/>
    <tag k="highway" v="tertiary"/>
  </way>
  <way id="52136614" version="2" timestamp="2010-03-12T04:16:42Z" uid="245275" user="Marianian" changeset="4103458">
    <nd ref="298985952"/>
    <nd ref="298985953"/>
    <nd ref="298985954"/>
    <nd ref="298985955"/>
    <nd ref="298985956"/>
    <nd ref="298985958"/>
    <nd ref="298985962"/>
    <nd ref="298985964"/>
    <nd ref="298985966"/>
    <nd ref="298985967"/>
    <nd ref="298985968"/>
    <nd ref="298985969"/>
    <nd ref="298985970"/>
    <nd ref="298985971"/>
    <nd ref="298985972"/>
    <nd ref="298985973"/>
    <nd ref="298985974"/>
    <nd ref="298985975"/>
    <nd ref="298985977"/>
    <nd ref="298985978"/>
    <nd ref="298985979"/>
    <nd ref="298985980"/>
    <nd ref="144791758"/>
    <tag k="highway" v="tertiary"/>
  </way>
  <way id="52136614" version="3" timestamp="2010-03-12T04:16:48Z" uid="245275" user="Marianian" changeset="4103458">
    <nd ref="664271107"/>
    <nd ref="664330982"/>
    <nd ref="298985952"/>
    <nd ref="298985953"/>
    <nd ref="298985954"/>
    <nd ref="298985955"/>
    <nd ref="298985956"/>
    <nd ref="298985958"/>
    <nd ref="298985962"/>
    <nd ref="298985964"/>
    <nd ref="298985966"/>
    <nd ref="298985967"/>
    <nd ref="298985968"/>
    <nd ref="298985969"/>
    <nd ref="298985970"/>
    <nd ref="298985971"/>
    <nd ref="298985972"/>
    <nd ref="298985973"/>
    <nd ref="298985974"/>
    <nd ref="298985975"/>
    <nd ref="298985977"/>
    <nd ref="298985978"/>
    <nd ref="298985979"/>
    <nd ref="298985980"/>
    <nd ref="144791758"/>
    <tag k="highway" v="tertiary"/>
  </way>
  <way id="52136715" version="1" timestamp="2010-03-12T04:29:32Z" uid="9719" user="dvaey" changeset="4103441">
    <nd ref="664331910"/>
    <nd ref="664331911"/>
    <nd ref="664331912"/>
    <nd ref="664331913"/>
    <nd ref="664331914"/>
    <nd ref="664331915"/>
    <nd ref="664331916"/>
    <nd ref="664331917"/>
    <nd ref="664331918"/>
    <tag k="power" v="minor_line"/>
  </way>
  <way id="52136784" version="1" timestamp="2010-03-12T04:43:02Z" uid="9719" user="dvaey" changeset="4103441">
    <nd ref="664332879"/>
    <nd ref="664332880"/>
    <nd ref="664332881"/>
    <nd ref="664332882"/>
    <nd ref="664332883"/>
    <nd ref="664332884"/>
    <nd ref="664332885"/>
    <nd ref="664332886"/>
    <nd ref="664332887"/>
    <nd ref="664332888"/>
    <nd ref="664332889"/>
    <nd ref="664332890"/>
    <nd ref="664332891"/>
    <nd ref="664332892"/>
    <nd ref="664332893"/>
    <nd ref="664332894"/>
    <nd ref="664332895"/>
    <nd ref="664332896"/>
    <nd ref="664332897"/>
    <nd ref="664332898"/>
    <nd ref="664332899"/>
    <nd ref="664332900"/>
    <nd ref="664332901"/>
    <nd ref="664332902"/>
    <nd ref="664332903"/>
    <nd ref="664332904"/>
    <nd ref="664332905"/>
    <nd ref="664332906"/>
    <nd ref="664332907"/>
    <nd ref="664332908"/>
    <nd ref="664332909"/>
    <nd ref="664332910"/>
    <nd ref="664332911"/>
    <nd ref="664332912"/>
    <nd ref="664332913"/>
    <nd ref="664332914"/>
    <nd ref="664332915"/>
    <nd ref="664332916"/>
    <nd ref="664332917"/>
    <nd ref="664332918"/>
    <nd ref="664332919"/>
    <nd ref="664332920"/>
    <nd ref="664332921"/>
    <nd ref="664332922"/>
    <nd ref="664332923"/>
    <nd ref="664332924"/>
    <nd ref="664332925"/>
    <nd ref="664332926"/>
    <nd ref="664332927"/>
    <nd ref="664332928"/>
    <nd ref="664332929"/>
    <nd ref="664332930"/>
    <nd ref="664332931"/>
    <nd ref="664332932"/>
    <nd ref="664332933"/>
    <nd ref="664332934"/>
    <nd ref="664332935"/>
    <nd ref="664332936"/>
    <nd ref="664332937"/>
    <nd ref="664332938"/>
    <nd ref="664332939"/>
    <nd ref="664332940"/>
    <nd ref="664332941"/>
    <nd ref="664332942"/>
    <nd ref="664332943"/>
    <nd ref="664332945"/>
    <nd ref="664332947"/>
    <nd ref="664332949"/>
    <tag k="power" v="minor_line"/>
  </way>
  <way id="52136834" version="1" timestamp="2010-03-12T04:56:59Z" uid="245275" user="Marianian" changeset="4103532">
    <nd ref="664320070"/>
    <nd ref="664320071"/>
    <nd ref="664320072"/>
    <nd ref="664320073"/>
    <nd ref="664320074"/>
    <nd ref="664320075"/>
    <nd ref="664320076"/>
    <nd ref="664319840"/>
    <nd ref="664315121"/>
    <nd ref="664315122"/>
    <nd ref="664315123"/>
    <nd ref="664315124"/>
    <nd ref="664315125"/>
    <nd ref="664315126"/>
    <nd ref="664321489"/>
    <nd ref="664321490"/>
    <nd ref="664321491"/>
    <nd ref="664321492"/>
    <nd ref="664321494"/>
    <nd ref="664315140"/>
    <tag k="bridge" v="yes"/>
    <tag k="highway" v="motorway"/>
    <tag k="lanes" v="3"/>
    <tag k="layer" v="2"/>
    <tag k="name" v="Atlantic Highway"/>
    <tag k="oneway" v="yes"/>
    <tag k="ref" v="M39"/>
  </way>
  <way id="52136834" version="2" timestamp="2010-03-12T04:57:20Z" uid="245275" user="Marianian" changeset="4103532">
    <nd ref="664320070"/>
    <nd ref="664320071"/>
    <nd ref="664320072"/>
    <nd ref="664320073"/>
    <nd ref="664320074"/>
    <nd ref="664320075"/>
    <nd ref="664320076"/>
    <nd ref="664319840"/>
    <nd ref="664315121"/>
    <nd ref="664315122"/>
    <nd ref="664315123"/>
    <nd ref="664315124"/>
    <nd ref="664315125"/>
    <nd ref="664315126"/>
    <nd ref="664321489"/>
    <nd ref="664321490"/>
    <nd ref="664321491"/>
    <nd ref="664321492"/>
    <nd ref="664321494"/>
    <nd ref="664315140"/>
    <tag k="bridge" v="yes"/>
    <tag k="highway" v="motorway"/>
    <tag k="lanes" v="3"/>
    <tag k="name" v="Atlantic Highway"/>
    <tag k="oneway" v="yes"/>
    <tag k="ref" v="M39"/>
  </way>
  <way id="52136834" version="3" timestamp="2010-03-12T04:57:30Z" uid="245275" user="Marianian" changeset="4103532">
    <nd ref="664320070"/>
    <nd ref="664320071"/>
    <nd ref="664320072"/>
    <nd ref="664320073"/>
    <nd ref="664320074"/>
    <nd ref="664320075"/>
    <nd ref="664320076"/>
    <nd ref="664319840"/>
    <nd ref="664315121"/>
    <nd ref="664315122"/>
    <nd ref="664315123"/>
    <nd ref="664315124"/>
    <nd ref="664315125"/>
    <nd ref="664315126"/>
    <nd ref="664321489"/>
    <nd ref="664321490"/>
    <nd ref="664321491"/>
    <nd ref="664321492"/>
    <nd ref="664321494"/>
    <nd ref="664315140"/>
    <tag k="bridge" v="yes"/>
    <tag k="highway" v="motorway"/>
    <tag k="lanes" v="3"/>
    <tag k="layer" v="2"/>
    <tag k="name" v="Atlantic Highway"/>
    <tag k="oneway" v="yes"/>
    <tag k="ref" v="M39"/>
  </way>
  <way id="52136834" version="4" timestamp="2010-03-12T04:57:53Z" uid="245275" user="Marianian" changeset="4103532">
    <nd ref="664320070"/>
    <nd ref="664320071"/>
    <nd ref="664320072"/>
    <nd ref="664320073"/>
    <nd ref="664320074"/>
    <nd ref="664320075"/>
    <nd ref="664320076"/>
    <nd ref="664319840"/>
    <nd ref="664315121"/>
    <nd ref="664315122"/>
    <nd ref="664315123"/>
    <nd ref="664315124"/>
    <nd ref="664315125"/>
    <nd ref="664315126"/>
    <tag k="bridge" v="yes"/>
    <tag k="highway" v="motorway"/>
    <tag k="lanes" v="3"/>
    <tag k="layer" v="2"/>
    <tag k="name" v="Atlantic Highway"/>
    <tag k="oneway" v="yes"/>
    <tag k="ref" v="M39"/>
  </way>
  <way id="52136834" version="5" timestamp="2010-03-12T04:58:12Z" uid="245275" user="Marianian" changeset="4103532">
    <nd ref="664320070"/>
    <nd ref="664320071"/>
    <nd ref="664320072"/>
    <nd ref="664320073"/>
    <nd ref="664320074"/>
    <nd ref="664320075"/>
    <nd ref="664320076"/>
    <nd ref="664319840"/>
    <nd ref="664315121"/>
    <nd ref="664315122"/>
    <nd ref="664315123"/>
    <nd ref="664315124"/>
    <nd ref="664315125"/>
    <nd ref="664315126"/>
    <tag k="highway" v="motorway"/>
    <tag k="lanes" v="3"/>
    <tag k="name" v="Atlantic Highway"/>
    <tag k="oneway" v="yes"/>
    <tag k="ref" v="M39"/>
  </way>
  <way id="52136835" version="1" timestamp="2010-03-12T04:57:04Z" uid="245275" user="Marianian" changeset="4103532">
    <nd ref="664320062"/>
    <nd ref="664320063"/>
    <nd ref="664320064"/>
    <nd ref="664320065"/>
    <nd ref="312744581"/>
    <tag k="bridge" v="yes"/>
    <tag k="highway" v="motorway"/>
    <tag k="lanes" v="3"/>
    <tag k="layer" v="2"/>
    <tag k="name" v="Atlantic Highway"/>
    <tag k="oneway" v="yes"/>
    <tag k="ref" v="M39"/>
  </way>
  <way id="52136835" version="2" timestamp="2010-03-12T04:57:09Z" uid="245275" user="Marianian" changeset="4103532">
    <nd ref="664320062"/>
    <nd ref="664320063"/>
    <tag k="bridge" v="yes"/>
    <tag k="highway" v="motorway"/>
    <tag k="lanes" v="3"/>
    <tag k="layer" v="2"/>
    <tag k="name" v="Atlantic Highway"/>
    <tag k="oneway" v="yes"/>
    <tag k="ref" v="M39"/>
  </way>
  <way id="52136836" version="1" timestamp="2010-03-12T04:57:09Z" uid="245275" user="Marianian" changeset="4103532">
    <nd ref="664320063"/>
    <nd ref="664320064"/>
    <nd ref="664320065"/>
    <nd ref="312744581"/>
    <tag k="bridge" v="yes"/>
    <tag k="highway" v="motorway"/>
    <tag k="lanes" v="3"/>
    <tag k="layer" v="2"/>
    <tag k="name" v="Atlantic Highway"/>
    <tag k="oneway" v="yes"/>
    <tag k="ref" v="M39"/>
  </way>
  <way id="52136836" version="2" timestamp="2010-03-12T05:00:15Z" uid="245275" user="Marianian" changeset="4103532">
    <nd ref="664320063"/>
    <nd ref="664334566"/>
    <nd ref="664320064"/>
    <nd ref="664320065"/>
    <nd ref="312744581"/>
    <tag k="bridge" v="yes"/>
    <tag k="highway" v="motorway"/>
    <tag k="lanes" v="3"/>
    <tag k="layer" v="2"/>
    <tag k="name" v="Atlantic Highway"/>
    <tag k="oneway" v="yes"/>
    <tag k="ref" v="M39"/>
  </way>
  <way id="52136836" version="3" timestamp="2010-03-12T05:00:37Z" uid="245275" user="Marianian" changeset="4103532">
    <nd ref="664320063"/>
    <nd ref="664334566"/>
    <nd ref="664320064"/>
    <nd ref="664320065"/>
    <nd ref="312744581"/>
    <tag k="highway" v="motorway"/>
    <tag k="lanes" v="3"/>
    <tag k="name" v="Atlantic Highway"/>
    <tag k="oneway" v="yes"/>
    <tag k="ref" v="M39"/>
  </way>
  <way id="52136839" version="1" timestamp="2010-03-12T04:57:15Z" uid="245275" user="Marianian" changeset="4103532">
    <nd ref="664320069"/>
    <nd ref="664320070"/>
    <tag k="bridge" v="yes"/>
    <tag k="highway" v="motorway"/>
    <tag k="lanes" v="3"/>
    <tag k="layer" v="2"/>
    <tag k="name" v="Atlantic Highway"/>
    <tag k="oneway" v="yes"/>
    <tag k="ref" v="M39"/>
  </way>
  <way id="52136840" version="1" timestamp="2010-03-12T04:57:52Z" uid="245275" user="Marianian" changeset="4103532">
    <nd ref="664315126"/>
    <nd ref="664321489"/>
    <nd ref="664321490"/>
    <nd ref="664321491"/>
    <nd ref="664321492"/>
    <nd ref="664321494"/>
    <nd ref="664315140"/>
    <tag k="bridge" v="yes"/>
    <tag k="highway" v="motorway"/>
    <tag k="lanes" v="3"/>
    <tag k="layer" v="2"/>
    <tag k="name" v="Atlantic Highway"/>
    <tag k="oneway" v="yes"/>
    <tag k="ref" v="M39"/>
  </way>
  <way id="52136841" version="1" timestamp="2010-03-12T04:57:56Z" uid="245275" user="Marianian" changeset="4103532">
    <nd ref="664315152"/>
    <nd ref="664334164"/>
    <nd ref="664315153"/>
    <nd ref="664315154"/>
    <nd ref="664315155"/>
    <nd ref="664315156"/>
    <nd ref="664320055"/>
    <nd ref="664320056"/>
    <nd ref="664320057"/>
    <nd ref="664320058"/>
    <nd ref="664320059"/>
    <nd ref="664320060"/>
    <nd ref="664320061"/>
    <nd ref="664320062"/>
    <tag k="bridge" v="yes"/>
    <tag k="highway" v="motorway"/>
    <tag k="lanes" v="3"/>
    <tag k="layer" v="2"/>
    <tag k="name" v="Atlantic Highway"/>
    <tag k="oneway" v="yes"/>
    <tag k="ref" v="M39"/>
  </way>
  <way id="52136841" version="2" timestamp="2010-03-12T04:58:08Z" uid="245275" user="Marianian" changeset="4103532">
    <nd ref="664315152"/>
    <nd ref="664334164"/>
    <nd ref="664315153"/>
    <nd ref="664315154"/>
    <nd ref="664315155"/>
    <nd ref="664315156"/>
    <nd ref="664320055"/>
    <nd ref="664320056"/>
    <nd ref="664320057"/>
    <nd ref="664320058"/>
    <nd ref="664320059"/>
    <nd ref="664320060"/>
    <nd ref="664320061"/>
    <nd ref="664320062"/>
    <tag k="highway" v="motorway"/>
    <tag k="lanes" v="3"/>
    <tag k="name" v="Atlantic Highway"/>
    <tag k="oneway" v="yes"/>
    <tag k="ref" v="M39"/>
  </way>
  <way id="52136841" version="3" timestamp="2010-03-12T05:38:16Z" uid="245275" user="Marianian" changeset="4103619">
    <nd ref="664315152"/>
    <nd ref="664334164"/>
    <nd ref="664315153"/>
    <nd ref="664315154"/>
    <nd ref="664315155"/>
    <nd ref="664315156"/>
    <nd ref="664320055"/>
    <nd ref="664320056"/>
    <nd ref="664320057"/>
    <nd ref="664320058"/>
    <nd ref="664320059"/>
    <nd ref="664377765"/>
    <nd ref="664320060"/>
    <nd ref="664320061"/>
    <nd ref="664320062"/>
    <tag k="highway" v="motorway"/>
    <tag k="lanes" v="3"/>
    <tag k="name" v="Atlantic Highway"/>
    <tag k="oneway" v="yes"/>
    <tag k="ref" v="M39"/>
  </way>
  <way id="52136841" version="4" timestamp="2010-03-12T05:41:57Z" uid="245275" user="Marianian" changeset="4103634">
    <nd ref="664315152"/>
    <nd ref="664334164"/>
    <nd ref="664315153"/>
    <nd ref="664315154"/>
    <nd ref="664315155"/>
    <nd ref="664315156"/>
    <nd ref="664320055"/>
    <nd ref="664320056"/>
    <nd ref="664377900"/>
    <nd ref="664320057"/>
    <nd ref="664320058"/>
    <nd ref="664320059"/>
    <nd ref="664377765"/>
    <nd ref="664320060"/>
    <nd ref="664320061"/>
    <nd ref="664320062"/>
    <tag k="highway" v="motorway"/>
    <tag k="lanes" v="3"/>
    <tag k="name" v="Atlantic Highway"/>
    <tag k="oneway" v="yes"/>
    <tag k="ref" v="M39"/>
  </way>
  <way id="52136875" version="2" timestamp="2010-03-28T11:53:23Z" uid="20587" user="balrog-kun" changeset="4254597">
    <nd ref="664334585"/>
    <nd ref="664334586"/>
    <nd ref="664334584"/>
    <nd ref="664334587"/>
    <nd ref="568806124"/>
    <tag k="highway" v="residential"/>
    <tag k="name" v="Technology Drive"/>
  </way>
  <way id="52136876" version="2" timestamp="2010-03-28T11:53:23Z" uid="20587" user="balrog-kun" changeset="4254597">
    <nd ref="664334588"/>
    <nd ref="664334585"/>
    <tag k="highway" v="residential"/>
    <tag k="name" v="Innovation Court"/>
  </way>
</osm>
