<?xml version='1.0' encoding='UTF-8'?>
<osm version="0.6" generator="libosmium/2.20.0">
  <way id="5232252" version="2" timestamp="2008-03-01T08:20:41Z" uid="18775" user="drlizau" changeset="240795">
    <nd ref="36784313"/>
    <nd ref="36784315"/>
    <nd ref="249777133"/>
    <tag k="created_by" v="Potlatch alpha"/>
    <tag k="highway" v="secondary"/>
    <tag k="name" v="Hinder St"/>
  </way>
  <way id="5232252" version="6" timestamp="2011-01-27T02:50:14Z" uid="4467" user="Rosscoe" changeset="7099934">
    <nd ref="370300404"/>
    <nd ref="36784315"/>
    <nd ref="249777133"/>
    <nd ref="1122939256"/>
    <tag k="highway" v="tertiary"/>
    <tag k="name" v="Hinder Street"/>
  </way>
  <way id="5232310" version="1" timestamp="2007-08-30T04:35:45Z" uid="7617" user="Franc" changeset="262906">
    <nd ref="36784971"/>
    <nd ref="36784978"/>
    <nd ref="36784970"/>
    <nd ref="36784976"/>
    <nd ref="36784968"/>
    <nd ref="36784967"/>
    <nd ref="36784975"/>
    <nd ref="36784963"/>
    <nd ref="36784973"/>
    <nd ref="36784962"/>
    <nd ref="36765468"/>
    <tag k="created_by" v="JOSM"/>
    <tag k="highway" v="residential"/>
    <tag k="name" v="Lucinda Avenue South"/>
    <tag k="source" v="survey"/>
  </way>
  <way id="5232310" version="3" timestamp="2010-07-08T00:02:28Z" uid="74617" user="JohnSmith" changeset="5162525">
    <nd ref="36784971"/>
    <nd ref="36784978"/>
    <nd ref="36784970"/>
    <nd ref="36784976"/>
    <nd ref="36784968"/>
    <nd ref="36784967"/>
    <nd ref="36784975"/>
    <nd ref="36784963"/>
    <nd ref="36784973"/>
    <nd ref="36784962"/>
    <nd ref="36765468"/>
    <tag k="highway" v="residential"/>
    <tag k="maxspeed" v="50"/>
    <tag k="maxspeed:source" v="default residential speed limit in Australia"/>
    <tag k="name" v="Lucinda Avenue South"/>
    <tag k="source" v="survey"/>
  </way>
  <way id="5232310" version="4" timestamp="2010-07-08T00:12:41Z" uid="74617" user="JohnSmith" changeset="5162525">
    <nd ref="36784971"/>
    <nd ref="36784978"/>
    <nd ref="36784970"/>
    <nd ref="36784976"/>
    <nd ref="36784968"/>
    <nd ref="36784967"/>
    <nd ref="36784975"/>
    <nd ref="36784963"/>
    <nd ref="36784973"/>
    <nd ref="36784962"/>
    <nd ref="36765468"/>
    <tag k="highway" v="residential"/>
    <tag k="maxspeed" v="50"/>
    <tag k="maxspeed:source" v="default residential speed limit in Australia"/>
    <tag k="name" v="Lucinda Avenue South"/>
    <tag k="source" v="survey"/>
  </way>
  <way id="5232311" version="1" timestamp="2007-08-30T04:35:46Z" uid="7617" user="Franc" changeset="262906">
    <nd ref="36784973"/>
    <nd ref="36784980"/>
    <nd ref="36785055"/>
    <nd ref="36785054"/>
    <nd ref="36785053"/>
    <nd ref="36785063"/>
    <nd ref="36784981"/>
    <nd ref="36785048"/>
    <nd ref="36785045"/>
    <nd ref="36785044"/>
    <nd ref="36784983"/>
    <nd ref="36785050"/>
    <nd ref="36785042"/>
    <nd ref="36785049"/>
    <nd ref="36784985"/>
    <nd ref="36785038"/>
    <nd ref="36785041"/>
    <nd ref="36785039"/>
    <nd ref="36784986"/>
    <nd ref="36785037"/>
    <nd ref="36785035"/>
    <nd ref="36785033"/>
    <nd ref="36785032"/>
    <nd ref="36784987"/>
    <nd ref="36785024"/>
    <nd ref="36785028"/>
    <nd ref="36784990"/>
    <nd ref="36785030"/>
    <nd ref="36785021"/>
    <nd ref="36785069"/>
    <nd ref="36785023"/>
    <nd ref="36784991"/>
    <nd ref="36785022"/>
    <nd ref="36785073"/>
    <nd ref="36785027"/>
    <nd ref="36785078"/>
    <nd ref="36784992"/>
    <nd ref="36785080"/>
    <nd ref="36785013"/>
    <nd ref="36784995"/>
    <nd ref="36785012"/>
    <nd ref="36785017"/>
    <nd ref="36784996"/>
    <nd ref="36785018"/>
    <nd ref="36785010"/>
    <nd ref="36784997"/>
    <nd ref="36785007"/>
    <nd ref="36785000"/>
    <nd ref="36785011"/>
    <nd ref="36785006"/>
    <nd ref="36785005"/>
    <nd ref="36785001"/>
    <nd ref="36785016"/>
    <nd ref="36785002"/>
    <tag k="created_by" v="JOSM"/>
    <tag k="highway" v="residential"/>
    <tag k="name" v="Campbell Drive"/>
    <tag k="source" v="survey"/>
  </way>
  <way id="5232311" version="3" timestamp="2010-07-08T00:03:32Z" uid="74617" user="JohnSmith" changeset="5162525">
    <nd ref="36784973"/>
    <nd ref="36784980"/>
    <nd ref="36785055"/>
    <nd ref="36785054"/>
    <nd ref="36785053"/>
    <nd ref="36785063"/>
    <nd ref="36784981"/>
    <nd ref="36785048"/>
    <nd ref="36785045"/>
    <nd ref="36785044"/>
    <nd ref="36784983"/>
    <nd ref="36785050"/>
    <nd ref="36785042"/>
    <nd ref="36785049"/>
    <nd ref="36784985"/>
    <nd ref="36785038"/>
    <nd ref="36785041"/>
    <nd ref="36785039"/>
    <nd ref="36784986"/>
    <nd ref="36785037"/>
    <nd ref="36785035"/>
    <nd ref="36785033"/>
    <nd ref="36785032"/>
    <nd ref="36784987"/>
    <nd ref="36785024"/>
    <nd ref="36785028"/>
    <nd ref="36784990"/>
    <nd ref="36785030"/>
    <nd ref="36785021"/>
    <nd ref="36785069"/>
    <nd ref="36785023"/>
    <nd ref="36784991"/>
    <nd ref="36785022"/>
    <nd ref="36785073"/>
    <nd ref="277674312"/>
    <nd ref="36785027"/>
    <nd ref="36785078"/>
    <nd ref="36784992"/>
    <nd ref="36785080"/>
    <nd ref="36785013"/>
    <nd ref="36784995"/>
    <nd ref="36785012"/>
    <nd ref="36785017"/>
    <nd ref="36784996"/>
    <nd ref="36785018"/>
    <nd ref="36785010"/>
    <nd ref="36784997"/>
    <nd ref="36785007"/>
    <nd ref="36785000"/>
    <nd ref="36785011"/>
    <nd ref="36785006"/>
    <nd ref="36785005"/>
    <nd ref="36785001"/>
    <nd ref="36785016"/>
    <nd ref="36785002"/>
    <tag k="highway" v="residential"/>
    <tag k="maxspeed" v="50"/>
    <tag k="maxspeed:source" v="default residential speed limit in Australia"/>
    <tag k="name" v="Campbell Drive"/>
    <tag k="source" v="survey"/>
  </way>
  <way id="5232311" version="4" timestamp="2010-07-08T00:13:50Z" uid="74617" user="JohnSmith" changeset="5162525">
    <nd ref="36784973"/>
    <nd ref="36784980"/>
    <nd ref="36785055"/>
    <nd ref="36785054"/>
    <nd ref="36785053"/>
    <nd ref="36785063"/>
    <nd ref="36784981"/>
    <nd ref="36785048"/>
    <nd ref="36785045"/>
    <nd ref="36785044"/>
    <nd ref="36784983"/>
    <nd ref="36785050"/>
    <nd ref="36785042"/>
    <nd ref="36785049"/>
    <nd ref="36784985"/>
    <nd ref="36785038"/>
    <nd ref="36785041"/>
    <nd ref="36785039"/>
    <nd ref="36784986"/>
    <nd ref="36785037"/>
    <nd ref="36785035"/>
    <nd ref="36785033"/>
    <nd ref="36785032"/>
    <nd ref="36784987"/>
    <nd ref="36785024"/>
    <nd ref="36785028"/>
    <nd ref="36784990"/>
    <nd ref="36785030"/>
    <nd ref="36785021"/>
    <nd ref="36785069"/>
    <nd ref="36785023"/>
    <nd ref="36784991"/>
    <nd ref="36785022"/>
    <nd ref="36785073"/>
    <nd ref="277674312"/>
    <nd ref="36785027"/>
    <nd ref="36785078"/>
    <nd ref="36784992"/>
    <nd ref="36785080"/>
    <nd ref="36785013"/>
    <nd ref="36784995"/>
    <nd ref="36785012"/>
    <nd ref="36785017"/>
    <nd ref="36784996"/>
    <nd ref="36785018"/>
    <nd ref="36785010"/>
    <nd ref="36784997"/>
    <nd ref="36785007"/>
    <nd ref="36785000"/>
    <nd ref="36785011"/>
    <nd ref="36785006"/>
    <nd ref="36785005"/>
    <nd ref="36785001"/>
    <nd ref="36785016"/>
    <nd ref="36785002"/>
    <tag k="highway" v="residential"/>
    <tag k="maxspeed" v="50"/>
    <tag k="maxspeed:source" v="default residential speed limit in Australia"/>
    <tag k="name" v="Campbell Drive"/>
    <tag k="source" v="survey"/>
  </way>
  <way id="5232312" version="1" timestamp="2007-08-30T04:35:47Z" uid="7617" user="Franc" changeset="262906">
    <nd ref="36785057"/>
    <nd ref="36785060"/>
    <nd ref="36785058"/>
    <nd ref="36785063"/>
    <tag k="created_by" v="JOSM"/>
    <tag k="highway" v="residential"/>
    <tag k="name" v="Georgina Close"/>
    <tag k="source" v="survey"/>
  </way>
  <way id="5232312" version="2" timestamp="2010-07-08T00:03:49Z" uid="74617" user="JohnSmith" changeset="5162525">
    <nd ref="36785057"/>
    <nd ref="36785060"/>
    <nd ref="36785058"/>
    <nd ref="36785063"/>
    <tag k="highway" v="residential"/>
    <tag k="maxspeed" v="50"/>
    <tag k="maxspeed:source" v="default residential speed limit in Australia"/>
    <tag k="name" v="Georgina Close"/>
    <tag k="source" v="survey"/>
  </way>
  <way id="5232312" version="3" timestamp="2010-07-08T00:14:10Z" uid="74617" user="JohnSmith" changeset="5162525">
    <nd ref="36785057"/>
    <nd ref="36785060"/>
    <nd ref="36785058"/>
    <nd ref="36785063"/>
    <tag k="highway" v="residential"/>
    <tag k="maxspeed" v="50"/>
    <tag k="maxspeed:source" v="default residential speed limit in Australia"/>
    <tag k="name" v="Georgina Close"/>
    <tag k="source" v="survey"/>
  </way>
  <way id="5232313" version="1" timestamp="2007-08-30T04:35:48Z" uid="7617" user="Franc" changeset="262906">
    <nd ref="36785035"/>
    <nd ref="36785065"/>
    <nd ref="36785068"/>
    <nd ref="36785064"/>
    <tag k="created_by" v="JOSM"/>
    <tag k="highway" v="residential"/>
    <tag k="name" v="Bogan Place"/>
    <tag k="source" v="survey"/>
  </way>
  <way id="5232313" version="4" timestamp="2010-07-08T00:05:00Z" uid="74617" user="JohnSmith" changeset="5162525">
    <nd ref="36785035"/>
    <nd ref="36785065"/>
    <nd ref="36785068"/>
    <nd ref="36785064"/>
    <tag k="highway" v="residential"/>
    <tag k="maxspeed" v="50"/>
    <tag k="maxspeed:source" v="default residential speed limit in Australia"/>
    <tag k="name" v="Rainforest Close"/>
    <tag k="old_name" v="Bogan Place"/>
    <tag k="source" v="survey"/>
  </way>
  <way id="5232313" version="5" timestamp="2010-07-08T00:15:55Z" uid="74617" user="JohnSmith" changeset="5162525">
    <nd ref="36785035"/>
    <nd ref="36785065"/>
    <nd ref="36785068"/>
    <nd ref="36785064"/>
    <tag k="highway" v="residential"/>
    <tag k="maxspeed" v="50"/>
    <tag k="maxspeed:source" v="default residential speed limit in Australia"/>
    <tag k="name" v="Rainforest Close"/>
    <tag k="old_name" v="Bogan Place"/>
    <tag k="source" v="survey"/>
  </way>
  <way id="5232314" version="1" timestamp="2007-08-30T04:35:49Z" uid="7617" user="Franc" changeset="262906">
    <nd ref="36785070"/>
    <nd ref="36785069"/>
    <tag k="created_by" v="JOSM"/>
    <tag k="highway" v="residential"/>
    <tag k="name" v="Clyde Place"/>
    <tag k="source" v="survey"/>
  </way>
  <way id="5232314" version="2" timestamp="2010-07-08T00:01:37Z" uid="74617" user="JohnSmith" changeset="5162525">
    <nd ref="36785070"/>
    <nd ref="36785069"/>
    <tag k="highway" v="residential"/>
    <tag k="maxspeed" v="50"/>
    <tag k="maxspeed:source" v="default residential speed limit in Australia"/>
    <tag k="name" v="Clyde Place"/>
    <tag k="source" v="survey"/>
  </way>
  <way id="5232314" version="3" timestamp="2010-07-08T00:11:47Z" uid="74617" user="JohnSmith" changeset="5162525">
    <nd ref="36785070"/>
    <nd ref="36785069"/>
    <tag k="highway" v="residential"/>
    <tag k="maxspeed" v="50"/>
    <tag k="maxspeed:source" v="default residential speed limit in Australia"/>
    <tag k="name" v="Clyde Place"/>
    <tag k="source" v="survey"/>
  </way>
  <way id="5232315" version="1" timestamp="2007-08-30T04:35:49Z" uid="7617" user="Franc" changeset="262906">
    <nd ref="36785074"/>
    <nd ref="36785075"/>
    <nd ref="36785076"/>
    <nd ref="36785073"/>
    <tag k="created_by" v="JOSM"/>
    <tag k="highway" v="residential"/>
    <tag k="name" v="Boyne Place"/>
    <tag k="source" v="survey"/>
  </way>
  <way id="5232315" version="2" timestamp="2010-07-08T00:02:51Z" uid="74617" user="JohnSmith" changeset="5162525">
    <nd ref="36785074"/>
    <nd ref="36785075"/>
    <nd ref="36785076"/>
    <nd ref="36785073"/>
    <tag k="highway" v="residential"/>
    <tag k="maxspeed" v="50"/>
    <tag k="maxspeed:source" v="default residential speed limit in Australia"/>
    <tag k="name" v="Boyne Place"/>
    <tag k="source" v="survey"/>
  </way>
  <way id="5232315" version="3" timestamp="2010-07-08T00:13:04Z" uid="74617" user="JohnSmith" changeset="5162525">
    <nd ref="36785074"/>
    <nd ref="36785075"/>
    <nd ref="36785076"/>
    <nd ref="36785073"/>
    <tag k="highway" v="residential"/>
    <tag k="maxspeed" v="50"/>
    <tag k="maxspeed:source" v="default residential speed limit in Australia"/>
    <tag k="name" v="Boyne Place"/>
    <tag k="source" v="survey"/>
  </way>
  <way id="5232316" version="1" timestamp="2007-08-30T04:35:50Z" uid="7617" user="Franc" changeset="262906">
    <nd ref="36785078"/>
    <nd ref="36785084"/>
    <nd ref="36785085"/>
    <nd ref="36785086"/>
    <nd ref="36785094"/>
    <nd ref="36785089"/>
    <nd ref="36785090"/>
    <nd ref="36785091"/>
    <nd ref="36785080"/>
    <tag k="created_by" v="JOSM"/>
    <tag k="highway" v="residential"/>
    <tag k="name" v="Cooper Crescent"/>
    <tag k="source" v="survey"/>
  </way>
  <way id="5232316" version="2" timestamp="2010-07-08T00:03:08Z" uid="74617" user="JohnSmith" changeset="5162525">
    <nd ref="36785078"/>
    <nd ref="36785084"/>
    <nd ref="36785085"/>
    <nd ref="36785086"/>
    <nd ref="36785094"/>
    <nd ref="36785089"/>
    <nd ref="36785090"/>
    <nd ref="36785091"/>
    <nd ref="36785080"/>
    <tag k="highway" v="residential"/>
    <tag k="maxspeed" v="50"/>
    <tag k="maxspeed:source" v="default residential speed limit in Australia"/>
    <tag k="name" v="Cooper Crescent"/>
    <tag k="source" v="survey"/>
  </way>
  <way id="5232316" version="3" timestamp="2010-07-08T00:13:22Z" uid="74617" user="JohnSmith" changeset="5162525">
    <nd ref="36785078"/>
    <nd ref="36785084"/>
    <nd ref="36785085"/>
    <nd ref="36785086"/>
    <nd ref="36785094"/>
    <nd ref="36785089"/>
    <nd ref="36785090"/>
    <nd ref="36785091"/>
    <nd ref="36785080"/>
    <tag k="highway" v="residential"/>
    <tag k="maxspeed" v="50"/>
    <tag k="maxspeed:source" v="default residential speed limit in Australia"/>
    <tag k="name" v="Cooper Crescent"/>
    <tag k="source" v="survey"/>
  </way>
  <way id="5232317" version="1" timestamp="2007-08-30T04:35:51Z" uid="7617" user="Franc" changeset="262906">
    <nd ref="36785000"/>
    <nd ref="36785096"/>
    <nd ref="36785095"/>
    <tag k="created_by" v="JOSM"/>
    <tag k="highway" v="residential"/>
    <tag k="name" v="Nerang Avenue"/>
    <tag k="source" v="survey"/>
  </way>
  <way id="5232317" version="2" timestamp="2010-07-08T00:04:10Z" uid="74617" user="JohnSmith" changeset="5162525">
    <nd ref="36785000"/>
    <nd ref="36785096"/>
    <nd ref="36785095"/>
    <tag k="highway" v="residential"/>
    <tag k="maxspeed" v="50"/>
    <tag k="maxspeed:source" v="default residential speed limit in Australia"/>
    <tag k="name" v="Nerang Avenue"/>
    <tag k="source" v="survey"/>
  </way>
  <way id="5232317" version="3" timestamp="2010-07-08T00:14:39Z" uid="74617" user="JohnSmith" changeset="5162525">
    <nd ref="36785000"/>
    <nd ref="36785096"/>
    <nd ref="36785095"/>
    <tag k="highway" v="residential"/>
    <tag k="maxspeed" v="50"/>
    <tag k="maxspeed:source" v="default residential speed limit in Australia"/>
    <tag k="name" v="Nerang Avenue"/>
    <tag k="source" v="survey"/>
  </way>
  <way id="5232387" version="1" timestamp="2007-08-30T05:17:17Z" uid="7617" user="Franc" changeset="262906">
    <nd ref="36786199"/>
    <nd ref="36786194"/>
    <nd ref="36786195"/>
    <nd ref="36786196"/>
    <nd ref="36786197"/>
    <nd ref="36786198"/>
    <nd ref="28823861"/>
    <tag k="created_by" v="JOSM"/>
    <tag k="highway" v="residential"/>
    <tag k="name" v="Hampshire Avenue"/>
    <tag k="source" v="survey"/>
  </way>
  <way id="5232387" version="2" timestamp="2009-11-21T02:41:18Z" uid="7617" user="Franc" changeset="3173194">
    <nd ref="36786199"/>
    <nd ref="36786194"/>
    <nd ref="36786195"/>
    <nd ref="36786196"/>
    <nd ref="567746910"/>
    <nd ref="36786197"/>
    <nd ref="567746909"/>
    <nd ref="567746911"/>
    <nd ref="36786198"/>
    <nd ref="28823861"/>
    <tag k="highway" v="residential"/>
    <tag k="name" v="Hampshire Avenue"/>
    <tag k="source" v="survey"/>
  </way>
  <way id="5232387" version="3" timestamp="2010-07-08T00:23:40Z" uid="74617" user="JohnSmith" changeset="5162525">
    <nd ref="36786199"/>
    <nd ref="36786194"/>
    <nd ref="36786195"/>
    <nd ref="36786196"/>
    <nd ref="567746910"/>
    <nd ref="36786197"/>
    <nd ref="567746909"/>
    <nd ref="567746911"/>
    <nd ref="36786198"/>
    <nd ref="28823861"/>
    <tag k="highway" v="residential"/>
    <tag k="maxspeed" v="50"/>
    <tag k="maxspeed:source" v="default residential speed limit in Australia"/>
    <tag k="name" v="Hampshire Avenue"/>
    <tag k="source" v="survey"/>
  </way>
  <way id="5232388" version="1" timestamp="2007-08-30T12:16:16Z" uid="7617" user="Franc" changeset="266349">
    <nd ref="36831083"/>
    <nd ref="36831086"/>
    <nd ref="36786202"/>
    <tag k="created_by" v="JOSM"/>
    <tag k="highway" v="service"/>
    <tag k="source" v="survey"/>
  </way>
  <way id="5232388" version="2" timestamp="2009-11-21T02:41:18Z" uid="7617" user="Franc" changeset="3173194">
    <nd ref="567746934"/>
    <nd ref="567746932"/>
    <nd ref="567746931"/>
    <nd ref="567746930"/>
    <nd ref="36831083"/>
    <nd ref="36831086"/>
    <nd ref="36786202"/>
    <tag k="highway" v="service"/>
    <tag k="source" v="survey"/>
  </way>
  <way id="5232389" version="1" timestamp="2007-09-05T06:40:40Z" uid="7617" user="Franc" changeset="341117">
    <nd ref="28829538"/>
    <nd ref="36786210"/>
    <nd ref="36786209"/>
    <nd ref="36786212"/>
    <nd ref="36786208"/>
    <nd ref="36786211"/>
    <nd ref="36786207"/>
    <nd ref="36786206"/>
    <nd ref="36786234"/>
    <nd ref="36786233"/>
    <nd ref="28829539"/>
    <tag k="created_by" v="JOSM"/>
    <tag k="highway" v="residential"/>
    <tag k="name" v="Wallalong Crescent"/>
    <tag k="source" v="survey"/>
  </way>
  <way id="5232389" version="2" timestamp="2010-07-08T00:25:27Z" uid="74617" user="JohnSmith" changeset="5162525">
    <nd ref="28829538"/>
    <nd ref="36786210"/>
    <nd ref="36786209"/>
    <nd ref="36786212"/>
    <nd ref="36786208"/>
    <nd ref="36786211"/>
    <nd ref="36786207"/>
    <nd ref="36786206"/>
    <nd ref="36786234"/>
    <nd ref="36786233"/>
    <nd ref="28829539"/>
    <tag k="highway" v="residential"/>
    <tag k="maxspeed" v="50"/>
    <tag k="maxspeed:source" v="default residential speed limit in Australia"/>
    <tag k="name" v="Wallalong Crescent"/>
    <tag k="source" v="survey"/>
  </way>
  <way id="5232390" version="1" timestamp="2007-09-05T06:40:51Z" uid="7617" user="Franc" changeset="341117">
    <nd ref="28829534"/>
    <nd ref="36786206"/>
    <nd ref="36786213"/>
    <nd ref="36786223"/>
    <nd ref="36786215"/>
    <nd ref="36786216"/>
    <nd ref="36786224"/>
    <nd ref="36786217"/>
    <nd ref="36786218"/>
    <tag k="created_by" v="JOSM"/>
    <tag k="highway" v="residential"/>
    <tag k="name" v="Boronga Avenue"/>
    <tag k="source:name" v="survey"/>
  </way>
  <way id="5232390" version="2" timestamp="2009-11-21T02:53:42Z" uid="7617" user="Franc" changeset="3173223">
    <nd ref="28829534"/>
    <nd ref="36786206"/>
    <nd ref="36786213"/>
    <nd ref="36786223"/>
    <nd ref="567750542"/>
    <nd ref="36786215"/>
    <nd ref="36786216"/>
    <nd ref="36786224"/>
    <nd ref="36786217"/>
    <nd ref="567750541"/>
    <nd ref="36786218"/>
    <tag k="highway" v="residential"/>
    <tag k="name" v="Boronga Avenue"/>
    <tag k="source:name" v="survey"/>
  </way>
  <way id="5232390" version="3" timestamp="2010-07-08T00:27:58Z" uid="74617" user="JohnSmith" changeset="5162525">
    <nd ref="28829534"/>
    <nd ref="36786206"/>
    <nd ref="36786213"/>
    <nd ref="36786223"/>
    <nd ref="567750542"/>
    <nd ref="36786215"/>
    <nd ref="36786216"/>
    <nd ref="36786224"/>
    <nd ref="36786217"/>
    <nd ref="567750541"/>
    <nd ref="36786218"/>
    <tag k="highway" v="residential"/>
    <tag k="maxspeed" v="50"/>
    <tag k="maxspeed:source" v="default residential speed limit in Australia"/>
    <tag k="name" v="Boronga Avenue"/>
    <tag k="source:name" v="survey"/>
  </way>
  <way id="5232391" version="1" timestamp="2007-09-05T06:40:44Z" uid="7617" user="Franc" changeset="341117">
    <nd ref="36786218"/>
    <nd ref="36786225"/>
    <nd ref="36786219"/>
    <nd ref="36786220"/>
    <nd ref="36786221"/>
    <nd ref="36786226"/>
    <nd ref="36786222"/>
    <nd ref="36786213"/>
    <tag k="created_by" v="JOSM"/>
    <tag k="highway" v="residential"/>
    <tag k="name" v="Boronga Avenue"/>
    <tag k="source" v="survey"/>
  </way>
  <way id="5232391" version="2" timestamp="2009-11-21T02:53:41Z" uid="7617" user="Franc" changeset="3173223">
    <nd ref="36786218"/>
    <nd ref="36786225"/>
    <nd ref="567750543"/>
    <nd ref="36786219"/>
    <nd ref="36786220"/>
    <nd ref="567750544"/>
    <nd ref="36786221"/>
    <nd ref="567750545"/>
    <nd ref="36786226"/>
    <nd ref="36786222"/>
    <nd ref="36786213"/>
    <tag k="highway" v="residential"/>
    <tag k="name" v="Boronga Avenue"/>
    <tag k="source" v="survey"/>
  </way>
  <way id="5232391" version="3" timestamp="2010-07-08T00:22:39Z" uid="74617" user="JohnSmith" changeset="5162525">
    <nd ref="36786218"/>
    <nd ref="36786225"/>
    <nd ref="567750543"/>
    <nd ref="36786219"/>
    <nd ref="36786220"/>
    <nd ref="567750544"/>
    <nd ref="36786221"/>
    <nd ref="567750545"/>
    <nd ref="36786226"/>
    <nd ref="36786222"/>
    <nd ref="36786213"/>
    <tag k="highway" v="residential"/>
    <tag k="maxspeed" v="50"/>
    <tag k="maxspeed:source" v="default residential speed limit in Australia"/>
    <tag k="name" v="Boronga Avenue"/>
    <tag k="source" v="survey"/>
  </way>
  <way id="5232392" version="1" timestamp="2007-09-05T06:40:54Z" uid="7617" user="Franc" changeset="341117">
    <nd ref="36786218"/>
    <nd ref="36786227"/>
    <tag k="created_by" v="JOSM"/>
    <tag k="highway" v="residential"/>
    <tag k="name" v="Hereford Place"/>
    <tag k="source" v="survey"/>
  </way>
  <way id="5232392" version="2" timestamp="2010-07-08T00:23:04Z" uid="74617" user="JohnSmith" changeset="5162525">
    <nd ref="36786218"/>
    <nd ref="36786227"/>
    <tag k="highway" v="residential"/>
    <tag k="maxspeed" v="50"/>
    <tag k="maxspeed:source" v="default residential speed limit in Australia"/>
    <tag k="name" v="Hereford Place"/>
    <tag k="source" v="survey"/>
  </way>
  <way id="5232393" version="1" timestamp="2007-09-05T06:40:52Z" uid="7617" user="Franc" changeset="341117">
    <nd ref="36786228"/>
    <nd ref="36786229"/>
    <nd ref="28829533"/>
    <tag k="created_by" v="JOSM"/>
    <tag k="highway" v="residential"/>
    <tag k="source" v="Yahoo Imagery"/>
  </way>
  <way id="5232393" version="2" timestamp="2008-03-10T06:57:27Z" uid="7617" user="Franc" changeset="299079">
    <nd ref="36786228"/>
    <nd ref="36786229"/>
    <nd ref="28829533"/>
    <tag k="created_by" v="JOSM"/>
    <tag k="highway" v="residential"/>
    <tag k="name" v="Victoria Avenue"/>
    <tag k="source" v="survey"/>
  </way>
  <way id="5232393" version="3" timestamp="2010-07-08T00:24:29Z" uid="74617" user="JohnSmith" changeset="5162525">
    <nd ref="36786228"/>
    <nd ref="36786229"/>
    <nd ref="28829533"/>
    <tag k="highway" v="residential"/>
    <tag k="maxspeed" v="50"/>
    <tag k="maxspeed:source" v="default residential speed limit in Australia"/>
    <tag k="name" v="Victoria Avenue"/>
    <tag k="source" v="survey"/>
  </way>
  <way id="5232393" version="4" timestamp="2010-08-07T12:09:08Z" uid="7617" user="Franc" changeset="5424051">
    <nd ref="36786228"/>
    <nd ref="848572929"/>
    <nd ref="848572925"/>
    <nd ref="36786229"/>
    <nd ref="28829533"/>
    <tag k="highway" v="residential"/>
    <tag k="maxspeed" v="50"/>
    <tag k="maxspeed:source" v="default residential speed limit in Australia"/>
    <tag k="name" v="Victoria Avenue"/>
    <tag k="source" v="survey"/>
  </way>
  <way id="5232394" version="1" timestamp="2007-09-05T06:40:59Z" uid="7617" user="Franc" changeset="341117">
    <nd ref="28809521"/>
    <nd ref="36786232"/>
    <nd ref="36786231"/>
    <nd ref="36786230"/>
    <tag k="created_by" v="JOSM"/>
    <tag k="highway" v="residential"/>
    <tag k="source" v="Yahoo Imagery"/>
  </way>
  <way id="5232394" version="2" timestamp="2008-03-10T06:57:29Z" uid="7617" user="Franc" changeset="299079">
    <nd ref="28809521"/>
    <nd ref="36786231"/>
    <nd ref="36786230"/>
    <tag k="created_by" v="JOSM"/>
    <tag k="highway" v="residential"/>
    <tag k="name" v="Congham Road"/>
    <tag k="source" v="Yahoo Imagery"/>
  </way>
  <way id="5232394" version="3" timestamp="2010-07-08T00:27:00Z" uid="74617" user="JohnSmith" changeset="5162525">
    <nd ref="28809521"/>
    <nd ref="36786231"/>
    <nd ref="36786230"/>
    <tag k="highway" v="residential"/>
    <tag k="maxspeed" v="50"/>
    <tag k="maxspeed:source" v="default residential speed limit in Australia"/>
    <tag k="name" v="Congham Road"/>
    <tag k="source" v="Yahoo Imagery"/>
  </way>
  <way id="5232395" version="1" timestamp="2007-09-05T06:40:57Z" uid="7617" user="Franc" changeset="341117">
    <nd ref="36786234"/>
    <nd ref="36786235"/>
    <nd ref="36786244"/>
    <nd ref="36786236"/>
    <nd ref="36786237"/>
    <nd ref="36786238"/>
    <nd ref="36786239"/>
    <nd ref="36786240"/>
    <nd ref="36786241"/>
    <nd ref="36786243"/>
    <nd ref="36786242"/>
    <tag k="created_by" v="JOSM"/>
    <tag k="highway" v="residential"/>
    <tag k="name" v="Gloucester Avenue"/>
    <tag k="source" v="survey"/>
  </way>
  <way id="5232395" version="2" timestamp="2010-07-08T00:21:27Z" uid="74617" user="JohnSmith" changeset="5162525">
    <nd ref="36786234"/>
    <nd ref="36786235"/>
    <nd ref="36786244"/>
    <nd ref="36786236"/>
    <nd ref="36786237"/>
    <nd ref="36786238"/>
    <nd ref="36786239"/>
    <nd ref="36786240"/>
    <nd ref="36786241"/>
    <nd ref="36786243"/>
    <nd ref="36786242"/>
    <tag k="highway" v="residential"/>
    <tag k="maxspeed" v="50"/>
    <tag k="maxspeed:source" v="default residential speed limit in Australia"/>
    <tag k="name" v="Gloucester Avenue"/>
    <tag k="source" v="survey"/>
  </way>
  <way id="5232396" version="1" timestamp="2007-09-05T06:41:05Z" uid="7617" user="Franc" changeset="341117">
    <nd ref="36786245"/>
    <nd ref="36786246"/>
    <nd ref="36786228"/>
    <nd ref="36786231"/>
    <tag k="created_by" v="JOSM"/>
    <tag k="highway" v="residential"/>
    <tag k="source" v="Yahoo Imagery"/>
  </way>
  <way id="5232396" version="2" timestamp="2008-03-10T06:57:30Z" uid="7617" user="Franc" changeset="299079">
    <nd ref="36786245"/>
    <nd ref="36786246"/>
    <nd ref="251462943"/>
    <nd ref="251462949"/>
    <nd ref="251462956"/>
    <nd ref="36786228"/>
    <nd ref="36786231"/>
    <tag k="created_by" v="JOSM"/>
    <tag k="highway" v="residential"/>
    <tag k="name" v="Patterson Avenue"/>
    <tag k="source" v="survey"/>
  </way>
  <way id="5232396" version="3" timestamp="2010-07-08T00:21:56Z" uid="74617" user="JohnSmith" changeset="5162525">
    <nd ref="36786245"/>
    <nd ref="36786246"/>
    <nd ref="251462943"/>
    <nd ref="251462949"/>
    <nd ref="251462956"/>
    <nd ref="36786228"/>
    <nd ref="36786231"/>
    <tag k="highway" v="residential"/>
    <tag k="maxspeed" v="50"/>
    <tag k="maxspeed:source" v="default residential speed limit in Australia"/>
    <tag k="name" v="Patterson Avenue"/>
    <tag k="source" v="survey"/>
  </way>
  <way id="5232396" version="4" timestamp="2010-08-07T12:09:08Z" uid="7617" user="Franc" changeset="5424051">
    <nd ref="36786245"/>
    <nd ref="36786246"/>
    <nd ref="251462943"/>
    <nd ref="251462949"/>
    <nd ref="848572938"/>
    <nd ref="251462956"/>
    <nd ref="36786228"/>
    <nd ref="36786231"/>
    <tag k="highway" v="residential"/>
    <tag k="maxspeed" v="50"/>
    <tag k="maxspeed:source" v="default residential speed limit in Australia"/>
    <tag k="name" v="Patterson Avenue"/>
    <tag k="source" v="survey"/>
  </way>
  <way id="5232397" version="1" timestamp="2007-09-05T06:41:02Z" uid="7617" user="Franc" changeset="341117">
    <nd ref="36786247"/>
    <nd ref="36786246"/>
    <tag k="created_by" v="JOSM"/>
    <tag k="highway" v="residential"/>
    <tag k="source" v="Yahoo Imagery"/>
  </way>
  <way id="5232397" version="2" timestamp="2008-03-10T06:57:30Z" uid="7617" user="Franc" changeset="299079">
    <nd ref="36786247"/>
    <nd ref="251462962"/>
    <nd ref="36786246"/>
    <tag k="created_by" v="JOSM"/>
    <tag k="highway" v="residential"/>
    <tag k="name" v="Sequoia Close"/>
    <tag k="source" v="survey"/>
  </way>
  <way id="5232397" version="3" timestamp="2010-07-08T00:23:27Z" uid="74617" user="JohnSmith" changeset="5162525">
    <nd ref="36786247"/>
    <nd ref="251462962"/>
    <nd ref="36786246"/>
    <tag k="highway" v="residential"/>
    <tag k="maxspeed" v="50"/>
    <tag k="maxspeed:source" v="default residential speed limit in Australia"/>
    <tag k="name" v="Sequoia Close"/>
    <tag k="source" v="survey"/>
  </way>
  <way id="5232397" version="4" timestamp="2010-08-07T12:09:09Z" uid="7617" user="Franc" changeset="5424051">
    <nd ref="36786247"/>
    <nd ref="251462962"/>
    <nd ref="848572976"/>
    <nd ref="36786246"/>
    <tag k="highway" v="residential"/>
    <tag k="maxspeed" v="50"/>
    <tag k="maxspeed:source" v="default residential speed limit in Australia"/>
    <tag k="name" v="Sequoia Close"/>
    <tag k="source" v="survey"/>
  </way>
  <way id="5232398" version="1" timestamp="2007-09-05T06:41:10Z" uid="7617" user="Franc" changeset="341117">
    <nd ref="36786248"/>
    <nd ref="28829530"/>
    <tag k="created_by" v="JOSM"/>
    <tag k="highway" v="residential"/>
    <tag k="name" v="Combe Place"/>
    <tag k="source" v="survey"/>
  </way>
  <way id="5232398" version="2" timestamp="2010-07-08T00:25:52Z" uid="74617" user="JohnSmith" changeset="5162525">
    <nd ref="36786248"/>
    <nd ref="28829530"/>
    <tag k="highway" v="residential"/>
    <tag k="maxspeed" v="50"/>
    <tag k="maxspeed:source" v="default residential speed limit in Australia"/>
    <tag k="name" v="Combe Place"/>
    <tag k="source" v="survey"/>
  </way>
  <way id="5232399" version="1" timestamp="2007-09-05T06:41:08Z" uid="7617" user="Franc" changeset="341117">
    <nd ref="36786249"/>
    <nd ref="28829530"/>
    <tag k="created_by" v="JOSM"/>
    <tag k="highway" v="residential"/>
    <tag k="name" v="Apollo Avenue"/>
    <tag k="source" v="survey"/>
  </way>
  <way id="5232399" version="2" timestamp="2010-07-08T00:27:24Z" uid="74617" user="JohnSmith" changeset="5162525">
    <nd ref="36786249"/>
    <nd ref="28829530"/>
    <tag k="highway" v="residential"/>
    <tag k="maxspeed" v="50"/>
    <tag k="maxspeed:source" v="default residential speed limit in Australia"/>
    <tag k="name" v="Apollo Avenue"/>
    <tag k="source" v="survey"/>
  </way>
  <way id="5232400" version="1" timestamp="2007-09-05T06:41:13Z" uid="7617" user="Franc" changeset="341117">
    <nd ref="36786250"/>
    <nd ref="28829532"/>
    <tag k="created_by" v="JOSM"/>
    <tag k="highway" v="residential"/>
    <tag k="name" v="Diana Avenue"/>
    <tag k="source" v="survey"/>
  </way>
  <way id="5232400" version="2" timestamp="2010-07-08T00:22:29Z" uid="74617" user="JohnSmith" changeset="5162525">
    <nd ref="36786250"/>
    <nd ref="28829532"/>
    <tag k="highway" v="residential"/>
    <tag k="maxspeed" v="50"/>
    <tag k="maxspeed:source" v="default residential speed limit in Australia"/>
    <tag k="name" v="Diana Avenue"/>
    <tag k="source" v="survey"/>
  </way>
  <way id="5232401" version="1" timestamp="2007-08-30T05:17:31Z" uid="7617" user="Franc" changeset="262906">
    <nd ref="36786251"/>
    <nd ref="36786252"/>
    <nd ref="36786253"/>
    <nd ref="36786254"/>
    <nd ref="36786251"/>
    <tag k="amenity" v="school"/>
    <tag k="created_by" v="JOSM"/>
    <tag k="name" v="West Pymble Public School"/>
    <tag k="source" v="Yahoo Imagery"/>
    <tag k="source:name" v="survey"/>
  </way>
  <way id="5232401" version="2" timestamp="2010-08-07T12:09:08Z" uid="7617" user="Franc" changeset="5424051">
    <nd ref="36786251"/>
    <nd ref="36786252"/>
    <nd ref="36786256"/>
    <nd ref="36786255"/>
    <nd ref="36786251"/>
    <tag k="amenity" v="school"/>
    <tag k="name" v="West Pymble Public School"/>
    <tag k="source" v="neamap"/>
    <tag k="source:name" v="survey"/>
  </way>
  <way id="5232401" version="3" timestamp="2010-08-07T13:00:00Z" uid="7617" user="Franc" changeset="5424393">
    <nd ref="36786251"/>
    <nd ref="36786252"/>
    <nd ref="36786256"/>
    <nd ref="36786255"/>
    <nd ref="36786251"/>
    <tag k="amenity" v="school"/>
    <tag k="name" v="West Pymble Public School"/>
    <tag k="source" v="nearmap"/>
    <tag k="source:name" v="survey"/>
  </way>
  <way id="5232402" version="1" timestamp="2007-08-30T05:17:33Z" uid="7617" user="Franc" changeset="262906">
    <nd ref="36786256"/>
    <nd ref="36786257"/>
    <nd ref="36786260"/>
    <nd ref="36786255"/>
    <nd ref="36786256"/>
    <tag k="created_by" v="JOSM"/>
    <tag k="layer" v="-1"/>
    <tag k="leisure" v="park"/>
  </way>
  <way id="5232437" version="1" timestamp="2007-09-05T06:40:13Z" uid="7617" user="Franc" changeset="341117">
    <nd ref="36786836"/>
    <nd ref="36786838"/>
    <nd ref="36786837"/>
    <tag k="created_by" v="JOSM"/>
    <tag k="highway" v="residential"/>
    <tag k="name" v="Warrabi Place"/>
    <tag k="source" v="survey"/>
  </way>
  <way id="5232437" version="2" timestamp="2009-11-21T02:53:42Z" uid="7617" user="Franc" changeset="3173223">
    <nd ref="36786836"/>
    <nd ref="567750553"/>
    <nd ref="36786838"/>
    <nd ref="567750552"/>
    <nd ref="36786837"/>
    <tag k="highway" v="residential"/>
    <tag k="name" v="Warrabi Place"/>
    <tag k="source" v="survey"/>
  </way>
  <way id="5232437" version="3" timestamp="2010-07-08T00:24:25Z" uid="74617" user="JohnSmith" changeset="5162525">
    <nd ref="36786836"/>
    <nd ref="567750553"/>
    <nd ref="36786838"/>
    <nd ref="567750552"/>
    <nd ref="36786837"/>
    <tag k="highway" v="residential"/>
    <tag k="maxspeed" v="50"/>
    <tag k="maxspeed:source" v="default residential speed limit in Australia"/>
    <tag k="name" v="Warrabi Place"/>
    <tag k="source" v="survey"/>
  </way>
  <way id="5232437" version="4" timestamp="2010-08-07T12:09:09Z" uid="7617" user="Franc" changeset="5424051">
    <nd ref="36786836"/>
    <nd ref="567750553"/>
    <nd ref="848573001"/>
    <nd ref="36786838"/>
    <nd ref="848572998"/>
    <nd ref="36786837"/>
    <tag k="highway" v="residential"/>
    <tag k="maxspeed" v="50"/>
    <tag k="maxspeed:source" v="default residential speed limit in Australia"/>
    <tag k="name" v="Warrabi Place"/>
    <tag k="source" v="survey"/>
  </way>
  <way id="5232438" version="1" timestamp="2007-09-05T06:40:04Z" uid="7617" user="Franc" changeset="341117">
    <nd ref="28809515"/>
    <nd ref="36786838"/>
    <tag k="created_by" v="JOSM"/>
    <tag k="highway" v="residential"/>
    <tag k="name" v="Lovat Street"/>
    <tag k="source" v="survey"/>
  </way>
  <way id="5232438" version="2" timestamp="2010-07-08T00:26:55Z" uid="74617" user="JohnSmith" changeset="5162525">
    <nd ref="28809515"/>
    <nd ref="36786838"/>
    <tag k="highway" v="residential"/>
    <tag k="maxspeed" v="50"/>
    <tag k="maxspeed:source" v="default residential speed limit in Australia"/>
    <tag k="name" v="Lovat Street"/>
    <tag k="source" v="survey"/>
  </way>
  <way id="5232439" version="1" timestamp="2007-09-05T06:40:09Z" uid="7617" user="Franc" changeset="341117">
    <nd ref="36786839"/>
    <nd ref="28829523"/>
    <tag k="created_by" v="JOSM"/>
    <tag k="highway" v="residential"/>
    <tag k="name" v="Arundel Street"/>
    <tag k="source" v="survey"/>
  </way>
  <way id="5232439" version="2" timestamp="2010-07-08T00:21:23Z" uid="74617" user="JohnSmith" changeset="5162525">
    <nd ref="36786839"/>
    <nd ref="28829523"/>
    <tag k="highway" v="residential"/>
    <tag k="maxspeed" v="50"/>
    <tag k="maxspeed:source" v="default residential speed limit in Australia"/>
    <tag k="name" v="Arundel Street"/>
    <tag k="source" v="survey"/>
  </way>
  <way id="5232440" version="4" timestamp="2010-02-09T07:16:59Z" uid="61114" user="Trav" changeset="3829494">
    <nd ref="36787087"/>
    <nd ref="36787088"/>
    <nd ref="36787089"/>
    <nd ref="36787091"/>
    <nd ref="634104800"/>
    <nd ref="172150332"/>
    <nd ref="36787087"/>
    <tag k="landuse" v="retail"/>
    <tag k="name" v="Macquarie Centre"/>
    <tag k="shop" v="shopping_centre"/>
  </way>
  <way id="5232472" version="2" timestamp="2009-07-31T14:15:10Z" uid="4467" user="Rosscoe" changeset="1995110">
    <nd ref="36787971"/>
    <nd ref="13797793"/>
    <tag k="abutters" v="mixed"/>
    <tag k="highway" v="unclassified"/>
    <tag k="name" v="Blue Street"/>
  </way>
  <way id="5232472" version="3" timestamp="2010-01-03T06:23:09Z" uid="30201" user="rrankin" changeset="3525492">
    <nd ref="36787971"/>
    <nd ref="13797793"/>
    <tag k="highway" v="unclassified"/>
    <tag k="name" v="Blue Street"/>
  </way>
  <way id="5232491" version="1" timestamp="2007-09-07T02:47:09Z" uid="7617" user="Franc" changeset="367477">
    <nd ref="28829489"/>
    <nd ref="36788188"/>
    <nd ref="28829497"/>
    <tag k="created_by" v="JOSM"/>
    <tag k="highway" v="residential"/>
    <tag k="name" v="Grayling Road"/>
    <tag k="source" v="survey"/>
  </way>
  <way id="5232491" version="2" timestamp="2010-07-08T00:26:08Z" uid="74617" user="JohnSmith" changeset="5162525">
    <nd ref="28829489"/>
    <nd ref="36788188"/>
    <nd ref="28829497"/>
    <tag k="highway" v="residential"/>
    <tag k="maxspeed" v="50"/>
    <tag k="maxspeed:source" v="default residential speed limit in Australia"/>
    <tag k="name" v="Grayling Road"/>
    <tag k="source" v="survey"/>
  </way>
  <way id="5232492" version="1" timestamp="2007-08-30T05:48:23Z" uid="7617" user="Franc" changeset="262906">
    <nd ref="36788188"/>
    <nd ref="28829520"/>
    <tag k="created_by" v="JOSM"/>
    <tag k="highway" v="residential"/>
    <tag k="source" v="survey"/>
  </way>
  <way id="5232492" version="2" timestamp="2008-10-25T08:07:26Z" uid="61114" user="Trav" changeset="572982">
    <nd ref="36788188"/>
    <nd ref="28829520"/>
    <tag k="created_by" v="Merkaartor 0.13"/>
    <tag k="highway" v="residential"/>
    <tag k="name" v="Yarrennan Avenue"/>
    <tag k="source" v="survey"/>
    <tag k="source:name" v="survey"/>
  </way>
  <way id="5232492" version="3" timestamp="2010-07-08T00:26:36Z" uid="74617" user="JohnSmith" changeset="5162525">
    <nd ref="36788188"/>
    <nd ref="28829520"/>
    <tag k="highway" v="residential"/>
    <tag k="maxspeed" v="50"/>
    <tag k="maxspeed:source" v="default residential speed limit in Australia"/>
    <tag k="name" v="Yarrennan Avenue"/>
    <tag k="source" v="survey"/>
    <tag k="source:name" v="survey"/>
  </way>
  <way id="5232493" version="1" timestamp="2007-08-30T06:26:00Z" uid="7617" user="Franc" changeset="262906">
    <nd ref="36791357"/>
    <nd ref="36788194"/>
    <nd ref="36788197"/>
    <nd ref="36788199"/>
    <nd ref="36788202"/>
    <tag k="created_by" v="JOSM"/>
    <tag k="highway" v="service"/>
    <tag k="name" v="Prince of Wales Drive"/>
    <tag k="source" v="survey"/>
  </way>
  <way id="5232516" version="3" timestamp="2008-12-11T01:02:47Z" uid="7617" user="Franc" changeset="312416">
    <nd ref="36788495"/>
    <nd ref="36788497"/>
    <nd ref="36788498"/>
    <nd ref="36788499"/>
    <nd ref="36788500"/>
    <tag k="created_by" v="Potlatch alpha"/>
    <tag k="highway" v="residential"/>
    <tag k="name" v="Anzac Avenue"/>
    <tag k="source:name" v="openstreetbugs"/>
  </way>
  <way id="5232551" version="3" timestamp="2008-11-20T11:13:32Z" uid="30201" user="rrankin" changeset="771844">
    <nd ref="36788975"/>
    <nd ref="37236983"/>
    <nd ref="36788976"/>
    <tag k="created_by" v="Potlatch alpha"/>
    <tag k="highway" v="residential"/>
    <tag k="name" v="Lytton Street"/>
    <tag k="source:name" v="historical"/>
  </way>
  <way id="5232551" version="7" timestamp="2010-07-08T01:17:43Z" uid="74617" user="JohnSmith" changeset="5162525">
    <nd ref="36788975"/>
    <nd ref="778948973"/>
    <nd ref="778948974"/>
    <nd ref="778948971"/>
    <nd ref="36788976"/>
    <tag k="highway" v="residential"/>
    <tag k="maxspeed" v="50"/>
    <tag k="maxspeed:source" v="default residential speed limit in Australia"/>
    <tag k="name" v="Lytton Street"/>
    <tag k="source:name" v="historical"/>
  </way>
  <way id="5232610" version="1" timestamp="2007-09-05T06:39:50Z" uid="7617" user="Franc" changeset="341117">
    <nd ref="28829503"/>
    <nd ref="36789672"/>
    <tag k="created_by" v="JOSM"/>
    <tag k="highway" v="residential"/>
    <tag k="name" v="Eppleston Place"/>
    <tag k="source" v="survey"/>
  </way>
  <way id="5232610" version="2" timestamp="2010-07-08T00:26:05Z" uid="74617" user="JohnSmith" changeset="5162525">
    <nd ref="28829503"/>
    <nd ref="36789672"/>
    <tag k="highway" v="residential"/>
    <tag k="maxspeed" v="50"/>
    <tag k="maxspeed:source" v="default residential speed limit in Australia"/>
    <tag k="name" v="Eppleston Place"/>
    <tag k="source" v="survey"/>
  </way>
  <way id="5232611" version="1" timestamp="2007-09-07T02:47:37Z" uid="7617" user="Franc" changeset="367477">
    <nd ref="28829500"/>
    <nd ref="36789673"/>
    <tag k="created_by" v="JOSM"/>
    <tag k="highway" v="service"/>
    <tag k="name" v="Philip Lane"/>
    <tag k="source" v="survey"/>
  </way>
  <way id="5232611" version="2" timestamp="2010-08-07T12:09:08Z" uid="7617" user="Franc" changeset="5424051">
    <nd ref="28829500"/>
    <nd ref="848573007"/>
    <nd ref="36789673"/>
    <tag k="highway" v="service"/>
    <tag k="name" v="Philip Lane"/>
    <tag k="source" v="survey"/>
  </way>
  <way id="5232612" version="1" timestamp="2007-08-30T06:06:53Z" uid="7617" user="Franc" changeset="262906">
    <nd ref="36789673"/>
    <nd ref="36789676"/>
    <nd ref="36789684"/>
    <nd ref="36789678"/>
    <nd ref="36789685"/>
    <nd ref="36789707"/>
    <nd ref="36789679"/>
    <nd ref="36789683"/>
    <tag k="created_by" v="JOSM"/>
    <tag k="highway" v="service"/>
    <tag k="source" v="survey"/>
  </way>
  <way id="5232612" version="2" timestamp="2010-08-07T12:09:08Z" uid="7617" user="Franc" changeset="5424051">
    <nd ref="36789673"/>
    <nd ref="36789676"/>
    <nd ref="36789684"/>
    <nd ref="36789678"/>
    <nd ref="848573067"/>
    <nd ref="36789685"/>
    <nd ref="36789707"/>
    <nd ref="36789679"/>
    <nd ref="36789683"/>
    <tag k="highway" v="service"/>
    <tag k="source" v="survey"/>
  </way>
  <way id="5232613" version="1" timestamp="2007-08-30T06:06:54Z" uid="7617" user="Franc" changeset="262906">
    <nd ref="36789697"/>
    <nd ref="36789691"/>
    <nd ref="36789695"/>
    <nd ref="36789696"/>
    <nd ref="36789697"/>
    <tag k="amenity" v="parking"/>
    <tag k="created_by" v="JOSM"/>
    <tag k="layer" v="-1"/>
  </way>
  <way id="5232614" version="1" timestamp="2007-08-30T06:06:54Z" uid="7617" user="Franc" changeset="262906">
    <nd ref="36789702"/>
    <nd ref="36789701"/>
    <tag k="created_by" v="JOSM"/>
    <tag k="highway" v="service"/>
  </way>
  <way id="5232615" version="1" timestamp="2007-08-30T06:06:55Z" uid="7617" user="Franc" changeset="262906">
    <nd ref="36789707"/>
    <nd ref="36789703"/>
    <nd ref="28829516"/>
    <tag k="created_by" v="JOSM"/>
    <tag k="highway" v="service"/>
    <tag k="source" v="Yahoo Imagery"/>
  </way>
  <way id="5232616" version="1" timestamp="2007-08-30T06:06:56Z" uid="7617" user="Franc" changeset="262906">
    <nd ref="36789708"/>
    <nd ref="36789709"/>
    <nd ref="36789713"/>
    <nd ref="36789714"/>
    <nd ref="36789708"/>
    <tag k="amenity" v="parking"/>
    <tag k="created_by" v="JOSM"/>
    <tag k="layer" v="-1"/>
    <tag k="source" v="Yahoo Imagery"/>
  </way>
  <way id="5232618" version="1" timestamp="2007-08-30T06:06:57Z" uid="7617" user="Franc" changeset="262906">
    <nd ref="36789715"/>
    <nd ref="36789703"/>
    <tag k="created_by" v="JOSM"/>
    <tag k="highway" v="service"/>
    <tag k="source" v="Yahoo Imagery"/>
  </way>
  <way id="5232634" version="6" timestamp="2009-11-18T10:54:06Z" uid="7617" user="Franc" changeset="3149195">
    <nd ref="36789997"/>
    <nd ref="36789998"/>
    <nd ref="36789999"/>
    <nd ref="566588370"/>
    <nd ref="256818177"/>
    <nd ref="36790000"/>
    <nd ref="256181987"/>
    <nd ref="256181988"/>
    <nd ref="36789997"/>
    <tag k="building" v="yes"/>
    <tag k="name" v="Hornsby RSL"/>
  </way>
  <way id="5232690" version="1" timestamp="2007-08-30T10:56:01Z" uid="7617" user="Franc" changeset="263018">
    <nd ref="30477255"/>
    <nd ref="30477256"/>
    <nd ref="30477257"/>
    <nd ref="30477258"/>
    <nd ref="30477259"/>
    <nd ref="30477260"/>
    <nd ref="30477261"/>
    <nd ref="36790966"/>
    <nd ref="30477301"/>
    <tag k="created_by" v="Potlatch alpha"/>
    <tag k="highway" v="residential"/>
    <tag k="name" v="Golfers Parade"/>
    <tag k="source:name" v="survey"/>
  </way>
  <way id="5232690" version="2" timestamp="2010-07-08T00:21:17Z" uid="74617" user="JohnSmith" changeset="5162525">
    <nd ref="30477255"/>
    <nd ref="30477256"/>
    <nd ref="30477257"/>
    <nd ref="30477258"/>
    <nd ref="30477259"/>
    <nd ref="30477260"/>
    <nd ref="30477261"/>
    <nd ref="36790966"/>
    <nd ref="30477301"/>
    <tag k="highway" v="residential"/>
    <tag k="maxspeed" v="50"/>
    <tag k="maxspeed:source" v="default residential speed limit in Australia"/>
    <tag k="name" v="Golfers Parade"/>
    <tag k="source:name" v="survey"/>
  </way>
  <way id="5232773" version="2" timestamp="2008-03-20T15:31:43Z" uid="16922" user="amai" changeset="355923">
    <nd ref="626283"/>
    <nd ref="36792073"/>
    <tag k="TODO" v="yes"/>
    <tag k="created_by" v="Potlatch 0.7b"/>
    <tag k="highway" v="unclassified"/>
    <tag k="name" v="Poepperlingweg"/>
  </way>
  <way id="5232778" version="4" timestamp="2008-03-01T12:27:38Z" uid="16922" user="amai" changeset="238983">
    <nd ref="616457"/>
    <nd ref="616458"/>
    <nd ref="616459"/>
    <nd ref="616460"/>
    <nd ref="616461"/>
    <nd ref="532135"/>
    <tag k="TODO" v="yes"/>
    <tag k="created_by" v="Potlatch 0.7b"/>
    <tag k="highway" v="unclassified"/>
    <tag k="name" v="Kirchbergweg"/>
  </way>
  <way id="5232778" version="5" timestamp="2008-03-08T11:51:05Z" uid="16922" user="amai" changeset="283872">
    <nd ref="616457"/>
    <nd ref="616458"/>
    <nd ref="616459"/>
    <nd ref="616460"/>
    <nd ref="616461"/>
    <nd ref="532135"/>
    <tag k="TODO" v="yes"/>
    <tag k="created_by" v="Potlatch 0.7b"/>
    <tag k="highway" v="residential"/>
    <tag k="name" v="Kirchbergweg"/>
  </way>
  <way id="5232779" version="2" timestamp="2008-03-01T12:29:40Z" uid="16922" user="amai" changeset="238983"/>
  <way id="5232780" version="4" timestamp="2008-03-01T12:28:16Z" uid="16922" user="amai" changeset="238983">
    <nd ref="36792095"/>
    <nd ref="36792094"/>
    <nd ref="36792093"/>
    <nd ref="36792091"/>
    <nd ref="616451"/>
    <nd ref="245520068"/>
    <nd ref="616455"/>
    <nd ref="36792096"/>
    <tag k="TODO" v="yes"/>
    <tag k="created_by" v="Potlatch 0.7b"/>
    <tag k="highway" v="unclassified"/>
  </way>
  <way id="5232780" version="5" timestamp="2008-03-01T12:28:47Z" uid="16922" user="amai" changeset="238983">
    <nd ref="36792095"/>
    <nd ref="36792094"/>
    <nd ref="36792093"/>
    <nd ref="36792091"/>
    <nd ref="616451"/>
    <nd ref="245520068"/>
    <nd ref="616455"/>
    <nd ref="36792096"/>
    <tag k="TODO" v="yes"/>
    <tag k="created_by" v="Potlatch 0.7b"/>
    <tag k="highway" v="unclassified"/>
    <tag k="name" v="Dachsbergweg"/>
  </way>
  <way id="5232780" version="6" timestamp="2008-03-01T12:29:08Z" uid="16922" user="amai" changeset="238983">
    <nd ref="36792095"/>
    <nd ref="36792094"/>
    <nd ref="36792093"/>
    <nd ref="36792091"/>
    <nd ref="616451"/>
    <nd ref="245520068"/>
    <nd ref="616455"/>
    <nd ref="36792096"/>
    <tag k="TODO" v="yes"/>
    <tag k="created_by" v="Potlatch 0.7b"/>
    <tag k="highway" v="unclassified"/>
    <tag k="name" v="Dachsbergweg"/>
  </way>
  <way id="5232780" version="7" timestamp="2008-03-08T11:50:56Z" uid="16922" user="amai" changeset="283872">
    <nd ref="36792095"/>
    <nd ref="36792094"/>
    <nd ref="36792093"/>
    <nd ref="36792091"/>
    <nd ref="616451"/>
    <nd ref="245520068"/>
    <nd ref="616455"/>
    <nd ref="36792096"/>
    <tag k="TODO" v="yes"/>
    <tag k="created_by" v="Potlatch 0.7b"/>
    <tag k="highway" v="residential"/>
    <tag k="name" v="Dachsbergweg"/>
  </way>
  <way id="5232782" version="4" timestamp="2008-03-08T11:52:01Z" uid="16922" user="amai" changeset="283872">
    <nd ref="36792107"/>
    <nd ref="36792108"/>
    <nd ref="36792109"/>
    <nd ref="616446"/>
    <nd ref="36792110"/>
    <nd ref="131058746"/>
    <nd ref="36792111"/>
    <tag k="TODO" v="yes"/>
    <tag k="created_by" v="Potlatch 0.7b"/>
    <tag k="highway" v="residential"/>
    <tag k="name" v="HeidenreichstraÃŸe"/>
  </way>
  <way id="5232783" version="2" timestamp="2008-03-01T12:29:40Z" uid="16922" user="amai" changeset="238983">
    <nd ref="36792111"/>
    <nd ref="36792097"/>
    <nd ref="616455"/>
    <nd ref="616457"/>
    <nd ref="36792099"/>
    <nd ref="36792100"/>
    <nd ref="36792102"/>
    <nd ref="36792103"/>
    <nd ref="36792104"/>
    <nd ref="36792105"/>
    <nd ref="36792099"/>
    <tag k="TODO" v="yes"/>
    <tag k="created_by" v="Potlatch 0.7b"/>
    <tag k="highway" v="unclassified"/>
    <tag k="name" v="SchwambstraÃŸe"/>
  </way>
  <way id="5232784" version="4" timestamp="2008-03-08T11:51:32Z" uid="16922" user="amai" changeset="283872">
    <nd ref="36792114"/>
    <nd ref="245520107"/>
    <nd ref="36792117"/>
    <nd ref="36792118"/>
    <nd ref="616448"/>
    <nd ref="36792119"/>
    <nd ref="36792120"/>
    <nd ref="36792097"/>
    <tag k="TODO" v="yes"/>
    <tag k="created_by" v="Potlatch 0.7b"/>
    <tag k="highway" v="residential"/>
    <tag k="name" v="Rehkopfweg"/>
  </way>
  <way id="5232786" version="3" timestamp="2008-03-08T11:52:41Z" uid="16922" user="amai" changeset="283872">
    <nd ref="626300"/>
    <nd ref="616438"/>
    <nd ref="616439"/>
    <nd ref="616441"/>
    <nd ref="616442"/>
    <nd ref="616444"/>
    <tag k="TODO" v="yes"/>
    <tag k="created_by" v="Potlatch 0.7b"/>
    <tag k="highway" v="residential"/>
    <tag k="name" v="Theodor-Heuss-StraÃŸe"/>
  </way>
  <way id="5232809" version="1" timestamp="2007-08-30T06:37:20Z" uid="7617" user="Franc" changeset="262906">
    <nd ref="36792297"/>
    <nd ref="36792293"/>
    <nd ref="28812457"/>
    <tag k="created_by" v="JOSM"/>
    <tag k="name" v="Cadow Street"/>
    <tag k="source" v="Yahoo Imagery"/>
    <tag k="source:name" v="survey"/>
  </way>
  <way id="5232809" version="3" timestamp="2010-03-31T09:26:35Z" uid="74617" user="JohnSmith" changeset="4283704">
    <nd ref="36792297"/>
    <nd ref="36792293"/>
    <nd ref="28812457"/>
    <tag k="highway" v="residential"/>
    <tag k="name" v="Cadow Street"/>
    <tag k="source" v="Yahoo Imagery"/>
    <tag k="source:name" v="survey"/>
  </way>
  <way id="5232809" version="4" timestamp="2010-07-08T00:25:35Z" uid="74617" user="JohnSmith" changeset="5162525">
    <nd ref="36792297"/>
    <nd ref="36792293"/>
    <nd ref="28812457"/>
    <tag k="highway" v="residential"/>
    <tag k="maxspeed" v="50"/>
    <tag k="maxspeed:source" v="default residential speed limit in Australia"/>
    <tag k="name" v="Cadow Street"/>
    <tag k="source" v="Yahoo Imagery"/>
    <tag k="source:name" v="survey"/>
  </way>
  <way id="5232810" version="1" timestamp="2007-08-30T10:55:58Z" uid="7617" user="Franc" changeset="263018">
    <nd ref="30476982"/>
    <nd ref="30476981"/>
    <nd ref="36792279"/>
    <nd ref="36792281"/>
    <nd ref="36792283"/>
    <nd ref="36792284"/>
    <nd ref="36792287"/>
    <nd ref="36792289"/>
    <nd ref="36792291"/>
    <nd ref="36792293"/>
    <tag k="created_by" v="Potlatch alpha"/>
    <tag k="highway" v="residential"/>
    <tag k="name" v="Hamilton Parade"/>
    <tag k="source" v="survey"/>
  </way>
  <way id="5232810" version="2" timestamp="2010-07-08T00:28:05Z" uid="74617" user="JohnSmith" changeset="5162525">
    <nd ref="30476982"/>
    <nd ref="30476981"/>
    <nd ref="36792279"/>
    <nd ref="36792281"/>
    <nd ref="36792283"/>
    <nd ref="36792284"/>
    <nd ref="36792287"/>
    <nd ref="36792289"/>
    <nd ref="36792291"/>
    <nd ref="36792293"/>
    <tag k="highway" v="residential"/>
    <tag k="maxspeed" v="50"/>
    <tag k="maxspeed:source" v="default residential speed limit in Australia"/>
    <tag k="name" v="Hamilton Parade"/>
    <tag k="source" v="survey"/>
  </way>
  <way id="5232811" version="1" timestamp="2007-08-30T06:37:22Z" uid="7617" user="Franc" changeset="262906">
    <nd ref="36792302"/>
    <nd ref="36792303"/>
    <nd ref="36792305"/>
    <nd ref="36792308"/>
    <nd ref="36792309"/>
    <nd ref="36792314"/>
    <nd ref="36792313"/>
    <tag k="created_by" v="JOSM"/>
    <tag k="highway" v="residential"/>
    <tag k="name" v="Penhyrn Road"/>
    <tag k="source" v="survey"/>
  </way>
  <way id="5232811" version="2" timestamp="2010-07-08T00:22:50Z" uid="74617" user="JohnSmith" changeset="5162525">
    <nd ref="36792302"/>
    <nd ref="36792303"/>
    <nd ref="36792305"/>
    <nd ref="36792308"/>
    <nd ref="36792309"/>
    <nd ref="36792314"/>
    <nd ref="36792313"/>
    <tag k="highway" v="residential"/>
    <tag k="maxspeed" v="50"/>
    <tag k="maxspeed:source" v="default residential speed limit in Australia"/>
    <tag k="name" v="Penhyrn Road"/>
    <tag k="source" v="survey"/>
  </way>
  <way id="5232812" version="1" timestamp="2007-08-30T06:37:23Z" uid="7617" user="Franc" changeset="262906">
    <nd ref="36792308"/>
    <nd ref="36792320"/>
    <nd ref="36792316"/>
    <tag k="created_by" v="JOSM"/>
    <tag k="highway" v="residential"/>
    <tag k="name" v="Ellison Road"/>
    <tag k="source" v="survey"/>
  </way>
  <way id="5232812" version="2" timestamp="2010-07-08T00:23:14Z" uid="74617" user="JohnSmith" changeset="5162525">
    <nd ref="36792308"/>
    <nd ref="36792320"/>
    <nd ref="36792316"/>
    <tag k="highway" v="residential"/>
    <tag k="maxspeed" v="50"/>
    <tag k="maxspeed:source" v="default residential speed limit in Australia"/>
    <tag k="name" v="Ellison Road"/>
    <tag k="source" v="survey"/>
  </way>
  <way id="5232847" version="1" timestamp="2007-09-05T06:39:52Z" uid="7617" user="Franc" changeset="341117">
    <nd ref="28829566"/>
    <nd ref="28829565"/>
    <tag k="created_by" v="YahooApplet 1.0"/>
    <tag k="highway" v="residential"/>
    <tag k="name" v="Avondale Place"/>
    <tag k="source:name" v="survey"/>
  </way>
  <way id="5232847" version="2" timestamp="2010-07-08T00:23:19Z" uid="74617" user="JohnSmith" changeset="5162525">
    <nd ref="28829566"/>
    <nd ref="28829565"/>
    <tag k="highway" v="residential"/>
    <tag k="maxspeed" v="50"/>
    <tag k="maxspeed:source" v="default residential speed limit in Australia"/>
    <tag k="name" v="Avondale Place"/>
    <tag k="source:name" v="survey"/>
  </way>
  <way id="5232864" version="1" timestamp="2007-09-05T06:40:28Z" uid="7617" user="Franc" changeset="341117">
    <nd ref="36793077"/>
    <nd ref="30477131"/>
    <tag k="created_by" v="JOSM"/>
    <tag k="highway" v="residential"/>
    <tag k="name" v="Par Close"/>
    <tag k="source" v="survey"/>
  </way>
  <way id="5232864" version="2" timestamp="2010-07-08T00:22:35Z" uid="74617" user="JohnSmith" changeset="5162525">
    <nd ref="36793077"/>
    <nd ref="30477131"/>
    <tag k="highway" v="residential"/>
    <tag k="maxspeed" v="50"/>
    <tag k="maxspeed:source" v="default residential speed limit in Australia"/>
    <tag k="name" v="Par Close"/>
    <tag k="source" v="survey"/>
  </way>
  <way id="5232915" version="4" timestamp="2008-03-01T08:20:40Z" uid="18775" user="drlizau" changeset="240795">
    <nd ref="36784593"/>
    <nd ref="249777134"/>
    <nd ref="12549257"/>
    <nd ref="36793905"/>
    <nd ref="151236299"/>
    <tag k="created_by" v="Potlatch alpha"/>
    <tag k="highway" v="secondary"/>
    <tag k="name" v="Gozzard Street"/>
  </way>
  <way id="5232933" version="1" timestamp="2007-08-30T06:58:06Z" uid="7617" user="Franc" changeset="262906">
    <nd ref="30349443"/>
    <nd ref="36794067"/>
    <tag k="created_by" v="Potlatch alpha"/>
    <tag k="highway" v="secondary"/>
    <tag k="name" v="Waterloo Road"/>
  </way>
  <way id="5232933" version="8" timestamp="2008-03-02T08:35:40Z" uid="7617" user="Franc" changeset="252259">
    <nd ref="30349443"/>
    <nd ref="130214785"/>
    <nd ref="218085871"/>
    <nd ref="172118318"/>
    <nd ref="218123472"/>
    <nd ref="172124396"/>
    <nd ref="36794067"/>
    <tag k="created_by" v="Potlatch 0.5d"/>
    <tag k="highway" v="secondary"/>
    <tag k="maxspeed" v="60"/>
    <tag k="name" v="Waterloo Road"/>
  </way>
  <way id="5232933" version="11" timestamp="2009-04-11T23:11:48Z" uid="61114" user="Trav" changeset="436101">
    <nd ref="30349443"/>
    <nd ref="372971856"/>
    <nd ref="252590939"/>
    <nd ref="130214785"/>
    <nd ref="218085871"/>
    <nd ref="172118318"/>
    <nd ref="218123472"/>
    <nd ref="172124396"/>
    <nd ref="36794067"/>
    <tag k="created_by" v="Merkaartor 0.14"/>
    <tag k="highway" v="secondary"/>
    <tag k="maxspeed" v="60"/>
    <tag k="name" v="Waterloo Road"/>
  </way>
  <way id="5232933" version="12" timestamp="2010-02-28T02:20:52Z" uid="7617" user="Franc" changeset="3994349">
    <nd ref="30349443"/>
    <nd ref="372971856"/>
    <nd ref="252590939"/>
    <nd ref="130214785"/>
    <nd ref="218085871"/>
    <nd ref="172118318"/>
    <nd ref="218123472"/>
    <nd ref="172124396"/>
    <nd ref="655533583"/>
    <tag k="highway" v="secondary"/>
    <tag k="maxspeed" v="60"/>
    <tag k="name" v="Waterloo Road"/>
  </way>
  <way id="5232934" version="1" timestamp="2007-08-30T06:58:07Z" uid="7617" user="Franc" changeset="262906">
    <nd ref="36794061"/>
    <nd ref="28817517"/>
    <tag k="created_by" v="Potlatch alpha"/>
    <tag k="highway" v="secondary"/>
    <tag k="name" v="Waterloo Road"/>
  </way>
  <way id="5232935" version="1" timestamp="2007-08-30T06:58:08Z" uid="7617" user="Franc" changeset="262906">
    <nd ref="36794061"/>
    <nd ref="36794064"/>
    <nd ref="36794058"/>
    <nd ref="36794063"/>
    <nd ref="36794061"/>
    <tag k="created_by" v="JOSM"/>
    <tag k="highway" v="secondary"/>
    <tag k="junction" v="roundabout"/>
    <tag k="source" v="Yahoo Imagery"/>
  </way>
  <way id="5232936" version="1" timestamp="2007-08-30T06:58:09Z" uid="7617" user="Franc" changeset="262906">
    <nd ref="36794069"/>
    <nd ref="36794058"/>
    <tag k="created_by" v="Potlatch alpha"/>
    <tag k="highway" v="secondary"/>
    <tag k="name" v="Waterloo Road"/>
  </way>
  <way id="5232936" version="4" timestamp="2010-02-28T02:20:53Z" uid="7617" user="Franc" changeset="3994349">
    <nd ref="655533587"/>
    <nd ref="655533594"/>
    <tag k="highway" v="secondary"/>
    <tag k="maxspeed" v="60"/>
    <tag k="name" v="Waterloo Road"/>
  </way>
  <way id="5232937" version="1" timestamp="2007-08-30T06:58:10Z" uid="7617" user="Franc" changeset="262906">
    <nd ref="36794067"/>
    <nd ref="36794070"/>
    <nd ref="36794069"/>
    <nd ref="36794073"/>
    <nd ref="36794067"/>
    <tag k="created_by" v="JOSM"/>
    <tag k="junction" v="roundabout"/>
  </way>
  <way id="5232938" version="1" timestamp="2007-08-30T10:56:00Z" uid="7617" user="Franc" changeset="263018">
    <nd ref="36794073"/>
    <nd ref="36794079"/>
    <nd ref="36794075"/>
    <tag k="created_by" v="JOSM"/>
    <tag k="highway" v="unclassified"/>
    <tag k="name" v="Byfield Street"/>
    <tag k="source" v="Yahoo Imagery"/>
    <tag k="source:name" v="survey"/>
  </way>
  <way id="5232939" version="1" timestamp="2007-08-30T06:58:12Z" uid="7617" user="Franc" changeset="262906">
    <nd ref="36794075"/>
    <nd ref="36794084"/>
    <nd ref="36794081"/>
    <tag k="created_by" v="JOSM"/>
    <tag k="highway" v="unclassified"/>
  </way>
  <way id="5232939" version="4" timestamp="2009-11-21T03:46:07Z" uid="7617" user="Franc" changeset="3173303">
    <nd ref="36794067"/>
    <nd ref="567768465"/>
    <nd ref="567768464"/>
    <nd ref="36794079"/>
    <nd ref="36794075"/>
    <nd ref="36794084"/>
    <nd ref="36794081"/>
    <tag k="highway" v="residential"/>
    <tag k="name" v="Byfield Street"/>
    <tag k="source" v="Yahoo Imagery"/>
    <tag k="source:name" v="survey"/>
  </way>
  <way id="5232939" version="5" timestamp="2010-02-28T02:20:52Z" uid="7617" user="Franc" changeset="3994349">
    <nd ref="655533590"/>
    <nd ref="567768465"/>
    <nd ref="567768464"/>
    <nd ref="36794079"/>
    <nd ref="655533582"/>
    <nd ref="36794075"/>
    <nd ref="655533568"/>
    <nd ref="36794084"/>
    <nd ref="655533559"/>
    <tag k="highway" v="residential"/>
    <tag k="name" v="Byfield Street"/>
    <tag k="source" v="Yahoo Imagery"/>
    <tag k="source:name" v="survey"/>
  </way>
  <way id="5232939" version="6" timestamp="2010-07-08T00:24:47Z" uid="74617" user="JohnSmith" changeset="5162525">
    <nd ref="655533590"/>
    <nd ref="567768465"/>
    <nd ref="567768464"/>
    <nd ref="36794079"/>
    <nd ref="655533582"/>
    <nd ref="36794075"/>
    <nd ref="655533568"/>
    <nd ref="36794084"/>
    <nd ref="655533559"/>
    <tag k="highway" v="residential"/>
    <tag k="maxspeed" v="50"/>
    <tag k="maxspeed:source" v="default residential speed limit in Australia"/>
    <tag k="name" v="Byfield Street"/>
    <tag k="source" v="Yahoo Imagery"/>
    <tag k="source:name" v="survey"/>
  </way>
  <way id="5232940" version="1" timestamp="2007-08-30T06:58:12Z" uid="7617" user="Franc" changeset="262906">
    <nd ref="36794085"/>
    <nd ref="36794086"/>
    <nd ref="36794081"/>
    <nd ref="36794089"/>
    <nd ref="36794088"/>
    <tag k="created_by" v="JOSM"/>
    <tag k="highway" v="unclassified"/>
    <tag k="name" v="Lyon Park Road"/>
    <tag k="source:name" v="survey"/>
  </way>
  <way id="5232940" version="7" timestamp="2009-04-11T23:11:54Z" uid="61114" user="Trav" changeset="436101">
    <nd ref="130216068"/>
    <nd ref="372971890"/>
    <nd ref="130216095"/>
    <nd ref="36794085"/>
    <nd ref="170979355"/>
    <nd ref="36794086"/>
    <tag k="created_by" v="Merkaartor 0.14"/>
    <tag k="highway" v="residential"/>
    <tag k="name" v="Giffnock Avenue"/>
    <tag k="source:name" v="survey"/>
  </way>
  <way id="5232940" version="8" timestamp="2009-11-21T03:46:03Z" uid="7617" user="Franc" changeset="3173303">
    <nd ref="130216068"/>
    <nd ref="372971890"/>
    <nd ref="130216095"/>
    <nd ref="567768409"/>
    <nd ref="36794085"/>
    <nd ref="36794086"/>
    <tag k="highway" v="residential"/>
    <tag k="name" v="Giffnock Avenue"/>
    <tag k="source:name" v="survey"/>
  </way>
  <way id="5232940" version="9" timestamp="2010-02-28T02:20:51Z" uid="7617" user="Franc" changeset="3994349">
    <nd ref="130216068"/>
    <nd ref="372971890"/>
    <nd ref="130216095"/>
    <nd ref="567768409"/>
    <nd ref="36794085"/>
    <nd ref="655533581"/>
    <nd ref="36794086"/>
    <tag k="highway" v="residential"/>
    <tag k="name" v="Giffnock Avenue"/>
    <tag k="source:name" v="survey"/>
  </way>
  <way id="5232940" version="10" timestamp="2010-07-08T00:25:10Z" uid="74617" user="JohnSmith" changeset="5162525">
    <nd ref="130216068"/>
    <nd ref="372971890"/>
    <nd ref="130216095"/>
    <nd ref="567768409"/>
    <nd ref="36794085"/>
    <nd ref="655533581"/>
    <nd ref="36794086"/>
    <tag k="highway" v="residential"/>
    <tag k="maxspeed" v="50"/>
    <tag k="maxspeed:source" v="default residential speed limit in Australia"/>
    <tag k="name" v="Giffnock Avenue"/>
    <tag k="source:name" v="survey"/>
  </way>
  <way id="5232941" version="1" timestamp="2007-08-30T06:58:13Z" uid="7617" user="Franc" changeset="262906">
    <nd ref="36794094"/>
    <nd ref="36794095"/>
    <nd ref="36794088"/>
    <nd ref="36794091"/>
    <nd ref="36794094"/>
    <tag k="created_by" v="JOSM"/>
    <tag k="highway" v="unclassified"/>
    <tag k="junction" v="roundabout"/>
    <tag k="source" v="Yahoo Imagery"/>
  </way>
  <way id="5232941" version="3" timestamp="2009-11-21T03:46:05Z" uid="7617" user="Franc" changeset="3173303">
    <nd ref="36794094"/>
    <nd ref="567768392"/>
    <nd ref="36794095"/>
    <nd ref="567768402"/>
    <nd ref="36794088"/>
    <nd ref="567768401"/>
    <nd ref="36794091"/>
    <nd ref="567768391"/>
    <nd ref="36794094"/>
    <tag k="highway" v="residential"/>
    <tag k="junction" v="roundabout"/>
    <tag k="source" v="nearmap"/>
  </way>
  <way id="5232941" version="4" timestamp="2010-07-08T00:26:39Z" uid="74617" user="JohnSmith" changeset="5162525">
    <nd ref="36794094"/>
    <nd ref="567768392"/>
    <nd ref="36794095"/>
    <nd ref="567768402"/>
    <nd ref="36794088"/>
    <nd ref="567768401"/>
    <nd ref="36794091"/>
    <nd ref="567768391"/>
    <nd ref="36794094"/>
    <tag k="highway" v="residential"/>
    <tag k="junction" v="roundabout"/>
    <tag k="maxspeed" v="50"/>
    <tag k="maxspeed:source" v="default residential speed limit in Australia"/>
    <tag k="source" v="nearmap"/>
  </way>
  <way id="5232942" version="1" timestamp="2007-08-30T06:58:14Z" uid="7617" user="Franc" changeset="262906">
    <nd ref="36794094"/>
    <nd ref="36794096"/>
    <nd ref="36794099"/>
    <tag k="created_by" v="JOSM"/>
    <tag k="highway" v="unclassified"/>
    <tag k="name" v="Lyon Park Road"/>
    <tag k="source" v="Yahoo Imagery"/>
  </way>
  <way id="5232942" version="5" timestamp="2010-07-08T00:22:15Z" uid="74617" user="JohnSmith" changeset="5162525">
    <nd ref="36794094"/>
    <nd ref="36794096"/>
    <nd ref="245929929"/>
    <nd ref="245929930"/>
    <tag k="highway" v="residential"/>
    <tag k="maxspeed" v="50"/>
    <tag k="maxspeed:source" v="default residential speed limit in Australia"/>
    <tag k="name" v="Lyon Park Road"/>
    <tag k="source" v="Yahoo Imagery"/>
  </way>
  <way id="5232946" version="7" timestamp="2011-01-27T02:50:15Z" uid="4467" user="Rosscoe" changeset="7099934">
    <nd ref="36794238"/>
    <nd ref="252352870"/>
    <nd ref="1122939221"/>
    <tag k="highway" v="tertiary"/>
    <tag k="name" v="Gribble Street"/>
  </way>
  <way id="5232975" version="1" timestamp="2007-08-30T07:02:47Z" uid="7617" user="Franc" changeset="262906">
    <nd ref="36794502"/>
    <nd ref="36794508"/>
    <nd ref="36794503"/>
    <nd ref="36794506"/>
    <tag k="bridge" v="yes"/>
    <tag k="created_by" v="Potlatch alpha"/>
    <tag k="highway" v="primary"/>
    <tag k="layer" v="1"/>
    <tag k="name" v="Epping Road"/>
  </way>
  <way id="5232981" version="21" timestamp="2011-01-27T02:50:15Z" uid="4467" user="Rosscoe" changeset="7099934">
    <nd ref="32865166"/>
    <nd ref="655814843"/>
    <nd ref="36794609"/>
    <nd ref="36794608"/>
    <nd ref="655812410"/>
    <nd ref="36794607"/>
    <nd ref="36794606"/>
    <nd ref="36794605"/>
    <nd ref="1122939223"/>
    <nd ref="36794604"/>
    <nd ref="1122939262"/>
    <nd ref="1122939232"/>
    <nd ref="36794603"/>
    <nd ref="249782278"/>
    <nd ref="249782692"/>
    <nd ref="249782729"/>
    <nd ref="36794601"/>
    <nd ref="249786952"/>
    <nd ref="249786950"/>
    <nd ref="249783798"/>
    <nd ref="666626604"/>
    <nd ref="249779454"/>
    <nd ref="249779449"/>
    <nd ref="36794600"/>
    <nd ref="36794599"/>
    <nd ref="249783809"/>
    <nd ref="36794598"/>
    <nd ref="666480710"/>
    <tag k="highway" v="secondary"/>
    <tag k="name" v="Anthony Rolfe Avenue"/>
    <tag k="oneway" v="yes"/>
  </way>
  <way id="5232988" version="3" timestamp="2010-01-04T09:36:27Z" uid="9719" user="dvaey" changeset="3535535">
    <nd ref="36794684"/>
    <nd ref="36551444"/>
    <tag k="highway" v="residential"/>
    <tag k="name" v="Crozier Circuit"/>
  </way>
  <way id="5232988" version="4" timestamp="2010-07-06T06:44:39Z" uid="9719" user="dvaey" changeset="5147649">
    <nd ref="36794684"/>
    <nd ref="36551444"/>
    <tag k="highway" v="residential"/>
    <tag k="maxspeed" v="50"/>
    <tag k="name" v="Crozier Circuit"/>
  </way>
  <way id="5232990" version="3" timestamp="2010-01-04T09:36:28Z" uid="9719" user="dvaey" changeset="3535535">
    <nd ref="36794718"/>
    <nd ref="36551568"/>
    <tag k="highway" v="residential"/>
    <tag k="name" v="Crozier Circuit"/>
  </way>
  <way id="5232990" version="4" timestamp="2010-07-06T06:44:45Z" uid="9719" user="dvaey" changeset="5147649">
    <nd ref="36794718"/>
    <nd ref="36551568"/>
    <tag k="highway" v="residential"/>
    <tag k="maxspeed" v="50"/>
    <tag k="name" v="Crozier Circuit"/>
  </way>
  <way id="5232993" version="3" timestamp="2010-01-04T09:36:33Z" uid="9719" user="dvaey" changeset="3535535">
    <nd ref="36794740"/>
    <nd ref="36551567"/>
    <tag k="highway" v="residential"/>
    <tag k="name" v="Crozier Circuit"/>
  </way>
  <way id="5232993" version="4" timestamp="2010-07-06T06:45:02Z" uid="9719" user="dvaey" changeset="5147649">
    <nd ref="36794740"/>
    <nd ref="36551567"/>
    <tag k="highway" v="residential"/>
    <tag k="maxspeed" v="50"/>
    <tag k="name" v="Crozier Circuit"/>
  </way>
  <way id="5232996" version="3" timestamp="2010-01-04T09:36:37Z" uid="9719" user="dvaey" changeset="3535535">
    <nd ref="36794789"/>
    <nd ref="36794790"/>
    <nd ref="36551565"/>
    <tag k="highway" v="residential"/>
    <tag k="name" v="Magarey Place"/>
    <tag k="source" v="audio"/>
  </way>
  <way id="5232996" version="4" timestamp="2010-07-06T06:45:30Z" uid="9719" user="dvaey" changeset="5147649">
    <nd ref="36794789"/>
    <nd ref="36794790"/>
    <nd ref="36551565"/>
    <tag k="highway" v="residential"/>
    <tag k="maxspeed" v="50"/>
    <tag k="name" v="Magarey Place"/>
    <tag k="source" v="audio"/>
  </way>
</osm>
