<?xml version='1.0' encoding='UTF-8'?>
<osm version="0.6" generator="libosmium/2.20.0">
  <way id="52469233" version="3" timestamp="2011-04-20T17:41:23Z" uid="115477" user="wowik" changeset="7918311">
    <nd ref="667026015"/>
    <nd ref="667026016"/>
    <nd ref="667026017"/>
    <nd ref="667026018"/>
    <nd ref="667026022"/>
    <nd ref="667026150"/>
    <nd ref="667026152"/>
    <nd ref="667026154"/>
    <nd ref="667026156"/>
    <nd ref="667025983"/>
    <nd ref="983374676"/>
    <nd ref="667026015"/>
    <tag k="addr:city" v="Москва"/>
    <tag k="addr:country" v="RU"/>
    <tag k="addr:housenumber" v="2"/>
    <tag k="building" v="yes"/>
  </way>
  <way id="52469235" version="3" timestamp="2011-04-20T17:41:12Z" uid="115477" user="wowik" changeset="7918311">
    <nd ref="667026006"/>
    <nd ref="667026012"/>
    <nd ref="667026013"/>
    <nd ref="667026011"/>
    <nd ref="667026008"/>
    <nd ref="667026006"/>
    <tag k="addr:city" v="Москва"/>
    <tag k="addr:country" v="RU"/>
    <tag k="addr:housenumber" v="9"/>
    <tag k="building" v="yes"/>
  </way>
  <way id="52469236" version="3" timestamp="2011-04-20T17:41:31Z" uid="115477" user="wowik" changeset="7918311">
    <nd ref="667026039"/>
    <nd ref="667026161"/>
    <nd ref="667026160"/>
    <nd ref="667026169"/>
    <nd ref="667026171"/>
    <nd ref="983373936"/>
    <nd ref="983375023"/>
    <nd ref="667026158"/>
    <nd ref="667026156"/>
    <nd ref="667026154"/>
    <nd ref="667026152"/>
    <nd ref="667026150"/>
    <nd ref="667026022"/>
    <nd ref="667026018"/>
    <nd ref="983374379"/>
    <nd ref="667026025"/>
    <nd ref="667026162"/>
    <nd ref="667026039"/>
    <tag k="addr:city" v="Москва"/>
    <tag k="addr:country" v="RU"/>
    <tag k="addr:housenumber" v="4"/>
    <tag k="building" v="yes"/>
  </way>
  <way id="52469237" version="3" timestamp="2011-04-20T17:41:03Z" uid="115477" user="wowik" changeset="7918311">
    <nd ref="667026030"/>
    <nd ref="667026014"/>
    <nd ref="667026089"/>
    <nd ref="667026097"/>
    <nd ref="667026123"/>
    <nd ref="667026098"/>
    <nd ref="667026096"/>
    <nd ref="667026106"/>
    <nd ref="667026107"/>
    <nd ref="667026109"/>
    <nd ref="667026032"/>
    <nd ref="667026034"/>
    <nd ref="667026030"/>
    <tag k="addr:city" v="Москва"/>
    <tag k="addr:country" v="RU"/>
    <tag k="addr:housenumber" v="11 с2"/>
    <tag k="building" v="yes"/>
  </way>
  <way id="52469238" version="3" timestamp="2011-04-20T17:41:19Z" uid="115477" user="wowik" changeset="7918311">
    <nd ref="667026093"/>
    <nd ref="667026094"/>
    <nd ref="983377397"/>
    <nd ref="667026202"/>
    <nd ref="983373861"/>
    <nd ref="983375000"/>
    <nd ref="983373383"/>
    <nd ref="667026207"/>
    <nd ref="983373996"/>
    <nd ref="667026218"/>
    <nd ref="667026220"/>
    <nd ref="667026221"/>
    <nd ref="667026222"/>
    <nd ref="667026223"/>
    <nd ref="667026125"/>
    <nd ref="667026126"/>
    <nd ref="983371483"/>
    <nd ref="667026130"/>
    <nd ref="667026093"/>
    <tag k="addr:city" v="Москва"/>
    <tag k="addr:country" v="RU"/>
    <tag k="addr:housenumber" v="15"/>
    <tag k="building" v="yes"/>
  </way>
  <way id="52469239" version="5" timestamp="2011-04-20T17:40:53Z" uid="115477" user="wowik" changeset="7918311">
    <nd ref="667026123"/>
    <nd ref="983372122"/>
    <nd ref="983375436"/>
    <nd ref="667026091"/>
    <nd ref="983377430"/>
    <nd ref="667026093"/>
    <nd ref="667026130"/>
    <nd ref="983371727"/>
    <nd ref="983374881"/>
    <nd ref="667026132"/>
    <nd ref="667026134"/>
    <nd ref="667026110"/>
    <nd ref="667026098"/>
    <nd ref="667026123"/>
    <tag k="addr:city" v="Москва"/>
    <tag k="addr:country" v="RU"/>
    <tag k="addr:housenumber" v="15 с1"/>
    <tag k="building" v="yes"/>
  </way>
  <way id="52469242" version="4" timestamp="2011-04-20T17:41:00Z" uid="115477" user="wowik" changeset="7918311">
    <nd ref="667026012"/>
    <nd ref="667026087"/>
    <nd ref="983373362"/>
    <nd ref="983374221"/>
    <nd ref="983371103"/>
    <nd ref="667026046"/>
    <nd ref="667026045"/>
    <nd ref="667026085"/>
    <nd ref="667026082"/>
    <nd ref="667026069"/>
    <nd ref="667026013"/>
    <nd ref="667026012"/>
    <tag k="addr:city" v="Москва"/>
    <tag k="addr:country" v="RU"/>
    <tag k="addr:housenumber" v="11"/>
    <tag k="building" v="yes"/>
  </way>
  <way id="52469245" version="1" timestamp="2010-03-15T19:33:12Z" uid="9581" user="Lobelt" changeset="4137570">
    <nd ref="667026665"/>
    <nd ref="667026656"/>
    <nd ref="667026655"/>
    <nd ref="667026654"/>
    <nd ref="667026650"/>
    <nd ref="667026653"/>
    <nd ref="667026647"/>
    <nd ref="667026657"/>
    <nd ref="667026659"/>
    <nd ref="667026661"/>
    <nd ref="667026663"/>
    <tag k="power" v="line"/>
  </way>
  <way id="52469246" version="1" timestamp="2010-03-15T19:33:12Z" uid="9581" user="Lobelt" changeset="4137570">
    <nd ref="667026674"/>
    <nd ref="667026668"/>
    <nd ref="667026688"/>
    <nd ref="667026690"/>
    <nd ref="667026685"/>
    <nd ref="667026687"/>
    <nd ref="667026674"/>
    <tag k="landuse" v="allotments"/>
  </way>
  <way id="52469361" version="3" timestamp="2010-03-22T07:37:11Z" uid="20587" user="balrog-kun" changeset="4199043">
    <nd ref="38235811"/>
    <nd ref="38297602"/>
    <nd ref="38222432"/>
    <nd ref="38241686"/>
    <nd ref="38240570"/>
    <nd ref="38297609"/>
    <nd ref="38241013"/>
    <nd ref="38288100"/>
    <tag k="highway" v="trunk"/>
    <tag k="name" v="Northwest 3rd Street"/>
    <tag k="name_1" v="Ochoco Highway"/>
    <tag k="name_2" v="State Highway 126"/>
    <tag k="ref" v="US 26"/>
    <tag k="tiger:cfcc" v="A31"/>
    <tag k="tiger:county" v="Crook, OR"/>
    <tag k="tiger:name_base" v="3rd"/>
    <tag k="tiger:name_base_1" v="Ochoco"/>
    <tag k="tiger:name_base_2" v="State Highway 126"/>
    <tag k="tiger:name_direction_prefix" v="NW"/>
    <tag k="tiger:name_type" v="St"/>
    <tag k="tiger:name_type_1" v="Hwy"/>
    <tag k="tiger:reviewed" v="no"/>
    <tag k="tiger:separated" v="no"/>
    <tag k="tiger:source" v="tiger_import_dch_v0.6_20070808"/>
    <tag k="tiger:tlid" v="152405875"/>
    <tag k="tiger:zip_left" v="97754"/>
    <tag k="tiger:zip_right" v="97754"/>
  </way>
  <way id="52469362" version="2" timestamp="2010-03-22T07:37:11Z" uid="20587" user="balrog-kun" changeset="4199043">
    <nd ref="34854436"/>
    <nd ref="35065478"/>
    <nd ref="35074473"/>
    <tag k="highway" v="trunk"/>
    <tag k="name" v="Washington Street West"/>
    <tag k="name_1" v="Central Oregon Highway"/>
    <tag k="name_2" v="United States Highway 20"/>
    <tag k="oneway" v="yes"/>
    <tag k="ref" v="US 20"/>
    <tag k="tiger:cfcc" v="A21"/>
    <tag k="tiger:name_base" v="Washington"/>
    <tag k="tiger:name_base_1" v="Central Oregon"/>
    <tag k="tiger:name_base_2" v="United States Highway 20"/>
    <tag k="tiger:name_direction_suffix" v="E"/>
    <tag k="tiger:name_type" v="St"/>
    <tag k="tiger:name_type_1" v="Hwy"/>
    <tag k="tiger:reviewed" v="aerial"/>
    <tag k="tiger:separated" v="no"/>
    <tag k="tiger:source" v="tiger_import_dch_v0.6_20070808"/>
    <tag k="tiger:tlid" v="138654510; 138630313:138630263:138630307:138630208"/>
    <tag k="tiger:zip_left" v="97918"/>
    <tag k="tiger:zip_right" v="97918"/>
  </way>
  <way id="52469362" version="3" timestamp="2010-03-26T17:48:45Z" uid="20587" user="balrog-kun" changeset="4238822">
    <nd ref="34854436"/>
    <nd ref="35065478"/>
    <nd ref="35074473"/>
    <tag k="highway" v="trunk"/>
    <tag k="name" v="Washington Street East"/>
    <tag k="name_1" v="Central Oregon Highway"/>
    <tag k="name_2" v="United States Highway 20"/>
    <tag k="oneway" v="yes"/>
    <tag k="ref" v="US 20"/>
    <tag k="tiger:cfcc" v="A21"/>
    <tag k="tiger:name_base" v="Washington"/>
    <tag k="tiger:name_base_1" v="Central Oregon"/>
    <tag k="tiger:name_base_2" v="United States Highway 20"/>
    <tag k="tiger:name_direction_suffix" v="E"/>
    <tag k="tiger:name_type" v="St"/>
    <tag k="tiger:name_type_1" v="Hwy"/>
    <tag k="tiger:reviewed" v="aerial"/>
    <tag k="tiger:separated" v="no"/>
    <tag k="tiger:source" v="tiger_import_dch_v0.6_20070808"/>
    <tag k="tiger:tlid" v="138654510; 138630313:138630263:138630307:138630208"/>
    <tag k="tiger:zip_left" v="97918"/>
    <tag k="tiger:zip_right" v="97918"/>
  </way>
  <way id="52469363" version="3" timestamp="2010-03-22T07:37:11Z" uid="20587" user="balrog-kun" changeset="4199043">
    <nd ref="34854436"/>
    <nd ref="34886906"/>
    <nd ref="34861276"/>
    <nd ref="34884320"/>
    <tag k="highway" v="trunk"/>
    <tag k="name" v="Glenn Street North"/>
    <tag k="name_1" v="John Day Highway"/>
    <tag k="name_2" v="United States Highway 26"/>
    <tag k="ref" v="US 26"/>
    <tag k="tiger:cfcc" v="A21"/>
    <tag k="tiger:name_base" v="Glenn"/>
    <tag k="tiger:name_base_1" v="John Day"/>
    <tag k="tiger:name_base_2" v="United States Highway 26"/>
    <tag k="tiger:name_direction_suffix" v="N"/>
    <tag k="tiger:name_type" v="St"/>
    <tag k="tiger:name_type_1" v="Hwy"/>
    <tag k="tiger:reviewed" v="no"/>
    <tag k="tiger:separated" v="no"/>
    <tag k="tiger:source" v="tiger_import_dch_v0.6_20070808"/>
    <tag k="tiger:tlid" v="138648061:138630205:138629788"/>
    <tag k="tiger:zip_left" v="97918"/>
    <tag k="tiger:zip_right" v="97918"/>
  </way>
  <way id="52469364" version="3" timestamp="2010-03-22T07:37:11Z" uid="20587" user="balrog-kun" changeset="4199043">
    <nd ref="34873397"/>
    <nd ref="34844430"/>
    <nd ref="34838458"/>
    <nd ref="35061665"/>
    <tag k="highway" v="trunk"/>
    <tag k="name" v="A Street West"/>
    <tag k="name_1" v="Central Oregon Highway"/>
    <tag k="name_2" v="United States Highway 20"/>
    <tag k="name_3" v="United States Highway 26"/>
    <tag k="oneway" v="yes"/>
    <tag k="ref" v="US 20;US 26"/>
    <tag k="tiger:cfcc" v="A21"/>
    <tag k="tiger:name_base" v="A"/>
    <tag k="tiger:name_base_1" v="Central Oregon"/>
    <tag k="tiger:name_base_2" v="United States Highway 20"/>
    <tag k="tiger:name_base_3" v="United States Highway 26"/>
    <tag k="tiger:name_direction_suffix" v="E"/>
    <tag k="tiger:name_type" v="St"/>
    <tag k="tiger:name_type_1" v="Hwy"/>
    <tag k="tiger:name_type_2" v="Hwy"/>
    <tag k="tiger:reviewed" v="aerial"/>
    <tag k="tiger:separated" v="no"/>
    <tag k="tiger:source" v="tiger_import_dch_v0.6_20070808"/>
    <tag k="tiger:tlid" v="138630242:138630216:138630195:138648057:138630235:138630218; 138630477:138630006"/>
    <tag k="tiger:zip_left" v="97918"/>
    <tag k="tiger:zip_right" v="97918"/>
  </way>
  <way id="52469364" version="4" timestamp="2010-03-26T17:48:45Z" uid="20587" user="balrog-kun" changeset="4238822">
    <nd ref="34873397"/>
    <nd ref="34844430"/>
    <nd ref="34838458"/>
    <nd ref="35061665"/>
    <tag k="highway" v="trunk"/>
    <tag k="name" v="A Street East"/>
    <tag k="name_1" v="Central Oregon Highway"/>
    <tag k="name_2" v="United States Highway 20"/>
    <tag k="name_3" v="United States Highway 26"/>
    <tag k="oneway" v="yes"/>
    <tag k="ref" v="US 20;US 26"/>
    <tag k="tiger:cfcc" v="A21"/>
    <tag k="tiger:name_base" v="A"/>
    <tag k="tiger:name_base_1" v="Central Oregon"/>
    <tag k="tiger:name_base_2" v="United States Highway 20"/>
    <tag k="tiger:name_base_3" v="United States Highway 26"/>
    <tag k="tiger:name_direction_suffix" v="E"/>
    <tag k="tiger:name_type" v="St"/>
    <tag k="tiger:name_type_1" v="Hwy"/>
    <tag k="tiger:name_type_2" v="Hwy"/>
    <tag k="tiger:reviewed" v="aerial"/>
    <tag k="tiger:separated" v="no"/>
    <tag k="tiger:source" v="tiger_import_dch_v0.6_20070808"/>
    <tag k="tiger:tlid" v="138630242:138630216:138630195:138648057:138630235:138630218; 138630477:138630006"/>
    <tag k="tiger:zip_left" v="97918"/>
    <tag k="tiger:zip_right" v="97918"/>
  </way>
  <way id="52469372" version="4" timestamp="2010-04-03T16:53:16Z" uid="20587" user="balrog-kun" changeset="4312936">
    <nd ref="130655430"/>
    <nd ref="130674620"/>
    <nd ref="130674622"/>
    <nd ref="130649339"/>
    <tag k="highway" v="primary"/>
    <tag k="name" v="South Greenwood Street"/>
    <tag k="name_1" v="United States Highway 93"/>
    <tag k="name_2" v="United States Highway 26"/>
    <tag k="ref" v="US 26;US 93"/>
    <tag k="tiger:cfcc" v="A21"/>
    <tag k="tiger:county" v="Lincoln, ID"/>
    <tag k="tiger:name_base" v="Greenwood"/>
    <tag k="tiger:name_base_1" v="United States Highway 93"/>
    <tag k="tiger:name_base_2" v="United States Highway 26"/>
    <tag k="tiger:name_direction_prefix" v="S"/>
    <tag k="tiger:name_type" v="St"/>
    <tag k="tiger:reviewed" v="no"/>
    <tag k="tiger:separated" v="no"/>
    <tag k="tiger:source" v="tiger_import_dch_v0.6_20070809"/>
    <tag k="tiger:tlid" v="105693828:105693621"/>
  </way>
  <way id="52469378" version="3" timestamp="2010-04-03T16:53:17Z" uid="20587" user="balrog-kun" changeset="4312936">
    <nd ref="126718615"/>
    <nd ref="126803772"/>
    <nd ref="126803775"/>
    <nd ref="126780705"/>
    <nd ref="126803784"/>
    <nd ref="126801926"/>
    <nd ref="126803786"/>
    <nd ref="126803789"/>
    <nd ref="126803791"/>
    <nd ref="126803794"/>
    <nd ref="126803798"/>
    <nd ref="126789033"/>
    <nd ref="126803801"/>
    <nd ref="126762260"/>
    <nd ref="126783197"/>
    <nd ref="126803804"/>
    <nd ref="126803806"/>
    <nd ref="126765980"/>
    <nd ref="126803809"/>
    <nd ref="126790875"/>
    <tag k="highway" v="primary"/>
    <tag k="name" v="West United States Highway 26"/>
    <tag k="name_1" v="United States Highway 26"/>
    <tag k="ref" v="US 26"/>
    <tag k="tiger:cfcc" v="A21"/>
    <tag k="tiger:county" v="Bingham, ID"/>
    <tag k="tiger:name_base" v="United States Highway 26"/>
    <tag k="tiger:name_base_1" v="United States Highway 26"/>
    <tag k="tiger:name_direction_prefix" v="W"/>
    <tag k="tiger:reviewed" v="no"/>
    <tag k="tiger:separated" v="no"/>
    <tag k="tiger:source" v="tiger_import_dch_v0.6_20070809"/>
    <tag k="tiger:tlid" v="130058661:130060836:130045031:130045038:130045824:130045051:130060857:130045845:130046520:130046143:130046148:130043671:130058662"/>
    <tag k="tiger:zip_left" v="83221"/>
    <tag k="tiger:zip_right" v="83221"/>
  </way>
  <way id="52469384" version="3" timestamp="2010-04-03T16:53:17Z" uid="20587" user="balrog-kun" changeset="4312936">
    <nd ref="127456017"/>
    <nd ref="127466747"/>
    <nd ref="127466750"/>
    <nd ref="127353632"/>
    <nd ref="127466751"/>
    <nd ref="127353745"/>
    <nd ref="127466754"/>
    <nd ref="127466758"/>
    <nd ref="127466760"/>
    <nd ref="127466763"/>
    <nd ref="127466766"/>
    <nd ref="127466769"/>
    <nd ref="127466771"/>
    <nd ref="127466775"/>
    <nd ref="127435173"/>
    <nd ref="127304586"/>
    <nd ref="127466778"/>
    <nd ref="127466782"/>
    <nd ref="127466783"/>
    <nd ref="127466786"/>
    <nd ref="127466788"/>
    <nd ref="127466790"/>
    <nd ref="127466793"/>
    <tag k="highway" v="primary"/>
    <tag k="name" v="South Yellowstone Highway"/>
    <tag k="name_1" v="United States Highway 91"/>
    <tag k="ref" v="US 91"/>
    <tag k="tiger:cfcc" v="A25"/>
    <tag k="tiger:county" v="Bonneville, ID"/>
    <tag k="tiger:name_base" v="I-15 (Bus)"/>
    <tag k="tiger:name_base_1" v="United States Highway 91"/>
    <tag k="tiger:name_base_2" v="United States Highway 26"/>
    <tag k="tiger:name_base_3" v="Yellowstone"/>
    <tag k="tiger:name_direction_prefix_3" v="S"/>
    <tag k="tiger:name_type_3" v="Hwy"/>
    <tag k="tiger:reviewed" v="no"/>
    <tag k="tiger:separated" v="yes"/>
    <tag k="tiger:source" v="tiger_import_dch_v0.6_20070809"/>
    <tag k="tiger:tlid" v="119181670:119194318:119182615:119183701"/>
    <tag k="tiger:zip_left" v="83402"/>
  </way>
  <way id="52469387" version="2" timestamp="2010-04-03T16:53:17Z" uid="20587" user="balrog-kun" changeset="4312936">
    <nd ref="127466793"/>
    <nd ref="127513204"/>
    <nd ref="127333878"/>
    <nd ref="127304302"/>
    <nd ref="127333889"/>
    <nd ref="127513207"/>
    <nd ref="127513211"/>
    <nd ref="127405198"/>
    <nd ref="127513214"/>
    <nd ref="127513217"/>
    <nd ref="127513220"/>
    <nd ref="127513223"/>
    <nd ref="127513226"/>
    <nd ref="127387791"/>
    <nd ref="127513229"/>
    <nd ref="127513232"/>
    <nd ref="127513235"/>
    <nd ref="127307463"/>
    <nd ref="127513238"/>
    <nd ref="127513241"/>
    <nd ref="127307549"/>
    <nd ref="127513245"/>
    <nd ref="127307552"/>
    <nd ref="127510228"/>
    <nd ref="127472862"/>
    <nd ref="127513248"/>
    <nd ref="127513252"/>
    <nd ref="127513254"/>
    <nd ref="127513257"/>
    <nd ref="127509790"/>
    <nd ref="127513260"/>
    <nd ref="127513263"/>
    <nd ref="127513266"/>
    <nd ref="127513269"/>
    <nd ref="127443585"/>
    <nd ref="127443600"/>
    <nd ref="127417741"/>
    <nd ref="127517201"/>
    <tag k="highway" v="unclassified"/>
    <tag k="name" v="West 65th  South"/>
    <tag k="tiger:cfcc" v="A21"/>
    <tag k="tiger:county" v="Bonneville, ID"/>
    <tag k="tiger:name_base" v="65th"/>
    <tag k="tiger:name_base_1" v="United States Highway 26"/>
    <tag k="tiger:name_base_2" v="I-15 (Bus)"/>
    <tag k="tiger:name_direction_prefix" v="W"/>
    <tag k="tiger:name_direction_suffix" v="S"/>
    <tag k="tiger:reviewed" v="no"/>
    <tag k="tiger:separated" v="no"/>
    <tag k="tiger:source" v="tiger_import_dch_v0.6_20070809"/>
    <tag k="tiger:tlid" v="119165931:119165935:119119926:119165975:119165905:119119496:119119497"/>
    <tag k="tiger:zip_left" v="83402"/>
    <tag k="tiger:zip_right" v="83402"/>
  </way>
  <way id="52469399" version="3" timestamp="2010-04-03T16:53:18Z" uid="20587" user="balrog-kun" changeset="4312936">
    <nd ref="127538635"/>
    <nd ref="127501822"/>
    <nd ref="127440568"/>
    <tag k="highway" v="primary"/>
    <tag k="name" v="West 33rd  South"/>
    <tag k="name_1" v="Pioneer Road"/>
    <tag k="ref" v="US 26"/>
    <tag k="tiger:cfcc" v="A41"/>
    <tag k="tiger:county" v="Bonneville, ID"/>
    <tag k="tiger:name_base" v="33rd"/>
    <tag k="tiger:name_base_1" v="Pioneer"/>
    <tag k="tiger:name_direction_prefix" v="W"/>
    <tag k="tiger:name_direction_suffix" v="S"/>
    <tag k="tiger:name_type_1" v="Rd"/>
    <tag k="tiger:reviewed" v="no"/>
    <tag k="tiger:separated" v="no"/>
    <tag k="tiger:source" v="tiger_import_dch_v0.6_20070809"/>
    <tag k="tiger:tlid" v="119206208"/>
  </way>
  <way id="52469400" version="3" timestamp="2010-04-03T16:53:18Z" uid="20587" user="balrog-kun" changeset="4312936">
    <nd ref="471566019"/>
    <nd ref="474672641"/>
    <tag k="highway" v="primary"/>
    <tag k="name" v="West 33rd  South"/>
    <tag k="name_1" v="Pioneer Road"/>
    <tag k="ref" v="US 26"/>
    <tag k="tiger:cfcc" v="A41"/>
    <tag k="tiger:county" v="Bonneville, ID"/>
    <tag k="tiger:name_base" v="33rd"/>
    <tag k="tiger:name_base_1" v="Pioneer"/>
    <tag k="tiger:name_direction_prefix" v="W"/>
    <tag k="tiger:name_direction_suffix" v="S"/>
    <tag k="tiger:name_type_1" v="Rd"/>
    <tag k="tiger:reviewed" v="no"/>
    <tag k="tiger:separated" v="no"/>
    <tag k="tiger:source" v="tiger_import_dch_v0.6_20070809"/>
    <tag k="tiger:tlid" v="119206208"/>
  </way>
  <way id="52469401" version="3" timestamp="2010-04-03T16:53:18Z" uid="20587" user="balrog-kun" changeset="4312936">
    <nd ref="127456014"/>
    <nd ref="127456017"/>
    <tag k="highway" v="primary"/>
    <tag k="name" v="West Sunnyside Road"/>
    <tag k="ref" v="US 26"/>
    <tag k="tiger:cfcc" v="A41"/>
    <tag k="tiger:county" v="Bonneville, ID"/>
    <tag k="tiger:name_base" v="Sunnyside"/>
    <tag k="tiger:name_direction_prefix" v="W"/>
    <tag k="tiger:name_type" v="Rd"/>
    <tag k="tiger:reviewed" v="no"/>
    <tag k="tiger:separated" v="no"/>
    <tag k="tiger:source" v="tiger_import_dch_v0.6_20070809"/>
    <tag k="tiger:tlid" v="119167701:119167703:119167705:119167706:119152605:119142347:119167685:119167687:119167688:119167695:119167697:119167699:119151129:119167741:119167742:119143234"/>
    <tag k="tiger:zip_left" v="83402"/>
    <tag k="tiger:zip_right" v="83402"/>
  </way>
  <way id="52469402" version="2" timestamp="2010-04-03T16:53:19Z" uid="20587" user="balrog-kun" changeset="4312936">
    <nd ref="127456017"/>
    <nd ref="127391324"/>
    <nd ref="127456020"/>
    <nd ref="127456023"/>
    <nd ref="127456027"/>
    <nd ref="127456030"/>
    <nd ref="127210037"/>
    <nd ref="127099724"/>
    <nd ref="127456034"/>
    <nd ref="127456037"/>
    <nd ref="127456040"/>
    <nd ref="127456041"/>
    <nd ref="127456044"/>
    <nd ref="127456047"/>
    <nd ref="127403020"/>
    <nd ref="127456051"/>
    <nd ref="127143666"/>
    <nd ref="127456053"/>
    <nd ref="127456054"/>
    <nd ref="127456055"/>
    <nd ref="127456056"/>
    <nd ref="127456057"/>
    <nd ref="127456058"/>
    <nd ref="127456059"/>
    <nd ref="127456061"/>
    <nd ref="127456063"/>
    <nd ref="127045843"/>
    <nd ref="127456066"/>
    <nd ref="127456070"/>
    <nd ref="127456073"/>
    <nd ref="127456074"/>
    <nd ref="127454099"/>
    <tag k="highway" v="secondary"/>
    <tag k="name" v="West Sunnyside Road"/>
    <tag k="tiger:cfcc" v="A41"/>
    <tag k="tiger:county" v="Bonneville, ID"/>
    <tag k="tiger:name_base" v="Sunnyside"/>
    <tag k="tiger:name_direction_prefix" v="W"/>
    <tag k="tiger:name_type" v="Rd"/>
    <tag k="tiger:reviewed" v="no"/>
    <tag k="tiger:separated" v="no"/>
    <tag k="tiger:source" v="tiger_import_dch_v0.6_20070809"/>
    <tag k="tiger:tlid" v="119167701:119167703:119167705:119167706:119152605:119142347:119167685:119167687:119167688:119167695:119167697:119167699:119151129:119167741:119167742:119143234"/>
    <tag k="tiger:zip_left" v="83402"/>
    <tag k="tiger:zip_right" v="83402"/>
  </way>
  <way id="52469403" version="4" timestamp="2010-04-03T16:53:19Z" uid="20587" user="balrog-kun" changeset="4312936">
    <nd ref="127456014"/>
    <nd ref="127313572"/>
    <nd ref="127366141"/>
    <nd ref="127466637"/>
    <nd ref="127466638"/>
    <nd ref="127466639"/>
    <nd ref="127148314"/>
    <nd ref="127366146"/>
    <nd ref="127466641"/>
    <nd ref="127312088"/>
    <nd ref="127235069"/>
    <nd ref="127466643"/>
    <nd ref="127235086"/>
    <nd ref="127466646"/>
    <nd ref="127197625"/>
    <nd ref="127440362"/>
    <nd ref="127466403"/>
    <nd ref="127466380"/>
    <nd ref="127440316"/>
    <nd ref="127466648"/>
    <nd ref="127466651"/>
    <nd ref="127466654"/>
    <nd ref="127078055"/>
    <nd ref="127466657"/>
    <nd ref="127078041"/>
    <nd ref="127156723"/>
    <nd ref="127466660"/>
    <nd ref="127466662"/>
    <nd ref="127466664"/>
    <nd ref="127466666"/>
    <nd ref="127466668"/>
    <tag k="highway" v="primary"/>
    <tag k="name" v="I-15 (Bus)"/>
    <tag k="name_1" v="South Yellowstone Highway"/>
    <tag k="name_2" v="United States Highway 26"/>
    <tag k="ref" v="US 26"/>
    <tag k="tiger:cfcc" v="A25"/>
    <tag k="tiger:county" v="Bonneville, ID"/>
    <tag k="tiger:name_base" v="I-15 (Bus)"/>
    <tag k="tiger:name_base_1" v="Yellowstone"/>
    <tag k="tiger:name_base_2" v="United States Highway 26"/>
    <tag k="tiger:name_base_3" v="United States Highway 91"/>
    <tag k="tiger:name_direction_prefix_1" v="S"/>
    <tag k="tiger:name_type_1" v="Hwy"/>
    <tag k="tiger:reviewed" v="no"/>
    <tag k="tiger:separated" v="yes"/>
    <tag k="tiger:source" v="tiger_import_dch_v0.6_20070809"/>
    <tag k="tiger:tlid" v="119118904"/>
  </way>
  <way id="52469409" version="3" timestamp="2010-04-07T18:38:52Z" uid="20587" user="balrog-kun" changeset="4355872">
    <nd ref="134863376"/>
    <nd ref="134890233"/>
    <nd ref="134890236"/>
    <tag k="highway" v="primary"/>
    <tag k="name" v="Big Mac Road"/>
    <tag k="name_1" v="State Highway 61"/>
    <tag k="ref" v="US 26"/>
    <tag k="tiger:cfcc" v="A31"/>
    <tag k="tiger:county" v="Keith, NE"/>
    <tag k="tiger:name_base" v="Big Mac"/>
    <tag k="tiger:name_base_1" v="State Highway 61"/>
    <tag k="tiger:name_type" v="Rd"/>
    <tag k="tiger:reviewed" v="no"/>
    <tag k="tiger:separated" v="no"/>
    <tag k="tiger:source" v="tiger_import_dch_v0.6_20070813"/>
    <tag k="tiger:tlid" v="150965811:150954677:150964019:150961337:150961338"/>
    <tag k="tiger:zip_left" v="69153"/>
    <tag k="tiger:zip_left_1" v="69153"/>
    <tag k="tiger:zip_right" v="69153"/>
    <tag k="tiger:zip_right_1" v="69153"/>
  </way>
  <way id="52469416" version="3" timestamp="2010-03-22T07:37:12Z" uid="20587" user="balrog-kun" changeset="4199043">
    <nd ref="40435058"/>
    <nd ref="40478298"/>
    <tag k="highway" v="primary"/>
    <tag k="name" v="West Powell Boulevard"/>
    <tag k="name_1" v="Southeast Powell Valley Road"/>
    <tag k="ref" v="US 26"/>
    <tag k="tiger:cfcc" v="A41"/>
    <tag k="tiger:county" v="Multnomah, OR"/>
    <tag k="tiger:name_base" v="Powell"/>
    <tag k="tiger:name_base_1" v="Powell Valley"/>
    <tag k="tiger:name_direction_prefix" v="E"/>
    <tag k="tiger:name_direction_prefix_1" v="SE"/>
    <tag k="tiger:separated" v="no"/>
    <tag k="tiger:source" v="tiger_import_dch_v0.6_20070808"/>
    <tag k="tiger:tlid" v="157554166:157554167:157555040:157555041:157555065:157531095:157531145:157531083:157531093:157535173:157535138:157535140:157604809:157530584:157530587:157530600:157530602:157555195:157555196:157551830"/>
    <tag k="tiger:zip_left" v="97080"/>
    <tag k="tiger:zip_right" v="97080"/>
  </way>
  <way id="52469416" version="4" timestamp="2010-03-26T17:48:45Z" uid="20587" user="balrog-kun" changeset="4238822">
    <nd ref="40435058"/>
    <nd ref="40478298"/>
    <tag k="highway" v="primary"/>
    <tag k="name" v="East Powell Boulevard"/>
    <tag k="name_1" v="Southeast Powell Valley Road"/>
    <tag k="ref" v="US 26"/>
    <tag k="tiger:cfcc" v="A41"/>
    <tag k="tiger:county" v="Multnomah, OR"/>
    <tag k="tiger:name_base" v="Powell"/>
    <tag k="tiger:name_base_1" v="Powell Valley"/>
    <tag k="tiger:name_direction_prefix" v="E"/>
    <tag k="tiger:name_direction_prefix_1" v="SE"/>
    <tag k="tiger:separated" v="no"/>
    <tag k="tiger:source" v="tiger_import_dch_v0.6_20070808"/>
    <tag k="tiger:tlid" v="157554166:157554167:157555040:157555041:157555065:157531095:157531145:157531083:157531093:157535173:157535138:157535140:157604809:157530584:157530587:157530600:157530602:157555195:157555196:157551830"/>
    <tag k="tiger:zip_left" v="97080"/>
    <tag k="tiger:zip_right" v="97080"/>
  </way>
  <way id="52469417" version="3" timestamp="2010-03-22T07:37:12Z" uid="20587" user="balrog-kun" changeset="4199043">
    <nd ref="40687099"/>
    <nd ref="40386609"/>
    <nd ref="40687104"/>
    <nd ref="40687106"/>
    <nd ref="40687108"/>
    <nd ref="265643490"/>
    <nd ref="40390748"/>
    <tag k="highway" v="trunk"/>
    <tag k="name" v="Southeast Mount Hood Highway"/>
    <tag k="ref" v="US 26"/>
    <tag k="tiger:cfcc" v="A21"/>
    <tag k="tiger:county" v="Multnomah, OR"/>
    <tag k="tiger:name_base" v="United States Highway 26"/>
    <tag k="tiger:separated" v="no"/>
    <tag k="tiger:source" v="tiger_import_dch_v0.6_20070808"/>
    <tag k="tiger:tlid" v="157530580"/>
  </way>
  <way id="52469960" version="3" timestamp="2010-04-04T01:57:04Z" uid="20587" user="balrog-kun" changeset="4318136">
    <nd ref="667037417"/>
    <nd ref="667037420"/>
    <nd ref="667037406"/>
    <nd ref="667037410"/>
    <nd ref="667037413"/>
    <nd ref="667037381"/>
    <nd ref="667037337"/>
    <nd ref="667037340"/>
    <nd ref="667037343"/>
    <nd ref="667037324"/>
    <nd ref="667037320"/>
    <tag k="highway" v="trunk"/>
    <tag k="is_in" v="Otero, CO"/>
    <tag k="name" v="East 1st Street"/>
    <tag k="name_1" v="United States Highway 50"/>
    <tag k="oneway" v="yes"/>
    <tag k="ref" v="US 50"/>
    <tag k="source" v="Yahoo"/>
  </way>
</osm>
