<?xml version='1.0' encoding='UTF-8'?>
<osm version="0.6" generator="libosmium/2.20.0">
  <way id="52519113" version="1" timestamp="2010-03-16T19:34:39Z" uid="23543" user="jkjk" changeset="4145986">
    <nd ref="60410764"/>
    <nd ref="30370170"/>
    <nd ref="30370254"/>
    <nd ref="25450830"/>
    <tag k="highway" v="motorway_link"/>
    <tag k="int_ref" v="E 67"/>
    <tag k="oneway" v="yes"/>
  </way>
  <way id="52519114" version="1" timestamp="2010-03-16T19:34:39Z" uid="23543" user="jkjk" changeset="4145986">
    <nd ref="7080189"/>
    <nd ref="265746669"/>
    <nd ref="55495833"/>
    <nd ref="265746647"/>
    <nd ref="55495827"/>
    <nd ref="55495825"/>
    <nd ref="252028"/>
    <tag k="highway" v="primary"/>
    <tag k="name" v="Kutnohorská"/>
    <tag k="ref" v="2"/>
    <tag k="source:ref" v="survey"/>
  </way>
  <way id="52519115" version="1" timestamp="2010-03-16T19:34:39Z" uid="23543" user="jkjk" changeset="4145986">
    <nd ref="223505029"/>
    <nd ref="703432"/>
    <tag k="highway" v="residential"/>
    <tag k="name" v="U Modré školy"/>
  </way>
  <way id="52519115" version="2" timestamp="2011-02-06T13:47:33Z" uid="23543" user="jkjk" changeset="7203771">
    <nd ref="223505029"/>
    <nd ref="1139123671"/>
    <nd ref="703432"/>
    <tag k="highway" v="tertiary"/>
    <tag k="name" v="U Modré školy"/>
  </way>
  <way id="52519117" version="1" timestamp="2010-03-16T19:34:39Z" uid="23543" user="jkjk" changeset="4145986">
    <nd ref="223505029"/>
    <nd ref="306694470"/>
    <nd ref="223505025"/>
    <tag k="highway" v="residential"/>
    <tag k="name" v="U Modré školy"/>
  </way>
  <way id="52519117" version="2" timestamp="2011-02-06T13:47:13Z" uid="23543" user="jkjk" changeset="7203771">
    <nd ref="223505029"/>
    <nd ref="306694470"/>
    <nd ref="223505025"/>
    <tag k="highway" v="tertiary"/>
    <tag k="name" v="U Modré školy"/>
  </way>
  <way id="52519119" version="1" timestamp="2010-03-16T19:34:39Z" uid="23543" user="jkjk" changeset="4145986">
    <nd ref="252028"/>
    <nd ref="65369383"/>
    <nd ref="65354089"/>
    <nd ref="297036183"/>
    <tag k="highway" v="primary"/>
    <tag k="name" v="Kutnohorská"/>
    <tag k="ref" v="2"/>
    <tag k="source:ref" v="survey"/>
  </way>
  <way id="52519122" version="1" timestamp="2010-03-16T19:34:40Z" uid="23543" user="jkjk" changeset="4145986">
    <nd ref="25450810"/>
    <nd ref="60263443"/>
    <nd ref="21263175"/>
    <nd ref="60263449"/>
    <nd ref="60263455"/>
    <nd ref="60263350"/>
    <nd ref="21263176"/>
    <nd ref="60263369"/>
    <nd ref="60263352"/>
    <nd ref="60263353"/>
    <nd ref="21263177"/>
    <nd ref="366888784"/>
    <nd ref="60263338"/>
    <nd ref="662947527"/>
    <nd ref="366896487"/>
    <nd ref="29443312"/>
    <nd ref="611304860"/>
    <nd ref="21263178"/>
    <nd ref="567797501"/>
    <nd ref="60263207"/>
    <nd ref="60263208"/>
    <nd ref="60263209"/>
    <nd ref="60263250"/>
    <nd ref="60483221"/>
    <nd ref="60483226"/>
    <nd ref="21263179"/>
    <nd ref="270508728"/>
    <nd ref="270508733"/>
    <nd ref="60482788"/>
    <nd ref="21263180"/>
    <nd ref="21263181"/>
    <nd ref="244211501"/>
    <nd ref="21263182"/>
    <nd ref="21263183"/>
    <nd ref="319597165"/>
    <nd ref="21263184"/>
    <nd ref="21263185"/>
    <nd ref="21263193"/>
    <nd ref="30369676"/>
    <nd ref="32665498"/>
    <nd ref="32665499"/>
    <nd ref="32665488"/>
    <nd ref="32665489"/>
    <nd ref="32665490"/>
    <nd ref="21263194"/>
    <nd ref="32642933"/>
    <tag k="highway" v="primary"/>
    <tag k="name" v="Českobrodská"/>
    <tag k="ref" v="12"/>
  </way>
  <way id="52519131" version="1" timestamp="2010-03-16T19:34:40Z" uid="23543" user="jkjk" changeset="4145986">
    <nd ref="322947743"/>
    <nd ref="322947745"/>
    <nd ref="31776160"/>
    <nd ref="21263172"/>
    <nd ref="322950169"/>
    <nd ref="24969713"/>
    <nd ref="322909128"/>
    <nd ref="322926465"/>
    <nd ref="322909130"/>
    <nd ref="30366952"/>
    <tag k="highway" v="primary"/>
    <tag k="name" v="Českobrodská"/>
    <tag k="ref" v="12"/>
  </way>
  <way id="52519136" version="1" timestamp="2010-03-16T19:34:41Z" uid="23543" user="jkjk" changeset="4145986">
    <nd ref="32638660"/>
    <nd ref="21263171"/>
    <tag k="highway" v="motorway_link"/>
    <tag k="oneway" v="yes"/>
  </way>
  <way id="52519138" version="1" timestamp="2010-03-16T19:34:41Z" uid="23543" user="jkjk" changeset="4145986">
    <nd ref="21456266"/>
    <nd ref="30272037"/>
    <nd ref="21688011"/>
    <nd ref="246541720"/>
    <nd ref="21688012"/>
    <nd ref="30271796"/>
    <nd ref="30271794"/>
    <nd ref="21456265"/>
    <nd ref="30271792"/>
    <nd ref="30271791"/>
    <nd ref="30271790"/>
    <nd ref="30271789"/>
    <nd ref="21456267"/>
    <nd ref="25638982"/>
    <nd ref="30272006"/>
    <tag k="highway" v="trunk"/>
    <tag k="name" v="Chlumecká"/>
    <tag k="oneway" v="yes"/>
  </way>
  <way id="52519141" version="1" timestamp="2010-03-16T19:34:41Z" uid="23543" user="jkjk" changeset="4145986">
    <nd ref="483415"/>
    <nd ref="473497530"/>
    <nd ref="514904"/>
    <tag k="highway" v="tertiary"/>
    <tag k="name" v="Ocelkova"/>
    <tag k="oneway" v="yes"/>
  </way>
  <way id="52519144" version="1" timestamp="2010-03-16T19:34:41Z" uid="23543" user="jkjk" changeset="4145986">
    <nd ref="112188218"/>
    <nd ref="112188306"/>
    <tag k="highway" v="tertiary"/>
    <tag k="junction" v="roundabout"/>
  </way>
  <way id="52519146" version="1" timestamp="2010-03-16T19:34:41Z" uid="23543" user="jkjk" changeset="4145986">
    <nd ref="171506139"/>
    <nd ref="171507154"/>
    <nd ref="382680424"/>
    <nd ref="171507155"/>
    <tag k="highway" v="unclassified"/>
  </way>
  <way id="52519148" version="1" timestamp="2010-03-16T19:34:41Z" uid="23543" user="jkjk" changeset="4145986">
    <nd ref="553535023"/>
    <nd ref="356041422"/>
    <nd ref="171510724"/>
    <nd ref="21456266"/>
    <tag k="highway" v="trunk"/>
    <tag k="name" v="Chlumecká"/>
    <tag k="oneway" v="yes"/>
  </way>
  <way id="52519150" version="1" timestamp="2010-03-16T19:34:41Z" uid="23543" user="jkjk" changeset="4145986">
    <nd ref="25269114"/>
    <nd ref="25240100"/>
    <nd ref="112198216"/>
    <tag k="highway" v="trunk"/>
    <tag k="name" v="Chlumecká"/>
    <tag k="oneway" v="yes"/>
  </way>
  <way id="52519153" version="1" timestamp="2010-03-16T19:34:41Z" uid="23543" user="jkjk" changeset="4145986">
    <nd ref="171485732"/>
    <nd ref="667436950"/>
    <nd ref="25450816"/>
    <nd ref="171485731"/>
    <tag k="bridge" v="yes"/>
    <tag k="highway" v="footway"/>
    <tag k="layer" v="1"/>
  </way>
  <way id="52519155" version="1" timestamp="2010-03-16T19:34:41Z" uid="23543" user="jkjk" changeset="4145986">
    <nd ref="25450815"/>
    <nd ref="667436954"/>
    <tag k="highway" v="footway"/>
  </way>
  <way id="52519156" version="1" timestamp="2010-03-16T19:34:41Z" uid="23543" user="jkjk" changeset="4145986">
    <nd ref="112198216"/>
    <nd ref="25269085"/>
    <nd ref="25240101"/>
    <nd ref="366601839"/>
    <tag k="highway" v="trunk"/>
    <tag k="name" v="Chlumecká"/>
    <tag k="oneway" v="yes"/>
  </way>
  <way id="52519159" version="1" timestamp="2010-03-16T19:34:41Z" uid="23543" user="jkjk" changeset="4145986">
    <nd ref="667436954"/>
    <nd ref="667436950"/>
    <tag k="bridge" v="yes"/>
    <tag k="highway" v="footway"/>
    <tag k="layer" v="1"/>
  </way>
  <way id="52519161" version="1" timestamp="2010-03-16T19:34:42Z" uid="23543" user="jkjk" changeset="4145986">
    <nd ref="112198962"/>
    <nd ref="158734212"/>
    <tag k="access" v="no"/>
    <tag k="highway" v="service"/>
  </way>
</osm>
