<?xml version='1.0' encoding='UTF-8'?>
<osm version="0.6" generator="libosmium/2.20.0">
  <way id="52644644" version="2" timestamp="2010-04-07T14:35:42Z" uid="20587" user="balrog-kun" changeset="4353646">
    <nd ref="337260420"/>
    <nd ref="337260417"/>
    <nd ref="337260416"/>
    <nd ref="337259776"/>
    <tag k="highway" v="trunk"/>
    <tag k="maxspeed" v="112"/>
    <tag k="name" v="Camino Colombia Toll Road"/>
    <tag k="oneway" v="yes"/>
    <tag k="ref" v="US:TX 255 Toll"/>
  </way>
  <way id="52644681" version="3" timestamp="2010-04-07T14:35:43Z" uid="20587" user="balrog-kun" changeset="4353646">
    <nd ref="337260554"/>
    <nd ref="337260553"/>
    <nd ref="337260551"/>
    <nd ref="337260550"/>
    <nd ref="337260549"/>
    <nd ref="337260548"/>
    <nd ref="337260425"/>
    <tag k="highway" v="trunk"/>
    <tag k="maxspeed" v="112"/>
    <tag k="name" v="Camino Colombia Toll Road"/>
    <tag k="oneway" v="yes"/>
    <tag k="ref" v="US:TX 255 Toll"/>
    <tag k="toll" v="yes"/>
    <tag k="toll_method" v="transponder"/>
  </way>
</osm>
