<?xml version='1.0' encoding='UTF-8'?>
<osm version="0.6" generator="libosmium/2.20.0">
  <way id="52688103" version="2" timestamp="2010-04-06T14:56:32Z" uid="20587" user="balrog-kun" changeset="4342997">
    <nd ref="668840888"/>
    <nd ref="391571781"/>
    <tag k="highway" v="primary"/>
    <tag k="name" v="East Kansas Avenue"/>
    <tag k="oneway" v="yes"/>
    <tag k="ref" v="US 56"/>
    <tag k="tiger:cfcc" v="A25"/>
    <tag k="tiger:county" v="McPherson, KS"/>
    <tag k="tiger:name_base" v="United States Highway 56"/>
    <tag k="tiger:name_base_1" v="Kansas"/>
    <tag k="tiger:name_direction_prefix_1" v="E"/>
    <tag k="tiger:name_type_1" v="Ave"/>
    <tag k="tiger:reviewed" v="aerial"/>
    <tag k="tiger:separated" v="yes"/>
    <tag k="tiger:source" v="tiger_import_dch_v0.6_20070812"/>
    <tag k="tiger:tlid" v="142888561:142888562:142888564"/>
  </way>
  <way id="52688304" version="5" timestamp="2010-04-06T14:56:33Z" uid="20587" user="balrog-kun" changeset="4342997">
    <nd ref="668841176"/>
    <nd ref="668841177"/>
    <tag k="bridge" v="yes"/>
    <tag k="highway" v="primary"/>
    <tag k="layer" v="1"/>
    <tag k="name" v="East Kansas Avenue"/>
    <tag k="oneway" v="yes"/>
    <tag k="ref" v="US 56; US 81 Business"/>
    <tag k="tiger:cfcc" v="A25"/>
    <tag k="tiger:county" v="McPherson, KS"/>
    <tag k="tiger:name_base" v="United States Highway 56"/>
    <tag k="tiger:name_base_1" v="Kansas"/>
    <tag k="tiger:name_direction_prefix_1" v="E"/>
    <tag k="tiger:name_type_1" v="Ave"/>
    <tag k="tiger:reviewed" v="aerial"/>
    <tag k="tiger:separated" v="yes"/>
    <tag k="tiger:source" v="tiger_import_dch_v0.6_20070812"/>
    <tag k="tiger:tlid" v="142881301:142881302:142886811"/>
  </way>
  <way id="52688521" version="2" timestamp="2010-04-06T14:56:33Z" uid="20587" user="balrog-kun" changeset="4342997">
    <nd ref="668841177"/>
    <nd ref="121190783"/>
    <tag k="highway" v="primary"/>
    <tag k="name" v="East Kansas Avenue"/>
    <tag k="oneway" v="yes"/>
    <tag k="ref" v="US 56; US 81 Business"/>
    <tag k="tiger:cfcc" v="A25"/>
    <tag k="tiger:county" v="McPherson, KS"/>
    <tag k="tiger:name_base" v="United States Highway 56"/>
    <tag k="tiger:name_base_1" v="Kansas"/>
    <tag k="tiger:name_direction_prefix_1" v="E"/>
    <tag k="tiger:name_type_1" v="Ave"/>
    <tag k="tiger:reviewed" v="aerial"/>
    <tag k="tiger:separated" v="yes"/>
    <tag k="tiger:source" v="tiger_import_dch_v0.6_20070812"/>
    <tag k="tiger:tlid" v="142881301:142881302:142886811"/>
  </way>
</osm>
