<?xml version='1.0' encoding='UTF-8'?>
<osm version="0.6" generator="libosmium/2.20.0">
  <way id="52739205" version="5" timestamp="2011-04-20T11:18:18Z" uid="115477" user="wowik" changeset="7915124">
    <nd ref="669302589"/>
    <nd ref="669302591"/>
    <nd ref="669302593"/>
    <nd ref="669302595"/>
    <nd ref="669302600"/>
    <nd ref="669302602"/>
    <nd ref="369311799"/>
    <nd ref="369311802"/>
    <nd ref="369311798"/>
    <nd ref="369311797"/>
    <nd ref="669302619"/>
    <nd ref="669302636"/>
    <nd ref="669302629"/>
    <nd ref="748825464"/>
    <nd ref="669302589"/>
    <tag k="addr:city" v="Москва"/>
    <tag k="addr:country" v="RU"/>
    <tag k="addr:housenumber" v="19"/>
    <tag k="addr:postcode" v="119019"/>
    <tag k="addr:street" v="улица Новый Арбат"/>
    <tag k="building" v="yes"/>
    <tag k="cladr:code" v="77000000000208500"/>
  </way>
  <way id="52739206" version="4" timestamp="2011-04-20T11:18:29Z" uid="115477" user="wowik" changeset="7915124">
    <nd ref="669302629"/>
    <nd ref="669302661"/>
    <nd ref="669302666"/>
    <nd ref="669302646"/>
    <nd ref="669302650"/>
    <nd ref="669302636"/>
    <nd ref="669302629"/>
    <tag k="addr:city" v="Москва"/>
    <tag k="addr:country" v="RU"/>
    <tag k="addr:housenumber" v="17"/>
    <tag k="addr:postcode" v="119019"/>
    <tag k="addr:street" v="улица Новый Арбат"/>
    <tag k="building" v="yes"/>
    <tag k="cladr:code" v="77000000000208500"/>
  </way>
  <way id="52739207" version="4" timestamp="2011-04-20T11:19:22Z" uid="115477" user="wowik" changeset="7915253">
    <nd ref="669302677"/>
    <nd ref="669302679"/>
    <nd ref="669302661"/>
    <nd ref="669302666"/>
    <nd ref="669302663"/>
    <nd ref="369311773"/>
    <nd ref="669302677"/>
    <tag k="addr:city" v="Москва"/>
    <tag k="addr:country" v="RU"/>
    <tag k="addr:housenumber" v="15"/>
    <tag k="addr:postcode" v="119019"/>
    <tag k="addr:street" v="улица Новый Арбат"/>
    <tag k="building" v="yes"/>
    <tag k="cladr:code" v="77000000000208500"/>
  </way>
  <way id="52739255" version="5" timestamp="2011-04-20T07:30:37Z" uid="115477" user="wowik" changeset="7913535">
    <nd ref="669310320"/>
    <nd ref="669310283"/>
    <nd ref="669310300"/>
    <nd ref="669310353"/>
    <nd ref="669310354"/>
    <nd ref="669302591"/>
    <nd ref="669302593"/>
    <nd ref="669302595"/>
    <nd ref="669310326"/>
    <nd ref="669310328"/>
    <nd ref="669310331"/>
    <nd ref="669310333"/>
    <nd ref="669310335"/>
    <nd ref="369311825"/>
    <nd ref="669310324"/>
    <nd ref="669310322"/>
    <nd ref="369311828"/>
    <nd ref="369311827"/>
    <nd ref="369311829"/>
    <nd ref="669310318"/>
    <nd ref="669310310"/>
    <nd ref="669310320"/>
    <tag k="addr:city" v="Москва"/>
    <tag k="addr:country" v="RU"/>
    <tag k="addr:housenumber" v="21"/>
    <tag k="addr:postcode" v="119019"/>
    <tag k="addr:street" v="улица Новый Арбат"/>
    <tag k="building" v="yes"/>
    <tag k="building:levels" v="3"/>
    <tag k="cladr:code" v="77000000000208500"/>
  </way>
  <way id="52739457" version="1" timestamp="2010-03-19T08:32:49Z" uid="74617" user="JohnSmith" changeset="4168090">
    <nd ref="669330366"/>
    <nd ref="669330395"/>
    <nd ref="669330396"/>
    <nd ref="669330397"/>
    <nd ref="669330398"/>
    <nd ref="669330399"/>
    <nd ref="669330400"/>
    <nd ref="669330401"/>
    <nd ref="669330402"/>
    <nd ref="669330404"/>
    <nd ref="669330406"/>
    <nd ref="669330408"/>
    <nd ref="669330414"/>
    <nd ref="669330416"/>
    <nd ref="669330418"/>
    <nd ref="669330420"/>
    <nd ref="669330423"/>
    <nd ref="669330425"/>
    <nd ref="669330428"/>
    <nd ref="669330430"/>
    <nd ref="669330432"/>
    <nd ref="669330434"/>
    <nd ref="669330436"/>
    <tag k="highway" v="unclassified"/>
    <tag k="source" v="nearmap"/>
  </way>
  <way id="52739457" version="2" timestamp="2010-03-19T08:35:49Z" uid="74617" user="JohnSmith" changeset="4168109">
    <nd ref="669330366"/>
    <nd ref="669330395"/>
    <nd ref="669330396"/>
    <nd ref="669330397"/>
    <nd ref="669330398"/>
    <nd ref="669330399"/>
    <nd ref="669330400"/>
    <tag k="highway" v="unclassified"/>
    <tag k="source" v="nearmap"/>
    <tag k="surface" v="unpaved"/>
  </way>
  <way id="52739508" version="1" timestamp="2010-03-19T08:35:49Z" uid="74617" user="JohnSmith" changeset="4168109">
    <nd ref="669330400"/>
    <nd ref="669330401"/>
    <nd ref="669330402"/>
    <nd ref="669330404"/>
    <nd ref="669330406"/>
    <nd ref="669330408"/>
    <nd ref="669330414"/>
    <nd ref="669330416"/>
    <nd ref="669330418"/>
    <nd ref="669330420"/>
    <nd ref="669330423"/>
    <nd ref="669330425"/>
    <nd ref="669330428"/>
    <nd ref="669330430"/>
    <nd ref="669330432"/>
    <nd ref="669330434"/>
    <nd ref="669336353"/>
    <nd ref="669336354"/>
    <nd ref="669330436"/>
    <tag k="highway" v="unclassified"/>
    <tag k="source" v="nearmap"/>
  </way>
  <way id="52739667" version="2" timestamp="2010-03-28T11:54:15Z" uid="20587" user="balrog-kun" changeset="4254597">
    <nd ref="634864393"/>
    <nd ref="289202320"/>
    <nd ref="289202310"/>
    <nd ref="123185892"/>
    <nd ref="123185895"/>
    <nd ref="123185898"/>
    <nd ref="123185900"/>
    <nd ref="122603819"/>
    <nd ref="123185903"/>
    <nd ref="123185906"/>
    <tag k="highway" v="secondary"/>
    <tag k="name" v="West Anaheim Street"/>
    <tag k="source" v="survey;image;usgs_imagery"/>
    <tag k="source_ref" v="AM909_DSCS3186"/>
    <tag k="tiger:cfcc" v="A41"/>
    <tag k="tiger:county" v="Los Angeles, CA"/>
    <tag k="tiger:name_base" v="Anaheim"/>
    <tag k="tiger:name_direction_prefix" v="W"/>
    <tag k="tiger:name_type" v="St"/>
    <tag k="tiger:separated" v="no"/>
    <tag k="tiger:source" v="tiger_import_dch_v0.6_20070809"/>
    <tag k="tiger:tlid" v="141692525:141692527:141692530:141692533:141692545:141692546:141692554:141692628:141692635:141692654:141692774:141692777:141692785:141692787:141692789:141692662:141692556:141692811:141692813:141692817:141692819:141692897:141692903:141692906:141692927:14169"/>
    <tag k="tiger:zip_left" v="90813"/>
    <tag k="tiger:zip_right" v="90813"/>
  </way>
  <way id="52739671" version="2" timestamp="2010-03-28T11:54:15Z" uid="20587" user="balrog-kun" changeset="4254597">
    <nd ref="123185856"/>
    <nd ref="669343962"/>
    <nd ref="123195960"/>
    <tag k="highway" v="residential"/>
    <tag k="name" v="Del Rey Court"/>
    <tag k="source" v="usgs_imagery;LACA"/>
    <tag k="source_ref" v="ABK7269-042;ABK7272-001"/>
    <tag k="tiger:cfcc" v="A41"/>
    <tag k="tiger:county" v="Los Angeles, CA"/>
    <tag k="tiger:name_base" v="Del Rey"/>
    <tag k="tiger:name_type" v="Ct"/>
    <tag k="tiger:reviewed" v="no"/>
    <tag k="tiger:separated" v="no"/>
    <tag k="tiger:source" v="tiger_import_dch_v0.6_20070809"/>
    <tag k="tiger:tlid" v="141693592:141693803:141693806:141693812:141693822:141693826:141693860:141693612:141692938"/>
    <tag k="tiger:zip_left" v="90813"/>
    <tag k="tiger:zip_right" v="90813"/>
  </way>
  <way id="52739674" version="2" timestamp="2010-03-28T11:54:15Z" uid="20587" user="balrog-kun" changeset="4254597">
    <nd ref="663544763"/>
    <nd ref="289202308"/>
    <nd ref="634864393"/>
    <tag k="highway" v="secondary"/>
    <tag k="name" v="West Anaheim Street"/>
    <tag k="source" v="survey;image;usgs_imagery"/>
    <tag k="source_ref" v="AM909_DSCS3186"/>
    <tag k="tiger:cfcc" v="A41"/>
    <tag k="tiger:county" v="Los Angeles, CA"/>
    <tag k="tiger:name_base" v="Anaheim"/>
    <tag k="tiger:name_direction_prefix" v="W"/>
    <tag k="tiger:name_type" v="St"/>
    <tag k="tiger:separated" v="no"/>
    <tag k="tiger:source" v="tiger_import_dch_v0.6_20070809"/>
    <tag k="tiger:tlid" v="141692525:141692527:141692530:141692533:141692545:141692546:141692554:141692628:141692635:141692654:141692774:141692777:141692785:141692787:141692789:141692662:141692556:141692811:141692813:141692817:141692819:141692897:141692903:141692906:141692927:14169"/>
    <tag k="tiger:zip_left" v="90813"/>
    <tag k="tiger:zip_right" v="90813"/>
  </way>
  <way id="52739675" version="2" timestamp="2010-03-28T11:54:15Z" uid="20587" user="balrog-kun" changeset="4254597">
    <nd ref="663544771"/>
    <nd ref="663544773"/>
    <tag k="FIXME" v="Missing from CDOT bridge list. MP and bridge # may be wrong because of blurry pic"/>
    <tag k="bridge" v="yes"/>
    <tag k="bridge_name" v="Anaheim St OC"/>
    <tag k="bridge_ref" v="710/LA/53-2930"/>
    <tag k="highway" v="secondary"/>
    <tag k="is_in:state_code" v="CA"/>
    <tag k="layer" v="1"/>
    <tag k="milepost:county" v="6.39"/>
    <tag k="name" v="Anaheim Street"/>
    <tag k="note" v="Bridge ref pic from I-710 South"/>
    <tag k="source:bridge" v="survey;image;usgs_imagery"/>
    <tag k="source_ref:bridge" v="AM909_DSCS8497"/>
  </way>
  <way id="52739676" version="2" timestamp="2010-03-28T11:54:16Z" uid="20587" user="balrog-kun" changeset="4254597">
    <nd ref="663544773"/>
    <nd ref="663544774"/>
    <tag k="FIXME" v="Missing from CDOT bridge list. MP and bridge # may be wrong because of blurry pic"/>
    <tag k="bridge" v="yes"/>
    <tag k="bridge_name" v="Anaheim St OC"/>
    <tag k="bridge_ref" v="710/LA/53-2930"/>
    <tag k="highway" v="secondary"/>
    <tag k="is_in:state_code" v="CA"/>
    <tag k="layer" v="1"/>
    <tag k="milepost:county" v="6.39"/>
    <tag k="name" v="Anaheim Street"/>
    <tag k="note" v="Bridge ref pic from I-710 South"/>
    <tag k="source:bridge" v="survey;image;usgs_imagery"/>
    <tag k="source_ref:bridge" v="AM909_DSCS8497"/>
  </way>
  <way id="52739677" version="2" timestamp="2010-03-28T11:54:16Z" uid="20587" user="balrog-kun" changeset="4254597">
    <nd ref="663544774"/>
    <nd ref="289202323"/>
    <tag k="FIXME" v="Missing from CDOT bridge list. MP and bridge # may be wrong because of blurry pic"/>
    <tag k="bridge" v="yes"/>
    <tag k="bridge_name" v="Anaheim St OC"/>
    <tag k="bridge_ref" v="710/LA/53-2930"/>
    <tag k="highway" v="secondary"/>
    <tag k="is_in:state_code" v="CA"/>
    <tag k="layer" v="1"/>
    <tag k="milepost:county" v="6.39"/>
    <tag k="name" v="Anaheim Street"/>
    <tag k="note" v="Bridge ref pic from I-710 South"/>
    <tag k="source:bridge" v="survey;image;usgs_imagery"/>
    <tag k="source_ref:bridge" v="AM909_DSCS8497"/>
  </way>
  <way id="52739679" version="2" timestamp="2010-03-28T11:54:16Z" uid="20587" user="balrog-kun" changeset="4254597">
    <nd ref="123478379"/>
    <nd ref="123542709"/>
    <nd ref="123646108"/>
    <nd ref="122886276"/>
    <tag k="highway" v="residential"/>
    <tag k="name" v="West Cobre Way"/>
    <tag k="tiger:cfcc" v="A41"/>
    <tag k="tiger:county" v="Los Angeles, CA"/>
    <tag k="tiger:name_base" v="Cobre"/>
    <tag k="tiger:name_direction_prefix" v="W"/>
    <tag k="tiger:name_type" v="Way"/>
    <tag k="tiger:separated" v="no"/>
    <tag k="tiger:source" v="tiger_import_dch_v0.6_20070809"/>
    <tag k="tiger:tlid" v="141693207:141693214:141693236:141693243:141693864:141693871:142662982:142662983:141693874:141693899"/>
    <tag k="tiger:zip_left" v="90802"/>
    <tag k="tiger:zip_right" v="90802"/>
  </way>
  <way id="52739685" version="2" timestamp="2010-03-28T11:54:16Z" uid="20587" user="balrog-kun" changeset="4254597">
    <nd ref="123548722"/>
    <nd ref="123485255"/>
    <nd ref="669343987"/>
    <nd ref="123548724"/>
    <nd ref="669343989"/>
    <nd ref="123137639"/>
    <nd ref="289200993"/>
    <tag k="highway" v="residential"/>
    <tag k="name" v="West 14th Street"/>
    <tag k="tiger:cfcc" v="A41"/>
    <tag k="tiger:county" v="Los Angeles, CA"/>
    <tag k="tiger:name_base" v="14th"/>
    <tag k="tiger:name_direction_prefix" v="W"/>
    <tag k="tiger:name_type" v="St"/>
    <tag k="tiger:separated" v="no"/>
    <tag k="tiger:source" v="tiger_import_dch_v0.6_20070809"/>
    <tag k="tiger:tlid" v="141692816:141692894:141692901:141692924:141693587:141693602:141692934"/>
    <tag k="tiger:zip_left" v="90813"/>
    <tag k="tiger:zip_right" v="90813"/>
  </way>
  <way id="52739696" version="2" timestamp="2010-03-28T11:54:16Z" uid="20587" user="balrog-kun" changeset="4254597">
    <nd ref="123548628"/>
    <nd ref="123485251"/>
    <nd ref="123548630"/>
    <tag k="highway" v="residential"/>
    <tag k="name" v="West 14th Street"/>
    <tag k="tiger:cfcc" v="A41"/>
    <tag k="tiger:county" v="Los Angeles, CA"/>
    <tag k="tiger:name_base" v="14th"/>
    <tag k="tiger:name_direction_prefix" v="W"/>
    <tag k="tiger:name_type" v="St"/>
    <tag k="tiger:separated" v="no"/>
    <tag k="tiger:source" v="tiger_import_dch_v0.6_20070809"/>
    <tag k="tiger:tlid" v="141692896:141692902:141692926:141692935:141693589:141693596:141693604:141693608:141692937"/>
    <tag k="tiger:zip_left" v="90813"/>
  </way>
  <way id="52739707" version="3" timestamp="2010-03-28T11:54:17Z" uid="20587" user="balrog-kun" changeset="4254597">
    <nd ref="669344137"/>
    <nd ref="672577166"/>
    <nd ref="123594686"/>
    <nd ref="672577167"/>
    <nd ref="672577170"/>
    <nd ref="672577174"/>
    <nd ref="672577175"/>
    <nd ref="122827971"/>
    <nd ref="123195227"/>
    <nd ref="123571727"/>
    <nd ref="123594691"/>
    <nd ref="672577228"/>
    <nd ref="672577225"/>
    <nd ref="672577227"/>
    <nd ref="672577226"/>
    <nd ref="122670262"/>
    <tag k="highway" v="residential"/>
    <tag k="name" v="North Maine Avenue"/>
    <tag k="tiger:cfcc" v="A41"/>
    <tag k="tiger:county" v="Los Angeles, CA"/>
    <tag k="tiger:name_base" v="Maine"/>
    <tag k="tiger:name_direction_prefix" v="N"/>
    <tag k="tiger:name_type" v="Ave"/>
    <tag k="tiger:separated" v="no"/>
    <tag k="tiger:source" v="tiger_import_dch_v0.6_20070809"/>
    <tag k="tiger:tlid" v="141685279:141685280:141685281:141685291:141685292:141685296:141685298:141685739:141685747:141685751:141685775:141685778:141685780:141685787:141685896:141685905:141685910:141685899:141685789"/>
    <tag k="tiger:zip_left" v="90806"/>
    <tag k="tiger:zip_right" v="90806"/>
  </way>
  <way id="52739710" version="3" timestamp="2010-03-28T11:54:17Z" uid="20587" user="balrog-kun" changeset="4254597">
    <nd ref="669344142"/>
    <nd ref="672577171"/>
    <nd ref="669344137"/>
    <nd ref="669344138"/>
    <nd ref="669344140"/>
    <nd ref="669344132"/>
    <tag k="highway" v="unclassified"/>
    <tag k="name" v="Wardlow North Frontage Road"/>
    <tag k="source" v="usgs_imagery"/>
  </way>
  <way id="52739711" version="2" timestamp="2010-03-28T11:54:17Z" uid="20587" user="balrog-kun" changeset="4254597">
    <nd ref="669344144"/>
    <nd ref="669344146"/>
    <nd ref="669344145"/>
    <nd ref="669344141"/>
    <tag k="highway" v="unclassified"/>
    <tag k="name" v="Wardlow South Frontage Road"/>
    <tag k="source" v="usgs_imagery"/>
  </way>
</osm>
