<?xml version='1.0' encoding='UTF-8'?>
<osm version="0.6" generator="libosmium/2.20.0">
  <way id="52880356" version="2" timestamp="2011-04-20T12:57:51Z" uid="115477" user="wowik" changeset="7916018">
    <nd ref="670349881"/>
    <nd ref="670349884"/>
    <nd ref="670349883"/>
    <nd ref="670349882"/>
    <nd ref="670350126"/>
    <nd ref="566683809"/>
    <nd ref="566683808"/>
    <nd ref="566683807"/>
    <nd ref="566683806"/>
    <nd ref="566683805"/>
    <nd ref="566683814"/>
    <nd ref="566683813"/>
    <nd ref="670349881"/>
    <tag k="addr:city" v="Москва"/>
    <tag k="addr:country" v="RU"/>
    <tag k="addr:housenumber" v="11"/>
    <tag k="addr:street" v="улица Петровка"/>
    <tag k="building" v="yes"/>
    <tag k="cladr:code" v="77000000000057800"/>
  </way>
  <way id="52880364" version="3" timestamp="2011-04-20T12:57:36Z" uid="115477" user="wowik" changeset="7916018">
    <nd ref="670349771"/>
    <nd ref="670349774"/>
    <nd ref="670349766"/>
    <nd ref="670349764"/>
    <nd ref="670349771"/>
    <tag k="addr:city" v="Москва"/>
    <tag k="addr:country" v="RU"/>
    <tag k="addr:housenumber" v="10"/>
    <tag k="addr:street" v="Столешников переулок"/>
    <tag k="building" v="yes"/>
    <tag k="cladr:code" v="77000000000060200"/>
  </way>
  <way id="52880365" version="4" timestamp="2011-04-20T12:57:46Z" uid="115477" user="wowik" changeset="7916018">
    <nd ref="670349766"/>
    <nd ref="670349774"/>
    <nd ref="670349773"/>
    <nd ref="670349772"/>
    <nd ref="670349766"/>
    <tag k="addr:city" v="Москва"/>
    <tag k="addr:country" v="RU"/>
    <tag k="addr:housenumber" v="12 с2"/>
    <tag k="addr:street" v="Столешников переулок"/>
    <tag k="building" v="yes"/>
    <tag k="cladr:code" v="77000000000060200"/>
  </way>
  <way id="52880366" version="3" timestamp="2011-04-20T12:57:14Z" uid="115477" user="wowik" changeset="7916018">
    <nd ref="670349823"/>
    <nd ref="670349816"/>
    <nd ref="670349818"/>
    <nd ref="670349815"/>
    <nd ref="670349775"/>
    <nd ref="670349817"/>
    <nd ref="670349819"/>
    <nd ref="670349820"/>
    <nd ref="670349823"/>
    <tag k="addr:city" v="Москва"/>
    <tag k="addr:country" v="RU"/>
    <tag k="addr:housenumber" v="12"/>
    <tag k="addr:street" v="Столешников переулок"/>
    <tag k="building" v="yes"/>
    <tag k="cladr:code" v="77000000000060200"/>
  </way>
  <way id="52880367" version="4" timestamp="2011-04-20T12:57:27Z" uid="115477" user="wowik" changeset="7916018">
    <nd ref="670349802"/>
    <nd ref="670349803"/>
    <nd ref="670349816"/>
    <nd ref="670349823"/>
    <nd ref="670349822"/>
    <nd ref="670349802"/>
    <tag k="addr:city" v="Москва"/>
    <tag k="addr:country" v="RU"/>
    <tag k="addr:housenumber" v="12 с3"/>
    <tag k="addr:street" v="Столешников переулок"/>
    <tag k="building" v="yes"/>
    <tag k="cladr:code" v="77000000000060200"/>
  </way>
  <way id="52880368" version="3" timestamp="2011-04-20T12:57:57Z" uid="115477" user="wowik" changeset="7916018">
    <nd ref="670349814"/>
    <nd ref="670349881"/>
    <nd ref="670349884"/>
    <nd ref="670349883"/>
    <nd ref="670349882"/>
    <nd ref="670349880"/>
    <nd ref="670349813"/>
    <nd ref="670349814"/>
    <tag k="addr:city" v="Москва"/>
    <tag k="addr:country" v="RU"/>
    <tag k="addr:housenumber" v="9"/>
    <tag k="addr:street" v="Дмитровский переулок"/>
    <tag k="building" v="yes"/>
    <tag k="cladr:code" v="77000000000054400"/>
  </way>
  <way id="52880369" version="4" timestamp="2011-04-20T12:56:56Z" uid="115477" user="wowik" changeset="7916018">
    <nd ref="670349829"/>
    <nd ref="670349871"/>
    <nd ref="670349874"/>
    <nd ref="670349870"/>
    <nd ref="670349812"/>
    <nd ref="670349805"/>
    <nd ref="670349804"/>
    <nd ref="670349807"/>
    <nd ref="670349806"/>
    <nd ref="670349811"/>
    <nd ref="670349808"/>
    <nd ref="670349810"/>
    <nd ref="670349827"/>
    <nd ref="670349828"/>
    <nd ref="670349800"/>
    <nd ref="670349801"/>
    <nd ref="670349829"/>
    <tag k="addr:city" v="Москва"/>
    <tag k="addr:country" v="RU"/>
    <tag k="addr:housenumber" v="7"/>
    <tag k="addr:street" v="Дмитровский переулок"/>
    <tag k="building" v="yes"/>
    <tag k="cladr:code" v="77000000000054400"/>
  </way>
  <way id="52880370" version="4" timestamp="2011-04-20T12:57:35Z" uid="115477" user="wowik" changeset="7916018">
    <nd ref="670349872"/>
    <nd ref="670349877"/>
    <nd ref="670349876"/>
    <nd ref="670349873"/>
    <nd ref="670349872"/>
    <tag k="addr:city" v="Москва"/>
    <tag k="addr:country" v="RU"/>
    <tag k="addr:housenumber" v="11 с2"/>
    <tag k="addr:street" v="улица Петровка"/>
    <tag k="building" v="yes"/>
    <tag k="cladr:code" v="77000000000057800"/>
  </way>
  <way id="52880375" version="3" timestamp="2011-04-20T12:57:02Z" uid="115477" user="wowik" changeset="7916018">
    <nd ref="670349823"/>
    <nd ref="670349820"/>
    <nd ref="670349832"/>
    <nd ref="670349875"/>
    <nd ref="670349830"/>
    <nd ref="670349831"/>
    <nd ref="670349824"/>
    <nd ref="670349825"/>
    <nd ref="670349826"/>
    <nd ref="670349821"/>
    <nd ref="670349822"/>
    <nd ref="670349823"/>
    <tag k="addr:city" v="Москва"/>
    <tag k="addr:country" v="RU"/>
    <tag k="addr:housenumber" v="14"/>
    <tag k="addr:street" v="Столешников переулок"/>
    <tag k="building" v="yes"/>
    <tag k="cladr:code" v="77000000000060200"/>
  </way>
  <way id="52880541" version="4" timestamp="2010-07-28T19:07:12Z" uid="9719" user="dvaey" changeset="5340802">
    <nd ref="836645583"/>
    <nd ref="836645581"/>
    <nd ref="836645579"/>
    <nd ref="836645576"/>
    <nd ref="836645574"/>
    <nd ref="836645569"/>
    <nd ref="836645566"/>
    <nd ref="836645562"/>
    <nd ref="836645559"/>
    <nd ref="836645556"/>
    <nd ref="836645553"/>
    <nd ref="836645550"/>
    <nd ref="836645547"/>
    <nd ref="836645545"/>
    <nd ref="836645543"/>
    <nd ref="836645542"/>
    <nd ref="836645540"/>
    <nd ref="836645539"/>
    <nd ref="836645538"/>
    <nd ref="836645536"/>
    <nd ref="836645535"/>
    <nd ref="836666749"/>
    <nd ref="836666742"/>
    <nd ref="836666738"/>
    <nd ref="836666731"/>
    <nd ref="836666729"/>
    <nd ref="836666724"/>
    <nd ref="836666721"/>
    <nd ref="836666703"/>
    <nd ref="836675449"/>
    <nd ref="836675447"/>
    <nd ref="836675446"/>
    <nd ref="836675444"/>
    <nd ref="670359160"/>
    <nd ref="670359161"/>
    <nd ref="670359163"/>
    <nd ref="670359164"/>
    <nd ref="670359165"/>
    <nd ref="670359166"/>
    <nd ref="670359168"/>
    <nd ref="670359169"/>
    <nd ref="670359170"/>
    <nd ref="670359171"/>
    <nd ref="670359172"/>
    <nd ref="670359174"/>
    <nd ref="670359175"/>
    <nd ref="670359176"/>
    <nd ref="670359177"/>
    <nd ref="670359179"/>
    <nd ref="670359180"/>
    <nd ref="670359181"/>
    <nd ref="670359182"/>
    <nd ref="670359183"/>
    <nd ref="670359184"/>
    <nd ref="670359185"/>
    <nd ref="670359186"/>
    <nd ref="670359187"/>
    <nd ref="670359188"/>
    <nd ref="670359189"/>
    <nd ref="670359190"/>
    <nd ref="670359192"/>
    <nd ref="670359193"/>
    <nd ref="670359194"/>
    <nd ref="670359195"/>
    <nd ref="670359196"/>
    <nd ref="670359197"/>
    <nd ref="670359199"/>
    <nd ref="670359200"/>
    <nd ref="670359201"/>
    <nd ref="670359203"/>
    <nd ref="670359206"/>
    <nd ref="670359208"/>
    <nd ref="670359211"/>
    <nd ref="670359214"/>
    <nd ref="670359215"/>
    <nd ref="670359217"/>
    <nd ref="670359218"/>
    <nd ref="670359219"/>
    <nd ref="670359220"/>
    <nd ref="670359221"/>
    <nd ref="670359222"/>
    <nd ref="670359223"/>
    <nd ref="670359225"/>
    <nd ref="670359226"/>
    <nd ref="670359227"/>
    <nd ref="670359228"/>
    <nd ref="670359229"/>
    <nd ref="670359231"/>
    <nd ref="670359232"/>
    <nd ref="670359233"/>
    <nd ref="670359234"/>
    <nd ref="670359235"/>
    <nd ref="670351965"/>
    <nd ref="670077752"/>
    <tag k="cables" v="3"/>
    <tag k="power" v="line"/>
    <tag k="voltage" v="132000"/>
  </way>
  <way id="52880574" version="1" timestamp="2010-03-20T12:29:05Z" uid="74617" user="JohnSmith" changeset="4179190">
    <nd ref="353181129"/>
    <nd ref="243414304"/>
    <tag k="highway" v="primary"/>
    <tag k="name" v="Sandgate Road"/>
    <tag k="oneway" v="yes"/>
  </way>
</osm>
