<?xml version='1.0' encoding='UTF-8'?>
<osm version="0.6" generator="libosmium/2.20.0">
  <way id="52927749" version="1" timestamp="2010-03-20T19:22:37Z" uid="33382" user="de_muur" changeset="4183746">
    <nd ref="295417209"/>
    <nd ref="262664033"/>
    <nd ref="262664034"/>
    <nd ref="262664035"/>
    <nd ref="266792532"/>
    <tag k="cycleway" v="track"/>
    <tag k="highway" v="secondary"/>
    <tag k="ref" v="L 156"/>
    <tag k="surface" v="paved"/>
  </way>
  <way id="52927750" version="1" timestamp="2010-03-20T19:22:38Z" uid="33382" user="de_muur" changeset="4183746">
    <nd ref="266792532"/>
    <nd ref="262664036"/>
    <nd ref="262664235"/>
    <tag k="cycleway" v="track"/>
    <tag k="highway" v="secondary"/>
    <tag k="ref" v="L 156"/>
    <tag k="surface" v="paved"/>
  </way>
  <way id="52927754" version="1" timestamp="2010-03-20T19:22:39Z" uid="33382" user="de_muur" changeset="4183746">
    <nd ref="670735394"/>
    <nd ref="266792533"/>
    <nd ref="266792535"/>
    <nd ref="266792536"/>
    <nd ref="266792537"/>
    <nd ref="266792538"/>
    <nd ref="266792539"/>
    <nd ref="295418363"/>
    <nd ref="266792540"/>
    <nd ref="266792541"/>
    <nd ref="93444773"/>
    <nd ref="93444774"/>
    <nd ref="364776595"/>
    <tag k="cycleway" v="track"/>
    <tag k="highway" v="tertiary"/>
    <tag k="ref" v="K 5"/>
    <tag k="surface" v="paved"/>
  </way>
  <way id="52927755" version="1" timestamp="2010-03-20T19:22:39Z" uid="33382" user="de_muur" changeset="4183746">
    <nd ref="648421917"/>
    <nd ref="60304407"/>
    <tag k="bicycle" v="designated"/>
    <tag k="foot" v="designated"/>
    <tag k="highway" v="path"/>
    <tag k="oneway" v="no"/>
    <tag k="segregated" v="no"/>
  </way>
  <way id="52927756" version="1" timestamp="2010-03-20T19:22:39Z" uid="33382" user="de_muur" changeset="4183746">
    <nd ref="266195180"/>
    <nd ref="21524228"/>
    <nd ref="21524215"/>
    <nd ref="295418372"/>
    <nd ref="21524216"/>
    <nd ref="21524224"/>
    <nd ref="21524171"/>
    <tag k="cycleway" v="track"/>
    <tag k="highway" v="secondary"/>
    <tag k="maxspeed" v="50"/>
    <tag k="name" v="Hamburger Straße"/>
    <tag k="ref" v="L 168"/>
    <tag k="surface" v="paved"/>
  </way>
  <way id="52927756" version="3" timestamp="2010-07-11T17:02:11Z" uid="33382" user="de_muur" changeset="5192354">
    <nd ref="266195180"/>
    <nd ref="21524228"/>
    <nd ref="21524215"/>
    <tag k="cycleway" v="track"/>
    <tag k="highway" v="secondary"/>
    <tag k="maxspeed" v="50"/>
    <tag k="name" v="Hamburger Straße"/>
    <tag k="ref" v="L 168"/>
    <tag k="surface" v="paved"/>
  </way>
</osm>
