<?xml version='1.0' encoding='UTF-8'?>
<osm version="0.6" generator="libosmium/2.20.0">
  <way id="52933348" version="4" timestamp="2011-04-20T12:57:31Z" uid="115477" user="wowik" changeset="7916018">
    <nd ref="670800256"/>
    <nd ref="670800449"/>
    <nd ref="670800277"/>
    <nd ref="670800280"/>
    <nd ref="670800279"/>
    <nd ref="670800248"/>
    <nd ref="670800250"/>
    <nd ref="670800252"/>
    <nd ref="670800258"/>
    <nd ref="670800256"/>
    <tag k="addr:city" v="Москва"/>
    <tag k="addr:country" v="RU"/>
    <tag k="addr:housenumber" v="6 с5"/>
    <tag k="addr:street" v="Тверская улица"/>
    <tag k="building" v="yes"/>
    <tag k="cladr:code" v="77000000000287700"/>
  </way>
  <way id="52933349" version="2" timestamp="2011-04-20T12:59:53Z" uid="115477" user="wowik" changeset="7916018">
    <nd ref="670800509"/>
    <nd ref="670800511"/>
    <nd ref="670800299"/>
    <nd ref="670800297"/>
    <nd ref="670800509"/>
    <tag k="addr:city" v="Москва"/>
    <tag k="addr:country" v="RU"/>
    <tag k="building" v="yes"/>
  </way>
  <way id="52933350" version="4" timestamp="2011-04-20T12:57:09Z" uid="115477" user="wowik" changeset="7916018">
    <nd ref="670800420"/>
    <nd ref="670800239"/>
    <nd ref="670800236"/>
    <nd ref="670800234"/>
    <nd ref="670800395"/>
    <nd ref="670800424"/>
    <nd ref="670800426"/>
    <nd ref="670800431"/>
    <nd ref="670800433"/>
    <nd ref="670800427"/>
    <nd ref="670800420"/>
    <tag k="addr:city" v="Москва"/>
    <tag k="addr:country" v="RU"/>
    <tag k="addr:housenumber" v="6 с3"/>
    <tag k="addr:street" v="Тверская улица"/>
    <tag k="building" v="yes"/>
    <tag k="cladr:code" v="77000000000287700"/>
  </way>
  <way id="52933351" version="4" timestamp="2011-04-20T12:57:21Z" uid="115477" user="wowik" changeset="7916018">
    <nd ref="670800060"/>
    <nd ref="670800182"/>
    <nd ref="670800180"/>
    <nd ref="670800021"/>
    <nd ref="670800060"/>
    <tag k="addr:city" v="Москва"/>
    <tag k="addr:country" v="RU"/>
    <tag k="addr:housenumber" v="21 с2"/>
    <tag k="addr:street" v="Брюсов переулок"/>
    <tag k="building" v="yes"/>
    <tag k="cladr:code" v="77000000000703600"/>
  </way>
  <way id="52933352" version="2" timestamp="2011-04-20T13:00:00Z" uid="115477" user="wowik" changeset="7916018">
    <nd ref="353047460"/>
    <nd ref="670800068"/>
    <nd ref="670800204"/>
    <nd ref="670800192"/>
    <nd ref="670800066"/>
    <nd ref="670800058"/>
    <nd ref="370562205"/>
    <nd ref="353047460"/>
    <tag k="addr:city" v="Москва"/>
    <tag k="addr:country" v="RU"/>
    <tag k="building" v="yes"/>
  </way>
  <way id="52933353" version="3" timestamp="2011-04-20T12:56:57Z" uid="115477" user="wowik" changeset="7916018">
    <nd ref="670800057"/>
    <nd ref="670800058"/>
    <nd ref="670800066"/>
    <nd ref="670800192"/>
    <nd ref="670800204"/>
    <nd ref="670800194"/>
    <nd ref="670800196"/>
    <nd ref="670800198"/>
    <nd ref="670800211"/>
    <nd ref="670800188"/>
    <nd ref="670800186"/>
    <nd ref="670800202"/>
    <nd ref="670800190"/>
    <nd ref="670800200"/>
    <nd ref="670800064"/>
    <nd ref="670800062"/>
    <nd ref="670800055"/>
    <nd ref="670800022"/>
    <nd ref="670800024"/>
    <nd ref="670800057"/>
    <tag k="addr:city" v="Москва"/>
    <tag k="addr:country" v="RU"/>
    <tag k="addr:housenumber" v="11"/>
    <tag k="addr:street" v="Тверская улица"/>
    <tag k="building" v="yes"/>
    <tag k="cladr:code" v="77000000000287700"/>
  </way>
  <way id="52933354" version="4" timestamp="2011-04-20T12:57:36Z" uid="115477" user="wowik" changeset="7916018">
    <nd ref="670800161"/>
    <nd ref="670800132"/>
    <nd ref="670800103"/>
    <nd ref="670800105"/>
    <nd ref="670800107"/>
    <nd ref="670800108"/>
    <nd ref="670800161"/>
    <tag k="addr:city" v="Москва"/>
    <tag k="addr:country" v="RU"/>
    <tag k="addr:housenumber" v="9А с5"/>
    <tag k="addr:street" v="Тверская улица"/>
    <tag k="building" v="yes"/>
    <tag k="cladr:code" v="77000000000287700"/>
  </way>
  <way id="52933355" version="4" timestamp="2011-04-20T12:57:45Z" uid="115477" user="wowik" changeset="7916018">
    <nd ref="670800164"/>
    <nd ref="670800166"/>
    <nd ref="670800134"/>
    <nd ref="670800162"/>
    <nd ref="670800164"/>
    <tag k="addr:city" v="Москва"/>
    <tag k="addr:country" v="RU"/>
    <tag k="addr:housenumber" v="9А с6"/>
    <tag k="addr:street" v="Тверская улица"/>
    <tag k="building" v="yes"/>
    <tag k="cladr:code" v="77000000000287700"/>
  </way>
  <way id="52933356" version="4" timestamp="2011-04-20T12:57:13Z" uid="115477" user="wowik" changeset="7916018">
    <nd ref="670800012"/>
    <nd ref="670800110"/>
    <nd ref="670800099"/>
    <nd ref="670800101"/>
    <nd ref="670800012"/>
    <tag k="FIXME" v="addr:housenumber Нестандартный и/или странный адрес. Проверить и/или привести к стандарту http://wiki.osm.org/RU:Key:addr"/>
    <tag k="addr:city" v="Москва"/>
    <tag k="addr:country" v="RU"/>
    <tag k="addr:housenumber" v="8-10 с2"/>
    <tag k="addr:street" v="Брюсов переулок"/>
    <tag k="building" v="yes"/>
    <tag k="cladr:code" v="77000000000703600"/>
  </way>
  <way id="52933357" version="2" timestamp="2011-04-20T12:59:45Z" uid="115477" user="wowik" changeset="7916018">
    <nd ref="670800042"/>
    <nd ref="670800044"/>
    <nd ref="670800029"/>
    <nd ref="670800026"/>
    <nd ref="670800031"/>
    <nd ref="670800027"/>
    <nd ref="670800042"/>
    <tag k="addr:city" v="Москва"/>
    <tag k="addr:country" v="RU"/>
    <tag k="building" v="yes"/>
  </way>
  <way id="52933358" version="2" timestamp="2011-04-20T12:59:26Z" uid="115477" user="wowik" changeset="7916018">
    <nd ref="670800033"/>
    <nd ref="670800035"/>
    <nd ref="670800037"/>
    <nd ref="670800039"/>
    <nd ref="670800033"/>
    <tag k="addr:city" v="Москва"/>
    <tag k="addr:country" v="RU"/>
    <tag k="building" v="yes"/>
  </way>
  <way id="52933359" version="2" timestamp="2011-04-20T12:59:32Z" uid="115477" user="wowik" changeset="7916018">
    <nd ref="670800046"/>
    <nd ref="670800053"/>
    <nd ref="670800048"/>
    <nd ref="370562201"/>
    <nd ref="370562204"/>
    <nd ref="353047460"/>
    <nd ref="370562205"/>
    <nd ref="670800050"/>
    <nd ref="670800051"/>
    <nd ref="670800046"/>
    <tag k="addr:city" v="Москва"/>
    <tag k="addr:country" v="RU"/>
    <tag k="building" v="yes"/>
  </way>
  <way id="52933360" version="2" timestamp="2011-04-20T12:57:34Z" uid="115477" user="wowik" changeset="7916018">
    <nd ref="670800050"/>
    <nd ref="670800041"/>
    <nd ref="370562207"/>
    <nd ref="670800016"/>
    <nd ref="670800014"/>
    <nd ref="370562198"/>
    <nd ref="370562200"/>
    <nd ref="370562201"/>
    <nd ref="670800048"/>
    <nd ref="670800053"/>
    <nd ref="670800046"/>
    <nd ref="670800051"/>
    <nd ref="670800050"/>
    <tag k="addr:city" v="Москва"/>
    <tag k="addr:country" v="RU"/>
    <tag k="addr:housenumber" v="22"/>
    <tag k="addr:street" v="Вознесенский переулок"/>
    <tag k="building" v="yes"/>
    <tag k="cladr:code" v="77000000000716800"/>
  </way>
  <way id="52933362" version="5" timestamp="2011-04-20T12:57:12Z" uid="115477" user="wowik" changeset="7916018">
    <nd ref="670800074"/>
    <nd ref="670800092"/>
    <nd ref="670800094"/>
    <nd ref="670800077"/>
    <nd ref="670800074"/>
    <tag k="addr:city" v="Москва"/>
    <tag k="addr:country" v="RU"/>
    <tag k="addr:housenumber" v="13"/>
    <tag k="addr:street" v="Газетный переулок"/>
    <tag k="building" v="yes"/>
  </way>
  <way id="52933363" version="2" timestamp="2011-04-20T12:59:44Z" uid="115477" user="wowik" changeset="7916018">
    <nd ref="670800111"/>
    <nd ref="670800109"/>
    <nd ref="670800096"/>
    <nd ref="670800098"/>
    <nd ref="670800111"/>
    <tag k="addr:city" v="Москва"/>
    <tag k="addr:country" v="RU"/>
    <tag k="building" v="yes"/>
  </way>
  <way id="52933364" version="3" timestamp="2011-04-20T12:56:49Z" uid="115477" user="wowik" changeset="7916018">
    <nd ref="670800088"/>
    <nd ref="670800130"/>
    <nd ref="670800129"/>
    <nd ref="670800087"/>
    <nd ref="670800088"/>
    <tag k="addr:city" v="Москва"/>
    <tag k="addr:country" v="RU"/>
    <tag k="addr:housenumber" v="17 с3"/>
    <tag k="addr:street" v="Газетный переулок"/>
    <tag k="building" v="yes"/>
  </way>
  <way id="52933365" version="2" timestamp="2011-04-20T12:59:31Z" uid="115477" user="wowik" changeset="7916018">
    <nd ref="670800149"/>
    <nd ref="670800146"/>
    <nd ref="670800148"/>
    <nd ref="670800144"/>
    <nd ref="670800136"/>
    <nd ref="670800072"/>
    <nd ref="670800069"/>
    <nd ref="670800085"/>
    <nd ref="670800081"/>
    <nd ref="670800083"/>
    <nd ref="670800088"/>
    <nd ref="670800087"/>
    <nd ref="670800149"/>
    <tag k="addr:city" v="Москва"/>
    <tag k="addr:country" v="RU"/>
    <tag k="building" v="yes"/>
  </way>
  <way id="52933366" version="2" timestamp="2011-04-20T12:59:52Z" uid="115477" user="wowik" changeset="7916018">
    <nd ref="670800170"/>
    <nd ref="670800175"/>
    <nd ref="670800177"/>
    <nd ref="670800173"/>
    <nd ref="670800170"/>
    <tag k="addr:city" v="Москва"/>
    <tag k="addr:country" v="RU"/>
    <tag k="building" v="yes"/>
  </way>
  <way id="52933367" version="4" timestamp="2011-04-20T12:57:50Z" uid="115477" user="wowik" changeset="7916018">
    <nd ref="670800233"/>
    <nd ref="670800229"/>
    <nd ref="670800171"/>
    <nd ref="670800170"/>
    <nd ref="670800168"/>
    <nd ref="670800227"/>
    <nd ref="670800209"/>
    <nd ref="670800217"/>
    <nd ref="670800213"/>
    <nd ref="670800219"/>
    <nd ref="670800215"/>
    <nd ref="670800225"/>
    <nd ref="670800223"/>
    <nd ref="670800233"/>
    <tag k="addr:city" v="Москва"/>
    <tag k="addr:country" v="RU"/>
    <tag k="addr:housenumber" v="11 с4"/>
    <tag k="addr:street" v="Тверская улица"/>
    <tag k="building" v="yes"/>
    <tag k="cladr:code" v="77000000000287700"/>
  </way>
  <way id="52933368" version="2" timestamp="2011-04-20T12:59:42Z" uid="115477" user="wowik" changeset="7916018">
    <nd ref="670800221"/>
    <nd ref="670800231"/>
    <nd ref="670800233"/>
    <nd ref="670800223"/>
    <nd ref="670800196"/>
    <nd ref="670800194"/>
    <nd ref="670800221"/>
    <tag k="addr:city" v="Москва"/>
    <tag k="addr:country" v="RU"/>
    <tag k="building" v="yes"/>
  </way>
  <way id="52933369" version="2" timestamp="2011-04-20T12:59:47Z" uid="115477" user="wowik" changeset="7916018">
    <nd ref="670800184"/>
    <nd ref="670800186"/>
    <nd ref="670800188"/>
    <nd ref="670800211"/>
    <nd ref="670800207"/>
    <nd ref="670800206"/>
    <nd ref="670800151"/>
    <nd ref="670800184"/>
    <tag k="addr:city" v="Москва"/>
    <tag k="addr:country" v="RU"/>
    <tag k="building" v="yes"/>
  </way>
  <way id="52933370" version="3" timestamp="2011-04-20T12:56:56Z" uid="115477" user="wowik" changeset="7916018">
    <nd ref="670800155"/>
    <nd ref="670800153"/>
    <nd ref="670800157"/>
    <nd ref="670800159"/>
    <nd ref="670800179"/>
    <nd ref="670800155"/>
    <tag k="addr:city" v="Москва"/>
    <tag k="addr:country" v="RU"/>
    <tag k="addr:housenumber" v="12"/>
    <tag k="addr:street" v="Брюсов переулок"/>
    <tag k="building" v="yes"/>
    <tag k="cladr:code" v="77000000000703600"/>
  </way>
  <way id="52933371" version="4" timestamp="2011-04-20T12:57:07Z" uid="115477" user="wowik" changeset="7916018">
    <nd ref="670800260"/>
    <nd ref="670800313"/>
    <nd ref="670800315"/>
    <nd ref="670800308"/>
    <nd ref="670800311"/>
    <nd ref="670800309"/>
    <nd ref="670800260"/>
    <tag k="addr:city" v="Москва"/>
    <tag k="addr:country" v="RU"/>
    <tag k="addr:housenumber" v="3 с2"/>
    <tag k="addr:street" v="Георгиевский переулок"/>
    <tag k="building" v="yes"/>
    <tag k="cladr:code" v="77000000000107000"/>
  </way>
  <way id="52933372" version="4" timestamp="2011-04-20T12:57:44Z" uid="115477" user="wowik" changeset="7916018">
    <nd ref="670800265"/>
    <nd ref="670800263"/>
    <nd ref="670800262"/>
    <nd ref="670800267"/>
    <nd ref="670800265"/>
    <tag k="addr:city" v="Москва"/>
    <tag k="addr:country" v="RU"/>
    <tag k="addr:housenumber" v="3 с9"/>
    <tag k="addr:street" v="Камергерский переулок"/>
    <tag k="building" v="yes"/>
    <tag k="cladr:code" v="77000000000142900"/>
  </way>
  <way id="52933373" version="4" timestamp="2011-04-20T12:57:57Z" uid="115477" user="wowik" changeset="7916018">
    <nd ref="670800284"/>
    <nd ref="670800282"/>
    <nd ref="670800286"/>
    <nd ref="670800275"/>
    <nd ref="670800284"/>
    <tag k="addr:city" v="Москва"/>
    <tag k="addr:country" v="RU"/>
    <tag k="addr:housenumber" v="3 с8"/>
    <tag k="addr:street" v="Камергерский переулок"/>
    <tag k="building" v="yes"/>
    <tag k="cladr:code" v="77000000000142900"/>
  </way>
  <way id="52933374" version="2" timestamp="2011-04-20T12:59:44Z" uid="115477" user="wowik" changeset="7916018">
    <nd ref="594987213"/>
    <nd ref="670800269"/>
    <nd ref="670800273"/>
    <nd ref="670800271"/>
    <nd ref="670800288"/>
    <nd ref="670800290"/>
    <nd ref="670800293"/>
    <nd ref="670800291"/>
    <nd ref="670800295"/>
    <nd ref="594987249"/>
    <nd ref="594987213"/>
    <tag k="addr:city" v="Москва"/>
    <tag k="addr:country" v="RU"/>
    <tag k="building" v="yes"/>
  </way>
  <way id="52933375" version="2" timestamp="2011-04-20T12:59:50Z" uid="115477" user="wowik" changeset="7916018">
    <nd ref="670800297"/>
    <nd ref="670800299"/>
    <nd ref="670800300"/>
    <nd ref="670800302"/>
    <nd ref="670800304"/>
    <nd ref="594987249"/>
    <nd ref="670800295"/>
    <nd ref="670800297"/>
    <tag k="addr:city" v="Москва"/>
    <tag k="addr:country" v="RU"/>
    <tag k="building" v="yes"/>
  </way>
  <way id="52933376" version="4" timestamp="2011-04-20T12:57:10Z" uid="115477" user="wowik" changeset="7916018">
    <nd ref="670800440"/>
    <nd ref="670800447"/>
    <nd ref="670800435"/>
    <nd ref="670800436"/>
    <nd ref="670800486"/>
    <nd ref="670800488"/>
    <nd ref="670800490"/>
    <nd ref="670800492"/>
    <nd ref="670800494"/>
    <nd ref="670800495"/>
    <nd ref="670800497"/>
    <nd ref="670800477"/>
    <nd ref="670800479"/>
    <nd ref="670800422"/>
    <nd ref="670800444"/>
    <nd ref="670800440"/>
    <tag k="FIXME" v="addr:housenumber Нестандартный и/или странный адрес. Проверить и/или привести к стандарту http://wiki.osm.org/RU:Key:addr"/>
    <tag k="addr:city" v="Москва"/>
    <tag k="addr:country" v="RU"/>
    <tag k="addr:housenumber" v="2-4 с6"/>
    <tag k="addr:street" v="Столешников переулок"/>
    <tag k="building" v="yes"/>
    <tag k="cladr:code" v="77000000000060200"/>
  </way>
  <way id="52933377" version="4" timestamp="2011-04-20T12:57:22Z" uid="115477" user="wowik" changeset="7916018">
    <nd ref="670800429"/>
    <nd ref="670800481"/>
    <nd ref="670800483"/>
    <nd ref="670800484"/>
    <nd ref="670800464"/>
    <nd ref="670800465"/>
    <nd ref="670800467"/>
    <nd ref="670800460"/>
    <nd ref="670800462"/>
    <nd ref="670800469"/>
    <nd ref="670800455"/>
    <nd ref="670800451"/>
    <nd ref="670800433"/>
    <nd ref="670800431"/>
    <nd ref="670800429"/>
    <tag k="FIXME" v="addr:housenumber Нестандартный и/или странный адрес. Проверить и/или привести к стандарту http://wiki.osm.org/RU:Key:addr"/>
    <tag k="addr:city" v="Москва"/>
    <tag k="addr:country" v="RU"/>
    <tag k="addr:housenumber" v="2-4 с3"/>
    <tag k="addr:street" v="Столешников переулок"/>
    <tag k="building" v="yes"/>
    <tag k="cladr:code" v="77000000000060200"/>
  </way>
  <way id="52933378" version="2" timestamp="2011-04-20T13:00:02Z" uid="115477" user="wowik" changeset="7916018">
    <nd ref="670800380"/>
    <nd ref="670800378"/>
    <nd ref="670800321"/>
    <nd ref="670800318"/>
    <nd ref="670800380"/>
    <tag k="addr:city" v="Москва"/>
    <tag k="addr:country" v="RU"/>
    <tag k="building" v="yes"/>
  </way>
  <way id="52933379" version="2" timestamp="2011-04-20T12:59:29Z" uid="115477" user="wowik" changeset="7916018">
    <nd ref="353150553"/>
    <nd ref="670800381"/>
    <nd ref="670800366"/>
    <nd ref="670800368"/>
    <nd ref="670800360"/>
    <nd ref="353150553"/>
    <tag k="addr:city" v="Москва"/>
    <tag k="addr:country" v="RU"/>
    <tag k="building" v="yes"/>
  </way>
  <way id="52933380" version="3" timestamp="2011-04-20T12:57:37Z" uid="115477" user="wowik" changeset="7916018">
    <nd ref="670800366"/>
    <nd ref="670800374"/>
    <nd ref="670800372"/>
    <nd ref="670800376"/>
    <nd ref="670800327"/>
    <nd ref="670800326"/>
    <nd ref="670800370"/>
    <nd ref="670800339"/>
    <nd ref="670800341"/>
    <nd ref="670800362"/>
    <nd ref="670800343"/>
    <nd ref="670800364"/>
    <nd ref="670800368"/>
    <nd ref="670800366"/>
    <tag k="addr:city" v="Москва"/>
    <tag k="addr:country" v="RU"/>
    <tag k="addr:housenumber" v="15"/>
    <tag k="addr:street" v="Тверская улица"/>
    <tag k="building" v="yes"/>
    <tag k="cladr:code" v="77000000000287700"/>
  </way>
  <way id="52933382" version="3" timestamp="2011-04-20T12:57:15Z" uid="115477" user="wowik" changeset="7916018">
    <nd ref="670800327"/>
    <nd ref="670800328"/>
    <nd ref="670800323"/>
    <nd ref="670800322"/>
    <nd ref="670800329"/>
    <nd ref="670800327"/>
    <tag k="addr:city" v="Москва"/>
    <tag k="addr:country" v="RU"/>
    <tag k="addr:housenumber" v="21"/>
    <tag k="addr:street" v="Вознесенский переулок"/>
    <tag k="building" v="yes"/>
    <tag k="cladr:code" v="77000000000716800"/>
  </way>
  <way id="52933384" version="3" timestamp="2011-04-20T12:56:53Z" uid="115477" user="wowik" changeset="7916018">
    <nd ref="670800336"/>
    <nd ref="670800338"/>
    <nd ref="670800331"/>
    <nd ref="670800316"/>
    <nd ref="670800345"/>
    <nd ref="670800330"/>
    <nd ref="670800334"/>
    <nd ref="670800335"/>
    <nd ref="670800325"/>
    <nd ref="670800324"/>
    <nd ref="670800333"/>
    <nd ref="670800332"/>
    <nd ref="670800336"/>
    <tag k="addr:city" v="Москва"/>
    <tag k="addr:country" v="RU"/>
    <tag k="addr:housenumber" v="26"/>
    <tag k="addr:street" v="Леонтьевский переулок"/>
    <tag k="building" v="yes"/>
    <tag k="cladr:code" v="77000000000713000"/>
  </way>
  <way id="52933385" version="2" timestamp="2011-04-20T12:59:32Z" uid="115477" user="wowik" changeset="7916018">
    <nd ref="670800383"/>
    <nd ref="670800408"/>
    <nd ref="670800400"/>
    <nd ref="670800391"/>
    <nd ref="670800385"/>
    <nd ref="670800383"/>
    <tag k="addr:city" v="Москва"/>
    <tag k="addr:country" v="RU"/>
    <tag k="building" v="yes"/>
  </way>
  <way id="52933387" version="2" timestamp="2011-04-20T12:59:59Z" uid="115477" user="wowik" changeset="7916018">
    <nd ref="670800444"/>
    <nd ref="670800422"/>
    <nd ref="670800409"/>
    <nd ref="670800442"/>
    <nd ref="670800444"/>
    <tag k="addr:city" v="Москва"/>
    <tag k="addr:country" v="RU"/>
    <tag k="building" v="yes"/>
  </way>
  <way id="52933389" version="2" timestamp="2011-04-20T12:59:47Z" uid="115477" user="wowik" changeset="7916018">
    <nd ref="670800438"/>
    <nd ref="670800440"/>
    <nd ref="670800444"/>
    <nd ref="670800442"/>
    <nd ref="670800446"/>
    <nd ref="670800406"/>
    <nd ref="670800402"/>
    <nd ref="670800438"/>
    <tag k="addr:city" v="Москва"/>
    <tag k="addr:country" v="RU"/>
    <tag k="building" v="yes"/>
  </way>
  <way id="52933390" version="4" timestamp="2011-04-20T12:57:00Z" uid="115477" user="wowik" changeset="7916018">
    <nd ref="670800400"/>
    <nd ref="670800408"/>
    <nd ref="670800406"/>
    <nd ref="670800446"/>
    <nd ref="670800404"/>
    <nd ref="670800411"/>
    <nd ref="670800413"/>
    <nd ref="670800415"/>
    <nd ref="670800417"/>
    <nd ref="670800418"/>
    <nd ref="670800398"/>
    <nd ref="670800400"/>
    <tag k="addr:city" v="Москва"/>
    <tag k="addr:country" v="RU"/>
    <tag k="addr:housenumber" v="6 с2"/>
    <tag k="addr:street" v="Тверская улица"/>
    <tag k="building" v="yes"/>
    <tag k="cladr:code" v="77000000000287700"/>
  </way>
  <way id="52933393" version="5" timestamp="2011-04-20T12:57:50Z" uid="115477" user="wowik" changeset="7916018">
    <nd ref="670800551"/>
    <nd ref="670800552"/>
    <nd ref="670800542"/>
    <nd ref="670800544"/>
    <nd ref="670800551"/>
    <tag k="addr:city" v="Москва"/>
    <tag k="addr:country" v="RU"/>
    <tag k="addr:housenumber" v="11 с2"/>
    <tag k="addr:street" v="улица Большая Дмитровка"/>
    <tag k="building" v="yes"/>
    <tag k="cladr:code" v="77000000000716700"/>
  </way>
  <way id="52933394" version="3" timestamp="2011-04-20T12:59:42Z" uid="115477" user="wowik" changeset="7916018">
    <nd ref="670800539"/>
    <nd ref="670800555"/>
    <nd ref="670800547"/>
    <nd ref="670800540"/>
    <nd ref="670800539"/>
    <tag k="addr:city" v="Москва"/>
    <tag k="addr:country" v="RU"/>
    <tag k="building" v="yes"/>
  </way>
  <way id="52933405" version="5" timestamp="2011-04-20T12:56:52Z" uid="115477" user="wowik" changeset="7916018">
    <nd ref="670800546"/>
    <nd ref="670800553"/>
    <nd ref="670800554"/>
    <nd ref="670800548"/>
    <nd ref="670800546"/>
    <tag k="addr:city" v="Москва"/>
    <tag k="addr:country" v="RU"/>
    <tag k="addr:housenumber" v="11 с3"/>
    <tag k="addr:street" v="улица Большая Дмитровка"/>
    <tag k="building" v="yes"/>
    <tag k="cladr:code" v="77000000000716700"/>
  </way>
  <way id="52933407" version="5" timestamp="2011-04-20T12:57:42Z" uid="115477" user="wowik" changeset="7916018">
    <nd ref="670800518"/>
    <nd ref="670800550"/>
    <nd ref="670800549"/>
    <nd ref="670800516"/>
    <nd ref="670800514"/>
    <nd ref="670800520"/>
    <nd ref="670800518"/>
    <tag k="addr:city" v="Москва"/>
    <tag k="addr:country" v="RU"/>
    <tag k="addr:housenumber" v="9 с7"/>
    <tag k="addr:street" v="улица Большая Дмитровка"/>
    <tag k="building" v="yes"/>
    <tag k="cladr:code" v="77000000000716700"/>
  </way>
  <way id="52933409" version="2" timestamp="2011-04-20T12:59:46Z" uid="115477" user="wowik" changeset="7916018">
    <nd ref="670800471"/>
    <nd ref="670800473"/>
    <nd ref="670800476"/>
    <nd ref="670800512"/>
    <nd ref="670800471"/>
    <tag k="addr:city" v="Москва"/>
    <tag k="addr:country" v="RU"/>
    <tag k="building" v="yes"/>
  </way>
  <way id="52933411" version="2" timestamp="2011-04-20T12:59:33Z" uid="115477" user="wowik" changeset="7916018">
    <nd ref="670800453"/>
    <nd ref="670800457"/>
    <nd ref="670800455"/>
    <nd ref="670800469"/>
    <nd ref="670800474"/>
    <nd ref="670800459"/>
    <nd ref="670800453"/>
    <tag k="addr:city" v="Москва"/>
    <tag k="addr:country" v="RU"/>
    <tag k="building" v="yes"/>
  </way>
  <way id="52933413" version="3" timestamp="2011-04-20T12:59:59Z" uid="115477" user="wowik" changeset="7916018">
    <nd ref="670800503"/>
    <nd ref="670800505"/>
    <nd ref="670800500"/>
    <nd ref="670800499"/>
    <nd ref="670800503"/>
    <tag k="addr:city" v="Москва"/>
    <tag k="addr:country" v="RU"/>
    <tag k="building" v="yes"/>
  </way>
</osm>
