<?xml version='1.0' encoding='UTF-8'?>
<osm version="0.6" generator="libosmium/2.20.0">
  <way id="53125578" version="2" timestamp="2010-07-07T10:18:17Z" uid="74617" user="JohnSmith" changeset="5156250">
    <nd ref="672430372"/>
    <nd ref="672430378"/>
    <nd ref="672430370"/>
    <nd ref="672430371"/>
    <nd ref="672430400"/>
    <nd ref="672430401"/>
    <tag k="highway" v="residential"/>
    <tag k="maxspeed" v="50"/>
    <tag k="maxspeed:source" v="default residential speed limit in Australia"/>
    <tag k="name" v="Batman Place"/>
  </way>
  <way id="53125580" version="2" timestamp="2010-07-07T10:18:27Z" uid="74617" user="JohnSmith" changeset="5156250">
    <nd ref="672430375"/>
    <nd ref="672430381"/>
    <nd ref="672430382"/>
    <nd ref="672430383"/>
    <nd ref="672430402"/>
    <nd ref="672430403"/>
    <nd ref="672430405"/>
    <tag k="highway" v="residential"/>
    <tag k="maxspeed" v="50"/>
    <tag k="maxspeed:source" v="default residential speed limit in Australia"/>
    <tag k="name" v="John Forrest Place"/>
  </way>
  <way id="53125581" version="2" timestamp="2010-07-07T10:18:47Z" uid="74617" user="JohnSmith" changeset="5156250">
    <nd ref="672430385"/>
    <nd ref="672430391"/>
    <nd ref="672430392"/>
    <nd ref="672430393"/>
    <nd ref="672430406"/>
    <tag k="highway" v="residential"/>
    <tag k="maxspeed" v="50"/>
    <tag k="maxspeed:source" v="default residential speed limit in Australia"/>
    <tag k="name" v="Leichhardt Place"/>
  </way>
  <way id="53125582" version="2" timestamp="2010-07-07T10:19:05Z" uid="74617" user="JohnSmith" changeset="5156250">
    <nd ref="672430396"/>
    <nd ref="672430395"/>
    <nd ref="672430407"/>
    <tag k="highway" v="residential"/>
    <tag k="maxspeed" v="50"/>
    <tag k="maxspeed:source" v="default residential speed limit in Australia"/>
    <tag k="name" v="Stuart Place"/>
  </way>
  <way id="53125583" version="2" timestamp="2010-07-07T10:19:21Z" uid="74617" user="JohnSmith" changeset="5156250">
    <nd ref="672415163"/>
    <nd ref="672430367"/>
    <nd ref="672430368"/>
    <nd ref="672430372"/>
    <nd ref="672430374"/>
    <nd ref="672430375"/>
    <nd ref="672430376"/>
    <nd ref="672430377"/>
    <nd ref="672430384"/>
    <nd ref="672430385"/>
    <nd ref="672430386"/>
    <nd ref="672430387"/>
    <nd ref="672430388"/>
    <nd ref="672430389"/>
    <nd ref="672430396"/>
    <nd ref="672430397"/>
    <nd ref="672430398"/>
    <nd ref="672430399"/>
    <nd ref="668766655"/>
    <tag k="highway" v="residential"/>
    <tag k="maxspeed" v="50"/>
    <tag k="maxspeed:source" v="default residential speed limit in Australia"/>
    <tag k="name" v="Canning Crescent"/>
  </way>
  <way id="53125584" version="2" timestamp="2010-07-07T10:19:01Z" uid="74617" user="JohnSmith" changeset="5156250">
    <nd ref="672430368"/>
    <nd ref="672430369"/>
    <tag k="highway" v="residential"/>
    <tag k="maxspeed" v="50"/>
    <tag k="maxspeed:source" v="default residential speed limit in Australia"/>
    <tag k="name" v="Hartog Place"/>
  </way>
  <way id="53125586" version="2" timestamp="2010-07-07T10:19:35Z" uid="74617" user="JohnSmith" changeset="5156250">
    <nd ref="672430374"/>
    <nd ref="672430380"/>
    <tag k="highway" v="residential"/>
    <tag k="maxspeed" v="50"/>
    <tag k="maxspeed:source" v="default residential speed limit in Australia"/>
    <tag k="name" v="Gosse Place"/>
  </way>
  <way id="53125587" version="2" timestamp="2010-07-07T10:17:58Z" uid="74617" user="JohnSmith" changeset="5156250">
    <nd ref="672430377"/>
    <nd ref="672430390"/>
    <tag k="highway" v="residential"/>
    <tag k="maxspeed" v="50"/>
    <tag k="maxspeed:source" v="default residential speed limit in Australia"/>
    <tag k="name" v="Dampier Place"/>
  </way>
</osm>
