<?xml version='1.0' encoding='UTF-8'?>
<osm version="0.6" generator="libosmium/2.20.0">
  <way id="53175366" version="1" timestamp="2010-03-23T19:29:08Z" uid="33382" user="de_muur" changeset="4215247">
    <nd ref="272265135"/>
    <nd ref="272265133"/>
    <tag k="highway" v="tertiary"/>
    <tag k="maxspeed" v="50"/>
    <tag k="name" v="Thedinghauser Straße"/>
    <tag k="ref" v="K 75"/>
    <tag k="surface" v="paved"/>
  </way>
  <way id="53175367" version="1" timestamp="2010-03-23T19:29:08Z" uid="33382" user="de_muur" changeset="4215247">
    <nd ref="296428373"/>
    <nd ref="254331562"/>
    <nd ref="254331560"/>
    <nd ref="97955371"/>
    <nd ref="305112704"/>
    <nd ref="97955384"/>
    <tag k="highway" v="tertiary"/>
    <tag k="name" v="Thedinghauser Straße"/>
    <tag k="ref" v="K 75"/>
    <tag k="surface" v="paved"/>
  </way>
  <way id="53175368" version="1" timestamp="2010-03-23T19:29:09Z" uid="33382" user="de_muur" changeset="4215247">
    <nd ref="257552745"/>
    <nd ref="296428373"/>
    <tag k="access" v="yes"/>
    <tag k="highway" v="track"/>
    <tag k="name" v="Großer Damm"/>
    <tag k="surface" v="paved"/>
    <tag k="tracktype" v="grade1"/>
  </way>
  <way id="53175369" version="1" timestamp="2010-03-23T19:29:09Z" uid="33382" user="de_muur" changeset="4215247">
    <nd ref="296428373"/>
    <nd ref="344894067"/>
    <nd ref="296429369"/>
    <nd ref="296428668"/>
    <nd ref="26334492"/>
    <nd ref="296428945"/>
    <nd ref="296428566"/>
    <nd ref="296428567"/>
    <nd ref="26334488"/>
    <nd ref="296428670"/>
    <nd ref="296428569"/>
    <nd ref="305112243"/>
    <nd ref="296428570"/>
    <nd ref="97955368"/>
    <tag k="access" v="yes"/>
    <tag k="highway" v="track"/>
    <tag k="name" v="Großer Damm"/>
    <tag k="surface" v="paved"/>
    <tag k="tracktype" v="grade1"/>
  </way>
  <way id="53175833" version="3" timestamp="2010-08-08T20:41:22Z" uid="17602" user="B10xyz" changeset="5437779"/>
  <way id="53175865" version="3" timestamp="2010-08-08T20:41:21Z" uid="17602" user="B10xyz" changeset="5437779">
    <nd ref="672875438"/>
    <nd ref="672875515"/>
    <nd ref="672875460"/>
    <nd ref="672875481"/>
    <nd ref="672875572"/>
    <nd ref="850012868"/>
    <nd ref="850012899"/>
    <nd ref="850012867"/>
    <nd ref="850012898"/>
    <nd ref="850012864"/>
    <nd ref="850012871"/>
    <nd ref="672875440"/>
    <nd ref="672875438"/>
    <tag k="building" v="apartments"/>
  </way>
</osm>
