<?xml version='1.0' encoding='UTF-8'?>
<osm version="0.6" generator="libosmium/2.20.0">
  <way id="5323006" version="6" timestamp="2010-07-08T20:17:08Z" uid="74617" user="JohnSmith" changeset="5168688">
    <nd ref="27409842"/>
    <nd ref="27409843"/>
    <nd ref="27409845"/>
    <tag k="highway" v="residential"/>
    <tag k="maxspeed" v="50"/>
    <tag k="maxspeed:source" v="default residential speed limit in Australia"/>
    <tag k="name" v="Noel Court"/>
  </way>
  <way id="5323008" version="3" timestamp="2010-07-08T20:16:36Z" uid="74617" user="JohnSmith" changeset="5168688">
    <nd ref="27409841"/>
    <nd ref="27409838"/>
    <nd ref="27409840"/>
    <tag k="highway" v="residential"/>
    <tag k="maxspeed" v="50"/>
    <tag k="maxspeed:source" v="default residential speed limit in Australia"/>
    <tag k="name" v="Monastery Close"/>
  </way>
  <way id="5323031" version="4" timestamp="2010-08-18T07:55:47Z" uid="4467" user="Rosscoe" changeset="5524146">
    <nd ref="37600620"/>
    <nd ref="37929200"/>
    <nd ref="37626323"/>
    <nd ref="37626164"/>
    <nd ref="37627987"/>
    <nd ref="37855828"/>
    <nd ref="864005796"/>
    <nd ref="37725034"/>
    <tag k="highway" v="tertiary"/>
    <tag k="name" v="W Chesapeake Avenue"/>
    <tag k="oneway" v="yes"/>
    <tag k="tiger:cfcc" v="A41"/>
    <tag k="tiger:county" v="Baltimore, MD"/>
    <tag k="tiger:name_base" v="Chesapeake"/>
    <tag k="tiger:name_direction_prefix" v="W"/>
    <tag k="tiger:name_type" v="Ave"/>
    <tag k="tiger:reviewed" v="no"/>
    <tag k="tiger:separated" v="no"/>
    <tag k="tiger:source" v="tiger_import_dch_v0.6_20070809"/>
    <tag k="tiger:tlid" v="191574830:191472840:191503459:191473286:191501559:191473321:191473322:191473325:191539669:191473337:191539670:191514439:191571238"/>
    <tag k="tiger:upload_uuid" v="bulk_upload.pl-287da949-18be-4db7-8647-b2ae61abe4c8"/>
    <tag k="tiger:zip_left" v="21204"/>
    <tag k="tiger:zip_right" v="21204"/>
  </way>
  <way id="5323043" version="4" timestamp="2010-07-09T02:45:20Z" uid="74617" user="JohnSmith" changeset="5170713">
    <nd ref="28783318"/>
    <nd ref="594642697"/>
    <nd ref="28783305"/>
    <tag k="highway" v="residential"/>
    <tag k="maxspeed" v="50"/>
    <tag k="maxspeed:source" v="default residential speed limit in Australia"/>
    <tag k="name" v="Magid Avenue"/>
    <tag k="oneway" v="yes"/>
  </way>
  <way id="5323044" version="4" timestamp="2010-07-09T02:45:53Z" uid="74617" user="JohnSmith" changeset="5170713">
    <nd ref="28783319"/>
    <nd ref="28783318"/>
    <tag k="highway" v="residential"/>
    <tag k="maxspeed" v="50"/>
    <tag k="maxspeed:source" v="default residential speed limit in Australia"/>
    <tag k="name" v="Magid Avenue"/>
    <tag k="oneway" v="yes"/>
  </way>
  <way id="5323142" version="16" timestamp="2009-08-13T02:03:05Z" uid="4467" user="Rosscoe" changeset="2125960">
    <nd ref="28164018"/>
    <nd ref="28164017"/>
    <nd ref="28164015"/>
    <nd ref="258239648"/>
    <nd ref="280210896"/>
    <nd ref="280210660"/>
    <nd ref="28163977"/>
    <nd ref="28163980"/>
    <nd ref="28163973"/>
    <nd ref="28163984"/>
    <nd ref="28163983"/>
    <nd ref="209602742"/>
    <nd ref="324955540"/>
    <nd ref="26583022"/>
    <tag k="highway" v="trunk"/>
    <tag k="name" v="Warrigal Road"/>
    <tag k="oneway" v="yes"/>
    <tag k="ref" v="S15"/>
  </way>
  <way id="5323142" version="29" timestamp="2010-07-30T05:22:37Z" uid="4467" user="Rosscoe" changeset="5351772">
    <nd ref="28164018"/>
    <nd ref="631473345"/>
    <nd ref="631473342"/>
    <nd ref="28164017"/>
    <nd ref="28164015"/>
    <nd ref="661041806"/>
    <nd ref="258239648"/>
    <nd ref="280210896"/>
    <nd ref="280210660"/>
    <nd ref="661041587"/>
    <nd ref="661041455"/>
    <nd ref="661042213"/>
    <nd ref="28163977"/>
    <nd ref="28163980"/>
    <nd ref="571482509"/>
    <nd ref="28163973"/>
    <nd ref="661041491"/>
    <nd ref="28163984"/>
    <nd ref="28163983"/>
    <nd ref="661041497"/>
    <nd ref="209602742"/>
    <nd ref="838175532"/>
    <nd ref="324955540"/>
    <nd ref="26583022"/>
    <tag k="highway" v="trunk"/>
    <tag k="name" v="Warrigal Road"/>
    <tag k="oneway" v="yes"/>
    <tag k="ref" v="S15"/>
  </way>
  <way id="5323142" version="34" timestamp="2011-01-15T13:41:28Z" uid="4467" user="Rosscoe" changeset="6977023">
    <nd ref="28164018"/>
    <nd ref="631473345"/>
    <nd ref="631473342"/>
    <nd ref="28164017"/>
    <nd ref="28164015"/>
    <nd ref="661041806"/>
    <nd ref="258239648"/>
    <nd ref="841675771"/>
    <nd ref="839670046"/>
    <nd ref="280210896"/>
    <nd ref="280210660"/>
    <nd ref="839670394"/>
    <nd ref="661041587"/>
    <nd ref="841676394"/>
    <nd ref="841676399"/>
    <nd ref="661041455"/>
    <nd ref="661042213"/>
    <nd ref="28163977"/>
    <nd ref="1104507422"/>
    <nd ref="28163980"/>
    <nd ref="571482509"/>
    <nd ref="28163973"/>
    <nd ref="661041491"/>
    <nd ref="28163984"/>
    <nd ref="28163983"/>
    <nd ref="661041497"/>
    <nd ref="209602742"/>
    <nd ref="838175532"/>
    <nd ref="324955540"/>
    <nd ref="26583022"/>
    <tag k="highway" v="trunk"/>
    <tag k="name" v="Warrigal Road"/>
    <tag k="oneway" v="yes"/>
    <tag k="ref" v="S15"/>
  </way>
  <way id="5323347" version="3" timestamp="2009-08-13T01:04:18Z" uid="4467" user="Rosscoe" changeset="2125668">
    <nd ref="27389969"/>
    <nd ref="27390256"/>
    <tag k="highway" v="residential"/>
    <tag k="name" v="Yanigin Drive"/>
    <tag k="osmarender:renderName" v="no"/>
  </way>
  <way id="5323347" version="5" timestamp="2010-07-09T02:50:31Z" uid="74617" user="JohnSmith" changeset="5170713">
    <nd ref="27389969"/>
    <nd ref="594316034"/>
    <nd ref="27390256"/>
    <tag k="highway" v="residential"/>
    <tag k="maxspeed" v="50"/>
    <tag k="maxspeed:source" v="default residential speed limit in Australia"/>
    <tag k="name" v="Yanigin Drive"/>
  </way>
  <way id="5323467" version="3" timestamp="2010-07-09T02:50:49Z" uid="74617" user="JohnSmith" changeset="5170713">
    <nd ref="26966566"/>
    <nd ref="26966634"/>
    <nd ref="26966633"/>
    <nd ref="26966632"/>
    <tag k="highway" v="residential"/>
    <tag k="maxspeed" v="50"/>
    <tag k="maxspeed:source" v="default residential speed limit in Australia"/>
    <tag k="name" v="Radleigh Drive"/>
  </way>
  <way id="5323468" version="4" timestamp="2010-07-09T02:51:40Z" uid="74617" user="JohnSmith" changeset="5170713">
    <nd ref="26966582"/>
    <nd ref="26966626"/>
    <nd ref="26966628"/>
    <nd ref="26966630"/>
    <nd ref="575998510"/>
    <nd ref="26966625"/>
    <nd ref="26966632"/>
    <nd ref="26966764"/>
    <tag k="highway" v="residential"/>
    <tag k="maxspeed" v="50"/>
    <tag k="maxspeed:source" v="default residential speed limit in Australia"/>
    <tag k="name" v="Radleigh Drive"/>
  </way>
  <way id="5323582" version="4" timestamp="2009-07-25T04:15:49Z" uid="74617" user="JohnSmith" changeset="1930637">
    <nd ref="266916104"/>
    <nd ref="27420742"/>
    <nd ref="27420741"/>
    <nd ref="27420740"/>
    <nd ref="27420730"/>
    <tag k="highway" v="secondary"/>
    <tag k="name" v="Police Road"/>
    <tag k="oneway" v="yes"/>
  </way>
  <way id="5323583" version="5" timestamp="2009-07-25T04:15:55Z" uid="74617" user="JohnSmith" changeset="1930637">
    <nd ref="27420730"/>
    <nd ref="27420733"/>
    <nd ref="27420734"/>
    <nd ref="246974309"/>
    <nd ref="27420735"/>
    <tag k="highway" v="secondary"/>
    <tag k="name" v="Police Road"/>
    <tag k="oneway" v="yes"/>
  </way>
  <way id="5323663" version="7" timestamp="2010-07-09T02:53:53Z" uid="74617" user="JohnSmith" changeset="5170713">
    <nd ref="32886077"/>
    <nd ref="32886104"/>
    <nd ref="32886076"/>
    <nd ref="755091161"/>
    <nd ref="32886086"/>
    <nd ref="32886753"/>
    <tag k="highway" v="residential"/>
    <tag k="maxspeed" v="50"/>
    <tag k="maxspeed:source" v="default residential speed limit in Australia"/>
    <tag k="name" v="Hansworth Street"/>
  </way>
  <way id="5323694" version="3" timestamp="2011-05-02T03:00:15Z" uid="4467" user="Rosscoe" changeset="8027441">
    <nd ref="37935270"/>
    <nd ref="37935285"/>
    <nd ref="37935296"/>
    <nd ref="37935316"/>
    <nd ref="1269977513"/>
    <nd ref="37935336"/>
    <nd ref="37935365"/>
    <nd ref="37935410"/>
    <nd ref="37935426"/>
    <nd ref="37935439"/>
    <nd ref="37935450"/>
    <nd ref="37935229"/>
    <nd ref="37935250"/>
    <nd ref="37935270"/>
    <tag k="amenity" v="school"/>
    <tag k="name" v="Dalkeith Primary School"/>
  </way>
  <way id="5323811" version="4" timestamp="2009-08-13T01:04:19Z" uid="4467" user="Rosscoe" changeset="2125668">
    <nd ref="27349203"/>
    <nd ref="27347668"/>
    <nd ref="31423166"/>
    <nd ref="27347567"/>
    <nd ref="27347557"/>
    <nd ref="31423119"/>
    <nd ref="27349200"/>
    <tag k="highway" v="primary"/>
    <tag k="name" v="Huntingdale Road"/>
    <tag k="osmarender:renderName" v="no"/>
  </way>
  <way id="5323811" version="5" timestamp="2010-04-06T07:27:04Z" uid="74617" user="JohnSmith" changeset="4340624">
    <nd ref="27349203"/>
    <nd ref="27347668"/>
    <nd ref="31423166"/>
    <nd ref="27347567"/>
    <nd ref="27347557"/>
    <nd ref="31423119"/>
    <nd ref="27349200"/>
    <tag k="highway" v="primary"/>
    <tag k="name" v="Huntingdale Road"/>
  </way>
  <way id="5323811" version="10" timestamp="2011-03-09T05:11:30Z" uid="4467" user="Rosscoe" changeset="7500679"/>
  <way id="5323813" version="6" timestamp="2009-08-13T01:04:20Z" uid="4467" user="Rosscoe" changeset="2125668">
    <nd ref="27349200"/>
    <nd ref="27350012"/>
    <nd ref="27349197"/>
    <nd ref="27349196"/>
    <nd ref="27349202"/>
    <nd ref="27349201"/>
    <nd ref="27349203"/>
    <tag k="highway" v="primary"/>
    <tag k="name" v="Huntingdale Road"/>
    <tag k="osmarender:renderName" v="no"/>
  </way>
  <way id="5323813" version="8" timestamp="2010-04-06T07:27:04Z" uid="74617" user="JohnSmith" changeset="4340624">
    <nd ref="27349200"/>
    <nd ref="27350012"/>
    <nd ref="27349197"/>
    <nd ref="27349196"/>
    <nd ref="668404184"/>
    <nd ref="27349202"/>
    <nd ref="27349201"/>
    <nd ref="27349203"/>
    <tag k="highway" v="primary"/>
    <tag k="name" v="Huntingdale Road"/>
  </way>
</osm>
