<?xml version='1.0' encoding='UTF-8'?>
<osm version="0.6" generator="libosmium/2.20.0">
  <way id="53284041" version="1" timestamp="2010-03-25T18:59:33Z" uid="9719" user="dvaey" changeset="4231070">
    <nd ref="674134333"/>
    <nd ref="674184818"/>
    <tag k="power" v="minor_line"/>
  </way>
  <way id="53284129" version="1" timestamp="2010-03-25T19:02:13Z" uid="33382" user="de_muur" changeset="4232009">
    <nd ref="674189244"/>
    <nd ref="674189242"/>
    <tag k="highway" v="track"/>
    <tag k="surface" v="unpaved"/>
    <tag k="tracktype" v="grade3"/>
  </way>
  <way id="53284130" version="1" timestamp="2010-03-25T19:02:13Z" uid="33382" user="de_muur" changeset="4232009">
    <nd ref="674189242"/>
    <nd ref="296391029"/>
    <tag k="highway" v="track"/>
    <tag k="surface" v="paved"/>
    <tag k="tracktype" v="grade1"/>
  </way>
  <way id="53284131" version="1" timestamp="2010-03-25T19:02:13Z" uid="33382" user="de_muur" changeset="4232009">
    <nd ref="296390962"/>
    <nd ref="296390963"/>
    <tag k="highway" v="track"/>
    <tag k="surface" v="paved"/>
    <tag k="tracktype" v="grade1"/>
  </way>
  <way id="53284132" version="1" timestamp="2010-03-25T19:02:13Z" uid="33382" user="de_muur" changeset="4232009">
    <nd ref="31196826"/>
    <nd ref="382021802"/>
    <nd ref="31196827"/>
    <nd ref="31196828"/>
    <nd ref="31196829"/>
    <nd ref="600063551"/>
    <tag k="highway" v="secondary"/>
    <tag k="maxspeed" v="70"/>
    <tag k="name" v="Syker Straße"/>
    <tag k="ref" v="L 354"/>
  </way>
  <way id="53284133" version="1" timestamp="2010-03-25T19:02:13Z" uid="33382" user="de_muur" changeset="4232009">
    <nd ref="31196824"/>
    <nd ref="31196825"/>
    <nd ref="31196826"/>
    <tag k="highway" v="secondary"/>
    <tag k="maxspeed" v="70"/>
    <tag k="name" v="Syker Straße"/>
    <tag k="ref" v="L 354"/>
    <tag k="surface" v="paved"/>
  </way>
  <way id="53284133" version="3" timestamp="2010-06-18T18:26:10Z" uid="33382" user="de_muur" changeset="5018299">
    <nd ref="31196824"/>
    <nd ref="31196825"/>
    <nd ref="31196826"/>
    <tag k="cycleway" v="track"/>
    <tag k="highway" v="secondary"/>
    <tag k="maxspeed" v="70"/>
    <tag k="name" v="Syker Straße"/>
    <tag k="ref" v="L 354"/>
    <tag k="surface" v="paved"/>
  </way>
  <way id="53284206" version="3" timestamp="2010-04-04T01:34:38Z" uid="20587" user="balrog-kun" changeset="4318254">
    <nd ref="674191548"/>
    <nd ref="674191565"/>
    <nd ref="674191569"/>
    <nd ref="674191570"/>
    <nd ref="674191571"/>
    <nd ref="674191575"/>
    <nd ref="674191578"/>
    <nd ref="674191582"/>
    <nd ref="674191585"/>
    <nd ref="674191590"/>
    <tag k="highway" v="residential"/>
    <tag k="name" v="Blue Water Avenue"/>
  </way>
  <way id="53284311" version="2" timestamp="2010-09-14T19:58:13Z" uid="43863" user="Rundling" changeset="5781668">
    <nd ref="674198512"/>
    <nd ref="674198588"/>
    <nd ref="674198594"/>
    <nd ref="674198596"/>
    <nd ref="674198600"/>
    <nd ref="674198603"/>
    <nd ref="674198605"/>
    <nd ref="674198607"/>
    <nd ref="674198608"/>
    <nd ref="674198610"/>
    <nd ref="674198612"/>
    <nd ref="674198613"/>
    <nd ref="674198615"/>
    <nd ref="674198596"/>
    <tag k="highway" v="track"/>
    <tag k="tracktype" v="grade4"/>
  </way>
  <way id="53284316" version="2" timestamp="2010-09-14T19:58:26Z" uid="43863" user="Rundling" changeset="5781668">
    <nd ref="674198509"/>
    <nd ref="674198489"/>
    <nd ref="674198499"/>
    <nd ref="674198483"/>
    <nd ref="486093918"/>
    <tag k="highway" v="track"/>
    <tag k="surface" v="ground"/>
    <tag k="tracktype" v="grade3"/>
  </way>
  <way id="53284319" version="2" timestamp="2010-09-14T19:58:11Z" uid="43863" user="Rundling" changeset="5781668">
    <nd ref="674198575"/>
    <nd ref="674198583"/>
    <nd ref="674198585"/>
    <nd ref="521895262"/>
    <tag k="highway" v="track"/>
    <tag k="tracktype" v="grade4"/>
  </way>
  <way id="53284325" version="3" timestamp="2010-09-14T19:58:14Z" uid="43863" user="Rundling" changeset="5781668">
    <nd ref="674198621"/>
    <nd ref="674198623"/>
    <tag k="layer" v="-1"/>
    <tag k="tunnel" v="yes"/>
    <tag k="waterway" v="stream"/>
    <tag k="width" v="0,5"/>
  </way>
  <way id="53284328" version="2" timestamp="2010-09-14T19:58:10Z" uid="43863" user="Rundling" changeset="5781668">
    <nd ref="674198523"/>
    <nd ref="674198524"/>
    <tag k="layer" v="-1"/>
    <tag k="tunnel" v="yes"/>
    <tag k="waterway" v="stream"/>
  </way>
  <way id="53284639" version="1" timestamp="2010-03-25T19:11:46Z" uid="33382" user="de_muur" changeset="4232115">
    <nd ref="97955388"/>
    <nd ref="296390863"/>
    <nd ref="674205728"/>
    <tag k="highway" v="tertiary"/>
    <tag k="name" v="Rieder Straße"/>
    <tag k="ref" v="K 60"/>
    <tag k="surface" v="asphalt"/>
  </way>
  <way id="53284640" version="1" timestamp="2010-03-25T19:11:48Z" uid="33382" user="de_muur" changeset="4232115">
    <nd ref="674205728"/>
    <nd ref="296390864"/>
    <nd ref="296390865"/>
    <nd ref="31196831"/>
    <tag k="highway" v="tertiary"/>
    <tag k="maxspeed" v="50"/>
    <tag k="name" v="Rieder Straße"/>
    <tag k="ref" v="K 60"/>
    <tag k="surface" v="asphalt"/>
  </way>
</osm>
