<?xml version='1.0' encoding='UTF-8'?>
<osm version="0.6" generator="libosmium/2.20.0">
  <way id="53399273" version="1" timestamp="2010-03-26T22:09:47Z" uid="6269" user="Mueck" changeset="4241754">
    <nd ref="675163809"/>
    <nd ref="675163940"/>
    <tag k="highway" v="footway"/>
  </way>
  <way id="53399695" version="2" timestamp="2010-07-25T07:27:26Z" uid="4467" user="Rosscoe" changeset="5309337">
    <nd ref="675188007"/>
    <nd ref="675200116"/>
    <tag k="bridge" v="yes"/>
    <tag k="construction" v="motorway"/>
    <tag k="highway" v="construction"/>
    <tag k="layer" v="1"/>
    <tag k="name" v="Northern Expressway"/>
    <tag k="oneway" v="yes"/>
    <tag k="ref" v="NH M20"/>
    <tag k="source" v="nearmap"/>
    <tag k="source_ref" v="http://osm.beldin.org/2008/11/dscf4648.jpg;http://osm.beldin.org/2008/11/dscf5057.jpg;http://osm.beldin.org/2008/11/dscf5058.jpg;http://osm.beldin.org/2008/12/dscf5193.jpg;http://osm.beldin.org/2008/12/dscf5194.jpg"/>
  </way>
  <way id="53399757" version="2" timestamp="2010-07-25T07:27:28Z" uid="4467" user="Rosscoe" changeset="5309337">
    <nd ref="675207090"/>
    <nd ref="675207102"/>
    <tag k="bridge" v="yes"/>
    <tag k="construction" v="motorway"/>
    <tag k="highway" v="construction"/>
    <tag k="layer" v="1"/>
    <tag k="name" v="Northern Expressway"/>
    <tag k="oneway" v="yes"/>
    <tag k="ref" v="NH M20"/>
    <tag k="source" v="nearmap"/>
    <tag k="source_ref" v="http://osm.beldin.org/2008/11/dscf4648.jpg;http://osm.beldin.org/2008/11/dscf5057.jpg;http://osm.beldin.org/2008/11/dscf5058.jpg;http://osm.beldin.org/2008/12/dscf5193.jpg;http://osm.beldin.org/2008/12/dscf5194.jpg"/>
  </way>
  <way id="53399971" version="2" timestamp="2010-04-02T17:59:28Z" uid="20587" user="balrog-kun" changeset="4304500">
    <nd ref="503695885"/>
    <nd ref="503695888"/>
    <nd ref="503695890"/>
    <nd ref="425910477"/>
    <nd ref="503695895"/>
    <nd ref="503695896"/>
    <nd ref="503695898"/>
    <tag k="highway" v="residential"/>
    <tag k="name" v="Northeast 132nd Place"/>
  </way>
  <way id="53399972" version="2" timestamp="2010-04-02T17:59:28Z" uid="20587" user="balrog-kun" changeset="4304500">
    <nd ref="503695898"/>
    <nd ref="503695900"/>
    <nd ref="503695903"/>
    <nd ref="503695905"/>
    <nd ref="503695906"/>
    <tag k="highway" v="residential"/>
    <tag k="name" v="230th Place Northeast"/>
  </way>
  <way id="53399973" version="2" timestamp="2010-04-02T17:59:28Z" uid="20587" user="balrog-kun" changeset="4304500">
    <nd ref="503695872"/>
    <nd ref="503695874"/>
    <nd ref="503695877"/>
    <nd ref="503695880"/>
    <nd ref="503695883"/>
    <nd ref="503695885"/>
    <tag k="highway" v="residential"/>
    <tag k="name" v="228th Place Northeast"/>
  </way>
  <way id="53399974" version="2" timestamp="2010-04-02T17:59:28Z" uid="20587" user="balrog-kun" changeset="4304500">
    <nd ref="675220941"/>
    <nd ref="675220952"/>
    <nd ref="675220954"/>
    <nd ref="675220956"/>
    <nd ref="675220957"/>
    <tag k="highway" v="residential"/>
    <tag k="name" v="Northeast 139th Court"/>
  </way>
  <way id="53399982" version="2" timestamp="2010-04-02T17:59:29Z" uid="20587" user="balrog-kun" changeset="4304500">
    <nd ref="53203354"/>
    <nd ref="675221246"/>
    <nd ref="675221256"/>
    <nd ref="675221264"/>
    <nd ref="675221276"/>
    <nd ref="675221029"/>
    <nd ref="675221281"/>
    <nd ref="675221283"/>
    <nd ref="675221286"/>
    <nd ref="675221291"/>
    <nd ref="675221297"/>
    <nd ref="675221306"/>
    <nd ref="675221310"/>
    <nd ref="675221315"/>
    <nd ref="675220985"/>
    <nd ref="675221320"/>
    <nd ref="675221324"/>
    <nd ref="675220941"/>
    <nd ref="675221328"/>
    <nd ref="675221342"/>
    <nd ref="675221345"/>
    <nd ref="675221348"/>
    <nd ref="675221351"/>
    <tag k="highway" v="residential"/>
    <tag k="name" v="Morgan Drive Northeast"/>
  </way>
  <way id="53399983" version="2" timestamp="2010-04-02T17:59:29Z" uid="20587" user="balrog-kun" changeset="4304500">
    <nd ref="675221286"/>
    <nd ref="675221366"/>
    <nd ref="675221372"/>
    <nd ref="675221375"/>
    <nd ref="675221378"/>
    <nd ref="675221379"/>
    <nd ref="675221382"/>
    <nd ref="675221385"/>
    <nd ref="675221389"/>
    <nd ref="675221115"/>
    <tag k="highway" v="residential"/>
    <tag k="name" v="Northeast Devon Way"/>
  </way>
  <way id="53399984" version="2" timestamp="2010-04-02T17:59:29Z" uid="20587" user="balrog-kun" changeset="4304500">
    <nd ref="675221246"/>
    <nd ref="675221385"/>
    <tag k="highway" v="residential"/>
    <tag k="name" v="231st Lane Northeast"/>
  </way>
  <way id="53399985" version="2" timestamp="2010-04-02T17:59:29Z" uid="20587" user="balrog-kun" changeset="4304500">
    <nd ref="675221310"/>
    <nd ref="675221426"/>
    <nd ref="675221429"/>
    <tag k="highway" v="residential"/>
    <tag k="name" v="Northeast 138th Court"/>
  </way>
</osm>
