<?xml version='1.0' encoding='UTF-8'?>
<osm version="0.6" generator="libosmium/2.20.0">
  <way id="5382353" version="10" timestamp="2008-12-08T15:36:28Z" uid="27600" user="Islanit" changeset="256442">
    <nd ref="38645866"/>
    <nd ref="52215980"/>
    <nd ref="317414098"/>
    <nd ref="302903490"/>
    <nd ref="38645837"/>
    <tag k="created_by" v="Potlatch 0.10d"/>
    <tag k="highway" v="residential"/>
    <tag k="maxspeed" v="50"/>
    <tag k="name" v="Erich-Weinert-Siedlung"/>
    <tag k="postal_code" v="15517"/>
  </way>
  <way id="5382353" version="11" timestamp="2008-12-08T15:49:12Z" uid="27600" user="Islanit" changeset="256442">
    <nd ref="38645866"/>
    <nd ref="52215980"/>
    <nd ref="317414098"/>
    <nd ref="302903490"/>
    <nd ref="38645814"/>
    <tag k="created_by" v="Potlatch 0.10d"/>
    <tag k="highway" v="residential"/>
    <tag k="maxspeed" v="50"/>
    <tag k="name" v="Erich-Weinert-Siedlung"/>
    <tag k="postal_code" v="15517"/>
  </way>
  <way id="5382353" version="12" timestamp="2008-12-08T22:07:50Z" uid="27600" user="Islanit" changeset="263827">
    <nd ref="38645991"/>
    <nd ref="52215980"/>
    <nd ref="59253778"/>
    <nd ref="317414098"/>
    <nd ref="302903490"/>
    <nd ref="38645814"/>
    <tag k="created_by" v="Potlatch 0.10d"/>
    <tag k="highway" v="residential"/>
    <tag k="maxspeed" v="50"/>
    <tag k="name" v="Erich-Weinert-Siedlung"/>
    <tag k="postal_code" v="15517"/>
  </way>
  <way id="5382355" version="11" timestamp="2008-12-08T22:07:51Z" uid="27600" user="Islanit" changeset="263827">
    <nd ref="38645991"/>
    <nd ref="38646014"/>
    <nd ref="294186373"/>
    <nd ref="38646027"/>
    <nd ref="52218046"/>
    <tag k="created_by" v="Potlatch 0.10d"/>
    <tag k="highway" v="secondary"/>
    <tag k="maxspeed" v="50"/>
    <tag k="name" v="Rauener Straße"/>
    <tag k="postal_code" v="15517"/>
    <tag k="ref" v="L 361"/>
  </way>
  <way id="5382360" version="10" timestamp="2008-12-08T22:08:13Z" uid="27600" user="Islanit" changeset="263827">
    <nd ref="38646546"/>
    <nd ref="38646482"/>
    <nd ref="38646441"/>
    <nd ref="38646424"/>
    <nd ref="38646377"/>
    <nd ref="38646512"/>
    <nd ref="38646433"/>
    <nd ref="38646392"/>
    <nd ref="38646461"/>
    <nd ref="38646494"/>
    <nd ref="38646404"/>
    <nd ref="38646454"/>
    <nd ref="38646408"/>
    <nd ref="38646406"/>
    <nd ref="38646446"/>
    <nd ref="38646489"/>
    <nd ref="38646382"/>
    <tag k="created_by" v="Potlatch 0.10d"/>
    <tag k="highway" v="residential"/>
    <tag k="name" v="Lise-Meitner-Straße"/>
  </way>
  <way id="5382365" version="2" timestamp="2008-12-08T22:08:13Z" uid="27600" user="Islanit" changeset="263827">
    <nd ref="38646713"/>
    <nd ref="38646772"/>
    <nd ref="38646695"/>
    <nd ref="38646689"/>
    <nd ref="38646782"/>
    <nd ref="38506015"/>
    <tag k="created_by" v="JOSM"/>
    <tag k="highway" v="unclassified"/>
  </way>
  <way id="5382939" version="3" timestamp="2010-03-21T17:24:25Z" uid="20587" user="balrog-kun" changeset="4191243">
    <nd ref="38656654"/>
    <nd ref="38656656"/>
    <tag k="highway" v="tertiary"/>
    <tag k="name" v="Best Road Northwest"/>
    <tag k="tiger:cfcc" v="A41"/>
    <tag k="tiger:county" v="Polk, OR"/>
    <tag k="tiger:reviewed" v="no"/>
    <tag k="tiger:separated" v="no"/>
    <tag k="tiger:source" v="tiger_import_dch_v0.6_20070808"/>
    <tag k="tiger:tlid" v="155772932"/>
  </way>
</osm>
