<?xml version='1.0' encoding='UTF-8'?>
<osm version="0.6" generator="libosmium/2.20.0">
  <way id="53832605" version="1" timestamp="2010-04-01T06:48:09Z" uid="244897" user="M526244" changeset="4291449">
    <nd ref="679648532"/>
    <nd ref="679648533"/>
    <nd ref="679648534"/>
    <nd ref="679648535"/>
    <nd ref="679648536"/>
    <nd ref="679648537"/>
    <nd ref="679648538"/>
    <nd ref="679648539"/>
    <nd ref="679648540"/>
    <nd ref="679648541"/>
    <nd ref="679648542"/>
    <tag k="highway" v="residential"/>
    <tag k="name" v="Pinnacle Row"/>
    <tag k="source" v="survey"/>
  </way>
  <way id="53832605" version="2" timestamp="2010-07-07T07:17:58Z" uid="74617" user="JohnSmith" changeset="5156250">
    <nd ref="679648532"/>
    <nd ref="679648533"/>
    <nd ref="679648534"/>
    <nd ref="679648535"/>
    <nd ref="679648536"/>
    <nd ref="679648537"/>
    <nd ref="679648538"/>
    <nd ref="679648539"/>
    <nd ref="679648540"/>
    <nd ref="679648541"/>
    <nd ref="679648542"/>
    <tag k="highway" v="residential"/>
    <tag k="maxspeed" v="50"/>
    <tag k="maxspeed:source" v="default residential speed limit in Australia"/>
    <tag k="name" v="Pinnacle Row"/>
    <tag k="source" v="survey"/>
  </way>
  <way id="53832606" version="1" timestamp="2010-04-01T06:48:10Z" uid="244897" user="M526244" changeset="4291449">
    <nd ref="679648533"/>
    <nd ref="679648544"/>
    <tag k="highway" v="residential"/>
    <tag k="name" v="Pinnacle Row"/>
    <tag k="source" v="survey"/>
  </way>
  <way id="53832606" version="2" timestamp="2010-07-07T07:16:51Z" uid="74617" user="JohnSmith" changeset="5156250">
    <nd ref="679648533"/>
    <nd ref="679648544"/>
    <tag k="highway" v="residential"/>
    <tag k="maxspeed" v="50"/>
    <tag k="maxspeed:source" v="default residential speed limit in Australia"/>
    <tag k="name" v="Pinnacle Row"/>
    <tag k="source" v="survey"/>
  </way>
  <way id="53832607" version="1" timestamp="2010-04-01T06:48:10Z" uid="244897" user="M526244" changeset="4291449">
    <nd ref="679648545"/>
    <nd ref="679648546"/>
    <nd ref="679648547"/>
    <nd ref="679648548"/>
    <nd ref="679648544"/>
    <nd ref="679648549"/>
    <nd ref="679648550"/>
    <nd ref="679648551"/>
    <tag k="highway" v="residential"/>
    <tag k="name" v="Dress Circle Drive"/>
  </way>
  <way id="53832607" version="2" timestamp="2010-06-01T08:22:50Z" uid="244897" user="M526244" changeset="4872051">
    <nd ref="679648545"/>
    <nd ref="679648546"/>
    <nd ref="761123569"/>
    <nd ref="679648547"/>
    <nd ref="679648548"/>
    <nd ref="679648544"/>
    <nd ref="679648549"/>
    <nd ref="679648550"/>
    <nd ref="679648551"/>
    <tag k="highway" v="residential"/>
    <tag k="name" v="Dress Circle Drive"/>
    <tag k="source" v="survey"/>
  </way>
  <way id="53832607" version="3" timestamp="2010-07-07T07:15:52Z" uid="74617" user="JohnSmith" changeset="5156250">
    <nd ref="679648545"/>
    <nd ref="679648546"/>
    <nd ref="761123569"/>
    <nd ref="679648547"/>
    <nd ref="679648548"/>
    <nd ref="679648544"/>
    <nd ref="679648549"/>
    <nd ref="679648550"/>
    <nd ref="679648551"/>
    <tag k="highway" v="residential"/>
    <tag k="maxspeed" v="50"/>
    <tag k="maxspeed:source" v="default residential speed limit in Australia"/>
    <tag k="name" v="Dress Circle Drive"/>
    <tag k="source" v="survey"/>
  </way>
  <way id="53832608" version="1" timestamp="2010-04-01T06:48:11Z" uid="244897" user="M526244" changeset="4291449">
    <nd ref="679648549"/>
    <nd ref="679648553"/>
    <nd ref="679648554"/>
    <nd ref="679648555"/>
    <nd ref="679648545"/>
    <nd ref="26010224"/>
    <tag k="highway" v="residential"/>
    <tag k="name" v="Allen&apos;s Parade"/>
    <tag k="source" v="survey"/>
  </way>
  <way id="53832608" version="2" timestamp="2010-06-01T08:22:50Z" uid="244897" user="M526244" changeset="4872051">
    <nd ref="679648549"/>
    <nd ref="679648553"/>
    <nd ref="761123567"/>
    <nd ref="679648554"/>
    <nd ref="679648555"/>
    <nd ref="679648545"/>
    <nd ref="761123568"/>
    <nd ref="26010224"/>
    <tag k="highway" v="residential"/>
    <tag k="name" v="Allen&apos;s Parade"/>
    <tag k="source" v="survey"/>
  </way>
  <way id="53832608" version="3" timestamp="2010-07-07T07:17:03Z" uid="74617" user="JohnSmith" changeset="5156250">
    <nd ref="679648549"/>
    <nd ref="679648553"/>
    <nd ref="761123567"/>
    <nd ref="679648554"/>
    <nd ref="679648555"/>
    <nd ref="679648545"/>
    <nd ref="761123568"/>
    <nd ref="26010224"/>
    <tag k="highway" v="residential"/>
    <tag k="maxspeed" v="50"/>
    <tag k="maxspeed:source" v="default residential speed limit in Australia"/>
    <tag k="name" v="Allen&apos;s Parade"/>
    <tag k="source" v="survey"/>
  </way>
  <way id="53832614" version="1" timestamp="2010-04-01T06:50:18Z" uid="74617" user="JohnSmith" changeset="4291360">
    <nd ref="679648703"/>
    <nd ref="60108612"/>
    <nd ref="60108725"/>
    <tag k="highway" v="trunk"/>
    <tag k="maxspeed" v="60"/>
    <tag k="name" v="Davies Road"/>
    <tag k="oneway" v="yes"/>
    <tag k="source:name" v="knowledge"/>
  </way>
  <way id="53832614" version="2" timestamp="2010-04-28T04:00:09Z" uid="4467" user="Rosscoe" changeset="4546352">
    <nd ref="679648703"/>
    <nd ref="709769202"/>
    <nd ref="60108612"/>
    <nd ref="60108725"/>
    <tag k="highway" v="trunk"/>
    <tag k="maxspeed" v="60"/>
    <tag k="name" v="Davies Road"/>
    <tag k="oneway" v="yes"/>
    <tag k="source:name" v="knowledge"/>
  </way>
  <way id="53832710" version="6" timestamp="2011-06-06T17:02:10Z" uid="9581" user="Lobelt" changeset="8362109">
    <nd ref="679650231"/>
    <nd ref="1314268172"/>
    <tag k="bridge" v="yes"/>
    <tag k="fixme" v="too rough"/>
    <tag k="highway" v="motorway"/>
    <tag k="layer" v="1"/>
    <tag k="name" v="太祁高速"/>
    <tag k="name:en" v="Taiqi  Expressway"/>
    <tag k="oneway" v="yes"/>
    <tag k="ref" v="G5"/>
    <tag k="source" v="GPS"/>
  </way>
  <way id="53832712" version="4" timestamp="2011-06-06T17:02:07Z" uid="9581" user="Lobelt" changeset="8362109">
    <nd ref="641376881"/>
    <nd ref="679650236"/>
    <nd ref="683796052"/>
    <nd ref="683796051"/>
    <nd ref="679650237"/>
    <nd ref="679650238"/>
    <nd ref="679650239"/>
    <nd ref="683796042"/>
    <nd ref="679650222"/>
    <nd ref="683796037"/>
    <nd ref="683796029"/>
    <nd ref="679650223"/>
    <nd ref="683796030"/>
    <nd ref="679650224"/>
    <nd ref="679650225"/>
    <nd ref="683796015"/>
    <nd ref="679650226"/>
    <nd ref="683796014"/>
    <nd ref="679650227"/>
    <nd ref="679650228"/>
    <nd ref="1314267177"/>
    <nd ref="679650229"/>
    <nd ref="1314267748"/>
    <nd ref="1314268077"/>
    <nd ref="1314266956"/>
    <nd ref="679650230"/>
    <nd ref="1314267340"/>
    <nd ref="1314267922"/>
    <nd ref="1314268248"/>
    <nd ref="1314267131"/>
    <nd ref="1314267534"/>
    <nd ref="1314268405"/>
    <nd ref="1314267109"/>
    <nd ref="1314267683"/>
    <nd ref="1314268042"/>
    <nd ref="1314266889"/>
    <nd ref="1314267266"/>
    <nd ref="1314267847"/>
    <nd ref="679650231"/>
    <tag k="fixme" v="too rough"/>
    <tag k="highway" v="motorway"/>
    <tag k="name" v="太祁高速"/>
    <tag k="name:en" v="Taiqi  Expressway"/>
    <tag k="oneway" v="yes"/>
    <tag k="ref" v="G5"/>
    <tag k="source" v="GPS"/>
  </way>
  <way id="53832923" version="1" timestamp="2010-04-01T07:04:14Z" uid="74617" user="JohnSmith" changeset="4291360">
    <nd ref="639578888"/>
    <nd ref="339591662"/>
    <nd ref="639578869"/>
    <nd ref="305327666"/>
    <nd ref="639578930"/>
    <nd ref="639578890"/>
    <tag k="highway" v="trunk"/>
    <tag k="maxspeed" v="60"/>
    <tag k="name" v="New Illawarra Road"/>
    <tag k="oneway" v="yes"/>
    <tag k="source" v="nearmap"/>
  </way>
</osm>
