<?xml version='1.0' encoding='UTF-8'?>
<osm version="0.6" generator="libosmium/2.20.0">
  <way id="53950638" version="1" timestamp="2010-04-01T23:46:59Z" uid="244897" user="M526244" changeset="4299116">
    <nd ref="680681012"/>
    <nd ref="680681015"/>
    <nd ref="680681017"/>
    <nd ref="680681020"/>
    <nd ref="680681022"/>
    <tag k="highway" v="tertiary"/>
    <tag k="name" v="White&apos;s Lane"/>
    <tag k="source" v="survey"/>
    <tag k="surface" v="gravel"/>
  </way>
  <way id="53950642" version="1" timestamp="2010-04-01T23:47:00Z" uid="244897" user="M526244" changeset="4299116">
    <nd ref="680681022"/>
    <nd ref="680681030"/>
    <nd ref="680681032"/>
    <nd ref="680681034"/>
    <nd ref="680681037"/>
    <nd ref="680681040"/>
    <nd ref="249624437"/>
    <nd ref="680681042"/>
    <nd ref="680681045"/>
    <nd ref="680681047"/>
    <tag k="highway" v="tertiary"/>
    <tag k="name" v="Rous Cemetary Road"/>
    <tag k="source" v="survey"/>
  </way>
  <way id="53950656" version="1" timestamp="2010-04-01T23:47:04Z" uid="244897" user="M526244" changeset="4299116">
    <nd ref="680681123"/>
    <nd ref="680681126"/>
    <nd ref="680681129"/>
    <nd ref="680681132"/>
    <nd ref="680681136"/>
    <nd ref="680681139"/>
    <nd ref="680681148"/>
    <nd ref="680681149"/>
    <nd ref="661710115"/>
    <tag k="highway" v="residential"/>
    <tag k="name" v="Maple Drive"/>
    <tag k="source" v="survey"/>
  </way>
  <way id="53950656" version="2" timestamp="2010-04-07T08:28:53Z" uid="244897" user="M526244" changeset="4352495">
    <nd ref="680681123"/>
    <nd ref="680681126"/>
    <nd ref="687311169"/>
    <nd ref="680681129"/>
    <nd ref="680681132"/>
    <nd ref="680681136"/>
    <nd ref="680681139"/>
    <nd ref="680681148"/>
    <nd ref="680681149"/>
    <nd ref="661710115"/>
    <tag k="highway" v="residential"/>
    <tag k="name" v="Maple Drive"/>
    <tag k="source" v="survey"/>
  </way>
  <way id="53950656" version="3" timestamp="2010-07-07T07:18:00Z" uid="74617" user="JohnSmith" changeset="5156250">
    <nd ref="680681123"/>
    <nd ref="680681126"/>
    <nd ref="687311169"/>
    <nd ref="680681129"/>
    <nd ref="680681132"/>
    <nd ref="680681136"/>
    <nd ref="680681139"/>
    <nd ref="680681148"/>
    <nd ref="680681149"/>
    <nd ref="661710115"/>
    <tag k="highway" v="residential"/>
    <tag k="maxspeed" v="50"/>
    <tag k="maxspeed:source" v="default residential speed limit in Australia"/>
    <tag k="name" v="Maple Drive"/>
    <tag k="source" v="survey"/>
  </way>
  <way id="53950658" version="1" timestamp="2010-04-01T23:47:04Z" uid="244897" user="M526244" changeset="4299116">
    <nd ref="661710110"/>
    <nd ref="680681158"/>
    <nd ref="680681160"/>
    <tag k="FIXME" v="incomplete"/>
    <tag k="highway" v="residential"/>
    <tag k="name" v="Ashland Street"/>
    <tag k="source" v="survey"/>
  </way>
  <way id="53950658" version="2" timestamp="2010-04-04T00:05:13Z" uid="244897" user="M526244" changeset="4318402">
    <nd ref="661710110"/>
    <nd ref="680681160"/>
    <nd ref="683703673"/>
    <tag k="FIXME" v="incomplete"/>
    <tag k="highway" v="residential"/>
    <tag k="name" v="Ashland Street"/>
    <tag k="source" v="survey"/>
  </way>
  <way id="53950658" version="3" timestamp="2010-04-07T08:28:52Z" uid="244897" user="M526244" changeset="4352495">
    <nd ref="661710110"/>
    <nd ref="680681160"/>
    <nd ref="683703673"/>
    <nd ref="687311169"/>
    <tag k="highway" v="residential"/>
    <tag k="name" v="Ashland Street"/>
    <tag k="source" v="survey"/>
  </way>
  <way id="53950658" version="4" timestamp="2010-07-07T07:15:55Z" uid="74617" user="JohnSmith" changeset="5156250">
    <nd ref="661710110"/>
    <nd ref="680681160"/>
    <nd ref="683703673"/>
    <nd ref="687311169"/>
    <tag k="highway" v="residential"/>
    <tag k="maxspeed" v="50"/>
    <tag k="maxspeed:source" v="default residential speed limit in Australia"/>
    <tag k="name" v="Ashland Street"/>
    <tag k="source" v="survey"/>
  </way>
  <way id="53950659" version="1" timestamp="2010-04-01T23:47:04Z" uid="244897" user="M526244" changeset="4299116">
    <nd ref="680681162"/>
    <nd ref="680681163"/>
    <nd ref="680681164"/>
    <tag k="FIXME" v="incomplete"/>
    <tag k="highway" v="residential"/>
    <tag k="name" v="Kyla Street"/>
    <tag k="source" v="survey"/>
  </way>
  <way id="53950659" version="2" timestamp="2010-04-04T00:05:14Z" uid="244897" user="M526244" changeset="4318402">
    <nd ref="680681162"/>
    <nd ref="680681163"/>
    <nd ref="680681164"/>
    <nd ref="683703675"/>
    <nd ref="683703676"/>
    <nd ref="683703677"/>
    <nd ref="683703656"/>
    <nd ref="683703678"/>
    <nd ref="683703679"/>
    <nd ref="683703681"/>
    <nd ref="683703673"/>
    <tag k="highway" v="residential"/>
    <tag k="name" v="Kyla Street"/>
    <tag k="source" v="survey"/>
  </way>
  <way id="53950659" version="3" timestamp="2010-07-07T07:19:48Z" uid="74617" user="JohnSmith" changeset="5156250">
    <nd ref="680681162"/>
    <nd ref="680681163"/>
    <nd ref="680681164"/>
    <nd ref="683703675"/>
    <nd ref="683703676"/>
    <nd ref="683703677"/>
    <nd ref="683703656"/>
    <nd ref="683703678"/>
    <nd ref="683703679"/>
    <nd ref="683703681"/>
    <nd ref="683703673"/>
    <tag k="highway" v="residential"/>
    <tag k="maxspeed" v="50"/>
    <tag k="maxspeed:source" v="default residential speed limit in Australia"/>
    <tag k="name" v="Kyla Street"/>
    <tag k="source" v="survey"/>
  </way>
  <way id="53950660" version="1" timestamp="2010-04-01T23:47:04Z" uid="244897" user="M526244" changeset="4299116">
    <nd ref="680681164"/>
    <nd ref="680681165"/>
    <nd ref="680681160"/>
    <tag k="FIXME" v="incomplete"/>
    <tag k="highway" v="residential"/>
    <tag k="name" v="Short Street"/>
    <tag k="source" v="survey"/>
  </way>
  <way id="53950660" version="2" timestamp="2010-04-04T00:05:13Z" uid="244897" user="M526244" changeset="4318402">
    <nd ref="680681164"/>
    <nd ref="680681165"/>
    <nd ref="680681160"/>
    <tag k="highway" v="residential"/>
    <tag k="name" v="Short Street"/>
    <tag k="source" v="survey"/>
  </way>
  <way id="53950660" version="3" timestamp="2010-07-07T07:17:13Z" uid="74617" user="JohnSmith" changeset="5156250">
    <nd ref="680681164"/>
    <nd ref="680681165"/>
    <nd ref="680681160"/>
    <tag k="highway" v="residential"/>
    <tag k="maxspeed" v="50"/>
    <tag k="maxspeed:source" v="default residential speed limit in Australia"/>
    <tag k="name" v="Short Street"/>
    <tag k="source" v="survey"/>
  </way>
  <way id="53950661" version="1" timestamp="2010-04-01T23:47:05Z" uid="244897" user="M526244" changeset="4299116">
    <nd ref="680681168"/>
    <nd ref="680681169"/>
    <nd ref="680681170"/>
    <nd ref="680681171"/>
    <tag k="highway" v="service"/>
    <tag k="note" v="Detour associated with Alstonville Bypass contruction (2009/2010/?)"/>
  </way>
  <way id="53950662" version="1" timestamp="2010-04-01T23:47:07Z" uid="244897" user="M526244" changeset="4299116">
    <nd ref="680681178"/>
    <nd ref="658959920"/>
    <nd ref="658959921"/>
    <nd ref="658959922"/>
    <nd ref="644155635"/>
    <tag k="highway" v="residential"/>
    <tag k="name" v="Cascade Crescent"/>
  </way>
  <way id="53950662" version="2" timestamp="2010-07-07T07:20:13Z" uid="74617" user="JohnSmith" changeset="5156250">
    <nd ref="680681178"/>
    <nd ref="658959920"/>
    <nd ref="658959921"/>
    <nd ref="658959922"/>
    <nd ref="644155635"/>
    <tag k="highway" v="residential"/>
    <tag k="maxspeed" v="50"/>
    <tag k="maxspeed:source" v="default residential speed limit in Australia"/>
    <tag k="name" v="Cascade Crescent"/>
  </way>
  <way id="53950663" version="1" timestamp="2010-04-01T23:47:07Z" uid="244897" user="M526244" changeset="4299116">
    <nd ref="680681183"/>
    <nd ref="680681184"/>
    <nd ref="680681186"/>
    <tag k="highway" v="residential"/>
    <tag k="name" v="Hillburn Place"/>
    <tag k="source" v="survey"/>
  </way>
  <way id="53950663" version="2" timestamp="2010-07-07T07:19:02Z" uid="74617" user="JohnSmith" changeset="5156250">
    <nd ref="680681183"/>
    <nd ref="680681184"/>
    <nd ref="680681186"/>
    <tag k="highway" v="residential"/>
    <tag k="maxspeed" v="50"/>
    <tag k="maxspeed:source" v="default residential speed limit in Australia"/>
    <tag k="name" v="Hillburn Place"/>
    <tag k="source" v="survey"/>
  </way>
  <way id="53950664" version="1" timestamp="2010-04-01T23:47:07Z" uid="244897" user="M526244" changeset="4299116">
    <nd ref="680681188"/>
    <nd ref="680681189"/>
    <nd ref="680681190"/>
    <tag k="highway" v="residential"/>
    <tag k="name" v="Rosedale Place"/>
    <tag k="source" v="survey"/>
  </way>
  <way id="53950664" version="2" timestamp="2010-07-07T07:16:26Z" uid="74617" user="JohnSmith" changeset="5156250">
    <nd ref="680681188"/>
    <nd ref="680681189"/>
    <nd ref="680681190"/>
    <tag k="highway" v="residential"/>
    <tag k="maxspeed" v="50"/>
    <tag k="maxspeed:source" v="default residential speed limit in Australia"/>
    <tag k="name" v="Rosedale Place"/>
    <tag k="source" v="survey"/>
  </way>
</osm>
