<?xml version='1.0' encoding='UTF-8'?>
<osm version="0.6" generator="libosmium/2.20.0">
  <way id="54013205" version="3" timestamp="2010-07-06T18:41:15Z" uid="74617" user="JohnSmith" changeset="5152225">
    <nd ref="681096882"/>
    <nd ref="681096888"/>
    <nd ref="681096890"/>
    <nd ref="681096905"/>
    <nd ref="681096907"/>
    <nd ref="681096909"/>
    <nd ref="681096862"/>
    <nd ref="681096866"/>
    <nd ref="681096867"/>
    <tag k="highway" v="residential"/>
    <tag k="maxspeed" v="50"/>
    <tag k="maxspeed:source" v="default residential speed limit in Australia"/>
    <tag k="name" v="Laura Court"/>
    <tag k="surface" v="paved"/>
  </way>
  <way id="54013208" version="5" timestamp="2010-07-06T18:39:22Z" uid="74617" user="JohnSmith" changeset="5152225">
    <nd ref="681096976"/>
    <nd ref="681096915"/>
    <nd ref="681096917"/>
    <nd ref="681096918"/>
    <nd ref="681096960"/>
    <nd ref="681096962"/>
    <nd ref="681096964"/>
    <nd ref="681096966"/>
    <nd ref="681096967"/>
    <nd ref="681096968"/>
    <nd ref="681096929"/>
    <nd ref="681096930"/>
    <nd ref="681096931"/>
    <nd ref="681096932"/>
    <nd ref="681096933"/>
    <nd ref="681096935"/>
    <nd ref="681096937"/>
    <nd ref="681096925"/>
    <nd ref="681096926"/>
    <nd ref="681096927"/>
    <tag k="highway" v="residential"/>
    <tag k="maxspeed" v="50"/>
    <tag k="maxspeed:source" v="default residential speed limit in Australia"/>
    <tag k="name" v="Kookaburra Crescent"/>
    <tag k="surface" v="paved"/>
  </way>
  <way id="54013210" version="3" timestamp="2010-07-06T18:37:04Z" uid="74617" user="JohnSmith" changeset="5152225">
    <nd ref="681096977"/>
    <nd ref="681096978"/>
    <nd ref="681096980"/>
    <nd ref="681096971"/>
    <nd ref="681096969"/>
    <tag k="highway" v="residential"/>
    <tag k="maxspeed" v="50"/>
    <tag k="maxspeed:source" v="default residential speed limit in Australia"/>
    <tag k="name" v="Academy Court"/>
    <tag k="surface" v="paved"/>
  </way>
  <way id="54013211" version="3" timestamp="2010-07-06T18:38:12Z" uid="74617" user="JohnSmith" changeset="5152225">
    <nd ref="681096982"/>
    <nd ref="681096984"/>
    <tag k="highway" v="residential"/>
    <tag k="maxspeed" v="50"/>
    <tag k="maxspeed:source" v="default residential speed limit in Australia"/>
    <tag k="name" v="Sylvan Court"/>
    <tag k="surface" v="paved"/>
  </way>
  <way id="54013212" version="3" timestamp="2010-07-06T18:34:31Z" uid="74617" user="JohnSmith" changeset="5152225">
    <nd ref="681096878"/>
    <nd ref="681096880"/>
    <nd ref="681096871"/>
    <tag k="highway" v="residential"/>
    <tag k="maxspeed" v="50"/>
    <tag k="maxspeed:source" v="default residential speed limit in Australia"/>
    <tag k="name" v="Lauren Court"/>
    <tag k="surface" v="paved"/>
  </way>
  <way id="54013213" version="3" timestamp="2010-07-06T18:35:43Z" uid="74617" user="JohnSmith" changeset="5152225">
    <nd ref="681096886"/>
    <nd ref="681096882"/>
    <nd ref="681096883"/>
    <nd ref="681096884"/>
    <nd ref="681096885"/>
    <tag k="highway" v="residential"/>
    <tag k="maxspeed" v="50"/>
    <tag k="maxspeed:source" v="default residential speed limit in Australia"/>
    <tag k="name" v="Jacqueline Street"/>
    <tag k="surface" v="paved"/>
  </way>
  <way id="54013214" version="3" timestamp="2010-07-06T18:39:58Z" uid="74617" user="JohnSmith" changeset="5152225">
    <nd ref="681096907"/>
    <nd ref="681096911"/>
    <tag k="highway" v="residential"/>
    <tag k="maxspeed" v="50"/>
    <tag k="maxspeed:source" v="default residential speed limit in Australia"/>
    <tag k="name" v="Madison Court"/>
    <tag k="surface" v="paved"/>
  </way>
  <way id="54013215" version="3" timestamp="2010-07-06T18:40:49Z" uid="74617" user="JohnSmith" changeset="5152225">
    <nd ref="681096892"/>
    <nd ref="681096894"/>
    <nd ref="681096895"/>
    <nd ref="681096896"/>
    <nd ref="681096913"/>
    <tag k="highway" v="residential"/>
    <tag k="maxspeed" v="50"/>
    <tag k="maxspeed:source" v="default residential speed limit in Australia"/>
    <tag k="name" v="Rebecca Court"/>
    <tag k="surface" v="paved"/>
  </way>
  <way id="54013216" version="3" timestamp="2010-07-06T18:40:12Z" uid="74617" user="JohnSmith" changeset="5152225">
    <nd ref="681096894"/>
    <nd ref="681096897"/>
    <tag k="highway" v="residential"/>
    <tag k="maxspeed" v="50"/>
    <tag k="maxspeed:source" v="default residential speed limit in Australia"/>
    <tag k="name" v="Daniel Street"/>
    <tag k="surface" v="paved"/>
  </way>
  <way id="54013217" version="3" timestamp="2010-07-06T18:41:04Z" uid="74617" user="JohnSmith" changeset="5152225">
    <nd ref="681096899"/>
    <nd ref="681096875"/>
    <tag k="highway" v="residential"/>
    <tag k="maxspeed" v="50"/>
    <tag k="maxspeed:source" v="default residential speed limit in Australia"/>
    <tag k="name" v="Carolann Street"/>
    <tag k="surface" v="paved"/>
  </way>
  <way id="54013219" version="3" timestamp="2010-07-06T18:39:12Z" uid="74617" user="JohnSmith" changeset="5152225">
    <nd ref="681096901"/>
    <nd ref="681096903"/>
    <tag k="highway" v="residential"/>
    <tag k="maxspeed" v="50"/>
    <tag k="maxspeed:source" v="default residential speed limit in Australia"/>
    <tag k="name" v="Lanbar Court"/>
    <tag k="surface" v="paved"/>
  </way>
  <way id="54013220" version="3" timestamp="2010-07-06T18:35:32Z" uid="74617" user="JohnSmith" changeset="5152225">
    <nd ref="681096937"/>
    <nd ref="681096955"/>
    <nd ref="681096957"/>
    <nd ref="681096958"/>
    <nd ref="681096919"/>
    <nd ref="681096920"/>
    <nd ref="681096921"/>
    <nd ref="681096922"/>
    <nd ref="681096923"/>
    <nd ref="681096924"/>
    <tag k="highway" v="residential"/>
    <tag k="maxspeed" v="50"/>
    <tag k="maxspeed:source" v="default residential speed limit in Australia"/>
    <tag k="name" v="Skyline Drive"/>
    <tag k="surface" v="paved"/>
  </way>
  <way id="54013222" version="3" timestamp="2010-07-06T18:40:39Z" uid="74617" user="JohnSmith" changeset="5152225">
    <nd ref="681096927"/>
    <nd ref="681096928"/>
    <nd ref="681096973"/>
    <tag k="highway" v="residential"/>
    <tag k="maxspeed" v="50"/>
    <tag k="maxspeed:source" v="default residential speed limit in Australia"/>
    <tag k="name" v="Ramsey Street"/>
    <tag k="surface" v="paved"/>
  </way>
  <way id="54013223" version="3" timestamp="2010-07-06T18:34:13Z" uid="74617" user="JohnSmith" changeset="5152225">
    <nd ref="681096975"/>
    <nd ref="681096959"/>
    <tag k="highway" v="residential"/>
    <tag k="maxspeed" v="50"/>
    <tag k="maxspeed:source" v="default residential speed limit in Australia"/>
    <tag k="name" v="Ash Court"/>
    <tag k="surface" v="paved"/>
  </way>
  <way id="54013224" version="2" timestamp="2010-06-02T03:51:04Z" uid="4467" user="Rosscoe" changeset="4880447">
    <nd ref="681096987"/>
    <nd ref="681096988"/>
    <nd ref="681096990"/>
    <nd ref="681096992"/>
    <nd ref="681096994"/>
    <nd ref="681096996"/>
    <nd ref="681096998"/>
    <nd ref="681097004"/>
    <tag k="cutting" v="yes"/>
    <tag k="highway" v="unclassified"/>
    <tag k="name" v="Mansell Street"/>
  </way>
  <way id="54013226" version="2" timestamp="2010-06-02T00:53:20Z" uid="4467" user="Rosscoe" changeset="4879901">
    <nd ref="681096986"/>
    <nd ref="362128426"/>
    <nd ref="681096998"/>
    <tag k="highway" v="unclassified"/>
    <tag k="name" v="Eyers Street"/>
  </way>
  <way id="54013227" version="2" timestamp="2010-06-01T08:10:38Z" uid="4467" user="Rosscoe" changeset="4872544">
    <nd ref="681096990"/>
    <nd ref="681096999"/>
    <nd ref="681097000"/>
    <tag k="highway" v="unclassified"/>
    <tag k="name" v="Hile Court"/>
  </way>
  <way id="54013229" version="2" timestamp="2010-06-01T14:03:53Z" uid="4467" user="Rosscoe" changeset="4874822">
    <nd ref="681096988"/>
    <nd ref="681097002"/>
    <tag k="highway" v="unclassified"/>
    <tag k="name" v="Tews Court"/>
  </way>
</osm>
