<?xml version='1.0' encoding='UTF-8'?>
<osm version="0.6" generator="libosmium/2.20.0">
  <way id="54034944" version="2" timestamp="2010-04-05T12:35:48Z" uid="20587" user="balrog-kun" changeset="4332433">
    <nd ref="681283363"/>
    <nd ref="681283345"/>
    <nd ref="681283346"/>
    <tag k="highway" v="residential"/>
    <tag k="name" v="Excelsior Dr North Frontage Road"/>
    <tag k="source" v="usgs_imagery"/>
  </way>
  <way id="54034957" version="2" timestamp="2010-04-05T12:35:48Z" uid="20587" user="balrog-kun" changeset="4332433">
    <nd ref="681283347"/>
    <nd ref="681283348"/>
    <tag k="highway" v="residential"/>
    <tag k="name" v="Excelsior Dr North Frontage Road"/>
    <tag k="source" v="usgs_imagery"/>
  </way>
  <way id="54034967" version="2" timestamp="2010-04-05T12:35:48Z" uid="20587" user="balrog-kun" changeset="4332433">
    <nd ref="681283370"/>
    <nd ref="681283366"/>
    <nd ref="681283367"/>
    <tag k="highway" v="residential"/>
    <tag k="name" v="Excelsior Dr North Frontage Road"/>
    <tag k="source" v="usgs_imagery"/>
  </way>
  <way id="54034968" version="2" timestamp="2010-04-05T12:35:48Z" uid="20587" user="balrog-kun" changeset="4332433">
    <nd ref="681283368"/>
    <nd ref="681283369"/>
    <nd ref="681283360"/>
    <nd ref="681283361"/>
    <nd ref="681283362"/>
    <tag k="highway" v="residential"/>
    <tag k="name" v="Excelsior Dr North Frontage Road"/>
    <tag k="source" v="usgs_imagery"/>
  </way>
</osm>
