<?xml version='1.0' encoding='UTF-8'?>
<osm version="0.6" generator="libosmium/2.20.0">
  <way id="54058722" version="2" timestamp="2010-10-03T19:00:52Z" uid="9581" user="Lobelt" changeset="5947483">
    <nd ref="681766301"/>
    <nd ref="247272304"/>
    <nd ref="247272305"/>
    <tag k="agricultural" v="yes"/>
    <tag k="hgv" v="destination"/>
    <tag k="highway" v="tertiary"/>
    <tag k="maxspeed" v="100"/>
    <tag k="ref" v="K 37"/>
  </way>
  <way id="54058725" version="3" timestamp="2010-10-03T19:01:00Z" uid="9581" user="Lobelt" changeset="5947483">
    <nd ref="247272305"/>
    <nd ref="681766322"/>
    <tag k="agricultural" v="yes"/>
    <tag k="hgv" v="destination"/>
    <tag k="highway" v="tertiary"/>
    <tag k="ref" v="K 37"/>
  </way>
  <way id="54058879" version="2" timestamp="2010-10-03T19:00:55Z" uid="9581" user="Lobelt" changeset="5947483">
    <nd ref="681815358"/>
    <nd ref="681766427"/>
    <nd ref="937052032"/>
    <nd ref="681766313"/>
    <nd ref="937051999"/>
    <nd ref="681766414"/>
    <nd ref="681766407"/>
    <tag k="access" v="designated"/>
    <tag k="highway" v="residential"/>
    <tag k="name" v="Am Waldesrand"/>
    <tag k="surface" v="asphalt"/>
  </way>
</osm>
