<?xml version='1.0' encoding='UTF-8'?>
<osm version="0.6" generator="libosmium/2.20.0">
  <way id="54148107" version="1" timestamp="2010-04-03T07:59:20Z" uid="7617" user="Franc" changeset="4310344">
    <nd ref="683068261"/>
    <nd ref="31435195"/>
    <nd ref="31435194"/>
    <nd ref="29414715"/>
    <nd ref="26637172"/>
    <tag k="highway" v="unclassified"/>
    <tag k="name" v="Spring Street"/>
    <tag k="source" v="yahoo_imagery"/>
  </way>
  <way id="54148108" version="1" timestamp="2010-04-03T07:59:21Z" uid="7617" user="Franc" changeset="4310344">
    <nd ref="26637625"/>
    <nd ref="17853384"/>
    <nd ref="26361305"/>
    <nd ref="26361310"/>
    <nd ref="17853385"/>
    <nd ref="683068293"/>
    <nd ref="683068291"/>
    <nd ref="683068292"/>
    <nd ref="17853386"/>
    <nd ref="601195892"/>
    <nd ref="26637612"/>
    <nd ref="60286983"/>
    <tag k="highway" v="secondary"/>
    <tag k="name" v="West Botany Street"/>
  </way>
  <way id="54148109" version="1" timestamp="2010-04-03T07:59:21Z" uid="7617" user="Franc" changeset="4310344">
    <nd ref="683068253"/>
    <nd ref="31435205"/>
    <nd ref="601195790"/>
    <nd ref="291748419"/>
    <nd ref="31293044"/>
    <tag k="highway" v="residential"/>
    <tag k="name" v="Terry Street"/>
  </way>
  <way id="54148109" version="2" timestamp="2010-07-08T02:54:56Z" uid="74617" user="JohnSmith" changeset="5163091">
    <nd ref="683068253"/>
    <nd ref="31435205"/>
    <nd ref="601195790"/>
    <nd ref="291748419"/>
    <nd ref="31293044"/>
    <tag k="highway" v="residential"/>
    <tag k="maxspeed" v="50"/>
    <tag k="maxspeed:source" v="default residential speed limit in Australia"/>
    <tag k="name" v="Terry Street"/>
  </way>
  <way id="54148109" version="3" timestamp="2011-04-26T13:35:08Z" uid="7617" user="Franc" changeset="7974869">
    <nd ref="683068253"/>
    <nd ref="31435205"/>
    <nd ref="291748419"/>
    <tag k="highway" v="residential"/>
    <tag k="maxspeed" v="50"/>
    <tag k="maxspeed:source" v="default residential speed limit in Australia"/>
    <tag k="name" v="Terry Street"/>
  </way>
  <way id="54148110" version="1" timestamp="2010-04-03T07:59:21Z" uid="7617" user="Franc" changeset="4310344">
    <nd ref="683068236"/>
    <nd ref="29414750"/>
    <nd ref="29414579"/>
    <nd ref="29414656"/>
    <nd ref="29414587"/>
    <tag k="highway" v="residential"/>
    <tag k="name" v="Marinea Street"/>
    <tag k="source" v="survey"/>
  </way>
  <way id="54148110" version="2" timestamp="2010-07-08T02:53:13Z" uid="74617" user="JohnSmith" changeset="5163091">
    <nd ref="683068236"/>
    <nd ref="29414750"/>
    <nd ref="29414579"/>
    <nd ref="29414656"/>
    <nd ref="29414587"/>
    <tag k="highway" v="residential"/>
    <tag k="maxspeed" v="50"/>
    <tag k="maxspeed:source" v="default residential speed limit in Australia"/>
    <tag k="name" v="Marinea Street"/>
    <tag k="source" v="survey"/>
  </way>
  <way id="54148110" version="3" timestamp="2010-10-23T04:21:34Z" uid="7617" user="Franc" changeset="6142011">
    <nd ref="683068236"/>
    <nd ref="29414750"/>
    <nd ref="29414579"/>
    <nd ref="961118189"/>
    <tag k="highway" v="residential"/>
    <tag k="maxspeed" v="50"/>
    <tag k="maxspeed:source" v="default residential speed limit in Australia"/>
    <tag k="name" v="Marinea Street"/>
    <tag k="source" v="survey"/>
  </way>
  <way id="54148111" version="1" timestamp="2010-04-03T07:59:21Z" uid="7617" user="Franc" changeset="4310344">
    <nd ref="683068267"/>
    <nd ref="29414734"/>
    <nd ref="29414576"/>
    <nd ref="683068281"/>
    <tag k="highway" v="residential"/>
    <tag k="name" v="Segenhoe Street"/>
  </way>
  <way id="54148111" version="2" timestamp="2010-07-08T02:53:48Z" uid="74617" user="JohnSmith" changeset="5163091">
    <nd ref="683068267"/>
    <nd ref="29414734"/>
    <nd ref="29414576"/>
    <nd ref="683068281"/>
    <tag k="highway" v="residential"/>
    <tag k="maxspeed" v="50"/>
    <tag k="maxspeed:source" v="default residential speed limit in Australia"/>
    <tag k="name" v="Segenhoe Street"/>
  </way>
  <way id="54148112" version="1" timestamp="2010-04-03T07:59:21Z" uid="7617" user="Franc" changeset="4310344">
    <nd ref="683068275"/>
    <nd ref="250282072"/>
    <nd ref="250283921"/>
    <nd ref="683068251"/>
    <tag k="highway" v="residential"/>
    <tag k="name" v="Terry Street"/>
  </way>
  <way id="54148112" version="2" timestamp="2010-07-08T02:54:34Z" uid="74617" user="JohnSmith" changeset="5163091">
    <nd ref="683068275"/>
    <nd ref="250282072"/>
    <nd ref="250283921"/>
    <nd ref="683068251"/>
    <tag k="highway" v="residential"/>
    <tag k="maxspeed" v="50"/>
    <tag k="maxspeed:source" v="default residential speed limit in Australia"/>
    <tag k="name" v="Terry Street"/>
  </way>
  <way id="54148113" version="1" timestamp="2010-04-03T07:59:21Z" uid="7617" user="Franc" changeset="4310344">
    <nd ref="683068253"/>
    <nd ref="683068254"/>
    <nd ref="683068255"/>
    <nd ref="683068256"/>
    <nd ref="683068236"/>
    <nd ref="683068247"/>
    <nd ref="683068248"/>
    <nd ref="683068249"/>
    <nd ref="683068251"/>
    <nd ref="683068252"/>
    <nd ref="683068237"/>
    <nd ref="683068238"/>
    <nd ref="683068239"/>
    <nd ref="683068240"/>
    <nd ref="683068241"/>
    <nd ref="683068242"/>
    <nd ref="683068243"/>
    <nd ref="683068244"/>
    <nd ref="683068245"/>
    <nd ref="683068257"/>
    <nd ref="683068253"/>
    <tag k="highway" v="residential"/>
    <tag k="junction" v="roundabout"/>
    <tag k="source" v="nearmap"/>
  </way>
  <way id="54148113" version="2" timestamp="2010-07-08T02:55:09Z" uid="74617" user="JohnSmith" changeset="5163091">
    <nd ref="683068253"/>
    <nd ref="683068254"/>
    <nd ref="683068255"/>
    <nd ref="683068256"/>
    <nd ref="683068236"/>
    <nd ref="683068247"/>
    <nd ref="683068248"/>
    <nd ref="683068249"/>
    <nd ref="683068251"/>
    <nd ref="683068252"/>
    <nd ref="683068237"/>
    <nd ref="683068238"/>
    <nd ref="683068239"/>
    <nd ref="683068240"/>
    <nd ref="683068241"/>
    <nd ref="683068242"/>
    <nd ref="683068243"/>
    <nd ref="683068244"/>
    <nd ref="683068245"/>
    <nd ref="683068257"/>
    <nd ref="683068253"/>
    <tag k="highway" v="residential"/>
    <tag k="junction" v="roundabout"/>
    <tag k="maxspeed" v="50"/>
    <tag k="maxspeed:source" v="default residential speed limit in Australia"/>
    <tag k="source" v="nearmap"/>
  </way>
  <way id="54148114" version="1" timestamp="2010-04-03T07:59:22Z" uid="7617" user="Franc" changeset="4310344">
    <nd ref="683068258"/>
    <nd ref="683068260"/>
    <nd ref="683068261"/>
    <nd ref="683068262"/>
    <nd ref="683068263"/>
    <nd ref="683068264"/>
    <nd ref="683068265"/>
    <nd ref="683068266"/>
    <nd ref="683068258"/>
    <tag k="highway" v="residential"/>
    <tag k="junction" v="roundabout"/>
    <tag k="source" v="nearmap"/>
  </way>
  <way id="54148114" version="2" timestamp="2010-07-08T02:53:24Z" uid="74617" user="JohnSmith" changeset="5163091">
    <nd ref="683068258"/>
    <nd ref="683068260"/>
    <nd ref="683068261"/>
    <nd ref="683068262"/>
    <nd ref="683068263"/>
    <nd ref="683068264"/>
    <nd ref="683068265"/>
    <nd ref="683068266"/>
    <nd ref="683068258"/>
    <tag k="highway" v="residential"/>
    <tag k="junction" v="roundabout"/>
    <tag k="maxspeed" v="50"/>
    <tag k="maxspeed:source" v="default residential speed limit in Australia"/>
    <tag k="source" v="nearmap"/>
  </way>
  <way id="54148115" version="1" timestamp="2010-04-03T07:59:22Z" uid="7617" user="Franc" changeset="4310344">
    <nd ref="683068267"/>
    <nd ref="683068268"/>
    <nd ref="683068270"/>
    <nd ref="683068271"/>
    <nd ref="683068273"/>
    <nd ref="683068274"/>
    <nd ref="683068275"/>
    <nd ref="683068276"/>
    <nd ref="683068267"/>
    <tag k="highway" v="residential"/>
    <tag k="junction" v="roundabout"/>
    <tag k="source" v="nearmap"/>
  </way>
  <way id="54148115" version="2" timestamp="2010-07-08T02:53:59Z" uid="74617" user="JohnSmith" changeset="5163091">
    <nd ref="683068267"/>
    <nd ref="683068268"/>
    <nd ref="683068270"/>
    <nd ref="683068271"/>
    <nd ref="683068273"/>
    <nd ref="683068274"/>
    <nd ref="683068275"/>
    <nd ref="683068276"/>
    <nd ref="683068267"/>
    <tag k="highway" v="residential"/>
    <tag k="junction" v="roundabout"/>
    <tag k="maxspeed" v="50"/>
    <tag k="maxspeed:source" v="default residential speed limit in Australia"/>
    <tag k="source" v="nearmap"/>
  </way>
  <way id="54148116" version="1" timestamp="2010-04-03T07:59:22Z" uid="7617" user="Franc" changeset="4310344">
    <nd ref="683068279"/>
    <nd ref="15183195"/>
    <tag k="highway" v="secondary"/>
    <tag k="name" v="Somerville Street"/>
    <tag k="restriction" v="school_zone"/>
  </way>
  <way id="54148117" version="1" timestamp="2010-04-03T07:59:22Z" uid="7617" user="Franc" changeset="4310344">
    <nd ref="683068284"/>
    <nd ref="29414599"/>
    <tag k="highway" v="residential"/>
    <tag k="name" v="Segenhoe Street"/>
  </way>
  <way id="54148117" version="2" timestamp="2010-07-08T02:54:44Z" uid="74617" user="JohnSmith" changeset="5163091">
    <nd ref="683068284"/>
    <nd ref="29414599"/>
    <tag k="highway" v="residential"/>
    <tag k="maxspeed" v="50"/>
    <tag k="maxspeed:source" v="default residential speed limit in Australia"/>
    <tag k="name" v="Segenhoe Street"/>
  </way>
  <way id="54148118" version="1" timestamp="2010-04-03T07:59:22Z" uid="7617" user="Franc" changeset="4310344">
    <nd ref="683068283"/>
    <nd ref="29414585"/>
    <tag k="highway" v="residential"/>
    <tag k="name" v="Avenal Street"/>
    <tag k="restriction" v="school_zone"/>
  </way>
  <way id="54148118" version="2" timestamp="2010-07-08T02:55:40Z" uid="74617" user="JohnSmith" changeset="5163091">
    <nd ref="683068283"/>
    <nd ref="29414585"/>
    <tag k="highway" v="residential"/>
    <tag k="maxspeed" v="50"/>
    <tag k="maxspeed:source" v="default residential speed limit in Australia"/>
    <tag k="name" v="Avenal Street"/>
    <tag k="restriction" v="school_zone"/>
  </way>
  <way id="54148119" version="1" timestamp="2010-04-03T07:59:22Z" uid="7617" user="Franc" changeset="4310344">
    <nd ref="683068281"/>
    <nd ref="29414585"/>
    <nd ref="29414602"/>
    <nd ref="29414603"/>
    <nd ref="683068284"/>
    <tag k="highway" v="residential"/>
    <tag k="name" v="Segenhoe Street"/>
    <tag k="restriction" v="school_zone"/>
  </way>
  <way id="54148119" version="2" timestamp="2010-07-08T02:53:35Z" uid="74617" user="JohnSmith" changeset="5163091">
    <nd ref="683068281"/>
    <nd ref="29414585"/>
    <nd ref="29414602"/>
    <nd ref="29414603"/>
    <nd ref="683068284"/>
    <tag k="highway" v="residential"/>
    <tag k="maxspeed" v="50"/>
    <tag k="maxspeed:source" v="default residential speed limit in Australia"/>
    <tag k="name" v="Segenhoe Street"/>
    <tag k="restriction" v="school_zone"/>
  </way>
  <way id="54148120" version="1" timestamp="2010-04-03T07:59:22Z" uid="7617" user="Franc" changeset="4310344">
    <nd ref="15183197"/>
    <nd ref="683068288"/>
    <nd ref="15183201"/>
    <tag k="highway" v="secondary"/>
    <tag k="name" v="Firth Street"/>
  </way>
  <way id="54148120" version="2" timestamp="2010-10-31T03:12:20Z" uid="7617" user="Franc" changeset="6234803">
    <nd ref="15183197"/>
    <nd ref="683068288"/>
    <nd ref="971468821"/>
    <nd ref="971468574"/>
    <nd ref="15183201"/>
    <tag k="highway" v="secondary"/>
    <tag k="name" v="Firth Street"/>
  </way>
  <way id="54148121" version="1" timestamp="2010-04-03T07:59:22Z" uid="7617" user="Franc" changeset="4310344">
    <nd ref="683068287"/>
    <nd ref="29976433"/>
    <tag k="highway" v="residential"/>
    <tag k="name" v="Eden Street"/>
    <tag k="restriction" v="school_zone"/>
  </way>
  <way id="54148121" version="2" timestamp="2010-07-08T02:54:18Z" uid="74617" user="JohnSmith" changeset="5163091">
    <nd ref="683068287"/>
    <nd ref="29976433"/>
    <tag k="highway" v="residential"/>
    <tag k="maxspeed" v="50"/>
    <tag k="maxspeed:source" v="default residential speed limit in Australia"/>
    <tag k="name" v="Eden Street"/>
    <tag k="restriction" v="school_zone"/>
  </way>
  <way id="54148121" version="3" timestamp="2010-09-19T11:21:02Z" uid="7617" user="Franc" changeset="5818777">
    <nd ref="683068287"/>
    <nd ref="918176309"/>
    <nd ref="29976433"/>
    <tag k="highway" v="residential"/>
    <tag k="maxspeed" v="50"/>
    <tag k="maxspeed:source" v="default residential speed limit in Australia"/>
    <tag k="name" v="Eden Street"/>
    <tag k="restriction" v="school_zone"/>
  </way>
  <way id="54148122" version="1" timestamp="2010-04-03T07:59:23Z" uid="7617" user="Franc" changeset="4310344">
    <nd ref="683068285"/>
    <nd ref="15183195"/>
    <nd ref="104785355"/>
    <tag k="highway" v="primary"/>
    <tag k="name" v="Forest Road"/>
    <tag k="ref" v="D5"/>
    <tag k="restriction" v="school_zone"/>
    <tag k="source" v="yahoo_imagery"/>
  </way>
  <way id="54148123" version="1" timestamp="2010-04-03T07:59:23Z" uid="7617" user="Franc" changeset="4310344">
    <nd ref="603455237"/>
    <nd ref="603455236"/>
    <nd ref="26637217"/>
    <nd ref="291748415"/>
    <tag k="highway" v="primary"/>
    <tag k="maxspeed" v="60"/>
    <tag k="name" v="Forest Road"/>
    <tag k="ref" v="D5"/>
    <tag k="source" v="yahoo_imagery"/>
  </way>
  <way id="54148123" version="3" timestamp="2011-04-26T13:35:02Z" uid="7617" user="Franc" changeset="7974869">
    <nd ref="603455237"/>
    <nd ref="603455236"/>
    <tag k="highway" v="primary"/>
    <tag k="maxspeed" v="60"/>
    <tag k="name" v="Forest Road"/>
    <tag k="source" v="yahoo_imagery"/>
  </way>
  <way id="54148134" version="2" timestamp="2010-05-26T06:37:01Z" uid="6975" user="ulfl" changeset="4810197">
    <nd ref="683068387"/>
    <nd ref="683068376"/>
    <nd ref="683068381"/>
    <nd ref="683068372"/>
    <nd ref="683068388"/>
    <nd ref="683068382"/>
    <nd ref="683068385"/>
    <nd ref="683068378"/>
    <nd ref="683068387"/>
    <tag k="addr:city" v="Paderborn"/>
    <tag k="addr:housenumber" v="7"/>
    <tag k="addr:postcode" v="33102"/>
    <tag k="addr:street" v="Fürstenallee"/>
    <tag k="building" v="yes"/>
    <tag k="name" v="Heinz Nixdorf MuseumsForum"/>
    <tag k="phone" v="05251 3066 0"/>
    <tag k="tourism" v="museum"/>
    <tag k="url" v="www.hnf.de"/>
  </way>
  <way id="54148560" version="6" timestamp="2010-12-06T20:32:58Z" uid="8619" user="cetest" changeset="6568333">
    <nd ref="683071237"/>
    <nd ref="683071238"/>
    <nd ref="683071239"/>
    <nd ref="1025452735"/>
    <nd ref="1020447090"/>
    <nd ref="1020447098"/>
    <nd ref="1020447103"/>
    <nd ref="683071240"/>
    <nd ref="1025452481"/>
    <nd ref="1025452024"/>
    <nd ref="1025452615"/>
    <nd ref="683283771"/>
    <nd ref="1025453275"/>
    <nd ref="683283772"/>
    <nd ref="1025452394"/>
    <nd ref="683283773"/>
    <nd ref="1025452822"/>
    <nd ref="683283774"/>
    <nd ref="1025453001"/>
    <nd ref="683283775"/>
    <nd ref="1025453499"/>
    <nd ref="683071241"/>
    <nd ref="1025452178"/>
    <nd ref="683283777"/>
    <nd ref="683283778"/>
    <nd ref="683283779"/>
    <nd ref="1025452306"/>
    <nd ref="683071237"/>
    <tag k="landuse" v="residential"/>
    <tag k="place" v="village"/>
    <tag k="place_name" v="פורדיס"/>
    <tag k="place_name:en" v="Furadis"/>
  </way>
  <way id="54148683" version="1" timestamp="2010-04-03T08:20:41Z" uid="151899" user="Bikeman2000" changeset="4310465">
    <nd ref="683072611"/>
    <nd ref="683072612"/>
    <nd ref="683072613"/>
    <nd ref="683072614"/>
    <nd ref="683072615"/>
    <nd ref="683072616"/>
    <nd ref="683072617"/>
    <nd ref="683072618"/>
    <nd ref="683072619"/>
    <nd ref="683072620"/>
    <nd ref="683072621"/>
    <nd ref="683072622"/>
    <nd ref="683072623"/>
    <nd ref="683072624"/>
    <nd ref="683072625"/>
    <nd ref="683072626"/>
    <nd ref="683072627"/>
    <nd ref="683072628"/>
    <nd ref="683072629"/>
    <nd ref="683072630"/>
    <nd ref="683072631"/>
    <nd ref="683072632"/>
    <nd ref="683072633"/>
    <nd ref="683072634"/>
    <nd ref="683072635"/>
    <nd ref="683072636"/>
    <nd ref="683072611"/>
    <tag k="landuse" v="farmland"/>
  </way>
  <way id="54148701" version="1" timestamp="2010-04-03T08:23:25Z" uid="74617" user="JohnSmith" changeset="4310277">
    <nd ref="296100290"/>
    <nd ref="683072759"/>
    <nd ref="683072756"/>
    <nd ref="683072757"/>
    <nd ref="683072758"/>
    <nd ref="296109894"/>
    <tag k="highway" v="tertiary"/>
    <tag k="oneway" v="yes"/>
  </way>
  <way id="54148702" version="1" timestamp="2010-04-03T08:23:25Z" uid="74617" user="JohnSmith" changeset="4310277">
    <nd ref="296109970"/>
    <nd ref="296100188"/>
    <nd ref="296099860"/>
    <tag k="highway" v="residential"/>
    <tag k="oneway" v="yes"/>
  </way>
  <way id="54148702" version="2" timestamp="2010-07-06T17:46:24Z" uid="74617" user="JohnSmith" changeset="5152225">
    <nd ref="296109970"/>
    <nd ref="296100188"/>
    <nd ref="296099860"/>
    <tag k="highway" v="residential"/>
    <tag k="maxspeed" v="50"/>
    <tag k="maxspeed:source" v="default residential speed limit in Australia"/>
    <tag k="oneway" v="yes"/>
  </way>
  <way id="54148897" version="4" timestamp="2010-07-25T08:04:03Z" uid="4467" user="Rosscoe" changeset="5309577">
    <nd ref="83337002"/>
    <nd ref="83337003"/>
    <nd ref="83337004"/>
    <tag k="bridge" v="yes"/>
    <tag k="highway" v="tertiary"/>
    <tag k="layer" v="1"/>
    <tag k="name" v="Harvey Quindanning Road"/>
  </way>
  <way id="54148900" version="4" timestamp="2010-07-25T08:04:05Z" uid="4467" user="Rosscoe" changeset="5309577">
    <nd ref="83337009"/>
    <nd ref="83337010"/>
    <nd ref="83337011"/>
    <nd ref="683075778"/>
    <nd ref="83337012"/>
    <tag k="bridge" v="yes"/>
    <tag k="highway" v="tertiary"/>
    <tag k="layer" v="1"/>
    <tag k="name" v="Harvey Quindanning Road"/>
  </way>
  <way id="54148976" version="1" timestamp="2010-04-03T08:33:15Z" uid="74617" user="JohnSmith" changeset="4310277">
    <nd ref="203541778"/>
    <nd ref="683074699"/>
    <tag k="bridge" v="yes"/>
    <tag k="highway" v="primary"/>
    <tag k="layer" v="1"/>
    <tag k="name" v="Neilsens Road"/>
    <tag k="oneway" v="yes"/>
  </way>
  <way id="54148977" version="1" timestamp="2010-04-03T08:33:15Z" uid="74617" user="JohnSmith" changeset="4310277">
    <nd ref="683074699"/>
    <nd ref="201168107"/>
    <nd ref="201142637"/>
    <tag k="highway" v="primary"/>
    <tag k="name" v="Neilsens Road"/>
    <tag k="oneway" v="yes"/>
  </way>
</osm>
