<?xml version='1.0' encoding='UTF-8'?>
<osm version="0.6" generator="libosmium/2.20.0">
  <way id="54489071" version="1" timestamp="2010-04-06T09:31:48Z" uid="74617" user="JohnSmith" changeset="4341925">
    <nd ref="364654565"/>
    <nd ref="591984585"/>
    <nd ref="591984627"/>
    <nd ref="591997495"/>
    <nd ref="60650378"/>
    <nd ref="60650379"/>
    <tag k="cycleway" v="lane"/>
    <tag k="highway" v="primary"/>
    <tag k="name" v="High Street"/>
    <tag k="oneway" v="yes"/>
    <tag k="ref" v="S29"/>
    <tag k="source" v="nearmap"/>
  </way>
  <way id="54489071" version="2" timestamp="2010-04-06T10:50:54Z" uid="74617" user="JohnSmith" changeset="4341925">
    <nd ref="364654565"/>
    <nd ref="591984585"/>
    <nd ref="591984627"/>
    <nd ref="591997495"/>
    <nd ref="60650378"/>
    <nd ref="60650379"/>
    <tag k="cycleway" v="lane"/>
    <tag k="highway" v="primary"/>
    <tag k="name" v="High Street"/>
    <tag k="oneway" v="yes"/>
    <tag k="source" v="nearmap"/>
  </way>
  <way id="54489073" version="1" timestamp="2010-04-06T09:31:48Z" uid="74617" user="JohnSmith" changeset="4341925">
    <nd ref="364654558"/>
    <nd ref="364653831"/>
    <nd ref="364653785"/>
    <tag k="highway" v="primary"/>
    <tag k="maxspeed" v="80"/>
    <tag k="name" v="Cooper Street"/>
    <tag k="oneway" v="yes"/>
    <tag k="source" v="nearmap"/>
  </way>
</osm>
