<?xml version='1.0' encoding='UTF-8'?>
<osm version="0.6" generator="libosmium/2.20.0">
  <way id="54563074" version="1" timestamp="2010-04-06T19:57:40Z" uid="33382" user="de_muur" changeset="4348316">
    <nd ref="88990896"/>
    <nd ref="489346730"/>
    <nd ref="323858748"/>
    <tag k="highway" v="tertiary"/>
    <tag k="maxspeed" v="50"/>
    <tag k="name" v="Härsenstraße"/>
    <tag k="ref" v="K 143"/>
    <tag k="surface" v="paved"/>
  </way>
  <way id="54563077" version="1" timestamp="2010-04-06T19:57:40Z" uid="33382" user="de_muur" changeset="4348316">
    <nd ref="687017361"/>
    <nd ref="344894249"/>
    <nd ref="600862904"/>
    <nd ref="600862905"/>
    <nd ref="88990888"/>
    <nd ref="600862903"/>
    <nd ref="600862901"/>
    <nd ref="600862898"/>
    <nd ref="600862897"/>
    <nd ref="254331552"/>
    <tag k="highway" v="tertiary"/>
    <tag k="name" v="Härsenstraße"/>
    <tag k="ref" v="K 8"/>
    <tag k="surface" v="paved"/>
  </way>
  <way id="54563077" version="2" timestamp="2010-04-10T20:21:15Z" uid="33382" user="de_muur" changeset="4386862">
    <nd ref="687017361"/>
    <nd ref="344894249"/>
    <nd ref="600862904"/>
    <nd ref="600862905"/>
    <nd ref="88990888"/>
    <nd ref="600862903"/>
    <nd ref="600862901"/>
    <nd ref="600862898"/>
    <nd ref="600862897"/>
    <nd ref="254331552"/>
    <tag k="highway" v="tertiary"/>
    <tag k="maxspeed" v="50"/>
    <tag k="name" v="Härsenstraße"/>
    <tag k="ref" v="K 8"/>
    <tag k="surface" v="paved"/>
  </way>
  <way id="54563273" version="2" timestamp="2010-07-07T20:10:04Z" uid="74617" user="JohnSmith" changeset="5161069">
    <nd ref="308749096"/>
    <nd ref="687020045"/>
    <tag k="highway" v="residential"/>
    <tag k="maxspeed" v="50"/>
    <tag k="maxspeed:source" v="default residential speed limit in Australia"/>
    <tag k="name" v="Murdoch Place"/>
    <tag k="source" v="yahoo_imagery"/>
  </way>
  <way id="54563278" version="2" timestamp="2010-07-07T20:08:03Z" uid="74617" user="JohnSmith" changeset="5161069">
    <nd ref="687020056"/>
    <nd ref="687020057"/>
    <nd ref="687020058"/>
    <nd ref="687020059"/>
    <tag k="highway" v="residential"/>
    <tag k="maxspeed" v="50"/>
    <tag k="maxspeed:source" v="default residential speed limit in Australia"/>
    <tag k="name" v="Swan Court"/>
    <tag k="oneway" v="yes"/>
    <tag k="source" v="survey"/>
  </way>
  <way id="54563279" version="2" timestamp="2010-07-07T20:06:31Z" uid="74617" user="JohnSmith" changeset="5161069">
    <nd ref="308749095"/>
    <nd ref="687020056"/>
    <tag k="highway" v="residential"/>
    <tag k="maxspeed" v="50"/>
    <tag k="maxspeed:source" v="default residential speed limit in Australia"/>
    <tag k="name" v="Swan Court"/>
    <tag k="oneway" v="yes"/>
    <tag k="source" v="survey"/>
  </way>
  <way id="54563280" version="2" timestamp="2010-07-07T20:12:05Z" uid="74617" user="JohnSmith" changeset="5161069">
    <nd ref="687020060"/>
    <nd ref="687020061"/>
    <tag k="highway" v="residential"/>
    <tag k="maxspeed" v="50"/>
    <tag k="maxspeed:source" v="default residential speed limit in Australia"/>
    <tag k="name" v="Fairwater Drive"/>
    <tag k="oneway" v="yes"/>
    <tag k="source" v="survey"/>
  </way>
  <way id="54563281" version="2" timestamp="2010-07-07T20:09:03Z" uid="74617" user="JohnSmith" changeset="5161069">
    <nd ref="308749031"/>
    <nd ref="495007874"/>
    <nd ref="308749036"/>
    <nd ref="308749032"/>
    <nd ref="495007868"/>
    <nd ref="308749037"/>
    <nd ref="495007871"/>
    <nd ref="308749020"/>
    <nd ref="308749034"/>
    <nd ref="308749095"/>
    <nd ref="308749033"/>
    <nd ref="687020059"/>
    <nd ref="308749035"/>
    <nd ref="687020060"/>
    <nd ref="308749031"/>
    <tag k="highway" v="residential"/>
    <tag k="junction" v="roundabout"/>
    <tag k="maxspeed" v="50"/>
    <tag k="maxspeed:source" v="default residential speed limit in Australia"/>
    <tag k="source" v="survey"/>
  </way>
  <way id="54563282" version="2" timestamp="2010-07-07T20:06:21Z" uid="74617" user="JohnSmith" changeset="5161069">
    <nd ref="687020061"/>
    <nd ref="687020063"/>
    <nd ref="308749031"/>
    <tag k="highway" v="residential"/>
    <tag k="maxspeed" v="50"/>
    <tag k="maxspeed:source" v="default residential speed limit in Australia"/>
    <tag k="name" v="Fairwater Drive"/>
    <tag k="oneway" v="yes"/>
    <tag k="source" v="survey"/>
  </way>
  <way id="54563328" version="2" timestamp="2010-04-17T06:55:12Z" uid="30201" user="rrankin" changeset="4444865"/>
  <way id="54563330" version="2" timestamp="2010-04-17T06:55:04Z" uid="30201" user="rrankin" changeset="4444865">
    <nd ref="286899769"/>
    <nd ref="699573144"/>
    <nd ref="286899778"/>
    <nd ref="286899779"/>
    <tag k="highway" v="secondary"/>
    <tag k="name" v="Camden Valley Way"/>
    <tag k="oneway" v="yes"/>
    <tag k="source" v="survey"/>
  </way>
  <way id="54563334" version="2" timestamp="2010-04-17T06:55:04Z" uid="30201" user="rrankin" changeset="4444865">
    <nd ref="687020326"/>
    <nd ref="699573147"/>
    <nd ref="687020327"/>
    <nd ref="687020328"/>
    <nd ref="687020329"/>
    <nd ref="410415490"/>
    <tag k="highway" v="secondary"/>
    <tag k="name" v="Camden Valley Way"/>
    <tag k="oneway" v="yes"/>
    <tag k="source" v="survey"/>
  </way>
</osm>
