<?xml version='1.0' encoding='UTF-8'?>
<osm version="0.6" generator="libosmium/2.20.0">
  <way id="54587261" version="2" timestamp="2011-02-22T14:08:02Z" uid="20587" user="balrog-kun" changeset="7362943">
    <nd ref="687234303"/>
    <nd ref="687234313"/>
    <nd ref="687234322"/>
    <nd ref="687234332"/>
    <nd ref="687234339"/>
    <tag k="addr:city" v="Złotokłos"/>
    <tag k="highway" v="residential"/>
    <tag k="name" v="Adama Mickiewicza"/>
    <tag k="surface" v="sand"/>
  </way>
  <way id="54587262" version="2" timestamp="2011-02-22T14:08:26Z" uid="20587" user="balrog-kun" changeset="7362943">
    <nd ref="679476437"/>
    <nd ref="687234378"/>
    <nd ref="687234388"/>
    <nd ref="687234396"/>
    <nd ref="687234400"/>
    <tag k="addr:city" v="Złotokłos"/>
    <tag k="highway" v="residential"/>
    <tag k="name" v="Polna"/>
    <tag k="surface" v="sand"/>
  </way>
  <way id="54587263" version="3" timestamp="2011-02-22T14:08:05Z" uid="20587" user="balrog-kun" changeset="7362943">
    <nd ref="699052216"/>
    <nd ref="687234339"/>
    <nd ref="687234378"/>
    <tag k="addr:city" v="Złotokłos"/>
    <tag k="highway" v="residential"/>
    <tag k="name" v="Warszawska"/>
    <tag k="surface" v="sand"/>
  </way>
  <way id="54587264" version="2" timestamp="2011-02-22T14:08:15Z" uid="20587" user="balrog-kun" changeset="7362943">
    <nd ref="687234396"/>
    <nd ref="687234332"/>
    <nd ref="687234467"/>
    <tag k="addr:city" v="Złotokłos"/>
    <tag k="highway" v="residential"/>
    <tag k="name" v="Juliusza Słowackiego"/>
    <tag k="surface" v="sand"/>
  </way>
  <way id="54587265" version="2" timestamp="2011-02-22T14:08:29Z" uid="20587" user="balrog-kun" changeset="7362943">
    <nd ref="687234713"/>
    <nd ref="687234749"/>
    <nd ref="537221011"/>
    <nd ref="537221036"/>
    <nd ref="1166450667"/>
    <nd ref="537220977"/>
    <tag k="addr:city" v="Złotokłos"/>
    <tag k="highway" v="residential"/>
    <tag k="name" v="Piorta Skargi"/>
    <tag k="surface" v="sand"/>
  </way>
  <way id="54587266" version="2" timestamp="2011-02-22T14:08:18Z" uid="20587" user="balrog-kun" changeset="7362943">
    <nd ref="537221013"/>
    <nd ref="687234926"/>
    <tag k="addr:city" v="Złotokłos"/>
    <tag k="highway" v="residential"/>
    <tag k="name" v="Śląska"/>
    <tag k="surface" v="sand"/>
  </way>
  <way id="54587590" version="2" timestamp="2011-06-03T22:57:56Z" uid="137033" user="lubomir" changeset="8334922"/>
  <way id="54587807" version="2" timestamp="2010-05-16T03:15:10Z" uid="4467" user="Rosscoe" changeset="4712454">
    <nd ref="687248359"/>
    <nd ref="735993232"/>
    <nd ref="686090784"/>
    <tag k="highway" v="service"/>
  </way>
</osm>
