<?xml version='1.0' encoding='UTF-8'?>
<osm version="0.6" generator="libosmium/2.20.0">
  <way id="54597119" version="1" timestamp="2010-04-07T08:38:35Z" uid="244897" user="M526244" changeset="4352495">
    <nd ref="687315618"/>
    <nd ref="687315622"/>
    <tag k="highway" v="residential"/>
    <tag k="name" v="Cook Lane"/>
    <tag k="note" v="FIXME: Need to re-check name!"/>
    <tag k="source" v="survey"/>
  </way>
  <way id="54597119" version="2" timestamp="2010-04-07T08:40:38Z" uid="244897" user="M526244" changeset="4352495">
    <nd ref="687315618"/>
    <nd ref="687315622"/>
    <tag k="highway" v="residential"/>
    <tag k="name" v="Cook Lane"/>
    <tag k="note" v="FIXME: Need to re-check name!"/>
    <tag k="source" v="survey"/>
    <tag k="surface" v="gravel"/>
  </way>
  <way id="54597119" version="3" timestamp="2010-04-08T09:08:30Z" uid="244897" user="M526244" changeset="4362276">
    <nd ref="687315618"/>
    <nd ref="687315622"/>
    <tag k="highway" v="residential"/>
    <tag k="name" v="Cole&apos;s Road"/>
    <tag k="source" v="survey"/>
    <tag k="surface" v="gravel"/>
  </way>
  <way id="54597119" version="4" timestamp="2010-07-07T07:19:16Z" uid="74617" user="JohnSmith" changeset="5156250">
    <nd ref="687315618"/>
    <nd ref="687315622"/>
    <tag k="highway" v="residential"/>
    <tag k="maxspeed" v="50"/>
    <tag k="maxspeed:source" v="default residential speed limit in Australia"/>
    <tag k="name" v="Cole&apos;s Road"/>
    <tag k="source" v="survey"/>
    <tag k="surface" v="gravel"/>
  </way>
  <way id="54597819" version="1" timestamp="2010-04-07T08:40:41Z" uid="244897" user="M526244" changeset="4352495">
    <nd ref="687316273"/>
    <nd ref="687316304"/>
    <nd ref="687316305"/>
    <nd ref="687316308"/>
    <nd ref="687316309"/>
    <nd ref="687316310"/>
    <nd ref="687316312"/>
    <nd ref="687316313"/>
    <nd ref="687316316"/>
    <nd ref="687316318"/>
    <nd ref="687316319"/>
    <tag k="highway" v="residential"/>
    <tag k="name" v="Justelius Road"/>
    <tag k="source" v="survey"/>
    <tag k="surface" v="gravel"/>
  </way>
  <way id="54597819" version="2" timestamp="2010-07-07T07:17:42Z" uid="74617" user="JohnSmith" changeset="5156250">
    <nd ref="687316273"/>
    <nd ref="687316304"/>
    <nd ref="687316305"/>
    <nd ref="687316308"/>
    <nd ref="687316309"/>
    <nd ref="687316310"/>
    <nd ref="687316312"/>
    <nd ref="687316313"/>
    <nd ref="687316316"/>
    <nd ref="687316318"/>
    <nd ref="687316319"/>
    <tag k="highway" v="residential"/>
    <tag k="maxspeed" v="50"/>
    <tag k="maxspeed:source" v="default residential speed limit in Australia"/>
    <tag k="name" v="Justelius Road"/>
    <tag k="source" v="survey"/>
    <tag k="surface" v="gravel"/>
  </way>
</osm>
