<?xml version='1.0' encoding='UTF-8'?>
<osm version="0.6" generator="libosmium/2.20.0">
  <way id="5461125" version="4" timestamp="2011-04-12T00:45:50Z" uid="6975" user="ulfl" changeset="7838746">
    <nd ref="39673952"/>
    <nd ref="39673953"/>
    <nd ref="39673958"/>
    <nd ref="39673960"/>
    <nd ref="39673964"/>
    <nd ref="39673969"/>
    <nd ref="500305210"/>
    <nd ref="39673973"/>
    <nd ref="39673976"/>
    <nd ref="39673978"/>
    <nd ref="39673981"/>
    <nd ref="39674033"/>
    <nd ref="39674038"/>
    <nd ref="1241485835"/>
    <nd ref="39674044"/>
    <nd ref="39674048"/>
    <nd ref="39674052"/>
    <nd ref="39674056"/>
    <nd ref="39674061"/>
    <tag k="highway" v="unclassified"/>
    <tag k="name" v="Drechsterweg"/>
  </way>
  <way id="5461519" version="3" timestamp="2010-03-01T07:44:43Z" uid="30201" user="rrankin" changeset="4006304">
    <nd ref="12239147"/>
    <nd ref="129712615"/>
    <nd ref="12239140"/>
    <nd ref="39771063"/>
    <tag k="highway" v="trunk"/>
    <tag k="maxspeed" v="60"/>
    <tag k="name" v="Princes Highway"/>
    <tag k="ref" v="NR1"/>
  </way>
  <way id="5461519" version="4" timestamp="2010-04-02T02:57:58Z" uid="74617" user="JohnSmith" changeset="4299895">
    <nd ref="12239147"/>
    <nd ref="129712615"/>
    <nd ref="12239140"/>
    <nd ref="39771063"/>
    <tag k="highway" v="trunk"/>
    <tag k="maxspeed" v="60"/>
    <tag k="name" v="Princes Highway"/>
  </way>
  <way id="5461519" version="5" timestamp="2010-04-02T03:10:32Z" uid="74617" user="JohnSmith" changeset="4299895">
    <nd ref="12239147"/>
    <nd ref="129712615"/>
    <nd ref="12239140"/>
    <nd ref="39771063"/>
    <tag k="highway" v="trunk"/>
    <tag k="maxspeed" v="60"/>
  </way>
  <way id="5461520" version="3" timestamp="2010-03-01T07:44:44Z" uid="30201" user="rrankin" changeset="4006304">
    <nd ref="39768646"/>
    <nd ref="39768631"/>
    <nd ref="39771074"/>
    <nd ref="129713048"/>
    <nd ref="39771088"/>
    <nd ref="39768646"/>
    <tag k="highway" v="trunk"/>
    <tag k="junction" v="roundabout"/>
    <tag k="maxspeed" v="60"/>
    <tag k="name" v="Princes Highway"/>
    <tag k="ref" v="NR1"/>
  </way>
  <way id="5461522" version="2" timestamp="2010-03-01T07:44:44Z" uid="30201" user="rrankin" changeset="4006304">
    <nd ref="39771063"/>
    <nd ref="39768646"/>
    <tag k="highway" v="trunk"/>
    <tag k="maxspeed" v="60"/>
    <tag k="name" v="Princes Highway"/>
    <tag k="oneway" v="yes"/>
    <tag k="ref" v="NR1"/>
  </way>
  <way id="5461525" version="2" timestamp="2010-03-01T07:44:44Z" uid="30201" user="rrankin" changeset="4006304">
    <nd ref="39768631"/>
    <nd ref="39771054"/>
    <tag k="highway" v="trunk"/>
    <tag k="maxspeed" v="60"/>
    <tag k="name" v="Princes Highway"/>
    <tag k="oneway" v="yes"/>
    <tag k="ref" v="NR1"/>
  </way>
  <way id="5461527" version="2" timestamp="2010-03-01T07:44:44Z" uid="30201" user="rrankin" changeset="4006304">
    <nd ref="39771054"/>
    <nd ref="39771074"/>
    <tag k="highway" v="trunk"/>
    <tag k="maxspeed" v="60"/>
    <tag k="name" v="Princes Highway"/>
    <tag k="oneway" v="yes"/>
    <tag k="ref" v="NR1"/>
  </way>
</osm>
