<?xml version='1.0' encoding='UTF-8'?>
<osm version="0.6" generator="libosmium/2.20.0">
  <way id="55038251" version="2" timestamp="2010-07-08T17:06:23Z" uid="74617" user="JohnSmith" changeset="5167338">
    <nd ref="692267835"/>
    <nd ref="692267845"/>
    <tag k="highway" v="residential"/>
    <tag k="maxspeed" v="50"/>
    <tag k="maxspeed:source" v="default residential speed limit in Australia"/>
    <tag k="name" v="Fishermans Walk"/>
  </way>
  <way id="55038252" version="2" timestamp="2010-07-08T17:06:16Z" uid="74617" user="JohnSmith" changeset="5167338">
    <nd ref="692267840"/>
    <nd ref="692267842"/>
    <nd ref="692267843"/>
    <nd ref="692267846"/>
    <tag k="highway" v="residential"/>
    <tag k="maxspeed" v="50"/>
    <tag k="maxspeed:source" v="default residential speed limit in Australia"/>
    <tag k="name" v="Culdee Court"/>
  </way>
  <way id="55038253" version="2" timestamp="2010-07-08T17:08:11Z" uid="74617" user="JohnSmith" changeset="5167338">
    <nd ref="469614557"/>
    <nd ref="268899669"/>
    <nd ref="437906691"/>
    <nd ref="471270203"/>
    <nd ref="268899670"/>
    <nd ref="437906694"/>
    <tag k="highway" v="residential"/>
    <tag k="maxspeed" v="50"/>
    <tag k="maxspeed:source" v="default residential speed limit in Australia"/>
    <tag k="name" v="Carr Street"/>
  </way>
  <way id="55038476" version="1" timestamp="2010-04-10T22:56:08Z" uid="244897" user="M526244" changeset="4388098">
    <nd ref="640562884"/>
    <nd ref="256557125"/>
    <tag k="highway" v="road"/>
    <tag k="name" v="Bangalow Road"/>
    <tag k="source" v="survey"/>
  </way>
  <way id="55038476" version="2" timestamp="2010-04-12T10:23:33Z" uid="244897" user="M526244" changeset="4402806">
    <nd ref="640562884"/>
    <nd ref="256557125"/>
    <tag k="highway" v="residential"/>
    <tag k="source" v="survey"/>
  </way>
  <way id="55038476" version="3" timestamp="2010-07-05T04:15:29Z" uid="244897" user="M526244" changeset="5138714">
    <nd ref="640562884"/>
    <nd ref="256557125"/>
    <tag k="highway" v="residential"/>
    <tag k="name" v="Bangalow Road"/>
    <tag k="source" v="survey"/>
  </way>
  <way id="55038476" version="4" timestamp="2010-07-07T07:17:35Z" uid="74617" user="JohnSmith" changeset="5156250">
    <nd ref="640562884"/>
    <nd ref="256557125"/>
    <tag k="highway" v="residential"/>
    <tag k="maxspeed" v="50"/>
    <tag k="maxspeed:source" v="default residential speed limit in Australia"/>
    <tag k="name" v="Bangalow Road"/>
    <tag k="source" v="survey"/>
  </way>
</osm>
