<?xml version='1.0' encoding='UTF-8'?>
<osm version="0.6" generator="libosmium/2.20.0">
  <way id="55336076" version="2" timestamp="2010-07-09T21:01:03Z" uid="74617" user="JohnSmith" changeset="5176956">
    <nd ref="312745151"/>
    <nd ref="470353236"/>
    <tag k="highway" v="residential"/>
    <tag k="maxspeed" v="50"/>
    <tag k="maxspeed:source" v="default residential speed limit in Australia"/>
    <tag k="name" v="Elsegood Street"/>
  </way>
  <way id="55336077" version="2" timestamp="2010-07-09T21:05:40Z" uid="74617" user="JohnSmith" changeset="5176956">
    <nd ref="312745151"/>
    <nd ref="312747683"/>
    <tag k="highway" v="residential"/>
    <tag k="maxspeed" v="50"/>
    <tag k="maxspeed:source" v="default residential speed limit in Australia"/>
    <tag k="name" v="Harold Street"/>
  </way>
  <way id="55336079" version="2" timestamp="2010-05-05T13:17:21Z" uid="4467" user="Rosscoe" changeset="4612811">
    <nd ref="312747683"/>
    <nd ref="38457040"/>
    <nd ref="312745188"/>
    <nd ref="312727877"/>
    <nd ref="722370323"/>
    <tag k="highway" v="secondary"/>
    <tag k="name" v="Walter Road West"/>
  </way>
  <way id="55336080" version="2" timestamp="2010-07-09T20:59:31Z" uid="74617" user="JohnSmith" changeset="5176956">
    <nd ref="330185663"/>
    <nd ref="325263110"/>
    <nd ref="325263118"/>
    <nd ref="325263122"/>
    <nd ref="325263130"/>
    <nd ref="325263138"/>
    <nd ref="325263144"/>
    <tag k="highway" v="residential"/>
    <tag k="maxspeed" v="50"/>
    <tag k="maxspeed:source" v="default residential speed limit in Australia"/>
    <tag k="name" v="Swanview Terrace"/>
  </way>
  <way id="55336085" version="3" timestamp="2011-01-15T13:16:58Z" uid="4467" user="Rosscoe" changeset="6976819">
    <nd ref="36728929"/>
    <nd ref="36728931"/>
    <nd ref="36728932"/>
    <nd ref="1097749944"/>
    <nd ref="1104490544"/>
    <nd ref="36728631"/>
    <nd ref="1097750556"/>
    <nd ref="36729788"/>
    <nd ref="36729789"/>
    <nd ref="36729790"/>
    <tag k="highway" v="secondary"/>
    <tag k="name" v="Railway Parade"/>
  </way>
  <way id="55336147" version="1" timestamp="2010-04-13T07:10:48Z" uid="99207" user="Lar Kiesel" changeset="4411087">
    <nd ref="688667179"/>
    <nd ref="114074513"/>
    <nd ref="114074516"/>
    <nd ref="114074517"/>
    <nd ref="114074520"/>
    <nd ref="114074523"/>
    <nd ref="114074525"/>
    <nd ref="114074528"/>
    <nd ref="114074530"/>
    <nd ref="679020423"/>
    <nd ref="114074532"/>
    <tag k="name" v="CSX Transport"/>
    <tag k="operator" v="CSX Transport"/>
    <tag k="railway" v="rail"/>
    <tag k="tiger:cfcc" v="B11"/>
    <tag k="tiger:county" v="Richland, SC"/>
    <tag k="tiger:name_base" v="Southern Railway"/>
    <tag k="tiger:reviewed" v="no"/>
    <tag k="tiger:source" v="tiger_import_dch_v0.6_20070829"/>
    <tag k="tiger:tlid" v="71859579:71827540:71827549:71834084:71859580:71827632:71827635:71827676:71827680:71827689:71857930:71827695:71859522:71859523:71836535:71827556:71844732:71827538"/>
    <tag k="tiger:upload_uuid" v="bulk_upload.pl-0250b25a-3ed9-45b1-b84e-45e4a188563e"/>
  </way>
  <way id="55336355" version="2" timestamp="2010-05-02T07:56:34Z" uid="4467" user="Rosscoe" changeset="4581885">
    <nd ref="436958528"/>
    <nd ref="436958534"/>
    <nd ref="436958539"/>
    <nd ref="436958545"/>
    <nd ref="436958552"/>
    <nd ref="436958558"/>
    <nd ref="436958561"/>
    <nd ref="436958565"/>
    <nd ref="436958575"/>
    <nd ref="436958576"/>
    <nd ref="716554576"/>
    <tag k="highway" v="residential"/>
    <tag k="name" v="Slade Street"/>
  </way>
  <way id="55336355" version="3" timestamp="2010-07-09T21:07:27Z" uid="74617" user="JohnSmith" changeset="5176956">
    <nd ref="436958528"/>
    <nd ref="436958534"/>
    <nd ref="436958539"/>
    <nd ref="436958545"/>
    <nd ref="436958552"/>
    <nd ref="436958558"/>
    <nd ref="436958561"/>
    <nd ref="436958565"/>
    <nd ref="436958575"/>
    <nd ref="436958576"/>
    <nd ref="716554576"/>
    <tag k="highway" v="residential"/>
    <tag k="maxspeed" v="50"/>
    <tag k="maxspeed:source" v="default residential speed limit in Australia"/>
    <tag k="name" v="Slade Street"/>
  </way>
  <way id="55336359" version="2" timestamp="2010-07-09T21:11:15Z" uid="74617" user="JohnSmith" changeset="5176956">
    <nd ref="313662585"/>
    <nd ref="313662586"/>
    <nd ref="313662587"/>
    <nd ref="695089123"/>
    <tag k="highway" v="residential"/>
    <tag k="maxspeed" v="50"/>
    <tag k="maxspeed:source" v="default residential speed limit in Australia"/>
    <tag k="name" v="Drake Street"/>
  </way>
  <way id="55336360" version="2" timestamp="2010-07-09T20:56:27Z" uid="74617" user="JohnSmith" changeset="5176956">
    <nd ref="695089122"/>
    <nd ref="313662590"/>
    <nd ref="313662591"/>
    <nd ref="313662593"/>
    <nd ref="313662594"/>
    <nd ref="313662595"/>
    <nd ref="313662596"/>
    <tag k="highway" v="residential"/>
    <tag k="maxspeed" v="50"/>
    <tag k="maxspeed:source" v="default residential speed limit in Australia"/>
    <tag k="name" v="Drake Street"/>
  </way>
  <way id="55336361" version="2" timestamp="2010-07-09T21:01:36Z" uid="74617" user="JohnSmith" changeset="5176956">
    <nd ref="695089124"/>
    <nd ref="695089126"/>
    <nd ref="695089127"/>
    <nd ref="695089122"/>
    <nd ref="695089128"/>
    <nd ref="695089129"/>
    <nd ref="695089130"/>
    <nd ref="695089123"/>
    <nd ref="695089124"/>
    <tag k="highway" v="residential"/>
    <tag k="junction" v="roundabout"/>
    <tag k="maxspeed" v="50"/>
    <tag k="maxspeed:source" v="default residential speed limit in Australia"/>
    <tag k="name" v="Drake Street"/>
  </way>
  <way id="55336672" version="3" timestamp="2010-06-29T20:50:51Z" uid="74617" user="JohnSmith" changeset="5109183">
    <nd ref="695091574"/>
    <nd ref="695091576"/>
    <nd ref="695091579"/>
    <nd ref="695091582"/>
    <nd ref="695091585"/>
    <nd ref="695091588"/>
    <nd ref="695091591"/>
    <nd ref="695091594"/>
    <nd ref="695091574"/>
    <tag k="fixme" v="sport=rugby is ambiguous, see http://wiki.osm.org/wiki/Tag:sport%3Drugby for more details"/>
    <tag k="landuse" v="recreation_ground"/>
    <tag k="sport" v="rugby"/>
  </way>
  <way id="55336673" version="1" timestamp="2010-04-13T07:21:27Z" uid="4467" user="Rosscoe" changeset="4411151">
    <nd ref="695091565"/>
    <nd ref="695091566"/>
    <nd ref="695091567"/>
    <nd ref="695091568"/>
    <nd ref="695091569"/>
    <nd ref="695091570"/>
    <nd ref="695091571"/>
    <nd ref="695091573"/>
    <nd ref="695091575"/>
    <nd ref="695091577"/>
    <nd ref="695091578"/>
    <nd ref="695091580"/>
    <nd ref="695091581"/>
    <nd ref="695091583"/>
    <nd ref="695091584"/>
    <nd ref="695091586"/>
    <nd ref="695091587"/>
    <nd ref="695091589"/>
    <nd ref="695091590"/>
    <nd ref="695091592"/>
    <nd ref="695091593"/>
    <nd ref="695091595"/>
    <nd ref="695091596"/>
    <nd ref="695091602"/>
    <nd ref="695091597"/>
    <nd ref="695091598"/>
    <nd ref="695091599"/>
    <nd ref="695091600"/>
    <nd ref="695091603"/>
    <nd ref="695091605"/>
    <nd ref="695091606"/>
    <nd ref="695091607"/>
    <nd ref="695091604"/>
    <nd ref="695091608"/>
    <nd ref="695091609"/>
    <nd ref="695091610"/>
    <nd ref="695091611"/>
    <nd ref="695091612"/>
    <nd ref="695091613"/>
    <nd ref="695091614"/>
    <nd ref="695091615"/>
    <nd ref="695091616"/>
    <nd ref="695091617"/>
    <nd ref="695091618"/>
    <nd ref="695091619"/>
    <nd ref="695091620"/>
    <nd ref="695091621"/>
    <nd ref="695091622"/>
    <nd ref="695091623"/>
    <nd ref="695091625"/>
    <tag k="highway" v="primary"/>
    <tag k="maxspeed" v="100"/>
    <tag k="name" v="Main South Road"/>
    <tag k="ref" v="B23"/>
    <tag k="source" v="survey"/>
  </way>
  <way id="55336674" version="1" timestamp="2010-04-13T07:21:27Z" uid="4467" user="Rosscoe" changeset="4411151">
    <nd ref="695091549"/>
    <nd ref="695091545"/>
    <nd ref="695091546"/>
    <nd ref="695091547"/>
    <nd ref="695091548"/>
    <nd ref="695091550"/>
    <nd ref="695091551"/>
    <nd ref="695091553"/>
    <nd ref="695091554"/>
    <nd ref="695091555"/>
    <nd ref="695091556"/>
    <nd ref="695091557"/>
    <nd ref="695091558"/>
    <nd ref="695091559"/>
    <nd ref="695091560"/>
    <nd ref="695091561"/>
    <nd ref="695091562"/>
    <nd ref="695091563"/>
    <nd ref="695091564"/>
    <nd ref="695091565"/>
    <tag k="highway" v="primary"/>
    <tag k="maxspeed" v="100"/>
    <tag k="name" v="Main South Road"/>
    <tag k="ref" v="B23"/>
    <tag k="source" v="survey"/>
  </way>
  <way id="55336675" version="1" timestamp="2010-04-13T07:21:27Z" uid="4467" user="Rosscoe" changeset="4411151">
    <nd ref="695091531"/>
    <nd ref="695091532"/>
    <nd ref="695091534"/>
    <nd ref="695091533"/>
    <nd ref="695091536"/>
    <nd ref="695091535"/>
    <nd ref="695091537"/>
    <nd ref="695091538"/>
    <nd ref="695091541"/>
    <tag k="highway" v="primary"/>
    <tag k="maxspeed" v="60"/>
    <tag k="name" v="Main South Road"/>
    <tag k="ref" v="B23"/>
    <tag k="source" v="survey"/>
  </way>
  <way id="55336676" version="1" timestamp="2010-04-13T07:21:28Z" uid="4467" user="Rosscoe" changeset="4411151">
    <nd ref="382020560"/>
    <nd ref="695091513"/>
    <nd ref="695091514"/>
    <nd ref="695091515"/>
    <nd ref="695091517"/>
    <nd ref="695091518"/>
    <nd ref="695091519"/>
    <nd ref="695091521"/>
    <nd ref="695091522"/>
    <nd ref="695091523"/>
    <nd ref="695091524"/>
    <nd ref="695091525"/>
    <nd ref="695091528"/>
    <tag k="highway" v="primary"/>
    <tag k="maxspeed" v="100"/>
    <tag k="name" v="Main South Road"/>
    <tag k="ref" v="B23"/>
    <tag k="source" v="survey"/>
  </way>
  <way id="55336677" version="1" timestamp="2010-04-13T07:21:28Z" uid="4467" user="Rosscoe" changeset="4411151">
    <nd ref="695091528"/>
    <nd ref="695091526"/>
    <nd ref="695091527"/>
    <nd ref="695091529"/>
    <nd ref="695091530"/>
    <nd ref="695091531"/>
    <tag k="highway" v="primary"/>
    <tag k="maxspeed" v="80"/>
    <tag k="name" v="Main South Road"/>
    <tag k="ref" v="B23"/>
    <tag k="source" v="survey"/>
  </way>
  <way id="55336678" version="1" timestamp="2010-04-13T07:21:28Z" uid="4467" user="Rosscoe" changeset="4411151">
    <nd ref="695091541"/>
    <nd ref="695091540"/>
    <nd ref="695091542"/>
    <nd ref="695091543"/>
    <nd ref="695091544"/>
    <nd ref="695091549"/>
    <tag k="highway" v="primary"/>
    <tag k="maxspeed" v="80"/>
    <tag k="name" v="Main South Road"/>
    <tag k="ref" v="B23"/>
    <tag k="source" v="survey"/>
  </way>
  <way id="55336764" version="1" timestamp="2010-04-13T07:27:45Z" uid="4467" user="Rosscoe" changeset="4411189">
    <nd ref="695093038"/>
    <nd ref="695093040"/>
    <tag k="highway" v="primary"/>
    <tag k="maxspeed" v="100"/>
    <tag k="name" v="Main South Road"/>
    <tag k="note" v="This is a causeway not a bridge."/>
    <tag k="ref" v="B23"/>
    <tag k="source" v="survey"/>
  </way>
  <way id="55336864" version="1" timestamp="2010-04-13T07:34:50Z" uid="4467" user="Rosscoe" changeset="4411224">
    <nd ref="695094503"/>
    <nd ref="695094502"/>
    <nd ref="695094501"/>
    <nd ref="695094500"/>
    <nd ref="695094499"/>
    <nd ref="695094497"/>
    <nd ref="695094496"/>
    <nd ref="695094494"/>
    <nd ref="695094493"/>
    <nd ref="695094492"/>
    <nd ref="695094491"/>
    <nd ref="695094490"/>
    <nd ref="695094489"/>
    <nd ref="695094488"/>
    <nd ref="695094487"/>
    <nd ref="695094486"/>
    <nd ref="695094485"/>
    <nd ref="695094484"/>
    <tag k="highway" v="primary"/>
    <tag k="maxspeed" v="100"/>
    <tag k="name" v="Main South Road"/>
    <tag k="ref" v="B23"/>
    <tag k="source" v="survey"/>
  </way>
</osm>
