<?xml version='1.0' encoding='UTF-8'?>
<osm version="0.6" generator="libosmium/2.20.0">
  <way id="55364010" version="2" timestamp="2010-07-09T21:43:19Z" uid="74617" user="JohnSmith" changeset="5176956">
    <nd ref="85687119"/>
    <nd ref="85687623"/>
    <nd ref="85687624"/>
    <tag k="highway" v="residential"/>
    <tag k="maxspeed" v="50"/>
    <tag k="maxspeed:source" v="default residential speed limit in Australia"/>
    <tag k="name" v="Laurel Road"/>
  </way>
  <way id="55364011" version="2" timestamp="2010-07-09T21:44:16Z" uid="74617" user="JohnSmith" changeset="5176956">
    <nd ref="85686569"/>
    <nd ref="51252342"/>
    <nd ref="402537725"/>
    <tag k="highway" v="residential"/>
    <tag k="maxspeed" v="50"/>
    <tag k="maxspeed:source" v="default residential speed limit in Australia"/>
    <tag k="name" v="Birchwood Avenue"/>
  </way>
  <way id="55364012" version="2" timestamp="2010-07-09T21:41:52Z" uid="74617" user="JohnSmith" changeset="5176956">
    <nd ref="32531285"/>
    <nd ref="390932532"/>
    <tag k="highway" v="residential"/>
    <tag k="maxspeed" v="50"/>
    <tag k="maxspeed:source" v="default residential speed limit in Australia"/>
    <tag k="name" v="Corbett Street"/>
  </way>
  <way id="55364013" version="2" timestamp="2010-07-09T21:42:30Z" uid="74617" user="JohnSmith" changeset="5176956">
    <nd ref="695605422"/>
    <nd ref="454088562"/>
    <nd ref="401116231"/>
    <nd ref="401099571"/>
    <nd ref="401099575"/>
    <tag k="highway" v="residential"/>
    <tag k="maxspeed" v="50"/>
    <tag k="maxspeed:source" v="default residential speed limit in Australia"/>
    <tag k="name" v="Shearn Crescent"/>
  </way>
  <way id="55364015" version="2" timestamp="2010-07-09T21:41:10Z" uid="74617" user="JohnSmith" changeset="5176956">
    <nd ref="401096124"/>
    <nd ref="394609833"/>
    <nd ref="401096134"/>
    <nd ref="401088612"/>
    <tag k="highway" v="residential"/>
    <tag k="maxspeed" v="50"/>
    <tag k="maxspeed:source" v="default residential speed limit in Australia"/>
    <tag k="name" v="Oxcliffe Road"/>
  </way>
  <way id="55364016" version="2" timestamp="2010-07-09T20:55:29Z" uid="74617" user="JohnSmith" changeset="5176956">
    <nd ref="695605402"/>
    <nd ref="51940060"/>
    <nd ref="51939782"/>
    <tag k="highway" v="residential"/>
    <tag k="maxspeed" v="50"/>
    <tag k="maxspeed:source" v="default residential speed limit in Australia"/>
    <tag k="name" v="Blackbutt Road"/>
  </way>
  <way id="55364017" version="2" timestamp="2010-07-09T21:00:54Z" uid="74617" user="JohnSmith" changeset="5176956">
    <nd ref="390932532"/>
    <nd ref="32531301"/>
    <nd ref="32531302"/>
    <nd ref="390931773"/>
    <tag k="highway" v="residential"/>
    <tag k="maxspeed" v="50"/>
    <tag k="maxspeed:source" v="default residential speed limit in Australia"/>
    <tag k="name" v="Corbett Street"/>
  </way>
  <way id="55364018" version="2" timestamp="2010-07-09T21:43:39Z" uid="74617" user="JohnSmith" changeset="5176956">
    <nd ref="402240777"/>
    <nd ref="401096116"/>
    <tag k="highway" v="residential"/>
    <tag k="maxspeed" v="50"/>
    <tag k="maxspeed:source" v="default residential speed limit in Australia"/>
    <tag k="name" v="Queenscliffe Road"/>
  </way>
  <way id="55364019" version="2" timestamp="2010-07-09T21:13:49Z" uid="74617" user="JohnSmith" changeset="5176956">
    <nd ref="401096116"/>
    <nd ref="361862454"/>
    <tag k="highway" v="residential"/>
    <tag k="maxspeed" v="50"/>
    <tag k="maxspeed:source" v="default residential speed limit in Australia"/>
    <tag k="name" v="Queenscliffe Road"/>
  </way>
  <way id="55364020" version="2" timestamp="2010-07-09T20:59:34Z" uid="74617" user="JohnSmith" changeset="5176956">
    <nd ref="401099575"/>
    <nd ref="401119039"/>
    <nd ref="401098267"/>
    <nd ref="401098272"/>
    <nd ref="401098278"/>
    <tag k="highway" v="residential"/>
    <tag k="maxspeed" v="50"/>
    <tag k="maxspeed:source" v="default residential speed limit in Australia"/>
    <tag k="name" v="Shearn Crescent"/>
  </way>
  <way id="55364022" version="2" timestamp="2010-07-09T21:44:22Z" uid="74617" user="JohnSmith" changeset="5176956">
    <nd ref="402537725"/>
    <nd ref="695605433"/>
    <tag k="highway" v="residential"/>
    <tag k="maxspeed" v="50"/>
    <tag k="maxspeed:source" v="default residential speed limit in Australia"/>
    <tag k="name" v="Birchwood Avenue"/>
  </way>
  <way id="55364023" version="2" timestamp="2010-07-09T21:41:28Z" uid="74617" user="JohnSmith" changeset="5176956">
    <nd ref="51252343"/>
    <nd ref="402536307"/>
    <nd ref="402536472"/>
    <tag k="highway" v="residential"/>
    <tag k="maxspeed" v="50"/>
    <tag k="maxspeed:source" v="default residential speed limit in Australia"/>
    <tag k="name" v="Birchwood Avenue"/>
  </way>
  <way id="55364024" version="2" timestamp="2010-04-19T06:00:07Z" uid="4467" user="Rosscoe" changeset="4464991">
    <nd ref="695605434"/>
    <nd ref="695605435"/>
    <nd ref="695605436"/>
    <nd ref="695605433"/>
    <nd ref="695605437"/>
    <nd ref="695605438"/>
    <nd ref="695605439"/>
    <nd ref="51252343"/>
    <nd ref="695605434"/>
    <tag k="highway" v="residential"/>
    <tag k="junction" v="roundabout"/>
  </way>
  <way id="55364024" version="3" timestamp="2010-07-09T21:42:35Z" uid="74617" user="JohnSmith" changeset="5176956">
    <nd ref="695605434"/>
    <nd ref="695605435"/>
    <nd ref="695605436"/>
    <nd ref="695605433"/>
    <nd ref="695605437"/>
    <nd ref="695605438"/>
    <nd ref="695605439"/>
    <nd ref="51252343"/>
    <nd ref="695605434"/>
    <tag k="highway" v="residential"/>
    <tag k="junction" v="roundabout"/>
    <tag k="maxspeed" v="50"/>
    <tag k="maxspeed:source" v="default residential speed limit in Australia"/>
  </way>
  <way id="55364025" version="2" timestamp="2010-07-09T21:43:26Z" uid="74617" user="JohnSmith" changeset="5176956">
    <nd ref="402240784"/>
    <nd ref="402538328"/>
    <tag k="highway" v="residential"/>
    <tag k="maxspeed" v="50"/>
    <tag k="maxspeed:source" v="default residential speed limit in Australia"/>
    <tag k="name" v="Castle Road"/>
  </way>
  <way id="55364026" version="2" timestamp="2010-07-09T21:41:14Z" uid="74617" user="JohnSmith" changeset="5176956">
    <nd ref="402538328"/>
    <nd ref="402530145"/>
    <nd ref="402534097"/>
    <tag k="highway" v="residential"/>
    <tag k="maxspeed" v="50"/>
    <tag k="maxspeed:source" v="default residential speed limit in Australia"/>
    <tag k="name" v="Castle Road"/>
  </way>
  <way id="55364027" version="2" timestamp="2010-07-09T21:41:56Z" uid="74617" user="JohnSmith" changeset="5176956">
    <nd ref="695605411"/>
    <nd ref="695605421"/>
    <nd ref="695605413"/>
    <nd ref="695605414"/>
    <nd ref="401099566"/>
    <nd ref="695605422"/>
    <nd ref="695605416"/>
    <nd ref="695605418"/>
    <nd ref="695605419"/>
    <nd ref="401108923"/>
    <nd ref="695605411"/>
    <tag k="highway" v="residential"/>
    <tag k="junction" v="roundabout"/>
    <tag k="maxspeed" v="50"/>
    <tag k="maxspeed:source" v="default residential speed limit in Australia"/>
    <tag k="name" v="Albemarle Street"/>
  </way>
  <way id="55364028" version="2" timestamp="2010-07-09T21:43:09Z" uid="74617" user="JohnSmith" changeset="5176956">
    <nd ref="695605426"/>
    <nd ref="695605423"/>
    <nd ref="695605425"/>
    <nd ref="394607889"/>
    <nd ref="695605427"/>
    <nd ref="695605429"/>
    <nd ref="695605430"/>
    <nd ref="695605432"/>
    <nd ref="394607890"/>
    <nd ref="695605426"/>
    <tag k="highway" v="residential"/>
    <tag k="junction" v="roundabout"/>
    <tag k="maxspeed" v="50"/>
    <tag k="maxspeed:source" v="default residential speed limit in Australia"/>
    <tag k="name" v="Scalby Street"/>
  </way>
  <way id="55364065" version="1" timestamp="2010-04-13T17:40:01Z" uid="49111" user="Markus B" changeset="4415977">
    <nd ref="12249815"/>
    <nd ref="695607325"/>
    <tag k="highway" v="service"/>
  </way>
  <way id="55364087" version="1" timestamp="2010-04-13T17:40:45Z" uid="33382" user="de_muur" changeset="4415980">
    <nd ref="88990894"/>
    <nd ref="323858739"/>
    <nd ref="323858744"/>
    <nd ref="88990895"/>
    <tag k="highway" v="tertiary"/>
    <tag k="maxspeed" v="50"/>
    <tag k="name" v="Härsenstraße"/>
    <tag k="ref" v="K 8"/>
    <tag k="surface" v="paved"/>
  </way>
  <way id="55364358" version="2" timestamp="2010-07-09T18:34:06Z" uid="74617" user="JohnSmith" changeset="5175636">
    <nd ref="430207699"/>
    <nd ref="430207762"/>
    <tag k="highway" v="residential"/>
    <tag k="maxspeed" v="50"/>
    <tag k="maxspeed:source" v="default residential speed limit in Australia"/>
    <tag k="name" v="Sackville Terrace"/>
    <tag k="source" v="Yahoo"/>
    <tag k="source:name" v="survey"/>
  </way>
  <way id="55364359" version="2" timestamp="2010-07-09T18:20:27Z" uid="74617" user="JohnSmith" changeset="5175636">
    <nd ref="430207786"/>
    <nd ref="430207739"/>
    <tag k="highway" v="residential"/>
    <tag k="maxspeed" v="50"/>
    <tag k="maxspeed:source" v="default residential speed limit in Australia"/>
    <tag k="name" v="Edgehill Street"/>
    <tag k="source" v="Yahoo"/>
    <tag k="source:name" v="survey"/>
  </way>
  <way id="55364360" version="2" timestamp="2010-07-09T18:31:55Z" uid="74617" user="JohnSmith" changeset="5175636">
    <nd ref="430207739"/>
    <nd ref="370584884"/>
    <nd ref="31037553"/>
    <tag k="highway" v="residential"/>
    <tag k="maxspeed" v="50"/>
    <tag k="maxspeed:source" v="default residential speed limit in Australia"/>
    <tag k="name" v="Manning Street"/>
    <tag k="source" v="Yahoo Imagery"/>
    <tag k="source:name" v="survey"/>
  </way>
  <way id="55364362" version="2" timestamp="2010-07-09T18:36:29Z" uid="74617" user="JohnSmith" changeset="5175636">
    <nd ref="430207697"/>
    <nd ref="430207698"/>
    <nd ref="430207699"/>
    <tag k="highway" v="residential"/>
    <tag k="maxspeed" v="50"/>
    <tag k="maxspeed:source" v="default residential speed limit in Australia"/>
    <tag k="name" v="Joyce Street"/>
    <tag k="source" v="Yahoo"/>
    <tag k="source:name" v="survey"/>
  </way>
  <way id="55364363" version="2" timestamp="2010-07-09T18:22:35Z" uid="74617" user="JohnSmith" changeset="5175636">
    <nd ref="430207697"/>
    <nd ref="430207796"/>
    <tag k="highway" v="residential"/>
    <tag k="maxspeed" v="50"/>
    <tag k="maxspeed:source" v="default residential speed limit in Australia"/>
    <tag k="name" v="Andrew Street"/>
    <tag k="source" v="Yahoo"/>
    <tag k="source:name" v="survey"/>
  </way>
  <way id="55364364" version="2" timestamp="2010-07-09T18:39:47Z" uid="74617" user="JohnSmith" changeset="5175636">
    <nd ref="331963928"/>
    <nd ref="438164929"/>
    <nd ref="331963929"/>
    <nd ref="331963930"/>
    <nd ref="331963931"/>
    <tag k="highway" v="residential"/>
    <tag k="maxspeed" v="50"/>
    <tag k="maxspeed:source" v="default residential speed limit in Australia"/>
    <tag k="name" v="Hertha Road"/>
  </way>
  <way id="55364485" version="1" timestamp="2010-04-13T17:52:56Z" uid="33382" user="de_muur" changeset="4416076">
    <nd ref="254331550"/>
    <nd ref="323858735"/>
    <tag k="highway" v="tertiary"/>
    <tag k="maxspeed" v="70"/>
    <tag k="name" v="Härsenstraße"/>
    <tag k="ref" v="K 8"/>
    <tag k="surface" v="paved"/>
  </way>
  <way id="55364486" version="1" timestamp="2010-04-13T17:52:56Z" uid="33382" user="de_muur" changeset="4416076">
    <nd ref="88990889"/>
    <nd ref="600816918"/>
    <nd ref="344894342"/>
    <nd ref="88990890"/>
    <tag k="highway" v="tertiary"/>
    <tag k="maxspeed" v="50"/>
    <tag k="name" v="Härsenstraße"/>
    <tag k="ref" v="K 8"/>
    <tag k="surface" v="paved"/>
  </way>
</osm>
