<?xml version='1.0' encoding='UTF-8'?>
<osm version="0.6" generator="libosmium/2.20.0">
  <way id="55420180" version="2" timestamp="2010-07-09T07:58:59Z" uid="4467" user="Rosscoe" changeset="5171757">
    <nd ref="696484377"/>
    <nd ref="586693486"/>
    <nd ref="32881686"/>
    <nd ref="32881687"/>
    <nd ref="32881688"/>
    <nd ref="32881689"/>
    <nd ref="42024772"/>
    <nd ref="807684767"/>
    <tag k="highway" v="tertiary"/>
    <tag k="maxspeed" v="50"/>
    <tag k="name" v="Claremont Crescent"/>
  </way>
  <way id="55420181" version="2" timestamp="2010-04-18T13:26:49Z" uid="4467" user="Rosscoe" changeset="4457856">
    <nd ref="696484425"/>
    <nd ref="700948386"/>
    <tag k="highway" v="tertiary"/>
    <tag k="maxspeed" v="50"/>
    <tag k="name" v="Shenton Road"/>
  </way>
  <way id="55420190" version="2" timestamp="2010-07-09T18:15:20Z" uid="74617" user="JohnSmith" changeset="5175333">
    <nd ref="458226116"/>
    <nd ref="359001156"/>
    <nd ref="359001167"/>
    <nd ref="359001174"/>
    <nd ref="359001199"/>
    <nd ref="359001216"/>
    <nd ref="60176871"/>
    <tag k="highway" v="residential"/>
    <tag k="maxspeed" v="50"/>
    <tag k="maxspeed:source" v="default residential speed limit in Australia"/>
    <tag k="name" v="Strickland Street"/>
  </way>
  <way id="55420192" version="2" timestamp="2010-07-09T18:17:35Z" uid="74617" user="JohnSmith" changeset="5175333">
    <nd ref="458226116"/>
    <nd ref="456497689"/>
    <tag k="highway" v="residential"/>
    <tag k="maxspeed" v="50"/>
    <tag k="maxspeed:source" v="default residential speed limit in Australia"/>
    <tag k="name" v="Haldane Street"/>
  </way>
  <way id="55420193" version="2" timestamp="2010-07-09T18:18:58Z" uid="74617" user="JohnSmith" changeset="5175333">
    <nd ref="458226119"/>
    <nd ref="624247498"/>
    <nd ref="458226116"/>
    <tag k="highway" v="residential"/>
    <tag k="maxspeed" v="50"/>
    <tag k="maxspeed:source" v="default residential speed limit in Australia"/>
    <tag k="name" v="Haldane Street"/>
  </way>
  <way id="55420198" version="2" timestamp="2010-07-09T21:03:20Z" uid="74617" user="JohnSmith" changeset="5176956">
    <nd ref="390931865"/>
    <nd ref="360802292"/>
    <nd ref="360802288"/>
    <nd ref="360802279"/>
    <nd ref="360802265"/>
    <nd ref="360802254"/>
    <nd ref="360802247"/>
    <nd ref="360802235"/>
    <nd ref="360802227"/>
    <nd ref="360802217"/>
    <nd ref="360802211"/>
    <nd ref="360802199"/>
    <nd ref="360802194"/>
    <nd ref="360796798"/>
    <nd ref="599888837"/>
    <nd ref="360796802"/>
    <nd ref="360796810"/>
    <nd ref="360796815"/>
    <nd ref="360792887"/>
    <tag k="highway" v="residential"/>
    <tag k="maxspeed" v="50"/>
    <tag k="maxspeed:source" v="default residential speed limit in Australia"/>
    <tag k="name" v="Calais Road"/>
  </way>
  <way id="55420199" version="2" timestamp="2010-07-09T21:08:03Z" uid="74617" user="JohnSmith" changeset="5176956">
    <nd ref="390931768"/>
    <nd ref="390931769"/>
    <nd ref="390931770"/>
    <nd ref="390931772"/>
    <nd ref="390931773"/>
    <nd ref="390931776"/>
    <nd ref="390931778"/>
    <nd ref="390931779"/>
    <tag k="highway" v="residential"/>
    <tag k="maxspeed" v="50"/>
    <tag k="maxspeed:source" v="default residential speed limit in Australia"/>
    <tag k="name" v="Dunrossil Street"/>
  </way>
  <way id="55420202" version="2" timestamp="2010-07-09T18:28:43Z" uid="74617" user="JohnSmith" changeset="5175636">
    <nd ref="359712214"/>
    <nd ref="359712975"/>
    <nd ref="393782224"/>
    <nd ref="393782223"/>
    <nd ref="393782222"/>
    <nd ref="393782220"/>
    <nd ref="393782219"/>
    <nd ref="359712979"/>
    <nd ref="359713934"/>
    <nd ref="359713916"/>
    <nd ref="359713915"/>
    <nd ref="359712983"/>
    <tag k="highway" v="residential"/>
    <tag k="maxspeed" v="50"/>
    <tag k="maxspeed:source" v="default residential speed limit in Australia"/>
    <tag k="name" v="Deanmore Road"/>
  </way>
  <way id="55420203" version="2" timestamp="2010-07-09T18:39:39Z" uid="74617" user="JohnSmith" changeset="5175636">
    <nd ref="696484462"/>
    <nd ref="359715529"/>
    <nd ref="359715676"/>
    <tag k="highway" v="residential"/>
    <tag k="maxspeed" v="50"/>
    <tag k="maxspeed:source" v="default residential speed limit in Australia"/>
    <tag k="name" v="Abbett Street"/>
  </way>
  <way id="55420205" version="2" timestamp="2010-07-09T18:19:09Z" uid="74617" user="JohnSmith" changeset="5175636">
    <nd ref="696484494"/>
    <nd ref="359715578"/>
    <nd ref="359715643"/>
    <nd ref="359718583"/>
    <nd ref="359718636"/>
    <nd ref="359721957"/>
    <nd ref="359721884"/>
    <nd ref="359722410"/>
    <nd ref="359715541"/>
    <nd ref="359722723"/>
    <nd ref="359715546"/>
    <nd ref="391300379"/>
    <nd ref="391300381"/>
    <nd ref="391300385"/>
    <tag k="highway" v="residential"/>
    <tag k="maxspeed" v="50"/>
    <tag k="maxspeed:source" v="default residential speed limit in Australia"/>
    <tag k="name" v="Moorland Street"/>
  </way>
  <way id="55420206" version="2" timestamp="2010-07-09T18:37:14Z" uid="74617" user="JohnSmith" changeset="5175636">
    <nd ref="385981125"/>
    <nd ref="359715676"/>
    <tag k="highway" v="residential"/>
    <tag k="maxspeed" v="50"/>
    <tag k="maxspeed:source" v="default residential speed limit in Australia"/>
    <tag k="name" v="Brighton Road"/>
  </way>
  <way id="55420207" version="2" timestamp="2010-07-09T18:23:13Z" uid="74617" user="JohnSmith" changeset="5175636">
    <nd ref="359715676"/>
    <nd ref="359715668"/>
    <nd ref="32531298"/>
    <nd ref="343798547"/>
    <tag k="highway" v="residential"/>
    <tag k="maxspeed" v="50"/>
    <tag k="maxspeed:source" v="default residential speed limit in Australia"/>
    <tag k="name" v="Brighton Road"/>
  </way>
  <way id="55420208" version="2" timestamp="2010-07-09T18:35:03Z" uid="74617" user="JohnSmith" changeset="5175636">
    <nd ref="696484464"/>
    <nd ref="696484474"/>
    <nd ref="696484477"/>
    <nd ref="696484462"/>
    <nd ref="696484481"/>
    <nd ref="696484483"/>
    <nd ref="696484486"/>
    <nd ref="696484458"/>
    <nd ref="696484464"/>
    <tag k="highway" v="residential"/>
    <tag k="junction" v="roundabout"/>
    <tag k="maxspeed" v="50"/>
    <tag k="maxspeed:source" v="default residential speed limit in Australia"/>
    <tag k="name" v="Abbett Street"/>
  </way>
  <way id="55420210" version="2" timestamp="2010-07-09T18:39:03Z" uid="74617" user="JohnSmith" changeset="5175636">
    <nd ref="696484474"/>
    <nd ref="359715564"/>
    <nd ref="696484504"/>
    <tag k="highway" v="residential"/>
    <tag k="maxspeed" v="50"/>
    <tag k="maxspeed:source" v="default residential speed limit in Australia"/>
    <tag k="name" v="Moorland Street"/>
  </way>
  <way id="55420213" version="2" timestamp="2010-07-09T18:27:59Z" uid="74617" user="JohnSmith" changeset="5175636">
    <nd ref="359712983"/>
    <nd ref="359728476"/>
    <nd ref="359728481"/>
    <nd ref="359711760"/>
    <nd ref="359728488"/>
    <nd ref="359728508"/>
    <nd ref="359728510"/>
    <nd ref="359728525"/>
    <nd ref="359727947"/>
    <nd ref="31037113"/>
    <nd ref="281213637"/>
    <tag k="highway" v="residential"/>
    <tag k="maxspeed" v="50"/>
    <tag k="maxspeed:source" v="default residential speed limit in Australia"/>
    <tag k="name" v="Jeanes Road"/>
    <tag k="source:name" v="survey"/>
  </way>
</osm>
