<?xml version='1.0' encoding='UTF-8'?>
<osm version="0.6" generator="libosmium/2.20.0">
  <way id="55520093" version="4" timestamp="2011-02-25T17:48:19Z" uid="115477" user="wowik" changeset="7392583">
    <nd ref="250534052"/>
    <nd ref="1003783465"/>
    <nd ref="1003783248"/>
    <nd ref="1003783801"/>
    <nd ref="697767462"/>
    <nd ref="697767466"/>
    <nd ref="1003783954"/>
    <nd ref="697767470"/>
    <nd ref="1003782446"/>
    <nd ref="697767473"/>
    <nd ref="249542316"/>
    <tag k="addr:postcode" v="125310"/>
    <tag k="cladr:code" v="77000000000396600"/>
    <tag k="cladr:name" v="Новотушинский"/>
    <tag k="cladr:suffix" v="Проезд"/>
    <tag k="highway" v="secondary_link"/>
    <tag k="lanes" v="1"/>
    <tag k="lit" v="yes"/>
    <tag k="name" v="Новотушинский проезд"/>
    <tag k="omkum:code" v="18544"/>
    <tag k="omkum:old_name" v="Пятницкое шоссе (1986 г.)"/>
    <tag k="oneway" v="yes"/>
    <tag k="sorting_name" v="Новотушинский  проезд"/>
  </way>
</osm>
