<?xml version='1.0' encoding='UTF-8'?>
<osm version="0.6" generator="libosmium/2.20.0">
  <way id="55554140" version="2" timestamp="2010-07-09T05:29:24Z" uid="74617" user="JohnSmith" changeset="5170972">
    <nd ref="257496569"/>
    <nd ref="257496570"/>
    <nd ref="476031305"/>
    <nd ref="257496571"/>
    <nd ref="257266153"/>
    <tag k="highway" v="unclassified"/>
    <tag k="maxspeed" v="50"/>
    <tag k="maxspeed:source" v="default residential speed limit in Australia"/>
    <tag k="name" v="Marril Street"/>
  </way>
  <way id="55554140" version="3" timestamp="2010-07-09T05:37:02Z" uid="74617" user="JohnSmith" changeset="5170972">
    <nd ref="257496569"/>
    <nd ref="257496570"/>
    <nd ref="476031305"/>
    <nd ref="257496571"/>
    <nd ref="257266153"/>
    <tag k="highway" v="unclassified"/>
    <tag k="maxspeed" v="50"/>
    <tag k="maxspeed:source" v="default residential speed limit in Australia"/>
    <tag k="name" v="Marril Street"/>
  </way>
  <way id="55554496" version="2" timestamp="2010-07-09T05:28:39Z" uid="74617" user="JohnSmith" changeset="5170972">
    <nd ref="698275381"/>
    <nd ref="698275382"/>
    <tag k="highway" v="residential"/>
    <tag k="maxspeed" v="50"/>
    <tag k="maxspeed:source" v="default residential speed limit in Australia"/>
    <tag k="name" v="Brammall Street"/>
  </way>
  <way id="55554496" version="3" timestamp="2010-07-09T05:36:22Z" uid="74617" user="JohnSmith" changeset="5170972">
    <nd ref="698275381"/>
    <nd ref="698275382"/>
    <tag k="highway" v="residential"/>
    <tag k="maxspeed" v="50"/>
    <tag k="maxspeed:source" v="default residential speed limit in Australia"/>
    <tag k="name" v="Brammall Street"/>
  </way>
  <way id="55554576" version="2" timestamp="2010-07-09T05:31:42Z" uid="74617" user="JohnSmith" changeset="5170972">
    <nd ref="476031427"/>
    <nd ref="257497143"/>
    <nd ref="698275382"/>
    <nd ref="476031399"/>
    <nd ref="476031431"/>
    <tag k="highway" v="residential"/>
    <tag k="maxspeed" v="50"/>
    <tag k="maxspeed:source" v="default residential speed limit in Australia"/>
    <tag k="name" v="Rowitta Road"/>
  </way>
  <way id="55554576" version="3" timestamp="2010-07-09T05:39:16Z" uid="74617" user="JohnSmith" changeset="5170972">
    <nd ref="476031427"/>
    <nd ref="257497143"/>
    <nd ref="698275382"/>
    <nd ref="476031399"/>
    <nd ref="476031431"/>
    <tag k="highway" v="residential"/>
    <tag k="maxspeed" v="50"/>
    <tag k="maxspeed:source" v="default residential speed limit in Australia"/>
    <tag k="name" v="Rowitta Road"/>
  </way>
  <way id="55554577" version="2" timestamp="2010-07-09T05:28:25Z" uid="74617" user="JohnSmith" changeset="5170972">
    <nd ref="698276093"/>
    <nd ref="698276094"/>
    <tag k="highway" v="residential"/>
    <tag k="maxspeed" v="50"/>
    <tag k="maxspeed:source" v="default residential speed limit in Australia"/>
    <tag k="name" v="Natone Street"/>
  </way>
  <way id="55554577" version="3" timestamp="2010-07-09T05:36:09Z" uid="74617" user="JohnSmith" changeset="5170972">
    <nd ref="698276093"/>
    <nd ref="698276094"/>
    <tag k="highway" v="residential"/>
    <tag k="maxspeed" v="50"/>
    <tag k="maxspeed:source" v="default residential speed limit in Australia"/>
    <tag k="name" v="Natone Street"/>
  </way>
  <way id="55554579" version="2" timestamp="2010-07-09T05:27:29Z" uid="74617" user="JohnSmith" changeset="5170972">
    <nd ref="698276094"/>
    <nd ref="698276105"/>
    <nd ref="698276106"/>
    <nd ref="698276107"/>
    <nd ref="698276108"/>
    <nd ref="698276096"/>
    <nd ref="698276109"/>
    <nd ref="698276110"/>
    <nd ref="257496791"/>
    <nd ref="698276111"/>
    <nd ref="698276112"/>
    <nd ref="698276113"/>
    <nd ref="698276114"/>
    <nd ref="698276115"/>
    <nd ref="698276116"/>
    <nd ref="698276117"/>
    <nd ref="698276118"/>
    <nd ref="698276119"/>
    <nd ref="698276094"/>
    <tag k="highway" v="residential"/>
    <tag k="maxspeed" v="50"/>
    <tag k="maxspeed:source" v="default residential speed limit in Australia"/>
  </way>
  <way id="55554579" version="3" timestamp="2010-07-09T05:35:23Z" uid="74617" user="JohnSmith" changeset="5170972">
    <nd ref="698276094"/>
    <nd ref="698276105"/>
    <nd ref="698276106"/>
    <nd ref="698276107"/>
    <nd ref="698276108"/>
    <nd ref="698276096"/>
    <nd ref="698276109"/>
    <nd ref="698276110"/>
    <nd ref="257496791"/>
    <nd ref="698276111"/>
    <nd ref="698276112"/>
    <nd ref="698276113"/>
    <nd ref="698276114"/>
    <nd ref="698276115"/>
    <nd ref="698276116"/>
    <nd ref="698276117"/>
    <nd ref="698276118"/>
    <nd ref="698276119"/>
    <nd ref="698276094"/>
    <tag k="highway" v="residential"/>
    <tag k="maxspeed" v="50"/>
    <tag k="maxspeed:source" v="default residential speed limit in Australia"/>
  </way>
  <way id="55554581" version="2" timestamp="2010-07-09T05:30:21Z" uid="74617" user="JohnSmith" changeset="5170972">
    <nd ref="698276179"/>
    <nd ref="698276180"/>
    <tag k="highway" v="residential"/>
    <tag k="maxspeed" v="50"/>
    <tag k="maxspeed:source" v="default residential speed limit in Australia"/>
    <tag k="name" v="Short Drive"/>
  </way>
  <way id="55554581" version="3" timestamp="2010-07-09T05:37:56Z" uid="74617" user="JohnSmith" changeset="5170972">
    <nd ref="698276179"/>
    <nd ref="698276180"/>
    <tag k="highway" v="residential"/>
    <tag k="maxspeed" v="50"/>
    <tag k="maxspeed:source" v="default residential speed limit in Australia"/>
    <tag k="name" v="Short Drive"/>
  </way>
  <way id="55554705" version="2" timestamp="2010-07-09T05:29:39Z" uid="74617" user="JohnSmith" changeset="5170972">
    <nd ref="698277108"/>
    <nd ref="698277106"/>
    <tag k="highway" v="residential"/>
    <tag k="maxspeed" v="50"/>
    <tag k="maxspeed:source" v="default residential speed limit in Australia"/>
    <tag k="name" v="Hume Street"/>
  </way>
  <way id="55554705" version="3" timestamp="2010-07-09T05:37:17Z" uid="74617" user="JohnSmith" changeset="5170972">
    <nd ref="698277108"/>
    <nd ref="698277106"/>
    <tag k="highway" v="residential"/>
    <tag k="maxspeed" v="50"/>
    <tag k="maxspeed:source" v="default residential speed limit in Australia"/>
    <tag k="name" v="Hume Street"/>
  </way>
  <way id="55554706" version="2" timestamp="2010-07-09T05:31:55Z" uid="74617" user="JohnSmith" changeset="5170972">
    <nd ref="698277109"/>
    <nd ref="257496910"/>
    <nd ref="698277110"/>
    <tag k="highway" v="residential"/>
    <tag k="maxspeed" v="50"/>
    <tag k="maxspeed:source" v="default residential speed limit in Australia"/>
    <tag k="name" v="Beltana Street"/>
  </way>
  <way id="55554706" version="3" timestamp="2010-07-09T05:39:29Z" uid="74617" user="JohnSmith" changeset="5170972">
    <nd ref="698277109"/>
    <nd ref="257496910"/>
    <nd ref="698277110"/>
    <tag k="highway" v="residential"/>
    <tag k="maxspeed" v="50"/>
    <tag k="maxspeed:source" v="default residential speed limit in Australia"/>
    <tag k="name" v="Beltana Street"/>
  </way>
  <way id="55554708" version="2" timestamp="2010-07-09T05:28:57Z" uid="74617" user="JohnSmith" changeset="5170972">
    <nd ref="698277399"/>
    <nd ref="698277400"/>
    <nd ref="698277110"/>
    <nd ref="698277389"/>
    <tag k="highway" v="residential"/>
    <tag k="maxspeed" v="50"/>
    <tag k="maxspeed:source" v="default residential speed limit in Australia"/>
    <tag k="name" v="Park Road"/>
  </way>
  <way id="55554708" version="3" timestamp="2010-07-09T05:36:37Z" uid="74617" user="JohnSmith" changeset="5170972">
    <nd ref="698277399"/>
    <nd ref="698277400"/>
    <nd ref="698277110"/>
    <nd ref="698277389"/>
    <tag k="highway" v="residential"/>
    <tag k="maxspeed" v="50"/>
    <tag k="maxspeed:source" v="default residential speed limit in Australia"/>
    <tag k="name" v="Park Road"/>
  </way>
  <way id="55554709" version="2" timestamp="2010-06-01T02:54:35Z" uid="4467" user="Rosscoe" changeset="4871102">
    <nd ref="698277106"/>
    <nd ref="698277402"/>
    <nd ref="698277403"/>
    <nd ref="698277404"/>
    <nd ref="698277406"/>
    <nd ref="698277408"/>
    <nd ref="257496911"/>
    <nd ref="698277399"/>
    <nd ref="698277410"/>
    <tag k="highway" v="residential"/>
    <tag k="name" v="Ford Parade"/>
  </way>
  <way id="55554709" version="3" timestamp="2010-07-09T05:31:19Z" uid="74617" user="JohnSmith" changeset="5170972">
    <nd ref="698277106"/>
    <nd ref="698277402"/>
    <nd ref="698277403"/>
    <nd ref="698277404"/>
    <nd ref="698277406"/>
    <nd ref="698277408"/>
    <nd ref="257496911"/>
    <nd ref="698277399"/>
    <nd ref="698277410"/>
    <tag k="highway" v="residential"/>
    <tag k="maxspeed" v="50"/>
    <tag k="maxspeed:source" v="default residential speed limit in Australia"/>
    <tag k="name" v="Ford Parade"/>
  </way>
  <way id="55554709" version="4" timestamp="2010-07-09T05:38:53Z" uid="74617" user="JohnSmith" changeset="5170972">
    <nd ref="698277106"/>
    <nd ref="698277402"/>
    <nd ref="698277403"/>
    <nd ref="698277404"/>
    <nd ref="698277406"/>
    <nd ref="698277408"/>
    <nd ref="257496911"/>
    <nd ref="698277399"/>
    <nd ref="698277410"/>
    <tag k="highway" v="residential"/>
    <tag k="maxspeed" v="50"/>
    <tag k="maxspeed:source" v="default residential speed limit in Australia"/>
    <tag k="name" v="Ford Parade"/>
  </way>
</osm>
