<?xml version='1.0' encoding='UTF-8'?>
<osm version="0.6" generator="libosmium/2.20.0">
  <way id="55788495" version="6" timestamp="2010-07-08T17:37:10Z" uid="74617" user="JohnSmith" changeset="5167338">
    <nd ref="700774275"/>
    <nd ref="700774428"/>
    <nd ref="700774430"/>
    <nd ref="700774431"/>
    <nd ref="700774434"/>
    <tag k="highway" v="residential"/>
    <tag k="maxspeed" v="50"/>
    <tag k="maxspeed:source" v="default residential speed limit in Australia"/>
    <tag k="name" v="Owen Street"/>
    <tag k="oneway" v="yes"/>
  </way>
  <way id="55788559" version="3" timestamp="2010-07-08T17:37:42Z" uid="74617" user="JohnSmith" changeset="5167338">
    <nd ref="700774439"/>
    <nd ref="700774457"/>
    <nd ref="700774441"/>
    <tag k="highway" v="residential"/>
    <tag k="maxspeed" v="50"/>
    <tag k="maxspeed:source" v="default residential speed limit in Australia"/>
    <tag k="name" v="uckland Street"/>
  </way>
  <way id="55788566" version="5" timestamp="2010-07-08T17:36:52Z" uid="74617" user="JohnSmith" changeset="5167338">
    <nd ref="700774434"/>
    <nd ref="700775997"/>
    <tag k="highway" v="residential"/>
    <tag k="maxspeed" v="50"/>
    <tag k="maxspeed:source" v="default residential speed limit in Australia"/>
    <tag k="name" v="Owen Street"/>
    <tag k="oneway" v="yes"/>
  </way>
  <way id="55788608" version="2" timestamp="2010-07-08T17:37:25Z" uid="74617" user="JohnSmith" changeset="5167338">
    <nd ref="700774434"/>
    <nd ref="700774435"/>
    <nd ref="700774436"/>
    <nd ref="700774438"/>
    <nd ref="700774439"/>
    <tag k="highway" v="residential"/>
    <tag k="maxspeed" v="50"/>
    <tag k="maxspeed:source" v="default residential speed limit in Australia"/>
    <tag k="name" v="Owen Street"/>
  </way>
  <way id="55788658" version="6" timestamp="2010-07-08T17:36:10Z" uid="74617" user="JohnSmith" changeset="5167338">
    <nd ref="700776916"/>
    <nd ref="766982326"/>
    <nd ref="700777369"/>
    <nd ref="700774441"/>
    <nd ref="700777524"/>
    <nd ref="766982866"/>
    <nd ref="700777079"/>
    <nd ref="766982898"/>
    <nd ref="766982870"/>
    <nd ref="766982899"/>
    <nd ref="766982900"/>
    <nd ref="766982901"/>
    <nd ref="766982894"/>
    <nd ref="766982902"/>
    <nd ref="766982903"/>
    <nd ref="766982904"/>
    <tag k="highway" v="residential"/>
    <tag k="maxspeed" v="50"/>
    <tag k="maxspeed:source" v="default residential speed limit in Australia"/>
    <tag k="name" v="East Street"/>
  </way>
  <way id="55788714" version="3" timestamp="2010-07-08T17:37:40Z" uid="74617" user="JohnSmith" changeset="5167338">
    <nd ref="700777523"/>
    <nd ref="700777524"/>
    <tag k="highway" v="residential"/>
    <tag k="maxspeed" v="50"/>
    <tag k="maxspeed:source" v="default residential speed limit in Australia"/>
    <tag k="name" v="Rodney Drive"/>
  </way>
  <way id="55788717" version="2" timestamp="2010-07-08T17:37:56Z" uid="74617" user="JohnSmith" changeset="5167338">
    <nd ref="700777566"/>
    <nd ref="700777523"/>
    <tag k="highway" v="residential"/>
    <tag k="maxspeed" v="50"/>
    <tag k="maxspeed:source" v="default residential speed limit in Australia"/>
  </way>
  <way id="55788723" version="2" timestamp="2010-07-08T17:37:09Z" uid="74617" user="JohnSmith" changeset="5167338">
    <nd ref="700777369"/>
    <nd ref="700777566"/>
    <tag k="highway" v="residential"/>
    <tag k="maxspeed" v="50"/>
    <tag k="maxspeed:source" v="default residential speed limit in Australia"/>
    <tag k="name" v="Anne Street"/>
  </way>
  <way id="55788800" version="7" timestamp="2010-07-08T17:36:23Z" uid="74617" user="JohnSmith" changeset="5167338">
    <nd ref="700823217"/>
    <nd ref="700779141"/>
    <nd ref="700779340"/>
    <tag k="highway" v="residential"/>
    <tag k="maxspeed" v="50"/>
    <tag k="maxspeed:source" v="default residential speed limit in Australia"/>
    <tag k="name" v="Templeton Street"/>
  </way>
</osm>
