<?xml version='1.0' encoding='UTF-8'?>
<osm version="0.6" generator="libosmium/2.20.0">
  <way id="5580159" version="7" timestamp="2010-06-01T08:24:21Z" uid="4467" user="Rosscoe" changeset="4872615">
    <nd ref="652382243"/>
    <nd ref="41414386"/>
    <nd ref="652404556"/>
    <nd ref="41414388"/>
    <nd ref="652404558"/>
    <nd ref="652404559"/>
    <nd ref="652404560"/>
    <nd ref="41414391"/>
    <tag k="highway" v="residential"/>
    <tag k="name" v="Clement Street"/>
  </way>
  <way id="5580298" version="4" timestamp="2010-06-02T05:51:57Z" uid="4467" user="Rosscoe" changeset="4881008">
    <nd ref="41416854"/>
    <nd ref="41416853"/>
    <nd ref="41416850"/>
    <nd ref="158272753"/>
    <nd ref="41416847"/>
    <nd ref="158272002"/>
    <nd ref="41416846"/>
    <nd ref="41415982"/>
    <nd ref="40255128"/>
    <nd ref="41416257"/>
    <nd ref="41416259"/>
    <tag k="created_by" v="Potlatch 0.5d"/>
    <tag k="highway" v="residential"/>
    <tag k="name" v="Railway Street"/>
  </way>
  <way id="5580488" version="6" timestamp="2010-04-02T23:41:16Z" uid="20587" user="balrog-kun" changeset="4309152">
    <nd ref="41418502"/>
    <nd ref="261027044"/>
    <tag k="created_by" v="Potlatch 0.8c"/>
    <tag k="highway" v="residential"/>
    <tag k="name" v="South Recker Road"/>
    <tag k="tiger:cfcc" v="A41"/>
    <tag k="tiger:county" v="Maricopa, AZ"/>
    <tag k="tiger:reviewed" v="no"/>
    <tag k="tiger:separated" v="no"/>
    <tag k="tiger:source" v="tiger_import_dch_v0.6_20070809"/>
    <tag k="tiger:tlid" v="128367198:128823185:128823186:128252146"/>
  </way>
  <way id="5580554" version="8" timestamp="2010-06-01T06:40:12Z" uid="4467" user="Rosscoe" changeset="4872067">
    <nd ref="41419462"/>
    <nd ref="41419463"/>
    <nd ref="247708101"/>
    <nd ref="653257226"/>
    <nd ref="247708102"/>
    <nd ref="41418371"/>
    <nd ref="247708100"/>
    <nd ref="196829600"/>
    <nd ref="158272755"/>
    <nd ref="41422815"/>
    <nd ref="41418396"/>
    <nd ref="633779845"/>
    <tag k="highway" v="residential"/>
    <tag k="name" v="Barrington Street"/>
  </way>
  <way id="5580627" version="4" timestamp="2010-06-02T03:51:24Z" uid="4467" user="Rosscoe" changeset="4880447">
    <nd ref="41419820"/>
    <nd ref="247708104"/>
    <nd ref="653257236"/>
    <tag k="highway" v="residential"/>
    <tag k="name" v="Market Street"/>
  </way>
  <way id="5580848" version="4" timestamp="2010-06-02T01:54:07Z" uid="4467" user="Rosscoe" changeset="4880068">
    <nd ref="41416850"/>
    <nd ref="247707879"/>
    <nd ref="41422815"/>
    <tag k="highway" v="residential"/>
    <tag k="name" v="Gregson Street"/>
  </way>
  <way id="5580852" version="2" timestamp="2010-06-02T04:50:45Z" uid="4467" user="Rosscoe" changeset="4880669">
    <nd ref="36797940"/>
    <nd ref="41418396"/>
    <nd ref="36797941"/>
    <tag k="created_by" v="Potlatch alpha"/>
    <tag k="highway" v="primary"/>
    <tag k="name" v="Phillip Street"/>
  </way>
  <way id="5580855" version="6" timestamp="2010-06-01T06:40:43Z" uid="4467" user="Rosscoe" changeset="4872067">
    <nd ref="36798281"/>
    <nd ref="158214088"/>
    <nd ref="196829600"/>
    <tag k="highway" v="residential"/>
    <tag k="name" v="Bent Street"/>
  </way>
  <way id="5580878" version="4" timestamp="2010-06-01T14:12:26Z" uid="4467" user="Rosscoe" changeset="4874893">
    <nd ref="41423516"/>
    <nd ref="247708101"/>
    <nd ref="247708146"/>
    <nd ref="247708103"/>
    <tag k="created_by" v="Potlatch alpha"/>
    <tag k="highway" v="residential"/>
    <tag k="name" v="Cowper Street"/>
  </way>
</osm>
