<?xml version='1.0' encoding='UTF-8'?>
<osm version="0.6" generator="libosmium/2.20.0">
  <way id="55936422" version="2" timestamp="2011-03-11T20:36:57Z" uid="16922" user="amai" changeset="7527263">
    <nd ref="702233625"/>
    <nd ref="702233626"/>
    <nd ref="702233627"/>
    <nd ref="282887163"/>
    <nd ref="702233628"/>
    <nd ref="702233635"/>
    <nd ref="702233636"/>
    <nd ref="702233637"/>
    <nd ref="702233638"/>
    <nd ref="1197296238"/>
    <nd ref="702233639"/>
    <nd ref="702233640"/>
    <tag k="highway" v="residential"/>
    <tag k="name" v="FIXME"/>
    <tag k="source" v="Yahoo Aerial"/>
  </way>
  <way id="55936433" version="1" timestamp="2010-04-19T20:05:34Z" uid="38528" user="acrosscanadatrails" changeset="4471837">
    <nd ref="702233825"/>
    <nd ref="702233826"/>
    <nd ref="702233828"/>
    <nd ref="702233827"/>
    <nd ref="702233823"/>
    <nd ref="702233824"/>
    <nd ref="702233825"/>
    <tag k="addr:province" v="British Colombia"/>
    <tag k="addr:province:fr" v="Colombie-Britannique"/>
    <tag k="attribution" v="Natural Resources Canada"/>
    <tag k="boundary" v="national_park"/>
    <tag k="boundary:type" v="protected_area"/>
    <tag k="leisure" v="nature_reserve"/>
    <tag k="name" v="God&apos;s Pocket Marine Provincial Park"/>
    <tag k="name:fr" v="God&apos;s Pocket Marine Provincial Park"/>
    <tag k="source" v="NRCANprotarea_Import_2010"/>
    <tag k="source:url" v="http://geogratis.cgdi.gc.ca/geogratis/en/collection/metadata.do?id=29545"/>
  </way>
  <way id="55936566" version="1" timestamp="2010-04-19T20:09:23Z" uid="9581" user="Lobelt" changeset="4471885">
    <nd ref="702235416"/>
    <nd ref="315521958"/>
    <nd ref="268667397"/>
    <nd ref="268667398"/>
    <tag k="highway" v="secondary"/>
    <tag k="ref" v="K 5"/>
  </way>
  <way id="55936584" version="2" timestamp="2010-06-29T20:50:13Z" uid="74617" user="JohnSmith" changeset="5109183">
    <nd ref="702235713"/>
    <nd ref="702235709"/>
    <nd ref="702235617"/>
    <nd ref="702235615"/>
    <nd ref="702235696"/>
    <nd ref="702235711"/>
    <nd ref="702235713"/>
    <tag k="fixme" v="sport=rugby is ambiguous, see http://wiki.osm.org/wiki/Tag:sport%3Drugby for more details"/>
    <tag k="leisure" v="pitch"/>
    <tag k="name" v="Kidderminster Carolians RFC"/>
    <tag k="sport" v="rugby"/>
  </way>
</osm>
