<?xml version='1.0' encoding='UTF-8'?>
<osm version="0.6" generator="libosmium/2.20.0">
  <way id="55991032" version="1" timestamp="2010-04-20T19:55:32Z" uid="59758" user="rendle" changeset="4481057">
    <nd ref="596449610"/>
    <nd ref="702818460"/>
    <nd ref="702818462"/>
    <nd ref="702818990"/>
    <nd ref="702818464"/>
    <nd ref="702818467"/>
    <tag k="highway" v="residential"/>
    <tag k="source" v="Yahoo"/>
  </way>
  <way id="55991032" version="2" timestamp="2010-04-20T19:56:15Z" uid="59758" user="rendle" changeset="4481057">
    <nd ref="596449610"/>
    <nd ref="702818460"/>
    <nd ref="702818462"/>
    <nd ref="702818990"/>
    <nd ref="702818464"/>
    <nd ref="702818467"/>
    <tag k="highway" v="residential"/>
    <tag k="name" v="Richard van Britsomstraat"/>
    <tag k="source" v="Yahoo"/>
  </way>
  <way id="55991032" version="3" timestamp="2010-04-20T19:57:26Z" uid="59758" user="rendle" changeset="4481057">
    <nd ref="596449610"/>
    <nd ref="702818460"/>
    <nd ref="702818462"/>
    <nd ref="702818990"/>
    <nd ref="702835099"/>
    <nd ref="702818464"/>
    <nd ref="702818467"/>
    <tag k="highway" v="residential"/>
    <tag k="name" v="Richard van Britsomstraat"/>
    <tag k="source" v="Yahoo"/>
  </way>
  <way id="55991032" version="4" timestamp="2010-04-20T20:06:18Z" uid="59758" user="rendle" changeset="4481057">
    <nd ref="596449610"/>
    <nd ref="702818460"/>
    <nd ref="702818462"/>
    <nd ref="702818990"/>
    <tag k="highway" v="residential"/>
    <tag k="name" v="Richard van Britsomstraat"/>
    <tag k="source" v="Yahoo"/>
  </way>
  <way id="55991032" version="5" timestamp="2010-04-20T20:06:29Z" uid="59758" user="rendle" changeset="4481057">
    <nd ref="596449610"/>
    <nd ref="702818460"/>
    <nd ref="702818462"/>
    <nd ref="702818990"/>
    <tag k="highway" v="residential"/>
    <tag k="name" v="Richard van Britsomstraat"/>
    <tag k="oneway" v="yes"/>
    <tag k="source" v="Yahoo"/>
  </way>
</osm>
