<?xml version='1.0' encoding='UTF-8'?>
<osm version="0.6" generator="libosmium/2.20.0">
  <way id="56034400" version="3" timestamp="2011-02-19T15:57:37Z" uid="16922" user="amai" changeset="7333309">
    <nd ref="703382694"/>
    <nd ref="1161573499"/>
    <nd ref="703382691"/>
    <nd ref="703382693"/>
    <nd ref="676077041"/>
    <tag k="highway" v="residential"/>
    <tag k="name" v="อ่อนนุช 66  แยก 19-16"/>
    <tag k="name:en" v="On Nut 66 Yeak 19-16"/>
    <tag k="name:th" v="อ่อนนุช 66  แยก 19-16"/>
    <tag k="surface" v="paved"/>
  </way>
  <way id="56034872" version="2" timestamp="2011-03-15T22:45:57Z" uid="16922" user="amai" changeset="7571397">
    <nd ref="703386734"/>
    <nd ref="703386735"/>
    <nd ref="703386738"/>
    <nd ref="1203782336"/>
    <nd ref="703386739"/>
    <nd ref="703386740"/>
    <nd ref="703386741"/>
    <nd ref="703386742"/>
    <nd ref="703386743"/>
    <nd ref="703386744"/>
    <nd ref="1203782332"/>
    <nd ref="703386745"/>
    <tag k="highway" v="residential"/>
    <tag k="name" v="อ่อนนุช 66 แยก 25"/>
    <tag k="name:en" v="On Nut 66 Yeak 25"/>
    <tag k="name:th" v="อ่อนนุช 66 แยก 25"/>
    <tag k="surface" v="paved"/>
  </way>
</osm>
