<?xml version='1.0' encoding='UTF-8'?>
<osm version="0.6" generator="libosmium/2.20.0">
  <way id="56150257" version="1" timestamp="2010-04-23T19:34:43Z" uid="33382" user="de_muur" changeset="4506517">
    <nd ref="265779281"/>
    <nd ref="133075544"/>
    <nd ref="312113348"/>
    <nd ref="133075549"/>
    <nd ref="312001951"/>
    <nd ref="312002616"/>
    <nd ref="133075551"/>
    <nd ref="133075553"/>
    <nd ref="312002620"/>
    <nd ref="133075555"/>
    <tag k="highway" v="tertiary"/>
    <tag k="ref" v="K 20"/>
    <tag k="surface" v="paved"/>
  </way>
  <way id="56150580" version="2" timestamp="2010-12-19T18:22:01Z" uid="9581" user="Lobelt" changeset="6708931">
    <nd ref="704710526"/>
    <nd ref="704710519"/>
    <nd ref="704710524"/>
    <nd ref="704710521"/>
    <tag k="highway" v="living_street"/>
  </way>
  <way id="56150839" version="2" timestamp="2010-08-15T15:52:35Z" uid="9581" user="Lobelt" changeset="5501249">
    <nd ref="519358137"/>
    <nd ref="274847380"/>
    <nd ref="274847381"/>
    <nd ref="274847382"/>
    <nd ref="861402149"/>
    <nd ref="274847383"/>
    <nd ref="274847384"/>
    <tag k="description" v="http://www.eisenbahnmuseum-neustadt.de/"/>
    <tag k="electrified" v="no"/>
    <tag k="gauge" v="1435"/>
    <tag k="name" v="Kuckucksbähnel"/>
    <tag k="operator" v="Kuckucksbähnel-Betriebs-GmbH"/>
    <tag k="railway" v="rail"/>
    <tag k="ref" v="3432"/>
    <tag k="usage" v="tourism"/>
  </way>
  <way id="56150840" version="2" timestamp="2010-08-15T15:52:53Z" uid="9581" user="Lobelt" changeset="5501249">
    <nd ref="274847389"/>
    <nd ref="274847390"/>
    <nd ref="274847391"/>
    <nd ref="274847392"/>
    <nd ref="274847393"/>
    <nd ref="861403073"/>
    <nd ref="274847394"/>
    <nd ref="274847395"/>
    <nd ref="519358131"/>
    <nd ref="274847396"/>
    <nd ref="274847397"/>
    <nd ref="274847398"/>
    <nd ref="274847399"/>
    <nd ref="274847400"/>
    <nd ref="274847401"/>
    <tag k="description" v="http://www.eisenbahnmuseum-neustadt.de/"/>
    <tag k="electrified" v="no"/>
    <tag k="gauge" v="1435"/>
    <tag k="name" v="Kuckucksbähnel"/>
    <tag k="operator" v="Kuckucksbähnel-Betriebs-GmbH"/>
    <tag k="railway" v="rail"/>
    <tag k="ref" v="3432"/>
    <tag k="usage" v="tourism"/>
  </way>
  <way id="56150851" version="2" timestamp="2010-08-15T15:52:33Z" uid="9581" user="Lobelt" changeset="5501249">
    <nd ref="704719510"/>
    <nd ref="704719517"/>
    <nd ref="861402981"/>
    <nd ref="861401859"/>
    <nd ref="861401603"/>
    <nd ref="861404344"/>
    <nd ref="861403298"/>
    <tag k="name" v="Speyerbach"/>
    <tag k="waterway" v="stream"/>
  </way>
  <way id="56150852" version="2" timestamp="2010-08-15T15:52:24Z" uid="9581" user="Lobelt" changeset="5501249">
    <nd ref="861403298"/>
    <nd ref="861401890"/>
    <nd ref="861403023"/>
    <nd ref="861403370"/>
    <nd ref="861404808"/>
    <nd ref="861402650"/>
    <nd ref="861403927"/>
    <nd ref="861404383"/>
    <nd ref="861401636"/>
    <nd ref="704719534"/>
    <nd ref="704719515"/>
    <nd ref="704719496"/>
    <nd ref="704719482"/>
    <nd ref="704719543"/>
    <tag k="name" v="Speyerbach"/>
    <tag k="waterway" v="stream"/>
  </way>
  <way id="56150856" version="2" timestamp="2010-08-15T15:52:15Z" uid="9581" user="Lobelt" changeset="5501249">
    <nd ref="301945078"/>
    <nd ref="301945079"/>
    <nd ref="861404438"/>
    <nd ref="861401865"/>
    <nd ref="301945080"/>
    <nd ref="861404765"/>
    <nd ref="301945081"/>
    <nd ref="861404348"/>
    <nd ref="670740022"/>
    <nd ref="301945082"/>
    <tag k="highway" v="residential"/>
    <tag k="name" v="Konrad-Haag-Straße"/>
  </way>
  <way id="56150861" version="4" timestamp="2011-04-05T20:19:52Z" uid="9581" user="Lobelt" changeset="7778998">
    <nd ref="704719545"/>
    <nd ref="732659415"/>
    <nd ref="704719536"/>
    <nd ref="732659417"/>
    <tag k="highway" v="residential"/>
    <tag k="name" v="Mühlstraße"/>
  </way>
  <way id="56150863" version="3" timestamp="2010-06-29T19:14:48Z" uid="74617" user="JohnSmith" changeset="5108182">
    <nd ref="704719514"/>
    <nd ref="704719520"/>
    <nd ref="704719505"/>
    <nd ref="704719488"/>
    <nd ref="704719514"/>
    <tag k="fixme" v="sport=football is ambiguous, see http://wiki.osm.org/wiki/Football for more details"/>
    <tag k="leisure" v="pitch"/>
    <tag k="note" v="Hinweis an Auswärtsmannschaften: Man kann zum Eckball von links keinen Anlauf nehmen"/>
    <tag k="operator" v="VfL Elmstein"/>
    <tag k="sport" v="football"/>
    <tag k="type" v="soccer"/>
  </way>
  <way id="56150875" version="1" timestamp="2010-04-23T19:50:50Z" uid="33382" user="de_muur" changeset="4506675">
    <nd ref="265779211"/>
    <nd ref="311854350"/>
    <nd ref="133075542"/>
    <tag k="highway" v="tertiary"/>
    <tag k="layer" v="-1"/>
    <tag k="ref" v="K 20"/>
    <tag k="surface" v="paved"/>
  </way>
</osm>
