<?xml version='1.0' encoding='UTF-8'?>
<osm version="0.6" generator="libosmium/2.20.0">
  <way id="56218797" version="1" timestamp="2010-04-24T20:01:01Z" uid="86259" user="hasse_osm_korinthenkacker" changeset="4515386">
    <nd ref="705496037"/>
    <nd ref="705496036"/>
    <nd ref="705496040"/>
    <nd ref="705496038"/>
    <nd ref="705496037"/>
    <tag k="addr:city" v="München"/>
    <tag k="addr:country" v="DE"/>
    <tag k="addr:housenumber" v="33"/>
    <tag k="addr:postcode" v="81477"/>
    <tag k="addr:street" v="Meglingerstraße"/>
    <tag k="building" v="yes"/>
    <tag k="name" v="ALDI"/>
    <tag k="opening_hours" v="Mo-Sa 08:00-20:00"/>
    <tag k="shop" v="supermarket"/>
  </way>
  <way id="56218797" version="2" timestamp="2010-05-08T20:52:45Z" uid="36809" user="pfoten_weg_!_" changeset="4642954"/>
  <way id="56218798" version="1" timestamp="2010-04-24T20:01:01Z" uid="86259" user="hasse_osm_korinthenkacker" changeset="4515386">
    <nd ref="705496045"/>
    <nd ref="705496042"/>
    <nd ref="705496050"/>
    <nd ref="705496048"/>
    <nd ref="705496041"/>
    <nd ref="705496039"/>
    <nd ref="705496045"/>
    <tag k="addr:city" v="München"/>
    <tag k="addr:country" v="DE"/>
    <tag k="addr:housenumber" v="31"/>
    <tag k="addr:postcode" v="81477"/>
    <tag k="addr:street" v="Meglingerstraße"/>
    <tag k="building" v="yes"/>
    <tag k="name" v="OBI"/>
    <tag k="shop" v="doityourself"/>
  </way>
  <way id="56218798" version="2" timestamp="2010-05-08T20:52:45Z" uid="36809" user="pfoten_weg_!_" changeset="4642954"/>
  <way id="56218799" version="1" timestamp="2010-04-24T20:01:01Z" uid="86259" user="hasse_osm_korinthenkacker" changeset="4515386">
    <nd ref="705496046"/>
    <nd ref="705496043"/>
    <nd ref="705496051"/>
    <nd ref="705496049"/>
    <nd ref="705496053"/>
    <nd ref="705496052"/>
    <nd ref="705496047"/>
    <nd ref="705496044"/>
    <nd ref="705496046"/>
    <tag k="addr:city" v="München"/>
    <tag k="addr:country" v="DE"/>
    <tag k="addr:housenumber" v="27"/>
    <tag k="addr:postcode" v="81477"/>
    <tag k="addr:street" v="Meglingerstraße"/>
    <tag k="building" v="yes"/>
    <tag k="name" v="Dehner Garten- und Landschaftsbau"/>
    <tag k="shop" v="garden_centre"/>
  </way>
  <way id="56218799" version="3" timestamp="2010-05-08T21:28:23Z" uid="36809" user="pfoten_weg_!_" changeset="4643320"/>
</osm>
