<?xml version='1.0' encoding='UTF-8'?>
<osm version="0.6" generator="libosmium/2.20.0">
  <way id="56472317" version="2" timestamp="2010-11-09T10:07:11Z" uid="115477" user="wowik" changeset="6325744">
    <nd ref="708102825"/>
    <nd ref="708102827"/>
    <nd ref="708102830"/>
    <nd ref="708102831"/>
    <nd ref="708102825"/>
    <tag k="addr:city" v="Зеленоград"/>
    <tag k="addr:housenumber" v="1Ас1"/>
    <tag k="addr:street" v="1-й Западный проезд"/>
    <tag k="building" v="yes"/>
    <tag k="is_in" v="Russia"/>
  </way>
  <way id="56472317" version="4" timestamp="2011-02-03T13:25:31Z" uid="115477" user="wowik" changeset="7173991">
    <nd ref="708102825"/>
    <nd ref="708102827"/>
    <nd ref="708102830"/>
    <nd ref="708102831"/>
    <nd ref="708102825"/>
    <tag k="addr:city" v="Зеленоград"/>
    <tag k="addr:housenumber" v="1А с1"/>
    <tag k="addr:street" v="4-й Западный проезд"/>
    <tag k="building" v="yes"/>
    <tag k="is_in" v="Russia"/>
  </way>
  <way id="56472339" version="3" timestamp="2010-11-09T11:29:34Z" uid="115477" user="wowik" changeset="6327211">
    <nd ref="708103450"/>
    <nd ref="708103451"/>
    <nd ref="708103454"/>
    <nd ref="983253959"/>
    <nd ref="983253751"/>
    <nd ref="708103473"/>
    <nd ref="708103450"/>
    <tag k="addr:city" v="Зеленоград"/>
    <tag k="addr:housenumber" v="1с7"/>
    <tag k="addr:street" v="4-й Западный проезд"/>
    <tag k="building" v="yes"/>
    <tag k="is_in" v="Russia"/>
  </way>
  <way id="56472368" version="1" timestamp="2010-04-26T20:30:54Z" uid="151899" user="Bikeman2000" changeset="4535962">
    <nd ref="708103850"/>
    <nd ref="708103853"/>
    <nd ref="708103858"/>
    <nd ref="708103860"/>
    <nd ref="708103850"/>
    <tag k="leisure" v="pitch"/>
    <tag k="sport" v="football"/>
  </way>
  <way id="56472368" version="2" timestamp="2010-06-29T19:08:57Z" uid="74617" user="JohnSmith" changeset="5108182">
    <nd ref="708103850"/>
    <nd ref="708103853"/>
    <nd ref="708103858"/>
    <nd ref="708103860"/>
    <nd ref="708103850"/>
    <tag k="fixme" v="sport=football is ambiguous, see http://wiki.osm.org/wiki/Football for more details"/>
    <tag k="leisure" v="pitch"/>
    <tag k="sport" v="football"/>
  </way>
  <way id="56472444" version="2" timestamp="2010-11-09T14:32:51Z" uid="115477" user="wowik" changeset="6327211">
    <nd ref="708105412"/>
    <nd ref="708105414"/>
    <nd ref="708105416"/>
    <nd ref="983405243"/>
    <nd ref="983405183"/>
    <nd ref="983405253"/>
    <nd ref="983405320"/>
    <nd ref="708105418"/>
    <nd ref="983405196"/>
    <nd ref="983405137"/>
    <nd ref="708105412"/>
    <tag k="addr:city" v="Зеленоград"/>
    <tag k="addr:housenumber" v="13"/>
    <tag k="addr:street" v="1-й Западный проезд"/>
    <tag k="building" v="yes"/>
    <tag k="is_in" v="Russia"/>
  </way>
  <way id="56472465" version="2" timestamp="2010-11-09T14:32:41Z" uid="115477" user="wowik" changeset="6327211">
    <nd ref="708105768"/>
    <nd ref="708105769"/>
    <nd ref="708105771"/>
    <nd ref="708105773"/>
    <nd ref="708105768"/>
    <tag k="addr:city" v="Зеленоград"/>
    <tag k="addr:housenumber" v="1с3"/>
    <tag k="addr:street" v="1-й Западный проезд"/>
    <tag k="amenity" v="commercial"/>
    <tag k="building" v="yes"/>
    <tag k="is_in" v="Russia"/>
  </way>
  <way id="56472757" version="2" timestamp="2010-05-25T12:28:01Z" uid="115477" user="wowik" changeset="4803188">
    <nd ref="708110515"/>
    <nd ref="708110520"/>
    <nd ref="708110524"/>
    <nd ref="708110530"/>
    <nd ref="708110533"/>
    <tag k="highway" v="service"/>
    <tag k="living_street" v="yes"/>
  </way>
  <way id="56472758" version="2" timestamp="2010-05-25T12:28:01Z" uid="115477" user="wowik" changeset="4803188">
    <nd ref="708110572"/>
    <nd ref="708110578"/>
    <tag k="highway" v="service"/>
    <tag k="living_street" v="yes"/>
  </way>
  <way id="56472760" version="2" timestamp="2010-05-25T12:28:28Z" uid="115477" user="wowik" changeset="4803194">
    <nd ref="708110606"/>
    <nd ref="708110641"/>
    <nd ref="708110648"/>
    <tag k="highway" v="service"/>
    <tag k="living_street" v="yes"/>
  </way>
  <way id="56472908" version="2" timestamp="2010-09-10T15:06:06Z" uid="115477" user="wowik" changeset="5741766">
    <nd ref="708113359"/>
    <nd ref="708113381"/>
    <tag k="highway" v="unclassified"/>
    <tag k="living_street" v="yes"/>
  </way>
  <way id="56472908" version="4" timestamp="2011-01-18T12:20:56Z" uid="115477" user="wowik" changeset="7009789">
    <nd ref="708113359"/>
    <nd ref="1108919309"/>
    <tag k="highway" v="unclassified"/>
    <tag k="living_street" v="yes"/>
  </way>
  <way id="56472979" version="2" timestamp="2010-09-10T15:04:55Z" uid="115477" user="wowik" changeset="5741766">
    <nd ref="669557275"/>
    <nd ref="708114533"/>
    <nd ref="708114534"/>
    <tag k="highway" v="service"/>
    <tag k="living_street" v="yes"/>
  </way>
  <way id="56472979" version="4" timestamp="2011-01-14T16:43:10Z" uid="115477" user="wowik" changeset="6968851">
    <nd ref="669557275"/>
    <nd ref="1103423656"/>
    <nd ref="941362439"/>
    <nd ref="708114533"/>
    <nd ref="708114534"/>
    <tag k="highway" v="service"/>
    <tag k="living_street" v="yes"/>
  </way>
  <way id="56472980" version="2" timestamp="2010-09-10T15:04:32Z" uid="115477" user="wowik" changeset="5741766">
    <nd ref="708114528"/>
    <nd ref="708114537"/>
    <nd ref="708114538"/>
    <tag k="highway" v="service"/>
    <tag k="living_street" v="yes"/>
  </way>
  <way id="56472997" version="1" timestamp="2010-04-26T20:41:45Z" uid="151899" user="Bikeman2000" changeset="4536067">
    <nd ref="708114941"/>
    <nd ref="708114943"/>
    <nd ref="708114944"/>
    <nd ref="708114945"/>
    <nd ref="708114947"/>
    <nd ref="708114948"/>
    <nd ref="708114941"/>
    <tag k="amenity" v="parking"/>
  </way>
</osm>
