<?xml version='1.0' encoding='UTF-8'?>
<osm version="0.6" generator="libosmium/2.20.0">
  <way id="56681939" version="1" timestamp="2010-04-27T16:33:44Z" uid="30632" user="antblant" changeset="4542527">
    <nd ref="708896105"/>
    <nd ref="708888818"/>
    <nd ref="708892018"/>
    <nd ref="708895724"/>
    <nd ref="708895281"/>
    <nd ref="708887715"/>
    <nd ref="708891046"/>
    <nd ref="708896105"/>
    <tag k="addr:housenumber" v="118"/>
    <tag k="addr:street" v="Kormoranów"/>
    <tag k="building" v="residential"/>
    <tag k="building:levels" v="2"/>
    <tag k="building:usage:pl" v="Mieszkalny"/>
    <tag k="source" v="gis.um.szczecin.pl"/>
  </way>
  <way id="56681940" version="1" timestamp="2010-04-27T16:33:44Z" uid="30632" user="antblant" changeset="4542527">
    <nd ref="708889627"/>
    <nd ref="708896999"/>
    <nd ref="708892831"/>
    <nd ref="708896152"/>
    <nd ref="708889627"/>
    <tag k="building" v="manufacture"/>
    <tag k="building:levels" v="1"/>
    <tag k="building:usage:pl" v="Produkcyjny, usługowy lub gospodarczy dla rolnictwa, garaż podziemny"/>
    <tag k="source" v="gis.um.szczecin.pl"/>
  </way>
  <way id="56681941" version="1" timestamp="2010-04-27T16:33:44Z" uid="30632" user="antblant" changeset="4542527">
    <nd ref="708889422"/>
    <nd ref="708892620"/>
    <nd ref="708894933"/>
    <nd ref="708895894"/>
    <nd ref="708888642"/>
    <nd ref="708889422"/>
    <tag k="building" v="manufacture"/>
    <tag k="building:levels" v="1"/>
    <tag k="building:usage:pl" v="Produkcyjny, usługowy lub gospodarczy dla rolnictwa, garaż podziemny"/>
    <tag k="source" v="gis.um.szczecin.pl"/>
  </way>
  <way id="56681942" version="1" timestamp="2010-04-27T16:33:44Z" uid="30632" user="antblant" changeset="4542527">
    <nd ref="708896467"/>
    <nd ref="708889126"/>
    <nd ref="708887656"/>
    <nd ref="708890985"/>
    <nd ref="708896467"/>
    <tag k="building" v="manufacture"/>
    <tag k="building:levels" v="1"/>
    <tag k="building:usage:pl" v="Produkcyjny, usługowy lub gospodarczy dla rolnictwa, garaż podziemny"/>
    <tag k="source" v="gis.um.szczecin.pl"/>
  </way>
  <way id="56681943" version="1" timestamp="2010-04-27T16:33:44Z" uid="30632" user="antblant" changeset="4542527">
    <nd ref="708890600"/>
    <nd ref="708893894"/>
    <nd ref="708897215"/>
    <nd ref="708889833"/>
    <nd ref="708890600"/>
    <tag k="building" v="service"/>
    <tag k="building:levels" v="1"/>
    <tag k="building:usage:pl" v="Inny niemieszkalny lub podziemny"/>
    <tag k="source" v="gis.um.szczecin.pl"/>
  </way>
  <way id="56681944" version="1" timestamp="2010-04-27T16:33:44Z" uid="30632" user="antblant" changeset="4542527">
    <nd ref="708894735"/>
    <nd ref="708897835"/>
    <nd ref="708890444"/>
    <nd ref="708895936"/>
    <nd ref="708894735"/>
    <tag k="building" v="manufacture"/>
    <tag k="building:levels" v="1"/>
    <tag k="building:usage:pl" v="Produkcyjny, usługowy lub gospodarczy dla rolnictwa, garaż podziemny"/>
    <tag k="source" v="gis.um.szczecin.pl"/>
  </way>
  <way id="56681945" version="1" timestamp="2010-04-27T16:33:44Z" uid="30632" user="antblant" changeset="4542527">
    <nd ref="708892996"/>
    <nd ref="708896341"/>
    <nd ref="708896256"/>
    <nd ref="708892916"/>
    <nd ref="708889705"/>
    <nd ref="708892996"/>
    <tag k="building" v="manufacture"/>
    <tag k="building:levels" v="1"/>
    <tag k="building:usage:pl" v="Produkcyjny, usługowy lub gospodarczy dla rolnictwa, garaż podziemny"/>
    <tag k="source" v="gis.um.szczecin.pl"/>
  </way>
  <way id="56681946" version="1" timestamp="2010-04-27T16:33:44Z" uid="30632" user="antblant" changeset="4542527">
    <nd ref="708891141"/>
    <nd ref="708894585"/>
    <nd ref="708897685"/>
    <nd ref="708890295"/>
    <nd ref="708893531"/>
    <nd ref="708896891"/>
    <nd ref="708889523"/>
    <nd ref="708892722"/>
    <nd ref="708896003"/>
    <nd ref="708888746"/>
    <nd ref="708891945"/>
    <nd ref="708895208"/>
    <nd ref="708887643"/>
    <nd ref="708890974"/>
    <nd ref="708891141"/>
    <tag k="addr:housenumber" v="5"/>
    <tag k="addr:street" v="Wylotowa"/>
    <tag k="building" v="residential"/>
    <tag k="building:levels" v="2"/>
    <tag k="building:usage:pl" v="Mieszkalny"/>
    <tag k="source" v="gis.um.szczecin.pl"/>
  </way>
  <way id="56681947" version="1" timestamp="2010-04-27T16:33:45Z" uid="30632" user="antblant" changeset="4542527">
    <nd ref="708897978"/>
    <nd ref="708890574"/>
    <nd ref="708893867"/>
    <nd ref="708888926"/>
    <nd ref="708897978"/>
    <tag k="building" v="manufacture"/>
    <tag k="building:levels" v="1"/>
    <tag k="building:usage:pl" v="Produkcyjny, usługowy lub gospodarczy dla rolnictwa, garaż podziemny"/>
    <tag k="source" v="gis.um.szczecin.pl"/>
  </way>
  <way id="56681948" version="1" timestamp="2010-04-27T16:33:45Z" uid="30632" user="antblant" changeset="4542527">
    <nd ref="708889788"/>
    <nd ref="708892672"/>
    <nd ref="708895946"/>
    <nd ref="708890245"/>
    <nd ref="708893480"/>
    <nd ref="708889788"/>
    <tag k="building" v="service"/>
    <tag k="building:levels" v="1"/>
    <tag k="building:usage:pl" v="Inny niemieszkalny lub podziemny"/>
    <tag k="source" v="gis.um.szczecin.pl"/>
  </way>
  <way id="56681950" version="1" timestamp="2010-04-27T16:33:45Z" uid="30632" user="antblant" changeset="4542527">
    <nd ref="708887463"/>
    <nd ref="708890756"/>
    <nd ref="708894015"/>
    <nd ref="708897339"/>
    <nd ref="708887463"/>
    <tag k="addr:housenumber" v="16"/>
    <tag k="addr:street" v="Hoża"/>
    <tag k="building" v="residential"/>
    <tag k="building:levels" v="2"/>
    <tag k="building:usage:pl" v="Mieszkalny"/>
    <tag k="source" v="gis.um.szczecin.pl"/>
  </way>
  <way id="56681952" version="1" timestamp="2010-04-27T16:33:45Z" uid="30632" user="antblant" changeset="4542527">
    <nd ref="708897981"/>
    <nd ref="708890578"/>
    <nd ref="708893870"/>
    <nd ref="708892649"/>
    <nd ref="708897981"/>
    <tag k="addr:housenumber" v="10"/>
    <tag k="addr:street" v="Perkoza"/>
    <tag k="building" v="residential"/>
    <tag k="building:levels" v="2"/>
    <tag k="building:usage:pl" v="Mieszkalny"/>
    <tag k="source" v="gis.um.szczecin.pl"/>
  </way>
  <way id="56681953" version="1" timestamp="2010-04-27T16:33:45Z" uid="30632" user="antblant" changeset="4542527">
    <nd ref="708891780"/>
    <nd ref="708893541"/>
    <nd ref="708896901"/>
    <nd ref="708895037"/>
    <nd ref="708891780"/>
    <tag k="addr:housenumber" v="1"/>
    <tag k="addr:street" v="Gęsia"/>
    <tag k="building" v="residential"/>
    <tag k="building:levels" v="2"/>
    <tag k="building:usage:pl" v="Mieszkalny"/>
    <tag k="source" v="gis.um.szczecin.pl"/>
  </way>
  <way id="56681954" version="1" timestamp="2010-04-27T16:33:45Z" uid="30632" user="antblant" changeset="4542527">
    <nd ref="708889823"/>
    <nd ref="708889834"/>
    <nd ref="708893057"/>
    <nd ref="708893045"/>
    <nd ref="708889823"/>
    <tag k="addr:housenumber" v="15"/>
    <tag k="addr:street" v="Żabia"/>
    <tag k="building" v="residential"/>
    <tag k="building:levels" v="2"/>
    <tag k="building:usage:pl" v="Mieszkalny"/>
    <tag k="source" v="gis.um.szczecin.pl"/>
  </way>
  <way id="56681956" version="1" timestamp="2010-04-27T16:33:46Z" uid="30632" user="antblant" changeset="4542527">
    <nd ref="708889487"/>
    <nd ref="708892683"/>
    <nd ref="708895959"/>
    <nd ref="708888708"/>
    <nd ref="708889487"/>
    <tag k="addr:housenumber" v="12a"/>
    <tag k="addr:street" v="Ułańska"/>
    <tag k="building" v="residential"/>
    <tag k="building:levels" v="1"/>
    <tag k="building:usage:pl" v="Mieszkalny"/>
    <tag k="source" v="gis.um.szczecin.pl"/>
  </way>
  <way id="56681958" version="1" timestamp="2010-04-27T16:33:46Z" uid="30632" user="antblant" changeset="4542527">
    <nd ref="708887954"/>
    <nd ref="708891296"/>
    <nd ref="708894719"/>
    <nd ref="708897820"/>
    <nd ref="708890429"/>
    <nd ref="708893693"/>
    <nd ref="708887954"/>
    <tag k="addr:housenumber" v="13"/>
    <tag k="addr:street" v="Krucza"/>
    <tag k="building" v="residential"/>
    <tag k="building:levels" v="2"/>
    <tag k="building:usage:pl" v="Mieszkalny"/>
    <tag k="source" v="gis.um.szczecin.pl"/>
  </way>
  <way id="56681959" version="1" timestamp="2010-04-27T16:33:46Z" uid="30632" user="antblant" changeset="4542527">
    <nd ref="708890908"/>
    <nd ref="708894123"/>
    <nd ref="708897447"/>
    <nd ref="708890062"/>
    <nd ref="708893293"/>
    <nd ref="708896629"/>
    <nd ref="708890908"/>
    <tag k="addr:housenumber" v="11"/>
    <tag k="addr:street" v="Bielika"/>
    <tag k="building" v="residential"/>
    <tag k="building:levels" v="2"/>
    <tag k="building:usage:pl" v="Mieszkalny"/>
    <tag k="source" v="gis.um.szczecin.pl"/>
  </way>
  <way id="56681960" version="1" timestamp="2010-04-27T16:33:46Z" uid="30632" user="antblant" changeset="4542527">
    <nd ref="708894793"/>
    <nd ref="708897893"/>
    <nd ref="708890498"/>
    <nd ref="708893775"/>
    <nd ref="708897104"/>
    <nd ref="708889726"/>
    <nd ref="708894793"/>
    <tag k="addr:housenumber" v="2"/>
    <tag k="addr:street" v="Gagarina"/>
    <tag k="building" v="residential"/>
    <tag k="building:levels" v="2"/>
    <tag k="building:usage:pl" v="Mieszkalny"/>
    <tag k="source" v="gis.um.szczecin.pl"/>
  </way>
  <way id="56681961" version="1" timestamp="2010-04-27T16:33:46Z" uid="30632" user="antblant" changeset="4542527">
    <nd ref="708895762"/>
    <nd ref="708894981"/>
    <nd ref="708898208"/>
    <nd ref="708890673"/>
    <nd ref="708888416"/>
    <nd ref="708895762"/>
    <tag k="building" v="manufacture"/>
    <tag k="building:levels" v="1"/>
    <tag k="building:usage:pl" v="Produkcyjny, usługowy lub gospodarczy dla rolnictwa, garaż podziemny"/>
    <tag k="source" v="gis.um.szczecin.pl"/>
  </way>
  <way id="56681962" version="1" timestamp="2010-04-27T16:33:46Z" uid="30632" user="antblant" changeset="4542527">
    <nd ref="708887805"/>
    <nd ref="708890625"/>
    <nd ref="708893921"/>
    <nd ref="708897241"/>
    <nd ref="708889861"/>
    <nd ref="708892119"/>
    <nd ref="708891135"/>
    <nd ref="708887805"/>
    <tag k="addr:housenumber" v="31"/>
    <tag k="addr:street" v="Działkowa"/>
    <tag k="building" v="residential"/>
    <tag k="building:levels" v="1"/>
    <tag k="building:usage:pl" v="Mieszkalny"/>
    <tag k="source" v="gis.um.szczecin.pl"/>
  </way>
  <way id="56681965" version="1" timestamp="2010-04-27T16:33:46Z" uid="30632" user="antblant" changeset="4542527">
    <nd ref="708891031"/>
    <nd ref="708887701"/>
    <nd ref="708892856"/>
    <nd ref="708896198"/>
    <nd ref="708891031"/>
    <tag k="addr:housenumber" v="76"/>
    <tag k="addr:street" v="Gołębia"/>
    <tag k="building" v="residential"/>
    <tag k="building:levels" v="2"/>
    <tag k="building:usage:pl" v="Mieszkalny"/>
    <tag k="source" v="gis.um.szczecin.pl"/>
  </way>
  <way id="56681968" version="1" timestamp="2010-04-27T16:33:46Z" uid="30632" user="antblant" changeset="4542527">
    <nd ref="708887824"/>
    <nd ref="708891146"/>
    <nd ref="708894590"/>
    <nd ref="708897691"/>
    <nd ref="708890302"/>
    <nd ref="708893536"/>
    <nd ref="708896897"/>
    <nd ref="708889528"/>
    <nd ref="708887824"/>
    <tag k="addr:housenumber" v="8"/>
    <tag k="addr:street" v="Żelazna"/>
    <tag k="building" v="residential"/>
    <tag k="building:levels" v="3"/>
    <tag k="building:usage:pl" v="Mieszkalny"/>
    <tag k="source" v="gis.um.szczecin.pl"/>
  </way>
  <way id="56681969" version="1" timestamp="2010-04-27T16:33:46Z" uid="30632" user="antblant" changeset="4542527">
    <nd ref="708892806"/>
    <nd ref="708896116"/>
    <nd ref="708888828"/>
    <nd ref="708892028"/>
    <nd ref="708895291"/>
    <nd ref="708887724"/>
    <nd ref="708891055"/>
    <nd ref="708894370"/>
    <nd ref="708897599"/>
    <nd ref="708893158"/>
    <nd ref="708896375"/>
    <nd ref="708893034"/>
    <nd ref="708892806"/>
    <tag k="addr:housenumber" v="17"/>
    <tag k="addr:street" v="Studzienna"/>
    <tag k="building" v="residential"/>
    <tag k="building:levels" v="3"/>
    <tag k="building:usage:pl" v="Mieszkalny"/>
    <tag k="source" v="gis.um.szczecin.pl"/>
  </way>
  <way id="56681970" version="1" timestamp="2010-04-27T16:33:47Z" uid="30632" user="antblant" changeset="4542527">
    <nd ref="708897393"/>
    <nd ref="708890008"/>
    <nd ref="708893237"/>
    <nd ref="708896575"/>
    <nd ref="708889233"/>
    <nd ref="708892433"/>
    <nd ref="708895701"/>
    <nd ref="708888290"/>
    <nd ref="708891669"/>
    <nd ref="708894912"/>
    <nd ref="708897393"/>
    <tag k="addr:housenumber" v="15a"/>
    <tag k="addr:street" v="Ułańska"/>
    <tag k="building" v="residential"/>
    <tag k="building:levels" v="2"/>
    <tag k="building:usage:pl" v="Mieszkalny"/>
    <tag k="source" v="gis.um.szczecin.pl"/>
  </way>
  <way id="56681971" version="1" timestamp="2010-04-27T16:33:47Z" uid="30632" user="antblant" changeset="4542527">
    <nd ref="708892410"/>
    <nd ref="708895676"/>
    <nd ref="708888247"/>
    <nd ref="708891646"/>
    <nd ref="708894883"/>
    <nd ref="708897988"/>
    <nd ref="708890583"/>
    <nd ref="708893876"/>
    <nd ref="708897195"/>
    <nd ref="708889816"/>
    <nd ref="708892410"/>
    <tag k="addr:housenumber" v="38"/>
    <tag k="addr:street" v="Kormoranów"/>
    <tag k="building" v="residential"/>
    <tag k="building:levels" v="1.5"/>
    <tag k="building:usage:pl" v="Mieszkalny"/>
    <tag k="source" v="gis.um.szczecin.pl"/>
  </way>
  <way id="56681972" version="1" timestamp="2010-04-27T16:33:47Z" uid="30632" user="antblant" changeset="4542527">
    <nd ref="708892939"/>
    <nd ref="708896280"/>
    <nd ref="708888951"/>
    <nd ref="708892153"/>
    <nd ref="708892939"/>
    <tag k="addr:housenumber" v="11a"/>
    <tag k="addr:street" v="Krucza"/>
    <tag k="building" v="residential"/>
    <tag k="building:levels" v="2"/>
    <tag k="building:usage:pl" v="Mieszkalny"/>
    <tag k="source" v="gis.um.szczecin.pl"/>
  </way>
  <way id="56681973" version="1" timestamp="2010-04-27T16:33:47Z" uid="30632" user="antblant" changeset="4542527">
    <nd ref="708897289"/>
    <nd ref="708896179"/>
    <nd ref="708888871"/>
    <nd ref="708889905"/>
    <nd ref="708897289"/>
    <tag k="addr:housenumber" v="7"/>
    <tag k="addr:street" v="Ornitologów"/>
    <tag k="building" v="residential"/>
    <tag k="building:levels" v="2"/>
    <tag k="building:usage:pl" v="Mieszkalny"/>
    <tag k="source" v="gis.um.szczecin.pl"/>
  </way>
  <way id="56681974" version="1" timestamp="2010-04-27T16:33:47Z" uid="30632" user="antblant" changeset="4542527">
    <nd ref="708890348"/>
    <nd ref="708893595"/>
    <nd ref="708896944"/>
    <nd ref="708889572"/>
    <nd ref="708890348"/>
    <tag k="building" v="transportation"/>
    <tag k="building:levels" v="1"/>
    <tag k="building:usage:pl" v="Transportu i łączności, garaż naziemny"/>
    <tag k="source" v="gis.um.szczecin.pl"/>
  </way>
  <way id="56681975" version="1" timestamp="2010-04-27T16:33:47Z" uid="30632" user="antblant" changeset="4542527">
    <nd ref="708897429"/>
    <nd ref="708890044"/>
    <nd ref="708893272"/>
    <nd ref="708896611"/>
    <nd ref="708889102"/>
    <nd ref="708889267"/>
    <nd ref="708892469"/>
    <nd ref="708896783"/>
    <nd ref="708893448"/>
    <nd ref="708890211"/>
    <nd ref="708897429"/>
    <tag k="addr:housenumber" v="98"/>
    <tag k="addr:street" v="Kormoranów"/>
    <tag k="building" v="residential"/>
    <tag k="building:levels" v="2"/>
    <tag k="building:usage:pl" v="Mieszkalny"/>
    <tag k="source" v="gis.um.szczecin.pl"/>
  </way>
  <way id="56681976" version="1" timestamp="2010-04-27T16:33:47Z" uid="30632" user="antblant" changeset="4542527">
    <nd ref="708895873"/>
    <nd ref="708888620"/>
    <nd ref="708891826"/>
    <nd ref="708895086"/>
    <nd ref="708895873"/>
    <tag k="building" v="service"/>
    <tag k="building:levels" v="1"/>
    <tag k="building:usage:pl" v="Inny niemieszkalny lub podziemny"/>
    <tag k="source" v="gis.um.szczecin.pl"/>
  </way>
  <way id="56681977" version="1" timestamp="2010-04-27T16:33:47Z" uid="30632" user="antblant" changeset="4542527">
    <nd ref="708889262"/>
    <nd ref="708892463"/>
    <nd ref="708895730"/>
    <nd ref="708888344"/>
    <nd ref="708891697"/>
    <nd ref="708894948"/>
    <nd ref="708898129"/>
    <nd ref="708890633"/>
    <nd ref="708889262"/>
    <tag k="building" v="residential"/>
    <tag k="building:levels" v="2"/>
    <tag k="building:usage:pl" v="Mieszkalny"/>
    <tag k="source" v="gis.um.szczecin.pl"/>
  </way>
  <way id="56681978" version="1" timestamp="2010-04-27T16:33:48Z" uid="30632" user="antblant" changeset="4542527">
    <nd ref="708887597"/>
    <nd ref="708895270"/>
    <nd ref="708887704"/>
    <nd ref="708891035"/>
    <nd ref="708894314"/>
    <nd ref="708897577"/>
    <nd ref="708890188"/>
    <nd ref="708890926"/>
    <nd ref="708887597"/>
    <tag k="addr:housenumber" v="10"/>
    <tag k="addr:street" v="Zięby"/>
    <tag k="building" v="residential"/>
    <tag k="building:levels" v="3.5"/>
    <tag k="building:usage:pl" v="Mieszkalny"/>
    <tag k="source" v="gis.um.szczecin.pl"/>
  </way>
  <way id="56681979" version="1" timestamp="2010-04-27T16:33:48Z" uid="30632" user="antblant" changeset="4542527">
    <nd ref="708890137"/>
    <nd ref="708887653"/>
    <nd ref="708890981"/>
    <nd ref="708894198"/>
    <nd ref="708897522"/>
    <nd ref="708890137"/>
    <tag k="addr:housenumber" v="50"/>
    <tag k="addr:street" v="Kormoranów"/>
    <tag k="building" v="residential"/>
    <tag k="building:levels" v="2"/>
    <tag k="building:usage:pl" v="Mieszkalny"/>
    <tag k="source" v="gis.um.szczecin.pl"/>
  </way>
  <way id="56681980" version="1" timestamp="2010-04-27T16:33:48Z" uid="30632" user="antblant" changeset="4542527">
    <nd ref="708894051"/>
    <nd ref="708892659"/>
    <nd ref="708895936"/>
    <nd ref="708888683"/>
    <nd ref="708897375"/>
    <nd ref="708894051"/>
    <tag k="addr:housenumber" v="10"/>
    <tag k="addr:street" v="Gęsia"/>
    <tag k="building" v="residential"/>
    <tag k="building:levels" v="1"/>
    <tag k="building:usage:pl" v="Mieszkalny"/>
    <tag k="source" v="gis.um.szczecin.pl"/>
  </way>
  <way id="56681981" version="1" timestamp="2010-04-27T16:33:48Z" uid="30632" user="antblant" changeset="4542527">
    <nd ref="708897546"/>
    <nd ref="708890159"/>
    <nd ref="708893395"/>
    <nd ref="708896730"/>
    <nd ref="708889389"/>
    <nd ref="708887852"/>
    <nd ref="708891979"/>
    <nd ref="708897546"/>
    <tag k="building" v="manufacture"/>
    <tag k="building:levels" v="1"/>
    <tag k="building:usage:pl" v="Produkcyjny, usługowy lub gospodarczy dla rolnictwa, garaż podziemny"/>
    <tag k="source" v="gis.um.szczecin.pl"/>
  </way>
  <way id="56681982" version="1" timestamp="2010-04-27T16:33:48Z" uid="30632" user="antblant" changeset="4542527">
    <nd ref="708896800"/>
    <nd ref="708892161"/>
    <nd ref="708895424"/>
    <nd ref="708889456"/>
    <nd ref="708896800"/>
    <tag k="addr:housenumber" v="5"/>
    <tag k="addr:street" v="Żabia"/>
    <tag k="building" v="residential"/>
    <tag k="building:levels" v="2"/>
    <tag k="building:usage:pl" v="Mieszkalny"/>
    <tag k="source" v="gis.um.szczecin.pl"/>
  </way>
  <way id="56681983" version="1" timestamp="2010-04-27T16:33:48Z" uid="30632" user="antblant" changeset="4542527">
    <nd ref="708892189"/>
    <nd ref="708895453"/>
    <nd ref="708887895"/>
    <nd ref="708891216"/>
    <nd ref="708892189"/>
    <tag k="building" v="manufacture"/>
    <tag k="building:levels" v="1"/>
    <tag k="building:usage:pl" v="Produkcyjny, usługowy lub gospodarczy dla rolnictwa, garaż podziemny"/>
    <tag k="source" v="gis.um.szczecin.pl"/>
  </way>
  <way id="56681984" version="1" timestamp="2010-04-27T16:33:49Z" uid="30632" user="antblant" changeset="4542527">
    <nd ref="708889742"/>
    <nd ref="708891293"/>
    <nd ref="708894717"/>
    <nd ref="708897879"/>
    <nd ref="708889742"/>
    <tag k="addr:housenumber" v="8"/>
    <tag k="addr:street" v="Ranowska"/>
    <tag k="building" v="residential"/>
    <tag k="building:levels" v="2"/>
    <tag k="building:usage:pl" v="Mieszkalny"/>
    <tag k="source" v="gis.um.szczecin.pl"/>
  </way>
  <way id="56681985" version="1" timestamp="2010-04-27T16:33:49Z" uid="30632" user="antblant" changeset="4542527">
    <nd ref="708893121"/>
    <nd ref="708896461"/>
    <nd ref="708889121"/>
    <nd ref="708891974"/>
    <nd ref="708893296"/>
    <nd ref="708893121"/>
    <tag k="building" v="manufacture"/>
    <tag k="building:levels" v="1"/>
    <tag k="building:usage:pl" v="Produkcyjny, usługowy lub gospodarczy dla rolnictwa, garaż podziemny"/>
    <tag k="source" v="gis.um.szczecin.pl"/>
  </way>
  <way id="56681986" version="1" timestamp="2010-04-27T16:33:49Z" uid="30632" user="antblant" changeset="4542527">
    <nd ref="708889264"/>
    <nd ref="708896715"/>
    <nd ref="708893381"/>
    <nd ref="708892466"/>
    <nd ref="708895733"/>
    <nd ref="708888348"/>
    <nd ref="708891699"/>
    <nd ref="708894951"/>
    <nd ref="708889264"/>
    <tag k="addr:housenumber" v="6"/>
    <tag k="addr:street" v="Perkoza"/>
    <tag k="building" v="residential"/>
    <tag k="building:levels" v="2"/>
    <tag k="building:usage:pl" v="Mieszkalny"/>
    <tag k="source" v="gis.um.szczecin.pl"/>
  </way>
  <way id="56681987" version="1" timestamp="2010-04-27T16:33:49Z" uid="30632" user="antblant" changeset="4542527">
    <nd ref="708893665"/>
    <nd ref="708897006"/>
    <nd ref="708889635"/>
    <nd ref="708892838"/>
    <nd ref="708896166"/>
    <nd ref="708888860"/>
    <nd ref="708893665"/>
    <tag k="addr:housenumber" v="10"/>
    <tag k="addr:street" v="Pochyła"/>
    <tag k="building" v="residential"/>
    <tag k="building:levels" v="2"/>
    <tag k="building:usage:pl" v="Mieszkalny"/>
    <tag k="source" v="gis.um.szczecin.pl"/>
  </way>
  <way id="56681988" version="1" timestamp="2010-04-27T16:33:49Z" uid="30632" user="antblant" changeset="4542527">
    <nd ref="708889834"/>
    <nd ref="708894962"/>
    <nd ref="708898155"/>
    <nd ref="708893057"/>
    <nd ref="708889834"/>
    <tag k="addr:housenumber" v="13"/>
    <tag k="addr:street" v="Żabia"/>
    <tag k="building" v="residential"/>
    <tag k="building:levels" v="2"/>
    <tag k="building:usage:pl" v="Mieszkalny"/>
    <tag k="source" v="gis.um.szczecin.pl"/>
  </way>
  <way id="56681989" version="1" timestamp="2010-04-27T16:33:49Z" uid="30632" user="antblant" changeset="4542527">
    <nd ref="708889694"/>
    <nd ref="708897069"/>
    <nd ref="708894025"/>
    <nd ref="708897350"/>
    <nd ref="708889694"/>
    <tag k="addr:housenumber" v="8"/>
    <tag k="addr:street" v="Liściasta"/>
    <tag k="building" v="residential"/>
    <tag k="building:levels" v="2"/>
    <tag k="building:usage:pl" v="Mieszkalny"/>
    <tag k="source" v="gis.um.szczecin.pl"/>
  </way>
  <way id="56681990" version="1" timestamp="2010-04-27T16:33:49Z" uid="30632" user="antblant" changeset="4542527">
    <nd ref="708889818"/>
    <nd ref="708893040"/>
    <nd ref="708896381"/>
    <nd ref="708892200"/>
    <nd ref="708888997"/>
    <nd ref="708889818"/>
    <tag k="building" v="transportation"/>
    <tag k="building:levels" v="1"/>
    <tag k="building:usage:pl" v="Transportu i łączności, garaż naziemny"/>
    <tag k="source" v="gis.um.szczecin.pl"/>
  </way>
  <way id="56681991" version="1" timestamp="2010-04-27T16:33:49Z" uid="30632" user="antblant" changeset="4542527">
    <nd ref="708889223"/>
    <nd ref="708892424"/>
    <nd ref="708896688"/>
    <nd ref="708895691"/>
    <nd ref="708888276"/>
    <nd ref="708895510"/>
    <nd ref="708889223"/>
    <tag k="addr:housenumber" v="14"/>
    <tag k="addr:street" v="Żabia"/>
    <tag k="building" v="residential"/>
    <tag k="building:levels" v="2"/>
    <tag k="building:usage:pl" v="Mieszkalny"/>
    <tag k="source" v="gis.um.szczecin.pl"/>
  </way>
  <way id="56681992" version="1" timestamp="2010-04-27T16:33:49Z" uid="30632" user="antblant" changeset="4542527">
    <nd ref="708895883"/>
    <nd ref="708888630"/>
    <nd ref="708891832"/>
    <nd ref="708888892"/>
    <nd ref="708895093"/>
    <nd ref="708887529"/>
    <nd ref="708890848"/>
    <nd ref="708894073"/>
    <nd ref="708897398"/>
    <nd ref="708890013"/>
    <nd ref="708893241"/>
    <nd ref="708896580"/>
    <nd ref="708889237"/>
    <nd ref="708892438"/>
    <nd ref="708895883"/>
    <tag k="addr:housenumber" v="25"/>
    <tag k="addr:street" v="Kwarcowa"/>
    <tag k="building" v="residential"/>
    <tag k="building:levels" v="2"/>
    <tag k="building:usage:pl" v="Mieszkalny"/>
    <tag k="source" v="gis.um.szczecin.pl"/>
  </way>
  <way id="56681993" version="1" timestamp="2010-04-27T16:33:50Z" uid="30632" user="antblant" changeset="4542527">
    <nd ref="708897491"/>
    <nd ref="708890105"/>
    <nd ref="708893341"/>
    <nd ref="708896674"/>
    <nd ref="708897491"/>
    <tag k="building" v="manufacture"/>
    <tag k="building:levels" v="1"/>
    <tag k="building:usage:pl" v="Produkcyjny, usługowy lub gospodarczy dla rolnictwa, garaż podziemny"/>
    <tag k="source" v="gis.um.szczecin.pl"/>
  </way>
  <way id="56681994" version="1" timestamp="2010-04-27T16:33:50Z" uid="30632" user="antblant" changeset="4542527">
    <nd ref="708891735"/>
    <nd ref="708893137"/>
    <nd ref="708894989"/>
    <nd ref="708887421"/>
    <nd ref="708890693"/>
    <nd ref="708891735"/>
    <tag k="addr:housenumber" v="64"/>
    <tag k="addr:street" v="Kukułeczki"/>
    <tag k="building" v="residential"/>
    <tag k="building:levels" v="2"/>
    <tag k="building:usage:pl" v="Mieszkalny"/>
    <tag k="source" v="gis.um.szczecin.pl"/>
  </way>
  <way id="56681995" version="1" timestamp="2010-04-27T16:33:50Z" uid="30632" user="antblant" changeset="4542527">
    <nd ref="708895363"/>
    <nd ref="708887796"/>
    <nd ref="708891127"/>
    <nd ref="708892042"/>
    <nd ref="708894571"/>
    <nd ref="708897670"/>
    <nd ref="708890282"/>
    <nd ref="708893517"/>
    <nd ref="708896877"/>
    <nd ref="708889510"/>
    <nd ref="708892708"/>
    <nd ref="708895985"/>
    <nd ref="708892103"/>
    <nd ref="708888902"/>
    <nd ref="708896223"/>
    <nd ref="708888733"/>
    <nd ref="708895363"/>
    <tag k="addr:housenumber" v="22"/>
    <tag k="addr:street" v="Zbyszka z Bogdańca"/>
    <tag k="building" v="residential"/>
    <tag k="building:levels" v="2"/>
    <tag k="building:usage:pl" v="Mieszkalny"/>
    <tag k="source" v="gis.um.szczecin.pl"/>
  </way>
  <way id="56681996" version="1" timestamp="2010-04-27T16:33:50Z" uid="30632" user="antblant" changeset="4542527">
    <nd ref="708893921"/>
    <nd ref="708897535"/>
    <nd ref="708894209"/>
    <nd ref="708897241"/>
    <nd ref="708893921"/>
    <tag k="building" v="manufacture"/>
    <tag k="building:levels" v="1"/>
    <tag k="building:usage:pl" v="Produkcyjny, usługowy lub gospodarczy dla rolnictwa, garaż podziemny"/>
    <tag k="source" v="gis.um.szczecin.pl"/>
  </way>
  <way id="56681997" version="1" timestamp="2010-04-27T16:33:50Z" uid="30632" user="antblant" changeset="4542527">
    <nd ref="708897180"/>
    <nd ref="708889803"/>
    <nd ref="708893022"/>
    <nd ref="708896365"/>
    <nd ref="708897180"/>
    <tag k="building" v="transportation"/>
    <tag k="building:levels" v="1"/>
    <tag k="building:usage:pl" v="Transportu i łączności, garaż naziemny"/>
    <tag k="source" v="gis.um.szczecin.pl"/>
  </way>
  <way id="56681998" version="1" timestamp="2010-04-27T16:33:50Z" uid="30632" user="antblant" changeset="4542527">
    <nd ref="708890863"/>
    <nd ref="708894084"/>
    <nd ref="708897408"/>
    <nd ref="708890024"/>
    <nd ref="708893252"/>
    <nd ref="708896591"/>
    <nd ref="708889247"/>
    <nd ref="708890863"/>
    <tag k="building" v="transportation"/>
    <tag k="building:levels" v="1"/>
    <tag k="building:usage:pl" v="Transportu i łączności, garaż naziemny"/>
    <tag k="source" v="gis.um.szczecin.pl"/>
  </way>
  <way id="56681999" version="1" timestamp="2010-04-27T16:33:50Z" uid="30632" user="antblant" changeset="4542527">
    <nd ref="708897979"/>
    <nd ref="708896384"/>
    <nd ref="708890575"/>
    <nd ref="708893868"/>
    <nd ref="708897187"/>
    <nd ref="708889808"/>
    <nd ref="708893030"/>
    <nd ref="708896370"/>
    <nd ref="708889034"/>
    <nd ref="708897979"/>
    <tag k="addr:housenumber" v="29"/>
    <tag k="addr:street" v="Liściasta"/>
    <tag k="building" v="residential"/>
    <tag k="building:levels" v="2"/>
    <tag k="building:usage:pl" v="Mieszkalny"/>
    <tag k="source" v="gis.um.szczecin.pl"/>
  </way>
</osm>
