<?xml version='1.0' encoding='UTF-8'?>
<osm version="0.6" generator="libosmium/2.20.0">
  <way id="57014707" version="2" timestamp="2010-11-03T15:42:44Z" uid="33382" user="de_muur" changeset="6277111">
    <nd ref="711605529"/>
    <nd ref="711605542"/>
    <nd ref="711605554"/>
    <nd ref="711605566"/>
    <nd ref="711605558"/>
    <nd ref="711605571"/>
    <nd ref="711605539"/>
    <nd ref="711605540"/>
    <nd ref="711605552"/>
    <nd ref="711605564"/>
    <nd ref="711605533"/>
    <nd ref="711605531"/>
    <nd ref="711605547"/>
    <nd ref="711605562"/>
    <nd ref="711605527"/>
    <nd ref="711605569"/>
    <nd ref="711605536"/>
    <nd ref="711605550"/>
    <nd ref="711605563"/>
    <nd ref="711605555"/>
    <nd ref="711605568"/>
    <nd ref="711605535"/>
    <nd ref="711605548"/>
    <nd ref="711605546"/>
    <nd ref="975869255"/>
    <nd ref="711605560"/>
    <nd ref="711605551"/>
    <nd ref="711605537"/>
    <nd ref="711605543"/>
    <nd ref="711605529"/>
    <tag k="landuse" v="residential"/>
  </way>
  <way id="57014739" version="2" timestamp="2010-11-19T11:57:39Z" uid="115477" user="wowik" changeset="6406057">
    <nd ref="711606380"/>
    <nd ref="994554965"/>
    <nd ref="994555041"/>
    <nd ref="711606385"/>
    <nd ref="711606386"/>
    <nd ref="711606388"/>
    <nd ref="711606390"/>
    <nd ref="711606391"/>
    <nd ref="711606392"/>
    <nd ref="711606380"/>
    <tag k="addr:city" v="Зеленоград"/>
    <tag k="amenity" v="parking"/>
    <tag k="comment" v="Гаражный кооператив"/>
    <tag k="name" v="ГСК"/>
    <tag k="parking" v="garages"/>
  </way>
  <way id="57014739" version="3" timestamp="2011-01-13T14:29:12Z" uid="115477" user="wowik" changeset="6957620">
    <nd ref="711606380"/>
    <nd ref="994554965"/>
    <nd ref="994555041"/>
    <nd ref="1102072983"/>
    <nd ref="1102072722"/>
    <nd ref="711606385"/>
    <nd ref="711606386"/>
    <nd ref="711606388"/>
    <nd ref="711606390"/>
    <nd ref="711606391"/>
    <nd ref="711606392"/>
    <nd ref="711606380"/>
    <tag k="addr:city" v="Зеленоград"/>
    <tag k="amenity" v="parking"/>
    <tag k="comment" v="Гаражный кооператив"/>
    <tag k="name" v="ГСК"/>
    <tag k="parking" v="garages"/>
  </way>
  <way id="57014739" version="4" timestamp="2011-01-31T13:43:53Z" uid="115477" user="wowik" changeset="7145124">
    <nd ref="711606380"/>
    <nd ref="994554965"/>
    <nd ref="994555041"/>
    <nd ref="1102072983"/>
    <nd ref="1102072722"/>
    <nd ref="711606385"/>
    <nd ref="711606386"/>
    <nd ref="711606388"/>
    <nd ref="711606390"/>
    <nd ref="711606391"/>
    <nd ref="1129409649"/>
    <nd ref="1129409737"/>
    <nd ref="711606392"/>
    <nd ref="711606380"/>
    <tag k="addr:city" v="Зеленоград"/>
    <tag k="amenity" v="parking"/>
    <tag k="comment" v="Гаражный кооператив"/>
    <tag k="name" v="ГСК"/>
    <tag k="parking" v="garages"/>
  </way>
  <way id="57014899" version="1" timestamp="2010-04-29T08:37:29Z" uid="244897" user="M526244" changeset="4555354">
    <nd ref="308445823"/>
    <nd ref="308445791"/>
    <nd ref="308445792"/>
    <nd ref="308445793"/>
    <nd ref="308445794"/>
    <nd ref="308445795"/>
    <nd ref="308445796"/>
    <nd ref="308445797"/>
    <nd ref="308445798"/>
    <tag k="highway" v="residential"/>
    <tag k="name" v="St Martin Place"/>
  </way>
  <way id="57014899" version="2" timestamp="2010-07-06T17:47:31Z" uid="74617" user="JohnSmith" changeset="5152225">
    <nd ref="308445823"/>
    <nd ref="308445791"/>
    <nd ref="308445792"/>
    <nd ref="308445793"/>
    <nd ref="308445794"/>
    <nd ref="308445795"/>
    <nd ref="308445796"/>
    <nd ref="308445797"/>
    <nd ref="308445798"/>
    <tag k="highway" v="residential"/>
    <tag k="maxspeed" v="50"/>
    <tag k="maxspeed:source" v="default residential speed limit in Australia"/>
    <tag k="name" v="St Martin Place"/>
  </way>
  <way id="57014924" version="2" timestamp="2011-01-27T12:13:23Z" uid="115477" user="wowik" changeset="7102995">
    <nd ref="711614292"/>
    <nd ref="1123332222"/>
    <nd ref="1123332286"/>
    <nd ref="1123331691"/>
    <nd ref="1123332667"/>
    <nd ref="711614308"/>
    <nd ref="711614282"/>
    <nd ref="711614284"/>
    <nd ref="711614287"/>
    <nd ref="711614290"/>
    <nd ref="711614292"/>
    <tag k="addr:city" v="Зеленоград"/>
    <tag k="addr:housenumber" v="2 с5"/>
    <tag k="addr:street" v="Проезд N 4807"/>
    <tag k="building" v="yes"/>
    <tag k="building:levels" v="2"/>
  </way>
  <way id="57014926" version="2" timestamp="2011-01-26T19:47:01Z" uid="115477" user="wowik" changeset="7097032">
    <nd ref="711614541"/>
    <nd ref="711614544"/>
    <nd ref="711614546"/>
    <nd ref="711614549"/>
    <nd ref="711614541"/>
    <tag k="addr:city" v="Зеленоград"/>
    <tag k="addr:housenumber" v="2 с3"/>
    <tag k="addr:street" v="Проезд N 4807"/>
    <tag k="building" v="yes"/>
  </way>
  <way id="57014926" version="3" timestamp="2011-01-27T12:13:38Z" uid="115477" user="wowik" changeset="7102995">
    <nd ref="711614541"/>
    <nd ref="711614544"/>
    <nd ref="711614546"/>
    <nd ref="711614549"/>
    <nd ref="711614541"/>
    <tag k="addr:city" v="Зеленоград"/>
    <tag k="addr:housenumber" v="2 с3"/>
    <tag k="addr:street" v="Проезд N 4807"/>
    <tag k="building" v="yes"/>
    <tag k="building:levels" v="2"/>
  </way>
  <way id="57014964" version="2" timestamp="2011-01-26T19:46:35Z" uid="115477" user="wowik" changeset="7097032">
    <nd ref="711615211"/>
    <nd ref="711615213"/>
    <nd ref="711615215"/>
    <nd ref="711615217"/>
    <nd ref="711615211"/>
    <tag k="addr:city" v="Зеленоград"/>
    <tag k="addr:country" v="RU"/>
    <tag k="addr:housenumber" v="12 с1"/>
    <tag k="addr:street" v="Сосновая аллея"/>
    <tag k="building" v="yes"/>
  </way>
</osm>
