<?xml version='1.0' encoding='UTF-8'?>
<osm version="0.6" generator="libosmium/2.20.0">
  <way id="5732042" version="6" timestamp="2010-06-26T14:15:46Z" uid="4467" user="Rosscoe" changeset="5081355">
    <nd ref="43496324"/>
    <nd ref="43495779"/>
    <nd ref="259139393"/>
    <nd ref="43501535"/>
    <nd ref="43500946"/>
    <nd ref="43502481"/>
    <nd ref="43500947"/>
    <nd ref="43500948"/>
    <nd ref="43500950"/>
    <nd ref="259139776"/>
    <nd ref="43500951"/>
    <nd ref="43500954"/>
    <nd ref="43503639"/>
    <nd ref="43500959"/>
    <tag k="highway" v="residential"/>
    <tag k="name" v="Gove Street"/>
  </way>
  <way id="5732042" version="7" timestamp="2010-07-09T02:47:45Z" uid="74617" user="JohnSmith" changeset="5170713">
    <nd ref="43496324"/>
    <nd ref="43495779"/>
    <nd ref="259139393"/>
    <nd ref="43501535"/>
    <nd ref="43500946"/>
    <nd ref="43502481"/>
    <nd ref="43500947"/>
    <nd ref="43500948"/>
    <nd ref="43500950"/>
    <nd ref="259139776"/>
    <nd ref="43500951"/>
    <nd ref="43500954"/>
    <nd ref="43503639"/>
    <nd ref="43500959"/>
    <tag k="highway" v="residential"/>
    <tag k="maxspeed" v="50"/>
    <tag k="maxspeed:source" v="default residential speed limit in Australia"/>
    <tag k="name" v="Gove Street"/>
  </way>
  <way id="5732042" version="8" timestamp="2011-04-23T03:21:44Z" uid="4467" user="Rosscoe" changeset="7940184">
    <nd ref="43496324"/>
    <nd ref="43495779"/>
    <nd ref="259139393"/>
    <nd ref="43501535"/>
    <nd ref="43500946"/>
    <nd ref="43502481"/>
    <nd ref="43500947"/>
    <nd ref="43500948"/>
    <nd ref="43500950"/>
    <nd ref="259139776"/>
    <nd ref="43500951"/>
    <nd ref="43500954"/>
    <nd ref="43503639"/>
    <nd ref="43500959"/>
    <tag k="highway" v="residential"/>
    <tag k="maxspeed" v="50"/>
    <tag k="name" v="Gove Street"/>
    <tag k="source:maxspeed" v="default residential speed limit in Australia"/>
  </way>
  <way id="5732068" version="4" timestamp="2010-07-09T02:50:11Z" uid="74617" user="JohnSmith" changeset="5170713">
    <nd ref="43501535"/>
    <nd ref="43502466"/>
    <nd ref="43498788"/>
    <nd ref="43500959"/>
    <nd ref="43503693"/>
    <nd ref="43503844"/>
    <nd ref="259139353"/>
    <tag k="highway" v="residential"/>
    <tag k="maxspeed" v="50"/>
    <tag k="maxspeed:source" v="default residential speed limit in Australia"/>
    <tag k="name" v="Gamsworthy Street"/>
  </way>
  <way id="5732068" version="5" timestamp="2011-04-23T03:21:43Z" uid="4467" user="Rosscoe" changeset="7940184">
    <nd ref="43501535"/>
    <nd ref="43502466"/>
    <nd ref="43498788"/>
    <nd ref="43500959"/>
    <nd ref="43503693"/>
    <nd ref="43503844"/>
    <nd ref="259139353"/>
    <tag k="highway" v="residential"/>
    <tag k="maxspeed" v="50"/>
    <tag k="name" v="Gamsworthy Street"/>
    <tag k="source:maxspeed" v="default residential speed limit in Australia"/>
  </way>
  <way id="5732131" version="3" timestamp="2010-07-09T02:53:09Z" uid="74617" user="JohnSmith" changeset="5170713">
    <nd ref="43502481"/>
    <nd ref="43503196"/>
    <nd ref="43503150"/>
    <nd ref="43503152"/>
    <nd ref="43502466"/>
    <tag k="highway" v="residential"/>
    <tag k="maxspeed" v="50"/>
    <tag k="maxspeed:source" v="default residential speed limit in Australia"/>
    <tag k="name" v="Mein Street"/>
  </way>
  <way id="5732131" version="4" timestamp="2011-04-23T03:21:50Z" uid="4467" user="Rosscoe" changeset="7940184">
    <nd ref="43502481"/>
    <nd ref="43503196"/>
    <nd ref="43503150"/>
    <nd ref="43503152"/>
    <nd ref="43502466"/>
    <tag k="highway" v="residential"/>
    <tag k="maxspeed" v="50"/>
    <tag k="name" v="Mein Street"/>
    <tag k="source:maxspeed" v="default residential speed limit in Australia"/>
  </way>
  <way id="5732142" version="3" timestamp="2010-07-09T02:52:17Z" uid="74617" user="JohnSmith" changeset="5170713">
    <nd ref="43503404"/>
    <nd ref="43503196"/>
    <tag k="highway" v="residential"/>
    <tag k="maxspeed" v="50"/>
    <tag k="maxspeed:source" v="default residential speed limit in Australia"/>
    <tag k="name" v="Picken Court"/>
  </way>
  <way id="5732142" version="4" timestamp="2011-04-23T03:21:48Z" uid="4467" user="Rosscoe" changeset="7940184">
    <nd ref="43503404"/>
    <nd ref="43503196"/>
    <tag k="highway" v="residential"/>
    <tag k="maxspeed" v="50"/>
    <tag k="name" v="Picken Court"/>
    <tag k="source:maxspeed" v="default residential speed limit in Australia"/>
  </way>
  <way id="5732148" version="3" timestamp="2010-07-09T02:45:40Z" uid="74617" user="JohnSmith" changeset="5170713">
    <nd ref="43500947"/>
    <nd ref="43503638"/>
    <nd ref="43503639"/>
    <tag k="highway" v="residential"/>
    <tag k="maxspeed" v="50"/>
    <tag k="maxspeed:source" v="default residential speed limit in Australia"/>
    <tag k="name" v="Fairbairn Street"/>
  </way>
  <way id="5732148" version="4" timestamp="2011-04-23T03:21:45Z" uid="4467" user="Rosscoe" changeset="7940184">
    <nd ref="43500947"/>
    <nd ref="43503638"/>
    <nd ref="43503639"/>
    <tag k="highway" v="residential"/>
    <tag k="maxspeed" v="50"/>
    <tag k="name" v="Fairbairn Street"/>
    <tag k="source:maxspeed" v="default residential speed limit in Australia"/>
  </way>
  <way id="5732155" version="3" timestamp="2010-07-09T02:48:37Z" uid="74617" user="JohnSmith" changeset="5170713">
    <nd ref="43503693"/>
    <nd ref="43503811"/>
    <tag k="highway" v="residential"/>
    <tag k="maxspeed" v="50"/>
    <tag k="maxspeed:source" v="default residential speed limit in Australia"/>
    <tag k="name" v="Davey Court"/>
  </way>
  <way id="5732155" version="4" timestamp="2011-04-23T03:21:47Z" uid="4467" user="Rosscoe" changeset="7940184">
    <nd ref="43503693"/>
    <nd ref="43503811"/>
    <tag k="highway" v="residential"/>
    <tag k="maxspeed" v="50"/>
    <tag k="name" v="Davey Court"/>
    <tag k="source:maxspeed" v="default residential speed limit in Australia"/>
  </way>
  <way id="5732164" version="3" timestamp="2010-07-09T02:43:57Z" uid="74617" user="JohnSmith" changeset="5170713">
    <nd ref="43503844"/>
    <nd ref="43504126"/>
    <tag k="highway" v="residential"/>
    <tag k="maxspeed" v="50"/>
    <tag k="maxspeed:source" v="default residential speed limit in Australia"/>
    <tag k="name" v="Watkins Court"/>
  </way>
  <way id="5732411" version="1" timestamp="2007-09-06T17:45:26Z" uid="8328" user="benpre" changeset="360608">
    <nd ref="43507178"/>
    <nd ref="43507159"/>
    <nd ref="43507168"/>
    <nd ref="43507173"/>
    <nd ref="43507178"/>
    <tag k="aeroway" v="terminal"/>
    <tag k="created_by" v="JOSM"/>
    <tag k="layer" v="1"/>
    <tag k="name" v="Satellite 7"/>
  </way>
  <way id="5732411" version="2" timestamp="2007-11-17T18:19:15Z" uid="8328" user="benpre" changeset="545740">
    <nd ref="43507178"/>
    <nd ref="43507159"/>
    <nd ref="43507168"/>
    <nd ref="43507173"/>
    <nd ref="43507178"/>
    <tag k="aeroway" v="terminal"/>
    <tag k="created_by" v="JOSM"/>
    <tag k="layer" v="1"/>
    <tag k="name" v="Satellite 7"/>
    <tag k="source" v="Yahoo Aerial Imagery"/>
  </way>
  <way id="5732412" version="1" timestamp="2007-09-06T17:45:27Z" uid="8328" user="benpre" changeset="360608">
    <nd ref="43507186"/>
    <nd ref="43507190"/>
    <nd ref="43507199"/>
    <nd ref="43507205"/>
    <nd ref="43507186"/>
    <tag k="aeroway" v="terminal"/>
    <tag k="created_by" v="JOSM"/>
    <tag k="layer" v="1"/>
    <tag k="name" v="Satellite 1"/>
  </way>
  <way id="5732412" version="2" timestamp="2007-11-17T18:19:13Z" uid="8328" user="benpre" changeset="545740">
    <nd ref="43507186"/>
    <nd ref="43507190"/>
    <nd ref="43507199"/>
    <nd ref="43507205"/>
    <nd ref="43507186"/>
    <tag k="aeroway" v="terminal"/>
    <tag k="created_by" v="JOSM"/>
    <tag k="layer" v="1"/>
    <tag k="name" v="Satellite 1"/>
    <tag k="source" v="Yahoo Aerial Imagery"/>
  </way>
  <way id="5732413" version="1" timestamp="2007-09-06T17:45:27Z" uid="8328" user="benpre" changeset="360608">
    <nd ref="43507217"/>
    <nd ref="43507222"/>
    <nd ref="43507228"/>
    <nd ref="43507213"/>
    <nd ref="43507217"/>
    <tag k="aeroway" v="terminal"/>
    <tag k="created_by" v="JOSM"/>
    <tag k="layer" v="1"/>
    <tag k="name" v="Satellite 2"/>
  </way>
  <way id="5732413" version="2" timestamp="2007-11-17T18:19:13Z" uid="8328" user="benpre" changeset="545740">
    <nd ref="43507217"/>
    <nd ref="43507222"/>
    <nd ref="43507228"/>
    <nd ref="43507213"/>
    <nd ref="43507217"/>
    <tag k="aeroway" v="terminal"/>
    <tag k="created_by" v="JOSM"/>
    <tag k="layer" v="1"/>
    <tag k="name" v="Satellite 2"/>
    <tag k="source" v="Yahoo Aerial Imagery"/>
  </way>
  <way id="5732415" version="1" timestamp="2007-09-06T17:45:28Z" uid="8328" user="benpre" changeset="360608">
    <nd ref="43507234"/>
    <nd ref="43507238"/>
    <nd ref="43507245"/>
    <nd ref="43507252"/>
    <nd ref="43507234"/>
    <tag k="aeroway" v="terminal"/>
    <tag k="created_by" v="JOSM"/>
    <tag k="layer" v="1"/>
    <tag k="name" v="Satellite 3"/>
  </way>
  <way id="5732415" version="2" timestamp="2007-11-17T18:19:14Z" uid="8328" user="benpre" changeset="545740">
    <nd ref="43507234"/>
    <nd ref="43507238"/>
    <nd ref="43507245"/>
    <nd ref="43507252"/>
    <nd ref="43507234"/>
    <tag k="aeroway" v="terminal"/>
    <tag k="created_by" v="JOSM"/>
    <tag k="layer" v="1"/>
    <tag k="name" v="Satellite 3"/>
    <tag k="source" v="Yahoo Aerial Imagery"/>
  </way>
  <way id="5732416" version="1" timestamp="2007-09-06T17:45:28Z" uid="8328" user="benpre" changeset="360608">
    <nd ref="43507269"/>
    <nd ref="43507277"/>
    <nd ref="43507260"/>
    <nd ref="43507262"/>
    <nd ref="43507269"/>
    <tag k="aeroway" v="terminal"/>
    <tag k="created_by" v="JOSM"/>
    <tag k="layer" v="1"/>
    <tag k="name" v="Satellite 4"/>
  </way>
  <way id="5732416" version="2" timestamp="2007-11-17T18:18:57Z" uid="8328" user="benpre" changeset="545740">
    <nd ref="43507269"/>
    <nd ref="43507277"/>
    <nd ref="43507260"/>
    <nd ref="43507262"/>
    <nd ref="43507269"/>
    <tag k="aeroway" v="terminal"/>
    <tag k="created_by" v="JOSM"/>
    <tag k="layer" v="1"/>
    <tag k="name" v="Satellite 4"/>
    <tag k="source" v="Yahoo Aerial Imagery"/>
  </way>
  <way id="5732417" version="1" timestamp="2007-09-06T17:45:28Z" uid="8328" user="benpre" changeset="360608">
    <nd ref="43507292"/>
    <nd ref="43507299"/>
    <nd ref="43507283"/>
    <nd ref="43507286"/>
    <nd ref="43507292"/>
    <tag k="aeroway" v="terminal"/>
    <tag k="created_by" v="JOSM"/>
    <tag k="layer" v="1"/>
    <tag k="name" v="Satellite 5"/>
  </way>
  <way id="5732417" version="2" timestamp="2007-11-17T18:18:57Z" uid="8328" user="benpre" changeset="545740">
    <nd ref="43507292"/>
    <nd ref="43507299"/>
    <nd ref="43507283"/>
    <nd ref="43507286"/>
    <nd ref="43507292"/>
    <tag k="aeroway" v="terminal"/>
    <tag k="created_by" v="JOSM"/>
    <tag k="layer" v="1"/>
    <tag k="name" v="Satellite 5"/>
    <tag k="source" v="Yahoo Aerial Imagery"/>
  </way>
  <way id="5732419" version="1" timestamp="2007-09-06T17:45:28Z" uid="8328" user="benpre" changeset="360608">
    <nd ref="43507304"/>
    <nd ref="43507312"/>
    <nd ref="43507317"/>
    <nd ref="43507322"/>
    <nd ref="43507304"/>
    <tag k="aeroway" v="terminal"/>
    <tag k="created_by" v="JOSM"/>
    <tag k="layer" v="1"/>
    <tag k="name" v="Satellite 6"/>
  </way>
  <way id="5732419" version="2" timestamp="2007-11-17T18:18:57Z" uid="8328" user="benpre" changeset="545740">
    <nd ref="43507304"/>
    <nd ref="43507312"/>
    <nd ref="43507317"/>
    <nd ref="43507322"/>
    <nd ref="43507304"/>
    <tag k="aeroway" v="terminal"/>
    <tag k="created_by" v="JOSM"/>
    <tag k="layer" v="1"/>
    <tag k="name" v="Satellite 6"/>
    <tag k="source" v="Yahoo Aerial Imagery"/>
  </way>
  <way id="5732422" version="1" timestamp="2007-09-06T17:45:29Z" uid="8328" user="benpre" changeset="360608">
    <nd ref="43507349"/>
    <nd ref="43507355"/>
    <nd ref="43507357"/>
    <nd ref="43507362"/>
    <nd ref="43507366"/>
    <nd ref="43507373"/>
    <nd ref="43507378"/>
    <nd ref="43507385"/>
    <nd ref="43507391"/>
    <nd ref="43507394"/>
    <nd ref="43507400"/>
    <nd ref="43507407"/>
    <nd ref="43507414"/>
    <nd ref="43507423"/>
    <nd ref="43507431"/>
    <nd ref="43507439"/>
    <nd ref="43507445"/>
    <nd ref="43507448"/>
    <nd ref="43507452"/>
    <nd ref="43507457"/>
    <nd ref="43507462"/>
    <nd ref="43507466"/>
    <nd ref="43507328"/>
    <nd ref="43507335"/>
    <nd ref="43507343"/>
    <nd ref="43507349"/>
    <tag k="aeroway" v="terminal"/>
    <tag k="created_by" v="JOSM"/>
    <tag k="name" v="Terminal 1"/>
  </way>
  <way id="5732422" version="2" timestamp="2007-11-17T18:18:57Z" uid="8328" user="benpre" changeset="545740">
    <nd ref="43507349"/>
    <nd ref="43507355"/>
    <nd ref="43507357"/>
    <nd ref="43507362"/>
    <nd ref="43507366"/>
    <nd ref="43507373"/>
    <nd ref="43507378"/>
    <nd ref="43507385"/>
    <nd ref="43507391"/>
    <nd ref="43507394"/>
    <nd ref="43507400"/>
    <nd ref="43507407"/>
    <nd ref="43507414"/>
    <nd ref="43507423"/>
    <nd ref="43507431"/>
    <nd ref="43507439"/>
    <nd ref="43507445"/>
    <nd ref="43507448"/>
    <nd ref="43507452"/>
    <nd ref="43507457"/>
    <nd ref="43507462"/>
    <nd ref="43507466"/>
    <nd ref="43507328"/>
    <nd ref="43507335"/>
    <nd ref="43507343"/>
    <nd ref="43507349"/>
    <tag k="aeroway" v="terminal"/>
    <tag k="created_by" v="JOSM"/>
    <tag k="name" v="Terminal 1"/>
    <tag k="source" v="Yahoo Aerial Imagery"/>
  </way>
  <way id="5732437" version="1" timestamp="2007-09-06T17:45:48Z" uid="6454" user="B10xxx" changeset="364362">
    <nd ref="31192366"/>
    <nd ref="31192367"/>
    <nd ref="31192368"/>
    <nd ref="31192369"/>
    <nd ref="2412681"/>
    <tag k="created_by" v="Potlatch alpha"/>
    <tag k="highway" v="motorway"/>
  </way>
  <way id="5732437" version="5" timestamp="2008-06-08T22:32:02Z" uid="17602" user="B10xyz" changeset="111601">
    <nd ref="31192366"/>
    <nd ref="31192367"/>
    <tag k="created_by" v="Potlatch 0.9c"/>
    <tag k="highway" v="motorway"/>
    <tag k="name" v="BA643"/>
    <tag k="ref" v="A643"/>
  </way>
  <way id="5732437" version="6" timestamp="2008-06-08T22:32:33Z" uid="17602" user="B10xyz" changeset="111601">
    <nd ref="31192366"/>
    <nd ref="31192367"/>
    <tag k="bridge" v="yes"/>
    <tag k="created_by" v="Potlatch 0.9c"/>
    <tag k="highway" v="motorway"/>
    <tag k="name" v="BA643"/>
    <tag k="ref" v="A643"/>
  </way>
  <way id="5732437" version="7" timestamp="2008-06-08T22:33:02Z" uid="17602" user="B10xyz" changeset="111601">
    <nd ref="31192366"/>
    <nd ref="31192367"/>
    <tag k="bridge" v="yes"/>
    <tag k="created_by" v="Potlatch 0.9c"/>
    <tag k="highway" v="motorway"/>
    <tag k="layer" v="+1"/>
    <tag k="name" v="BA643"/>
    <tag k="ref" v="A643"/>
  </way>
  <way id="5732437" version="9" timestamp="2008-09-24T10:26:07Z" uid="65847" user="LKK" changeset="688627">
    <nd ref="31192366"/>
    <nd ref="299433789"/>
    <nd ref="31192367"/>
    <tag k="bridge" v="yes"/>
    <tag k="created_by" v="Potlatch 0.9c"/>
    <tag k="highway" v="motorway"/>
    <tag k="lanes" v="2"/>
    <tag k="layer" v="1"/>
    <tag k="name" v="BA643"/>
    <tag k="ref" v="A 643"/>
  </way>
  <way id="5732534" version="1" timestamp="2007-09-06T17:48:31Z" uid="6454" user="B10xxx" changeset="364362">
    <nd ref="31192366"/>
    <nd ref="43231805"/>
    <tag k="created_by" v="JOSM"/>
    <tag k="highway" v="secondary"/>
  </way>
  <way id="5732534" version="2" timestamp="2008-06-08T19:18:45Z" uid="17602" user="B10xyz" changeset="97745">
    <nd ref="31192366"/>
    <nd ref="269229853"/>
    <nd ref="43231805"/>
    <tag k="created_by" v="Potlatch 0.9c"/>
    <tag k="highway" v="secondary"/>
  </way>
  <way id="5732534" version="3" timestamp="2008-06-08T19:19:07Z" uid="17602" user="B10xyz" changeset="97745">
    <nd ref="31192366"/>
    <nd ref="269229853"/>
    <nd ref="269229863"/>
    <nd ref="43231805"/>
    <tag k="created_by" v="Potlatch 0.9c"/>
    <tag k="highway" v="secondary"/>
  </way>
  <way id="5732534" version="4" timestamp="2008-06-15T22:22:45Z" uid="17602" user="B10xyz" changeset="179150">
    <nd ref="31192366"/>
    <nd ref="269229853"/>
    <nd ref="269229863"/>
    <nd ref="270600070"/>
    <nd ref="43231805"/>
    <tag k="created_by" v="Potlatch 0.9c"/>
    <tag k="highway" v="secondary"/>
  </way>
  <way id="5732700" version="5" timestamp="2009-12-25T15:40:48Z" uid="58091" user="Andreas M" changeset="3448794">
    <nd ref="43513260"/>
    <nd ref="582984691"/>
    <tag k="highway" v="residential"/>
    <tag k="name" v="Lechnerstraße"/>
    <tag k="oneway" v="yes"/>
    <tag k="railway" v="tram"/>
  </way>
  <way id="5732792" version="7" timestamp="2009-12-25T15:40:47Z" uid="58091" user="Andreas M" changeset="3448794">
    <nd ref="43515552"/>
    <nd ref="117358912"/>
    <nd ref="43515551"/>
    <tag k="highway" v="residential"/>
    <tag k="name" v="Fruethstraße"/>
    <tag k="oneway" v="yes"/>
    <tag k="railway" v="tram"/>
  </way>
  <way id="5732805" version="5" timestamp="2009-12-25T15:40:48Z" uid="58091" user="Andreas M" changeset="3448794">
    <nd ref="43515963"/>
    <nd ref="43515964"/>
    <nd ref="43515552"/>
    <tag k="highway" v="residential"/>
    <tag k="name" v="Ludwig-Koeßler-Platz"/>
    <tag k="railway" v="tram"/>
  </way>
</osm>
