<?xml version='1.0' encoding='UTF-8'?>
<osm version="0.6" generator="libosmium/2.20.0">
  <way id="57738261" version="2" timestamp="2010-07-09T15:26:32Z" uid="43863" user="Rundling" changeset="5174457">
    <nd ref="715858997"/>
    <nd ref="715859008"/>
    <tag k="access" v="forestry"/>
    <tag k="highway" v="track"/>
    <tag k="motorcar" v="agricultural"/>
    <tag k="surface" v="sand"/>
    <tag k="tracktype" v="grade4"/>
  </way>
  <way id="57738262" version="2" timestamp="2010-05-03T15:15:53Z" uid="43863" user="Rundling" changeset="4595771"/>
  <way id="57738264" version="2" timestamp="2010-05-03T15:15:53Z" uid="43863" user="Rundling" changeset="4595771"/>
  <way id="57738265" version="2" timestamp="2010-05-03T15:15:53Z" uid="43863" user="Rundling" changeset="4595771"/>
  <way id="57738266" version="2" timestamp="2010-07-09T15:26:31Z" uid="43863" user="Rundling" changeset="5174457">
    <nd ref="715859030"/>
    <nd ref="715858982"/>
    <nd ref="715859035"/>
    <tag k="access" v="agricultural"/>
    <tag k="highway" v="track"/>
    <tag k="motorcar" v="forestry"/>
    <tag k="surface" v="sand"/>
    <tag k="tracktype" v="grade4"/>
  </way>
  <way id="57738267" version="2" timestamp="2010-07-09T15:26:32Z" uid="43863" user="Rundling" changeset="5174457">
    <nd ref="715859028"/>
    <nd ref="715859050"/>
    <nd ref="715859014"/>
    <nd ref="715859035"/>
    <nd ref="715858997"/>
    <nd ref="715859036"/>
    <tag k="access" v="forestry"/>
    <tag k="highway" v="track"/>
    <tag k="motorcar" v="agricultural"/>
    <tag k="surface" v="sand"/>
    <tag k="tracktype" v="grade4"/>
  </way>
  <way id="57738268" version="2" timestamp="2010-07-09T15:26:32Z" uid="43863" user="Rundling" changeset="5174457">
    <nd ref="715858990"/>
    <nd ref="715859022"/>
    <nd ref="715859033"/>
    <nd ref="715859008"/>
    <nd ref="715858985"/>
    <nd ref="715858992"/>
    <nd ref="715859042"/>
    <nd ref="715859051"/>
    <nd ref="715859000"/>
    <tag k="access" v="forestry"/>
    <tag k="highway" v="track"/>
    <tag k="motorcar" v="agricultural"/>
    <tag k="surface" v="sand"/>
    <tag k="tracktype" v="grade4"/>
  </way>
  <way id="57738269" version="2" timestamp="2010-05-03T15:15:53Z" uid="43863" user="Rundling" changeset="4595771"/>
  <way id="57738425" version="1" timestamp="2010-05-01T20:49:44Z" uid="33382" user="de_muur" changeset="4579294">
    <nd ref="292367713"/>
    <nd ref="292367714"/>
    <nd ref="292367716"/>
    <nd ref="292367717"/>
    <nd ref="292367718"/>
    <nd ref="292367720"/>
    <nd ref="292367725"/>
    <nd ref="292367736"/>
    <nd ref="292367744"/>
    <nd ref="292367753"/>
    <nd ref="292367759"/>
    <nd ref="292367761"/>
    <nd ref="715860374"/>
    <tag k="highway" v="tertiary"/>
    <tag k="ref" v="K 17"/>
    <tag k="surface" v="paved"/>
  </way>
  <way id="57738481" version="1" timestamp="2010-05-01T20:49:52Z" uid="33382" user="de_muur" changeset="4579294">
    <nd ref="715860365"/>
    <nd ref="262491741"/>
    <nd ref="262492087"/>
    <nd ref="262492064"/>
    <nd ref="262491847"/>
    <tag k="bicycle" v="yes"/>
    <tag k="highway" v="footway"/>
    <tag k="surface" v="paved"/>
  </way>
  <way id="57738481" version="2" timestamp="2010-05-03T12:51:38Z" uid="33382" user="de_muur" changeset="4594511">
    <nd ref="715860365"/>
    <nd ref="262491741"/>
    <nd ref="262492087"/>
    <tag k="bicycle" v="yes"/>
    <tag k="highway" v="footway"/>
    <tag k="surface" v="paved"/>
  </way>
  <way id="57738482" version="1" timestamp="2010-05-01T20:49:52Z" uid="33382" user="de_muur" changeset="4579294">
    <nd ref="715860238"/>
    <nd ref="373373669"/>
    <nd ref="715860365"/>
    <tag k="bicycle" v="yes"/>
    <tag k="highway" v="footway"/>
    <tag k="layer" v="-1"/>
    <tag k="surface" v="paved"/>
    <tag k="tunnel" v="yes"/>
  </way>
  <way id="57738482" version="2" timestamp="2010-05-03T12:51:38Z" uid="33382" user="de_muur" changeset="4594511">
    <nd ref="715860238"/>
    <nd ref="718676610"/>
    <tag k="bicycle" v="yes"/>
    <tag k="highway" v="footway"/>
    <tag k="layer" v="-1"/>
    <tag k="surface" v="paved"/>
    <tag k="tunnel" v="yes"/>
  </way>
  <way id="57738483" version="1" timestamp="2010-05-01T20:49:52Z" uid="33382" user="de_muur" changeset="4579294">
    <nd ref="262492087"/>
    <nd ref="715860367"/>
    <nd ref="253241327"/>
  </way>
  <way id="57738483" version="2" timestamp="2010-05-03T13:03:04Z" uid="33382" user="de_muur" changeset="4594619">
    <nd ref="262492087"/>
    <nd ref="715860367"/>
    <nd ref="253241327"/>
    <tag k="bicycle" v="yes"/>
    <tag k="highway" v="footway"/>
    <tag k="surface" v="paved"/>
  </way>
  <way id="57738484" version="1" timestamp="2010-05-01T20:49:52Z" uid="33382" user="de_muur" changeset="4579294">
    <nd ref="341305191"/>
    <nd ref="341305192"/>
    <tag k="highway" v="tertiary"/>
    <tag k="name" v="Grabauer Straße"/>
    <tag k="ref" v="K 17"/>
    <tag k="surface" v="paved"/>
  </way>
  <way id="57738485" version="1" timestamp="2010-05-01T20:49:52Z" uid="33382" user="de_muur" changeset="4579294">
    <nd ref="292367768"/>
    <nd ref="292367769"/>
    <nd ref="354410851"/>
    <tag k="highway" v="tertiary"/>
    <tag k="ref" v="K 17"/>
    <tag k="surface" v="paved"/>
  </way>
  <way id="57738485" version="2" timestamp="2010-05-03T13:35:36Z" uid="33382" user="de_muur" changeset="4594919">
    <nd ref="292367768"/>
    <nd ref="292367769"/>
    <tag k="highway" v="tertiary"/>
    <tag k="ref" v="K 17"/>
    <tag k="surface" v="paved"/>
  </way>
  <way id="57738486" version="1" timestamp="2010-05-01T20:49:53Z" uid="33382" user="de_muur" changeset="4579294">
    <nd ref="715860374"/>
    <nd ref="292367763"/>
    <nd ref="292367766"/>
    <tag k="highway" v="tertiary"/>
    <tag k="maxspeed" v="50"/>
    <tag k="ref" v="K 17"/>
    <tag k="surface" v="paved"/>
  </way>
  <way id="57738486" version="2" timestamp="2010-05-03T13:53:02Z" uid="33382" user="de_muur" changeset="4595078">
    <nd ref="715860374"/>
    <nd ref="292367763"/>
    <nd ref="292367766"/>
    <tag k="highway" v="tertiary"/>
    <tag k="maxspeed" v="50"/>
    <tag k="name" v="Bergstraße"/>
    <tag k="ref" v="K 17"/>
    <tag k="surface" v="paved"/>
  </way>
  <way id="57738487" version="1" timestamp="2010-05-01T20:49:53Z" uid="33382" user="de_muur" changeset="4579294">
    <nd ref="271978875"/>
    <nd ref="271978878"/>
    <nd ref="292367708"/>
    <nd ref="292367710"/>
    <nd ref="292367712"/>
    <nd ref="292367713"/>
    <tag k="highway" v="tertiary"/>
    <tag k="maxspeed" v="50"/>
    <tag k="ref" v="K 17"/>
    <tag k="surface" v="paved"/>
  </way>
  <way id="57738487" version="2" timestamp="2010-05-03T13:53:02Z" uid="33382" user="de_muur" changeset="4595078">
    <nd ref="271978875"/>
    <nd ref="271978878"/>
    <tag k="highway" v="tertiary"/>
    <tag k="maxspeed" v="50"/>
    <tag k="ref" v="K 17"/>
    <tag k="surface" v="paved"/>
  </way>
  <way id="57738748" version="1" timestamp="2010-05-01T20:58:09Z" uid="33382" user="de_muur" changeset="4579370">
    <nd ref="443815633"/>
    <nd ref="269384920"/>
    <nd ref="410409763"/>
    <nd ref="269384922"/>
    <nd ref="269384924"/>
    <nd ref="269384926"/>
    <nd ref="361144948"/>
    <nd ref="269384927"/>
    <nd ref="269384929"/>
    <nd ref="271919498"/>
    <tag k="fixme" v="was hier fehlt ist unklar - vermutlich der name"/>
    <tag k="highway" v="secondary"/>
    <tag k="ref" v="L 200"/>
  </way>
  <way id="57738748" version="3" timestamp="2010-11-09T06:44:49Z" uid="33382" user="de_muur" changeset="6325575">
    <nd ref="443815633"/>
    <nd ref="269384920"/>
    <nd ref="410409763"/>
    <nd ref="269384922"/>
    <nd ref="269384924"/>
    <nd ref="269384926"/>
    <nd ref="361144948"/>
    <nd ref="965258719"/>
    <tag k="cycleway" v="track"/>
    <tag k="highway" v="secondary"/>
    <tag k="maxspeed" v="100"/>
    <tag k="ref" v="L 200"/>
  </way>
  <way id="57738749" version="1" timestamp="2010-05-01T20:58:09Z" uid="33382" user="de_muur" changeset="4579370">
    <nd ref="715863974"/>
    <nd ref="715863973"/>
    <nd ref="60687845"/>
    <nd ref="361142564"/>
    <nd ref="253231439"/>
    <nd ref="253231440"/>
    <nd ref="715582567"/>
    <tag k="highway" v="tertiary"/>
    <tag k="name" v="Roseburger Straße"/>
    <tag k="ref" v="K 75"/>
    <tag k="surface" v="paved"/>
  </way>
  <way id="57738749" version="2" timestamp="2010-05-03T14:21:36Z" uid="33382" user="de_muur" changeset="4595322">
    <nd ref="715863974"/>
    <nd ref="715863973"/>
    <nd ref="60687845"/>
    <nd ref="361142564"/>
    <tag k="highway" v="tertiary"/>
    <tag k="name" v="Roseburger Straße"/>
    <tag k="ref" v="K 75"/>
    <tag k="surface" v="paved"/>
  </way>
  <way id="57738749" version="3" timestamp="2010-11-09T06:44:50Z" uid="33382" user="de_muur" changeset="6325575">
    <nd ref="715863974"/>
    <nd ref="715863973"/>
    <nd ref="60687845"/>
    <nd ref="361142564"/>
    <tag k="cycleway" v="track"/>
    <tag k="highway" v="tertiary"/>
    <tag k="name" v="Roseburger Straße"/>
    <tag k="ref" v="K 75"/>
    <tag k="surface" v="paved"/>
  </way>
  <way id="57738750" version="1" timestamp="2010-05-01T20:58:09Z" uid="33382" user="de_muur" changeset="4579370">
    <nd ref="60687837"/>
    <nd ref="60687838"/>
    <nd ref="715863971"/>
    <nd ref="60687839"/>
    <nd ref="60687840"/>
    <tag k="highway" v="unclassified"/>
    <tag k="name" v="Woterserner Weg"/>
    <tag k="surface" v="paved"/>
  </way>
  <way id="57738750" version="2" timestamp="2010-09-17T19:47:00Z" uid="33382" user="de_muur" changeset="5806677">
    <nd ref="60687837"/>
    <nd ref="60687838"/>
    <nd ref="715863971"/>
    <nd ref="60687839"/>
    <nd ref="60687840"/>
    <tag k="highway" v="unclassified"/>
    <tag k="name" v="Wotersener Weg"/>
    <tag k="surface" v="paved"/>
  </way>
  <way id="57738751" version="1" timestamp="2010-05-01T20:58:09Z" uid="33382" user="de_muur" changeset="4579370">
    <nd ref="715863975"/>
    <nd ref="60687844"/>
    <tag k="highway" v="secondary"/>
    <tag k="maxspeed" v="50"/>
    <tag k="name" v="Dorfstraße"/>
    <tag k="ref" v="L 200"/>
    <tag k="surface" v="paved"/>
  </way>
  <way id="57738751" version="2" timestamp="2010-11-09T06:44:51Z" uid="33382" user="de_muur" changeset="6325575">
    <nd ref="715863975"/>
    <nd ref="60687844"/>
    <tag k="cycleway" v="track"/>
    <tag k="highway" v="secondary"/>
    <tag k="maxspeed" v="50"/>
    <tag k="name" v="Dorfstraße"/>
    <tag k="ref" v="L 200"/>
    <tag k="surface" v="paved"/>
  </way>
</osm>
