<?xml version='1.0' encoding='UTF-8'?>
<osm version="0.6" generator="libosmium/2.20.0">
  <way id="58254720" version="1" timestamp="2010-05-05T14:55:06Z" uid="38528" user="acrosscanadatrails" changeset="4613659">
    <nd ref="722488329"/>
    <nd ref="722488316"/>
    <nd ref="722488321"/>
    <nd ref="722488306"/>
    <nd ref="722488311"/>
    <nd ref="722488332"/>
    <nd ref="722488296"/>
    <nd ref="722488324"/>
    <nd ref="722488334"/>
    <nd ref="722488319"/>
    <nd ref="722488325"/>
    <nd ref="722488312"/>
    <nd ref="722488314"/>
    <nd ref="722488291"/>
    <nd ref="722488303"/>
    <nd ref="722488327"/>
    <nd ref="722488294"/>
    <nd ref="722488323"/>
    <nd ref="722488328"/>
    <nd ref="722488315"/>
    <nd ref="722488317"/>
    <nd ref="722488298"/>
    <nd ref="722488310"/>
    <nd ref="722488331"/>
    <nd ref="722488301"/>
    <nd ref="722488326"/>
    <nd ref="722488333"/>
    <nd ref="722488318"/>
    <nd ref="722488320"/>
    <nd ref="722488304"/>
    <nd ref="722488313"/>
    <nd ref="722488335"/>
    <nd ref="722488308"/>
    <nd ref="722488330"/>
    <nd ref="722488292"/>
    <nd ref="722488322"/>
    <nd ref="722488329"/>
    <tag k="FIXME" v="the name needs to be lowercase"/>
    <tag k="addr:province" v="Ontario"/>
    <tag k="attribution" v="Ontario Ministry of Natural Resources"/>
    <tag k="boundary" v="national_park"/>
    <tag k="boundary:type" v="Nature Reserve"/>
    <tag k="date:protected" v="1985"/>
    <tag k="is_in:zone" v="NORTHWEST"/>
    <tag k="name" v="Craig&apos;s Pit Provincial Nature Reserve"/>
    <tag k="name:short" v="CRAIG&apos;S PIT"/>
    <tag k="operator" v="Ontario Parks"/>
    <tag k="operator:url" v="www.ontarioparks.com/english/"/>
    <tag k="source" v="Land Information Ontario"/>
    <tag k="source:type" v="Provincial Park"/>
  </way>
  <way id="58254720" version="2" timestamp="2010-05-06T05:44:51Z" uid="38528" user="acrosscanadatrails" changeset="4618747">
    <nd ref="722488329"/>
    <nd ref="722488316"/>
    <nd ref="722488321"/>
    <nd ref="722488306"/>
    <nd ref="722488311"/>
    <nd ref="722488332"/>
    <nd ref="722488296"/>
    <nd ref="722488324"/>
    <nd ref="722488334"/>
    <nd ref="722488319"/>
    <nd ref="722488325"/>
    <nd ref="722488312"/>
    <nd ref="722488314"/>
    <nd ref="722488291"/>
    <nd ref="722488303"/>
    <nd ref="722488327"/>
    <nd ref="722488294"/>
    <nd ref="722488323"/>
    <nd ref="722488328"/>
    <nd ref="722488315"/>
    <nd ref="722488317"/>
    <nd ref="722488298"/>
    <nd ref="722488310"/>
    <nd ref="722488331"/>
    <nd ref="722488301"/>
    <nd ref="722488326"/>
    <nd ref="722488333"/>
    <nd ref="722488318"/>
    <nd ref="722488320"/>
    <nd ref="722488304"/>
    <nd ref="722488313"/>
    <nd ref="722488335"/>
    <nd ref="722488308"/>
    <nd ref="722488330"/>
    <nd ref="722488292"/>
    <nd ref="722488322"/>
    <nd ref="722488329"/>
    <tag k="FIXME" v="the name needs to be lowercase"/>
    <tag k="addr:province" v="Ontario"/>
    <tag k="attribution" v="Ontario Ministry of Natural Resources"/>
    <tag k="boundary" v="national_park"/>
    <tag k="boundary:type" v="Nature Reserve"/>
    <tag k="date:protected" v="1985"/>
    <tag k="is_in:zone" v="NORTHWEST"/>
    <tag k="leisure" v="nature_reserve"/>
    <tag k="name" v="Craig&apos;s Pit Provincial Nature Reserve"/>
    <tag k="name:short" v="CRAIG&apos;S PIT"/>
    <tag k="operator" v="Ontario Parks"/>
    <tag k="operator:url" v="www.ontarioparks.com/english/"/>
    <tag k="source" v="Land Information Ontario"/>
    <tag k="source:type" v="Provincial Park"/>
  </way>
</osm>
