<?xml version='1.0' encoding='UTF-8'?>
<osm version="0.6" generator="libosmium/2.20.0">
  <way id="58483118" version="6" timestamp="2010-07-09T03:28:06Z" uid="74617" user="JohnSmith" changeset="5170739">
    <nd ref="738416015"/>
    <nd ref="724983683"/>
    <tag k="highway" v="residential"/>
    <tag k="maxspeed" v="50"/>
    <tag k="maxspeed:source" v="default residential speed limit in Australia"/>
    <tag k="name" v="Coronet Avenue"/>
    <tag k="source" v="nearmap"/>
  </way>
  <way id="58483491" version="1" timestamp="2010-05-07T08:44:53Z" uid="4467" user="Rosscoe" changeset="4628083">
    <nd ref="348221284"/>
    <nd ref="724989035"/>
    <nd ref="724989092"/>
    <nd ref="724989147"/>
    <nd ref="724989106"/>
    <tag k="highway" v="tertiary"/>
    <tag k="name" v="Montgomery Place"/>
    <tag k="oneway" v="yes"/>
  </way>
  <way id="58483494" version="1" timestamp="2010-05-07T08:44:54Z" uid="4467" user="Rosscoe" changeset="4628083">
    <nd ref="724989080"/>
    <nd ref="348683682"/>
    <nd ref="724989098"/>
    <nd ref="724989152"/>
    <nd ref="724989086"/>
    <nd ref="724989112"/>
    <nd ref="724989021"/>
    <nd ref="724989038"/>
    <nd ref="724989094"/>
    <nd ref="724989072"/>
    <nd ref="724989049"/>
    <nd ref="724989110"/>
    <nd ref="724989158"/>
    <nd ref="724989033"/>
    <nd ref="724989057"/>
    <nd ref="724989139"/>
    <nd ref="724989042"/>
    <tag k="highway" v="primary"/>
    <tag k="name" v="Thompsons Road"/>
    <tag k="oneway" v="yes"/>
    <tag k="ref" v="S42"/>
    <tag k="source" v="nearmap"/>
  </way>
  <way id="58483497" version="1" timestamp="2010-05-07T08:44:54Z" uid="4467" user="Rosscoe" changeset="4628083">
    <nd ref="324209439"/>
    <nd ref="724989080"/>
  </way>
  <way id="58483497" version="2" timestamp="2011-04-17T01:33:36Z" uid="4467" user="Rosscoe" changeset="7883417"/>
  <way id="58483501" version="1" timestamp="2010-05-07T08:44:54Z" uid="4467" user="Rosscoe" changeset="4628083">
    <nd ref="311705303"/>
    <nd ref="724989104"/>
    <nd ref="136438232"/>
    <nd ref="60174514"/>
    <tag k="highway" v="residential"/>
    <tag k="name" v="Harold Street"/>
  </way>
  <way id="58483501" version="2" timestamp="2010-07-09T05:35:34Z" uid="74617" user="JohnSmith" changeset="5170986">
    <nd ref="311705303"/>
    <nd ref="724989104"/>
    <nd ref="136438232"/>
    <nd ref="60174514"/>
    <tag k="highway" v="residential"/>
    <tag k="maxspeed" v="50"/>
    <tag k="maxspeed:source" v="default residential speed limit in Australia"/>
    <tag k="name" v="Harold Street"/>
  </way>
  <way id="58483503" version="1" timestamp="2010-05-07T08:44:54Z" uid="4467" user="Rosscoe" changeset="4628083">
    <nd ref="724989155"/>
    <nd ref="348221284"/>
    <tag k="highway" v="tertiary"/>
    <tag k="name" v="Montgomery Place"/>
    <tag k="oneway" v="yes"/>
  </way>
  <way id="58483505" version="1" timestamp="2010-05-07T08:44:54Z" uid="4467" user="Rosscoe" changeset="4628083">
    <nd ref="311705303"/>
    <nd ref="311705301"/>
    <nd ref="311705375"/>
    <nd ref="311705319"/>
    <tag k="highway" v="residential"/>
    <tag k="name" v="Walter Street"/>
    <tag k="source" v="MMBW"/>
  </way>
  <way id="58483505" version="2" timestamp="2010-07-09T05:35:38Z" uid="74617" user="JohnSmith" changeset="5170986">
    <nd ref="311705303"/>
    <nd ref="311705301"/>
    <nd ref="311705375"/>
    <nd ref="311705319"/>
    <tag k="highway" v="residential"/>
    <tag k="maxspeed" v="50"/>
    <tag k="maxspeed:source" v="default residential speed limit in Australia"/>
    <tag k="name" v="Walter Street"/>
    <tag k="source" v="MMBW"/>
  </way>
</osm>
