<?xml version='1.0' encoding='UTF-8'?>
<osm version="0.6" generator="libosmium/2.20.0">
  <way id="58662009" version="1" timestamp="2010-05-08T20:54:10Z" uid="6269" user="Mueck" changeset="4642808">
    <nd ref="726821579"/>
    <nd ref="726821583"/>
    <nd ref="726821585"/>
    <nd ref="726821586"/>
  </way>
  <way id="58662009" version="2" timestamp="2010-05-08T20:54:38Z" uid="6269" user="Mueck" changeset="4642808">
    <nd ref="726821579"/>
    <nd ref="726821583"/>
    <nd ref="726821585"/>
    <tag k="source" v="estimated"/>
    <tag k="waterway" v="stream"/>
  </way>
  <way id="58662009" version="3" timestamp="2010-05-08T20:55:52Z" uid="6269" user="Mueck" changeset="4642808">
    <nd ref="726822011"/>
    <nd ref="726821579"/>
    <tag k="source" v="estimated"/>
    <tag k="waterway" v="stream"/>
  </way>
  <way id="58662009" version="4" timestamp="2010-05-08T20:56:12Z" uid="6269" user="Mueck" changeset="4642808">
    <nd ref="726822011"/>
    <nd ref="726821579"/>
    <tag k="layer" v="-1"/>
    <tag k="source" v="estimated"/>
    <tag k="tunnel" v="yes"/>
    <tag k="waterway" v="stream"/>
  </way>
  <way id="58662014" version="1" timestamp="2010-05-08T20:54:36Z" uid="6269" user="Mueck" changeset="4642808">
    <nd ref="726821692"/>
    <nd ref="726821586"/>
    <tag k="source" v="estimated"/>
    <tag k="waterway" v="stream"/>
  </way>
  <way id="58662014" version="2" timestamp="2010-05-08T23:25:14Z" uid="6269" user="Mueck" changeset="4643960">
    <nd ref="726821692"/>
    <nd ref="726821586"/>
    <nd ref="712613866"/>
    <tag k="source" v="estimated"/>
    <tag k="waterway" v="stream"/>
  </way>
  <way id="58662014" version="3" timestamp="2010-05-08T23:26:47Z" uid="6269" user="Mueck" changeset="4643960">
    <nd ref="726821692"/>
    <nd ref="726821586"/>
    <nd ref="712613866"/>
    <tag k="name" v="Hausengraben"/>
    <tag k="source" v="estimated"/>
    <tag k="waterway" v="stream"/>
  </way>
  <way id="58662014" version="4" timestamp="2010-05-08T23:43:37Z" uid="6269" user="Mueck" changeset="4644039">
    <nd ref="726821692"/>
    <nd ref="726821586"/>
    <nd ref="712613866"/>
    <tag k="source" v="estimated"/>
    <tag k="waterway" v="stream"/>
  </way>
  <way id="58662014" version="5" timestamp="2010-05-08T23:45:08Z" uid="6269" user="Mueck" changeset="4644039">
    <nd ref="712613866"/>
    <nd ref="726821586"/>
    <nd ref="726821692"/>
    <tag k="source" v="estimated"/>
    <tag k="waterway" v="stream"/>
  </way>
  <way id="58662014" version="6" timestamp="2010-05-13T16:52:02Z" uid="6269" user="Mueck" changeset="4688078">
    <nd ref="712613866"/>
    <nd ref="726821586"/>
    <nd ref="732548215"/>
    <nd ref="726821692"/>
    <tag k="source" v="estimated"/>
    <tag k="waterway" v="stream"/>
  </way>
  <way id="58662015" version="1" timestamp="2010-05-08T20:54:38Z" uid="6269" user="Mueck" changeset="4642808">
    <nd ref="726821585"/>
    <nd ref="726821692"/>
    <tag k="source" v="estimated"/>
    <tag k="waterway" v="stream"/>
  </way>
  <way id="58662015" version="2" timestamp="2010-05-08T20:55:03Z" uid="6269" user="Mueck" changeset="4642808">
    <nd ref="726821585"/>
    <nd ref="726821692"/>
    <tag k="layer" v="-1"/>
    <tag k="source" v="estimated"/>
    <tag k="tunnel" v="yes"/>
    <tag k="waterway" v="stream"/>
  </way>
  <way id="58662015" version="3" timestamp="2010-05-08T23:45:20Z" uid="6269" user="Mueck" changeset="4644039">
    <nd ref="726821692"/>
    <nd ref="726821585"/>
    <tag k="layer" v="-1"/>
    <tag k="source" v="estimated"/>
    <tag k="tunnel" v="yes"/>
    <tag k="waterway" v="stream"/>
  </way>
  <way id="58662064" version="1" timestamp="2010-05-08T20:55:42Z" uid="6269" user="Mueck" changeset="4642808">
    <nd ref="726821583"/>
    <nd ref="726821932"/>
    <tag k="source" v="estimated"/>
    <tag k="waterway" v="stream"/>
  </way>
  <way id="58662068" version="1" timestamp="2010-05-08T20:55:51Z" uid="6269" user="Mueck" changeset="4642808">
    <nd ref="726821579"/>
    <nd ref="726821583"/>
    <nd ref="726821585"/>
    <tag k="source" v="estimated"/>
    <tag k="waterway" v="stream"/>
  </way>
  <way id="58662068" version="2" timestamp="2010-05-08T23:28:33Z" uid="6269" user="Mueck" changeset="4644039">
    <nd ref="726821579"/>
    <nd ref="726821583"/>
    <tag k="source" v="estimated"/>
    <tag k="waterway" v="stream"/>
  </way>
  <way id="58662117" version="1" timestamp="2010-05-08T20:57:59Z" uid="6269" user="Mueck" changeset="4642808">
    <nd ref="21479360"/>
    <nd ref="21479359"/>
    <nd ref="16376172"/>
    <nd ref="21479370"/>
    <nd ref="16376171"/>
    <nd ref="16376170"/>
    <tag k="name" v="Tierpark Oberwald"/>
    <tag k="tourism" v="zoo"/>
  </way>
  <way id="58662117" version="2" timestamp="2010-05-08T20:59:20Z" uid="6269" user="Mueck" changeset="4642808">
    <nd ref="21479359"/>
    <nd ref="16376172"/>
    <nd ref="21479370"/>
    <nd ref="16376171"/>
    <nd ref="16376170"/>
    <tag k="name" v="Tierpark Oberwald"/>
    <tag k="tourism" v="zoo"/>
  </way>
  <way id="58662117" version="3" timestamp="2010-05-08T20:59:48Z" uid="6269" user="Mueck" changeset="4642808">
    <nd ref="21479359"/>
    <nd ref="16376172"/>
    <nd ref="21479370"/>
    <nd ref="16376171"/>
    <nd ref="726824167"/>
    <nd ref="726824168"/>
    <nd ref="726824169"/>
    <nd ref="726824170"/>
    <nd ref="726824171"/>
    <nd ref="726824172"/>
    <tag k="name" v="Tierpark Oberwald"/>
    <tag k="tourism" v="zoo"/>
  </way>
  <way id="58662117" version="4" timestamp="2010-05-08T21:00:15Z" uid="6269" user="Mueck" changeset="4642808">
    <nd ref="726824172"/>
    <nd ref="726824227"/>
    <nd ref="726824228"/>
    <nd ref="726824229"/>
    <nd ref="726824167"/>
    <nd ref="726824168"/>
    <nd ref="726824169"/>
    <nd ref="726824170"/>
    <nd ref="726824171"/>
    <nd ref="726824172"/>
    <tag k="barrier" v="fence"/>
    <tag k="name" v="Tierpark Oberwald"/>
    <tag k="tourism" v="zoo"/>
  </way>
  <way id="58662169" version="1" timestamp="2010-05-08T20:59:23Z" uid="36809" user="pfoten_weg_!_" changeset="4643020">
    <nd ref="726823653"/>
    <nd ref="726823752"/>
    <nd ref="726823901"/>
    <nd ref="726823261"/>
    <nd ref="726823653"/>
    <tag k="addr:housenumber" v="17,19,21"/>
    <tag k="addr:street" v="Plattlinger Straße"/>
    <tag k="building" v="yes"/>
  </way>
  <way id="58662170" version="1" timestamp="2010-05-08T20:59:23Z" uid="36809" user="pfoten_weg_!_" changeset="4643020">
    <nd ref="726823283"/>
    <nd ref="726823352"/>
    <nd ref="726823449"/>
    <nd ref="726823745"/>
    <nd ref="726823888"/>
    <nd ref="726823173"/>
    <nd ref="726823209"/>
    <nd ref="726823370"/>
    <nd ref="726823467"/>
    <nd ref="726823561"/>
    <nd ref="726823639"/>
    <nd ref="726823292"/>
    <nd ref="726823283"/>
    <tag k="addr:housenumber" v="11,13,15"/>
    <tag k="addr:street" v="Geigenbergerstraße"/>
    <tag k="building" v="yes"/>
  </way>
  <way id="58662171" version="1" timestamp="2010-05-08T20:59:23Z" uid="36809" user="pfoten_weg_!_" changeset="4643020">
    <nd ref="726823728"/>
    <nd ref="726823210"/>
    <nd ref="726823249"/>
    <nd ref="726823284"/>
    <nd ref="726823728"/>
    <tag k="addr:housenumber" v="63"/>
    <tag k="addr:street" v="Grünbauerstraße"/>
    <tag k="building" v="yes"/>
  </way>
  <way id="58662172" version="1" timestamp="2010-05-08T20:59:23Z" uid="36809" user="pfoten_weg_!_" changeset="4643020">
    <nd ref="726823265"/>
    <nd ref="726823498"/>
    <nd ref="726823592"/>
    <nd ref="726823670"/>
    <nd ref="726823265"/>
    <tag k="addr:housenumber" v="98"/>
    <tag k="addr:street" v="Weltistraße"/>
    <tag k="building" v="yes"/>
  </way>
  <way id="58662173" version="1" timestamp="2010-05-08T20:59:23Z" uid="36809" user="pfoten_weg_!_" changeset="4643020">
    <nd ref="726823953"/>
    <nd ref="726823282"/>
    <nd ref="726823350"/>
    <nd ref="726823447"/>
    <nd ref="726823953"/>
    <tag k="addr:housenumber" v="53"/>
    <tag k="addr:street" v="Hofbrunnstraße"/>
    <tag k="building" v="yes"/>
  </way>
  <way id="58662174" version="1" timestamp="2010-05-08T20:59:23Z" uid="36809" user="pfoten_weg_!_" changeset="4643020">
    <nd ref="726823297"/>
    <nd ref="726823383"/>
    <nd ref="726823483"/>
    <nd ref="726823794"/>
    <nd ref="726823911"/>
    <nd ref="726823185"/>
    <nd ref="726823222"/>
    <nd ref="726823397"/>
    <nd ref="726823297"/>
    <tag k="addr:housenumber" v="73"/>
    <tag k="addr:street" v="Weltistraße"/>
    <tag k="building" v="yes"/>
  </way>
  <way id="58662175" version="1" timestamp="2010-05-08T20:59:23Z" uid="36809" user="pfoten_weg_!_" changeset="4643020">
    <nd ref="726823372"/>
    <nd ref="726823469"/>
    <nd ref="726823563"/>
    <nd ref="726823903"/>
    <nd ref="726823372"/>
    <tag k="addr:housenumber" v="55"/>
    <tag k="addr:street" v="Hofbrunnstraße"/>
    <tag k="building" v="yes"/>
  </way>
  <way id="58662176" version="1" timestamp="2010-05-08T20:59:24Z" uid="36809" user="pfoten_weg_!_" changeset="4643020">
    <nd ref="726823354"/>
    <nd ref="726823641"/>
    <nd ref="726823746"/>
    <nd ref="726823890"/>
    <nd ref="726823354"/>
    <tag k="addr:housenumber" v="5,7"/>
    <tag k="addr:street" v="Plattlinger Straße"/>
    <tag k="building" v="yes"/>
  </way>
  <way id="58662177" version="1" timestamp="2010-05-08T20:59:24Z" uid="36809" user="pfoten_weg_!_" changeset="4643020">
    <nd ref="726823914"/>
    <nd ref="726823269"/>
    <nd ref="726823309"/>
    <nd ref="726823401"/>
    <nd ref="726823914"/>
    <tag k="addr:housenumber" v="39"/>
    <tag k="addr:street" v="Grünbauerstraße"/>
    <tag k="building" v="yes"/>
  </way>
  <way id="58662178" version="1" timestamp="2010-05-08T20:59:24Z" uid="36809" user="pfoten_weg_!_" changeset="4643020">
    <nd ref="726823827"/>
    <nd ref="726823932"/>
    <nd ref="726823196"/>
    <nd ref="726823321"/>
    <nd ref="726823827"/>
    <tag k="addr:housenumber" v="61"/>
    <tag k="addr:street" v="Weltistraße"/>
    <tag k="building" v="yes"/>
  </way>
  <way id="58662179" version="1" timestamp="2010-05-08T20:59:24Z" uid="36809" user="pfoten_weg_!_" changeset="4643020">
    <nd ref="726823303"/>
    <nd ref="726823395"/>
    <nd ref="726823491"/>
    <nd ref="726823815"/>
    <nd ref="726823303"/>
    <tag k="addr:housenumber" v="67"/>
    <tag k="addr:street" v="Weltistraße"/>
  </way>
  <way id="58662180" version="1" timestamp="2010-05-08T20:59:24Z" uid="36809" user="pfoten_weg_!_" changeset="4643020">
    <nd ref="726823453"/>
    <nd ref="726823549"/>
    <nd ref="726823633"/>
    <nd ref="726823175"/>
    <nd ref="726823453"/>
    <tag k="addr:housenumber" v="21"/>
    <tag k="addr:street" v="Halbreiterstraße"/>
    <tag k="building" v="yes"/>
  </way>
  <way id="58662181" version="1" timestamp="2010-05-08T20:59:24Z" uid="36809" user="pfoten_weg_!_" changeset="4643020">
    <nd ref="726823542"/>
    <nd ref="726823886"/>
    <nd ref="726823172"/>
    <nd ref="726823208"/>
    <nd ref="726823247"/>
    <nd ref="726823465"/>
    <nd ref="726823542"/>
    <tag k="addr:housenumber" v="4"/>
    <tag k="addr:street" v="Plattlinger Straße"/>
    <tag k="building" v="yes"/>
  </way>
  <way id="58662182" version="1" timestamp="2010-05-08T20:59:24Z" uid="36809" user="pfoten_weg_!_" changeset="4643020">
    <nd ref="726823493"/>
    <nd ref="726823587"/>
    <nd ref="726823663"/>
    <nd ref="726823193"/>
    <nd ref="726823229"/>
    <nd ref="726823267"/>
    <nd ref="726823305"/>
    <nd ref="726823600"/>
    <nd ref="726823493"/>
    <tag k="addr:housenumber" v="1"/>
    <tag k="addr:street" v="Halbreiterstraße"/>
    <tag k="building" v="yes"/>
  </way>
  <way id="58662183" version="1" timestamp="2010-05-08T20:59:24Z" uid="36809" user="pfoten_weg_!_" changeset="4643020">
    <nd ref="726823180"/>
    <nd ref="726823217"/>
    <nd ref="726823256"/>
    <nd ref="726823484"/>
    <nd ref="726823578"/>
    <nd ref="726823655"/>
    <nd ref="726823754"/>
    <nd ref="726823223"/>
    <nd ref="726823262"/>
    <nd ref="726823298"/>
    <nd ref="726823385"/>
    <nd ref="726823665"/>
    <nd ref="726823180"/>
    <tag k="addr:housenumber" v="33,35,37"/>
    <tag k="addr:street" v="Geigenbergerstraße"/>
    <tag k="building" v="yes"/>
  </way>
  <way id="58662184" version="1" timestamp="2010-05-08T20:59:24Z" uid="36809" user="pfoten_weg_!_" changeset="4643020">
    <nd ref="726823174"/>
    <nd ref="726823565"/>
    <nd ref="726823643"/>
    <nd ref="726823747"/>
    <nd ref="726823174"/>
    <tag k="addr:housenumber" v="13,15"/>
    <tag k="addr:street" v="Plattlinger Straße"/>
    <tag k="building" v="yes"/>
  </way>
  <way id="58662185" version="1" timestamp="2010-05-08T20:59:24Z" uid="36809" user="pfoten_weg_!_" changeset="4643020">
    <nd ref="726823949"/>
    <nd ref="726823201"/>
    <nd ref="726823239"/>
    <nd ref="726823443"/>
    <nd ref="726823949"/>
    <tag k="addr:housenumber" v="9"/>
    <tag k="addr:street" v="Halbreiterstraße"/>
    <tag k="building" v="yes"/>
  </way>
  <way id="58662186" version="1" timestamp="2010-05-08T20:59:24Z" uid="36809" user="pfoten_weg_!_" changeset="4643020">
    <nd ref="726823497"/>
    <nd ref="726823824"/>
    <nd ref="726823930"/>
    <nd ref="726823195"/>
    <nd ref="726823231"/>
    <nd ref="726823691"/>
    <nd ref="726823497"/>
    <tag k="addr:housenumber" v="20"/>
    <tag k="addr:street" v="Breitschwertstraße"/>
    <tag k="building" v="yes"/>
  </way>
  <way id="58662187" version="1" timestamp="2010-05-08T20:59:25Z" uid="36809" user="pfoten_weg_!_" changeset="4643020">
    <nd ref="726823420"/>
    <nd ref="726823515"/>
    <nd ref="726823604"/>
    <nd ref="726823943"/>
    <nd ref="726823420"/>
    <tag k="addr:housenumber" v="59"/>
    <tag k="addr:street" v="Weltistraße"/>
    <tag k="building" v="yes"/>
  </way>
  <way id="58662188" version="1" timestamp="2010-05-08T20:59:25Z" uid="36809" user="pfoten_weg_!_" changeset="4643020">
    <nd ref="726823924"/>
    <nd ref="726823192"/>
    <nd ref="726823228"/>
    <nd ref="726823410"/>
    <nd ref="726823508"/>
    <nd ref="726823598"/>
    <nd ref="726823679"/>
    <nd ref="726823197"/>
    <nd ref="726823233"/>
    <nd ref="726823271"/>
    <nd ref="726823313"/>
    <nd ref="726823609"/>
    <nd ref="726823924"/>
    <tag k="addr:housenumber" v="39,41,43"/>
    <tag k="addr:street" v="Geigenbergerstraße"/>
    <tag k="building" v="yes"/>
  </way>
  <way id="58662189" version="1" timestamp="2010-05-08T20:59:25Z" uid="36809" user="pfoten_weg_!_" changeset="4643020">
    <nd ref="726823559"/>
    <nd ref="726823637"/>
    <nd ref="726823743"/>
    <nd ref="726823215"/>
    <nd ref="726823559"/>
    <tag k="addr:housenumber" v="57,55a"/>
    <tag k="addr:street" v="Hofbrunnstraße"/>
    <tag k="building" v="yes"/>
  </way>
  <way id="58662190" version="1" timestamp="2010-05-08T20:59:25Z" uid="36809" user="pfoten_weg_!_" changeset="4643020">
    <nd ref="726823680"/>
    <nd ref="726823818"/>
    <nd ref="726823926"/>
    <nd ref="726823272"/>
    <nd ref="726823680"/>
    <tag k="addr:housenumber" v="57,59,61,63"/>
    <tag k="addr:street" v="Plattlinger Straße"/>
    <tag k="building" v="yes"/>
  </way>
  <way id="58662191" version="1" timestamp="2010-05-08T20:59:25Z" uid="36809" user="pfoten_weg_!_" changeset="4643020">
    <nd ref="726823797"/>
    <nd ref="726823912"/>
    <nd ref="726823186"/>
    <nd ref="726823307"/>
    <nd ref="726823797"/>
    <tag k="addr:housenumber" v="49,51"/>
    <tag k="addr:street" v="Plattlinger Straße"/>
    <tag k="building" v="yes"/>
  </way>
  <way id="58662192" version="1" timestamp="2010-05-08T20:59:25Z" uid="36809" user="pfoten_weg_!_" changeset="4643020">
    <nd ref="726823892"/>
    <nd ref="726823257"/>
    <nd ref="726823293"/>
    <nd ref="726823374"/>
    <nd ref="726823892"/>
    <tag k="addr:housenumber" v="9,11"/>
    <tag k="addr:street" v="Plattlinger Straße"/>
    <tag k="building" v="yes"/>
  </way>
  <way id="58662193" version="1" timestamp="2010-05-08T20:59:25Z" uid="36809" user="pfoten_weg_!_" changeset="4643020">
    <nd ref="726823538"/>
    <nd ref="726823623"/>
    <nd ref="726823716"/>
    <nd ref="726823206"/>
    <nd ref="726823538"/>
    <tag k="addr:housenumber" v="3"/>
    <tag k="addr:street" v="Halbreiterstraße"/>
    <tag k="building" v="yes"/>
  </way>
  <way id="58662194" version="1" timestamp="2010-05-08T20:59:25Z" uid="36809" user="pfoten_weg_!_" changeset="4643020">
    <nd ref="726823200"/>
    <nd ref="726823237"/>
    <nd ref="726823274"/>
    <nd ref="726823531"/>
    <nd ref="726823200"/>
    <tag k="addr:housenumber" v="37"/>
    <tag k="addr:street" v="Gilgstraße"/>
    <tag k="building" v="yes"/>
  </way>
  <way id="58662195" version="1" timestamp="2010-05-08T20:59:25Z" uid="36809" user="pfoten_weg_!_" changeset="4643020">
    <nd ref="726823211"/>
    <nd ref="726823250"/>
    <nd ref="726823285"/>
    <nd ref="726823894"/>
    <nd ref="726823211"/>
    <tag k="addr:housenumber" v="79"/>
    <tag k="addr:street" v="Weltistraße"/>
    <tag k="building" v="yes"/>
  </way>
  <way id="58662196" version="1" timestamp="2010-05-08T20:59:26Z" uid="36809" user="pfoten_weg_!_" changeset="4643020">
    <nd ref="726823182"/>
    <nd ref="726823300"/>
    <nd ref="726823389"/>
    <nd ref="726823489"/>
    <nd ref="726823182"/>
    <tag k="addr:housenumber" v="1"/>
    <tag k="addr:street" v="Begasweg"/>
    <tag k="building" v="yes"/>
  </way>
  <way id="58662197" version="1" timestamp="2010-05-08T20:59:26Z" uid="36809" user="pfoten_weg_!_" changeset="4643020">
    <nd ref="726823315"/>
    <nd ref="726823412"/>
    <nd ref="726823510"/>
    <nd ref="726823235"/>
    <nd ref="726823273"/>
    <nd ref="726823317"/>
    <nd ref="726823414"/>
    <nd ref="726823703"/>
    <nd ref="726823839"/>
    <nd ref="726823938"/>
    <nd ref="726823199"/>
    <nd ref="726823333"/>
    <nd ref="726823315"/>
    <tag k="addr:housenumber" v="19,21,23"/>
    <tag k="addr:street" v="Geigenbergerstraße"/>
    <tag k="building" v="yes"/>
  </way>
  <way id="58662198" version="1" timestamp="2010-05-08T20:59:26Z" uid="36809" user="pfoten_weg_!_" changeset="4643020">
    <nd ref="726823399"/>
    <nd ref="726823495"/>
    <nd ref="726823589"/>
    <nd ref="726823928"/>
    <nd ref="726823399"/>
    <tag k="addr:housenumber" v="15"/>
    <tag k="addr:street" v="Halbreiterstraße"/>
    <tag k="building" v="yes"/>
    <tag k="fenced" v="yes"/>
    <tag k="internet_access" v="wlan"/>
    <tag k="internet_access:operator" v="FON"/>
  </way>
  <way id="58662199" version="1" timestamp="2010-05-08T20:59:26Z" uid="36809" user="pfoten_weg_!_" changeset="4643020">
    <nd ref="726823471"/>
    <nd ref="726823755"/>
    <nd ref="726823905"/>
    <nd ref="726823181"/>
    <nd ref="726823471"/>
    <tag k="addr:housenumber" v="16"/>
    <tag k="addr:street" v="Breitschwertstraße"/>
    <tag k="building" v="yes"/>
  </way>
  <way id="58662200" version="1" timestamp="2010-05-08T20:59:26Z" uid="36809" user="pfoten_weg_!_" changeset="4643020">
    <nd ref="726823245"/>
    <nd ref="726823281"/>
    <nd ref="726823345"/>
    <nd ref="726823635"/>
    <nd ref="726823245"/>
    <tag k="addr:housenumber" v="5"/>
    <tag k="addr:street" v="Halbreiterstraße"/>
    <tag k="building" v="yes"/>
  </way>
  <way id="58662201" version="1" timestamp="2010-05-08T20:59:26Z" uid="36809" user="pfoten_weg_!_" changeset="4643020">
    <nd ref="726823221"/>
    <nd ref="726823260"/>
    <nd ref="726823296"/>
    <nd ref="726823585"/>
    <nd ref="726823221"/>
    <tag k="addr:housenumber" v="11a,11b,11c,11d"/>
    <tag k="addr:street" v="Halbreiterstraße"/>
    <tag k="building" v="yes"/>
  </way>
  <way id="58662202" version="1" timestamp="2010-05-08T20:59:26Z" uid="36809" user="pfoten_weg_!_" changeset="4643020">
    <nd ref="726823621"/>
    <nd ref="726823713"/>
    <nd ref="726823848"/>
    <nd ref="726823244"/>
    <nd ref="726823621"/>
    <tag k="addr:housenumber" v="7,7a"/>
    <tag k="addr:street" v="Geigenbergerstraße"/>
    <tag k="building" v="yes"/>
  </way>
  <way id="58662203" version="1" timestamp="2010-05-08T20:59:26Z" uid="36809" user="pfoten_weg_!_" changeset="4643020">
    <nd ref="726823694"/>
    <nd ref="726823830"/>
    <nd ref="726823934"/>
    <nd ref="726823519"/>
    <nd ref="726823694"/>
    <tag k="addr:housenumber" v="65"/>
    <tag k="addr:street" v="Weltistraße"/>
    <tag k="building" v="yes"/>
  </way>
  <way id="58662204" version="1" timestamp="2010-05-08T20:59:26Z" uid="36809" user="pfoten_weg_!_" changeset="4643020">
    <nd ref="726823176"/>
    <nd ref="726823212"/>
    <nd ref="726823251"/>
    <nd ref="726823473"/>
    <nd ref="726823567"/>
    <nd ref="726823645"/>
    <nd ref="726823748"/>
    <nd ref="726823219"/>
    <nd ref="726823258"/>
    <nd ref="726823294"/>
    <nd ref="726823176"/>
    <tag k="addr:housenumber" v="51"/>
    <tag k="addr:street" v="Geigenbergerstraße"/>
    <tag k="building" v="yes"/>
  </way>
  <way id="58662205" version="1" timestamp="2010-05-08T20:59:26Z" uid="36809" user="pfoten_weg_!_" changeset="4643020">
    <nd ref="726823432"/>
    <nd ref="726823525"/>
    <nd ref="726823616"/>
    <nd ref="726823165"/>
    <nd ref="726823204"/>
    <nd ref="726823242"/>
    <nd ref="726823278"/>
    <nd ref="726823544"/>
    <nd ref="726823629"/>
    <nd ref="726823725"/>
    <nd ref="726823866"/>
    <nd ref="726823248"/>
    <nd ref="726823432"/>
    <tag k="addr:housenumber" v="25,27,29"/>
    <tag k="addr:street" v="Geigenbergerstraße"/>
    <tag k="building" v="yes"/>
  </way>
  <way id="58662206" version="1" timestamp="2010-05-08T20:59:26Z" uid="36809" user="pfoten_weg_!_" changeset="4643020">
    <nd ref="726823194"/>
    <nd ref="726823230"/>
    <nd ref="726823268"/>
    <nd ref="726823512"/>
    <nd ref="726823194"/>
    <tag k="addr:housenumber" v="13"/>
    <tag k="addr:street" v="Halbreiterstraße"/>
    <tag k="building" v="yes"/>
  </way>
  <way id="58662207" version="1" timestamp="2010-05-08T20:59:26Z" uid="36809" user="pfoten_weg_!_" changeset="4643020">
    <nd ref="726823218"/>
    <nd ref="726823387"/>
    <nd ref="726823487"/>
    <nd ref="726823580"/>
    <nd ref="726823657"/>
    <nd ref="726823188"/>
    <nd ref="726823224"/>
    <nd ref="726823264"/>
    <nd ref="726823218"/>
    <tag k="addr:housenumber" v="35"/>
    <tag k="addr:street" v="Grünbauerstraße"/>
    <tag k="building" v="yes"/>
  </way>
  <way id="58662208" version="1" timestamp="2010-05-08T20:59:26Z" uid="36809" user="pfoten_weg_!_" changeset="4643020">
    <nd ref="726823741"/>
    <nd ref="726823884"/>
    <nd ref="726823169"/>
    <nd ref="726823288"/>
    <nd ref="726823741"/>
    <tag k="addr:housenumber" v="19"/>
    <tag k="addr:street" v="Halbreiterstraße"/>
    <tag k="building" v="yes"/>
  </way>
  <way id="58662209" version="1" timestamp="2010-05-08T20:59:27Z" uid="36809" user="pfoten_weg_!_" changeset="4643020">
    <nd ref="726823661"/>
    <nd ref="726823789"/>
    <nd ref="726823909"/>
    <nd ref="726823266"/>
    <nd ref="726823661"/>
    <tag k="addr:housenumber" v="45,47"/>
    <tag k="addr:street" v="Plattlinger Straße"/>
    <tag k="building" v="yes"/>
  </way>
  <way id="58662210" version="1" timestamp="2010-05-08T20:59:27Z" uid="36809" user="pfoten_weg_!_" changeset="4643020">
    <nd ref="726823280"/>
    <nd ref="726823339"/>
    <nd ref="726823437"/>
    <nd ref="726823731"/>
    <nd ref="726823280"/>
    <tag k="addr:housenumber" v="5,5a"/>
    <tag k="addr:street" v="Geigenbergerstraße"/>
    <tag k="building" v="yes"/>
  </way>
  <way id="58662211" version="1" timestamp="2010-05-08T20:59:27Z" uid="36809" user="pfoten_weg_!_" changeset="4643020">
    <nd ref="726823804"/>
    <nd ref="726823232"/>
    <nd ref="726823270"/>
    <nd ref="726823310"/>
    <nd ref="726823804"/>
    <tag k="addr:housenumber" v="77"/>
    <tag k="addr:street" v="Weltistraße"/>
    <tag k="building" v="yes"/>
  </way>
  <way id="58662212" version="1" timestamp="2010-05-08T20:59:27Z" uid="36809" user="pfoten_weg_!_" changeset="4643020">
    <nd ref="726823602"/>
    <nd ref="726823683"/>
    <nd ref="726823821"/>
    <nd ref="726823275"/>
    <nd ref="726823602"/>
    <tag k="addr:housenumber" v="17"/>
    <tag k="addr:street" v="Halbreiterstraße"/>
    <tag k="building" v="yes"/>
    <tag k="fenced" v="yes"/>
  </way>
  <way id="58662213" version="1" timestamp="2010-05-08T20:59:27Z" uid="36809" user="pfoten_weg_!_" changeset="4643020">
    <nd ref="726823299"/>
    <nd ref="726823591"/>
    <nd ref="726823668"/>
    <nd ref="726823800"/>
    <nd ref="726823299"/>
    <tag k="addr:housenumber" v="37"/>
    <tag k="addr:street" v="Grünbauerstraße"/>
    <tag k="building" v="yes"/>
  </way>
  <way id="58662214" version="1" timestamp="2010-05-08T20:59:27Z" uid="36809" user="pfoten_weg_!_" changeset="4643020">
    <nd ref="726823366"/>
    <nd ref="726823463"/>
    <nd ref="726823557"/>
    <nd ref="726823899"/>
    <nd ref="726823366"/>
    <tag k="addr:housenumber" v="13,13a"/>
    <tag k="addr:street" v="Breitschwertstraße"/>
    <tag k="building" v="yes"/>
  </way>
  <way id="58662215" version="1" timestamp="2010-05-08T20:59:27Z" uid="36809" user="pfoten_weg_!_" changeset="4643020">
    <nd ref="726823876"/>
    <nd ref="726823167"/>
    <nd ref="726823205"/>
    <nd ref="726823356"/>
    <nd ref="726823876"/>
    <tag k="addr:housenumber" v="9,9a,9b"/>
    <tag k="addr:street" v="Geigenbergerstraße"/>
    <tag k="building" v="yes"/>
  </way>
  <way id="58662216" version="1" timestamp="2010-05-08T20:59:27Z" uid="36809" user="pfoten_weg_!_" changeset="4643020">
    <nd ref="726823612"/>
    <nd ref="726823697"/>
    <nd ref="726823833"/>
    <nd ref="726823240"/>
    <nd ref="726823612"/>
    <tag k="addr:housenumber" v="63"/>
    <tag k="addr:street" v="Weltistraße"/>
    <tag k="building" v="yes"/>
  </way>
  <way id="58662217" version="1" timestamp="2010-05-08T20:59:27Z" uid="36809" user="pfoten_weg_!_" changeset="4643020">
    <nd ref="726823376"/>
    <nd ref="726823659"/>
    <nd ref="726823756"/>
    <nd ref="726823907"/>
    <nd ref="726823376"/>
    <tag k="addr:housenumber" v="2"/>
    <tag k="addr:street" v="Bleibtreuplatz"/>
    <tag k="amenity" v="kindergarten"/>
    <tag k="building" v="yes"/>
    <tag k="name" v="Pfarrkindergarten St. Johann Baptist"/>
  </way>
  <way id="58662218" version="1" timestamp="2010-05-08T20:59:27Z" uid="36809" user="pfoten_weg_!_" changeset="4643020">
    <nd ref="726823582"/>
    <nd ref="726823916"/>
    <nd ref="726823189"/>
    <nd ref="726823225"/>
    <nd ref="726823582"/>
    <tag k="addr:housenumber" v="17"/>
    <tag k="addr:street" v="Weltistraße"/>
    <tag k="building" v="yes"/>
  </way>
  <way id="58662219" version="1" timestamp="2010-05-08T20:59:27Z" uid="36809" user="pfoten_weg_!_" changeset="4643020">
    <nd ref="726823276"/>
    <nd ref="726823329"/>
    <nd ref="726823428"/>
    <nd ref="726823719"/>
    <nd ref="726823860"/>
    <nd ref="726823951"/>
    <nd ref="726823202"/>
    <nd ref="726823348"/>
    <nd ref="726823445"/>
    <nd ref="726823540"/>
    <nd ref="726823625"/>
    <nd ref="726823171"/>
    <nd ref="726823207"/>
    <nd ref="726823246"/>
    <nd ref="726823276"/>
    <tag k="addr:housenumber" v="45,47,49"/>
    <tag k="addr:street" v="Geigenbergerstraße"/>
    <tag k="building" v="yes"/>
  </way>
  <way id="58662220" version="1" timestamp="2010-05-08T20:59:27Z" uid="36809" user="pfoten_weg_!_" changeset="4643020">
    <nd ref="726823402"/>
    <nd ref="726823836"/>
    <nd ref="726823936"/>
    <nd ref="726823198"/>
    <nd ref="726823402"/>
    <tag k="addr:housenumber" v="31"/>
    <tag k="addr:street" v="Weltistraße"/>
    <tag k="building" v="yes"/>
  </way>
  <way id="58662221" version="1" timestamp="2010-05-08T20:59:27Z" uid="36809" user="pfoten_weg_!_" changeset="4643020">
    <nd ref="726823327"/>
    <nd ref="726823426"/>
    <nd ref="726823517"/>
    <nd ref="726823857"/>
    <nd ref="726823327"/>
    <tag k="addr:housenumber" v="7"/>
    <tag k="addr:street" v="Halbreiterstraße"/>
    <tag k="building" v="yes"/>
  </way>
  <way id="58662222" version="1" timestamp="2010-05-08T20:59:27Z" uid="36809" user="pfoten_weg_!_" changeset="4643020">
    <nd ref="726823178"/>
    <nd ref="726823214"/>
    <nd ref="726823253"/>
    <nd ref="726823479"/>
    <nd ref="726823178"/>
    <tag k="addr:housenumber" v="41,43"/>
    <tag k="addr:street" v="Plattlinger Straße"/>
    <tag k="building" v="yes"/>
  </way>
  <way id="58662223" version="1" timestamp="2010-05-08T20:59:28Z" uid="36809" user="pfoten_weg_!_" changeset="4643020">
    <nd ref="726823234"/>
    <nd ref="726823430"/>
    <nd ref="726823522"/>
    <nd ref="726823614"/>
    <nd ref="726823234"/>
    <tag k="addr:housenumber" v="96"/>
    <tag k="addr:street" v="Weltistraße"/>
    <tag k="building" v="yes"/>
  </way>
  <way id="58662224" version="1" timestamp="2010-05-08T20:59:28Z" uid="36809" user="pfoten_weg_!_" changeset="4643020">
    <nd ref="726823254"/>
    <nd ref="726823289"/>
    <nd ref="726823368"/>
    <nd ref="726823179"/>
    <nd ref="726823254"/>
    <tag k="addr:housenumber" v="1"/>
    <tag k="addr:street" v="Geigenbergerstraße"/>
    <tag k="building" v="yes"/>
  </way>
  <way id="58662225" version="1" timestamp="2010-05-08T20:59:28Z" uid="36809" user="pfoten_weg_!_" changeset="4643020">
    <nd ref="726823572"/>
    <nd ref="726823650"/>
    <nd ref="726823751"/>
    <nd ref="726823382"/>
    <nd ref="726823572"/>
    <tag k="addr:housenumber" v="17,15"/>
    <tag k="addr:street" v="Breitschwertstraße"/>
    <tag k="building" v="yes"/>
  </way>
  <way id="58662226" version="1" timestamp="2010-05-08T20:59:28Z" uid="36809" user="pfoten_weg_!_" changeset="4643020">
    <nd ref="726823700"/>
    <nd ref="726823203"/>
    <nd ref="726823241"/>
    <nd ref="726823277"/>
    <nd ref="726823331"/>
    <nd ref="726823627"/>
    <nd ref="726823722"/>
    <nd ref="726823863"/>
    <nd ref="726823700"/>
    <tag k="addr:housenumber" v="45,47"/>
    <tag k="addr:street" v="Uhdestraße"/>
    <tag k="alt_name" v="Appertement Pension Welti"/>
    <tag k="building" v="yes"/>
    <tag k="name" v="Pension Welti"/>
    <tag k="tourism" v="hotel"/>
    <tag k="url" v="http://www.hotel-munich.de/"/>
  </way>
  <way id="58662231" version="1" timestamp="2010-05-08T20:59:28Z" uid="36809" user="pfoten_weg_!_" changeset="4643020">
    <nd ref="726823216"/>
    <nd ref="726823255"/>
    <nd ref="726823291"/>
    <nd ref="726823576"/>
    <nd ref="726823216"/>
    <tag k="addr:housenumber" v="3,3a"/>
    <tag k="addr:street" v="Geigenbergerstraße"/>
    <tag k="building" v="yes"/>
  </way>
  <way id="58662233" version="1" timestamp="2010-05-08T20:59:28Z" uid="36809" user="pfoten_weg_!_" changeset="4643020">
    <nd ref="726823480"/>
    <nd ref="726823574"/>
    <nd ref="726823651"/>
    <nd ref="726823184"/>
    <nd ref="726823480"/>
    <tag k="addr:housenumber" v="53,55"/>
    <tag k="addr:street" v="Plattlinger Straße"/>
    <tag k="building" v="yes"/>
  </way>
  <way id="58662236" version="1" timestamp="2010-05-08T20:59:28Z" uid="36809" user="pfoten_weg_!_" changeset="4643020">
    <nd ref="726823243"/>
    <nd ref="726823451"/>
    <nd ref="726823547"/>
    <nd ref="726823631"/>
    <nd ref="726823243"/>
    <tag k="addr:housenumber" v="18"/>
    <tag k="addr:street" v="Breitschwertstraße"/>
    <tag k="building" v="yes"/>
  </way>
  <way id="58662400" version="1" timestamp="2010-05-08T21:00:27Z" uid="6269" user="Mueck" changeset="4642808">
    <nd ref="21595892"/>
    <nd ref="21595743"/>
    <nd ref="21595744"/>
    <nd ref="21595745"/>
    <nd ref="21595746"/>
    <nd ref="21595893"/>
    <nd ref="21595748"/>
    <nd ref="21595747"/>
    <nd ref="21595740"/>
    <nd ref="21595741"/>
    <tag k="name" v="Tierpark Oberwald"/>
    <tag k="tourism" v="zoo"/>
  </way>
  <way id="58662400" version="2" timestamp="2010-05-08T21:00:46Z" uid="6269" user="Mueck" changeset="4642808">
    <nd ref="21595892"/>
    <nd ref="21595743"/>
    <nd ref="21595744"/>
    <nd ref="21595745"/>
    <nd ref="21595746"/>
    <nd ref="21595893"/>
    <nd ref="21595748"/>
    <nd ref="21595747"/>
    <nd ref="21595740"/>
    <nd ref="21595741"/>
    <tag k="barrier" v="fence"/>
    <tag k="name" v="Tierpark Oberwald"/>
    <tag k="tourism" v="zoo"/>
  </way>
  <way id="58662400" version="3" timestamp="2010-05-08T21:01:24Z" uid="6269" user="Mueck" changeset="4642808">
    <nd ref="21595892"/>
    <nd ref="21595743"/>
    <nd ref="21595744"/>
    <nd ref="21595745"/>
    <nd ref="21595746"/>
    <nd ref="21595893"/>
    <tag k="barrier" v="fence"/>
    <tag k="name" v="Tierpark Oberwald"/>
    <tag k="tourism" v="zoo"/>
  </way>
  <way id="58662400" version="4" timestamp="2010-05-08T21:01:53Z" uid="6269" user="Mueck" changeset="4642808">
    <nd ref="726825961"/>
    <nd ref="21595743"/>
    <nd ref="21595744"/>
    <nd ref="21595745"/>
    <nd ref="726825961"/>
    <tag k="barrier" v="fence"/>
    <tag k="name" v="Tierpark Oberwald"/>
    <tag k="tourism" v="zoo"/>
  </way>
  <way id="58662449" version="1" timestamp="2010-05-08T21:01:23Z" uid="6269" user="Mueck" changeset="4642808">
    <nd ref="21595893"/>
    <nd ref="726825566"/>
    <nd ref="21595748"/>
    <nd ref="21595747"/>
    <nd ref="726825569"/>
    <nd ref="726825566"/>
    <tag k="barrier" v="fence"/>
    <tag k="name" v="Tierpark Oberwald"/>
    <tag k="tourism" v="zoo"/>
  </way>
  <way id="58662449" version="2" timestamp="2010-05-08T21:01:28Z" uid="6269" user="Mueck" changeset="4642808">
    <nd ref="726825566"/>
    <nd ref="21595748"/>
    <nd ref="21595747"/>
    <nd ref="726825569"/>
    <nd ref="726825566"/>
    <tag k="barrier" v="fence"/>
    <tag k="name" v="Tierpark Oberwald"/>
    <tag k="tourism" v="zoo"/>
  </way>
  <way id="58662581" version="1" timestamp="2010-05-08T21:06:00Z" uid="36809" user="pfoten_weg_!_" changeset="4643082">
    <nd ref="726826980"/>
    <nd ref="726826937"/>
    <nd ref="726827143"/>
    <nd ref="726827094"/>
    <nd ref="726827151"/>
    <nd ref="726827113"/>
    <nd ref="726827035"/>
    <nd ref="726826994"/>
    <nd ref="726827108"/>
    <nd ref="726827030"/>
    <nd ref="726826990"/>
    <nd ref="726826946"/>
    <nd ref="726827069"/>
    <nd ref="726827015"/>
    <nd ref="726826972"/>
    <nd ref="726826929"/>
    <nd ref="726827011"/>
    <nd ref="726826980"/>
    <tag k="addr:city" v="Pullach im Isartal"/>
    <tag k="addr:housenumber" v="152"/>
    <tag k="addr:postcode" v="82049"/>
    <tag k="addr:street" v="Wolfratshauser Straße"/>
    <tag k="building" v="yes"/>
    <tag k="name" v="AEZ Amper Einkaufs Zentrum"/>
    <tag k="note" v="Niederlassung Pullach"/>
    <tag k="shop" v="supermarket"/>
  </way>
  <way id="58662581" version="2" timestamp="2010-05-08T21:44:14Z" uid="36809" user="pfoten_weg_!_" changeset="4643438">
    <nd ref="726826980"/>
    <nd ref="726826937"/>
    <nd ref="726827143"/>
    <nd ref="726827094"/>
    <nd ref="614571445"/>
    <nd ref="726827113"/>
    <nd ref="726827035"/>
    <nd ref="726826994"/>
    <nd ref="726827108"/>
    <nd ref="726827030"/>
    <nd ref="726826990"/>
    <nd ref="726826946"/>
    <nd ref="726827069"/>
    <nd ref="726827015"/>
    <nd ref="726826972"/>
    <nd ref="726826929"/>
    <nd ref="726827011"/>
    <nd ref="726826980"/>
    <tag k="addr:city" v="Pullach im Isartal"/>
    <tag k="addr:housenumber" v="152"/>
    <tag k="addr:postcode" v="82049"/>
    <tag k="addr:street" v="Wolfratshauser Straße"/>
    <tag k="building" v="yes"/>
    <tag k="name" v="AEZ Amper Einkaufs Zentrum"/>
    <tag k="note" v="Niederlassung Pullach"/>
    <tag k="shop" v="supermarket"/>
  </way>
  <way id="58662582" version="1" timestamp="2010-05-08T21:06:01Z" uid="36809" user="pfoten_weg_!_" changeset="4643082">
    <nd ref="726827154"/>
    <nd ref="726827116"/>
    <nd ref="726827038"/>
    <nd ref="726826997"/>
    <nd ref="726827154"/>
    <tag k="addr:housenumber" v="1"/>
    <tag k="addr:street" v="Warnberg"/>
    <tag k="building" v="yes"/>
    <tag k="layer" v="1"/>
  </way>
  <way id="58662583" version="1" timestamp="2010-05-08T21:06:01Z" uid="36809" user="pfoten_weg_!_" changeset="4643082">
    <nd ref="726826993"/>
    <nd ref="726826950"/>
    <nd ref="726827029"/>
    <nd ref="726826989"/>
    <nd ref="726826945"/>
    <nd ref="726827149"/>
    <nd ref="726826953"/>
    <nd ref="726827157"/>
    <nd ref="726827118"/>
    <nd ref="726827040"/>
    <nd ref="726826993"/>
    <tag k="addr:country" v="DE"/>
    <tag k="addr:housenumber" v="45"/>
    <tag k="addr:street" v="Hans-Keis-Straße"/>
    <tag k="amenity" v="kindergarten"/>
    <tag k="building" v="yes"/>
    <tag k="layer" v="1"/>
    <tag k="name" v="Kindergarten Isarspatzen"/>
  </way>
  <way id="58662583" version="2" timestamp="2010-05-08T21:44:13Z" uid="36809" user="pfoten_weg_!_" changeset="4643438">
    <nd ref="518119456"/>
    <nd ref="518119455"/>
    <nd ref="518119450"/>
    <nd ref="518119448"/>
    <nd ref="518119451"/>
    <nd ref="518119453"/>
    <nd ref="518119452"/>
    <nd ref="518119449"/>
    <nd ref="518119447"/>
    <nd ref="518119454"/>
    <nd ref="518119456"/>
    <tag k="addr:country" v="DE"/>
    <tag k="addr:housenumber" v="45"/>
    <tag k="addr:street" v="Hans-Keis-Straße"/>
    <tag k="amenity" v="kindergarten"/>
    <tag k="building" v="yes"/>
    <tag k="layer" v="1"/>
    <tag k="name" v="Kindergarten Isarspatzen"/>
  </way>
  <way id="58662584" version="1" timestamp="2010-05-08T21:06:01Z" uid="36809" user="pfoten_weg_!_" changeset="4643082">
    <nd ref="726827025"/>
    <nd ref="726826984"/>
    <nd ref="726826942"/>
    <nd ref="726827146"/>
    <nd ref="726827025"/>
    <tag k="addr:housenumber" v="1"/>
    <tag k="landuse" v="commercial"/>
    <tag k="layer" v="1"/>
    <tag k="name" v="SIXT"/>
  </way>
</osm>
