<?xml version='1.0' encoding='UTF-8'?>
<osm version="0.6" generator="libosmium/2.20.0">
  <way id="59028213" version="1" timestamp="2010-05-12T23:29:29Z" uid="244897" user="M526244" changeset="4681846">
    <nd ref="731601788"/>
    <nd ref="731601797"/>
    <nd ref="731601798"/>
    <nd ref="731601799"/>
    <tag k="highway" v="residential"/>
    <tag k="name" v="Milton Street"/>
    <tag k="source" v="survey"/>
  </way>
  <way id="59028214" version="1" timestamp="2010-05-12T23:29:30Z" uid="244897" user="M526244" changeset="4681846">
    <nd ref="731601808"/>
    <nd ref="731601797"/>
    <nd ref="731601813"/>
    <nd ref="731601816"/>
    <nd ref="731601818"/>
    <tag k="highway" v="residential"/>
    <tag k="lanes" v="1"/>
    <tag k="name" v="Shirley Lane"/>
    <tag k="source" v="survey"/>
  </way>
  <way id="59028215" version="1" timestamp="2010-05-12T23:29:31Z" uid="244897" user="M526244" changeset="4681846">
    <nd ref="731601786"/>
    <nd ref="731601816"/>
    <nd ref="731601824"/>
    <tag k="highway" v="residential"/>
    <tag k="name" v="Dryden Street"/>
    <tag k="source" v="survey"/>
  </way>
</osm>
