<?xml version='1.0' encoding='UTF-8'?>
<osm version="0.6" generator="libosmium/2.20.0">
  <way id="59145559" version="4" timestamp="2010-08-04T17:37:40Z" uid="9581" user="Lobelt" changeset="5401263">
    <nd ref="733198639"/>
    <nd ref="733198647"/>
    <nd ref="733198616"/>
    <nd ref="733198643"/>
    <nd ref="733198641"/>
    <nd ref="758790622"/>
    <tag k="cables" v="3"/>
    <tag k="operator" v="Stadtwerke Neumünster"/>
    <tag k="power" v="line"/>
    <tag k="ref" v="Leitung III"/>
    <tag k="voltage" v="110000"/>
    <tag k="wires" v="single"/>
  </way>
  <way id="59145565" version="3" timestamp="2010-08-04T17:38:14Z" uid="9581" user="Lobelt" changeset="5401263">
    <nd ref="733198621"/>
    <nd ref="733198638"/>
    <nd ref="733198637"/>
    <nd ref="733198632"/>
    <nd ref="733198646"/>
    <nd ref="733198640"/>
    <tag k="cables" v="3"/>
    <tag k="operator" v="Stadtwerke Neumünster"/>
    <tag k="power" v="line"/>
    <tag k="ref" v="Leitung II"/>
    <tag k="voltage" v="110000"/>
    <tag k="wires" v="single"/>
  </way>
</osm>
