<?xml version='1.0' encoding='UTF-8'?>
<osm version="0.6" generator="libosmium/2.20.0">
  <way id="59249347" version="1" timestamp="2010-05-15T02:55:30Z" uid="61114" user="Trav" changeset="4702143">
    <nd ref="601756735"/>
    <nd ref="734826572"/>
    <nd ref="734826573"/>
    <nd ref="734826574"/>
    <nd ref="256031152"/>
    <tag k="highway" v="footway"/>
  </way>
  <way id="59249349" version="1" timestamp="2010-05-15T02:55:30Z" uid="61114" user="Trav" changeset="4702143">
    <nd ref="734826573"/>
    <nd ref="734826575"/>
    <tag k="highway" v="footway"/>
    <tag k="layer" v="1"/>
    <tag k="source" v="nearmap;survey"/>
  </way>
  <way id="59249484" version="3" timestamp="2010-05-31T00:06:18Z" uid="4467" user="Rosscoe" changeset="4858786">
    <nd ref="734827062"/>
    <nd ref="734826587"/>
    <nd ref="734826583"/>
    <nd ref="734826582"/>
    <nd ref="734826581"/>
    <nd ref="734826580"/>
    <nd ref="734826579"/>
    <nd ref="734826578"/>
    <nd ref="734826577"/>
    <nd ref="38416729"/>
    <tag k="highway" v="secondary"/>
    <tag k="maxspeed" v="70"/>
    <tag k="name" v="Industrial Drive"/>
    <tag k="oneway" v="yes"/>
    <tag k="ref" v="124"/>
  </way>
  <way id="59249597" version="3" timestamp="2010-05-31T00:06:33Z" uid="4467" user="Rosscoe" changeset="4858786">
    <nd ref="734826596"/>
    <nd ref="734826595"/>
    <nd ref="734826594"/>
    <nd ref="734826593"/>
    <nd ref="734827062"/>
    <tag k="highway" v="secondary"/>
    <tag k="maxspeed" v="80"/>
    <tag k="name" v="Industrial Drive"/>
    <tag k="oneway" v="yes"/>
    <tag k="ref" v="124"/>
    <tag k="source" v="nearmap"/>
  </way>
</osm>
