<?xml version='1.0' encoding='UTF-8'?>
<osm version="0.6" generator="libosmium/2.20.0">
  <way id="5944021" version="5" timestamp="2008-08-14T19:45:03Z" uid="6975" user="ulfl" changeset="264731">
    <nd ref="32873178"/>
    <nd ref="48924351"/>
    <nd ref="48921678"/>
    <nd ref="249663388"/>
    <nd ref="48923712"/>
    <nd ref="48924308"/>
    <nd ref="249663382"/>
    <nd ref="48924599"/>
    <nd ref="249712520"/>
    <nd ref="48924806"/>
    <nd ref="48924315"/>
    <nd ref="249711323"/>
    <nd ref="249711321"/>
    <nd ref="249711319"/>
    <nd ref="48924321"/>
    <tag k="foot" v="yes"/>
    <tag k="highway" v="cycleway"/>
  </way>
  <way id="5944022" version="2" timestamp="2008-08-14T19:45:01Z" uid="6975" user="ulfl" changeset="264731">
    <nd ref="32254774"/>
    <nd ref="48924918"/>
    <tag k="foot" v="yes"/>
    <tag k="highway" v="cycleway"/>
    <tag k="surface" v="paved"/>
    <tag k="tracktype" v="grade2"/>
  </way>
  <way id="5944027" version="2" timestamp="2008-02-23T14:08:28Z" uid="6975" user="ulfl" changeset="184302">
    <nd ref="48925867"/>
    <nd ref="48926042"/>
    <nd ref="48926273"/>
    <nd ref="48926279"/>
    <nd ref="48926285"/>
    <nd ref="48926290"/>
    <nd ref="48926296"/>
    <nd ref="48926301"/>
    <nd ref="48926325"/>
    <tag k="created_by" v="Potlatch 0.7b"/>
    <tag k="highway" v="service"/>
  </way>
  <way id="5944413" version="4" timestamp="2008-09-21T14:33:18Z" uid="68089" user="GreenYeti" changeset="673622">
    <nd ref="48927167"/>
    <nd ref="48927174"/>
    <nd ref="48927178"/>
    <nd ref="48927182"/>
    <nd ref="48927187"/>
    <nd ref="48927192"/>
    <nd ref="48927195"/>
    <nd ref="48927200"/>
    <nd ref="48927206"/>
    <nd ref="48927209"/>
    <nd ref="48927212"/>
    <nd ref="48927214"/>
    <nd ref="48927216"/>
    <nd ref="48927219"/>
    <nd ref="48927222"/>
    <nd ref="48927225"/>
    <nd ref="48927227"/>
    <nd ref="48927233"/>
    <nd ref="48927235"/>
    <nd ref="48927237"/>
    <nd ref="48927240"/>
    <tag k="created_by" v="Potlatch 0.10b"/>
    <tag k="highway" v="secondary"/>
    <tag k="ref" v="L 220"/>
  </way>
  <way id="5944416" version="4" timestamp="2008-09-21T14:33:22Z" uid="68089" user="GreenYeti" changeset="673622">
    <nd ref="48926841"/>
    <nd ref="48927155"/>
    <nd ref="48927158"/>
    <nd ref="48927162"/>
    <nd ref="48927164"/>
    <nd ref="48927167"/>
    <tag k="created_by" v="Potlatch 0.10b"/>
    <tag k="highway" v="secondary"/>
    <tag k="name" v="Bodanrückstraße"/>
    <tag k="ref" v="L 220"/>
  </way>
  <way id="5944416" version="5" timestamp="2008-09-21T14:33:25Z" uid="68089" user="GreenYeti" changeset="673622">
    <nd ref="48926841"/>
    <nd ref="48927155"/>
    <nd ref="48927158"/>
    <nd ref="48927162"/>
    <nd ref="48927164"/>
    <nd ref="298732768"/>
    <nd ref="48927167"/>
    <tag k="created_by" v="Potlatch 0.10b"/>
    <tag k="highway" v="secondary"/>
    <tag k="name" v="Bodanrückstraße"/>
    <tag k="ref" v="L 220"/>
  </way>
  <way id="5944416" version="6" timestamp="2008-09-21T14:33:28Z" uid="68089" user="GreenYeti" changeset="673622">
    <nd ref="48926841"/>
    <nd ref="48927155"/>
    <nd ref="48927158"/>
    <nd ref="48927162"/>
    <nd ref="298732826"/>
    <nd ref="48927164"/>
    <nd ref="298732768"/>
    <nd ref="48927167"/>
    <tag k="created_by" v="Potlatch 0.10b"/>
    <tag k="highway" v="secondary"/>
    <tag k="name" v="Bodanrückstraße"/>
    <tag k="ref" v="L 220"/>
  </way>
  <way id="5944416" version="7" timestamp="2008-09-21T14:33:33Z" uid="68089" user="GreenYeti" changeset="673622">
    <nd ref="48926841"/>
    <nd ref="48927155"/>
    <nd ref="48927158"/>
    <nd ref="48927162"/>
    <nd ref="298732826"/>
    <nd ref="48927164"/>
    <nd ref="298732768"/>
    <nd ref="48927167"/>
    <tag k="created_by" v="Potlatch 0.10b"/>
    <tag k="highway" v="secondary"/>
    <tag k="name" v="Bodanrückstraße"/>
    <tag k="ref" v="L 220"/>
  </way>
  <way id="5944416" version="8" timestamp="2008-09-21T14:33:39Z" uid="68089" user="GreenYeti" changeset="673622">
    <nd ref="48926841"/>
    <nd ref="48927155"/>
    <nd ref="48927158"/>
    <nd ref="48927162"/>
    <nd ref="298732826"/>
    <nd ref="48927164"/>
    <nd ref="298732768"/>
    <nd ref="48927167"/>
    <tag k="created_by" v="Potlatch 0.10b"/>
    <tag k="highway" v="secondary"/>
    <tag k="name" v="Bodanrückstraße"/>
    <tag k="ref" v="L 220"/>
  </way>
  <way id="5944417" version="6" timestamp="2008-09-19T14:03:00Z" uid="68089" user="GreenYeti" changeset="666688">
    <nd ref="48927258"/>
    <nd ref="257588326"/>
    <tag k="created_by" v="Potlatch 0.10b"/>
    <tag k="highway" v="secondary"/>
    <tag k="name" v="Badener Straße"/>
    <tag k="ref" v="L 220"/>
  </way>
  <way id="5944419" version="5" timestamp="2008-09-18T20:03:43Z" uid="68089" user="GreenYeti" changeset="662064">
    <nd ref="48927240"/>
    <nd ref="269190991"/>
    <nd ref="48927242"/>
    <nd ref="48927244"/>
    <nd ref="48927247"/>
    <nd ref="269190682"/>
    <nd ref="48927249"/>
    <nd ref="48927253"/>
    <nd ref="269190679"/>
    <nd ref="48927255"/>
    <nd ref="269190910"/>
    <nd ref="269190712"/>
    <nd ref="48927258"/>
    <tag k="created_by" v="Potlatch 0.10b"/>
    <tag k="highway" v="secondary"/>
    <tag k="name" v="Bordwaldstraße"/>
    <tag k="ref" v="L 220"/>
  </way>
  <way id="5944419" version="6" timestamp="2008-10-30T09:32:04Z" uid="68089" user="GreenYeti" changeset="636550">
    <nd ref="48927240"/>
    <nd ref="269190991"/>
    <nd ref="48927242"/>
    <nd ref="48927244"/>
    <nd ref="48927247"/>
    <nd ref="269190682"/>
    <nd ref="48927249"/>
    <nd ref="48927253"/>
    <nd ref="269190679"/>
    <nd ref="48927255"/>
    <nd ref="269190910"/>
    <nd ref="269190712"/>
    <nd ref="48927258"/>
    <tag k="created_by" v="Potlatch 0.10f"/>
    <tag k="highway" v="secondary"/>
    <tag k="name" v="Bordwaldstraße"/>
    <tag k="ref" v="L 220"/>
  </way>
  <way id="5944602" version="2" timestamp="2008-02-23T14:08:06Z" uid="6975" user="ulfl" changeset="184302">
    <nd ref="48931470"/>
    <nd ref="48931471"/>
    <nd ref="48931479"/>
    <nd ref="48931475"/>
    <nd ref="48931477"/>
    <tag k="created_by" v="Potlatch 0.7b"/>
    <tag k="railway" v="rail"/>
    <tag k="source" v="extrapolation"/>
  </way>
  <way id="5944604" version="2" timestamp="2008-08-14T19:44:58Z" uid="6975" user="ulfl" changeset="264731">
    <nd ref="33768476"/>
    <nd ref="28852401"/>
    <tag k="foot" v="yes"/>
    <tag k="highway" v="cycleway"/>
  </way>
  <way id="5944607" version="2" timestamp="2008-07-13T15:47:41Z" uid="6975" user="ulfl" changeset="475845">
    <nd ref="48931482"/>
    <nd ref="48931484"/>
    <tag k="highway" v="footway"/>
    <tag k="layer" v="-1"/>
    <tag k="tunnel" v="yes"/>
  </way>
  <way id="5944608" version="2" timestamp="2008-08-14T19:45:10Z" uid="6975" user="ulfl" changeset="264731">
    <nd ref="27323198"/>
    <nd ref="48931493"/>
    <tag k="foot" v="yes"/>
    <tag k="highway" v="cycleway"/>
  </way>
  <way id="5944609" version="2" timestamp="2008-08-14T19:45:08Z" uid="6975" user="ulfl" changeset="264731">
    <nd ref="48931489"/>
    <nd ref="27489042"/>
    <tag k="foot" v="yes"/>
    <tag k="highway" v="cycleway"/>
  </way>
  <way id="5944612" version="2" timestamp="2008-07-13T15:47:40Z" uid="6975" user="ulfl" changeset="475845">
    <nd ref="48931502"/>
    <nd ref="48931501"/>
    <tag k="foot" v="1"/>
    <tag k="highway" v="cycleway"/>
    <tag k="layer" v="-1"/>
    <tag k="tunnel" v="yes"/>
  </way>
  <way id="5944721" version="4" timestamp="2010-03-27T07:46:47Z" uid="20587" user="balrog-kun" changeset="4244079">
    <nd ref="48932389"/>
    <nd ref="542015853"/>
    <nd ref="542015859"/>
    <tag k="highway" v="residential"/>
    <tag k="name" v="Castello Circle"/>
    <tag k="tiger:cfcc" v="A41"/>
    <tag k="tiger:county" v="San Diego, CA"/>
    <tag k="tiger:reviewed" v="no"/>
    <tag k="tiger:separated" v="no"/>
    <tag k="tiger:source" v="tiger_import_dch_v0.6_20070809"/>
    <tag k="tiger:tlid" v="195686398"/>
  </way>
  <way id="5944865" version="12" timestamp="2011-02-07T21:56:38Z" uid="9581" user="Lobelt" changeset="7221516">
    <nd ref="33183121"/>
    <nd ref="33183122"/>
    <nd ref="567203305"/>
    <nd ref="480778697"/>
    <nd ref="420064117"/>
    <nd ref="1141374815"/>
    <tag k="highway" v="secondary"/>
    <tag k="lanes" v="2"/>
    <tag k="maxspeed" v="60"/>
    <tag k="name" v="Talhausstraße"/>
    <tag k="oneway" v="yes"/>
  </way>
</osm>
