<?xml version='1.0' encoding='UTF-8'?>
<osm version="0.6" generator="libosmium/2.20.0">
  <way id="59550279" version="3" timestamp="2010-08-04T17:43:15Z" uid="9581" user="Lobelt" changeset="5401263">
    <nd ref="248141020"/>
    <nd ref="738654794"/>
    <nd ref="738654795"/>
    <nd ref="738654796"/>
    <nd ref="248141021"/>
    <tag k="cables" v="3"/>
    <tag k="frequency" v="50"/>
    <tag k="name" v="561"/>
    <tag k="operator" v="50Hertz"/>
    <tag k="power" v="line"/>
    <tag k="ref" v="561"/>
    <tag k="voltage" v="380000"/>
  </way>
  <way id="59550291" version="3" timestamp="2010-08-04T17:43:53Z" uid="9581" user="Lobelt" changeset="5401263">
    <nd ref="738654811"/>
    <nd ref="738654813"/>
    <nd ref="738654815"/>
    <nd ref="738654817"/>
    <nd ref="248141020"/>
    <tag k="cables" v="3"/>
    <tag k="frequency" v="50"/>
    <tag k="name" v="562"/>
    <tag k="operator" v="50Hertz"/>
    <tag k="power" v="line"/>
    <tag k="ref" v="562"/>
    <tag k="voltage" v="380000"/>
  </way>
  <way id="59550469" version="1" timestamp="2010-05-18T16:10:29Z" uid="9581" user="Lobelt" changeset="4740192">
    <nd ref="309911265"/>
    <nd ref="309911266"/>
    <nd ref="416872793"/>
    <nd ref="259048401"/>
    <nd ref="309911267"/>
    <nd ref="309911268"/>
    <nd ref="309911269"/>
    <nd ref="309911270"/>
    <nd ref="259048378"/>
    <nd ref="307639914"/>
    <nd ref="309911272"/>
    <nd ref="259048340"/>
    <nd ref="259048788"/>
    <nd ref="259048728"/>
    <nd ref="309911273"/>
    <nd ref="309911274"/>
    <nd ref="259048698"/>
    <nd ref="309911275"/>
    <nd ref="312926874"/>
    <nd ref="312926910"/>
    <nd ref="259048687"/>
    <nd ref="309911276"/>
    <nd ref="259048667"/>
    <nd ref="416877191"/>
    <nd ref="312926924"/>
    <nd ref="309911278"/>
    <nd ref="309911279"/>
    <nd ref="259048647"/>
    <nd ref="309911280"/>
    <nd ref="259048628"/>
    <nd ref="309911281"/>
    <nd ref="312927351"/>
    <nd ref="309911282"/>
    <nd ref="259048528"/>
    <nd ref="309911283"/>
    <nd ref="312927360"/>
    <nd ref="259048508"/>
    <nd ref="259048476"/>
    <tag k="highway" v="primary"/>
    <tag k="lanes" v="2"/>
    <tag k="name" v="Illtalstraße"/>
    <tag k="ref" v="B 10"/>
    <tag k="surface" v="paved"/>
  </way>
  <way id="59550470" version="1" timestamp="2010-05-18T16:10:30Z" uid="9581" user="Lobelt" changeset="4740192">
    <nd ref="303218720"/>
    <nd ref="303218721"/>
    <nd ref="303218722"/>
    <nd ref="303218723"/>
    <nd ref="303218724"/>
    <nd ref="303218725"/>
    <tag k="highway" v="residential"/>
    <tag k="name" v="Im Flürchen"/>
    <tag k="surface" v="paved"/>
  </way>
  <way id="59550471" version="1" timestamp="2010-05-18T16:10:30Z" uid="9581" user="Lobelt" changeset="4740192">
    <nd ref="288290378"/>
    <nd ref="269173548"/>
    <tag k="highway" v="tertiary"/>
    <tag k="ref" v="L 336"/>
  </way>
</osm>
