<?xml version='1.0' encoding='UTF-8'?>
<osm version="0.6" generator="libosmium/2.20.0">
  <way id="59654317" version="1" timestamp="2010-05-19T22:21:39Z" uid="244897" user="M526244" changeset="4752419">
    <nd ref="258352993"/>
    <nd ref="258352994"/>
    <nd ref="258352995"/>
    <tag k="highway" v="residential"/>
    <tag k="maxspeed" v="50"/>
    <tag k="name" v="Eiley Street"/>
  </way>
  <way id="59654320" version="1" timestamp="2010-05-19T22:21:39Z" uid="244897" user="M526244" changeset="4752419">
    <nd ref="258352787"/>
    <nd ref="258352788"/>
    <nd ref="258352789"/>
    <nd ref="258352790"/>
    <nd ref="258352791"/>
    <nd ref="258352792"/>
    <nd ref="258352793"/>
    <tag k="highway" v="residential"/>
    <tag k="maxspeed" v="50"/>
    <tag k="name" v="Bultarra Street"/>
  </way>
  <way id="59654323" version="1" timestamp="2010-05-19T22:21:39Z" uid="244897" user="M526244" changeset="4752419">
    <nd ref="258352796"/>
    <nd ref="258352797"/>
    <nd ref="258352798"/>
    <nd ref="258352799"/>
    <tag k="highway" v="residential"/>
    <tag k="maxspeed" v="50"/>
    <tag k="name" v="Kalma Street"/>
  </way>
  <way id="59654325" version="1" timestamp="2010-05-19T22:21:39Z" uid="244897" user="M526244" changeset="4752419">
    <nd ref="258352793"/>
    <nd ref="258352794"/>
    <nd ref="258352795"/>
    <nd ref="258352796"/>
    <tag k="highway" v="residential"/>
    <tag k="maxspeed" v="50"/>
    <tag k="name" v="Monak Street"/>
  </way>
</osm>
