<?xml version='1.0' encoding='UTF-8'?>
<osm version="0.6" generator="libosmium/2.20.0">
  <way id="59843555" version="2" timestamp="2010-07-26T02:20:23Z" uid="4467" user="Rosscoe" changeset="5317875">
    <nd ref="638207819"/>
    <nd ref="638207820"/>
    <tag k="bridge" v="yes"/>
    <tag k="foot" v="yes"/>
    <tag k="highway" v="cycleway"/>
    <tag k="layer" v="1"/>
    <tag k="source" v="nearmap"/>
    <tag k="surface" v="concrete"/>
    <tag k="width" v="2.5"/>
  </way>
  <way id="59843749" version="1" timestamp="2010-05-21T15:58:49Z" uid="256927" user="Timo Müller" changeset="4767287">
    <nd ref="742682562"/>
    <nd ref="420564717"/>
    <tag k="highway" v="steps"/>
  </way>
  <way id="59843750" version="1" timestamp="2010-05-21T15:58:49Z" uid="256927" user="Timo Müller" changeset="4767287">
    <nd ref="420564609"/>
    <nd ref="742682584"/>
    <tag k="highway" v="footway"/>
  </way>
  <way id="59843751" version="1" timestamp="2010-05-21T15:58:49Z" uid="256927" user="Timo Müller" changeset="4767287">
    <nd ref="317980761"/>
    <nd ref="742682575"/>
    <nd ref="317980762"/>
    <nd ref="742682599"/>
    <tag k="addr:interpolation" v="odd"/>
    <tag k="addr:street" v="Bergheimer Straße"/>
  </way>
  <way id="59843752" version="1" timestamp="2010-05-21T15:58:50Z" uid="256927" user="Timo Müller" changeset="4767287">
    <nd ref="420564719"/>
    <nd ref="742682601"/>
    <tag k="highway" v="footway"/>
  </way>
  <way id="59843753" version="1" timestamp="2010-05-21T15:58:50Z" uid="256927" user="Timo Müller" changeset="4767287">
    <nd ref="742682579"/>
    <nd ref="420564702"/>
    <tag k="highway" v="service"/>
  </way>
  <way id="59843754" version="1" timestamp="2010-05-21T15:58:50Z" uid="256927" user="Timo Müller" changeset="4767287">
    <nd ref="742682584"/>
    <nd ref="420564719"/>
    <tag k="highway" v="steps"/>
  </way>
  <way id="59843755" version="1" timestamp="2010-05-21T15:58:50Z" uid="256927" user="Timo Müller" changeset="4767287">
    <nd ref="742682561"/>
    <nd ref="742682579"/>
    <tag k="highway" v="residential"/>
    <tag k="name" v="Gartenstraße"/>
  </way>
  <way id="59843755" version="2" timestamp="2010-05-24T17:38:34Z" uid="256927" user="Timo Müller" changeset="4796195">
    <nd ref="742682561"/>
    <nd ref="742682579"/>
    <tag k="fixme" v="Straße nur geschätzt (Walkingpapers)"/>
    <tag k="highway" v="residential"/>
    <tag k="name" v="Gartenstraße"/>
  </way>
  <way id="59843756" version="1" timestamp="2010-05-21T15:58:50Z" uid="256927" user="Timo Müller" changeset="4767287">
    <nd ref="420564717"/>
    <nd ref="420564718"/>
    <nd ref="420564719"/>
    <nd ref="420564720"/>
    <tag k="highway" v="footway"/>
  </way>
  <way id="59843757" version="1" timestamp="2010-05-21T15:58:50Z" uid="256927" user="Timo Müller" changeset="4767287">
    <nd ref="317980763"/>
    <nd ref="317980765"/>
    <tag k="addr:interpolation" v="odd"/>
    <tag k="addr:street" v="Bergheimer Straße"/>
  </way>
  <way id="59843758" version="1" timestamp="2010-05-21T15:58:50Z" uid="256927" user="Timo Müller" changeset="4767287">
    <nd ref="742682588"/>
    <nd ref="308265171"/>
    <nd ref="308265169"/>
    <nd ref="308265166"/>
    <nd ref="308265165"/>
    <nd ref="308265164"/>
    <nd ref="308265163"/>
    <nd ref="308265161"/>
    <tag k="addr:interpolation" v="odd"/>
    <tag k="addr:street" v="Bergheimer Straße"/>
  </way>
  <way id="59843758" version="2" timestamp="2010-05-24T17:38:35Z" uid="256927" user="Timo Müller" changeset="4796195">
    <nd ref="308265169"/>
    <nd ref="308265166"/>
    <tag k="addr:interpolation" v="odd"/>
    <tag k="addr:street" v="Bergheimer Straße"/>
  </way>
</osm>
