<?xml version='1.0' encoding='UTF-8'?>
<osm version="0.6" generator="libosmium/2.20.0">
  <way id="59929171" version="2" timestamp="2011-01-04T16:15:59Z" uid="9581" user="Lobelt" changeset="6862399">
    <nd ref="33133979"/>
    <nd ref="33133980"/>
    <nd ref="33133981"/>
    <tag k="bicycle" v="no"/>
    <tag k="highway" v="primary"/>
    <tag k="maxspeed" v="100"/>
    <tag k="motorroad" v="yes"/>
    <tag k="ref" v="B 281"/>
  </way>
  <way id="59929180" version="2" timestamp="2011-01-04T16:13:26Z" uid="9581" user="Lobelt" changeset="6862399">
    <nd ref="33133976"/>
    <nd ref="33133977"/>
    <tag k="bicycle" v="no"/>
    <tag k="highway" v="primary"/>
    <tag k="maxspeed" v="100"/>
    <tag k="motorroad" v="yes"/>
    <tag k="ref" v="B 281"/>
  </way>
  <way id="59929183" version="2" timestamp="2011-01-04T16:17:07Z" uid="9581" user="Lobelt" changeset="6862399">
    <nd ref="33133977"/>
    <nd ref="33133978"/>
    <nd ref="33133979"/>
    <tag k="bicycle" v="no"/>
    <tag k="highway" v="primary"/>
    <tag k="maxspeed" v="100"/>
    <tag k="motorroad" v="yes"/>
    <tag k="ref" v="B 281"/>
  </way>
  <way id="59929185" version="2" timestamp="2011-01-04T16:15:00Z" uid="9581" user="Lobelt" changeset="6862399">
    <nd ref="33133981"/>
    <nd ref="33133982"/>
    <nd ref="33133983"/>
    <tag k="bicycle" v="no"/>
    <tag k="highway" v="primary"/>
    <tag k="maxspeed" v="100"/>
    <tag k="motorroad" v="yes"/>
    <tag k="ref" v="B 281"/>
  </way>
</osm>
