<?xml version='1.0' encoding='UTF-8'?>
<osm version="0.6" generator="libosmium/2.20.0">
  <way id="59956126" version="1" timestamp="2010-05-22T13:21:41Z" uid="4467" user="Rosscoe" changeset="4774356">
    <nd ref="310943867"/>
    <nd ref="310958716"/>
    <nd ref="310958691"/>
    <nd ref="311238280"/>
    <nd ref="310958489"/>
    <nd ref="310958488"/>
    <nd ref="310958614"/>
    <nd ref="311237861"/>
    <nd ref="310958436"/>
    <tag k="highway" v="tertiary"/>
    <tag k="is_in" v="Preston,Victoria,Australia"/>
    <tag k="name" v="Wood Street"/>
    <tag k="postal_code" v="3072"/>
  </way>
  <way id="59956128" version="1" timestamp="2010-05-22T13:21:42Z" uid="4467" user="Rosscoe" changeset="4774356">
    <nd ref="310960428"/>
    <nd ref="310960429"/>
    <tag k="highway" v="residential"/>
    <tag k="name" v="Sylvester Grove"/>
    <tag k="source" v="MMBW"/>
  </way>
  <way id="59956128" version="2" timestamp="2010-07-09T04:12:00Z" uid="74617" user="JohnSmith" changeset="5170825">
    <nd ref="310960428"/>
    <nd ref="310960429"/>
    <tag k="highway" v="residential"/>
    <tag k="maxspeed" v="50"/>
    <tag k="maxspeed:source" v="default residential speed limit in Australia"/>
    <tag k="name" v="Sylvester Grove"/>
    <tag k="source" v="MMBW"/>
  </way>
</osm>
