<?xml version='1.0' encoding='UTF-8'?>
<osm version="0.6" generator="libosmium/2.20.0">
  <way id="60080087" version="1" timestamp="2010-05-23T16:49:24Z" uid="6269" user="Mueck" changeset="4784635">
    <nd ref="746616653"/>
    <nd ref="746616783"/>
  </way>
  <way id="60080087" version="2" timestamp="2010-05-23T16:49:28Z" uid="6269" user="Mueck" changeset="4784635">
    <nd ref="746616653"/>
    <nd ref="746616783"/>
    <tag k="waterway" v="drain"/>
  </way>
  <way id="60080087" version="3" timestamp="2010-05-23T16:50:48Z" uid="6269" user="Mueck" changeset="4784635">
    <nd ref="746616653"/>
    <nd ref="746616783"/>
    <tag k="source" v="estimated"/>
    <tag k="waterway" v="drain"/>
  </way>
  <way id="60080087" version="4" timestamp="2010-05-24T15:00:34Z" uid="6269" user="Mueck" changeset="4794342">
    <nd ref="746616653"/>
    <nd ref="746616783"/>
    <tag k="source" v="estimated"/>
    <tag k="waterway" v="ditch"/>
  </way>
  <way id="60080644" version="1" timestamp="2010-05-23T16:53:05Z" uid="6269" user="Mueck" changeset="4784635">
    <nd ref="746620360"/>
    <nd ref="746620361"/>
    <nd ref="746620362"/>
    <tag k="highway" v="track"/>
    <tag k="smoothness" v="bad"/>
    <tag k="surface" v="ground"/>
    <tag k="tracktype" v="grade5"/>
  </way>
  <way id="60080644" version="2" timestamp="2010-05-23T16:53:10Z" uid="6269" user="Mueck" changeset="4784635">
    <nd ref="746620360"/>
    <nd ref="746620361"/>
    <tag k="highway" v="track"/>
    <tag k="smoothness" v="bad"/>
    <tag k="surface" v="ground"/>
    <tag k="tracktype" v="grade5"/>
  </way>
  <way id="60080645" version="1" timestamp="2010-05-23T16:53:07Z" uid="6269" user="Mueck" changeset="4784635">
    <nd ref="27159183"/>
    <nd ref="746620360"/>
    <tag k="highway" v="track"/>
    <tag k="smoothness" v="bad"/>
    <tag k="surface" v="ground"/>
    <tag k="tracktype" v="grade5"/>
  </way>
  <way id="60080645" version="2" timestamp="2010-05-23T16:53:39Z" uid="6269" user="Mueck" changeset="4784635">
    <nd ref="27159183"/>
    <nd ref="746620360"/>
    <tag k="highway" v="service"/>
    <tag k="smoothness" v="bad"/>
    <tag k="surface" v="compacted"/>
    <tag k="tracktype" v="grade3"/>
  </way>
  <way id="60080650" version="1" timestamp="2010-05-23T16:53:10Z" uid="6269" user="Mueck" changeset="4784635">
    <nd ref="746620361"/>
    <nd ref="746620362"/>
    <tag k="highway" v="track"/>
    <tag k="smoothness" v="bad"/>
    <tag k="surface" v="ground"/>
    <tag k="tracktype" v="grade5"/>
  </way>
  <way id="60080650" version="2" timestamp="2010-05-23T16:53:18Z" uid="6269" user="Mueck" changeset="4784635">
    <nd ref="746620361"/>
    <nd ref="746620362"/>
    <tag k="bridge" v="yes"/>
    <tag k="highway" v="track"/>
    <tag k="smoothness" v="bad"/>
    <tag k="surface" v="ground"/>
    <tag k="tracktype" v="grade5"/>
  </way>
  <way id="60080784" version="1" timestamp="2010-05-23T16:54:03Z" uid="59758" user="rendle" changeset="4785015">
    <nd ref="441922071"/>
    <nd ref="270191578"/>
    <nd ref="353285400"/>
    <tag k="highway" v="tertiary"/>
    <tag k="name" v="Toleindestraat"/>
  </way>
  <way id="60080877" version="1" timestamp="2010-05-23T16:54:26Z" uid="6269" user="Mueck" changeset="4784635">
    <nd ref="27159184"/>
    <nd ref="27159182"/>
    <nd ref="27159183"/>
    <tag k="highway" v="service"/>
    <tag k="smoothness" v="good"/>
    <tag k="surface" v="asphalt"/>
  </way>
  <way id="60080970" version="2" timestamp="2011-05-29T19:00:09Z" uid="9581" user="Lobelt" changeset="8284749">
    <nd ref="567683626"/>
    <nd ref="567683628"/>
    <nd ref="567683632"/>
    <nd ref="567683631"/>
    <nd ref="567683638"/>
    <nd ref="567683636"/>
    <nd ref="567683637"/>
    <nd ref="567683641"/>
    <nd ref="567683642"/>
    <nd ref="567683646"/>
    <nd ref="567683647"/>
    <nd ref="567683648"/>
    <nd ref="567683655"/>
    <nd ref="567683656"/>
    <nd ref="567683657"/>
    <nd ref="1305139340"/>
    <tag k="highway" v="motorway"/>
    <tag k="name" v="京石高速公路"/>
    <tag k="name:en" v="Jinggang&apos;ao Expressway"/>
    <tag k="name:zh" v="京石高速公路"/>
    <tag k="oneway" v="yes"/>
    <tag k="ref" v="G4"/>
  </way>
  <way id="60080970" version="3" timestamp="2011-06-12T23:05:52Z" uid="9581" user="Lobelt" changeset="8420892">
    <nd ref="567683626"/>
    <nd ref="1323005937"/>
    <nd ref="1323005709"/>
    <nd ref="1323004874"/>
    <nd ref="1323004913"/>
    <nd ref="1323003895"/>
    <nd ref="567683628"/>
    <nd ref="1323003600"/>
    <nd ref="1323005764"/>
    <nd ref="1323005497"/>
    <nd ref="1323004715"/>
    <nd ref="1323004282"/>
    <nd ref="567683632"/>
    <nd ref="1323003414"/>
    <nd ref="1323003454"/>
    <nd ref="1323005552"/>
    <nd ref="567683631"/>
    <nd ref="1323005338"/>
    <nd ref="1323004384"/>
    <nd ref="1323004104"/>
    <nd ref="1323006195"/>
    <nd ref="1323005978"/>
    <nd ref="567683638"/>
    <nd ref="1323005139"/>
    <nd ref="1323005182"/>
    <nd ref="1323004147"/>
    <nd ref="567683636"/>
    <nd ref="1323004705"/>
    <nd ref="1323004267"/>
    <tag k="highway" v="motorway"/>
    <tag k="name" v="京石高速公路"/>
    <tag k="name:en" v="Jinggang&apos;ao Expressway"/>
    <tag k="name:zh" v="京石高速公路"/>
    <tag k="oneway" v="yes"/>
    <tag k="ref" v="G4"/>
  </way>
  <way id="60080978" version="2" timestamp="2011-05-29T19:00:03Z" uid="9581" user="Lobelt" changeset="8284749">
    <nd ref="567683625"/>
    <nd ref="567683623"/>
    <nd ref="567683617"/>
    <nd ref="567683616"/>
    <nd ref="567683615"/>
    <nd ref="567683614"/>
    <nd ref="567683613"/>
    <nd ref="567683609"/>
    <nd ref="567683608"/>
    <nd ref="567683607"/>
    <nd ref="567683601"/>
    <nd ref="567683600"/>
    <nd ref="567683599"/>
    <nd ref="1305138198"/>
    <nd ref="1305139413"/>
    <nd ref="1305138472"/>
    <nd ref="1305138273"/>
    <nd ref="567683598"/>
    <nd ref="1305139504"/>
    <nd ref="1305138828"/>
    <nd ref="567683597"/>
    <nd ref="1305138617"/>
    <nd ref="1305139243"/>
    <nd ref="1305138909"/>
    <tag k="highway" v="motorway"/>
    <tag k="name" v="京石高速公路"/>
    <tag k="name:en" v="Jinggang&apos;ao Expressway"/>
    <tag k="name:zh" v="京石高速公路"/>
    <tag k="oneway" v="yes"/>
    <tag k="ref" v="G4"/>
  </way>
  <way id="60080978" version="3" timestamp="2011-06-12T23:05:50Z" uid="9581" user="Lobelt" changeset="8420892">
    <nd ref="567683625"/>
    <nd ref="1323005390"/>
    <nd ref="1323006255"/>
    <nd ref="1323003511"/>
    <nd ref="1323004508"/>
    <nd ref="1323004402"/>
    <nd ref="567683623"/>
    <nd ref="1323005347"/>
    <nd ref="1323005567"/>
    <nd ref="1323003464"/>
    <nd ref="1323003656"/>
    <nd ref="1323004765"/>
    <nd ref="567683617"/>
    <nd ref="1323004966"/>
    <nd ref="1323005816"/>
    <nd ref="1323005773"/>
    <nd ref="1323003606"/>
    <nd ref="1323003905"/>
    <tag k="highway" v="motorway"/>
    <tag k="name" v="京石高速公路"/>
    <tag k="name:en" v="Jinggang&apos;ao Expressway"/>
    <tag k="name:zh" v="京石高速公路"/>
    <tag k="oneway" v="yes"/>
    <tag k="ref" v="G4"/>
  </way>
</osm>
