<?xml version='1.0' encoding='UTF-8'?>
<osm version="0.6" generator="libosmium/2.20.0">
  <way id="60084098" version="1" timestamp="2010-05-23T17:06:38Z" uid="6269" user="Mueck" changeset="4784635">
    <nd ref="26610016"/>
    <nd ref="26610014"/>
    <nd ref="26597229"/>
    <nd ref="26597230"/>
    <nd ref="26597231"/>
    <tag k="highway" v="service"/>
    <tag k="motor_vehicle" v="destination"/>
    <tag k="smoothness" v="good"/>
    <tag k="surface" v="asphalt"/>
  </way>
  <way id="60084098" version="2" timestamp="2010-05-23T17:06:52Z" uid="6269" user="Mueck" changeset="4784635">
    <nd ref="26610016"/>
    <nd ref="26610014"/>
    <nd ref="26597229"/>
    <nd ref="26597230"/>
    <nd ref="26597231"/>
    <tag k="highway" v="track"/>
    <tag k="motor_vehicle" v="destination"/>
    <tag k="smoothness" v="good"/>
    <tag k="surface" v="asphalt"/>
    <tag k="tracktype" v="grade1"/>
  </way>
  <way id="60084675" version="1" timestamp="2010-05-23T17:13:04Z" uid="6269" user="Mueck" changeset="4784635">
    <nd ref="27472746"/>
    <nd ref="746639744"/>
    <nd ref="746639746"/>
    <nd ref="746639750"/>
    <nd ref="27472762"/>
    <tag k="highway" v="path"/>
    <tag k="name" v="Sieben Hügel"/>
    <tag k="smoothness" v="intermediate"/>
    <tag k="surface" v="ground"/>
    <tag k="tracktype" v="grade3"/>
  </way>
  <way id="60084675" version="2" timestamp="2010-05-23T17:13:14Z" uid="6269" user="Mueck" changeset="4784635">
    <nd ref="27472746"/>
    <nd ref="746639744"/>
    <nd ref="746639746"/>
    <nd ref="746639750"/>
    <nd ref="27472762"/>
    <tag k="highway" v="path"/>
    <tag k="name" v="Sieben Hügel"/>
    <tag k="smoothness" v="bad"/>
    <tag k="surface" v="ground"/>
    <tag k="tracktype" v="grade4"/>
  </way>
  <way id="60084675" version="3" timestamp="2010-05-24T15:03:11Z" uid="6269" user="Mueck" changeset="4794392">
    <nd ref="27472746"/>
    <nd ref="746639744"/>
    <nd ref="746639746"/>
    <nd ref="746639750"/>
    <nd ref="27472762"/>
    <tag k="highway" v="path"/>
    <tag k="smoothness" v="bad"/>
    <tag k="surface" v="ground"/>
    <tag k="tracktype" v="grade4"/>
  </way>
  <way id="60084681" version="1" timestamp="2010-05-23T17:13:17Z" uid="6269" user="Mueck" changeset="4784635">
    <nd ref="27472781"/>
    <nd ref="27472782"/>
    <nd ref="27472783"/>
    <nd ref="27472784"/>
    <nd ref="27472746"/>
    <tag k="highway" v="path"/>
    <tag k="name" v="Sieben Hügel"/>
    <tag k="smoothness" v="intermediate"/>
    <tag k="surface" v="ground"/>
    <tag k="tracktype" v="grade3"/>
  </way>
  <way id="60084681" version="2" timestamp="2010-05-23T17:13:35Z" uid="6269" user="Mueck" changeset="4784635">
    <nd ref="27472781"/>
    <nd ref="27472782"/>
    <nd ref="27472783"/>
    <nd ref="27472784"/>
    <nd ref="27472746"/>
    <tag k="smoothness" v="intermediate"/>
    <tag k="surface" v="ground"/>
    <tag k="tracktype" v="grade3"/>
  </way>
  <way id="60084681" version="3" timestamp="2010-05-23T17:13:46Z" uid="6269" user="Mueck" changeset="4784635">
    <nd ref="566756084"/>
    <nd ref="27472781"/>
    <nd ref="27472782"/>
    <nd ref="27472783"/>
    <nd ref="27472784"/>
    <nd ref="27472746"/>
    <tag k="highway" v="track"/>
    <tag k="smoothness" v="intermediate"/>
    <tag k="surface" v="ground"/>
    <tag k="tracktype" v="grade3"/>
  </way>
  <way id="60084684" version="2" timestamp="2010-08-27T07:39:08Z" uid="33382" user="de_muur" changeset="5605132">
    <nd ref="262381756"/>
    <nd ref="262381757"/>
    <nd ref="262381758"/>
    <nd ref="746640569"/>
    <nd ref="746640477"/>
    <nd ref="746640615"/>
    <nd ref="262381759"/>
    <nd ref="746640584"/>
    <nd ref="746640614"/>
    <tag k="highway" v="tertiary"/>
    <tag k="name" v="K 110"/>
    <tag k="ref" v="K 110"/>
    <tag k="surface" v="paved"/>
  </way>
  <way id="60084690" version="2" timestamp="2010-08-27T07:39:09Z" uid="33382" user="de_muur" changeset="5605132">
    <nd ref="746640548"/>
    <nd ref="262381750"/>
    <nd ref="746640472"/>
    <nd ref="262381751"/>
    <nd ref="262381752"/>
    <nd ref="262381753"/>
    <nd ref="262381754"/>
    <nd ref="403779549"/>
    <tag k="highway" v="tertiary"/>
    <tag k="maxspeed" v="70"/>
    <tag k="name" v="K 110"/>
    <tag k="ref" v="K 110"/>
    <tag k="surface" v="paved"/>
  </way>
  <way id="60084692" version="6" timestamp="2010-08-27T07:39:07Z" uid="33382" user="de_muur" changeset="5605132">
    <nd ref="559558252"/>
    <nd ref="262381763"/>
    <nd ref="746640613"/>
    <nd ref="746640570"/>
    <nd ref="746640610"/>
    <nd ref="262381764"/>
    <nd ref="746640608"/>
    <tag k="cycleway" v="track"/>
    <tag k="highway" v="tertiary"/>
    <tag k="name" v="K 108"/>
    <tag k="ref" v="K 108"/>
    <tag k="surface" v="paved"/>
  </way>
  <way id="60084694" version="4" timestamp="2010-08-27T07:39:09Z" uid="33382" user="de_muur" changeset="5605132">
    <nd ref="746640614"/>
    <nd ref="746640526"/>
    <nd ref="310832865"/>
    <tag k="highway" v="tertiary"/>
    <tag k="maxspeed" v="30"/>
    <tag k="name" v="K 110"/>
    <tag k="ref" v="K 110"/>
    <tag k="surface" v="paved"/>
  </way>
</osm>
