<?xml version='1.0' encoding='UTF-8'?>
<osm version="0.6" generator="libosmium/2.20.0">
  <way id="60105256" version="2" timestamp="2010-07-26T02:21:18Z" uid="4467" user="Rosscoe" changeset="5317875">
    <nd ref="746789785"/>
    <nd ref="318276214"/>
    <tag k="bridge" v="yes"/>
    <tag k="highway" v="secondary"/>
    <tag k="layer" v="1"/>
    <tag k="name" v="Selbourne Road"/>
    <tag k="ref" v="C735"/>
  </way>
  <way id="60105329" version="4" timestamp="2010-10-24T10:21:22Z" uid="30632" user="antblant" changeset="6155021">
    <nd ref="847984869"/>
    <nd ref="746790035"/>
    <tag k="highway" v="secondary"/>
    <tag k="oneway" v="yes"/>
    <tag k="ref" v="685"/>
    <tag k="surface" v="asphalt"/>
  </way>
  <way id="60105334" version="2" timestamp="2011-03-09T21:46:08Z" uid="30632" user="antblant" changeset="7509079">
    <nd ref="746790115"/>
    <nd ref="746790113"/>
    <nd ref="746790116"/>
    <nd ref="746790117"/>
    <nd ref="746790112"/>
    <nd ref="746790111"/>
    <nd ref="746790109"/>
    <nd ref="746790110"/>
    <nd ref="442343031"/>
    <nd ref="442342972"/>
    <nd ref="746790114"/>
    <nd ref="746790115"/>
    <tag k="highway" v="primary"/>
    <tag k="junction" v="roundabout"/>
    <tag k="ref" v="19"/>
  </way>
</osm>
