<?xml version='1.0' encoding='UTF-8'?>
<osm version="0.6" generator="libosmium/2.20.0">
  <way id="60323084" version="3" timestamp="2010-07-09T06:59:09Z" uid="74617" user="JohnSmith" changeset="5171412">
    <nd ref="271847075"/>
    <nd ref="271847076"/>
    <tag k="highway" v="residential"/>
    <tag k="maxspeed" v="50"/>
    <tag k="maxspeed:source" v="default residential speed limit in Australia"/>
    <tag k="name" v="Foster Street"/>
  </way>
  <way id="60323577" version="1" timestamp="2010-05-27T03:15:29Z" uid="74617" user="JohnSmith" changeset="4818833">
    <nd ref="750251689"/>
    <nd ref="750251674"/>
    <nd ref="750251691"/>
    <tag k="highway" v="residential"/>
    <tag k="name" v="Mantilla Street"/>
  </way>
  <way id="60323577" version="2" timestamp="2010-07-06T10:08:29Z" uid="74617" user="JohnSmith" changeset="5147679">
    <nd ref="750251689"/>
    <nd ref="750251674"/>
    <nd ref="750251691"/>
    <tag k="highway" v="residential"/>
    <tag k="maxspeed" v="50"/>
    <tag k="maxspeed:source" v="default residential speed limit in Australia"/>
    <tag k="name" v="Mantilla Street"/>
  </way>
  <way id="60323578" version="1" timestamp="2010-05-27T03:15:29Z" uid="74617" user="JohnSmith" changeset="4818833">
    <nd ref="750251682"/>
    <nd ref="750251671"/>
    <tag k="highway" v="residential"/>
    <tag k="name" v="D&apos;Arcy Road"/>
  </way>
  <way id="60323578" version="2" timestamp="2010-07-06T10:05:18Z" uid="74617" user="JohnSmith" changeset="5147679">
    <nd ref="750251682"/>
    <nd ref="750251671"/>
    <tag k="highway" v="residential"/>
    <tag k="maxspeed" v="50"/>
    <tag k="maxspeed:source" v="default residential speed limit in Australia"/>
    <tag k="name" v="D&apos;Arcy Road"/>
  </way>
  <way id="60323579" version="1" timestamp="2010-05-27T03:15:29Z" uid="74617" user="JohnSmith" changeset="4818833">
    <nd ref="750251682"/>
    <nd ref="426244383"/>
    <nd ref="426244384"/>
    <nd ref="426244385"/>
    <nd ref="426244386"/>
    <nd ref="426244387"/>
    <nd ref="426244388"/>
    <nd ref="426244389"/>
    <nd ref="426244391"/>
    <nd ref="426244392"/>
    <nd ref="426244393"/>
    <nd ref="426244394"/>
    <nd ref="426244395"/>
    <nd ref="426244396"/>
    <nd ref="426244397"/>
    <nd ref="426244398"/>
    <tag k="highway" v="track"/>
    <tag k="source" v="survey"/>
    <tag k="surface" v="gravel"/>
  </way>
  <way id="60323580" version="1" timestamp="2010-05-27T03:15:29Z" uid="74617" user="JohnSmith" changeset="4818833">
    <nd ref="750251664"/>
    <nd ref="249764228"/>
    <tag k="highway" v="residential"/>
    <tag k="name" v="Quebec Avenue"/>
  </way>
  <way id="60323580" version="2" timestamp="2010-07-06T10:09:33Z" uid="74617" user="JohnSmith" changeset="5147679">
    <nd ref="750251664"/>
    <nd ref="249764228"/>
    <tag k="highway" v="residential"/>
    <tag k="maxspeed" v="50"/>
    <tag k="maxspeed:source" v="default residential speed limit in Australia"/>
    <tag k="name" v="Quebec Avenue"/>
  </way>
  <way id="60323581" version="1" timestamp="2010-05-27T03:15:29Z" uid="74617" user="JohnSmith" changeset="4818833">
    <nd ref="750251677"/>
    <nd ref="249764230"/>
    <nd ref="242763049"/>
    <tag k="highway" v="residential"/>
    <tag k="name" v="Hobart Avenue"/>
  </way>
  <way id="60323581" version="2" timestamp="2010-07-06T10:06:32Z" uid="74617" user="JohnSmith" changeset="5147679">
    <nd ref="750251677"/>
    <nd ref="249764230"/>
    <nd ref="242763049"/>
    <tag k="highway" v="residential"/>
    <tag k="maxspeed" v="50"/>
    <tag k="maxspeed:source" v="default residential speed limit in Australia"/>
    <tag k="name" v="Hobart Avenue"/>
  </way>
  <way id="60323582" version="1" timestamp="2010-05-27T03:15:29Z" uid="74617" user="JohnSmith" changeset="4818833">
    <nd ref="750251688"/>
    <nd ref="750251682"/>
    <tag k="highway" v="tertiary"/>
    <tag k="name" v="Nurstead Street"/>
  </way>
  <way id="60323583" version="1" timestamp="2010-05-27T03:15:29Z" uid="74617" user="JohnSmith" changeset="4818833">
    <nd ref="750251684"/>
    <nd ref="750251673"/>
    <nd ref="750251667"/>
    <nd ref="750251661"/>
    <nd ref="750251677"/>
    <nd ref="750251664"/>
    <nd ref="750251688"/>
    <tag k="highway" v="residential"/>
    <tag k="name" v="Nurstead Street"/>
  </way>
  <way id="60323583" version="2" timestamp="2010-07-06T10:13:11Z" uid="74617" user="JohnSmith" changeset="5147679">
    <nd ref="750251684"/>
    <nd ref="750251673"/>
    <nd ref="750251667"/>
    <nd ref="750251661"/>
    <nd ref="750251677"/>
    <nd ref="750251664"/>
    <nd ref="750251688"/>
    <tag k="highway" v="residential"/>
    <tag k="maxspeed" v="50"/>
    <tag k="maxspeed:source" v="default residential speed limit in Australia"/>
    <tag k="name" v="Nurstead Street"/>
  </way>
</osm>
