<?xml version='1.0' encoding='UTF-8'?>
<osm version="0.6" generator="libosmium/2.20.0">
  <way id="60334330" version="1" timestamp="2010-05-27T06:50:19Z" uid="4467" user="Rosscoe" changeset="4819514">
    <nd ref="295881457"/>
    <nd ref="750475777"/>
    <nd ref="295881092"/>
    <tag k="highway" v="tertiary"/>
    <tag k="oneway" v="yes"/>
    <tag k="source" v="n"/>
  </way>
  <way id="60334330" version="2" timestamp="2010-06-02T08:36:34Z" uid="4467" user="Rosscoe" changeset="4881886">
    <nd ref="295881457"/>
    <nd ref="750475777"/>
    <nd ref="295881092"/>
    <tag k="highway" v="tertiary"/>
    <tag k="oneway" v="yes"/>
    <tag k="source" v="nearmap"/>
  </way>
  <way id="60334591" version="1" timestamp="2010-05-27T07:05:46Z" uid="74617" user="JohnSmith" changeset="4819577">
    <nd ref="750479466"/>
    <nd ref="750479472"/>
    <nd ref="60023294"/>
    <nd ref="60023301"/>
    <nd ref="632348955"/>
    <nd ref="632349107"/>
    <nd ref="59828065"/>
    <tag k="highway" v="residential"/>
    <tag k="maxspeed" v="50"/>
    <tag k="name" v="Vale Street"/>
  </way>
  <way id="60334594" version="1" timestamp="2010-05-27T07:05:46Z" uid="74617" user="JohnSmith" changeset="4819577">
    <nd ref="750479472"/>
    <nd ref="750479469"/>
    <tag k="highway" v="residential"/>
    <tag k="maxspeed" v="50"/>
    <tag k="name" v="Hampson Street"/>
  </way>
  <way id="60334597" version="1" timestamp="2010-05-27T07:05:46Z" uid="74617" user="JohnSmith" changeset="4819577">
    <nd ref="750479464"/>
    <nd ref="60023292"/>
    <tag k="highway" v="residential"/>
    <tag k="maxspeed" v="50"/>
    <tag k="name" v="Little Street"/>
  </way>
  <way id="60334599" version="1" timestamp="2010-05-27T07:05:46Z" uid="74617" user="JohnSmith" changeset="4819577">
    <nd ref="750479463"/>
    <nd ref="60023288"/>
    <nd ref="60023289"/>
    <nd ref="60023290"/>
    <nd ref="334059567"/>
    <nd ref="59828070"/>
    <tag k="highway" v="residential"/>
    <tag k="maxspeed" v="50"/>
    <tag k="name" v="Gebbie Street"/>
  </way>
  <way id="60334731" version="1" timestamp="2010-05-27T07:13:17Z" uid="74617" user="JohnSmith" changeset="4819577">
    <nd ref="750481389"/>
    <nd ref="750481392"/>
    <tag k="highway" v="tertiary"/>
    <tag k="name" v="Murray Street"/>
    <tag k="oneway" v="yes"/>
  </way>
  <way id="60334734" version="1" timestamp="2010-05-27T07:13:28Z" uid="74617" user="JohnSmith" changeset="4819577">
    <nd ref="750481390"/>
    <nd ref="165738226"/>
    <tag k="highway" v="tertiary"/>
    <tag k="name" v="Praed Street"/>
  </way>
  <way id="60334735" version="1" timestamp="2010-05-27T07:13:28Z" uid="74617" user="JohnSmith" changeset="4819577">
    <nd ref="750481393"/>
    <nd ref="410836454"/>
    <nd ref="410836455"/>
    <nd ref="60023276"/>
    <tag k="highway" v="tertiary"/>
    <tag k="name" v="Murray Street"/>
  </way>
</osm>
