<?xml version='1.0' encoding='UTF-8'?>
<osm version="0.6" generator="libosmium/2.20.0">
  <way id="60516225" version="3" timestamp="2011-04-11T21:31:16Z" uid="16922" user="amai" changeset="7837797">
    <nd ref="988752995"/>
    <nd ref="755310550"/>
    <nd ref="755310582"/>
    <nd ref="755310541"/>
    <nd ref="755310580"/>
    <tag k="highway" v="tertiary"/>
    <tag k="ref" v="อด. 3001"/>
    <tag k="source" v="GPS; sign"/>
  </way>
  <way id="60516535" version="1" timestamp="2010-05-29T05:29:36Z" uid="4467" user="Rosscoe" changeset="4839609">
    <nd ref="755368393"/>
    <nd ref="609034744"/>
    <nd ref="272198143"/>
    <nd ref="514304614"/>
    <nd ref="514304516"/>
    <nd ref="514304489"/>
    <nd ref="272246763"/>
    <nd ref="272203843"/>
    <nd ref="272203612"/>
    <nd ref="272203168"/>
    <nd ref="272203888"/>
    <nd ref="272204329"/>
    <nd ref="272202870"/>
    <nd ref="272198144"/>
    <nd ref="272199914"/>
    <nd ref="272198145"/>
    <nd ref="272199488"/>
    <nd ref="272198146"/>
    <nd ref="272198147"/>
    <tag k="highway" v="residential"/>
    <tag k="maxspeed" v="50"/>
    <tag k="name" v="Dennison Street"/>
  </way>
  <way id="60516535" version="2" timestamp="2010-06-07T13:32:06Z" uid="4467" user="Rosscoe" changeset="4928174">
    <nd ref="755368393"/>
    <nd ref="609034744"/>
    <nd ref="272198143"/>
    <nd ref="514304614"/>
    <nd ref="514304516"/>
    <nd ref="514304489"/>
    <nd ref="272246763"/>
    <tag k="highway" v="residential"/>
    <tag k="maxspeed" v="50"/>
    <tag k="name" v="Dennison Street"/>
  </way>
  <way id="60516536" version="1" timestamp="2010-05-29T05:29:37Z" uid="4467" user="Rosscoe" changeset="4839609">
    <nd ref="755369299"/>
    <nd ref="755369568"/>
    <tag k="highway" v="residential"/>
    <tag k="maxspeed" v="50"/>
    <tag k="name" v="Gordon Avenue"/>
    <tag k="oneway" v="yes"/>
    <tag k="source" v="nearmap"/>
  </way>
  <way id="60516537" version="1" timestamp="2010-05-29T05:29:41Z" uid="4467" user="Rosscoe" changeset="4839609">
    <nd ref="755368676"/>
    <nd ref="755368010"/>
    <nd ref="755368730"/>
    <nd ref="755369751"/>
    <nd ref="755368642"/>
    <nd ref="755369483"/>
    <nd ref="755368393"/>
    <nd ref="755368657"/>
    <nd ref="755368676"/>
    <tag k="highway" v="residential"/>
    <tag k="junction" v="roundabout"/>
    <tag k="source" v="nearmap"/>
  </way>
  <way id="60516538" version="1" timestamp="2010-05-29T05:29:42Z" uid="4467" user="Rosscoe" changeset="4839609">
    <nd ref="755369299"/>
    <nd ref="755368676"/>
    <tag k="highway" v="residential"/>
    <tag k="maxspeed" v="50"/>
    <tag k="name" v="Gordon Avenue"/>
  </way>
  <way id="60516539" version="1" timestamp="2010-05-29T05:29:47Z" uid="4467" user="Rosscoe" changeset="4839609">
    <nd ref="755368100"/>
    <nd ref="755368847"/>
    <nd ref="755369525"/>
    <tag k="highway" v="primary_link"/>
    <tag k="oneway" v="yes"/>
    <tag k="source" v="nearmap"/>
  </way>
  <way id="60516540" version="1" timestamp="2010-05-29T05:29:47Z" uid="4467" user="Rosscoe" changeset="4839609">
    <nd ref="755368642"/>
    <nd ref="272204565"/>
    <nd ref="272199370"/>
    <nd ref="272199003"/>
    <nd ref="272204918"/>
    <nd ref="272205380"/>
    <nd ref="272205430"/>
    <nd ref="272205533"/>
    <nd ref="272205798"/>
    <nd ref="272205970"/>
    <nd ref="272218732"/>
    <nd ref="272247332"/>
    <nd ref="17383147"/>
    <tag k="highway" v="residential"/>
    <tag k="maxspeed" v="50"/>
    <tag k="name" v="Gordon Avenue"/>
  </way>
  <way id="60516540" version="3" timestamp="2010-06-14T08:03:11Z" uid="4467" user="Rosscoe" changeset="4985860">
    <nd ref="755368642"/>
    <nd ref="272204565"/>
    <nd ref="272199370"/>
    <nd ref="272199003"/>
    <nd ref="272204918"/>
    <nd ref="272205380"/>
    <nd ref="272205430"/>
    <nd ref="272205533"/>
    <nd ref="272205798"/>
    <nd ref="272205970"/>
    <nd ref="272218732"/>
    <nd ref="772426233"/>
    <tag k="highway" v="residential"/>
    <tag k="maxspeed" v="50"/>
    <tag k="name" v="Gordon Avenue"/>
  </way>
  <way id="60516541" version="1" timestamp="2010-05-29T05:29:49Z" uid="4467" user="Rosscoe" changeset="4839609">
    <nd ref="260574072"/>
    <nd ref="272198143"/>
    <nd ref="272204448"/>
    <nd ref="272199371"/>
    <nd ref="272199004"/>
    <nd ref="272204919"/>
    <nd ref="272205379"/>
    <nd ref="272246834"/>
    <nd ref="272218532"/>
    <nd ref="272205972"/>
    <nd ref="272218733"/>
    <nd ref="272247331"/>
    <nd ref="272219029"/>
    <nd ref="260574073"/>
    <tag k="highway" v="residential"/>
    <tag k="maxspeed" v="50"/>
    <tag k="name" v="Lawson Street"/>
  </way>
  <way id="60516541" version="2" timestamp="2010-06-07T14:27:56Z" uid="4467" user="Rosscoe" changeset="4928602">
    <nd ref="260574072"/>
    <nd ref="272198143"/>
    <nd ref="272204448"/>
    <nd ref="272199371"/>
    <nd ref="766706129"/>
    <tag k="highway" v="residential"/>
    <tag k="maxspeed" v="50"/>
    <tag k="name" v="Lawson Street"/>
  </way>
  <way id="60516542" version="1" timestamp="2010-05-29T05:29:49Z" uid="4467" user="Rosscoe" changeset="4839609">
    <nd ref="755368698"/>
    <nd ref="755369399"/>
    <nd ref="755368429"/>
    <nd ref="755368143"/>
    <nd ref="755368807"/>
    <tag k="highway" v="residential"/>
    <tag k="maxspeed" v="50"/>
    <tag k="name" v="Selma Street"/>
    <tag k="oneway" v="yes"/>
    <tag k="source" v="nearmap"/>
  </way>
  <way id="60516543" version="1" timestamp="2010-05-29T05:29:50Z" uid="4467" user="Rosscoe" changeset="4839609">
    <nd ref="755369399"/>
    <nd ref="755369261"/>
    <nd ref="755368556"/>
    <nd ref="176360335"/>
    <tag k="highway" v="primary"/>
    <tag k="name" v="Parry Street"/>
    <tag k="oneway" v="yes"/>
    <tag k="source" v="survey"/>
    <tag k="surface" v="paved"/>
  </way>
  <way id="60516543" version="2" timestamp="2010-06-08T06:47:13Z" uid="4467" user="Rosscoe" changeset="4934629">
    <nd ref="755369399"/>
    <nd ref="755369261"/>
    <nd ref="755368556"/>
    <nd ref="767039339"/>
    <nd ref="767039337"/>
    <nd ref="767039329"/>
    <nd ref="767039340"/>
    <nd ref="767039326"/>
    <nd ref="767039332"/>
    <nd ref="767039324"/>
    <nd ref="767039338"/>
    <nd ref="767039327"/>
    <nd ref="767039325"/>
    <nd ref="767030129"/>
    <tag k="highway" v="primary"/>
    <tag k="name" v="Parry Street"/>
    <tag k="oneway" v="yes"/>
    <tag k="source" v="nearmap"/>
    <tag k="surface" v="paved"/>
  </way>
  <way id="60516544" version="1" timestamp="2010-05-29T05:29:51Z" uid="4467" user="Rosscoe" changeset="4839609">
    <nd ref="176360335"/>
    <nd ref="260574068"/>
    <nd ref="755368698"/>
    <tag k="highway" v="primary"/>
    <tag k="name" v="Parry Street"/>
    <tag k="oneway" v="yes"/>
    <tag k="source" v="nearmap"/>
  </way>
  <way id="60516544" version="2" timestamp="2010-06-08T06:47:10Z" uid="4467" user="Rosscoe" changeset="4934629">
    <nd ref="176360384"/>
    <nd ref="767030176"/>
    <nd ref="756379366"/>
    <nd ref="176360374"/>
    <nd ref="272204722"/>
    <nd ref="272198141"/>
    <nd ref="767039335"/>
    <nd ref="755369725"/>
    <nd ref="174794562"/>
    <nd ref="767039336"/>
    <nd ref="767039328"/>
    <nd ref="176360335"/>
    <nd ref="260574068"/>
    <nd ref="755368698"/>
    <tag k="highway" v="primary"/>
    <tag k="name" v="Parry Street"/>
    <tag k="oneway" v="yes"/>
    <tag k="source" v="nearmap"/>
  </way>
  <way id="60516545" version="1" timestamp="2010-05-29T05:29:54Z" uid="4467" user="Rosscoe" changeset="4839609">
    <nd ref="260574071"/>
    <nd ref="755369299"/>
    <tag k="highway" v="residential"/>
    <tag k="maxspeed" v="50"/>
    <tag k="name" v="Gordon Avenue"/>
    <tag k="oneway" v="yes"/>
    <tag k="source" v="nearmap"/>
  </way>
  <way id="60516578" version="1" timestamp="2010-05-29T05:35:31Z" uid="4467" user="Rosscoe" changeset="4839619">
    <nd ref="260579085"/>
    <nd ref="755385657"/>
    <tag k="bridge" v="yes"/>
    <tag k="highway" v="tertiary"/>
    <tag k="layer" v="1"/>
    <tag k="name" v="Wakefield Road"/>
    <tag k="source" v="nearmap"/>
  </way>
  <way id="60516579" version="1" timestamp="2010-05-29T05:35:34Z" uid="4467" user="Rosscoe" changeset="4839619">
    <nd ref="260956805"/>
    <nd ref="755385161"/>
    <nd ref="354735902"/>
    <tag k="highway" v="secondary"/>
    <tag k="name" v="Northville Drive"/>
    <tag k="oneway" v="yes"/>
  </way>
  <way id="60516580" version="1" timestamp="2010-05-29T05:35:51Z" uid="4467" user="Rosscoe" changeset="4839619">
    <nd ref="354735891"/>
    <nd ref="755385060"/>
    <nd ref="354735917"/>
    <tag k="highway" v="tertiary"/>
    <tag k="maxspeed" v="60"/>
    <tag k="name" v="Appletree Road"/>
    <tag k="oneway" v="yes"/>
    <tag k="source" v="survey"/>
  </way>
  <way id="60516581" version="1" timestamp="2010-05-29T05:35:55Z" uid="4467" user="Rosscoe" changeset="4839619">
    <nd ref="260579110"/>
    <nd ref="260579083"/>
    <nd ref="755385754"/>
    <nd ref="260579084"/>
    <nd ref="755385417"/>
    <nd ref="260579085"/>
    <tag k="highway" v="tertiary"/>
    <tag k="name" v="Wakefield Road"/>
    <tag k="source" v="nearmap"/>
  </way>
  <way id="60516583" version="1" timestamp="2010-05-29T05:36:09Z" uid="4467" user="Rosscoe" changeset="4839619">
    <nd ref="755385657"/>
    <nd ref="354735931"/>
    <tag k="highway" v="tertiary"/>
    <tag k="name" v="Wakefield Road"/>
    <tag k="source" v="nearmap"/>
  </way>
  <way id="60516872" version="3" timestamp="2010-06-05T12:12:35Z" uid="171838" user="argrath" changeset="4908315">
    <nd ref="755438415"/>
    <nd ref="755439044"/>
    <nd ref="755439026"/>
    <tag k="bridge" v="yes"/>
    <tag k="highway" v="secondary"/>
    <tag k="lanes" v="2"/>
    <tag k="layer" v="1"/>
    <tag k="name" v="京都府道455号八木東インター線"/>
    <tag k="ref" v="455"/>
  </way>
</osm>
