<?xml version='1.0' encoding='UTF-8'?>
<osm version="0.6" generator="libosmium/2.20.0">
  <way id="6057000" version="10" timestamp="2009-03-10T14:00:56Z" uid="55964" user="Evan Sebire" changeset="778901">
    <nd ref="49790696"/>
    <nd ref="49790699"/>
    <nd ref="49790700"/>
    <nd ref="49790701"/>
    <nd ref="49790702"/>
    <nd ref="49790703"/>
    <nd ref="49790704"/>
    <nd ref="49791282"/>
    <nd ref="49790705"/>
    <nd ref="49790706"/>
    <nd ref="49790707"/>
    <nd ref="266296050"/>
    <nd ref="49790708"/>
    <nd ref="49790709"/>
    <nd ref="358404013"/>
    <nd ref="49790711"/>
    <nd ref="266293747"/>
    <nd ref="49790712"/>
    <nd ref="49790714"/>
    <nd ref="49790715"/>
    <nd ref="266294063"/>
    <nd ref="49790718"/>
    <nd ref="49790719"/>
    <nd ref="266298081"/>
    <nd ref="291494147"/>
    <nd ref="49790722"/>
    <nd ref="49790723"/>
    <nd ref="49790724"/>
    <nd ref="49790725"/>
    <nd ref="266293070"/>
    <nd ref="49790726"/>
    <nd ref="49790727"/>
    <nd ref="49789635"/>
    <tag k="created_by" v="Merkaartor 0.13"/>
    <tag k="highway" v="primary"/>
    <tag k="name" v="Maroondah Highway"/>
    <tag k="oneway" v="yes"/>
    <tag k="ref" v="B300"/>
  </way>
  <way id="6057000" version="11" timestamp="2009-03-15T00:46:22Z" uid="55964" user="Evan Sebire" changeset="810754">
    <nd ref="49790696"/>
    <nd ref="49790699"/>
    <nd ref="49790700"/>
    <nd ref="49790701"/>
    <nd ref="49790702"/>
    <nd ref="49790703"/>
    <nd ref="49790704"/>
    <nd ref="49791282"/>
    <nd ref="49790705"/>
    <nd ref="49790706"/>
    <nd ref="49790707"/>
    <nd ref="266296050"/>
    <nd ref="49790708"/>
    <nd ref="49790709"/>
    <nd ref="358404013"/>
    <nd ref="360480714"/>
    <nd ref="49790711"/>
    <nd ref="266293747"/>
    <nd ref="49790712"/>
    <nd ref="49790714"/>
    <nd ref="49790715"/>
    <nd ref="266294063"/>
    <nd ref="49790718"/>
    <nd ref="49790719"/>
    <nd ref="266298081"/>
    <nd ref="291494147"/>
    <nd ref="49790722"/>
    <nd ref="49790723"/>
    <nd ref="49790724"/>
    <nd ref="49790725"/>
    <nd ref="266293070"/>
    <nd ref="49790726"/>
    <nd ref="49790727"/>
    <nd ref="49789635"/>
    <tag k="created_by" v="Merkaartor 0.13"/>
    <tag k="highway" v="primary"/>
    <tag k="name" v="Maroondah Highway"/>
    <tag k="oneway" v="yes"/>
    <tag k="ref" v="B300"/>
  </way>
  <way id="6057000" version="12" timestamp="2009-03-18T14:45:23Z" uid="55964" user="Evan Sebire" changeset="828982">
    <nd ref="49790696"/>
    <nd ref="49790699"/>
    <nd ref="49790700"/>
    <nd ref="49790701"/>
    <nd ref="49790702"/>
    <nd ref="49790703"/>
    <nd ref="49790704"/>
    <nd ref="49791282"/>
    <nd ref="49790705"/>
    <nd ref="49790706"/>
    <nd ref="49790707"/>
    <nd ref="266296050"/>
    <nd ref="49790708"/>
    <nd ref="49790709"/>
    <nd ref="358404013"/>
    <nd ref="360480714"/>
    <nd ref="49790711"/>
    <nd ref="266293747"/>
    <nd ref="49790712"/>
    <nd ref="49790714"/>
    <nd ref="49790715"/>
    <nd ref="266294063"/>
    <nd ref="49790718"/>
    <nd ref="49790719"/>
    <nd ref="266298081"/>
    <nd ref="291494147"/>
    <nd ref="49790722"/>
    <nd ref="49790723"/>
    <nd ref="49790724"/>
    <nd ref="49790725"/>
    <nd ref="266293070"/>
    <nd ref="362500868"/>
    <nd ref="49790726"/>
    <nd ref="49790727"/>
    <nd ref="49789635"/>
    <tag k="created_by" v="Merkaartor 0.13"/>
    <tag k="highway" v="primary"/>
    <tag k="name" v="Maroondah Highway"/>
    <tag k="oneway" v="yes"/>
    <tag k="ref" v="B300"/>
  </way>
  <way id="6057000" version="13" timestamp="2009-11-23T22:07:25Z" uid="55964" user="Evan Sebire" changeset="3200272">
    <nd ref="49790696"/>
    <nd ref="49790699"/>
    <nd ref="49790700"/>
    <nd ref="49790701"/>
    <nd ref="49790702"/>
    <nd ref="49790703"/>
    <nd ref="49790704"/>
    <nd ref="49791282"/>
    <nd ref="49790705"/>
    <nd ref="49790706"/>
    <nd ref="49790707"/>
    <nd ref="266296050"/>
    <nd ref="49790708"/>
    <nd ref="49790709"/>
    <nd ref="358404013"/>
    <nd ref="360480714"/>
    <nd ref="49790711"/>
    <nd ref="266293747"/>
    <nd ref="49790712"/>
    <nd ref="49790714"/>
    <nd ref="49790715"/>
    <nd ref="266294063"/>
    <nd ref="49790718"/>
    <nd ref="49790719"/>
    <nd ref="266298081"/>
    <nd ref="291494147"/>
    <nd ref="49790722"/>
    <nd ref="49790723"/>
    <nd ref="49790724"/>
    <nd ref="49790725"/>
    <nd ref="266293070"/>
    <nd ref="362500868"/>
    <nd ref="49790726"/>
    <nd ref="49790727"/>
    <nd ref="49789635"/>
    <tag k="highway" v="primary"/>
    <tag k="name" v="Maroondah Highway"/>
    <tag k="oneway" v="yes"/>
    <tag k="ref" v="B300"/>
  </way>
  <way id="6057000" version="34" timestamp="2011-01-12T11:51:19Z" uid="4467" user="Rosscoe" changeset="6946282">
    <nd ref="49790696"/>
    <nd ref="49790699"/>
    <nd ref="633975533"/>
    <nd ref="633975547"/>
    <nd ref="633973703"/>
    <nd ref="49790700"/>
    <nd ref="49790701"/>
    <nd ref="633979417"/>
    <nd ref="633979419"/>
    <nd ref="633979421"/>
    <nd ref="633979424"/>
    <nd ref="49790702"/>
    <nd ref="633979443"/>
    <nd ref="49790703"/>
    <nd ref="633996077"/>
    <nd ref="633996080"/>
    <nd ref="49790704"/>
    <nd ref="49791282"/>
    <nd ref="633988439"/>
    <nd ref="633999231"/>
    <nd ref="633999630"/>
    <nd ref="49790706"/>
    <nd ref="633999635"/>
    <nd ref="633999760"/>
    <nd ref="49790707"/>
    <nd ref="266296050"/>
    <nd ref="49790708"/>
    <nd ref="49790709"/>
    <nd ref="358404013"/>
    <nd ref="360480714"/>
    <nd ref="49790711"/>
    <nd ref="266293747"/>
    <nd ref="49790712"/>
    <nd ref="49790714"/>
    <nd ref="49790715"/>
    <nd ref="266294063"/>
    <nd ref="49790718"/>
    <nd ref="49790719"/>
    <nd ref="266298081"/>
    <nd ref="291494147"/>
    <nd ref="49790722"/>
    <nd ref="897461840"/>
    <nd ref="49790723"/>
    <nd ref="897461841"/>
    <nd ref="49790724"/>
    <nd ref="854570927"/>
    <nd ref="266293070"/>
    <nd ref="633085019"/>
    <nd ref="362500868"/>
    <nd ref="633084967"/>
    <nd ref="633084968"/>
    <nd ref="633084969"/>
    <nd ref="633084970"/>
    <nd ref="633084977"/>
    <tag k="highway" v="primary"/>
    <tag k="name" v="Maroondah Highway"/>
    <tag k="oneway" v="yes"/>
  </way>
  <way id="6057195" version="8" timestamp="2010-04-02T15:18:18Z" uid="20587" user="balrog-kun" changeset="4304478">
    <nd ref="49790325"/>
    <nd ref="49790330"/>
    <nd ref="49790333"/>
    <nd ref="49790337"/>
    <nd ref="49790341"/>
    <nd ref="60692339"/>
    <nd ref="109733665"/>
    <nd ref="53113685"/>
    <nd ref="49790345"/>
    <nd ref="49790346"/>
    <nd ref="270939791"/>
    <nd ref="49790347"/>
    <nd ref="109721394"/>
    <nd ref="109721387"/>
    <nd ref="49790350"/>
    <nd ref="109721401"/>
    <nd ref="49793424"/>
    <nd ref="109737301"/>
    <nd ref="49793427"/>
    <nd ref="53113697"/>
    <nd ref="109780619"/>
    <nd ref="109780655"/>
    <nd ref="109780631"/>
    <nd ref="109780749"/>
    <nd ref="109780670"/>
    <nd ref="109780713"/>
    <nd ref="53113698"/>
    <tag k="created_by" v="JOSM"/>
    <tag k="highway" v="residential"/>
    <tag k="name" v="32nd Avenue South"/>
    <tag k="tiger:cfcc" v="A41"/>
    <tag k="tiger:county" v="King, WA"/>
    <tag k="tiger:name_base" v="32nd"/>
    <tag k="tiger:name_direction_suffix" v="S"/>
    <tag k="tiger:reviewed" v="no"/>
    <tag k="tiger:separated" v="no"/>
    <tag k="tiger:source" v="tiger_import_dch_v0.6_20070830"/>
    <tag k="tiger:tlid" v="186959054:186959055:186712807:186712808:186668937:186679524:186652371:186652378:186681401:186681403:186679520:186683573:186712745"/>
    <tag k="tiger:zip_left" v="98001"/>
    <tag k="tiger:zip_right" v="98001"/>
  </way>
  <way id="6057356" version="7" timestamp="2010-07-08T00:02:18Z" uid="74617" user="JohnSmith" changeset="5162525">
    <nd ref="31106866"/>
    <nd ref="143879595"/>
    <nd ref="49796230"/>
    <nd ref="128680632"/>
    <tag k="highway" v="residential"/>
    <tag k="maxspeed" v="50"/>
    <tag k="maxspeed:source" v="default residential speed limit in Australia"/>
    <tag k="name" v="Stewart Avenue"/>
  </way>
  <way id="6057356" version="8" timestamp="2010-07-08T00:12:32Z" uid="74617" user="JohnSmith" changeset="5162525">
    <nd ref="31106866"/>
    <nd ref="143879595"/>
    <nd ref="49796230"/>
    <nd ref="128680632"/>
    <tag k="highway" v="residential"/>
    <tag k="maxspeed" v="50"/>
    <tag k="maxspeed:source" v="default residential speed limit in Australia"/>
    <tag k="name" v="Stewart Avenue"/>
  </way>
  <way id="6057360" version="3" timestamp="2010-07-08T00:02:45Z" uid="74617" user="JohnSmith" changeset="5162525">
    <nd ref="49796704"/>
    <nd ref="49796333"/>
    <nd ref="49796336"/>
    <nd ref="49796340"/>
    <tag k="highway" v="residential"/>
    <tag k="maxspeed" v="50"/>
    <tag k="maxspeed:source" v="default residential speed limit in Australia"/>
    <tag k="name" v="Kerr Street"/>
  </way>
  <way id="6057360" version="4" timestamp="2010-07-08T00:12:58Z" uid="74617" user="JohnSmith" changeset="5162525">
    <nd ref="49796704"/>
    <nd ref="49796333"/>
    <nd ref="49796336"/>
    <nd ref="49796340"/>
    <tag k="highway" v="residential"/>
    <tag k="maxspeed" v="50"/>
    <tag k="maxspeed:source" v="default residential speed limit in Australia"/>
    <tag k="name" v="Kerr Street"/>
  </way>
  <way id="6057509" version="1" timestamp="2007-09-16T21:28:38Z" uid="13367" user="nubok" changeset="444069">
    <nd ref="49799057"/>
    <nd ref="49804401"/>
    <nd ref="49799054"/>
    <nd ref="49804398"/>
    <nd ref="49799051"/>
    <nd ref="49804404"/>
    <nd ref="49804407"/>
    <nd ref="49799048"/>
    <nd ref="49799044"/>
    <nd ref="49804390"/>
    <nd ref="49804384"/>
    <nd ref="49471758"/>
    <tag k="created_by" v="Potlatch alpha"/>
    <tag k="highway" v="residential"/>
    <tag k="name" v="Ten Doorn"/>
  </way>
  <way id="6057541" version="4" timestamp="2010-07-08T00:03:38Z" uid="74617" user="JohnSmith" changeset="5162525">
    <nd ref="49799358"/>
    <nd ref="49799621"/>
    <nd ref="49799622"/>
    <nd ref="143888298"/>
    <nd ref="143888299"/>
    <nd ref="26391852"/>
    <nd ref="143889484"/>
    <nd ref="143889485"/>
    <tag k="highway" v="residential"/>
    <tag k="maxspeed" v="50"/>
    <tag k="maxspeed:source" v="default residential speed limit in Australia"/>
    <tag k="name" v="Alan Avenue"/>
  </way>
  <way id="6057541" version="5" timestamp="2010-07-08T00:13:57Z" uid="74617" user="JohnSmith" changeset="5162525">
    <nd ref="49799358"/>
    <nd ref="49799621"/>
    <nd ref="49799622"/>
    <nd ref="143888298"/>
    <nd ref="143888299"/>
    <nd ref="26391852"/>
    <nd ref="143889484"/>
    <nd ref="143889485"/>
    <tag k="highway" v="residential"/>
    <tag k="maxspeed" v="50"/>
    <tag k="maxspeed:source" v="default residential speed limit in Australia"/>
    <tag k="name" v="Alan Avenue"/>
  </way>
  <way id="6057571" version="5" timestamp="2010-01-23T04:43:20Z" uid="7617" user="Franc" changeset="3689057">
    <nd ref="31991689"/>
    <nd ref="618529780"/>
    <tag k="highway" v="residential"/>
    <tag k="maxspeed" v="50"/>
    <tag k="name" v="Pike Road"/>
    <tag k="restriction" v="school_zone"/>
    <tag k="source" v="survey"/>
  </way>
  <way id="6057573" version="1" timestamp="2007-09-29T02:04:31Z" uid="7617" user="Franc" changeset="533424">
    <nd ref="49799925"/>
    <nd ref="49799933"/>
    <nd ref="49799891"/>
    <tag k="created_by" v="JOSM"/>
    <tag k="highway" v="residential"/>
    <tag k="maxspeed" v="50"/>
    <tag k="name" v="Natalie Close"/>
    <tag k="source" v="survey"/>
  </way>
  <way id="6057575" version="2" timestamp="2009-10-04T10:02:26Z" uid="7617" user="Franc" changeset="2734089">
    <nd ref="49800017"/>
    <nd ref="49799986"/>
    <nd ref="519814221"/>
    <nd ref="49799993"/>
    <nd ref="519814227"/>
    <nd ref="49799999"/>
    <nd ref="49800011"/>
    <tag k="highway" v="residential"/>
    <tag k="maxspeed" v="50"/>
    <tag k="name" v="Koala Place"/>
    <tag k="source" v="survey"/>
  </way>
  <way id="6057653" version="4" timestamp="2010-01-25T08:13:44Z" uid="30201" user="rrankin" changeset="3708756">
    <nd ref="49800871"/>
    <nd ref="49801438"/>
    <tag k="highway" v="residential"/>
    <tag k="name" v="Henley Close"/>
    <tag k="source" v="survey"/>
  </way>
  <way id="6057653" version="5" timestamp="2010-07-07T23:59:46Z" uid="74617" user="JohnSmith" changeset="5162525">
    <nd ref="49800871"/>
    <nd ref="49801438"/>
    <tag k="highway" v="residential"/>
    <tag k="maxspeed" v="50"/>
    <tag k="maxspeed:source" v="default residential speed limit in Australia"/>
    <tag k="name" v="Henley Close"/>
    <tag k="source" v="survey"/>
  </way>
  <way id="6057653" version="6" timestamp="2010-07-08T00:09:42Z" uid="74617" user="JohnSmith" changeset="5162525">
    <nd ref="49800871"/>
    <nd ref="49801438"/>
    <tag k="highway" v="residential"/>
    <tag k="maxspeed" v="50"/>
    <tag k="maxspeed:source" v="default residential speed limit in Australia"/>
    <tag k="name" v="Henley Close"/>
    <tag k="source" v="survey"/>
  </way>
  <way id="6057701" version="4" timestamp="2010-07-08T00:04:21Z" uid="74617" user="JohnSmith" changeset="5162525">
    <nd ref="49800878"/>
    <nd ref="49801918"/>
    <nd ref="49801919"/>
    <nd ref="49801920"/>
    <nd ref="646715738"/>
    <tag k="highway" v="residential"/>
    <tag k="maxspeed" v="50"/>
    <tag k="maxspeed:source" v="default residential speed limit in Australia"/>
    <tag k="name" v="Marine Crescent"/>
    <tag k="source" v="survey"/>
  </way>
  <way id="6057701" version="5" timestamp="2010-07-08T00:14:54Z" uid="74617" user="JohnSmith" changeset="5162525">
    <nd ref="49800878"/>
    <nd ref="49801918"/>
    <nd ref="49801919"/>
    <nd ref="49801920"/>
    <nd ref="646715738"/>
    <tag k="highway" v="residential"/>
    <tag k="maxspeed" v="50"/>
    <tag k="maxspeed:source" v="default residential speed limit in Australia"/>
    <tag k="name" v="Marine Crescent"/>
    <tag k="source" v="survey"/>
  </way>
  <way id="6057702" version="4" timestamp="2010-01-25T08:13:48Z" uid="30201" user="rrankin" changeset="3708756">
    <nd ref="49800875"/>
    <nd ref="49801938"/>
    <tag k="highway" v="residential"/>
    <tag k="name" v="Tabell Close"/>
    <tag k="source" v="survey"/>
  </way>
  <way id="6057702" version="5" timestamp="2010-07-08T00:00:57Z" uid="74617" user="JohnSmith" changeset="5162525">
    <nd ref="49800875"/>
    <nd ref="49801938"/>
    <tag k="highway" v="residential"/>
    <tag k="maxspeed" v="50"/>
    <tag k="maxspeed:source" v="default residential speed limit in Australia"/>
    <tag k="name" v="Tabell Close"/>
    <tag k="source" v="survey"/>
  </way>
  <way id="6057702" version="6" timestamp="2010-07-08T00:11:01Z" uid="74617" user="JohnSmith" changeset="5162525">
    <nd ref="49800875"/>
    <nd ref="49801938"/>
    <tag k="highway" v="residential"/>
    <tag k="maxspeed" v="50"/>
    <tag k="maxspeed:source" v="default residential speed limit in Australia"/>
    <tag k="name" v="Tabell Close"/>
    <tag k="source" v="survey"/>
  </way>
  <way id="6057737" version="6" timestamp="2010-07-08T00:01:29Z" uid="74617" user="JohnSmith" changeset="5162525">
    <nd ref="361594740"/>
    <nd ref="49802470"/>
    <nd ref="518808820"/>
    <tag k="highway" v="residential"/>
    <tag k="maxspeed" v="50"/>
    <tag k="maxspeed:source" v="default residential speed limit in Australia"/>
    <tag k="name" v="Bushlands Avenue"/>
    <tag k="source" v="survey"/>
  </way>
  <way id="6057737" version="7" timestamp="2010-07-08T00:11:37Z" uid="74617" user="JohnSmith" changeset="5162525">
    <nd ref="361594740"/>
    <nd ref="49802470"/>
    <nd ref="518808820"/>
    <tag k="highway" v="residential"/>
    <tag k="maxspeed" v="50"/>
    <tag k="maxspeed:source" v="default residential speed limit in Australia"/>
    <tag k="name" v="Bushlands Avenue"/>
    <tag k="source" v="survey"/>
  </way>
  <way id="6057755" version="6" timestamp="2010-07-08T00:02:35Z" uid="74617" user="JohnSmith" changeset="5162525">
    <nd ref="51109293"/>
    <nd ref="26391854"/>
    <nd ref="49802585"/>
    <nd ref="49802799"/>
    <nd ref="49802481"/>
    <nd ref="49802477"/>
    <nd ref="49802588"/>
    <tag k="highway" v="residential"/>
    <tag k="maxspeed" v="50"/>
    <tag k="maxspeed:source" v="default residential speed limit in Australia"/>
    <tag k="name" v="Ida Street"/>
    <tag k="source" v="survey"/>
  </way>
  <way id="6057755" version="7" timestamp="2010-07-08T00:12:48Z" uid="74617" user="JohnSmith" changeset="5162525">
    <nd ref="51109293"/>
    <nd ref="26391854"/>
    <nd ref="49802585"/>
    <nd ref="49802799"/>
    <nd ref="49802481"/>
    <nd ref="49802477"/>
    <nd ref="49802588"/>
    <tag k="highway" v="residential"/>
    <tag k="maxspeed" v="50"/>
    <tag k="maxspeed:source" v="default residential speed limit in Australia"/>
    <tag k="name" v="Ida Street"/>
    <tag k="source" v="survey"/>
  </way>
  <way id="6057773" version="4" timestamp="2010-07-08T00:01:54Z" uid="74617" user="JohnSmith" changeset="5162525">
    <nd ref="49802799"/>
    <nd ref="49802876"/>
    <nd ref="49802877"/>
    <tag k="highway" v="residential"/>
    <tag k="maxspeed" v="50"/>
    <tag k="maxspeed:source" v="default residential speed limit in Australia"/>
    <tag k="name" v="Gibbins Close"/>
    <tag k="source" v="survey"/>
  </way>
  <way id="6057773" version="5" timestamp="2010-07-08T00:12:06Z" uid="74617" user="JohnSmith" changeset="5162525">
    <nd ref="49802799"/>
    <nd ref="49802876"/>
    <nd ref="49802877"/>
    <tag k="highway" v="residential"/>
    <tag k="maxspeed" v="50"/>
    <tag k="maxspeed:source" v="default residential speed limit in Australia"/>
    <tag k="name" v="Gibbins Close"/>
    <tag k="source" v="survey"/>
  </way>
  <way id="6057777" version="4" timestamp="2010-07-08T00:02:19Z" uid="74617" user="JohnSmith" changeset="5162525">
    <nd ref="49802984"/>
    <nd ref="794081285"/>
    <nd ref="49803026"/>
    <tag k="highway" v="residential"/>
    <tag k="maxspeed" v="50"/>
    <tag k="maxspeed:source" v="default residential speed limit in Australia"/>
    <tag k="name" v="Moona Street"/>
    <tag k="source" v="survey"/>
  </way>
  <way id="6057777" version="5" timestamp="2010-07-08T00:12:32Z" uid="74617" user="JohnSmith" changeset="5162525">
    <nd ref="49802984"/>
    <nd ref="794081285"/>
    <nd ref="49803026"/>
    <tag k="highway" v="residential"/>
    <tag k="maxspeed" v="50"/>
    <tag k="maxspeed:source" v="default residential speed limit in Australia"/>
    <tag k="name" v="Moona Street"/>
    <tag k="source" v="survey"/>
  </way>
  <way id="6057802" version="5" timestamp="2010-07-08T00:00:25Z" uid="74617" user="JohnSmith" changeset="5162525">
    <nd ref="26391855"/>
    <nd ref="49803420"/>
    <nd ref="49803421"/>
    <nd ref="49803423"/>
    <tag k="highway" v="residential"/>
    <tag k="maxspeed" v="50"/>
    <tag k="maxspeed:source" v="default residential speed limit in Australia"/>
    <tag k="name" v="Kerrie Place"/>
    <tag k="source" v="survey"/>
  </way>
  <way id="6057802" version="6" timestamp="2010-07-08T00:10:25Z" uid="74617" user="JohnSmith" changeset="5162525">
    <nd ref="26391855"/>
    <nd ref="49803420"/>
    <nd ref="49803421"/>
    <nd ref="49803423"/>
    <tag k="highway" v="residential"/>
    <tag k="maxspeed" v="50"/>
    <tag k="maxspeed:source" v="default residential speed limit in Australia"/>
    <tag k="name" v="Kerrie Place"/>
    <tag k="source" v="survey"/>
  </way>
  <way id="6057804" version="4" timestamp="2010-07-08T00:02:01Z" uid="74617" user="JohnSmith" changeset="5162525">
    <nd ref="49803371"/>
    <nd ref="49803495"/>
    <nd ref="767154101"/>
    <nd ref="49803497"/>
    <nd ref="767154097"/>
    <nd ref="49803498"/>
    <tag k="highway" v="residential"/>
    <tag k="maxspeed" v="50"/>
    <tag k="maxspeed:source" v="default residential speed limit in Australia"/>
    <tag k="name" v="Tarro Close"/>
    <tag k="source" v="survey"/>
  </way>
  <way id="6057804" version="5" timestamp="2010-07-08T00:12:13Z" uid="74617" user="JohnSmith" changeset="5162525">
    <nd ref="49803371"/>
    <nd ref="49803495"/>
    <nd ref="767154101"/>
    <nd ref="49803497"/>
    <nd ref="767154097"/>
    <nd ref="49803498"/>
    <tag k="highway" v="residential"/>
    <tag k="maxspeed" v="50"/>
    <tag k="maxspeed:source" v="default residential speed limit in Australia"/>
    <tag k="name" v="Tarro Close"/>
    <tag k="source" v="survey"/>
  </way>
  <way id="6057806" version="5" timestamp="2010-07-08T00:05:03Z" uid="74617" user="JohnSmith" changeset="5162525">
    <nd ref="49803420"/>
    <nd ref="49803532"/>
    <nd ref="49803534"/>
    <nd ref="49803535"/>
    <tag k="highway" v="residential"/>
    <tag k="maxspeed" v="50"/>
    <tag k="maxspeed:source" v="default residential speed limit in Australia"/>
    <tag k="name" v="Vista Close"/>
    <tag k="source" v="survey"/>
  </way>
  <way id="6057806" version="6" timestamp="2010-07-08T00:15:59Z" uid="74617" user="JohnSmith" changeset="5162525">
    <nd ref="49803420"/>
    <nd ref="49803532"/>
    <nd ref="49803534"/>
    <nd ref="49803535"/>
    <tag k="highway" v="residential"/>
    <tag k="maxspeed" v="50"/>
    <tag k="maxspeed:source" v="default residential speed limit in Australia"/>
    <tag k="name" v="Vista Close"/>
    <tag k="source" v="survey"/>
  </way>
  <way id="6057848" version="4" timestamp="2010-07-08T00:01:56Z" uid="74617" user="JohnSmith" changeset="5162525">
    <nd ref="26391857"/>
    <nd ref="49804183"/>
    <nd ref="803572910"/>
    <nd ref="49804185"/>
    <tag k="highway" v="residential"/>
    <tag k="maxspeed" v="50"/>
    <tag k="maxspeed:source" v="default residential speed limit in Australia"/>
    <tag k="name" v="Orana Avenue"/>
    <tag k="source" v="survey"/>
  </way>
  <way id="6057848" version="5" timestamp="2010-07-08T00:12:08Z" uid="74617" user="JohnSmith" changeset="5162525">
    <nd ref="26391857"/>
    <nd ref="49804183"/>
    <nd ref="803572910"/>
    <nd ref="49804185"/>
    <tag k="highway" v="residential"/>
    <tag k="maxspeed" v="50"/>
    <tag k="maxspeed:source" v="default residential speed limit in Australia"/>
    <tag k="name" v="Orana Avenue"/>
    <tag k="source" v="survey"/>
  </way>
  <way id="6057850" version="4" timestamp="2010-07-08T00:05:00Z" uid="74617" user="JohnSmith" changeset="5162525">
    <nd ref="49804221"/>
    <nd ref="49804223"/>
    <tag k="highway" v="residential"/>
    <tag k="maxspeed" v="50"/>
    <tag k="maxspeed:source" v="default residential speed limit in Australia"/>
    <tag k="name" v="Katta Close"/>
    <tag k="source" v="survey"/>
  </way>
  <way id="6057850" version="5" timestamp="2010-07-08T00:15:55Z" uid="74617" user="JohnSmith" changeset="5162525">
    <nd ref="49804221"/>
    <nd ref="49804223"/>
    <tag k="highway" v="residential"/>
    <tag k="maxspeed" v="50"/>
    <tag k="maxspeed:source" v="default residential speed limit in Australia"/>
    <tag k="name" v="Katta Close"/>
    <tag k="source" v="survey"/>
  </way>
  <way id="6057892" version="4" timestamp="2010-07-08T00:01:53Z" uid="74617" user="JohnSmith" changeset="5162525">
    <nd ref="44875939"/>
    <nd ref="49804685"/>
    <nd ref="49804688"/>
    <tag k="highway" v="residential"/>
    <tag k="maxspeed" v="50"/>
    <tag k="maxspeed:source" v="default residential speed limit in Australia"/>
    <tag k="name" v="Marlee Street"/>
    <tag k="source" v="survey"/>
  </way>
  <way id="6057892" version="5" timestamp="2010-07-08T00:12:04Z" uid="74617" user="JohnSmith" changeset="5162525">
    <nd ref="44875939"/>
    <nd ref="49804685"/>
    <nd ref="49804688"/>
    <tag k="highway" v="residential"/>
    <tag k="maxspeed" v="50"/>
    <tag k="maxspeed:source" v="default residential speed limit in Australia"/>
    <tag k="name" v="Marlee Street"/>
    <tag k="source" v="survey"/>
  </way>
  <way id="6057934" version="2" timestamp="2010-07-08T00:04:33Z" uid="74617" user="JohnSmith" changeset="5162525">
    <nd ref="49805150"/>
    <nd ref="49805251"/>
    <nd ref="49805252"/>
    <nd ref="49805131"/>
    <tag k="highway" v="residential"/>
    <tag k="maxspeed" v="50"/>
    <tag k="maxspeed:source" v="default residential speed limit in Australia"/>
    <tag k="name" v="Lords Avenue"/>
  </way>
  <way id="6057934" version="3" timestamp="2010-07-08T00:15:10Z" uid="74617" user="JohnSmith" changeset="5162525">
    <nd ref="49805150"/>
    <nd ref="49805251"/>
    <nd ref="49805252"/>
    <nd ref="49805131"/>
    <tag k="highway" v="residential"/>
    <tag k="maxspeed" v="50"/>
    <tag k="maxspeed:source" v="default residential speed limit in Australia"/>
    <tag k="name" v="Lords Avenue"/>
  </way>
  <way id="6057976" version="5" timestamp="2010-07-08T00:01:24Z" uid="74617" user="JohnSmith" changeset="5162525">
    <nd ref="44885069"/>
    <nd ref="49805133"/>
    <nd ref="144784148"/>
    <nd ref="49624643"/>
    <nd ref="520954978"/>
    <tag k="highway" v="residential"/>
    <tag k="maxspeed" v="50"/>
    <tag k="maxspeed:source" v="default residential speed limit in Australia"/>
    <tag k="name" v="Wall Avenue"/>
  </way>
  <way id="6057976" version="6" timestamp="2010-07-08T00:11:31Z" uid="74617" user="JohnSmith" changeset="5162525">
    <nd ref="44885069"/>
    <nd ref="49805133"/>
    <nd ref="144784148"/>
    <nd ref="49624643"/>
    <nd ref="520954978"/>
    <tag k="highway" v="residential"/>
    <tag k="maxspeed" v="50"/>
    <tag k="maxspeed:source" v="default residential speed limit in Australia"/>
    <tag k="name" v="Wall Avenue"/>
  </way>
</osm>
