<?xml version='1.0' encoding='UTF-8'?>
<osm version="0.6" generator="libosmium/2.20.0">
  <way id="60654041" version="9" timestamp="2010-07-09T05:56:24Z" uid="74617" user="JohnSmith" changeset="5171134">
    <nd ref="762936276"/>
    <nd ref="762936274"/>
    <tag k="highway" v="residential"/>
    <tag k="maxspeed" v="50"/>
    <tag k="maxspeed:source" v="default residential speed limit in Australia"/>
    <tag k="name" v="Easter Street"/>
  </way>
  <way id="60654046" version="3" timestamp="2010-07-09T05:56:32Z" uid="74617" user="JohnSmith" changeset="5171134">
    <nd ref="759168976"/>
    <nd ref="775985836"/>
    <nd ref="775985837"/>
    <nd ref="759114491"/>
    <tag k="highway" v="residential"/>
    <tag k="maxspeed" v="50"/>
    <tag k="maxspeed:source" v="default residential speed limit in Australia"/>
    <tag k="name" v="Cockburn Street"/>
  </way>
  <way id="60654049" version="7" timestamp="2010-07-09T05:57:32Z" uid="74617" user="JohnSmith" changeset="5171134">
    <nd ref="759694845"/>
    <nd ref="762936276"/>
    <nd ref="759169021"/>
    <tag k="highway" v="residential"/>
    <tag k="maxspeed" v="50"/>
    <tag k="maxspeed:source" v="default residential speed limit in Australia"/>
    <tag k="name" v="Edinborough Street"/>
  </way>
  <way id="60654054" version="4" timestamp="2010-07-09T05:57:39Z" uid="74617" user="JohnSmith" changeset="5171134">
    <nd ref="759168867"/>
    <nd ref="759169065"/>
    <tag k="highway" v="residential"/>
    <tag k="maxspeed" v="50"/>
    <tag k="maxspeed:source" v="default residential speed limit in Australia"/>
    <tag k="name" v="Junction Street"/>
  </way>
</osm>
