<?xml version='1.0' encoding='UTF-8'?>
<osm version="0.6" generator="libosmium/2.20.0">
  <way id="6077081" version="1" timestamp="2007-09-30T13:25:33Z" uid="5871" user="Banny" changeset="541301">
    <nd ref="28901059"/>
    <nd ref="28095042"/>
    <nd ref="28095043"/>
    <nd ref="28095045"/>
    <nd ref="28095046"/>
    <nd ref="28095048"/>
    <nd ref="28095030"/>
    <nd ref="28198568"/>
    <nd ref="28198569"/>
    <nd ref="28198570"/>
    <nd ref="28198571"/>
    <nd ref="28198572"/>
    <tag k="created_by" v="JOSM"/>
    <tag k="highway" v="secondary"/>
    <tag k="name" v="Rösrather Straße"/>
    <tag k="reg_ref" v="L284"/>
  </way>
  <way id="6077081" version="3" timestamp="2008-04-19T17:26:07Z" uid="16579" user="bjk" changeset="192149">
    <nd ref="28901059"/>
    <nd ref="28095042"/>
    <nd ref="258604879"/>
    <nd ref="28095043"/>
    <nd ref="28095045"/>
    <nd ref="28095046"/>
    <nd ref="28095048"/>
    <nd ref="28095030"/>
    <nd ref="28198568"/>
    <nd ref="28198569"/>
    <nd ref="28198570"/>
    <nd ref="28198571"/>
    <nd ref="28198572"/>
    <tag k="created_by" v="fixbot"/>
    <tag k="highway" v="secondary"/>
    <tag k="name" v="Rösrather Straße"/>
    <tag k="ref" v="L284"/>
  </way>
  <way id="6077082" version="2" timestamp="2007-11-29T20:08:05Z" uid="8931" user="bluepup" changeset="646453">
    <nd ref="28095020"/>
    <nd ref="28095022"/>
    <nd ref="28095023"/>
    <nd ref="28095025"/>
    <nd ref="28095026"/>
    <nd ref="142385640"/>
    <nd ref="28095027"/>
    <nd ref="28095029"/>
    <nd ref="28095030"/>
    <tag k="created_by" v="JOSM"/>
    <tag k="highway" v="secondary"/>
    <tag k="name" v="Bensberger Straße"/>
    <tag k="ref" v="L489"/>
  </way>
  <way id="6077083" version="3" timestamp="2007-10-13T20:32:39Z" uid="5871" user="Banny" changeset="145503">
    <nd ref="26041976"/>
    <nd ref="28095013"/>
    <nd ref="28095014"/>
    <nd ref="67231325"/>
    <nd ref="28095016"/>
    <nd ref="28095017"/>
    <nd ref="28095019"/>
    <nd ref="28095020"/>
    <tag k="created_by" v="Potlatch alpha"/>
    <tag k="highway" v="secondary"/>
    <tag k="name" v="Heumarer Mauspfad"/>
    <tag k="ref" v="L489"/>
  </way>
  <way id="6077170" version="1" timestamp="2007-09-27T20:37:55Z" uid="13367" user="nubok" changeset="526888">
    <nd ref="52795378"/>
    <nd ref="50079994"/>
    <nd ref="52795515"/>
    <nd ref="50079995"/>
    <nd ref="50079997"/>
    <nd ref="50080000"/>
    <nd ref="50080001"/>
    <tag k="created_by" v="Potlatch alpha"/>
    <tag k="cycleway" v="track"/>
    <tag k="highway" v="cycleway"/>
  </way>
</osm>
