<?xml version='1.0' encoding='UTF-8'?>
<osm version="0.6" generator="libosmium/2.20.0">
  <way id="6086338" version="2" timestamp="2008-04-07T06:21:57Z" uid="7617" user="Franc" changeset="70756">
    <nd ref="50163731"/>
    <nd ref="50181394"/>
    <nd ref="50181395"/>
    <nd ref="50181398"/>
    <tag k="created_by" v="Potlatch alpha"/>
    <tag k="highway" v="residential"/>
    <tag k="name" v="Koorong Street"/>
    <tag k="source" v="survey"/>
  </way>
  <way id="6086338" version="3" timestamp="2010-07-08T00:04:05Z" uid="74617" user="JohnSmith" changeset="5162525">
    <nd ref="50163731"/>
    <nd ref="50181394"/>
    <nd ref="50181395"/>
    <nd ref="50181398"/>
    <tag k="highway" v="residential"/>
    <tag k="maxspeed" v="50"/>
    <tag k="maxspeed:source" v="default residential speed limit in Australia"/>
    <tag k="name" v="Koorong Street"/>
    <tag k="source" v="survey"/>
  </way>
  <way id="6086338" version="4" timestamp="2010-07-08T00:14:32Z" uid="74617" user="JohnSmith" changeset="5162525">
    <nd ref="50163731"/>
    <nd ref="50181394"/>
    <nd ref="50181395"/>
    <nd ref="50181398"/>
    <tag k="highway" v="residential"/>
    <tag k="maxspeed" v="50"/>
    <tag k="maxspeed:source" v="default residential speed limit in Australia"/>
    <tag k="name" v="Koorong Street"/>
    <tag k="source" v="survey"/>
  </way>
  <way id="6086351" version="2" timestamp="2008-04-07T06:21:56Z" uid="7617" user="Franc" changeset="70756">
    <nd ref="50181394"/>
    <nd ref="50181513"/>
    <tag k="created_by" v="Potlatch alpha"/>
    <tag k="highway" v="residential"/>
    <tag k="name" v="Wanill Place"/>
    <tag k="source" v="survey"/>
  </way>
  <way id="6086351" version="3" timestamp="2010-07-08T00:02:54Z" uid="74617" user="JohnSmith" changeset="5162525">
    <nd ref="50181394"/>
    <nd ref="50181513"/>
    <tag k="highway" v="residential"/>
    <tag k="maxspeed" v="50"/>
    <tag k="maxspeed:source" v="default residential speed limit in Australia"/>
    <tag k="name" v="Wanill Place"/>
    <tag k="source" v="survey"/>
  </way>
  <way id="6086351" version="4" timestamp="2010-07-08T00:13:06Z" uid="74617" user="JohnSmith" changeset="5162525">
    <nd ref="50181394"/>
    <nd ref="50181513"/>
    <tag k="highway" v="residential"/>
    <tag k="maxspeed" v="50"/>
    <tag k="maxspeed:source" v="default residential speed limit in Australia"/>
    <tag k="name" v="Wanill Place"/>
    <tag k="source" v="survey"/>
  </way>
  <way id="6086351" version="5" timestamp="2011-06-05T13:55:03Z" uid="7617" user="Franc" changeset="8349390">
    <nd ref="50181394"/>
    <nd ref="1313055226"/>
    <nd ref="50181513"/>
    <tag k="highway" v="residential"/>
    <tag k="maxspeed" v="50"/>
    <tag k="maxspeed:source" v="default residential speed limit in Australia"/>
    <tag k="name" v="Wanill Place"/>
    <tag k="source" v="survey"/>
  </way>
  <way id="6086365" version="2" timestamp="2008-04-07T06:21:58Z" uid="7617" user="Franc" changeset="70756">
    <nd ref="50181395"/>
    <nd ref="50181623"/>
    <nd ref="50181625"/>
    <tag k="created_by" v="Potlatch alpha"/>
    <tag k="highway" v="residential"/>
    <tag k="name" v="Neerim Place"/>
    <tag k="source" v="survey"/>
  </way>
  <way id="6086365" version="3" timestamp="2010-07-08T00:03:03Z" uid="74617" user="JohnSmith" changeset="5162525">
    <nd ref="50181395"/>
    <nd ref="50181623"/>
    <nd ref="50181625"/>
    <tag k="highway" v="residential"/>
    <tag k="maxspeed" v="50"/>
    <tag k="maxspeed:source" v="default residential speed limit in Australia"/>
    <tag k="name" v="Neerim Place"/>
    <tag k="source" v="survey"/>
  </way>
  <way id="6086365" version="4" timestamp="2010-07-08T00:13:18Z" uid="74617" user="JohnSmith" changeset="5162525">
    <nd ref="50181395"/>
    <nd ref="50181623"/>
    <nd ref="50181625"/>
    <tag k="highway" v="residential"/>
    <tag k="maxspeed" v="50"/>
    <tag k="maxspeed:source" v="default residential speed limit in Australia"/>
    <tag k="name" v="Neerim Place"/>
    <tag k="source" v="survey"/>
  </way>
  <way id="6086365" version="5" timestamp="2011-06-05T13:55:06Z" uid="7617" user="Franc" changeset="8349390">
    <nd ref="50181395"/>
    <nd ref="50181623"/>
    <nd ref="1313055220"/>
    <nd ref="50181625"/>
    <tag k="highway" v="residential"/>
    <tag k="maxspeed" v="50"/>
    <tag k="maxspeed:source" v="default residential speed limit in Australia"/>
    <tag k="name" v="Neerim Place"/>
    <tag k="source" v="survey"/>
  </way>
  <way id="6086382" version="2" timestamp="2008-04-07T06:21:58Z" uid="7617" user="Franc" changeset="70756">
    <nd ref="50163729"/>
    <nd ref="50181814"/>
    <tag k="created_by" v="Potlatch alpha"/>
    <tag k="highway" v="residential"/>
    <tag k="name" v="Rosslyn Street"/>
    <tag k="source" v="survey"/>
  </way>
  <way id="6086382" version="3" timestamp="2010-07-08T00:02:57Z" uid="74617" user="JohnSmith" changeset="5162525">
    <nd ref="50163729"/>
    <nd ref="50181814"/>
    <tag k="highway" v="residential"/>
    <tag k="maxspeed" v="50"/>
    <tag k="maxspeed:source" v="default residential speed limit in Australia"/>
    <tag k="name" v="Rosslyn Street"/>
    <tag k="source" v="survey"/>
  </way>
  <way id="6086382" version="4" timestamp="2010-07-08T00:13:10Z" uid="74617" user="JohnSmith" changeset="5162525">
    <nd ref="50163729"/>
    <nd ref="50181814"/>
    <tag k="highway" v="residential"/>
    <tag k="maxspeed" v="50"/>
    <tag k="maxspeed:source" v="default residential speed limit in Australia"/>
    <tag k="name" v="Rosslyn Street"/>
    <tag k="source" v="survey"/>
  </way>
  <way id="6086392" version="2" timestamp="2008-04-07T06:22:06Z" uid="7617" user="Franc" changeset="70756"/>
  <way id="6086418" version="2" timestamp="2008-04-07T09:36:32Z" uid="7617" user="Franc" changeset="77124">
    <nd ref="31931705"/>
    <nd ref="50182370"/>
    <nd ref="256206355"/>
    <nd ref="50182371"/>
    <nd ref="50182372"/>
    <tag k="created_by" v="Potlatch alpha"/>
    <tag k="highway" v="residential"/>
    <tag k="name" v="Warruga Crescent"/>
    <tag k="source" v="survey"/>
  </way>
  <way id="6086418" version="3" timestamp="2010-07-08T00:01:15Z" uid="74617" user="JohnSmith" changeset="5162525">
    <nd ref="31931705"/>
    <nd ref="50182370"/>
    <nd ref="256206355"/>
    <nd ref="50182371"/>
    <nd ref="50182372"/>
    <tag k="highway" v="residential"/>
    <tag k="maxspeed" v="50"/>
    <tag k="maxspeed:source" v="default residential speed limit in Australia"/>
    <tag k="name" v="Warruga Crescent"/>
    <tag k="source" v="survey"/>
  </way>
  <way id="6086418" version="4" timestamp="2010-07-08T00:11:22Z" uid="74617" user="JohnSmith" changeset="5162525">
    <nd ref="31931705"/>
    <nd ref="50182370"/>
    <nd ref="256206355"/>
    <nd ref="50182371"/>
    <nd ref="50182372"/>
    <tag k="highway" v="residential"/>
    <tag k="maxspeed" v="50"/>
    <tag k="maxspeed:source" v="default residential speed limit in Australia"/>
    <tag k="name" v="Warruga Crescent"/>
    <tag k="source" v="survey"/>
  </way>
  <way id="6086418" version="5" timestamp="2011-06-05T13:55:24Z" uid="7617" user="Franc" changeset="8349390">
    <nd ref="31931705"/>
    <nd ref="50182370"/>
    <nd ref="256206355"/>
    <nd ref="1313055190"/>
    <nd ref="50182371"/>
    <nd ref="50182372"/>
    <tag k="highway" v="residential"/>
    <tag k="maxspeed" v="50"/>
    <tag k="maxspeed:source" v="default residential speed limit in Australia"/>
    <tag k="name" v="Warruga Crescent"/>
    <tag k="source" v="survey"/>
  </way>
  <way id="6086435" version="2" timestamp="2008-04-07T09:36:50Z" uid="7617" user="Franc" changeset="77124">
    <nd ref="50164068"/>
    <nd ref="50182479"/>
    <nd ref="50182372"/>
    <nd ref="256206354"/>
    <tag k="created_by" v="Potlatch alpha"/>
    <tag k="highway" v="residential"/>
    <tag k="name" v="Warruga Crescent"/>
    <tag k="source" v="survey"/>
  </way>
  <way id="6086435" version="3" timestamp="2010-07-08T00:00:10Z" uid="74617" user="JohnSmith" changeset="5162525">
    <nd ref="50164068"/>
    <nd ref="50182479"/>
    <nd ref="50182372"/>
    <nd ref="256206354"/>
    <tag k="highway" v="residential"/>
    <tag k="maxspeed" v="50"/>
    <tag k="maxspeed:source" v="default residential speed limit in Australia"/>
    <tag k="name" v="Warruga Crescent"/>
    <tag k="source" v="survey"/>
  </way>
  <way id="6086435" version="4" timestamp="2010-07-08T00:10:08Z" uid="74617" user="JohnSmith" changeset="5162525">
    <nd ref="50164068"/>
    <nd ref="50182479"/>
    <nd ref="50182372"/>
    <nd ref="256206354"/>
    <tag k="highway" v="residential"/>
    <tag k="maxspeed" v="50"/>
    <tag k="maxspeed:source" v="default residential speed limit in Australia"/>
    <tag k="name" v="Warruga Crescent"/>
    <tag k="source" v="survey"/>
  </way>
  <way id="6086435" version="5" timestamp="2011-06-05T13:55:20Z" uid="7617" user="Franc" changeset="8349390">
    <nd ref="50164068"/>
    <nd ref="1313055185"/>
    <nd ref="50182479"/>
    <nd ref="50182372"/>
    <nd ref="256206354"/>
    <tag k="highway" v="residential"/>
    <tag k="maxspeed" v="50"/>
    <tag k="maxspeed:source" v="default residential speed limit in Australia"/>
    <tag k="name" v="Warruga Crescent"/>
    <tag k="source" v="survey"/>
  </way>
  <way id="6086438" version="2" timestamp="2008-04-07T09:36:51Z" uid="7617" user="Franc" changeset="77124">
    <nd ref="50182479"/>
    <nd ref="256206353"/>
    <nd ref="50182545"/>
    <tag k="created_by" v="Potlatch alpha"/>
    <tag k="highway" v="residential"/>
    <tag k="name" v="Warekila Close"/>
    <tag k="source" v="survey"/>
  </way>
  <way id="6086438" version="3" timestamp="2010-07-08T00:03:39Z" uid="74617" user="JohnSmith" changeset="5162525">
    <nd ref="50182479"/>
    <nd ref="256206353"/>
    <nd ref="50182545"/>
    <tag k="highway" v="residential"/>
    <tag k="maxspeed" v="50"/>
    <tag k="maxspeed:source" v="default residential speed limit in Australia"/>
    <tag k="name" v="Warekila Close"/>
    <tag k="source" v="survey"/>
  </way>
  <way id="6086438" version="4" timestamp="2010-07-08T00:13:58Z" uid="74617" user="JohnSmith" changeset="5162525">
    <nd ref="50182479"/>
    <nd ref="256206353"/>
    <nd ref="50182545"/>
    <tag k="highway" v="residential"/>
    <tag k="maxspeed" v="50"/>
    <tag k="maxspeed:source" v="default residential speed limit in Australia"/>
    <tag k="name" v="Warekila Close"/>
    <tag k="source" v="survey"/>
  </way>
  <way id="6086448" version="2" timestamp="2008-04-07T09:36:46Z" uid="7617" user="Franc" changeset="77124">
    <nd ref="50182637"/>
    <nd ref="50182683"/>
    <tag k="created_by" v="Potlatch alpha"/>
    <tag k="highway" v="residential"/>
    <tag k="name" v="Warrego Road"/>
    <tag k="source" v="survey"/>
  </way>
  <way id="6086448" version="4" timestamp="2010-07-08T00:04:44Z" uid="74617" user="JohnSmith" changeset="5162525">
    <nd ref="520976576"/>
    <nd ref="50182683"/>
    <tag k="highway" v="residential"/>
    <tag k="maxspeed" v="50"/>
    <tag k="maxspeed:source" v="default residential speed limit in Australia"/>
    <tag k="name" v="Warrego Road"/>
    <tag k="source" v="survey"/>
  </way>
  <way id="6086448" version="5" timestamp="2010-07-08T00:15:26Z" uid="74617" user="JohnSmith" changeset="5162525">
    <nd ref="520976576"/>
    <nd ref="50182683"/>
    <tag k="highway" v="residential"/>
    <tag k="maxspeed" v="50"/>
    <tag k="maxspeed:source" v="default residential speed limit in Australia"/>
    <tag k="name" v="Warrego Road"/>
    <tag k="source" v="survey"/>
  </way>
  <way id="6086463" version="2" timestamp="2008-04-07T09:36:49Z" uid="7617" user="Franc" changeset="77124">
    <nd ref="50182768"/>
    <nd ref="50182875"/>
    <nd ref="256206351"/>
    <nd ref="50182876"/>
    <nd ref="256206352"/>
    <nd ref="50182877"/>
    <nd ref="50182878"/>
    <tag k="created_by" v="Potlatch alpha"/>
    <tag k="highway" v="residential"/>
    <tag k="name" v="Wanda Crescent"/>
  </way>
  <way id="6086463" version="3" timestamp="2010-07-08T00:01:08Z" uid="74617" user="JohnSmith" changeset="5162525">
    <nd ref="50182768"/>
    <nd ref="50182875"/>
    <nd ref="256206351"/>
    <nd ref="50182876"/>
    <nd ref="256206352"/>
    <nd ref="50182877"/>
    <nd ref="50182878"/>
    <tag k="highway" v="residential"/>
    <tag k="maxspeed" v="50"/>
    <tag k="maxspeed:source" v="default residential speed limit in Australia"/>
    <tag k="name" v="Wanda Crescent"/>
  </way>
  <way id="6086463" version="4" timestamp="2010-07-08T00:11:13Z" uid="74617" user="JohnSmith" changeset="5162525">
    <nd ref="50182768"/>
    <nd ref="50182875"/>
    <nd ref="256206351"/>
    <nd ref="50182876"/>
    <nd ref="256206352"/>
    <nd ref="50182877"/>
    <nd ref="50182878"/>
    <tag k="highway" v="residential"/>
    <tag k="maxspeed" v="50"/>
    <tag k="maxspeed:source" v="default residential speed limit in Australia"/>
    <tag k="name" v="Wanda Crescent"/>
  </way>
  <way id="6086463" version="5" timestamp="2011-06-06T12:38:14Z" uid="7617" user="Franc" changeset="8359874">
    <nd ref="50182768"/>
    <nd ref="50182875"/>
    <nd ref="1314062109"/>
    <nd ref="256206351"/>
    <nd ref="50182876"/>
    <nd ref="256206352"/>
    <nd ref="50182877"/>
    <nd ref="1314062112"/>
    <nd ref="1314062118"/>
    <nd ref="50182878"/>
    <tag k="highway" v="residential"/>
    <tag k="maxspeed" v="50"/>
    <tag k="maxspeed:source" v="default residential speed limit in Australia"/>
    <tag k="name" v="Wanda Crescent"/>
  </way>
  <way id="6086475" version="2" timestamp="2008-04-07T07:46:15Z" uid="7617" user="Franc" changeset="77124">
    <nd ref="50182948"/>
    <nd ref="256196451"/>
    <nd ref="50183006"/>
    <nd ref="256196450"/>
    <nd ref="50183008"/>
    <tag k="created_by" v="Potlatch alpha"/>
    <tag k="highway" v="residential"/>
    <tag k="name" v="Wingarie Place"/>
  </way>
  <way id="6086475" version="3" timestamp="2010-07-07T23:59:45Z" uid="74617" user="JohnSmith" changeset="5162525">
    <nd ref="50182948"/>
    <nd ref="256196451"/>
    <nd ref="50183006"/>
    <nd ref="256196450"/>
    <nd ref="50183008"/>
    <tag k="highway" v="residential"/>
    <tag k="maxspeed" v="50"/>
    <tag k="maxspeed:source" v="default residential speed limit in Australia"/>
    <tag k="name" v="Wingarie Place"/>
  </way>
  <way id="6086475" version="4" timestamp="2010-07-08T00:09:39Z" uid="74617" user="JohnSmith" changeset="5162525">
    <nd ref="50182948"/>
    <nd ref="256196451"/>
    <nd ref="50183006"/>
    <nd ref="256196450"/>
    <nd ref="50183008"/>
    <tag k="highway" v="residential"/>
    <tag k="maxspeed" v="50"/>
    <tag k="maxspeed:source" v="default residential speed limit in Australia"/>
    <tag k="name" v="Wingarie Place"/>
  </way>
  <way id="6086530" version="2" timestamp="2008-04-07T07:46:13Z" uid="7617" user="Franc" changeset="77124">
    <nd ref="50183223"/>
    <nd ref="256196459"/>
    <nd ref="50183481"/>
    <nd ref="256196458"/>
    <nd ref="256196456"/>
    <nd ref="50183483"/>
    <nd ref="256196457"/>
    <nd ref="31931873"/>
    <tag k="created_by" v="Potlatch alpha"/>
    <tag k="highway" v="residential"/>
    <tag k="name" v="Evelyn Crescent"/>
    <tag k="source" v="survey"/>
  </way>
  <way id="6086530" version="3" timestamp="2010-07-08T00:02:52Z" uid="74617" user="JohnSmith" changeset="5162525">
    <nd ref="50183223"/>
    <nd ref="256196459"/>
    <nd ref="50183481"/>
    <nd ref="256196458"/>
    <nd ref="256196456"/>
    <nd ref="50183483"/>
    <nd ref="256196457"/>
    <nd ref="31931873"/>
    <tag k="highway" v="residential"/>
    <tag k="maxspeed" v="50"/>
    <tag k="maxspeed:source" v="default residential speed limit in Australia"/>
    <tag k="name" v="Evelyn Crescent"/>
    <tag k="source" v="survey"/>
  </way>
  <way id="6086530" version="4" timestamp="2010-07-08T00:13:05Z" uid="74617" user="JohnSmith" changeset="5162525">
    <nd ref="50183223"/>
    <nd ref="256196459"/>
    <nd ref="50183481"/>
    <nd ref="256196458"/>
    <nd ref="256196456"/>
    <nd ref="50183483"/>
    <nd ref="256196457"/>
    <nd ref="31931873"/>
    <tag k="highway" v="residential"/>
    <tag k="maxspeed" v="50"/>
    <tag k="maxspeed:source" v="default residential speed limit in Australia"/>
    <tag k="name" v="Evelyn Crescent"/>
    <tag k="source" v="survey"/>
  </way>
  <way id="6086551" version="2" timestamp="2008-04-07T06:22:01Z" uid="7617" user="Franc" changeset="70756">
    <nd ref="50163725"/>
    <nd ref="50183793"/>
    <tag k="created_by" v="Potlatch alpha"/>
    <tag k="highway" v="residential"/>
    <tag k="name" v="Balaclava Road"/>
  </way>
  <way id="6086551" version="3" timestamp="2008-07-25T08:51:31Z" uid="7617" user="Franc" changeset="588519">
    <nd ref="50163725"/>
    <nd ref="280942837"/>
    <nd ref="50183793"/>
    <tag k="created_by" v="Potlatch alpha"/>
    <tag k="highway" v="residential"/>
    <tag k="name" v="Balaclava Road"/>
  </way>
  <way id="6086551" version="4" timestamp="2010-07-08T00:00:59Z" uid="74617" user="JohnSmith" changeset="5162525">
    <nd ref="50163725"/>
    <nd ref="280942837"/>
    <nd ref="50183793"/>
    <tag k="highway" v="residential"/>
    <tag k="maxspeed" v="50"/>
    <tag k="maxspeed:source" v="default residential speed limit in Australia"/>
    <tag k="name" v="Balaclava Road"/>
  </way>
  <way id="6086551" version="5" timestamp="2010-07-08T00:11:03Z" uid="74617" user="JohnSmith" changeset="5162525">
    <nd ref="50163725"/>
    <nd ref="280942837"/>
    <nd ref="50183793"/>
    <tag k="highway" v="residential"/>
    <tag k="maxspeed" v="50"/>
    <tag k="maxspeed:source" v="default residential speed limit in Australia"/>
    <tag k="name" v="Balaclava Road"/>
  </way>
  <way id="6086551" version="6" timestamp="2011-06-05T13:55:30Z" uid="7617" user="Franc" changeset="8349390">
    <nd ref="50163725"/>
    <nd ref="1313055200"/>
    <nd ref="280942837"/>
    <nd ref="50183793"/>
    <tag k="highway" v="residential"/>
    <tag k="maxspeed" v="50"/>
    <tag k="maxspeed:source" v="default residential speed limit in Australia"/>
    <tag k="name" v="Balaclava Road"/>
  </way>
  <way id="6086559" version="2" timestamp="2008-04-07T06:22:01Z" uid="7617" user="Franc" changeset="70756">
    <nd ref="50183793"/>
    <nd ref="50183869"/>
    <nd ref="256189000"/>
    <nd ref="256189003"/>
    <nd ref="50183870"/>
    <nd ref="256189005"/>
    <nd ref="256189009"/>
    <nd ref="50183871"/>
    <tag k="created_by" v="Potlatch alpha"/>
    <tag k="highway" v="residential"/>
    <tag k="name" v="Kona Close"/>
  </way>
  <way id="6086559" version="3" timestamp="2010-07-08T00:04:45Z" uid="74617" user="JohnSmith" changeset="5162525">
    <nd ref="50183793"/>
    <nd ref="50183869"/>
    <nd ref="256189000"/>
    <nd ref="256189003"/>
    <nd ref="50183870"/>
    <nd ref="256189005"/>
    <nd ref="256189009"/>
    <nd ref="50183871"/>
    <tag k="highway" v="residential"/>
    <tag k="maxspeed" v="50"/>
    <tag k="maxspeed:source" v="default residential speed limit in Australia"/>
    <tag k="name" v="Kona Close"/>
  </way>
  <way id="6086559" version="4" timestamp="2010-07-08T00:15:29Z" uid="74617" user="JohnSmith" changeset="5162525">
    <nd ref="50183793"/>
    <nd ref="50183869"/>
    <nd ref="256189000"/>
    <nd ref="256189003"/>
    <nd ref="50183870"/>
    <nd ref="256189005"/>
    <nd ref="256189009"/>
    <nd ref="50183871"/>
    <tag k="highway" v="residential"/>
    <tag k="maxspeed" v="50"/>
    <tag k="maxspeed:source" v="default residential speed limit in Australia"/>
    <tag k="name" v="Kona Close"/>
  </way>
  <way id="6086589" version="2" timestamp="2008-04-07T08:07:26Z" uid="7617" user="Franc" changeset="77124">
    <nd ref="31427037"/>
    <nd ref="256198167"/>
    <nd ref="256198130"/>
    <nd ref="50184083"/>
    <tag k="created_by" v="Potlatch alpha"/>
    <tag k="highway" v="residential"/>
    <tag k="name" v="High street"/>
    <tag k="source" v="survey"/>
  </way>
  <way id="6086589" version="3" timestamp="2010-01-26T12:49:52Z" uid="7617" user="Franc" changeset="3719146">
    <nd ref="31427037"/>
    <nd ref="620532852"/>
    <nd ref="256198167"/>
    <nd ref="256198130"/>
    <nd ref="50184083"/>
    <tag k="highway" v="residential"/>
    <tag k="name" v="High street"/>
    <tag k="source" v="survey"/>
  </way>
  <way id="6086589" version="4" timestamp="2010-07-08T00:02:56Z" uid="74617" user="JohnSmith" changeset="5162525">
    <nd ref="31427037"/>
    <nd ref="620532852"/>
    <nd ref="256198167"/>
    <nd ref="256198130"/>
    <nd ref="50184083"/>
    <tag k="highway" v="residential"/>
    <tag k="maxspeed" v="50"/>
    <tag k="maxspeed:source" v="default residential speed limit in Australia"/>
    <tag k="name" v="High street"/>
    <tag k="source" v="survey"/>
  </way>
  <way id="6086589" version="5" timestamp="2010-07-08T00:13:08Z" uid="74617" user="JohnSmith" changeset="5162525">
    <nd ref="31427037"/>
    <nd ref="620532852"/>
    <nd ref="256198167"/>
    <nd ref="256198130"/>
    <nd ref="50184083"/>
    <tag k="highway" v="residential"/>
    <tag k="maxspeed" v="50"/>
    <tag k="maxspeed:source" v="default residential speed limit in Australia"/>
    <tag k="name" v="High street"/>
    <tag k="source" v="survey"/>
  </way>
  <way id="6086635" version="2" timestamp="2008-04-21T01:57:39Z" uid="7617" user="Franc" changeset="208640">
    <nd ref="50184250"/>
    <nd ref="258963156"/>
    <nd ref="50184530"/>
    <nd ref="258963155"/>
    <nd ref="50184532"/>
    <nd ref="50184533"/>
    <nd ref="50184536"/>
    <nd ref="258963171"/>
    <nd ref="50184537"/>
    <nd ref="50184540"/>
    <nd ref="258963172"/>
    <nd ref="258963175"/>
    <nd ref="50184541"/>
    <nd ref="258963174"/>
    <nd ref="50184544"/>
    <nd ref="258963173"/>
    <nd ref="50184545"/>
    <nd ref="50184546"/>
    <nd ref="50184547"/>
    <tag k="created_by" v="Potlatch alpha"/>
    <tag k="highway" v="residential"/>
    <tag k="name" v="The Gully Road"/>
    <tag k="source" v="survey"/>
  </way>
  <way id="6086635" version="3" timestamp="2009-11-15T19:45:15Z" uid="8807" user="brendanpuck" changeset="3126137">
    <nd ref="50184250"/>
    <nd ref="258963156"/>
    <nd ref="50184530"/>
    <nd ref="258963155"/>
    <nd ref="50184532"/>
    <nd ref="50184533"/>
    <nd ref="50184536"/>
    <nd ref="258963171"/>
    <nd ref="50184537"/>
    <nd ref="50184540"/>
    <nd ref="258963172"/>
    <nd ref="258963175"/>
    <nd ref="50184541"/>
    <nd ref="258963174"/>
    <nd ref="50184544"/>
    <nd ref="258963173"/>
    <nd ref="50184545"/>
    <nd ref="50184546"/>
    <nd ref="50184547"/>
    <tag k="highway" v="residential"/>
    <tag k="name" v="The Gully Road"/>
    <tag k="source" v="survey"/>
  </way>
  <way id="6086635" version="4" timestamp="2010-01-26T12:49:50Z" uid="7617" user="Franc" changeset="3719146">
    <nd ref="50184250"/>
    <nd ref="258963156"/>
    <nd ref="620532856"/>
    <nd ref="50184530"/>
    <nd ref="50184532"/>
    <nd ref="620532861"/>
    <nd ref="50184533"/>
    <nd ref="50184536"/>
    <nd ref="258963171"/>
    <nd ref="50184537"/>
    <nd ref="50184540"/>
    <nd ref="258963172"/>
    <nd ref="258963175"/>
    <nd ref="50184541"/>
    <nd ref="258963174"/>
    <nd ref="50184544"/>
    <nd ref="258963173"/>
    <nd ref="50184545"/>
    <nd ref="50184546"/>
    <nd ref="50184547"/>
    <tag k="highway" v="residential"/>
    <tag k="name" v="The Gully Road"/>
    <tag k="source" v="survey"/>
  </way>
  <way id="6086635" version="5" timestamp="2010-07-08T00:00:26Z" uid="74617" user="JohnSmith" changeset="5162525">
    <nd ref="50184250"/>
    <nd ref="258963156"/>
    <nd ref="620532856"/>
    <nd ref="50184530"/>
    <nd ref="50184532"/>
    <nd ref="620532861"/>
    <nd ref="50184533"/>
    <nd ref="50184536"/>
    <nd ref="258963171"/>
    <nd ref="50184537"/>
    <nd ref="50184540"/>
    <nd ref="258963172"/>
    <nd ref="258963175"/>
    <nd ref="50184541"/>
    <nd ref="258963174"/>
    <nd ref="50184544"/>
    <nd ref="258963173"/>
    <nd ref="50184545"/>
    <nd ref="50184546"/>
    <nd ref="50184547"/>
    <tag k="highway" v="residential"/>
    <tag k="maxspeed" v="50"/>
    <tag k="maxspeed:source" v="default residential speed limit in Australia"/>
    <tag k="name" v="The Gully Road"/>
    <tag k="source" v="survey"/>
  </way>
  <way id="6086635" version="6" timestamp="2010-07-08T00:10:25Z" uid="74617" user="JohnSmith" changeset="5162525">
    <nd ref="50184250"/>
    <nd ref="258963156"/>
    <nd ref="620532856"/>
    <nd ref="50184530"/>
    <nd ref="50184532"/>
    <nd ref="620532861"/>
    <nd ref="50184533"/>
    <nd ref="50184536"/>
    <nd ref="258963171"/>
    <nd ref="50184537"/>
    <nd ref="50184540"/>
    <nd ref="258963172"/>
    <nd ref="258963175"/>
    <nd ref="50184541"/>
    <nd ref="258963174"/>
    <nd ref="50184544"/>
    <nd ref="258963173"/>
    <nd ref="50184545"/>
    <nd ref="50184546"/>
    <nd ref="50184547"/>
    <tag k="highway" v="residential"/>
    <tag k="maxspeed" v="50"/>
    <tag k="maxspeed:source" v="default residential speed limit in Australia"/>
    <tag k="name" v="The Gully Road"/>
    <tag k="source" v="survey"/>
  </way>
  <way id="6086635" version="7" timestamp="2011-06-05T13:55:01Z" uid="7617" user="Franc" changeset="8349390">
    <nd ref="50184250"/>
    <nd ref="258963156"/>
    <nd ref="620532856"/>
    <nd ref="50184530"/>
    <nd ref="50184532"/>
    <nd ref="620532861"/>
    <nd ref="50184533"/>
    <nd ref="50184536"/>
    <nd ref="1313055210"/>
    <nd ref="258963171"/>
    <nd ref="50184537"/>
    <nd ref="1313055195"/>
    <nd ref="50184540"/>
    <nd ref="258963172"/>
    <nd ref="258963175"/>
    <nd ref="50184541"/>
    <nd ref="258963174"/>
    <nd ref="50184544"/>
    <nd ref="258963173"/>
    <nd ref="50184545"/>
    <nd ref="50184546"/>
    <nd ref="50184547"/>
    <tag k="highway" v="residential"/>
    <tag k="maxspeed" v="50"/>
    <tag k="maxspeed:source" v="default residential speed limit in Australia"/>
    <tag k="name" v="The Gully Road"/>
    <tag k="source" v="survey"/>
  </way>
  <way id="6086807" version="3" timestamp="2010-10-11T21:37:30Z" uid="34428" user="usm78-gis" changeset="6016424">
    <nd ref="50185950"/>
    <nd ref="50185952"/>
    <nd ref="945430619"/>
    <nd ref="50185953"/>
    <nd ref="50185954"/>
    <nd ref="50185955"/>
    <nd ref="50185956"/>
    <nd ref="50185957"/>
    <nd ref="50185958"/>
    <nd ref="50185959"/>
    <nd ref="50185960"/>
    <nd ref="50185962"/>
    <nd ref="50185963"/>
    <nd ref="50185964"/>
    <nd ref="50185965"/>
    <nd ref="50185967"/>
    <nd ref="50185968"/>
    <nd ref="50185969"/>
    <nd ref="50185971"/>
    <nd ref="50185972"/>
    <nd ref="50185973"/>
    <nd ref="50185975"/>
    <nd ref="50185976"/>
    <nd ref="50185977"/>
    <nd ref="50185979"/>
    <nd ref="50178072"/>
    <nd ref="50185984"/>
    <nd ref="50185986"/>
    <nd ref="50185988"/>
    <tag k="access" v="private"/>
    <tag k="highway" v="residential"/>
    <tag k="tiger:cfcc" v="A41"/>
    <tag k="tiger:county" v="Prince George&apos;s, MD"/>
    <tag k="tiger:reviewed" v="no"/>
    <tag k="tiger:separated" v="no"/>
    <tag k="tiger:source" v="tiger_import_dch_v0.6_20070813"/>
    <tag k="tiger:tlid" v="76402039:76402040:76402532:76402533:76377658:76377659:76365256:76365257:76377657:76359093:76359094:76385163:76385164:76385165:76385166:76384468:76404610:76377326"/>
    <tag k="tiger:upload_uuid" v="bulk_upload.pl-5bf2b50d-2fe7-4a92-80c0-f26fa3f342dd"/>
  </way>
</osm>
