<?xml version='1.0' encoding='UTF-8'?>
<osm version="0.6" generator="libosmium/2.20.0">
  <way id="60872706" version="1" timestamp="2010-06-02T07:06:18Z" uid="4467" user="Rosscoe" changeset="4881380">
    <nd ref="761955606"/>
    <nd ref="761955706"/>
    <nd ref="761955608"/>
    <nd ref="761955625"/>
    <nd ref="761955629"/>
    <nd ref="761955619"/>
    <nd ref="761955623"/>
    <nd ref="761955612"/>
    <nd ref="761955611"/>
    <nd ref="761955627"/>
    <nd ref="761955605"/>
    <nd ref="761955622"/>
    <nd ref="761955626"/>
    <nd ref="761955617"/>
    <nd ref="761955621"/>
    <nd ref="761955610"/>
    <nd ref="761955620"/>
    <nd ref="761955609"/>
    <nd ref="761955616"/>
    <nd ref="761955630"/>
    <nd ref="761955607"/>
    <nd ref="761955624"/>
    <nd ref="761955628"/>
    <nd ref="761955618"/>
    <nd ref="761955606"/>
    <tag k="leisure" v="park"/>
    <tag k="source" v="nearmap"/>
  </way>
  <way id="60872760" version="2" timestamp="2010-11-26T18:49:07Z" uid="49111" user="Markus B" changeset="6464216">
    <nd ref="33343409"/>
    <nd ref="364149832"/>
    <nd ref="1005756479"/>
    <nd ref="761956015"/>
    <tag k="highway" v="service"/>
    <tag k="maxspeed" v="30"/>
    <tag k="name" v="Feuerstraße 31"/>
    <tag k="note" v="Die Nummer gehört zum Straßennamen"/>
  </way>
  <way id="60872829" version="2" timestamp="2010-12-30T16:39:39Z" uid="4467" user="Rosscoe" changeset="6811377">
    <nd ref="345097431"/>
    <nd ref="1073193528"/>
    <nd ref="1073193577"/>
    <nd ref="362085494"/>
    <nd ref="1073193376"/>
    <tag k="highway" v="residential"/>
    <tag k="name" v="Stanley Street"/>
    <tag k="oneway" v="yes"/>
    <tag k="source" v="nearmap"/>
  </way>
  <way id="60872921" version="1" timestamp="2010-06-02T07:24:02Z" uid="4467" user="Rosscoe" changeset="4881471">
    <nd ref="761957882"/>
    <nd ref="761958093"/>
    <nd ref="761957204"/>
    <tag k="highway" v="secondary"/>
    <tag k="name" v="Douglas Avenue"/>
    <tag k="oneway" v="yes"/>
    <tag k="source" v="nearmap"/>
  </way>
  <way id="60872922" version="1" timestamp="2010-06-02T07:24:07Z" uid="4467" user="Rosscoe" changeset="4881471">
    <nd ref="761958164"/>
    <nd ref="761957597"/>
    <nd ref="761957882"/>
    <tag k="highway" v="secondary"/>
    <tag k="name" v="Douglas Avenue"/>
    <tag k="oneway" v="yes"/>
    <tag k="source" v="nearmap"/>
  </way>
  <way id="60872922" version="2" timestamp="2010-06-11T01:52:31Z" uid="4467" user="Rosscoe" changeset="4959360">
    <nd ref="761958164"/>
    <nd ref="761957597"/>
    <nd ref="768959292"/>
    <nd ref="761957882"/>
    <tag k="highway" v="secondary"/>
    <tag k="name" v="Douglas Avenue"/>
    <tag k="oneway" v="yes"/>
    <tag k="source" v="nearmap"/>
  </way>
  <way id="60872924" version="1" timestamp="2010-06-02T07:24:08Z" uid="4467" user="Rosscoe" changeset="4881471">
    <nd ref="761957224"/>
    <nd ref="761957189"/>
    <nd ref="761958164"/>
    <tag k="cycleway" v="lane"/>
    <tag k="highway" v="secondary"/>
    <tag k="name" v="Douglas Avenue"/>
    <tag k="oneway" v="yes"/>
    <tag k="source" v="nearmap"/>
  </way>
  <way id="60872925" version="1" timestamp="2010-06-02T07:24:09Z" uid="4467" user="Rosscoe" changeset="4881471">
    <nd ref="761957204"/>
    <nd ref="761957640"/>
    <nd ref="33116553"/>
    <tag k="highway" v="secondary"/>
    <tag k="name" v="Douglas Avenue"/>
    <tag k="oneway" v="yes"/>
    <tag k="source" v="nearmap"/>
  </way>
  <way id="60872927" version="1" timestamp="2010-06-02T07:24:14Z" uid="4467" user="Rosscoe" changeset="4881471">
    <nd ref="761957244"/>
    <nd ref="761957224"/>
    <tag k="cycleway" v="lane"/>
    <tag k="highway" v="secondary"/>
    <tag k="name" v="Douglas Avenue"/>
    <tag k="oneway" v="yes"/>
    <tag k="source" v="nearmap"/>
  </way>
</osm>
