<?xml version='1.0' encoding='UTF-8'?>
<osm version="0.6" generator="libosmium/2.20.0">
  <way id="60946182" version="1" timestamp="2010-06-03T04:50:48Z" uid="4467" user="Rosscoe" changeset="4889412">
    <nd ref="762981180"/>
    <nd ref="762981178"/>
    <tag k="highway" v="trunk_link"/>
    <tag k="source" v="nearmap"/>
  </way>
  <way id="60946183" version="1" timestamp="2010-06-03T04:50:49Z" uid="4467" user="Rosscoe" changeset="4889412">
    <nd ref="762981179"/>
    <nd ref="762981191"/>
    <nd ref="681222597"/>
    <nd ref="32437100"/>
    <nd ref="762981193"/>
    <nd ref="762981180"/>
    <nd ref="82437283"/>
    <nd ref="762981177"/>
    <nd ref="762981189"/>
    <nd ref="762981197"/>
    <nd ref="32437102"/>
    <nd ref="762947018"/>
    <tag k="highway" v="trunk"/>
    <tag k="name" v="Bussell Highway"/>
    <tag k="oneway" v="yes"/>
    <tag k="ref" v="S10"/>
    <tag k="source" v="nearmap"/>
  </way>
  <way id="60946184" version="1" timestamp="2010-06-03T04:50:50Z" uid="4467" user="Rosscoe" changeset="4889412">
    <nd ref="762981176"/>
    <nd ref="82441717"/>
    <nd ref="762981195"/>
    <nd ref="82441718"/>
    <nd ref="82441719"/>
    <nd ref="681222892"/>
    <nd ref="82441720"/>
    <nd ref="681223307"/>
    <nd ref="82441722"/>
    <nd ref="82441723"/>
    <nd ref="82441724"/>
    <nd ref="82441725"/>
    <nd ref="82441726"/>
    <nd ref="82441728"/>
    <nd ref="82441729"/>
    <nd ref="82441730"/>
    <nd ref="82441731"/>
    <nd ref="762940401"/>
    <nd ref="82441734"/>
    <tag k="highway" v="trunk"/>
    <tag k="name" v="Bussell Highway"/>
    <tag k="oneway" v="yes"/>
    <tag k="ref" v="S10"/>
  </way>
  <way id="60946184" version="2" timestamp="2010-06-03T05:29:31Z" uid="4467" user="Rosscoe" changeset="4889486">
    <nd ref="762981176"/>
    <nd ref="82441717"/>
    <nd ref="762981195"/>
    <nd ref="82441718"/>
    <nd ref="762985103"/>
    <nd ref="762985119"/>
    <nd ref="681222892"/>
    <nd ref="82441720"/>
    <nd ref="762985124"/>
    <nd ref="762985091"/>
    <nd ref="681223307"/>
    <nd ref="762985079"/>
    <nd ref="82441723"/>
    <nd ref="762985085"/>
    <nd ref="762985107"/>
    <nd ref="762985087"/>
    <nd ref="762985111"/>
    <nd ref="762985108"/>
    <nd ref="762985123"/>
    <nd ref="762985122"/>
    <nd ref="762985086"/>
    <nd ref="762985110"/>
    <nd ref="762985125"/>
    <nd ref="762985127"/>
    <nd ref="762985116"/>
    <nd ref="762985090"/>
    <nd ref="762985109"/>
    <nd ref="762985126"/>
    <nd ref="82441730"/>
    <nd ref="762985088"/>
    <nd ref="762940401"/>
    <nd ref="82441734"/>
    <tag k="highway" v="trunk"/>
    <tag k="name" v="Bussell Highway"/>
    <tag k="oneway" v="yes"/>
    <tag k="ref" v="S10"/>
    <tag k="source" v="nearmap"/>
  </way>
  <way id="60946187" version="1" timestamp="2010-06-03T04:50:51Z" uid="4467" user="Rosscoe" changeset="4889412">
    <nd ref="762981194"/>
    <nd ref="762981176"/>
    <tag k="bridge" v="yes"/>
    <tag k="highway" v="trunk"/>
    <tag k="layer" v="1"/>
    <tag k="name" v="Bussell Highway"/>
    <tag k="oneway" v="yes"/>
    <tag k="ref" v="S10"/>
    <tag k="source" v="nearmap"/>
  </way>
  <way id="60946189" version="1" timestamp="2010-06-03T04:50:52Z" uid="4467" user="Rosscoe" changeset="4889412">
    <nd ref="762981190"/>
    <nd ref="762981179"/>
    <tag k="bridge" v="yes"/>
    <tag k="highway" v="trunk"/>
    <tag k="layer" v="1"/>
    <tag k="name" v="Bussell Highway"/>
    <tag k="oneway" v="yes"/>
    <tag k="ref" v="S10"/>
    <tag k="source" v="nearmap"/>
  </way>
  <way id="60946255" version="2" timestamp="2010-06-29T19:05:28Z" uid="74617" user="JohnSmith" changeset="5108182">
    <nd ref="762983665"/>
    <nd ref="762983666"/>
    <nd ref="762983667"/>
    <nd ref="762983668"/>
    <nd ref="762983665"/>
    <tag k="fixme" v="sport=football is ambiguous, see http://wiki.osm.org/wiki/Football for more details"/>
    <tag k="sport" v="football"/>
  </way>
  <way id="60946487" version="1" timestamp="2010-06-03T05:29:27Z" uid="4467" user="Rosscoe" changeset="4889486">
    <nd ref="762985113"/>
    <nd ref="762985088"/>
    <tag k="highway" v="trunk_link"/>
    <tag k="source" v="nearmap"/>
  </way>
  <way id="60946488" version="1" timestamp="2010-06-03T05:29:27Z" uid="6269" user="Mueck" changeset="4889463">
    <nd ref="762985101"/>
    <nd ref="762985129"/>
    <tag k="highway" v="steps"/>
  </way>
  <way id="60946488" version="2" timestamp="2010-06-03T05:29:40Z" uid="6269" user="Mueck" changeset="4889463">
    <nd ref="762985101"/>
    <nd ref="762985129"/>
    <tag k="highway" v="footway"/>
  </way>
  <way id="60946489" version="1" timestamp="2010-06-03T05:29:28Z" uid="4467" user="Rosscoe" changeset="4889486">
    <nd ref="762985121"/>
    <nd ref="762985111"/>
    <tag k="highway" v="trunk_link"/>
    <tag k="source" v="nearmap"/>
  </way>
  <way id="60946490" version="1" timestamp="2010-06-03T05:29:29Z" uid="4467" user="Rosscoe" changeset="4889486">
    <nd ref="762985110"/>
    <nd ref="762985104"/>
    <tag k="highway" v="trunk_link"/>
    <tag k="source" v="nearmap"/>
  </way>
  <way id="60946578" version="1" timestamp="2010-06-03T05:42:17Z" uid="6269" user="Mueck" changeset="4889514">
    <nd ref="412410"/>
    <nd ref="341930984"/>
    <nd ref="341930981"/>
    <nd ref="341930979"/>
    <nd ref="341930975"/>
    <nd ref="17716562"/>
    <nd ref="31100645"/>
    <nd ref="14795525"/>
    <nd ref="15520046"/>
    <nd ref="15520057"/>
    <tag k="cycleway" v="track"/>
    <tag k="highway" v="primary"/>
    <tag k="name" v="Reinhold-Frank-Straße"/>
    <tag k="note" v="im SHP des NVK: I"/>
  </way>
  <way id="60946578" version="2" timestamp="2010-06-03T05:42:50Z" uid="6269" user="Mueck" changeset="4889514">
    <nd ref="15520057"/>
    <nd ref="15520046"/>
    <nd ref="14795525"/>
    <nd ref="31100645"/>
    <nd ref="17716562"/>
    <nd ref="341930975"/>
    <nd ref="341930979"/>
    <nd ref="341930981"/>
    <nd ref="341930984"/>
    <nd ref="412410"/>
    <tag k="cycleway" v="track"/>
    <tag k="hgv" v="destination"/>
    <tag k="highway" v="primary"/>
    <tag k="name" v="Reinhold-Frank-Straße"/>
    <tag k="note" v="im SHP des NVK: I"/>
    <tag k="oneway" v="yes"/>
  </way>
  <way id="60946578" version="5" timestamp="2011-04-12T16:40:43Z" uid="6269" user="Mueck" changeset="7844317">
    <nd ref="15520057"/>
    <nd ref="15520046"/>
    <nd ref="14795525"/>
    <nd ref="31100645"/>
    <nd ref="17716562"/>
    <nd ref="341930975"/>
    <nd ref="341930979"/>
    <nd ref="990930824"/>
    <nd ref="341930981"/>
    <nd ref="341930984"/>
    <nd ref="412410"/>
    <tag k="cycleway" v="track"/>
    <tag k="hgv" v="destination"/>
    <tag k="highway" v="primary"/>
    <tag k="name" v="Reinhold-Frank-Straße"/>
    <tag k="note" v="im SHP des NVK: I"/>
  </way>
  <way id="60946579" version="3" timestamp="2010-06-16T21:09:56Z" uid="49111" user="Markus B" changeset="5004458">
    <nd ref="762990375"/>
    <nd ref="762990373"/>
    <nd ref="762990370"/>
    <nd ref="762990369"/>
    <nd ref="762990376"/>
    <nd ref="762990374"/>
    <nd ref="762990372"/>
    <nd ref="762990371"/>
    <nd ref="762990377"/>
    <nd ref="762990368"/>
    <nd ref="762990375"/>
    <tag k="addr:city" v="Schnaittach"/>
    <tag k="addr:country" v="DE"/>
    <tag k="addr:housenumber" v="40"/>
    <tag k="addr:postcode" v="91220"/>
    <tag k="addr:street" v="Badsraße"/>
    <tag k="building" v="yes"/>
    <tag k="name" v="Gasthaus zur Linde"/>
  </way>
  <way id="60946718" version="3" timestamp="2010-06-10T06:10:37Z" uid="4467" user="Rosscoe" changeset="4951300">
    <nd ref="271836904"/>
    <nd ref="271836905"/>
    <nd ref="271836906"/>
    <nd ref="271836907"/>
    <nd ref="271836908"/>
    <nd ref="271836909"/>
    <nd ref="646206633"/>
    <nd ref="271837509"/>
    <nd ref="271837595"/>
    <nd ref="271836910"/>
    <nd ref="271836911"/>
    <nd ref="271836912"/>
    <nd ref="271836913"/>
    <nd ref="271836914"/>
    <nd ref="271837674"/>
    <nd ref="271836915"/>
    <nd ref="271836916"/>
    <nd ref="645801834"/>
    <tag k="highway" v="tertiary"/>
    <tag k="name" v="Townsend Road"/>
  </way>
  <way id="60946939" version="2" timestamp="2010-07-09T06:59:37Z" uid="74617" user="JohnSmith" changeset="5171412">
    <nd ref="645801862"/>
    <nd ref="646206434"/>
    <nd ref="646206432"/>
    <tag k="highway" v="residential"/>
    <tag k="maxspeed" v="50"/>
    <tag k="maxspeed:source" v="default residential speed limit in Australia"/>
  </way>
</osm>
