<?xml version='1.0' encoding='UTF-8'?>
<osm version="0.6" generator="libosmium/2.20.0">
  <way id="60947083" version="3" timestamp="2010-08-02T12:03:37Z" uid="49111" user="Markus B" changeset="5379889">
    <nd ref="762993823"/>
    <nd ref="762993728"/>
    <nd ref="762993717"/>
    <nd ref="762993629"/>
    <nd ref="762993823"/>
    <tag k="addr:housenumber" v="26"/>
    <tag k="amenity" v="restaurant"/>
    <tag k="building" v="yes"/>
    <tag k="cuisine" v="italian"/>
    <tag k="name" v="Rothenberger Hof"/>
    <tag k="smoking" v="no"/>
  </way>
  <way id="60947086" version="4" timestamp="2010-08-08T17:55:52Z" uid="49111" user="Markus B" changeset="5435776">
    <nd ref="306963887"/>
    <nd ref="762993720"/>
    <nd ref="762993620"/>
    <nd ref="306963885"/>
    <nd ref="306963887"/>
    <tag k="addr:city" v="Schnaittach"/>
    <tag k="addr:country" v="DE"/>
    <tag k="addr:housenumber" v="20"/>
    <tag k="addr:postcode" v="91220"/>
    <tag k="addr:street" v="Bahnhofstraße"/>
    <tag k="amenity" v="cafe"/>
    <tag k="building" v="yes"/>
    <tag k="cuisine" v="ice_cream"/>
    <tag k="name" v="Eiscafe Toni"/>
    <tag k="opening_hours" v="Mo-Sa 11:00-22:00; So 11:30-22:00"/>
    <tag k="phone" v="+49 175 4124671"/>
    <tag k="smoking" v="no"/>
  </way>
  <way id="60947090" version="2" timestamp="2010-06-17T11:03:26Z" uid="49111" user="Markus B" changeset="5007839">
    <nd ref="762993814"/>
    <nd ref="762993807"/>
    <nd ref="762993795"/>
    <nd ref="762993723"/>
    <nd ref="762993785"/>
    <nd ref="762993829"/>
    <nd ref="762993682"/>
    <nd ref="762993814"/>
    <tag k="addr:city" v="Schnaittach"/>
    <tag k="addr:country" v="DE"/>
    <tag k="addr:housenumber" v="1"/>
    <tag k="addr:postcode" v="91220"/>
    <tag k="addr:street" v="Fröschau"/>
    <tag k="building" v="yes"/>
    <tag k="name" v="Hotel Gasthof Kampfer"/>
    <tag k="phone" v="09153-929213"/>
    <tag k="smoking" v="separated"/>
    <tag k="tourism" v="hotel"/>
    <tag k="website" v="http://hotel-gasthof-kampfer.de"/>
  </way>
  <way id="60947090" version="3" timestamp="2010-06-26T21:42:50Z" uid="49111" user="Markus B" changeset="5084724">
    <nd ref="762993814"/>
    <nd ref="762993807"/>
    <nd ref="762993795"/>
    <nd ref="762993723"/>
    <nd ref="762993785"/>
    <nd ref="762993829"/>
    <nd ref="762993682"/>
    <nd ref="762993814"/>
    <tag k="addr:city" v="Schnaittach"/>
    <tag k="addr:country" v="DE"/>
    <tag k="addr:housenumber" v="1"/>
    <tag k="addr:postcode" v="91220"/>
    <tag k="addr:street" v="Fröschau"/>
    <tag k="building" v="yes"/>
    <tag k="name" v="Hotel Gasthof Kampfer"/>
    <tag k="phone" v="+40-9153-929213"/>
    <tag k="smoking" v="separated"/>
    <tag k="tourism" v="hotel"/>
    <tag k="website" v="http://hotel-gasthof-kampfer.de"/>
  </way>
  <way id="60947090" version="4" timestamp="2010-08-31T06:55:05Z" uid="49111" user="Markus B" changeset="5642694">
    <nd ref="762993814"/>
    <nd ref="762993807"/>
    <nd ref="762993795"/>
    <nd ref="762993723"/>
    <nd ref="762993785"/>
    <nd ref="762993829"/>
    <nd ref="762993682"/>
    <nd ref="762993814"/>
    <tag k="addr:city" v="Schnaittach"/>
    <tag k="addr:country" v="DE"/>
    <tag k="addr:housenumber" v="1"/>
    <tag k="addr:postcode" v="91220"/>
    <tag k="addr:street" v="Fröschau"/>
    <tag k="building" v="yes"/>
    <tag k="name" v="Hotel Gasthof Kampfer"/>
    <tag k="phone" v="+40-9153-929213"/>
    <tag k="smoking" v="no"/>
    <tag k="tourism" v="hotel"/>
    <tag k="website" v="http://hotel-gasthof-kampfer.de"/>
  </way>
  <way id="60947094" version="2" timestamp="2010-06-17T10:13:28Z" uid="49111" user="Markus B" changeset="5007582">
    <nd ref="762993708"/>
    <nd ref="762993765"/>
    <nd ref="762993639"/>
    <nd ref="762993627"/>
    <nd ref="762993810"/>
    <nd ref="762993800"/>
    <nd ref="762993726"/>
    <nd ref="762993718"/>
    <nd ref="762993820"/>
    <nd ref="762993708"/>
    <tag k="addr:city" v="Schnaittach"/>
    <tag k="addr:country" v="DE"/>
    <tag k="addr:housenumber" v="22"/>
    <tag k="addr:postcode" v="91220"/>
    <tag k="addr:street" v="Bahnhofstraße"/>
    <tag k="amenity" v="fast_food"/>
    <tag k="building" v="yes"/>
    <tag k="cuisine" v="italian"/>
    <tag k="name" v="Franco"/>
    <tag k="phone" v="09153-924948"/>
  </way>
  <way id="60947094" version="3" timestamp="2010-06-17T19:17:02Z" uid="49111" user="Markus B" changeset="5011460">
    <nd ref="762993708"/>
    <nd ref="762993765"/>
    <nd ref="762993639"/>
    <nd ref="762993627"/>
    <nd ref="762993810"/>
    <nd ref="762993800"/>
    <nd ref="762993726"/>
    <nd ref="762993718"/>
    <nd ref="762993820"/>
    <nd ref="762993708"/>
    <tag k="addr:city" v="Schnaittach"/>
    <tag k="addr:country" v="DE"/>
    <tag k="addr:housenumber" v="25"/>
    <tag k="addr:postcode" v="91220"/>
    <tag k="addr:street" v="Bahnhofstraße"/>
    <tag k="amenity" v="fast_food"/>
    <tag k="building" v="yes"/>
    <tag k="cuisine" v="italian"/>
    <tag k="name" v="Franco"/>
    <tag k="phone" v="09153-924948"/>
  </way>
  <way id="60947094" version="4" timestamp="2010-08-02T12:03:38Z" uid="49111" user="Markus B" changeset="5379889">
    <nd ref="762993708"/>
    <nd ref="762993765"/>
    <nd ref="762993639"/>
    <nd ref="762993627"/>
    <nd ref="762993810"/>
    <nd ref="762993800"/>
    <nd ref="762993726"/>
    <nd ref="762993718"/>
    <nd ref="762993820"/>
    <nd ref="762993708"/>
    <tag k="addr:city" v="Schnaittach"/>
    <tag k="addr:country" v="DE"/>
    <tag k="addr:housenumber" v="25"/>
    <tag k="addr:postcode" v="91220"/>
    <tag k="addr:street" v="Bahnhofstraße"/>
    <tag k="amenity" v="fast_food"/>
    <tag k="building" v="yes"/>
    <tag k="cuisine" v="italian"/>
    <tag k="name" v="Franco"/>
    <tag k="phone" v="09153-924948"/>
    <tag k="smoking" v="no"/>
  </way>
  <way id="60947097" version="2" timestamp="2010-06-17T19:16:58Z" uid="49111" user="Markus B" changeset="5011460">
    <nd ref="392740396"/>
    <nd ref="762993774"/>
    <nd ref="762993729"/>
    <nd ref="762993630"/>
    <nd ref="392740396"/>
    <tag k="amenity" v="pub"/>
    <tag k="building" v="yes"/>
    <tag k="name" v="Cafe Mozart"/>
    <tag k="smoking" v="yes"/>
    <tag k="smoking:outside" v="yes"/>
  </way>
  <way id="60947097" version="3" timestamp="2010-08-02T12:03:36Z" uid="49111" user="Markus B" changeset="5379889">
    <nd ref="392740396"/>
    <nd ref="762993774"/>
    <nd ref="762993729"/>
    <nd ref="762993630"/>
    <nd ref="392740396"/>
    <tag k="addr:city" v="Schnaittach"/>
    <tag k="addr:country" v="DE"/>
    <tag k="addr:postcode" v="91220"/>
    <tag k="addr:street" v="Marktplatz"/>
    <tag k="amenity" v="pub"/>
    <tag k="building" v="yes"/>
    <tag k="name" v="Cafe Mozart"/>
    <tag k="phone" v="+49 9153 8702"/>
    <tag k="smoking" v="yes"/>
    <tag k="smoking:outside" v="yes"/>
  </way>
  <way id="60947101" version="2" timestamp="2010-06-17T19:17:01Z" uid="49111" user="Markus B" changeset="5011460">
    <nd ref="392740391"/>
    <nd ref="762993808"/>
    <nd ref="762993757"/>
    <nd ref="762993724"/>
    <nd ref="392740392"/>
    <nd ref="392740391"/>
    <tag k="addr:city" v="Schnaittach"/>
    <tag k="addr:country" v="DE"/>
    <tag k="addr:housenumber" v="17"/>
    <tag k="addr:postcode" v="91220"/>
    <tag k="addr:street" v="Marktplatz"/>
    <tag k="building" v="yes"/>
    <tag k="shop" v="florist"/>
  </way>
  <way id="60947110" version="2" timestamp="2010-06-17T19:17:01Z" uid="49111" user="Markus B" changeset="5011460">
    <nd ref="762993789"/>
    <nd ref="762993725"/>
    <nd ref="762993626"/>
    <nd ref="762993840"/>
    <nd ref="762993621"/>
    <nd ref="762993789"/>
    <tag k="addr:city" v="Schnaittach"/>
    <tag k="addr:country" v="DE"/>
    <tag k="addr:housenumber" v="13"/>
    <tag k="addr:postcode" v="91220"/>
    <tag k="addr:street" v="Marktplatz"/>
    <tag k="building" v="yes"/>
  </way>
  <way id="60947112" version="2" timestamp="2010-06-17T19:16:58Z" uid="49111" user="Markus B" changeset="5011460">
    <nd ref="762993774"/>
    <nd ref="392740375"/>
    <nd ref="762993778"/>
    <nd ref="762993743"/>
    <nd ref="762993729"/>
    <nd ref="762993774"/>
    <tag k="addr:city" v="Schnaittach"/>
    <tag k="addr:country" v="DE"/>
    <tag k="addr:housenumber" v="8"/>
    <tag k="addr:postcode" v="91220"/>
    <tag k="addr:street" v="Marktplatz"/>
    <tag k="building" v="yes"/>
    <tag k="name" v="Barcelona"/>
  </way>
  <way id="60947114" version="2" timestamp="2010-06-17T11:03:26Z" uid="49111" user="Markus B" changeset="5007839">
    <nd ref="762993804"/>
    <nd ref="762993827"/>
    <nd ref="762993814"/>
    <nd ref="762993682"/>
    <nd ref="762993776"/>
    <nd ref="762993804"/>
    <tag k="addr:city" v="Schnaittach"/>
    <tag k="addr:country" v="DE"/>
    <tag k="addr:housenumber" v="1"/>
    <tag k="addr:postcode" v="91220"/>
    <tag k="addr:street" v="Fröschau"/>
    <tag k="amenity" v="restaurant"/>
    <tag k="building" v="yes"/>
    <tag k="cuisine" v="german"/>
    <tag k="name" v="Hotel Gasthof Kampfer"/>
    <tag k="phone" v="09153-929213"/>
    <tag k="smoking" v="separated"/>
    <tag k="smoking:outside" v="yes"/>
  </way>
  <way id="60947114" version="3" timestamp="2010-08-31T06:55:04Z" uid="49111" user="Markus B" changeset="5642694">
    <nd ref="762993804"/>
    <nd ref="762993827"/>
    <nd ref="762993814"/>
    <nd ref="762993682"/>
    <nd ref="762993776"/>
    <nd ref="762993804"/>
    <tag k="addr:city" v="Schnaittach"/>
    <tag k="addr:country" v="DE"/>
    <tag k="addr:housenumber" v="1"/>
    <tag k="addr:postcode" v="91220"/>
    <tag k="addr:street" v="Fröschau"/>
    <tag k="amenity" v="restaurant"/>
    <tag k="building" v="yes"/>
    <tag k="cuisine" v="german"/>
    <tag k="name" v="Hotel Gasthof Kampfer"/>
    <tag k="phone" v="09153-929213"/>
    <tag k="smoking" v="no"/>
    <tag k="smoking:outside" v="yes"/>
  </way>
  <way id="60947116" version="2" timestamp="2010-06-17T19:17:01Z" uid="49111" user="Markus B" changeset="5011460">
    <nd ref="762993784"/>
    <nd ref="762993721"/>
    <nd ref="762993621"/>
    <nd ref="762993840"/>
    <nd ref="762993784"/>
    <tag k="addr:city" v="Schnaittach"/>
    <tag k="addr:country" v="DE"/>
    <tag k="addr:housenumber" v="11"/>
    <tag k="addr:postcode" v="91220"/>
    <tag k="addr:street" v="Marktplatz"/>
    <tag k="building" v="yes"/>
    <tag k="name" v="Schlecker"/>
    <tag k="shop" v="supermarket"/>
  </way>
  <way id="60947336" version="2" timestamp="2010-06-17T10:13:29Z" uid="49111" user="Markus B" changeset="5007582">
    <nd ref="762996172"/>
    <nd ref="762996100"/>
    <nd ref="762996159"/>
    <nd ref="762996107"/>
    <nd ref="762996172"/>
    <tag k="addr:city" v="Schnaittach"/>
    <tag k="addr:country" v="DE"/>
    <tag k="addr:housenumber" v="10"/>
    <tag k="addr:postcode" v="91220"/>
    <tag k="addr:street" v="Mühlgasse"/>
    <tag k="amenity" v="restaurant"/>
    <tag k="cuisine" v="italian"/>
    <tag k="name" v="Pizzeria La Rustica - Zum Simmer"/>
    <tag k="opening_hours" v="Di off"/>
    <tag k="phone" v="09153-970848"/>
    <tag k="smoking" v="separated"/>
    <tag k="smoking:outside" v="yes"/>
  </way>
  <way id="60947336" version="3" timestamp="2010-06-17T10:39:39Z" uid="49111" user="Markus B" changeset="5007701">
    <nd ref="762996172"/>
    <nd ref="762996100"/>
    <nd ref="762996159"/>
    <nd ref="762996107"/>
    <nd ref="762996172"/>
    <tag k="addr:city" v="Schnaittach"/>
    <tag k="addr:country" v="DE"/>
    <tag k="addr:housenumber" v="10"/>
    <tag k="addr:postcode" v="91220"/>
    <tag k="addr:street" v="Mühlgasse"/>
    <tag k="amenity" v="restaurant"/>
    <tag k="building" v="yes"/>
    <tag k="cuisine" v="italian"/>
    <tag k="name" v="Pizzeria La Rustica - Zum Simmer"/>
    <tag k="opening_hours" v="Di off"/>
    <tag k="phone" v="09153-970848"/>
    <tag k="smoking" v="separated"/>
    <tag k="smoking:outside" v="yes"/>
  </way>
  <way id="60947336" version="4" timestamp="2010-08-02T12:19:31Z" uid="49111" user="Markus B" changeset="5380034">
    <nd ref="762996172"/>
    <nd ref="762996100"/>
    <nd ref="762996159"/>
    <nd ref="762996107"/>
    <nd ref="762996172"/>
    <tag k="addr:city" v="Schnaittach"/>
    <tag k="addr:country" v="DE"/>
    <tag k="addr:housenumber" v="10"/>
    <tag k="addr:postcode" v="91220"/>
    <tag k="addr:street" v="Mühlgasse"/>
    <tag k="amenity" v="restaurant"/>
    <tag k="building" v="yes"/>
    <tag k="cuisine" v="italian"/>
    <tag k="name" v="Pizzeria La Rustica - Zum Simmer"/>
    <tag k="opening_hours" v="Di off"/>
    <tag k="phone" v="09153-970848"/>
    <tag k="smoking" v="no"/>
    <tag k="smoking:outside" v="yes"/>
  </way>
  <way id="60947341" version="2" timestamp="2010-06-18T15:42:55Z" uid="49111" user="Markus B" changeset="5017235">
    <nd ref="762996130"/>
    <nd ref="762996141"/>
    <nd ref="762996160"/>
    <nd ref="762996136"/>
    <nd ref="762996128"/>
    <nd ref="762996102"/>
    <nd ref="762996130"/>
    <tag k="building" v="yes"/>
  </way>
  <way id="60947344" version="2" timestamp="2010-06-16T21:09:58Z" uid="49111" user="Markus B" changeset="5004458">
    <nd ref="762996117"/>
    <nd ref="762996097"/>
    <nd ref="762996166"/>
    <nd ref="762996132"/>
    <nd ref="762996121"/>
    <nd ref="762996188"/>
    <nd ref="762996176"/>
    <nd ref="762996144"/>
    <nd ref="762996117"/>
    <tag k="addr:housenumber" v="3"/>
    <tag k="building" v="yes"/>
    <tag k="name" v="Bräustüberl zur Kanone"/>
  </way>
  <way id="60947452" version="1" timestamp="2010-06-03T06:41:53Z" uid="4467" user="Rosscoe" changeset="4889695">
    <nd ref="82437287"/>
    <nd ref="82441702"/>
    <tag k="highway" v="trunk_link"/>
    <tag k="source" v="nearmap"/>
  </way>
  <way id="60947452" version="2" timestamp="2010-06-03T08:00:33Z" uid="4467" user="Rosscoe" changeset="4890088">
    <nd ref="82437287"/>
    <nd ref="82441702"/>
    <tag k="highway" v="trunk_link"/>
    <tag k="source" v="nearmap"/>
  </way>
  <way id="60947452" version="3" timestamp="2010-06-03T08:10:13Z" uid="4467" user="Rosscoe" changeset="4890088">
    <nd ref="82437287"/>
    <nd ref="82441702"/>
    <tag k="highway" v="trunk_link"/>
    <tag k="source" v="nearmap"/>
  </way>
  <way id="60947534" version="1" timestamp="2010-06-03T06:48:07Z" uid="30201" user="rrankin" changeset="4889718">
    <nd ref="762999329"/>
    <nd ref="762999322"/>
    <nd ref="762999330"/>
    <nd ref="762999320"/>
    <nd ref="762999329"/>
    <tag k="leisure" v="pitch"/>
  </way>
  <way id="60947535" version="1" timestamp="2010-06-03T06:48:07Z" uid="30201" user="rrankin" changeset="4889718">
    <nd ref="762999323"/>
    <nd ref="25939684"/>
    <tag k="bridge" v="yes"/>
    <tag k="highway" v="secondary"/>
    <tag k="is_in" v="Morisset, Lake Macquarie, NSW, New South Wales, Australia"/>
    <tag k="layer" v="1"/>
    <tag k="maxspeed" v="50"/>
    <tag k="name" v="Dora Street"/>
  </way>
  <way id="60947536" version="1" timestamp="2010-06-03T06:48:07Z" uid="30201" user="rrankin" changeset="4889718">
    <nd ref="348041988"/>
    <nd ref="348041989"/>
    <tag k="bridge" v="yes"/>
    <tag k="highway" v="residential"/>
    <tag k="layer" v="1"/>
  </way>
  <way id="60947536" version="2" timestamp="2010-07-08T03:37:05Z" uid="74617" user="JohnSmith" changeset="5163091">
    <nd ref="348041988"/>
    <nd ref="348041989"/>
    <tag k="bridge" v="yes"/>
    <tag k="highway" v="residential"/>
    <tag k="layer" v="1"/>
    <tag k="maxspeed" v="50"/>
    <tag k="maxspeed:source" v="default residential speed limit in Australia"/>
  </way>
  <way id="60947537" version="1" timestamp="2010-06-03T06:48:07Z" uid="30201" user="rrankin" changeset="4889718">
    <nd ref="762999336"/>
    <nd ref="762999327"/>
    <nd ref="762999337"/>
    <nd ref="762999324"/>
    <nd ref="762999331"/>
    <nd ref="762999336"/>
    <tag k="amenity" v="parking"/>
  </way>
  <way id="60947538" version="1" timestamp="2010-06-03T06:48:07Z" uid="30201" user="rrankin" changeset="4889718">
    <nd ref="762999332"/>
    <nd ref="335028466"/>
    <tag k="bridge" v="yes"/>
    <tag k="highway" v="secondary"/>
    <tag k="layer" v="1"/>
    <tag k="name" v="Ruttleys Road"/>
  </way>
  <way id="60947539" version="1" timestamp="2010-06-03T06:48:07Z" uid="30201" user="rrankin" changeset="4889718">
    <nd ref="348041989"/>
    <nd ref="348041990"/>
    <nd ref="348041991"/>
    <nd ref="348041992"/>
    <nd ref="348041993"/>
    <nd ref="348041994"/>
    <nd ref="348041995"/>
    <tag k="highway" v="residential"/>
  </way>
  <way id="60947539" version="2" timestamp="2010-07-08T03:40:14Z" uid="74617" user="JohnSmith" changeset="5163091">
    <nd ref="348041989"/>
    <nd ref="348041990"/>
    <nd ref="348041991"/>
    <nd ref="348041992"/>
    <nd ref="348041993"/>
    <nd ref="348041994"/>
    <nd ref="348041995"/>
    <tag k="highway" v="residential"/>
    <tag k="maxspeed" v="50"/>
    <tag k="maxspeed:source" v="default residential speed limit in Australia"/>
  </way>
  <way id="60947540" version="1" timestamp="2010-06-03T06:48:07Z" uid="30201" user="rrankin" changeset="4889718">
    <nd ref="348094136"/>
    <nd ref="348094137"/>
    <tag k="highway" v="service"/>
  </way>
  <way id="60947541" version="1" timestamp="2010-06-03T06:48:07Z" uid="30201" user="rrankin" changeset="4889718">
    <nd ref="335028466"/>
    <nd ref="34135423"/>
    <nd ref="762999338"/>
    <nd ref="335028436"/>
    <nd ref="335028430"/>
    <nd ref="335028429"/>
    <nd ref="34135426"/>
    <nd ref="335028479"/>
    <nd ref="335028475"/>
    <nd ref="335028470"/>
    <nd ref="30280084"/>
    <tag k="highway" v="secondary"/>
    <tag k="name" v="Ruttleys Road"/>
  </way>
  <way id="60947542" version="1" timestamp="2010-06-03T06:48:07Z" uid="30201" user="rrankin" changeset="4889718">
    <nd ref="762999319"/>
    <nd ref="762999326"/>
    <nd ref="762999335"/>
    <tag k="highway" v="service"/>
    <tag k="source" v="nearmap"/>
  </way>
  <way id="60947543" version="1" timestamp="2010-06-03T06:48:08Z" uid="30201" user="rrankin" changeset="4889718">
    <nd ref="348041946"/>
    <nd ref="348041947"/>
    <tag k="bridge" v="yes"/>
    <tag k="highway" v="residential"/>
    <tag k="layer" v="1"/>
  </way>
  <way id="60947543" version="2" timestamp="2010-07-08T03:39:36Z" uid="74617" user="JohnSmith" changeset="5163091">
    <nd ref="348041946"/>
    <nd ref="348041947"/>
    <tag k="bridge" v="yes"/>
    <tag k="highway" v="residential"/>
    <tag k="layer" v="1"/>
    <tag k="maxspeed" v="50"/>
    <tag k="maxspeed:source" v="default residential speed limit in Australia"/>
  </way>
  <way id="60947544" version="1" timestamp="2010-06-03T06:48:08Z" uid="30201" user="rrankin" changeset="4889718">
    <nd ref="762999325"/>
    <nd ref="762999333"/>
    <tag k="highway" v="service"/>
    <tag k="source" v="nearmap"/>
  </way>
  <way id="60947545" version="1" timestamp="2010-06-03T06:48:08Z" uid="30201" user="rrankin" changeset="4889718">
    <nd ref="50615387"/>
    <nd ref="50615399"/>
    <tag k="layer" v="-1"/>
    <tag k="source" v="yahoo"/>
    <tag k="waterway" v="stream"/>
  </way>
  <way id="60947546" version="1" timestamp="2010-06-03T06:48:08Z" uid="30201" user="rrankin" changeset="4889718">
    <nd ref="50615399"/>
    <nd ref="50615405"/>
    <nd ref="50615416"/>
    <nd ref="50615426"/>
    <nd ref="50615430"/>
    <nd ref="50615436"/>
    <nd ref="50615447"/>
    <nd ref="50615454"/>
    <nd ref="50615460"/>
    <nd ref="50615470"/>
    <nd ref="50615478"/>
    <tag k="source" v="yahoo"/>
    <tag k="waterway" v="stream"/>
  </way>
  <way id="60947547" version="1" timestamp="2010-06-03T06:48:08Z" uid="30201" user="rrankin" changeset="4889718">
    <nd ref="348041947"/>
    <nd ref="348041948"/>
    <nd ref="348041949"/>
    <nd ref="348041950"/>
    <nd ref="348041951"/>
    <nd ref="348041952"/>
    <nd ref="348041953"/>
    <nd ref="348041954"/>
    <nd ref="348041955"/>
    <nd ref="348041956"/>
    <nd ref="348041957"/>
    <nd ref="348041958"/>
    <nd ref="348041959"/>
    <nd ref="348041960"/>
    <nd ref="348041961"/>
    <nd ref="348041962"/>
    <nd ref="348041963"/>
    <nd ref="348041964"/>
    <nd ref="348041965"/>
    <nd ref="348041966"/>
    <nd ref="348041967"/>
    <nd ref="348041968"/>
    <nd ref="348041969"/>
    <nd ref="348041970"/>
    <nd ref="348041971"/>
    <nd ref="348041972"/>
    <nd ref="348041973"/>
    <nd ref="348041974"/>
    <nd ref="348041975"/>
    <nd ref="348041976"/>
    <nd ref="348041977"/>
    <nd ref="348041978"/>
    <nd ref="348041979"/>
    <nd ref="348041980"/>
    <nd ref="348041981"/>
    <nd ref="348041982"/>
    <nd ref="348041983"/>
    <nd ref="348041984"/>
    <tag k="highway" v="residential"/>
  </way>
  <way id="60947547" version="2" timestamp="2010-07-08T03:39:02Z" uid="74617" user="JohnSmith" changeset="5163091">
    <nd ref="348041947"/>
    <nd ref="348041948"/>
    <nd ref="348041949"/>
    <nd ref="348041950"/>
    <nd ref="348041951"/>
    <nd ref="348041952"/>
    <nd ref="348041953"/>
    <nd ref="348041954"/>
    <nd ref="348041955"/>
    <nd ref="348041956"/>
    <nd ref="348041957"/>
    <nd ref="348041958"/>
    <nd ref="348041959"/>
    <nd ref="348041960"/>
    <nd ref="348041961"/>
    <nd ref="348041962"/>
    <nd ref="348041963"/>
    <nd ref="348041964"/>
    <nd ref="348041965"/>
    <nd ref="348041966"/>
    <nd ref="348041967"/>
    <nd ref="348041968"/>
    <nd ref="348041969"/>
    <nd ref="348041970"/>
    <nd ref="348041971"/>
    <nd ref="348041972"/>
    <nd ref="348041973"/>
    <nd ref="348041974"/>
    <nd ref="348041975"/>
    <nd ref="348041976"/>
    <nd ref="348041977"/>
    <nd ref="348041978"/>
    <nd ref="348041979"/>
    <nd ref="348041980"/>
    <nd ref="348041981"/>
    <nd ref="348041982"/>
    <nd ref="348041983"/>
    <nd ref="348041984"/>
    <tag k="highway" v="residential"/>
    <tag k="maxspeed" v="50"/>
    <tag k="maxspeed:source" v="default residential speed limit in Australia"/>
  </way>
  <way id="60947548" version="1" timestamp="2010-06-03T06:48:08Z" uid="30201" user="rrankin" changeset="4889718">
    <nd ref="762999334"/>
    <nd ref="762999321"/>
    <nd ref="762999328"/>
    <tag k="highway" v="residential"/>
    <tag k="source" v="nearmap"/>
  </way>
  <way id="60947548" version="2" timestamp="2010-07-08T03:39:16Z" uid="74617" user="JohnSmith" changeset="5163091">
    <nd ref="762999334"/>
    <nd ref="762999321"/>
    <nd ref="762999328"/>
    <tag k="highway" v="residential"/>
    <tag k="maxspeed" v="50"/>
    <tag k="maxspeed:source" v="default residential speed limit in Australia"/>
    <tag k="source" v="nearmap"/>
  </way>
  <way id="60947575" version="1" timestamp="2010-06-03T06:55:05Z" uid="6269" user="Mueck" changeset="4889721">
    <nd ref="762999858"/>
    <nd ref="762999859"/>
    <nd ref="762999860"/>
    <nd ref="762999861"/>
    <nd ref="762999862"/>
    <nd ref="762999863"/>
    <nd ref="762999864"/>
    <nd ref="762999865"/>
    <nd ref="762999866"/>
    <nd ref="762999867"/>
    <nd ref="762999868"/>
    <nd ref="762999869"/>
    <nd ref="762999870"/>
    <nd ref="762999871"/>
    <nd ref="762999872"/>
    <tag k="abandoned" v="rail"/>
    <tag k="railway" v="abandoned"/>
  </way>
  <way id="60947575" version="2" timestamp="2010-06-03T06:57:21Z" uid="6269" user="Mueck" changeset="4889721">
    <nd ref="695156098"/>
    <nd ref="762999858"/>
    <nd ref="762999859"/>
    <nd ref="762999860"/>
    <nd ref="762999861"/>
    <nd ref="762999862"/>
    <nd ref="762999863"/>
    <nd ref="762999864"/>
    <nd ref="762999865"/>
    <nd ref="762999866"/>
    <nd ref="762999867"/>
    <nd ref="762999868"/>
    <nd ref="762999869"/>
    <nd ref="762999870"/>
    <nd ref="762999871"/>
    <nd ref="762999872"/>
    <tag k="abandoned" v="rail"/>
    <tag k="railway" v="abandoned"/>
  </way>
  <way id="60947575" version="3" timestamp="2010-12-06T23:17:55Z" uid="6269" user="Mueck" changeset="6570151">
    <nd ref="695156098"/>
    <nd ref="762999858"/>
    <nd ref="762999859"/>
    <nd ref="762999860"/>
    <nd ref="762999861"/>
    <nd ref="762999862"/>
    <nd ref="762999863"/>
    <nd ref="762999864"/>
    <nd ref="762999865"/>
    <nd ref="762999866"/>
    <nd ref="762999867"/>
    <nd ref="762999868"/>
    <nd ref="762999869"/>
    <nd ref="1025672407"/>
    <nd ref="762999872"/>
    <nd ref="1025672411"/>
    <tag k="abandoned" v="rail"/>
    <tag k="railway" v="abandoned"/>
    <tag k="source" v="bing"/>
  </way>
  <way id="60947575" version="4" timestamp="2011-03-06T23:52:32Z" uid="6269" user="Mueck" changeset="7479604">
    <nd ref="695156098"/>
    <nd ref="762999858"/>
    <nd ref="762999859"/>
    <nd ref="762999860"/>
    <nd ref="762999861"/>
    <nd ref="1190160483"/>
    <nd ref="1190160434"/>
    <nd ref="762999862"/>
    <nd ref="762999863"/>
    <nd ref="762999864"/>
    <nd ref="1190160654"/>
    <nd ref="762999865"/>
    <nd ref="762999866"/>
    <nd ref="1190160477"/>
    <nd ref="1190160656"/>
    <nd ref="762999867"/>
    <nd ref="1190160667"/>
    <nd ref="762999868"/>
    <nd ref="1190160524"/>
    <nd ref="1190160691"/>
    <nd ref="1190160453"/>
    <nd ref="1190160567"/>
    <nd ref="1190160528"/>
    <nd ref="762999869"/>
    <nd ref="1190160491"/>
    <nd ref="1025672407"/>
    <nd ref="1190160521"/>
    <nd ref="762999872"/>
    <nd ref="1025672411"/>
    <tag k="abandoned" v="rail"/>
    <tag k="railway" v="abandoned"/>
  </way>
  <way id="60947597" version="1" timestamp="2010-06-03T06:57:00Z" uid="6269" user="Mueck" changeset="4889721">
    <nd ref="762999861"/>
    <nd ref="763000159"/>
    <nd ref="763000160"/>
    <nd ref="763000161"/>
    <nd ref="763000162"/>
    <nd ref="763000163"/>
    <nd ref="763000164"/>
    <nd ref="763000165"/>
  </way>
  <way id="60947597" version="2" timestamp="2010-06-03T06:57:12Z" uid="6269" user="Mueck" changeset="4889721">
    <nd ref="762999861"/>
    <nd ref="763000159"/>
    <nd ref="763000160"/>
    <nd ref="763000161"/>
    <nd ref="763000162"/>
    <nd ref="763000163"/>
    <nd ref="763000164"/>
    <nd ref="763000165"/>
    <tag k="abandoned" v="rail"/>
    <tag k="railway" v="abandoned"/>
  </way>
  <way id="60947597" version="3" timestamp="2010-12-06T23:17:56Z" uid="6269" user="Mueck" changeset="6570151">
    <nd ref="762999861"/>
    <nd ref="763000159"/>
    <nd ref="763000160"/>
    <nd ref="763000161"/>
    <nd ref="763000162"/>
    <nd ref="763000163"/>
    <nd ref="763000164"/>
    <nd ref="763000165"/>
    <tag k="abandoned" v="rail"/>
    <tag k="railway" v="abandoned"/>
    <tag k="source" v="bing"/>
  </way>
  <way id="60947597" version="5" timestamp="2011-03-06T23:52:34Z" uid="6269" user="Mueck" changeset="7479604">
    <nd ref="1190160452"/>
    <nd ref="763000159"/>
    <nd ref="1190160559"/>
    <nd ref="763000160"/>
    <nd ref="1190160664"/>
    <nd ref="763000161"/>
    <nd ref="1190160444"/>
    <nd ref="763000162"/>
    <nd ref="763000163"/>
    <nd ref="1126169329"/>
    <nd ref="763000164"/>
    <nd ref="763000165"/>
    <tag k="abandoned" v="rail"/>
    <tag k="railway" v="abandoned"/>
  </way>
  <way id="60947597" version="6" timestamp="2011-03-07T00:09:19Z" uid="6269" user="Mueck" changeset="7479604">
    <nd ref="1190160452"/>
    <nd ref="763000159"/>
    <nd ref="1190160559"/>
    <nd ref="763000160"/>
    <nd ref="1190160664"/>
    <nd ref="763000161"/>
    <nd ref="1190160444"/>
    <nd ref="1190186557"/>
    <nd ref="1190186558"/>
    <nd ref="763000162"/>
    <nd ref="1190186551"/>
    <nd ref="763000163"/>
    <nd ref="1126169329"/>
    <nd ref="763000164"/>
    <nd ref="1190186560"/>
    <nd ref="763000165"/>
    <tag k="abandoned" v="rail"/>
    <tag k="railway" v="abandoned"/>
  </way>
  <way id="60947618" version="3" timestamp="2011-03-06T11:33:58Z" uid="8619" user="cetest" changeset="7472113">
    <nd ref="712614578"/>
    <nd ref="536789180"/>
    <nd ref="536789182"/>
    <nd ref="536789184"/>
    <nd ref="536789185"/>
    <nd ref="536789186"/>
    <nd ref="536789187"/>
    <nd ref="536789189"/>
    <nd ref="536789191"/>
    <nd ref="1081746243"/>
    <nd ref="536789193"/>
    <nd ref="1081746328"/>
    <nd ref="536789194"/>
    <nd ref="536789200"/>
    <nd ref="1081746469"/>
    <nd ref="1081746121"/>
    <nd ref="1081746448"/>
    <nd ref="536789201"/>
    <nd ref="536789203"/>
    <nd ref="536789205"/>
    <nd ref="536789207"/>
    <nd ref="536789208"/>
    <nd ref="536789211"/>
    <nd ref="536789213"/>
    <nd ref="536789217"/>
    <nd ref="536789218"/>
    <nd ref="536789220"/>
    <nd ref="536789221"/>
    <nd ref="536789222"/>
    <nd ref="536789223"/>
    <nd ref="536789226"/>
    <nd ref="536789227"/>
    <nd ref="536789228"/>
    <nd ref="536789229"/>
    <nd ref="536789230"/>
    <nd ref="536789231"/>
    <nd ref="536789232"/>
    <nd ref="536789233"/>
    <nd ref="536789235"/>
    <nd ref="536789236"/>
    <nd ref="536789237"/>
    <nd ref="536789238"/>
    <nd ref="536789239"/>
    <nd ref="536789240"/>
    <nd ref="536789242"/>
    <nd ref="536789243"/>
    <nd ref="536789244"/>
    <nd ref="712614588"/>
    <nd ref="536789245"/>
    <nd ref="536789246"/>
    <nd ref="536789247"/>
    <nd ref="536789249"/>
    <nd ref="536789250"/>
    <nd ref="536789251"/>
    <nd ref="536789252"/>
    <nd ref="536789253"/>
    <nd ref="536789254"/>
    <nd ref="536789255"/>
    <nd ref="536789256"/>
    <nd ref="536789258"/>
    <nd ref="1189038571"/>
    <nd ref="1189038687"/>
    <nd ref="536789259"/>
    <nd ref="536789260"/>
    <nd ref="685512847"/>
    <tag k="highway" v="path"/>
    <tag k="name" v="שביל ישראל"/>
    <tag k="name:en" v="Israel National Trail"/>
    <tag k="name:en1" v="Shvil Israel"/>
    <tag k="network" v="itc"/>
  </way>
  <way id="60947683" version="1" timestamp="2010-06-03T07:02:47Z" uid="6269" user="Mueck" changeset="4889721">
    <nd ref="763000978"/>
    <nd ref="763000979"/>
    <nd ref="763000980"/>
    <nd ref="763000981"/>
    <nd ref="763000982"/>
    <nd ref="763000983"/>
  </way>
  <way id="60947683" version="2" timestamp="2010-06-03T07:04:37Z" uid="6269" user="Mueck" changeset="4889721">
    <nd ref="763000978"/>
    <nd ref="763000979"/>
    <nd ref="763000980"/>
    <nd ref="763000981"/>
    <nd ref="763000982"/>
    <nd ref="763000983"/>
    <tag k="abandoned" v="rail"/>
    <tag k="railway" v="abandoned"/>
  </way>
  <way id="60947683" version="3" timestamp="2010-06-03T07:05:09Z" uid="6269" user="Mueck" changeset="4889721">
    <nd ref="763001176"/>
    <nd ref="763000978"/>
    <nd ref="763000979"/>
    <nd ref="763000980"/>
    <nd ref="763000981"/>
    <nd ref="763000982"/>
    <nd ref="763000983"/>
    <tag k="abandoned" v="rail"/>
    <tag k="railway" v="abandoned"/>
  </way>
  <way id="60947683" version="4" timestamp="2010-12-06T23:57:36Z" uid="6269" user="Mueck" changeset="6570151">
    <nd ref="763001176"/>
    <nd ref="763000979"/>
    <nd ref="1025708466"/>
    <nd ref="1025708346"/>
    <nd ref="1025708425"/>
    <nd ref="763000981"/>
    <nd ref="763000982"/>
    <nd ref="763000983"/>
    <tag k="abandoned" v="rail"/>
    <tag k="railway" v="abandoned"/>
    <tag k="source" v="bing"/>
  </way>
  <way id="60947683" version="5" timestamp="2011-03-06T23:52:33Z" uid="6269" user="Mueck" changeset="7479604">
    <nd ref="763001176"/>
    <nd ref="763000979"/>
    <nd ref="1025708466"/>
    <nd ref="1025708346"/>
    <nd ref="1190160679"/>
    <nd ref="1025708425"/>
    <nd ref="1190160436"/>
    <nd ref="763000981"/>
    <nd ref="763000982"/>
    <nd ref="1190160587"/>
    <nd ref="1190160481"/>
    <tag k="abandoned" v="rail"/>
    <tag k="railway" v="abandoned"/>
  </way>
  <way id="60947695" version="1" timestamp="2010-06-03T07:04:58Z" uid="6269" user="Mueck" changeset="4889721">
    <nd ref="763001146"/>
    <nd ref="763001147"/>
    <nd ref="763001148"/>
    <nd ref="763001149"/>
    <nd ref="763001150"/>
    <nd ref="763000979"/>
    <tag k="abandoned" v="rail"/>
    <tag k="railway" v="abandoned"/>
  </way>
  <way id="60947695" version="2" timestamp="2010-06-03T07:05:28Z" uid="6269" user="Mueck" changeset="4889721">
    <nd ref="763001146"/>
    <nd ref="763001147"/>
    <nd ref="763001148"/>
    <nd ref="763001149"/>
    <nd ref="763001150"/>
    <nd ref="763000979"/>
    <tag k="abandoned" v="rail"/>
    <tag k="railway" v="abandoned"/>
    <tag k="source" v="estimated from old maps"/>
  </way>
  <way id="60947695" version="3" timestamp="2010-12-06T23:57:36Z" uid="6269" user="Mueck" changeset="6570151">
    <nd ref="763001146"/>
    <nd ref="763001147"/>
    <nd ref="763001148"/>
    <nd ref="763001149"/>
    <nd ref="763001150"/>
    <nd ref="1025708386"/>
    <tag k="railway" v="razed"/>
    <tag k="razed" v="rail"/>
    <tag k="source" v="estimated from old maps"/>
  </way>
  <way id="60947695" version="4" timestamp="2011-03-06T23:52:32Z" uid="6269" user="Mueck" changeset="7479604">
    <nd ref="1190160450"/>
    <nd ref="1190160497"/>
    <nd ref="763001146"/>
    <nd ref="1190160557"/>
    <nd ref="763001147"/>
    <nd ref="763001148"/>
    <nd ref="763001149"/>
    <nd ref="763001150"/>
    <nd ref="1025708386"/>
    <tag k="railway" v="razed"/>
    <tag k="razed" v="rail"/>
    <tag k="source" v="estimated from old maps"/>
  </way>
  <way id="60947749" version="1" timestamp="2010-06-03T07:09:13Z" uid="6269" user="Mueck" changeset="4889721">
    <nd ref="763001519"/>
    <nd ref="763001520"/>
    <nd ref="27046222"/>
    <nd ref="763001521"/>
    <nd ref="695156226"/>
  </way>
  <way id="60947749" version="2" timestamp="2010-06-03T07:09:19Z" uid="6269" user="Mueck" changeset="4889721">
    <nd ref="763001519"/>
    <nd ref="763001520"/>
    <nd ref="27046222"/>
    <nd ref="763001521"/>
    <nd ref="695156226"/>
    <tag k="abandoned" v="rail"/>
    <tag k="railway" v="abandoned"/>
    <tag k="source" v="estimated from old maps"/>
  </way>
  <way id="60947749" version="3" timestamp="2010-12-06T23:57:36Z" uid="6269" user="Mueck" changeset="6570151">
    <nd ref="763001519"/>
    <nd ref="763001520"/>
    <nd ref="1025708157"/>
    <nd ref="27046222"/>
    <nd ref="763001521"/>
    <nd ref="695156226"/>
    <tag k="railway" v="razed"/>
    <tag k="razed" v="rail"/>
    <tag k="source" v="estimated from old maps"/>
  </way>
  <way id="60947749" version="4" timestamp="2011-03-06T23:52:34Z" uid="6269" user="Mueck" changeset="7479604">
    <nd ref="763001519"/>
    <nd ref="763001520"/>
    <nd ref="1025708157"/>
    <nd ref="763001521"/>
    <nd ref="695156226"/>
    <tag k="railway" v="razed"/>
    <tag k="razed" v="rail"/>
    <tag k="source" v="estimated from old maps"/>
  </way>
  <way id="60947859" version="1" timestamp="2010-06-03T07:12:31Z" uid="6269" user="Mueck" changeset="4889721">
    <nd ref="763002481"/>
    <nd ref="763002493"/>
    <nd ref="763002497"/>
    <nd ref="763002498"/>
    <nd ref="763002499"/>
    <nd ref="763002502"/>
  </way>
  <way id="60947859" version="2" timestamp="2010-06-03T07:14:20Z" uid="6269" user="Mueck" changeset="4889721">
    <nd ref="763002481"/>
    <nd ref="763002493"/>
    <nd ref="763002497"/>
    <nd ref="763002498"/>
    <nd ref="763002499"/>
    <nd ref="763002502"/>
    <tag k="abandoned" v="rail"/>
    <tag k="railway" v="abandoned"/>
    <tag k="source" v="estimated from old maps"/>
  </way>
  <way id="60947859" version="3" timestamp="2010-08-06T13:38:38Z" uid="6269" user="Mueck" changeset="5416563">
    <nd ref="763002481"/>
    <nd ref="763002493"/>
    <nd ref="763002497"/>
    <nd ref="763002498"/>
    <nd ref="763002499"/>
    <nd ref="763002502"/>
    <tag k="railway" v="razed"/>
    <tag k="razed" v="rail"/>
    <tag k="source" v="estimated from old maps"/>
  </way>
</osm>
