<?xml version='1.0' encoding='UTF-8'?>
<osm version="0.6" generator="libosmium/2.20.0">
  <way id="6098121" version="1" timestamp="2007-09-13T05:20:22Z" uid="7617" user="Franc" changeset="418200">
    <nd ref="50341074"/>
    <nd ref="50341093"/>
    <nd ref="50341084"/>
    <nd ref="50341119"/>
    <nd ref="50341128"/>
    <nd ref="50341137"/>
    <nd ref="50341153"/>
    <nd ref="50341145"/>
    <nd ref="50341109"/>
    <nd ref="50341102"/>
    <nd ref="50341045"/>
    <nd ref="50341055"/>
    <nd ref="50341065"/>
    <nd ref="50341074"/>
    <tag k="created_by" v="JOSM"/>
    <tag k="layer" v="-1"/>
    <tag k="leisure" v="park"/>
    <tag k="name" v="Henley Park"/>
    <tag k="source" v="Yahoo Imagery"/>
    <tag k="source:name" v="survey"/>
  </way>
  <way id="6098265" version="1" timestamp="2007-09-13T05:23:10Z" uid="7617" user="Franc" changeset="418200">
    <nd ref="50342713"/>
    <nd ref="50342720"/>
    <nd ref="50342707"/>
    <nd ref="50342696"/>
    <nd ref="50342713"/>
    <tag k="created_by" v="JOSM"/>
    <tag k="leisure" v="swimming_pool"/>
    <tag k="source" v="Yahoo Imagery"/>
  </way>
  <way id="6098266" version="1" timestamp="2007-09-13T05:23:11Z" uid="7617" user="Franc" changeset="418200">
    <nd ref="50342742"/>
    <nd ref="50342749"/>
    <nd ref="50342755"/>
    <nd ref="50342729"/>
    <nd ref="50342742"/>
    <tag k="created_by" v="JOSM"/>
    <tag k="leisure" v="swimming_pool"/>
    <tag k="source" v="Yahoo Imagery"/>
  </way>
  <way id="6098688" version="1" timestamp="2007-09-13T05:33:36Z" uid="7617" user="Franc" changeset="418200">
    <nd ref="50348869"/>
    <nd ref="31867879"/>
    <nd ref="32599391"/>
    <tag k="created_by" v="Potlatch alpha"/>
    <tag k="highway" v="primary"/>
    <tag k="is_in" v="Australia, NSW, New South Wales, Sydney"/>
    <tag k="name" v="Canterbury Road"/>
    <tag k="ref" v="State 54"/>
  </way>
  <way id="6098688" version="3" timestamp="2009-03-14T04:29:31Z" uid="7617" user="Franc" changeset="803890">
    <nd ref="50348869"/>
    <nd ref="360100542"/>
    <nd ref="31867879"/>
    <nd ref="32599391"/>
    <tag k="created_by" v="Potlatch alpha"/>
    <tag k="highway" v="primary"/>
    <tag k="is_in" v="Australia, NSW, New South Wales, Sydney"/>
    <tag k="name" v="Canterbury Road"/>
    <tag k="ref" v="S54"/>
  </way>
  <way id="6098688" version="4" timestamp="2010-01-31T00:20:34Z" uid="7617" user="Franc" changeset="3755771">
    <nd ref="50348869"/>
    <nd ref="360100542"/>
    <nd ref="31867879"/>
    <nd ref="623746048"/>
    <nd ref="32599391"/>
    <tag k="highway" v="primary"/>
    <tag k="is_in" v="Australia, NSW, New South Wales, Sydney"/>
    <tag k="name" v="Canterbury Road"/>
    <tag k="ref" v="S54"/>
  </way>
  <way id="6098688" version="5" timestamp="2010-04-01T17:17:34Z" uid="74617" user="JohnSmith" changeset="4295913">
    <nd ref="50348869"/>
    <nd ref="360100542"/>
    <nd ref="31867879"/>
    <nd ref="623746048"/>
    <nd ref="32599391"/>
    <tag k="highway" v="primary"/>
    <tag k="name" v="Canterbury Road"/>
  </way>
  <way id="6098688" version="6" timestamp="2010-05-30T08:34:14Z" uid="7617" user="Franc" changeset="4849455">
    <nd ref="50348869"/>
    <nd ref="360100542"/>
    <tag k="highway" v="primary"/>
    <tag k="name" v="Canterbury Road"/>
  </way>
  <way id="6098689" version="1" timestamp="2007-09-13T05:33:37Z" uid="7617" user="Franc" changeset="418200">
    <nd ref="50348862"/>
    <nd ref="50348869"/>
    <tag k="bridge" v="yes"/>
    <tag k="created_by" v="Potlatch alpha"/>
    <tag k="highway" v="primary"/>
    <tag k="is_in" v="Australia, NSW, New South Wales, Sydney"/>
    <tag k="layer" v="1"/>
    <tag k="name" v="Canterbury Road"/>
    <tag k="ref" v="State 54"/>
  </way>
  <way id="6098689" version="3" timestamp="2010-04-01T17:17:34Z" uid="74617" user="JohnSmith" changeset="4295913">
    <nd ref="50348862"/>
    <nd ref="50348869"/>
    <tag k="bridge" v="yes"/>
    <tag k="highway" v="primary"/>
    <tag k="layer" v="1"/>
    <tag k="name" v="Canterbury Road"/>
  </way>
  <way id="6098691" version="1" timestamp="2007-09-13T05:33:38Z" uid="7617" user="Franc" changeset="418200">
    <nd ref="28829851"/>
    <nd ref="28829850"/>
    <tag k="created_by" v="YahooApplet 1.0"/>
    <tag k="highway" v="residential"/>
    <tag k="name" v="Tincombe Street"/>
  </way>
  <way id="6098691" version="2" timestamp="2010-07-08T02:08:53Z" uid="74617" user="JohnSmith" changeset="5162525">
    <nd ref="28829851"/>
    <nd ref="28829850"/>
    <tag k="highway" v="residential"/>
    <tag k="maxspeed" v="50"/>
    <tag k="maxspeed:source" v="default residential speed limit in Australia"/>
    <tag k="name" v="Tincombe Street"/>
  </way>
  <way id="6098830" version="4" timestamp="2008-05-23T05:18:21Z" uid="30201" user="rrankin" changeset="506560">
    <nd ref="62262922"/>
    <nd ref="61749545"/>
    <nd ref="34135366"/>
    <nd ref="34135369"/>
    <nd ref="34135374"/>
    <nd ref="34135377"/>
    <nd ref="34135380"/>
    <nd ref="34135385"/>
    <nd ref="50346966"/>
    <tag k="created_by" v="Potlatch alpha"/>
    <tag k="highway" v="secondary"/>
    <tag k="name" v="Ruttleys Road"/>
  </way>
</osm>
