<?xml version='1.0' encoding='UTF-8'?>
<osm version="0.6" generator="libosmium/2.20.0">
  <way id="61138523" version="4" timestamp="2010-08-27T13:10:29Z" uid="4467" user="Rosscoe" changeset="5607568">
    <nd ref="882426168"/>
    <nd ref="764812037"/>
    <nd ref="764812038"/>
    <nd ref="764811790"/>
    <tag k="highway" v="secondary"/>
    <tag k="maxspeed" v="100"/>
    <tag k="name" v="Donnybrook Road"/>
    <tag k="oneway" v="yes"/>
    <tag k="source" v="nearmap"/>
  </way>
  <way id="61138991" version="2" timestamp="2010-07-07T08:21:33Z" uid="74617" user="JohnSmith" changeset="5156250">
    <nd ref="764812164"/>
    <nd ref="622759824"/>
    <nd ref="764812170"/>
    <nd ref="764812163"/>
    <nd ref="764812157"/>
    <nd ref="764812151"/>
    <nd ref="764812154"/>
    <tag k="highway" v="residential"/>
    <tag k="maxspeed" v="50"/>
    <tag k="maxspeed:source" v="default residential speed limit in Australia"/>
    <tag k="name" v="Les Edwards Street"/>
  </way>
  <way id="61138992" version="2" timestamp="2010-07-07T08:24:19Z" uid="74617" user="JohnSmith" changeset="5156250">
    <nd ref="764812174"/>
    <nd ref="764812164"/>
    <nd ref="764812181"/>
    <tag k="highway" v="residential"/>
    <tag k="maxspeed" v="50"/>
    <tag k="maxspeed:source" v="default residential speed limit in Australia"/>
    <tag k="name" v="Mantle Street"/>
    <tag k="oneway" v="yes"/>
  </way>
</osm>
