<?xml version='1.0' encoding='UTF-8'?>
<osm version="0.6" generator="libosmium/2.20.0">
  <way id="61240180" version="1" timestamp="2010-06-06T00:10:35Z" uid="4467" user="Rosscoe" changeset="4913568">
    <nd ref="759263455"/>
    <nd ref="759264063"/>
    <nd ref="134859849"/>
    <tag k="highway" v="trunk"/>
    <tag k="name" v="Nicholson Road"/>
    <tag k="oneway" v="yes"/>
    <tag k="ref" v="S31"/>
  </way>
  <way id="61240181" version="1" timestamp="2010-06-06T00:10:38Z" uid="4467" user="Rosscoe" changeset="4913568">
    <nd ref="765379799"/>
    <nd ref="759264024"/>
    <nd ref="759263455"/>
    <tag k="highway" v="trunk"/>
    <tag k="name" v="Nicholson Road"/>
    <tag k="oneway" v="yes"/>
    <tag k="ref" v="S31"/>
  </way>
  <way id="61240182" version="1" timestamp="2010-06-06T00:10:45Z" uid="4467" user="Rosscoe" changeset="4913568">
    <nd ref="759263937"/>
    <nd ref="759264041"/>
    <nd ref="759264046"/>
    <nd ref="759264048"/>
    <nd ref="759264050"/>
    <nd ref="759264052"/>
    <nd ref="759264054"/>
    <nd ref="759264056"/>
    <nd ref="765379799"/>
    <tag k="highway" v="trunk"/>
    <tag k="name" v="Nicholson Road"/>
    <tag k="oneway" v="yes"/>
    <tag k="ref" v="S31"/>
  </way>
  <way id="61240182" version="3" timestamp="2011-01-15T02:20:08Z" uid="4467" user="Rosscoe" changeset="6973301">
    <nd ref="759263937"/>
    <nd ref="759264041"/>
    <nd ref="759264046"/>
    <nd ref="759264048"/>
    <nd ref="759264050"/>
    <nd ref="759264052"/>
    <nd ref="759264054"/>
    <nd ref="759264056"/>
    <nd ref="130190307"/>
    <tag k="highway" v="trunk"/>
    <tag k="name" v="Nicholson Road"/>
    <tag k="oneway" v="yes"/>
    <tag k="ref" v="S31"/>
  </way>
  <way id="61240183" version="1" timestamp="2010-06-06T00:10:48Z" uid="4467" user="Rosscoe" changeset="4913568">
    <nd ref="562614866"/>
    <nd ref="32950866"/>
    <nd ref="197136700"/>
    <nd ref="244917416"/>
    <nd ref="587804614"/>
    <nd ref="587803985"/>
    <nd ref="244755683"/>
    <nd ref="32950867"/>
    <nd ref="708320455"/>
    <nd ref="244960279"/>
    <nd ref="244917787"/>
    <nd ref="32950868"/>
    <nd ref="605411273"/>
    <nd ref="605411274"/>
    <nd ref="32950869"/>
    <nd ref="60203412"/>
    <nd ref="266737985"/>
    <nd ref="60203416"/>
    <nd ref="605411275"/>
    <nd ref="605411276"/>
    <nd ref="605411277"/>
    <nd ref="605411279"/>
    <nd ref="605411280"/>
    <nd ref="762092976"/>
    <nd ref="605411281"/>
    <nd ref="762092981"/>
    <nd ref="762890784"/>
    <nd ref="762890797"/>
    <nd ref="762890786"/>
    <nd ref="605411283"/>
    <nd ref="32950770"/>
    <nd ref="32950771"/>
    <nd ref="32950772"/>
    <tag k="highway" v="trunk"/>
    <tag k="name" v="Nicholson Road"/>
    <tag k="oneway" v="yes"/>
    <tag k="ref" v="S31"/>
  </way>
  <way id="61240183" version="2" timestamp="2010-06-06T00:41:24Z" uid="4467" user="Rosscoe" changeset="4913657">
    <nd ref="562614866"/>
    <nd ref="32950866"/>
    <nd ref="244917416"/>
    <nd ref="587804614"/>
    <nd ref="587803985"/>
    <nd ref="244755683"/>
    <nd ref="708320455"/>
    <nd ref="244960279"/>
    <nd ref="244917787"/>
    <nd ref="32950868"/>
    <nd ref="605411273"/>
    <nd ref="605411274"/>
    <nd ref="32950869"/>
    <nd ref="60203412"/>
    <nd ref="266737985"/>
    <nd ref="605411275"/>
    <nd ref="765382515"/>
    <nd ref="605411276"/>
    <nd ref="605411277"/>
    <tag k="highway" v="trunk"/>
    <tag k="name" v="Nicholson Road"/>
    <tag k="oneway" v="yes"/>
    <tag k="ref" v="S31"/>
    <tag k="source" v="nearmap"/>
  </way>
  <way id="61240183" version="3" timestamp="2011-01-09T09:27:49Z" uid="4467" user="Rosscoe" changeset="6912787">
    <nd ref="562614866"/>
    <nd ref="32950866"/>
    <nd ref="1093689434"/>
    <nd ref="244917416"/>
    <nd ref="587804614"/>
    <nd ref="587803985"/>
    <nd ref="244755683"/>
    <nd ref="708320455"/>
    <nd ref="244960279"/>
    <nd ref="244917787"/>
    <nd ref="32950868"/>
    <nd ref="605411273"/>
    <nd ref="605411274"/>
    <nd ref="32950869"/>
    <nd ref="60203412"/>
    <nd ref="266737985"/>
    <nd ref="605411275"/>
    <nd ref="765382515"/>
    <nd ref="605411276"/>
    <nd ref="605411277"/>
    <tag k="highway" v="trunk"/>
    <tag k="name" v="Nicholson Road"/>
    <tag k="oneway" v="yes"/>
    <tag k="ref" v="S31"/>
    <tag k="source" v="nearmap"/>
  </way>
  <way id="61240184" version="1" timestamp="2010-06-06T00:10:51Z" uid="4467" user="Rosscoe" changeset="4913568">
    <nd ref="765379818"/>
    <nd ref="765379823"/>
    <nd ref="568196248"/>
    <nd ref="130190294"/>
    <nd ref="244947105"/>
    <nd ref="562614866"/>
    <tag k="highway" v="trunk"/>
    <tag k="name" v="Nicholson Road"/>
    <tag k="oneway" v="yes"/>
    <tag k="ref" v="S31"/>
    <tag k="source" v="nearmap"/>
  </way>
  <way id="61240185" version="1" timestamp="2010-06-06T00:10:53Z" uid="4467" user="Rosscoe" changeset="4913568">
    <nd ref="765379822"/>
    <nd ref="765379818"/>
    <tag k="highway" v="trunk"/>
    <tag k="name" v="Nicholson Road"/>
    <tag k="oneway" v="yes"/>
    <tag k="ref" v="S31"/>
  </way>
  <way id="61240186" version="1" timestamp="2010-06-06T00:10:55Z" uid="4467" user="Rosscoe" changeset="4913568">
    <nd ref="765379822"/>
    <nd ref="765379800"/>
    <nd ref="765379830"/>
    <nd ref="765379801"/>
    <nd ref="765379827"/>
    <nd ref="765379812"/>
    <nd ref="759263937"/>
    <tag k="highway" v="trunk"/>
    <tag k="name" v="Nicholson Road"/>
    <tag k="oneway" v="yes"/>
    <tag k="ref" v="S31"/>
    <tag k="source" v="nearmap"/>
  </way>
  <way id="61240187" version="1" timestamp="2010-06-06T00:10:57Z" uid="4467" user="Rosscoe" changeset="4913568">
    <nd ref="634796172"/>
    <nd ref="634796174"/>
    <nd ref="634796175"/>
    <nd ref="634796176"/>
    <nd ref="634798629"/>
    <nd ref="634796177"/>
    <nd ref="685099199"/>
    <nd ref="634796178"/>
    <tag k="highway" v="tertiary"/>
    <tag k="name" v="Erade Street"/>
    <tag k="source" v="nearmap"/>
  </way>
  <way id="61240452" version="1" timestamp="2010-06-06T00:29:39Z" uid="7617" user="Franc" changeset="4913630">
    <nd ref="765381475"/>
    <nd ref="765381488"/>
    <nd ref="765381489"/>
    <nd ref="765381490"/>
    <nd ref="765381491"/>
    <nd ref="765381486"/>
    <nd ref="765381487"/>
    <nd ref="765381476"/>
    <nd ref="765381475"/>
    <tag k="leisure" v="park"/>
    <tag k="source" v="nearmap"/>
  </way>
  <way id="61240452" version="2" timestamp="2010-06-06T07:41:17Z" uid="7617" user="Franc" changeset="4915038">
    <nd ref="765381475"/>
    <nd ref="765381488"/>
    <nd ref="765381489"/>
    <nd ref="765381490"/>
    <nd ref="765381491"/>
    <nd ref="765381486"/>
    <nd ref="765381487"/>
    <nd ref="765381476"/>
    <nd ref="765381475"/>
    <tag k="leisure" v="park"/>
    <tag k="name" v="Memorial Playground"/>
    <tag k="source" v="nearmap"/>
    <tag k="source:name" v="survey"/>
  </way>
  <way id="61240453" version="1" timestamp="2010-06-06T00:29:39Z" uid="7617" user="Franc" changeset="4913630">
    <nd ref="765381501"/>
    <nd ref="765381502"/>
    <nd ref="765381485"/>
    <tag k="highway" v="service"/>
    <tag k="source" v="nearmap"/>
  </way>
  <way id="61240453" version="2" timestamp="2011-03-26T07:37:18Z" uid="7617" user="Franc" changeset="7672617">
    <nd ref="765381501"/>
    <nd ref="765381502"/>
    <nd ref="765381485"/>
    <tag k="highway" v="service"/>
    <tag k="name" v="Brighton Road"/>
    <tag k="source" v="nearmap"/>
  </way>
  <way id="61240454" version="1" timestamp="2010-06-06T00:29:39Z" uid="7617" user="Franc" changeset="4913630">
    <nd ref="765381502"/>
    <nd ref="765381498"/>
    <nd ref="765381499"/>
    <nd ref="765381500"/>
    <nd ref="765381484"/>
    <tag k="highway" v="service"/>
    <tag k="source" v="nearmap"/>
  </way>
  <way id="61240454" version="2" timestamp="2011-03-26T07:37:21Z" uid="7617" user="Franc" changeset="7672617">
    <nd ref="765381484"/>
    <nd ref="765381500"/>
    <nd ref="765381499"/>
    <nd ref="765381498"/>
    <nd ref="765381502"/>
    <tag k="fixme:sign:broken" v="2011-03-13"/>
    <tag k="highway" v="service"/>
    <tag k="oneway" v="yes"/>
    <tag k="source" v="nearmap"/>
  </way>
  <way id="61240455" version="1" timestamp="2010-06-06T00:29:39Z" uid="7617" user="Franc" changeset="4913630">
    <nd ref="765381471"/>
    <nd ref="765381478"/>
    <nd ref="765381483"/>
    <nd ref="765381477"/>
    <nd ref="765381482"/>
    <nd ref="765381480"/>
    <nd ref="765381481"/>
    <nd ref="765381479"/>
    <nd ref="765381467"/>
    <nd ref="765381472"/>
    <nd ref="765381468"/>
    <nd ref="765381473"/>
    <nd ref="765381466"/>
    <nd ref="765381474"/>
    <nd ref="765381470"/>
    <nd ref="765381469"/>
    <nd ref="765381471"/>
    <tag k="building" v="yes"/>
    <tag k="man_made" v="reservoir_covered"/>
  </way>
  <way id="61240456" version="1" timestamp="2010-06-06T00:29:40Z" uid="7617" user="Franc" changeset="4913630">
    <nd ref="765381492"/>
    <nd ref="246712738"/>
    <nd ref="199991559"/>
    <nd ref="765381493"/>
    <nd ref="246712742"/>
    <tag k="highway" v="residential"/>
    <tag k="maxspeed" v="50"/>
    <tag k="name" v="Carr Street"/>
    <tag k="source" v="survey"/>
    <tag k="source:maxspeed" v="state_limit"/>
  </way>
  <way id="61240456" version="2" timestamp="2011-03-19T23:18:00Z" uid="7617" user="Franc" changeset="7611445">
    <nd ref="765381492"/>
    <nd ref="246712738"/>
    <nd ref="199991559"/>
    <nd ref="765381493"/>
    <nd ref="246712742"/>
    <tag k="highway" v="residential"/>
    <tag k="maxspeed" v="50"/>
    <tag k="name" v="Carr Street"/>
    <tag k="restriction" v="school_zone"/>
    <tag k="source" v="survey"/>
    <tag k="source:maxspeed" v="state_limit"/>
  </way>
  <way id="61240596" version="1" timestamp="2010-06-06T00:40:25Z" uid="4467" user="Rosscoe" changeset="4913657">
    <nd ref="389493401"/>
    <nd ref="765382508"/>
    <nd ref="32950781"/>
    <nd ref="605411275"/>
    <tag k="highway" v="residential"/>
    <tag k="name" v="Ruth Avenue"/>
    <tag k="oneway" v="yes"/>
    <tag k="source" v="nearmap"/>
  </way>
  <way id="61240596" version="2" timestamp="2010-07-09T08:01:29Z" uid="74617" user="JohnSmith" changeset="5171412">
    <nd ref="389493401"/>
    <nd ref="765382508"/>
    <nd ref="32950781"/>
    <nd ref="605411275"/>
    <tag k="highway" v="residential"/>
    <tag k="maxspeed" v="50"/>
    <tag k="maxspeed:source" v="default residential speed limit in Australia"/>
    <tag k="name" v="Ruth Avenue"/>
    <tag k="oneway" v="yes"/>
    <tag k="source" v="nearmap"/>
  </way>
  <way id="61240597" version="1" timestamp="2010-06-06T00:40:27Z" uid="4467" user="Rosscoe" changeset="4913657">
    <nd ref="763658302"/>
    <nd ref="763658308"/>
    <nd ref="763658311"/>
    <tag k="highway" v="residential"/>
    <tag k="name" v="MacMillan Boulevarde"/>
    <tag k="oneway" v="yes"/>
  </way>
  <way id="61240597" version="2" timestamp="2010-07-09T08:06:14Z" uid="74617" user="JohnSmith" changeset="5171412">
    <nd ref="763658302"/>
    <nd ref="763658308"/>
    <nd ref="763658311"/>
    <tag k="highway" v="residential"/>
    <tag k="maxspeed" v="50"/>
    <tag k="maxspeed:source" v="default residential speed limit in Australia"/>
    <tag k="name" v="MacMillan Boulevarde"/>
    <tag k="oneway" v="yes"/>
  </way>
  <way id="61240598" version="1" timestamp="2010-06-06T00:40:29Z" uid="4467" user="Rosscoe" changeset="4913657">
    <nd ref="762092956"/>
    <nd ref="762092958"/>
    <nd ref="762092961"/>
    <tag k="highway" v="residential"/>
    <tag k="name" v="Gateway Boulevarde"/>
    <tag k="oneway" v="yes"/>
  </way>
  <way id="61240598" version="2" timestamp="2010-07-09T07:55:25Z" uid="74617" user="JohnSmith" changeset="5171412">
    <nd ref="762092956"/>
    <nd ref="762092958"/>
    <nd ref="762092961"/>
    <tag k="highway" v="residential"/>
    <tag k="maxspeed" v="50"/>
    <tag k="maxspeed:source" v="default residential speed limit in Australia"/>
    <tag k="name" v="Gateway Boulevarde"/>
    <tag k="oneway" v="yes"/>
  </way>
  <way id="61240599" version="1" timestamp="2010-06-06T00:40:30Z" uid="4467" user="Rosscoe" changeset="4913657">
    <nd ref="762092972"/>
    <nd ref="762092979"/>
    <nd ref="762092981"/>
    <tag k="highway" v="residential"/>
    <tag k="oneway" v="yes"/>
  </way>
  <way id="61240599" version="2" timestamp="2010-07-09T07:58:52Z" uid="74617" user="JohnSmith" changeset="5171412">
    <nd ref="762092972"/>
    <nd ref="762092979"/>
    <nd ref="762092981"/>
    <tag k="highway" v="residential"/>
    <tag k="maxspeed" v="50"/>
    <tag k="maxspeed:source" v="default residential speed limit in Australia"/>
    <tag k="oneway" v="yes"/>
  </way>
  <way id="61240600" version="1" timestamp="2010-06-06T00:40:32Z" uid="4467" user="Rosscoe" changeset="4913657">
    <nd ref="605411277"/>
    <nd ref="605411279"/>
    <nd ref="605411280"/>
    <nd ref="762092976"/>
    <nd ref="762092981"/>
    <nd ref="765382510"/>
    <nd ref="762890784"/>
    <nd ref="762890797"/>
    <nd ref="762890786"/>
    <nd ref="605411283"/>
    <nd ref="32950770"/>
    <nd ref="765382505"/>
    <nd ref="32950771"/>
    <nd ref="32950772"/>
    <tag k="highway" v="trunk"/>
    <tag k="name" v="Nicholson Road"/>
    <tag k="oneway" v="yes"/>
    <tag k="ref" v="S31"/>
    <tag k="source" v="nearmap"/>
  </way>
  <way id="61240713" version="2" timestamp="2010-07-07T08:32:37Z" uid="74617" user="JohnSmith" changeset="5156250">
    <nd ref="269300869"/>
    <nd ref="269300890"/>
    <nd ref="269300881"/>
    <nd ref="269300882"/>
    <nd ref="269300884"/>
    <nd ref="269300886"/>
    <nd ref="269300887"/>
    <nd ref="269300888"/>
    <nd ref="269300889"/>
    <nd ref="269300890"/>
    <tag k="highway" v="residential"/>
    <tag k="maxspeed" v="50"/>
    <tag k="maxspeed:source" v="default residential speed limit in Australia"/>
    <tag k="name" v="Tompsitt Court"/>
  </way>
  <way id="61240727" version="1" timestamp="2010-06-06T01:02:48Z" uid="4467" user="Rosscoe" changeset="4913696">
    <nd ref="765383605"/>
    <nd ref="765383656"/>
    <nd ref="765383663"/>
    <nd ref="765383677"/>
    <tag k="highway" v="secondary"/>
    <tag k="name" v="Yale Road"/>
    <tag k="oneway" v="yes"/>
    <tag k="source" v="nearmap"/>
  </way>
  <way id="61240728" version="1" timestamp="2010-06-06T01:02:50Z" uid="4467" user="Rosscoe" changeset="4913696">
    <nd ref="765383603"/>
    <nd ref="765383619"/>
    <nd ref="765383600"/>
    <tag k="highway" v="secondary"/>
    <tag k="name" v="Yale Road"/>
    <tag k="oneway" v="yes"/>
    <tag k="source" v="nearmap"/>
  </way>
  <way id="61240729" version="1" timestamp="2010-06-06T01:02:52Z" uid="4467" user="Rosscoe" changeset="4913696">
    <nd ref="765383600"/>
    <nd ref="765383598"/>
    <nd ref="765383649"/>
    <nd ref="765383607"/>
    <tag k="cycleway" v="lane"/>
    <tag k="highway" v="secondary"/>
    <tag k="name" v="Yale Road"/>
    <tag k="oneway" v="yes"/>
    <tag k="source" v="nearmap"/>
  </way>
  <way id="61240730" version="1" timestamp="2010-06-06T01:02:54Z" uid="4467" user="Rosscoe" changeset="4913696">
    <nd ref="765383677"/>
    <nd ref="765383614"/>
    <nd ref="765383601"/>
    <nd ref="765383603"/>
    <tag k="cycleway" v="lane"/>
    <tag k="highway" v="secondary"/>
    <tag k="name" v="Yale Road"/>
    <tag k="oneway" v="yes"/>
    <tag k="source" v="nearmap"/>
  </way>
</osm>
