<?xml version='1.0' encoding='UTF-8'?>
<osm version="0.6" generator="libosmium/2.20.0">
  <way id="61479018" version="4" timestamp="2010-12-24T15:44:49Z" uid="9581" user="Lobelt" changeset="6755515">
    <nd ref="468765"/>
    <nd ref="12226402"/>
    <nd ref="12226403"/>
    <nd ref="468912"/>
    <nd ref="593031"/>
    <tag k="highway" v="motorway"/>
    <tag k="int_ref" v="E 35"/>
    <tag k="lanes" v="2"/>
    <tag k="maxspeed" v="no"/>
    <tag k="oneway" v="yes"/>
    <tag k="ref" v="A 5"/>
  </way>
  <way id="61479019" version="2" timestamp="2010-07-12T15:47:49Z" uid="6269" user="Mueck" changeset="5200097">
    <nd ref="150609399"/>
    <nd ref="150609390"/>
    <nd ref="150609393"/>
    <tag k="highway" v="primary"/>
    <tag k="lanes" v="2"/>
    <tag k="note" v="B 39 abgestuft zu L 723"/>
    <tag k="old_ref" v="B 39"/>
    <tag k="oneway" v="yes"/>
    <tag k="ref" v="L 723"/>
  </way>
  <way id="61479025" version="2" timestamp="2011-03-31T15:00:55Z" uid="6269" user="Mueck" changeset="7726429">
    <nd ref="383977274"/>
    <nd ref="25973978"/>
    <tag k="highway" v="trunk"/>
    <tag k="maxspeed" v="100"/>
    <tag k="motorroad" v="yes"/>
    <tag k="oneway" v="yes"/>
    <tag k="ref" v="B 10"/>
  </way>
  <way id="61479036" version="2" timestamp="2011-03-20T17:51:44Z" uid="6269" user="Mueck" changeset="7619399">
    <nd ref="25973877"/>
    <nd ref="1210827970"/>
    <nd ref="1210827967"/>
    <nd ref="452514"/>
    <nd ref="452515"/>
    <nd ref="452516"/>
    <nd ref="452517"/>
    <nd ref="25973880"/>
    <tag k="highway" v="motorway"/>
    <tag k="int_ref" v="E 35"/>
    <tag k="oneway" v="yes"/>
    <tag k="ref" v="A 5"/>
  </way>
  <way id="61479040" version="2" timestamp="2011-03-20T17:51:44Z" uid="6269" user="Mueck" changeset="7619399">
    <nd ref="25973878"/>
    <nd ref="456926"/>
    <nd ref="456927"/>
    <nd ref="27247956"/>
    <nd ref="456928"/>
    <nd ref="1210827954"/>
    <nd ref="456929"/>
    <nd ref="1210827661"/>
    <nd ref="1210827898"/>
    <nd ref="456930"/>
    <tag k="highway" v="motorway"/>
    <tag k="int_ref" v="E 35"/>
    <tag k="oneway" v="yes"/>
    <tag k="ref" v="A 5"/>
  </way>
  <way id="61479049" version="2" timestamp="2011-02-06T01:24:02Z" uid="6269" user="Mueck" changeset="7199360">
    <nd ref="25523846"/>
    <nd ref="1138332298"/>
    <nd ref="482686"/>
    <nd ref="526172"/>
    <tag k="cycleway" v="track"/>
    <tag k="highway" v="trunk"/>
    <tag k="motorroad" v="no"/>
    <tag k="name" v="Durlacher Allee"/>
    <tag k="oneway" v="yes"/>
    <tag k="ref" v="B 10"/>
  </way>
  <way id="61479064" version="2" timestamp="2010-07-12T15:50:22Z" uid="6269" user="Mueck" changeset="5200097">
    <nd ref="253028833"/>
    <nd ref="33854795"/>
    <nd ref="36835556"/>
    <tag k="bicycle" v="no"/>
    <tag k="highway" v="primary"/>
    <tag k="note" v="B 39 abgestuft zu L 723"/>
    <tag k="old_ref" v="B 39"/>
    <tag k="ref" v="L 723"/>
  </way>
  <way id="61479065" version="3" timestamp="2010-12-24T15:44:47Z" uid="9581" user="Lobelt" changeset="6755515">
    <nd ref="90636873"/>
    <nd ref="468935"/>
    <nd ref="16809189"/>
    <tag k="highway" v="motorway"/>
    <tag k="int_ref" v="E 35"/>
    <tag k="lanes" v="2"/>
    <tag k="maxspeed" v="no"/>
    <tag k="oneway" v="yes"/>
    <tag k="ref" v="A 5"/>
  </way>
  <way id="61479074" version="2" timestamp="2010-07-12T15:49:55Z" uid="6269" user="Mueck" changeset="5200097">
    <nd ref="34493912"/>
    <nd ref="258051218"/>
    <nd ref="258051226"/>
    <tag k="bicycle" v="no"/>
    <tag k="highway" v="primary"/>
    <tag k="note" v="B 39 abgestuft zu L 723"/>
    <tag k="old_ref" v="B 39"/>
    <tag k="ref" v="L 723"/>
  </way>
  <way id="61479078" version="2" timestamp="2010-07-12T15:46:54Z" uid="6269" user="Mueck" changeset="5200097">
    <nd ref="90636891"/>
    <nd ref="16809199"/>
    <nd ref="273214770"/>
    <nd ref="480703200"/>
    <nd ref="480703198"/>
    <nd ref="705848302"/>
    <nd ref="16809200"/>
    <tag k="highway" v="primary"/>
    <tag k="lanes" v="2"/>
    <tag k="note" v="B 39 abgestuft zu L 723"/>
    <tag k="old_ref" v="B 39"/>
    <tag k="oneway" v="yes"/>
    <tag k="ref" v="L 723"/>
  </way>
  <way id="61479089" version="2" timestamp="2010-07-12T15:48:02Z" uid="6269" user="Mueck" changeset="5200097">
    <nd ref="150609338"/>
    <nd ref="177398216"/>
    <nd ref="16809211"/>
    <nd ref="160215386"/>
    <nd ref="160215417"/>
    <nd ref="177398264"/>
    <nd ref="16809212"/>
    <nd ref="180746425"/>
    <nd ref="16809213"/>
    <nd ref="180746487"/>
    <nd ref="16809214"/>
    <nd ref="256277687"/>
    <nd ref="16809215"/>
    <nd ref="16809217"/>
    <nd ref="16809219"/>
    <nd ref="150729963"/>
    <nd ref="16809220"/>
    <tag k="highway" v="primary"/>
    <tag k="lanes" v="2"/>
    <tag k="note" v="B 39 abgestuft zu L 723"/>
    <tag k="old_ref" v="B 39"/>
    <tag k="oneway" v="yes"/>
    <tag k="ref" v="L 723"/>
  </way>
  <way id="61479099" version="2" timestamp="2010-07-12T15:46:48Z" uid="6269" user="Mueck" changeset="5200097">
    <nd ref="255939699"/>
    <nd ref="255939700"/>
    <nd ref="255939701"/>
    <nd ref="30110012"/>
    <tag k="highway" v="primary"/>
    <tag k="lanes" v="2"/>
    <tag k="note" v="B 39 abgestuft zu L 723"/>
    <tag k="old_ref" v="B 39"/>
    <tag k="oneway" v="yes"/>
    <tag k="ref" v="L 723"/>
  </way>
  <way id="61479218" version="3" timestamp="2011-02-22T15:46:37Z" uid="49111" user="Markus B" changeset="7364531">
    <nd ref="767262112"/>
    <nd ref="767269742"/>
    <nd ref="767262115"/>
    <nd ref="767262117"/>
    <nd ref="767262123"/>
    <nd ref="1166570720"/>
    <nd ref="767262125"/>
    <nd ref="767262127"/>
    <nd ref="767262128"/>
    <nd ref="767262112"/>
    <tag k="highway" v="secondary"/>
    <tag k="junction" v="roundabout"/>
    <tag k="lanes" v="2"/>
    <tag k="oneway" v="yes"/>
  </way>
  <way id="61479891" version="3" timestamp="2011-02-22T15:46:46Z" uid="49111" user="Markus B" changeset="7364531">
    <nd ref="767269652"/>
    <nd ref="767269655"/>
    <nd ref="767269658"/>
    <nd ref="767269661"/>
    <nd ref="767269663"/>
    <nd ref="772934980"/>
    <nd ref="767269669"/>
    <nd ref="1166569488"/>
    <nd ref="767262125"/>
    <tag k="highway" v="secondary"/>
    <tag k="lanes" v="2"/>
    <tag k="name" v="Avenida S치 Carneiro"/>
    <tag k="oneway" v="yes"/>
  </way>
  <way id="61479893" version="8" timestamp="2011-02-22T15:46:43Z" uid="49111" user="Markus B" changeset="7364531">
    <nd ref="767269676"/>
    <nd ref="772646095"/>
    <nd ref="946793531"/>
    <nd ref="767269686"/>
    <nd ref="767269694"/>
    <nd ref="1166570337"/>
    <nd ref="767269687"/>
    <nd ref="946793532"/>
    <nd ref="767269689"/>
    <nd ref="767457086"/>
    <nd ref="1166570190"/>
    <nd ref="946793536"/>
    <nd ref="767269676"/>
    <tag k="highway" v="secondary"/>
    <tag k="junction" v="roundabout"/>
    <tag k="lanes" v="2"/>
    <tag k="oneway" v="yes"/>
  </way>
  <way id="61479895" version="3" timestamp="2011-02-22T15:46:42Z" uid="49111" user="Markus B" changeset="7364531">
    <nd ref="767269694"/>
    <nd ref="767269704"/>
    <nd ref="1068548794"/>
    <nd ref="767269706"/>
    <nd ref="767269709"/>
    <nd ref="1166570799"/>
    <nd ref="767269717"/>
    <nd ref="767269719"/>
    <nd ref="767269729"/>
    <nd ref="767269737"/>
    <nd ref="767269742"/>
    <tag k="highway" v="secondary"/>
    <tag k="lanes" v="2"/>
    <tag k="name" v="Avenida S치 Carneiro"/>
    <tag k="oneway" v="yes"/>
  </way>
  <way id="61479904" version="4" timestamp="2011-02-22T15:46:36Z" uid="49111" user="Markus B" changeset="7364531">
    <nd ref="767262128"/>
    <nd ref="767269866"/>
    <nd ref="767269864"/>
    <nd ref="767269849"/>
    <nd ref="767269824"/>
    <nd ref="1166570651"/>
    <nd ref="1068548768"/>
    <nd ref="767269800"/>
    <nd ref="767269798"/>
    <nd ref="767269781"/>
    <nd ref="767269776"/>
    <nd ref="767269687"/>
    <tag k="highway" v="secondary"/>
    <tag k="lanes" v="2"/>
    <tag k="name" v="Avenida S치 Carneiro"/>
    <tag k="oneway" v="yes"/>
  </way>
  <way id="61479911" version="2" timestamp="2011-02-22T15:46:39Z" uid="49111" user="Markus B" changeset="7364531">
    <nd ref="767262123"/>
    <nd ref="767269927"/>
    <nd ref="767269930"/>
    <nd ref="767269935"/>
    <nd ref="767269936"/>
    <nd ref="767269938"/>
    <nd ref="767269915"/>
    <tag k="highway" v="secondary"/>
    <tag k="lanes" v="2"/>
    <tag k="name" v="Avenida S치 Carneiro"/>
    <tag k="oneway" v="yes"/>
  </way>
  <way id="61479985" version="1" timestamp="2010-06-08T14:19:07Z" uid="4467" user="Rosscoe" changeset="4937515">
    <nd ref="767271874"/>
    <nd ref="767271877"/>
    <nd ref="767271879"/>
    <nd ref="767271882"/>
    <tag k="highway" v="secondary"/>
    <tag k="name" v="Lakes Road"/>
    <tag k="oneway" v="yes"/>
    <tag k="source" v="nearmap"/>
  </way>
  <way id="61479986" version="1" timestamp="2010-06-08T14:19:21Z" uid="4467" user="Rosscoe" changeset="4937515">
    <nd ref="767271882"/>
    <nd ref="767271867"/>
    <nd ref="191589937"/>
    <nd ref="767271870"/>
    <nd ref="767271874"/>
    <tag k="highway" v="secondary"/>
    <tag k="name" v="Lakes Road"/>
    <tag k="oneway" v="yes"/>
    <tag k="source" v="nearmap"/>
  </way>
  <way id="61479987" version="1" timestamp="2010-06-08T14:19:23Z" uid="4467" user="Rosscoe" changeset="4937515">
    <nd ref="767271874"/>
    <nd ref="760160629"/>
    <tag k="highway" v="secondary"/>
    <tag k="name" v="Lakes Road"/>
    <tag k="source" v="nearmap"/>
  </way>
</osm>
