<?xml version='1.0' encoding='UTF-8'?>
<osm version="0.6" generator="libosmium/2.20.0">
  <way id="61704019" version="1" timestamp="2010-06-11T05:56:28Z" uid="4467" user="Rosscoe" changeset="4959872">
    <nd ref="223491103"/>
    <nd ref="769008512"/>
    <nd ref="223491104"/>
    <nd ref="223491106"/>
    <nd ref="223491109"/>
    <nd ref="223491110"/>
    <nd ref="223491112"/>
    <nd ref="223491114"/>
    <nd ref="258770335"/>
    <nd ref="769007868"/>
    <nd ref="223491116"/>
    <tag k="highway" v="motorway_link"/>
    <tag k="oneway" v="yes"/>
  </way>
  <way id="61704047" version="1" timestamp="2010-06-11T05:56:29Z" uid="4467" user="Rosscoe" changeset="4959872">
    <nd ref="769009297"/>
    <nd ref="769008807"/>
    <tag k="highway" v="service"/>
    <tag k="service" v="driveway"/>
    <tag k="source" v="nearmap"/>
  </way>
  <way id="61704098" version="1" timestamp="2010-06-11T05:56:50Z" uid="4467" user="Rosscoe" changeset="4959872">
    <nd ref="710599498"/>
    <nd ref="33057549"/>
    <nd ref="738190392"/>
    <nd ref="300784924"/>
    <nd ref="738190394"/>
    <nd ref="738190375"/>
    <tag k="highway" v="trunk"/>
    <tag k="name" v="Leach Highway"/>
    <tag k="oneway" v="yes"/>
    <tag k="ref" v="S7"/>
    <tag k="source" v="nearmap"/>
  </way>
  <way id="61704103" version="1" timestamp="2010-06-11T05:56:51Z" uid="4467" user="Rosscoe" changeset="4959872">
    <nd ref="355803542"/>
    <nd ref="769008903"/>
    <nd ref="355802595"/>
    <tag k="highway" v="residential"/>
    <tag k="name" v="Stockdale Road"/>
    <tag k="oneway" v="yes"/>
  </way>
  <way id="61704103" version="2" timestamp="2010-07-09T07:55:57Z" uid="74617" user="JohnSmith" changeset="5171412">
    <nd ref="355803542"/>
    <nd ref="769008903"/>
    <nd ref="355802595"/>
    <tag k="highway" v="residential"/>
    <tag k="maxspeed" v="50"/>
    <tag k="maxspeed:source" v="default residential speed limit in Australia"/>
    <tag k="name" v="Stockdale Road"/>
    <tag k="oneway" v="yes"/>
  </way>
  <way id="61704105" version="1" timestamp="2010-06-11T05:56:52Z" uid="4467" user="Rosscoe" changeset="4959872">
    <nd ref="223491732"/>
    <nd ref="769007266"/>
    <nd ref="454334907"/>
    <nd ref="258770404"/>
    <nd ref="454335728"/>
    <nd ref="223472621"/>
    <tag k="highway" v="trunk"/>
    <tag k="lanes" v="3"/>
    <tag k="name" v="Leach Highway"/>
    <tag k="oneway" v="yes"/>
    <tag k="ref" v="S7"/>
    <tag k="source" v="nearmap"/>
  </way>
  <way id="61704106" version="1" timestamp="2010-06-11T05:56:53Z" uid="4467" user="Rosscoe" changeset="4959872">
    <nd ref="738190368"/>
    <nd ref="738190390"/>
    <nd ref="769010183"/>
    <tag k="highway" v="secondary"/>
    <tag k="name" v="High Street"/>
    <tag k="oneway" v="yes"/>
    <tag k="ref" v="S7"/>
    <tag k="source" v="nearmap"/>
  </way>
  <way id="61704125" version="1" timestamp="2010-06-11T05:56:54Z" uid="4467" user="Rosscoe" changeset="4959872">
    <nd ref="769010183"/>
    <nd ref="738190372"/>
    <nd ref="738190387"/>
    <nd ref="710599498"/>
    <tag k="highway" v="secondary"/>
    <tag k="name" v="High Street"/>
    <tag k="oneway" v="yes"/>
    <tag k="ref" v="S7"/>
    <tag k="source" v="nearmap"/>
  </way>
  <way id="61704139" version="1" timestamp="2010-06-11T05:57:24Z" uid="4467" user="Rosscoe" changeset="4959872">
    <nd ref="769010104"/>
    <nd ref="769009570"/>
    <nd ref="769009406"/>
    <tag k="highway" v="service"/>
    <tag k="source" v="nearmap"/>
  </way>
  <way id="61704140" version="1" timestamp="2010-06-11T05:57:25Z" uid="4467" user="Rosscoe" changeset="4959872">
    <nd ref="223485506"/>
    <nd ref="769007593"/>
    <nd ref="769008842"/>
    <tag k="highway" v="motorway_link"/>
    <tag k="oneway" v="yes"/>
    <tag k="source" v="nearmap"/>
  </way>
  <way id="61704141" version="1" timestamp="2010-06-11T05:57:26Z" uid="4467" user="Rosscoe" changeset="4959872">
    <nd ref="31003977"/>
    <nd ref="59967382"/>
    <nd ref="273988060"/>
    <tag k="highway" v="residential"/>
    <tag k="name" v="Stirling Street"/>
    <tag k="source:name" v="Metropolitan Region Scheme 1955 Atlas"/>
  </way>
  <way id="61704141" version="2" timestamp="2010-07-09T07:56:52Z" uid="74617" user="JohnSmith" changeset="5171412">
    <nd ref="31003977"/>
    <nd ref="59967382"/>
    <nd ref="273988060"/>
    <tag k="highway" v="residential"/>
    <tag k="maxspeed" v="50"/>
    <tag k="maxspeed:source" v="default residential speed limit in Australia"/>
    <tag k="name" v="Stirling Street"/>
    <tag k="source:name" v="Metropolitan Region Scheme 1955 Atlas"/>
  </way>
  <way id="61704142" version="1" timestamp="2010-06-11T05:57:28Z" uid="4467" user="Rosscoe" changeset="4959872">
    <nd ref="769009753"/>
    <nd ref="310208007"/>
    <tag k="highway" v="secondary"/>
    <tag k="name" v="Norma Road"/>
    <tag k="oneway" v="yes"/>
    <tag k="source" v="nearmap"/>
  </way>
  <way id="61704143" version="1" timestamp="2010-06-11T05:57:29Z" uid="4467" user="Rosscoe" changeset="4959872">
    <nd ref="769009440"/>
    <nd ref="31341905"/>
    <nd ref="354065420"/>
    <nd ref="354064826"/>
    <nd ref="354065116"/>
    <nd ref="355796474"/>
    <nd ref="354065111"/>
    <nd ref="355796517"/>
    <nd ref="354065051"/>
    <nd ref="354066074"/>
    <nd ref="354065038"/>
    <nd ref="355797123"/>
    <nd ref="354065310"/>
    <nd ref="355510174"/>
    <nd ref="768598393"/>
    <nd ref="31341922"/>
    <nd ref="310390846"/>
    <nd ref="165877027"/>
    <tag k="highway" v="trunk"/>
    <tag k="name" v="Stock Road"/>
    <tag k="ref" v="NR1"/>
  </way>
  <way id="61704143" version="2" timestamp="2010-06-11T06:59:47Z" uid="4467" user="Rosscoe" changeset="4960110">
    <nd ref="769009440"/>
    <nd ref="31341905"/>
    <nd ref="354065420"/>
    <nd ref="354064826"/>
    <nd ref="354065116"/>
    <nd ref="355796474"/>
    <nd ref="354065111"/>
    <nd ref="355796517"/>
    <nd ref="354065051"/>
    <nd ref="354066074"/>
    <nd ref="354065038"/>
    <nd ref="355797123"/>
    <nd ref="354065310"/>
    <nd ref="355510174"/>
    <nd ref="768598393"/>
    <nd ref="31341922"/>
    <nd ref="310390846"/>
    <nd ref="165877027"/>
    <tag k="highway" v="secondary"/>
    <tag k="name" v="Stock Road"/>
  </way>
  <way id="61704144" version="1" timestamp="2010-06-11T05:57:30Z" uid="4467" user="Rosscoe" changeset="4959872">
    <nd ref="769008149"/>
    <nd ref="769007360"/>
    <tag k="bridge" v="yes"/>
    <tag k="highway" v="motorway_link"/>
    <tag k="layer" v="1"/>
    <tag k="oneway" v="yes"/>
  </way>
  <way id="61704145" version="1" timestamp="2010-06-11T05:57:31Z" uid="4467" user="Rosscoe" changeset="4959872">
    <nd ref="258770402"/>
    <nd ref="769009644"/>
    <nd ref="258770335"/>
    <tag k="highway" v="service"/>
    <tag k="oneway" v="yes"/>
    <tag k="source" v="nearmap"/>
  </way>
  <way id="61704150" version="1" timestamp="2010-06-11T05:57:32Z" uid="4467" user="Rosscoe" changeset="4959872">
    <nd ref="410509161"/>
    <nd ref="410509167"/>
    <nd ref="410508488"/>
    <nd ref="410508489"/>
    <nd ref="31128690"/>
    <nd ref="31340100"/>
    <nd ref="31340900"/>
    <nd ref="31340976"/>
    <nd ref="31341010"/>
    <nd ref="31341011"/>
    <nd ref="31341017"/>
    <nd ref="31341020"/>
    <nd ref="31341044"/>
    <nd ref="31341045"/>
    <nd ref="31341047"/>
    <nd ref="31341048"/>
    <nd ref="31341049"/>
    <nd ref="31341051"/>
    <nd ref="31341099"/>
    <nd ref="281731698"/>
    <nd ref="31341138"/>
    <nd ref="31341143"/>
    <nd ref="31341149"/>
    <nd ref="31341150"/>
    <nd ref="31341183"/>
    <nd ref="31341184"/>
    <nd ref="31341185"/>
    <nd ref="31341187"/>
    <nd ref="31341188"/>
    <nd ref="31341189"/>
    <nd ref="281463044"/>
    <nd ref="31341194"/>
    <nd ref="712876790"/>
    <nd ref="31341197"/>
    <nd ref="181298298"/>
    <nd ref="181298296"/>
    <nd ref="181298293"/>
    <nd ref="279522531"/>
    <nd ref="181298289"/>
    <nd ref="626325166"/>
    <nd ref="636513532"/>
    <nd ref="636513557"/>
    <nd ref="410500973"/>
    <nd ref="207047970"/>
    <nd ref="207047971"/>
    <nd ref="207047972"/>
    <nd ref="207047973"/>
    <nd ref="207047974"/>
    <nd ref="279752363"/>
    <nd ref="207047975"/>
    <nd ref="207047977"/>
    <nd ref="207047978"/>
    <nd ref="207047979"/>
    <nd ref="207047981"/>
    <nd ref="760173982"/>
    <nd ref="207047982"/>
    <nd ref="280740697"/>
    <nd ref="207047984"/>
    <nd ref="410500465"/>
    <tag k="highway" v="trunk"/>
    <tag k="name" v="Stock Road"/>
    <tag k="oneway" v="yes"/>
  </way>
  <way id="61704150" version="2" timestamp="2011-01-15T11:20:59Z" uid="4467" user="Rosscoe" changeset="6975740">
    <nd ref="410509161"/>
    <nd ref="1104421053"/>
    <nd ref="1104421052"/>
    <nd ref="410509167"/>
    <nd ref="410508488"/>
    <nd ref="410508489"/>
    <nd ref="31128690"/>
    <nd ref="31340100"/>
    <nd ref="31340900"/>
    <nd ref="31340976"/>
    <nd ref="31341010"/>
    <nd ref="31341011"/>
    <nd ref="31341017"/>
    <nd ref="31341020"/>
    <nd ref="31341044"/>
    <nd ref="31341045"/>
    <nd ref="31341047"/>
    <nd ref="31341048"/>
    <nd ref="31341049"/>
    <nd ref="1104421054"/>
    <nd ref="31341051"/>
    <nd ref="31341099"/>
    <nd ref="281731698"/>
    <nd ref="31341138"/>
    <nd ref="31341143"/>
    <nd ref="31341149"/>
    <nd ref="31341150"/>
    <nd ref="31341183"/>
    <nd ref="31341184"/>
    <nd ref="31341185"/>
    <nd ref="31341187"/>
    <nd ref="31341188"/>
    <nd ref="31341189"/>
    <nd ref="281463044"/>
    <nd ref="31341194"/>
    <nd ref="712876790"/>
    <nd ref="31341197"/>
    <nd ref="181298298"/>
    <nd ref="181298296"/>
    <nd ref="181298293"/>
    <nd ref="279522531"/>
    <nd ref="181298289"/>
    <nd ref="626325166"/>
    <nd ref="636513532"/>
    <nd ref="636513557"/>
    <nd ref="410500973"/>
    <nd ref="207047970"/>
    <nd ref="207047971"/>
    <nd ref="207047972"/>
    <nd ref="207047973"/>
    <nd ref="207047974"/>
    <nd ref="279752363"/>
    <nd ref="207047975"/>
    <nd ref="207047977"/>
    <nd ref="207047978"/>
    <nd ref="207047979"/>
    <nd ref="207047981"/>
    <nd ref="760173982"/>
    <nd ref="207047982"/>
    <nd ref="280740697"/>
    <nd ref="207047984"/>
    <nd ref="410500465"/>
    <tag k="highway" v="trunk"/>
    <tag k="name" v="Stock Road"/>
    <tag k="oneway" v="yes"/>
  </way>
  <way id="61704160" version="1" timestamp="2010-06-11T05:57:34Z" uid="4467" user="Rosscoe" changeset="4959872">
    <nd ref="769009816"/>
    <nd ref="766204108"/>
    <nd ref="769007346"/>
    <nd ref="766204111"/>
    <nd ref="766204113"/>
    <nd ref="766204079"/>
    <nd ref="769009015"/>
    <nd ref="766204037"/>
    <tag k="highway" v="secondary"/>
    <tag k="name" v="High Street"/>
    <tag k="oneway" v="yes"/>
    <tag k="ref" v="S7"/>
    <tag k="source" v="nearmap"/>
  </way>
  <way id="61704166" version="1" timestamp="2010-06-11T05:57:35Z" uid="4467" user="Rosscoe" changeset="4959872">
    <nd ref="258770402"/>
    <nd ref="769007445"/>
    <tag k="highway" v="service"/>
    <tag k="oneway" v="yes"/>
    <tag k="source" v="nearmap"/>
  </way>
  <way id="61704178" version="1" timestamp="2010-06-11T05:57:36Z" uid="4467" user="Rosscoe" changeset="4959872">
    <nd ref="223486686"/>
    <nd ref="769007475"/>
    <nd ref="223486688"/>
    <nd ref="769008783"/>
    <nd ref="223486689"/>
    <nd ref="223486690"/>
    <nd ref="223491126"/>
    <nd ref="223486691"/>
    <nd ref="223486692"/>
    <tag k="highway" v="motorway_link"/>
    <tag k="oneway" v="yes"/>
  </way>
  <way id="61704235" version="1" timestamp="2010-06-11T05:58:02Z" uid="4467" user="Rosscoe" changeset="4959872">
    <nd ref="769009738"/>
    <nd ref="769010205"/>
    <nd ref="769007545"/>
    <nd ref="769007399"/>
    <tag k="access" v="no"/>
    <tag k="highway" v="service"/>
    <tag k="oneway" v="yes"/>
    <tag k="psv" v="yes"/>
  </way>
  <way id="61704245" version="1" timestamp="2010-06-11T05:58:04Z" uid="4467" user="Rosscoe" changeset="4959872">
    <nd ref="31003950"/>
    <nd ref="31341901"/>
    <nd ref="31341902"/>
    <nd ref="60311704"/>
    <nd ref="769009440"/>
    <tag k="highway" v="secondary"/>
    <tag k="name" v="Stock Road"/>
    <tag k="oneway" v="yes"/>
  </way>
  <way id="61704245" version="2" timestamp="2010-06-11T07:00:09Z" uid="4467" user="Rosscoe" changeset="4960110">
    <nd ref="31003950"/>
    <nd ref="31341901"/>
    <nd ref="31341902"/>
    <nd ref="769043698"/>
    <nd ref="60311704"/>
    <nd ref="769009440"/>
    <tag k="highway" v="secondary"/>
    <tag k="name" v="Stock Road"/>
    <tag k="oneway" v="yes"/>
  </way>
  <way id="61704248" version="1" timestamp="2010-06-11T05:58:05Z" uid="4467" user="Rosscoe" changeset="4959872">
    <nd ref="769009816"/>
    <nd ref="769010120"/>
    <nd ref="301316039"/>
    <nd ref="769010183"/>
    <tag k="highway" v="secondary"/>
    <tag k="name" v="High Street"/>
    <tag k="ref" v="S7"/>
    <tag k="source" v="nearmap"/>
  </way>
  <way id="61704249" version="1" timestamp="2010-06-11T05:58:06Z" uid="4467" user="Rosscoe" changeset="4959872">
    <nd ref="304732306"/>
    <nd ref="769009180"/>
    <nd ref="31003965"/>
    <nd ref="31128254"/>
    <tag k="highway" v="trunk"/>
    <tag k="name" v="Leach Highway"/>
    <tag k="ref" v="S7"/>
  </way>
  <way id="61704249" version="2" timestamp="2010-06-11T07:00:26Z" uid="4467" user="Rosscoe" changeset="4960110">
    <nd ref="304732306"/>
    <nd ref="769009180"/>
    <nd ref="31003965"/>
    <nd ref="769043790"/>
    <nd ref="31128254"/>
    <tag k="highway" v="trunk"/>
    <tag k="name" v="Leach Highway"/>
    <tag k="ref" v="S7"/>
    <tag k="source" v="nearmap"/>
  </way>
</osm>
