<?xml version='1.0' encoding='UTF-8'?>
<osm version="0.6" generator="libosmium/2.20.0">
  <way id="61980078" version="1" timestamp="2010-06-14T15:55:04Z" uid="23543" user="jkjk" changeset="4989113">
    <nd ref="772779534"/>
    <nd ref="772779536"/>
    <nd ref="772779538"/>
    <nd ref="772779541"/>
    <nd ref="772779543"/>
    <nd ref="772779545"/>
    <nd ref="772779530"/>
    <nd ref="772779533"/>
    <nd ref="772779535"/>
    <nd ref="772779537"/>
    <nd ref="772779539"/>
    <nd ref="772779542"/>
    <nd ref="772779544"/>
    <nd ref="772779529"/>
    <nd ref="772779540"/>
    <nd ref="772779546"/>
    <tag k="highway" v="unclassified"/>
  </way>
  <way id="61980221" version="2" timestamp="2010-11-02T16:02:43Z" uid="115477" user="wowik" changeset="6268977">
    <nd ref="772780912"/>
    <nd ref="772780944"/>
    <nd ref="772780916"/>
    <nd ref="772780946"/>
    <nd ref="772780938"/>
    <nd ref="772780911"/>
    <nd ref="772780937"/>
    <nd ref="772780905"/>
    <nd ref="772780912"/>
    <tag k="addr:city" v="Šiauliai"/>
    <tag k="addr:country" v="LT"/>
    <tag k="addr:housenumber" v="44"/>
    <tag k="addr:postcode" v="77153"/>
    <tag k="addr:street" v="Dubijos g."/>
    <tag k="building" v="train_station"/>
    <tag k="name" v="Šiaulių Geležinkelio stotis"/>
    <tag k="name:ru" v="Шауляй"/>
    <tag k="railway" v="station"/>
  </way>
  <way id="61980221" version="3" timestamp="2010-12-03T21:05:11Z" uid="115477" user="wowik" changeset="6531423">
    <nd ref="772780912"/>
    <nd ref="772780944"/>
    <nd ref="772780916"/>
    <nd ref="772780946"/>
    <nd ref="772780938"/>
    <nd ref="772780911"/>
    <nd ref="772780937"/>
    <nd ref="772780905"/>
    <nd ref="772780912"/>
    <tag k="addr:city" v="Šiauliai"/>
    <tag k="addr:country" v="LT"/>
    <tag k="addr:housenumber" v="44"/>
    <tag k="addr:postcode" v="77153"/>
    <tag k="addr:street" v="Dubijos g."/>
    <tag k="alt_name:ru" v="Шaуляй"/>
    <tag k="building" v="train_station"/>
    <tag k="name" v="Šiaulių Geležinkelio stotis"/>
    <tag k="name:ru" v="Шяуляй"/>
    <tag k="railway" v="station"/>
  </way>
  <way id="61980221" version="4" timestamp="2010-12-03T21:06:13Z" uid="115477" user="wowik" changeset="6531423">
    <nd ref="772780912"/>
    <nd ref="772780944"/>
    <nd ref="772780916"/>
    <nd ref="772780946"/>
    <nd ref="772780938"/>
    <nd ref="772780911"/>
    <nd ref="772780937"/>
    <nd ref="772780905"/>
    <nd ref="772780912"/>
    <tag k="addr:city" v="Šiauliai"/>
    <tag k="addr:country" v="LT"/>
    <tag k="addr:housenumber" v="44"/>
    <tag k="addr:postcode" v="77153"/>
    <tag k="addr:street" v="Dubijos g."/>
    <tag k="building" v="train_station"/>
    <tag k="name" v="Šiaulių Geležinkelio stotis"/>
    <tag k="name:ru" v="Шяуляй"/>
    <tag k="railway" v="station"/>
  </way>
</osm>
