<?xml version='1.0' encoding='UTF-8'?>
<osm version="0.6" generator="libosmium/2.20.0">
  <way id="62028182" version="2" timestamp="2010-07-09T04:12:22Z" uid="74617" user="JohnSmith" changeset="5170825">
    <nd ref="773199090"/>
    <nd ref="773199097"/>
    <tag k="highway" v="residential"/>
    <tag k="maxspeed" v="50"/>
    <tag k="maxspeed:source" v="default residential speed limit in Australia"/>
    <tag k="name" v="Ridgeway Street"/>
  </way>
  <way id="62028183" version="2" timestamp="2010-07-09T05:35:01Z" uid="74617" user="JohnSmith" changeset="5170986">
    <nd ref="773199106"/>
    <nd ref="773199078"/>
    <nd ref="773199094"/>
    <nd ref="773199103"/>
    <tag k="highway" v="residential"/>
    <tag k="maxspeed" v="50"/>
    <tag k="maxspeed:source" v="default residential speed limit in Australia"/>
    <tag k="name" v="Bluegum Close"/>
  </way>
  <way id="62028184" version="2" timestamp="2010-07-09T05:35:38Z" uid="74617" user="JohnSmith" changeset="5170986">
    <nd ref="773199078"/>
    <nd ref="773199082"/>
    <tag k="highway" v="residential"/>
    <tag k="maxspeed" v="50"/>
    <tag k="maxspeed:source" v="default residential speed limit in Australia"/>
    <tag k="name" v="Jacaranda Court"/>
  </way>
  <way id="62028185" version="2" timestamp="2010-07-09T04:08:29Z" uid="74617" user="JohnSmith" changeset="5170825">
    <nd ref="773199105"/>
    <nd ref="773199077"/>
    <nd ref="773199085"/>
    <nd ref="773199102"/>
    <nd ref="773199112"/>
    <tag k="highway" v="residential"/>
    <tag k="maxspeed" v="50"/>
    <tag k="maxspeed:source" v="default residential speed limit in Australia"/>
    <tag k="name" v="June Crescent"/>
  </way>
  <way id="62028186" version="2" timestamp="2010-07-09T04:05:00Z" uid="74617" user="JohnSmith" changeset="5170825">
    <nd ref="354442104"/>
    <nd ref="354442106"/>
    <tag k="highway" v="residential"/>
    <tag k="maxspeed" v="50"/>
    <tag k="maxspeed:source" v="default residential speed limit in Australia"/>
    <tag k="name" v="Fairbank Crescent"/>
  </way>
  <way id="62028187" version="2" timestamp="2010-07-09T04:01:42Z" uid="74617" user="JohnSmith" changeset="5170825">
    <nd ref="354440810"/>
    <nd ref="354440811"/>
    <nd ref="354440814"/>
    <nd ref="354440816"/>
    <tag k="highway" v="residential"/>
    <tag k="maxspeed" v="50"/>
    <tag k="maxspeed:source" v="default residential speed limit in Australia"/>
    <tag k="name" v="Ardgower Court"/>
  </way>
  <way id="62028188" version="2" timestamp="2010-07-09T04:14:07Z" uid="74617" user="JohnSmith" changeset="5170825">
    <nd ref="691027051"/>
    <nd ref="691027058"/>
    <nd ref="691027061"/>
    <nd ref="691027063"/>
    <nd ref="691027072"/>
    <tag k="highway" v="residential"/>
    <tag k="maxspeed" v="50"/>
    <tag k="maxspeed:source" v="default residential speed limit in Australia"/>
    <tag k="name" v="Nambour Road"/>
    <tag k="source" v="nearmap"/>
  </way>
  <way id="62028189" version="2" timestamp="2010-07-09T05:35:24Z" uid="74617" user="JohnSmith" changeset="5170986">
    <nd ref="354441805"/>
    <nd ref="354441806"/>
    <nd ref="773199083"/>
    <tag k="highway" v="residential"/>
    <tag k="maxspeed" v="50"/>
    <tag k="maxspeed:source" v="default residential speed limit in Australia"/>
    <tag k="name" v="Romilly Avenue"/>
  </way>
  <way id="62028190" version="2" timestamp="2010-07-09T04:07:35Z" uid="74617" user="JohnSmith" changeset="5170825">
    <nd ref="773199104"/>
    <nd ref="773199113"/>
    <tag k="highway" v="residential"/>
    <tag k="maxspeed" v="50"/>
    <tag k="maxspeed:source" v="default residential speed limit in Australia"/>
    <tag k="name" v="Rosemary Street"/>
  </way>
  <way id="62028191" version="2" timestamp="2010-07-09T04:03:58Z" uid="74617" user="JohnSmith" changeset="5170825">
    <nd ref="773199111"/>
    <nd ref="773199081"/>
    <tag k="highway" v="residential"/>
    <tag k="maxspeed" v="50"/>
    <tag k="maxspeed:source" v="default residential speed limit in Australia"/>
    <tag k="name" v="Lorna Court"/>
  </way>
  <way id="62028192" version="2" timestamp="2010-07-09T04:10:37Z" uid="74617" user="JohnSmith" changeset="5170825">
    <nd ref="773199101"/>
    <nd ref="773199079"/>
    <nd ref="773199088"/>
    <tag k="highway" v="residential"/>
    <tag k="maxspeed" v="50"/>
    <tag k="maxspeed:source" v="default residential speed limit in Australia"/>
    <tag k="name" v="Laloma Court"/>
  </way>
  <way id="62028193" version="2" timestamp="2010-07-09T04:07:10Z" uid="74617" user="JohnSmith" changeset="5170825">
    <nd ref="773199091"/>
    <nd ref="773199099"/>
    <nd ref="773199109"/>
    <tag k="highway" v="residential"/>
    <tag k="maxspeed" v="50"/>
    <tag k="maxspeed:source" v="default residential speed limit in Australia"/>
    <tag k="name" v="Eyre Court"/>
  </way>
  <way id="62028194" version="2" timestamp="2010-07-09T04:03:36Z" uid="74617" user="JohnSmith" changeset="5170825">
    <nd ref="773199100"/>
    <nd ref="773199110"/>
    <nd ref="773199087"/>
    <tag k="highway" v="residential"/>
    <tag k="maxspeed" v="50"/>
    <tag k="maxspeed:source" v="default residential speed limit in Australia"/>
    <tag k="name" v="Boonah Court"/>
  </way>
  <way id="62028195" version="3" timestamp="2010-07-09T05:35:03Z" uid="74617" user="JohnSmith" changeset="5170986">
    <nd ref="773199108"/>
    <nd ref="773199086"/>
    <tag k="highway" v="residential"/>
    <tag k="maxspeed" v="50"/>
    <tag k="maxspeed:source" v="default residential speed limit in Australia"/>
    <tag k="name" v="Cypress Avenue"/>
  </way>
  <way id="62028196" version="2" timestamp="2010-07-09T05:35:09Z" uid="74617" user="JohnSmith" changeset="5170986">
    <nd ref="354441806"/>
    <nd ref="691026942"/>
    <nd ref="354441808"/>
    <nd ref="354441809"/>
    <nd ref="354441810"/>
    <nd ref="354441811"/>
    <nd ref="354441812"/>
    <nd ref="354441419"/>
    <tag k="highway" v="residential"/>
    <tag k="maxspeed" v="50"/>
    <tag k="maxspeed:source" v="default residential speed limit in Australia"/>
    <tag k="name" v="Romilly Avenue"/>
  </way>
  <way id="62028197" version="2" timestamp="2010-07-09T04:09:46Z" uid="74617" user="JohnSmith" changeset="5170825">
    <nd ref="354440391"/>
    <nd ref="354440392"/>
    <tag k="highway" v="residential"/>
    <tag k="maxspeed" v="50"/>
    <tag k="maxspeed:source" v="default residential speed limit in Australia"/>
    <tag k="name" v="Linton Avenue"/>
  </way>
  <way id="62028198" version="2" timestamp="2010-07-09T04:06:14Z" uid="74617" user="JohnSmith" changeset="5170825">
    <nd ref="773199084"/>
    <nd ref="773199093"/>
    <tag k="highway" v="residential"/>
    <tag k="maxspeed" v="50"/>
    <tag k="maxspeed:source" v="default residential speed limit in Australia"/>
    <tag k="name" v="Teresa Court"/>
  </way>
  <way id="62028199" version="2" timestamp="2010-07-09T04:02:43Z" uid="74617" user="JohnSmith" changeset="5170825">
    <nd ref="773199089"/>
    <nd ref="773199096"/>
    <tag k="highway" v="residential"/>
    <tag k="maxspeed" v="50"/>
    <tag k="maxspeed:source" v="default residential speed limit in Australia"/>
    <tag k="name" v="Harvey Avenue"/>
  </way>
  <way id="62028221" version="2" timestamp="2010-07-30T20:42:42Z" uid="9581" user="Lobelt" changeset="5358064">
    <nd ref="432530623"/>
    <nd ref="839191098"/>
    <nd ref="839191110"/>
    <nd ref="839191082"/>
    <nd ref="839191053"/>
    <nd ref="839191000"/>
    <nd ref="332951263"/>
    <tag k="highway" v="track"/>
    <tag k="source" v="survey"/>
    <tag k="tracktype" v="grade3"/>
  </way>
  <way id="62028584" version="1" timestamp="2010-06-15T19:06:47Z" uid="20587" user="balrog-kun" changeset="4994404">
    <nd ref="772912623"/>
    <nd ref="772910806"/>
    <nd ref="772909891"/>
    <nd ref="772911082"/>
    <nd ref="772909199"/>
    <nd ref="772912740"/>
    <nd ref="772910326"/>
    <nd ref="772915905"/>
    <nd ref="772908458"/>
    <nd ref="772910842"/>
    <nd ref="772912623"/>
    <tag k="addr:housenumber" v="6a"/>
    <tag k="addr:street" v="Cedrowa"/>
    <tag k="building" v="residential"/>
    <tag k="building:levels" v="2.5"/>
    <tag k="building:usage:pl" v="Mieszkalny"/>
    <tag k="source" v="gis.um.szczecin.pl"/>
  </way>
</osm>
