<?xml version='1.0' encoding='UTF-8'?>
<osm version="0.6" generator="libosmium/2.20.0">
  <way id="62031447" version="1" timestamp="2010-06-15T19:39:17Z" uid="151899" user="Bikeman2000" changeset="4994767">
    <nd ref="773230143"/>
    <nd ref="773230147"/>
    <nd ref="773230142"/>
    <nd ref="773230145"/>
    <nd ref="773230146"/>
    <nd ref="773230141"/>
    <nd ref="773230140"/>
    <nd ref="773230144"/>
    <nd ref="253899166"/>
    <nd ref="773230143"/>
    <tag k="area" v="yes"/>
    <tag k="highway" v="residential"/>
  </way>
  <way id="62031915" version="2" timestamp="2010-07-09T04:13:23Z" uid="74617" user="JohnSmith" changeset="5170825">
    <nd ref="349355261"/>
    <nd ref="349355263"/>
    <nd ref="349355262"/>
    <nd ref="690979625"/>
    <nd ref="349355373"/>
    <nd ref="349355383"/>
    <nd ref="349355374"/>
    <tag k="highway" v="residential"/>
    <tag k="maxspeed" v="50"/>
    <tag k="maxspeed:source" v="default residential speed limit in Australia"/>
    <tag k="name" v="Glenair Street"/>
  </way>
  <way id="62031916" version="2" timestamp="2010-07-09T05:35:06Z" uid="74617" user="JohnSmith" changeset="5170986">
    <nd ref="773235553"/>
    <nd ref="773235474"/>
    <nd ref="773235538"/>
    <tag k="highway" v="residential"/>
    <tag k="maxspeed" v="50"/>
    <tag k="maxspeed:source" v="default residential speed limit in Australia"/>
    <tag k="name" v="Ranleigh Rise"/>
  </way>
  <way id="62031917" version="2" timestamp="2010-07-09T05:35:15Z" uid="74617" user="JohnSmith" changeset="5170986">
    <nd ref="773235547"/>
    <nd ref="773235509"/>
    <nd ref="773235487"/>
    <tag k="highway" v="residential"/>
    <tag k="maxspeed" v="50"/>
    <tag k="maxspeed:source" v="default residential speed limit in Australia"/>
    <tag k="name" v="The Mall"/>
    <tag k="oneway" v="yes"/>
  </way>
  <way id="62031918" version="2" timestamp="2010-07-09T05:35:22Z" uid="74617" user="JohnSmith" changeset="5170986">
    <nd ref="773235501"/>
    <nd ref="773235564"/>
    <tag k="highway" v="residential"/>
    <tag k="maxspeed" v="50"/>
    <tag k="maxspeed:source" v="default residential speed limit in Australia"/>
    <tag k="name" v="Susan Court"/>
  </way>
  <way id="62031919" version="2" timestamp="2010-07-09T05:35:30Z" uid="74617" user="JohnSmith" changeset="5170986">
    <nd ref="773235504"/>
    <nd ref="773235461"/>
    <nd ref="773235493"/>
    <tag k="highway" v="residential"/>
    <tag k="maxspeed" v="50"/>
    <tag k="maxspeed:source" v="default residential speed limit in Australia"/>
    <tag k="name" v="Gidgee Avenue"/>
  </way>
  <way id="62031923" version="2" timestamp="2010-07-09T05:35:33Z" uid="74617" user="JohnSmith" changeset="5170986">
    <nd ref="773235487"/>
    <nd ref="773235552"/>
    <nd ref="773235513"/>
    <tag k="highway" v="residential"/>
    <tag k="maxspeed" v="50"/>
    <tag k="maxspeed:source" v="default residential speed limit in Australia"/>
    <tag k="name" v="The Mall"/>
    <tag k="oneway" v="yes"/>
  </way>
  <way id="62031924" version="2" timestamp="2010-07-09T05:34:50Z" uid="74617" user="JohnSmith" changeset="5170986">
    <nd ref="773235560"/>
    <nd ref="773235522"/>
    <nd ref="773235490"/>
    <tag k="highway" v="residential"/>
    <tag k="maxspeed" v="50"/>
    <tag k="maxspeed:source" v="default residential speed limit in Australia"/>
    <tag k="name" v="Box Court"/>
  </way>
  <way id="62031926" version="2" timestamp="2010-07-09T05:35:05Z" uid="74617" user="JohnSmith" changeset="5170986">
    <nd ref="773235503"/>
    <nd ref="773235525"/>
    <nd ref="773235555"/>
    <nd ref="773235568"/>
    <nd ref="773235541"/>
    <nd ref="773235529"/>
    <nd ref="773235485"/>
    <nd ref="773235542"/>
    <nd ref="773235500"/>
    <nd ref="773235563"/>
    <nd ref="773235525"/>
    <tag k="highway" v="residential"/>
    <tag k="maxspeed" v="50"/>
    <tag k="maxspeed:source" v="default residential speed limit in Australia"/>
    <tag k="name" v="Sunrise Crescent"/>
  </way>
  <way id="62031927" version="2" timestamp="2010-07-09T05:35:13Z" uid="74617" user="JohnSmith" changeset="5170986">
    <nd ref="773235474"/>
    <nd ref="773235543"/>
    <nd ref="773235511"/>
    <nd ref="773235467"/>
    <tag k="highway" v="residential"/>
    <tag k="maxspeed" v="50"/>
    <tag k="maxspeed:source" v="default residential speed limit in Australia"/>
    <tag k="name" v="Ranleigh Rise"/>
  </way>
  <way id="62031928" version="2" timestamp="2010-07-09T05:34:58Z" uid="74617" user="JohnSmith" changeset="5170986">
    <nd ref="773235491"/>
    <nd ref="773235545"/>
    <nd ref="773235507"/>
    <nd ref="773235463"/>
    <nd ref="773235523"/>
    <nd ref="773235481"/>
    <tag k="highway" v="residential"/>
    <tag k="maxspeed" v="50"/>
    <tag k="maxspeed:source" v="default residential speed limit in Australia"/>
    <tag k="name" v="David Road"/>
  </way>
  <way id="62031929" version="2" timestamp="2010-07-09T05:35:06Z" uid="74617" user="JohnSmith" changeset="5170986">
    <nd ref="773235476"/>
    <nd ref="773235553"/>
    <nd ref="773235514"/>
    <nd ref="773235468"/>
    <nd ref="773235535"/>
    <nd ref="773235484"/>
    <tag k="highway" v="residential"/>
    <tag k="maxspeed" v="50"/>
    <tag k="maxspeed:source" v="default residential speed limit in Australia"/>
    <tag k="name" v="Gidgee Avenue"/>
  </way>
  <way id="62031930" version="2" timestamp="2010-07-25T13:58:56Z" uid="4467" user="Rosscoe" changeset="5312110">
    <nd ref="773235539"/>
    <nd ref="773235508"/>
    <nd ref="773235558"/>
    <nd ref="773235520"/>
    <nd ref="773235479"/>
    <nd ref="773235544"/>
    <nd ref="773235516"/>
    <nd ref="773235471"/>
    <nd ref="773235537"/>
    <nd ref="773235495"/>
    <nd ref="773235548"/>
    <nd ref="773235510"/>
    <nd ref="773235466"/>
    <tag k="bridge" v="yes"/>
    <tag k="highway" v="footway"/>
    <tag k="layer" v="1"/>
  </way>
  <way id="62031931" version="2" timestamp="2010-07-09T05:35:21Z" uid="74617" user="JohnSmith" changeset="5170986">
    <nd ref="773235517"/>
    <nd ref="773235473"/>
    <nd ref="773235540"/>
    <nd ref="773235498"/>
    <nd ref="773235465"/>
    <nd ref="773235534"/>
    <tag k="highway" v="residential"/>
    <tag k="maxspeed" v="50"/>
    <tag k="maxspeed:source" v="default residential speed limit in Australia"/>
    <tag k="name" v="McGahy Street"/>
  </way>
  <way id="62031932" version="2" timestamp="2010-07-09T04:03:48Z" uid="74617" user="JohnSmith" changeset="5170825">
    <nd ref="773235530"/>
    <nd ref="773235486"/>
    <nd ref="773235551"/>
    <tag k="highway" v="residential"/>
    <tag k="maxspeed" v="50"/>
    <tag k="maxspeed:source" v="default residential speed limit in Australia"/>
    <tag k="name" v="Kitson Crescent"/>
  </way>
  <way id="62031933" version="2" timestamp="2010-07-09T04:00:22Z" uid="74617" user="JohnSmith" changeset="5170825">
    <nd ref="349355088"/>
    <nd ref="773235530"/>
    <nd ref="773235505"/>
    <tag k="highway" v="residential"/>
    <tag k="maxspeed" v="50"/>
    <tag k="maxspeed:source" v="default residential speed limit in Australia"/>
    <tag k="name" v="Kitson Crescent"/>
  </way>
  <way id="62031934" version="3" timestamp="2010-07-09T05:34:54Z" uid="74617" user="JohnSmith" changeset="5170986">
    <nd ref="773235519"/>
    <nd ref="773517356"/>
    <nd ref="773517765"/>
    <nd ref="773235487"/>
    <tag k="highway" v="residential"/>
    <tag k="maxspeed" v="50"/>
    <tag k="maxspeed:source" v="default residential speed limit in Australia"/>
    <tag k="name" v="The Mall"/>
  </way>
  <way id="62031935" version="2" timestamp="2010-07-09T05:35:02Z" uid="74617" user="JohnSmith" changeset="5170986">
    <nd ref="352939326"/>
    <nd ref="773235472"/>
    <tag k="highway" v="residential"/>
    <tag k="maxspeed" v="50"/>
    <tag k="maxspeed:source" v="default residential speed limit in Australia"/>
    <tag k="name" v="Elder Court"/>
  </way>
  <way id="62031936" version="2" timestamp="2010-07-09T05:35:22Z" uid="74617" user="JohnSmith" changeset="5170986">
    <nd ref="773235567"/>
    <nd ref="773235528"/>
    <tag k="highway" v="residential"/>
    <tag k="maxspeed" v="50"/>
    <tag k="maxspeed:source" v="default residential speed limit in Australia"/>
    <tag k="name" v="Joseph Street"/>
  </way>
  <way id="62031937" version="2" timestamp="2010-07-09T04:12:45Z" uid="74617" user="JohnSmith" changeset="5170825">
    <nd ref="349354898"/>
    <nd ref="773235554"/>
    <nd ref="773235515"/>
    <nd ref="773235470"/>
    <nd ref="773235556"/>
    <nd ref="324209438"/>
    <tag k="highway" v="residential"/>
    <tag k="maxspeed" v="50"/>
    <tag k="maxspeed:source" v="default residential speed limit in Australia"/>
    <tag k="name" v="Caroline Drive"/>
  </way>
  <way id="62031938" version="2" timestamp="2010-07-09T05:35:40Z" uid="74617" user="JohnSmith" changeset="5170986">
    <nd ref="773235561"/>
    <nd ref="773235462"/>
    <nd ref="773235489"/>
    <tag k="highway" v="residential"/>
    <tag k="maxspeed" v="50"/>
    <tag k="maxspeed:source" v="default residential speed limit in Australia"/>
    <tag k="name" v="John Street"/>
  </way>
  <way id="62031939" version="2" timestamp="2010-07-09T05:34:55Z" uid="74617" user="JohnSmith" changeset="5170986">
    <nd ref="773235523"/>
    <nd ref="773235532"/>
    <nd ref="773235499"/>
    <nd ref="773235562"/>
    <nd ref="773235524"/>
    <nd ref="773235482"/>
    <nd ref="773235497"/>
    <tag k="highway" v="residential"/>
    <tag k="maxspeed" v="50"/>
    <tag k="maxspeed:source" v="default residential speed limit in Australia"/>
    <tag k="name" v="David Road"/>
  </way>
  <way id="62031940" version="2" timestamp="2010-07-09T05:35:04Z" uid="74617" user="JohnSmith" changeset="5170986">
    <nd ref="773235534"/>
    <nd ref="773235531"/>
    <nd ref="773235519"/>
    <nd ref="773235567"/>
    <nd ref="773235488"/>
    <nd ref="773235561"/>
    <tag k="highway" v="residential"/>
    <tag k="maxspeed" v="50"/>
    <tag k="maxspeed:source" v="default residential speed limit in Australia"/>
    <tag k="name" v="Rosa Street"/>
  </way>
  <way id="62031941" version="2" timestamp="2010-07-09T05:35:10Z" uid="74617" user="JohnSmith" changeset="5170986">
    <nd ref="773235556"/>
    <nd ref="773235518"/>
    <nd ref="773235475"/>
    <nd ref="773235550"/>
    <nd ref="773235512"/>
    <tag k="highway" v="residential"/>
    <tag k="maxspeed" v="50"/>
    <tag k="maxspeed:source" v="default residential speed limit in Australia"/>
    <tag k="name" v="Buller Terrace"/>
  </way>
</osm>
