<?xml version='1.0' encoding='UTF-8'?>
<osm version="0.6" generator="libosmium/2.20.0">
  <way id="62072100" version="1" timestamp="2010-06-16T14:16:43Z" uid="9719" user="dvaey" changeset="5000654">
    <nd ref="60960658"/>
    <nd ref="21306423"/>
    <nd ref="21306424"/>
    <nd ref="21306425"/>
    <nd ref="21306426"/>
    <nd ref="21306427"/>
    <nd ref="280390682"/>
    <nd ref="277552181"/>
    <nd ref="60983722"/>
    <nd ref="21306428"/>
    <nd ref="21306429"/>
    <nd ref="21306430"/>
    <nd ref="21306431"/>
    <nd ref="664389150"/>
    <tag k="highway" v="secondary"/>
    <tag k="maxspeed" v="60"/>
    <tag k="name" v="Namatjira Drive"/>
  </way>
  <way id="62072196" version="1" timestamp="2010-06-16T14:22:45Z" uid="9719" user="dvaey" changeset="5000654">
    <nd ref="21151114"/>
    <nd ref="21306417"/>
    <nd ref="280902938"/>
    <nd ref="21306418"/>
    <nd ref="21306419"/>
    <nd ref="278182369"/>
    <nd ref="21306421"/>
    <nd ref="773659120"/>
    <nd ref="21306422"/>
    <nd ref="60960658"/>
    <tag k="highway" v="secondary"/>
    <tag k="maxspeed" v="60"/>
    <tag k="name" v="Namatjira Drive"/>
  </way>
  <way id="62072264" version="1" timestamp="2010-06-16T14:26:35Z" uid="9719" user="dvaey" changeset="5000654">
    <nd ref="21151145"/>
    <nd ref="21151131"/>
    <nd ref="686568297"/>
    <nd ref="21151119"/>
    <nd ref="21151109"/>
    <nd ref="21151097"/>
    <nd ref="21151114"/>
    <tag k="highway" v="secondary"/>
    <tag k="name" v="Streeton Drive"/>
  </way>
  <way id="62072419" version="2" timestamp="2011-02-06T02:21:38Z" uid="4467" user="Rosscoe" changeset="7199528">
    <nd ref="30203941"/>
    <nd ref="773644564"/>
    <tag k="highway" v="pedestrian"/>
    <tag k="source" v="nearmap"/>
  </way>
  <way id="62072422" version="2" timestamp="2011-02-06T02:21:30Z" uid="4467" user="Rosscoe" changeset="7199528">
    <nd ref="25954784"/>
    <nd ref="25954785"/>
    <nd ref="30203941"/>
    <nd ref="30203942"/>
    <tag k="highway" v="pedestrian"/>
    <tag k="source" v="nearmap"/>
  </way>
  <way id="62072764" version="1" timestamp="2010-06-16T14:38:57Z" uid="23543" user="jkjk" changeset="5001164">
    <nd ref="773667421"/>
    <nd ref="773667223"/>
    <nd ref="773667460"/>
    <nd ref="773667253"/>
    <nd ref="773667232"/>
    <nd ref="773667301"/>
    <nd ref="773667271"/>
    <nd ref="773667363"/>
    <nd ref="773667332"/>
    <nd ref="773667427"/>
    <tag k="highway" v="motorway"/>
    <tag k="lanes" v="2"/>
    <tag k="name" v="同三高速"/>
    <tag k="name:en" v="Tongsan Expressway"/>
    <tag k="ref" v="G15"/>
    <tag k="source" v="landsat"/>
  </way>
  <way id="62072765" version="1" timestamp="2010-06-16T14:38:57Z" uid="23543" user="jkjk" changeset="5001164">
    <nd ref="773667476"/>
    <nd ref="773667451"/>
    <nd ref="773667261"/>
    <nd ref="773667242"/>
    <nd ref="773667316"/>
    <nd ref="773667286"/>
    <nd ref="773667379"/>
    <nd ref="773667345"/>
    <nd ref="773667306"/>
    <nd ref="773667277"/>
    <nd ref="773667372"/>
    <nd ref="773667334"/>
    <nd ref="773667434"/>
    <nd ref="773667402"/>
    <nd ref="773667208"/>
    <nd ref="773667456"/>
    <nd ref="773667374"/>
    <nd ref="773667340"/>
    <tag k="highway" v="motorway"/>
    <tag k="lanes" v="2"/>
    <tag k="name" v="同三高速"/>
    <tag k="name:en" v="Tongsan Expressway"/>
    <tag k="ref" v="G15"/>
    <tag k="source" v="landsat"/>
  </way>
  <way id="62072766" version="1" timestamp="2010-06-16T14:38:57Z" uid="23543" user="jkjk" changeset="5001164">
    <nd ref="773667228"/>
    <nd ref="773667204"/>
    <tag k="bridge" v="yes"/>
    <tag k="highway" v="motorway"/>
    <tag k="lanes" v="2"/>
    <tag k="layer" v="1"/>
    <tag k="name" v="同三高速"/>
    <tag k="name:en" v="Tongsan Expressway"/>
    <tag k="ref" v="G15"/>
    <tag k="source" v="landsat"/>
  </way>
  <way id="62072767" version="1" timestamp="2010-06-16T14:38:57Z" uid="23543" user="jkjk" changeset="5001164">
    <nd ref="773667442"/>
    <nd ref="773667274"/>
    <tag k="aeroway" v="runway"/>
  </way>
  <way id="62072768" version="1" timestamp="2010-06-16T14:38:58Z" uid="23543" user="jkjk" changeset="5001164">
    <nd ref="773667204"/>
    <nd ref="773667447"/>
    <tag k="highway" v="motorway"/>
    <tag k="lanes" v="2"/>
    <tag k="name" v="同三高速"/>
    <tag k="name:en" v="Tongsan Expressway"/>
    <tag k="ref" v="G15"/>
    <tag k="source" v="landsat"/>
  </way>
  <way id="62072769" version="1" timestamp="2010-06-16T14:38:58Z" uid="23543" user="jkjk" changeset="5001164">
    <nd ref="773667371"/>
    <nd ref="378731751"/>
    <nd ref="378731753"/>
    <nd ref="378728825"/>
    <tag k="highway" v="secondary"/>
  </way>
  <way id="62072770" version="1" timestamp="2010-06-16T14:38:58Z" uid="23543" user="jkjk" changeset="5001164">
    <nd ref="773667447"/>
    <nd ref="773667421"/>
    <tag k="bridge" v="yes"/>
    <tag k="highway" v="motorway"/>
    <tag k="lanes" v="2"/>
    <tag k="layer" v="1"/>
    <tag k="name" v="同三高速"/>
    <tag k="name:en" v="Tongsan Expressway"/>
    <tag k="ref" v="G15"/>
    <tag k="source" v="landsat"/>
  </way>
  <way id="62072771" version="1" timestamp="2010-06-16T14:38:58Z" uid="23543" user="jkjk" changeset="5001164">
    <nd ref="773667429"/>
    <nd ref="773667453"/>
    <nd ref="773667365"/>
    <nd ref="378731745"/>
    <nd ref="378731746"/>
    <nd ref="378731747"/>
    <nd ref="773667426"/>
    <nd ref="378731748"/>
    <nd ref="378731749"/>
    <nd ref="378731750"/>
    <nd ref="378731751"/>
    <nd ref="773667406"/>
    <tag k="railway" v="rail"/>
  </way>
  <way id="62072772" version="1" timestamp="2010-06-16T14:38:58Z" uid="23543" user="jkjk" changeset="5001164">
    <nd ref="773667427"/>
    <nd ref="773667396"/>
    <nd ref="773667476"/>
    <tag k="bridge" v="yes"/>
    <tag k="highway" v="motorway"/>
    <tag k="lanes" v="2"/>
    <tag k="layer" v="1"/>
    <tag k="name" v="同三高速"/>
    <tag k="name:en" v="Tongsan Expressway"/>
    <tag k="ref" v="G15"/>
    <tag k="source" v="landsat"/>
  </way>
  <way id="62072773" version="1" timestamp="2010-06-16T14:38:58Z" uid="23543" user="jkjk" changeset="5001164">
    <nd ref="773667422"/>
    <nd ref="773667256"/>
    <tag k="aeroway" v="runway"/>
  </way>
  <way id="62072865" version="2" timestamp="2010-07-09T21:42:17Z" uid="74617" user="JohnSmith" changeset="5176956">
    <nd ref="773668679"/>
    <nd ref="773668680"/>
    <nd ref="773668679"/>
    <tag k="highway" v="residential"/>
    <tag k="maxspeed" v="50"/>
    <tag k="maxspeed:source" v="default residential speed limit in Australia"/>
    <tag k="name" v="Christowe Drive"/>
  </way>
  <way id="62072883" version="2" timestamp="2010-07-09T21:42:11Z" uid="74617" user="JohnSmith" changeset="5176956">
    <nd ref="773668804"/>
    <nd ref="773668805"/>
    <tag k="highway" v="residential"/>
    <tag k="maxspeed" v="50"/>
    <tag k="maxspeed:source" v="default residential speed limit in Australia"/>
    <tag k="name" v="Volich Place"/>
  </way>
  <way id="62072938" version="2" timestamp="2010-07-07T19:34:28Z" uid="74617" user="JohnSmith" changeset="5161069">
    <nd ref="773669658"/>
    <nd ref="773669659"/>
    <tag k="highway" v="residential"/>
    <tag k="maxspeed" v="50"/>
    <tag k="maxspeed:source" v="default residential speed limit in Australia"/>
    <tag k="name" v="Gerongar Cresent"/>
  </way>
  <way id="62072939" version="2" timestamp="2010-07-07T19:31:19Z" uid="74617" user="JohnSmith" changeset="5161069">
    <nd ref="773669661"/>
    <nd ref="773669662"/>
    <tag k="highway" v="residential"/>
    <tag k="maxspeed" v="50"/>
    <tag k="maxspeed:source" v="default residential speed limit in Australia"/>
  </way>
  <way id="62072940" version="2" timestamp="2010-07-07T19:34:03Z" uid="74617" user="JohnSmith" changeset="5161069">
    <nd ref="248606387"/>
    <nd ref="773669663"/>
    <tag k="highway" v="residential"/>
    <tag k="maxspeed" v="50"/>
    <tag k="maxspeed:source" v="default residential speed limit in Australia"/>
    <tag k="name" v="Haywards Bay Drive"/>
  </way>
  <way id="62072941" version="2" timestamp="2010-07-07T19:31:00Z" uid="74617" user="JohnSmith" changeset="5161069">
    <nd ref="248606438"/>
    <nd ref="773669664"/>
    <tag k="highway" v="residential"/>
    <tag k="maxspeed" v="50"/>
    <tag k="maxspeed:source" v="default residential speed limit in Australia"/>
    <tag k="name" v="Haywards Bay Drive"/>
  </way>
  <way id="62072942" version="2" timestamp="2010-07-07T19:32:53Z" uid="74617" user="JohnSmith" changeset="5161069">
    <nd ref="773669665"/>
    <nd ref="773669666"/>
    <tag k="highway" v="residential"/>
    <tag k="maxspeed" v="50"/>
    <tag k="maxspeed:source" v="default residential speed limit in Australia"/>
  </way>
  <way id="62072948" version="2" timestamp="2010-07-07T19:32:50Z" uid="74617" user="JohnSmith" changeset="5161069">
    <nd ref="773669687"/>
    <nd ref="773669688"/>
    <tag k="highway" v="residential"/>
    <tag k="maxspeed" v="50"/>
    <tag k="maxspeed:source" v="default residential speed limit in Australia"/>
  </way>
  <way id="62072954" version="2" timestamp="2010-07-07T19:32:22Z" uid="74617" user="JohnSmith" changeset="5161069">
    <nd ref="269299903"/>
    <nd ref="678344261"/>
    <nd ref="269299966"/>
    <tag k="highway" v="residential"/>
    <tag k="maxspeed" v="50"/>
    <tag k="maxspeed:source" v="default residential speed limit in Australia"/>
    <tag k="name" v="Miall Way"/>
    <tag k="oneway" v="yes"/>
  </way>
</osm>
