<?xml version='1.0' encoding='UTF-8'?>
<osm version="0.6" generator="libosmium/2.20.0">
  <way id="62083030" version="3" timestamp="2010-08-09T05:09:11Z" uid="20587" user="balrog-kun" changeset="5440029">
    <nd ref="773934092"/>
    <nd ref="815592037"/>
    <nd ref="773934021"/>
    <nd ref="773934115"/>
    <nd ref="773934207"/>
    <nd ref="773934303"/>
    <nd ref="773934253"/>
    <nd ref="773934044"/>
    <nd ref="773934136"/>
    <nd ref="773934229"/>
    <nd ref="773934276"/>
    <nd ref="773934158"/>
    <nd ref="773934249"/>
    <nd ref="773934264"/>
    <nd ref="773934054"/>
    <nd ref="773934319"/>
    <nd ref="773934102"/>
    <nd ref="773934189"/>
    <nd ref="773934058"/>
    <nd ref="773934147"/>
    <nd ref="773934240"/>
    <nd ref="773934033"/>
    <nd ref="773934292"/>
    <nd ref="773934080"/>
    <nd ref="773934267"/>
    <nd ref="773934185"/>
    <nd ref="773934075"/>
    <nd ref="773934163"/>
    <nd ref="773934128"/>
    <nd ref="773934221"/>
    <nd ref="773934315"/>
    <nd ref="773934098"/>
    <nd ref="773934121"/>
    <nd ref="773934214"/>
    <nd ref="773934308"/>
    <nd ref="773934261"/>
    <nd ref="773934134"/>
    <nd ref="773934228"/>
    <nd ref="773934016"/>
    <nd ref="773934275"/>
    <nd ref="773934068"/>
    <nd ref="773934171"/>
    <nd ref="773934270"/>
    <nd ref="773934105"/>
    <nd ref="773934192"/>
    <nd ref="773934154"/>
    <nd ref="773934132"/>
    <nd ref="773934170"/>
    <nd ref="773934269"/>
    <nd ref="773934062"/>
    <nd ref="773934151"/>
    <nd ref="773934109"/>
    <nd ref="773934296"/>
    <nd ref="773934083"/>
    <nd ref="773934318"/>
    <nd ref="773934101"/>
    <nd ref="773934187"/>
    <nd ref="773934288"/>
    <nd ref="773934130"/>
    <nd ref="773934223"/>
    <nd ref="773934127"/>
    <nd ref="773934219"/>
    <nd ref="773934314"/>
    <nd ref="773934234"/>
    <nd ref="773934043"/>
    <nd ref="374198037"/>
    <tag k="boat" v="no"/>
    <tag k="name" v="Riu Onyar"/>
    <tag k="name:es" v="Oñar"/>
    <tag k="source" v="Ajuntament de Girona"/>
    <tag k="waterway" v="river"/>
    <tag k="wikipedia" v="Onyar"/>
  </way>
  <way id="62083918" version="1" timestamp="2010-06-16T19:36:03Z" uid="49111" user="Markus B" changeset="5003517">
    <nd ref="773940308"/>
    <nd ref="773940306"/>
    <nd ref="773940303"/>
    <nd ref="773940310"/>
    <nd ref="773940308"/>
    <tag k="addr:city" v="Großbellhofen"/>
    <tag k="addr:country" v="DE"/>
    <tag k="addr:housenumber" v="11"/>
    <tag k="addr:postcode" v="91220"/>
    <tag k="addr:street" v="Hauptstraße"/>
    <tag k="amenity" v="restaurant"/>
    <tag k="name" v="Mama Ljubica"/>
    <tag k="opening_hours" v="Mo off"/>
    <tag k="phone" v="09153-970549"/>
    <tag k="smoking" v="no"/>
    <tag k="smoking:outside" v="yes"/>
  </way>
  <way id="62083919" version="1" timestamp="2010-06-16T19:36:03Z" uid="49111" user="Markus B" changeset="5003517">
    <nd ref="773940339"/>
    <nd ref="773940340"/>
    <nd ref="773940338"/>
    <nd ref="773940337"/>
    <nd ref="773940339"/>
    <tag k="addr:city" v="Osternohe"/>
    <tag k="addr:country" v="DE"/>
    <tag k="addr:housenumber" v="2"/>
    <tag k="addr:postcode" v="91220"/>
    <tag k="addr:street" v="An der Osternohe"/>
    <tag k="amenity" v="restaurant"/>
    <tag k="building" v="yes"/>
    <tag k="cuisine" v="german"/>
    <tag k="name" v="Goldener Stern"/>
    <tag k="opening_hours" v="Do off"/>
    <tag k="phone" v="09153-7586"/>
    <tag k="smoking" v="no"/>
    <tag k="smoking:outside" v="yes"/>
    <tag k="website" v="http://goldener-stern-osternohe.de"/>
  </way>
  <way id="62083919" version="2" timestamp="2010-06-18T15:42:57Z" uid="49111" user="Markus B" changeset="5017235">
    <nd ref="773940339"/>
    <nd ref="773940340"/>
    <nd ref="773940338"/>
    <nd ref="773940337"/>
    <nd ref="773940339"/>
    <tag k="building" v="yes"/>
  </way>
</osm>
