<?xml version='1.0' encoding='UTF-8'?>
<osm version="0.6" generator="libosmium/2.20.0">
  <way id="62221027" version="1" timestamp="2010-06-19T13:29:56Z" uid="9719" user="dvaey" changeset="5023977">
    <nd ref="208968556"/>
    <nd ref="21153643"/>
    <nd ref="21153629"/>
    <nd ref="283024479"/>
    <nd ref="21151113"/>
    <nd ref="21151120"/>
    <nd ref="21151132"/>
    <nd ref="61674060"/>
    <nd ref="21151117"/>
    <nd ref="442397494"/>
    <tag k="highway" v="secondary"/>
    <tag k="name" v="Namatjira Drive"/>
  </way>
  <way id="62221027" version="2" timestamp="2010-06-19T13:30:23Z" uid="9719" user="dvaey" changeset="5023977">
    <nd ref="208968556"/>
    <nd ref="21153643"/>
    <tag k="highway" v="secondary"/>
    <tag k="name" v="Namatjira Drive"/>
  </way>
  <way id="62221027" version="3" timestamp="2010-06-19T13:32:12Z" uid="9719" user="dvaey" changeset="5023977">
    <nd ref="208968556"/>
    <nd ref="21153643"/>
    <nd ref="21153629"/>
    <nd ref="283024479"/>
    <nd ref="21151113"/>
    <nd ref="21151120"/>
    <nd ref="21151132"/>
    <nd ref="61674060"/>
    <nd ref="21151117"/>
    <nd ref="442397494"/>
    <tag k="highway" v="secondary"/>
    <tag k="name" v="Namatjira Drive"/>
  </way>
  <way id="62221027" version="4" timestamp="2010-06-19T13:32:14Z" uid="9719" user="dvaey" changeset="5023977">
    <nd ref="208968556"/>
    <nd ref="21153643"/>
    <nd ref="21153629"/>
    <tag k="highway" v="secondary"/>
    <tag k="name" v="Namatjira Drive"/>
  </way>
  <way id="62221056" version="1" timestamp="2010-06-19T13:30:23Z" uid="9719" user="dvaey" changeset="5023977">
    <nd ref="21153643"/>
    <nd ref="21153629"/>
    <nd ref="283024479"/>
    <nd ref="21151113"/>
    <nd ref="21151120"/>
    <nd ref="21151132"/>
    <nd ref="61674060"/>
    <nd ref="21151117"/>
    <nd ref="442397494"/>
    <tag k="highway" v="secondary"/>
    <tag k="name" v="Namatjira Drive"/>
  </way>
  <way id="62221056" version="2" timestamp="2010-06-19T13:32:12Z" uid="9719" user="dvaey" changeset="5023977"/>
  <way id="62221057" version="1" timestamp="2010-06-19T13:30:36Z" uid="9719" user="dvaey" changeset="5023977">
    <nd ref="21153643"/>
    <nd ref="442374480"/>
    <tag k="highway" v="primary"/>
    <tag k="maxspeed" v="80"/>
    <tag k="name" v="Hindmarsh Drive"/>
    <tag k="oneway" v="yes"/>
  </way>
  <way id="62221109" version="1" timestamp="2010-06-19T13:32:14Z" uid="9719" user="dvaey" changeset="5023977">
    <nd ref="21153629"/>
    <nd ref="283024479"/>
    <nd ref="21151113"/>
    <nd ref="21151120"/>
    <nd ref="21151132"/>
    <nd ref="61674060"/>
    <nd ref="21151117"/>
    <nd ref="442397494"/>
    <tag k="highway" v="secondary"/>
    <tag k="name" v="Namatjira Drive"/>
  </way>
  <way id="62221109" version="2" timestamp="2010-07-17T00:46:35Z" uid="4467" user="Rosscoe" changeset="5238805">
    <nd ref="21153629"/>
    <nd ref="283024479"/>
    <nd ref="21151113"/>
    <nd ref="821348061"/>
    <nd ref="21151120"/>
    <nd ref="21151132"/>
    <nd ref="61674060"/>
    <nd ref="21151117"/>
    <nd ref="442397494"/>
    <tag k="highway" v="secondary"/>
    <tag k="name" v="Namatjira Drive"/>
  </way>
  <way id="62221119" version="1" timestamp="2010-06-19T13:32:25Z" uid="9719" user="dvaey" changeset="5023977">
    <nd ref="21153629"/>
    <nd ref="21153628"/>
    <nd ref="21153627"/>
    <nd ref="154102557"/>
    <nd ref="21540199"/>
    <tag k="highway" v="primary"/>
    <tag k="name" v="Hindmarsh Drive"/>
    <tag k="oneway" v="yes"/>
  </way>
  <way id="62221229" version="2" timestamp="2010-12-10T12:30:11Z" uid="49111" user="Markus B" changeset="6604701">
    <nd ref="776279119"/>
    <nd ref="286797819"/>
    <nd ref="286806178"/>
    <nd ref="286806180"/>
    <nd ref="286806182"/>
    <nd ref="286806183"/>
    <nd ref="286806190"/>
    <nd ref="286806191"/>
    <nd ref="286806192"/>
    <nd ref="286806194"/>
    <nd ref="309533344"/>
    <nd ref="309533346"/>
    <nd ref="309533348"/>
    <nd ref="309533350"/>
    <nd ref="309533351"/>
    <nd ref="286797657"/>
    <nd ref="286797655"/>
    <nd ref="286797795"/>
    <nd ref="309533355"/>
    <nd ref="309533353"/>
    <nd ref="286882630"/>
    <nd ref="286882631"/>
    <nd ref="286797690"/>
    <tag k="boat" v="no"/>
    <tag k="name" v="Naifer"/>
    <tag k="note" v="checkit"/>
    <tag k="waterway" v="river"/>
    <tag k="width" v="2"/>
  </way>
  <way id="62221229" version="3" timestamp="2010-12-12T22:39:28Z" uid="49111" user="Markus B" changeset="6642987">
    <nd ref="776279119"/>
    <nd ref="286797819"/>
    <nd ref="286806178"/>
    <nd ref="286806180"/>
    <nd ref="286806182"/>
    <nd ref="286806183"/>
    <nd ref="286806190"/>
    <nd ref="286806191"/>
    <nd ref="286806192"/>
    <nd ref="286806194"/>
    <nd ref="309533344"/>
    <nd ref="309533346"/>
    <nd ref="309533348"/>
    <nd ref="309533350"/>
    <nd ref="309533351"/>
    <nd ref="286797657"/>
    <nd ref="286797655"/>
    <nd ref="286797795"/>
    <nd ref="309533355"/>
    <nd ref="309533353"/>
    <nd ref="286882630"/>
    <nd ref="286882631"/>
    <nd ref="1036574515"/>
    <nd ref="286797690"/>
    <tag k="boat" v="no"/>
    <tag k="name" v="Naifer"/>
    <tag k="note" v="checkit"/>
    <tag k="waterway" v="river"/>
    <tag k="width" v="2"/>
  </way>
  <way id="62221229" version="4" timestamp="2010-12-30T23:52:23Z" uid="49111" user="Markus B" changeset="6815421">
    <nd ref="776279119"/>
    <nd ref="286797819"/>
    <nd ref="286806178"/>
    <nd ref="286806180"/>
    <nd ref="286806182"/>
    <nd ref="286806183"/>
    <nd ref="286806190"/>
    <nd ref="286806191"/>
    <nd ref="286806192"/>
    <nd ref="286806194"/>
    <nd ref="309533344"/>
    <nd ref="309533346"/>
    <nd ref="309533348"/>
    <nd ref="309533350"/>
    <nd ref="309533351"/>
    <nd ref="1074161689"/>
    <nd ref="1074161760"/>
    <nd ref="286797657"/>
    <nd ref="286797655"/>
    <nd ref="286797795"/>
    <nd ref="309533355"/>
    <nd ref="309533353"/>
    <nd ref="286882630"/>
    <nd ref="286882631"/>
    <nd ref="1036574515"/>
    <nd ref="286797690"/>
    <tag k="boat" v="no"/>
    <tag k="name" v="Naifer"/>
    <tag k="note" v="checkit"/>
    <tag k="waterway" v="river"/>
    <tag k="width" v="2"/>
  </way>
  <way id="62221240" version="2" timestamp="2010-06-19T13:52:11Z" uid="4467" user="Rosscoe" changeset="5024184">
    <nd ref="776279744"/>
    <nd ref="776204045"/>
    <nd ref="776279748"/>
    <nd ref="776279751"/>
    <tag k="highway" v="residential"/>
    <tag k="name" v="Laynhapuy Crescent"/>
  </way>
  <way id="62221483" version="2" timestamp="2010-07-07T19:27:31Z" uid="74617" user="JohnSmith" changeset="5161069">
    <nd ref="275518419"/>
    <nd ref="266582671"/>
    <tag k="highway" v="residential"/>
    <tag k="maxspeed" v="50"/>
    <tag k="maxspeed:source" v="default residential speed limit in Australia"/>
    <tag k="name" v="Woodlands Drive"/>
    <tag k="oneway" v="yes"/>
  </way>
  <way id="62221493" version="2" timestamp="2010-07-07T19:25:17Z" uid="74617" user="JohnSmith" changeset="5161069">
    <nd ref="248835203"/>
    <nd ref="776294223"/>
    <nd ref="776294231"/>
    <tag k="highway" v="residential"/>
    <tag k="maxspeed" v="50"/>
    <tag k="maxspeed:source" v="default residential speed limit in Australia"/>
    <tag k="name" v="Beach Road"/>
    <tag k="oneway" v="yes"/>
  </way>
  <way id="62221495" version="2" timestamp="2010-07-07T19:24:00Z" uid="74617" user="JohnSmith" changeset="5161069">
    <nd ref="776294255"/>
    <nd ref="776294259"/>
    <nd ref="776294265"/>
    <nd ref="776294273"/>
    <tag k="highway" v="residential"/>
    <tag k="maxspeed" v="50"/>
    <tag k="maxspeed:source" v="default residential speed limit in Australia"/>
    <tag k="name" v="Mary Street"/>
    <tag k="oneway" v="yes"/>
  </way>
  <way id="62221497" version="1" timestamp="2010-06-19T13:41:30Z" uid="9719" user="dvaey" changeset="5023977">
    <nd ref="319944069"/>
    <nd ref="21306211"/>
    <nd ref="672893755"/>
    <nd ref="176767620"/>
    <nd ref="21306215"/>
    <nd ref="326608776"/>
    <nd ref="78818674"/>
    <nd ref="326606471"/>
    <nd ref="326606298"/>
    <nd ref="21306213"/>
    <nd ref="672548842"/>
    <nd ref="169699491"/>
    <tag k="highway" v="primary"/>
    <tag k="name" v="Hindmarsh Drive"/>
    <tag k="oneway" v="yes"/>
  </way>
  <way id="62221497" version="2" timestamp="2010-06-19T15:58:55Z" uid="9719" user="dvaey" changeset="5025139">
    <nd ref="319944069"/>
    <nd ref="21306211"/>
    <nd ref="672893755"/>
    <nd ref="176767620"/>
    <nd ref="21306215"/>
    <nd ref="326608776"/>
    <nd ref="78818674"/>
    <nd ref="326606471"/>
    <nd ref="326606298"/>
    <nd ref="21306213"/>
    <nd ref="672548842"/>
    <nd ref="776559250"/>
    <nd ref="169699491"/>
    <tag k="highway" v="primary"/>
    <tag k="name" v="Hindmarsh Drive"/>
    <tag k="oneway" v="yes"/>
  </way>
  <way id="62221497" version="3" timestamp="2010-07-04T23:23:18Z" uid="9719" user="dvaey" changeset="5138135">
    <nd ref="319944069"/>
    <nd ref="21306211"/>
    <nd ref="801448324"/>
    <nd ref="672893755"/>
    <nd ref="176767620"/>
    <nd ref="21306215"/>
    <nd ref="326608776"/>
    <nd ref="78818674"/>
    <nd ref="326606471"/>
    <nd ref="326606298"/>
    <nd ref="21306213"/>
    <nd ref="672548842"/>
    <nd ref="776559250"/>
    <nd ref="169699491"/>
    <tag k="highway" v="primary"/>
    <tag k="name" v="Hindmarsh Drive"/>
    <tag k="oneway" v="yes"/>
  </way>
  <way id="62221497" version="4" timestamp="2010-07-06T08:13:28Z" uid="4467" user="Rosscoe" changeset="5148203">
    <nd ref="319944069"/>
    <nd ref="21306211"/>
    <nd ref="801448324"/>
    <nd ref="672893755"/>
    <nd ref="176767620"/>
    <nd ref="21306215"/>
    <nd ref="326608776"/>
    <nd ref="78818674"/>
    <nd ref="326606471"/>
    <nd ref="326606298"/>
    <nd ref="21306213"/>
    <nd ref="776559250"/>
    <nd ref="169699491"/>
    <tag k="highway" v="primary"/>
    <tag k="name" v="Hindmarsh Drive"/>
    <tag k="oneway" v="yes"/>
  </way>
  <way id="62221506" version="2" timestamp="2010-07-07T19:28:02Z" uid="74617" user="JohnSmith" changeset="5161069">
    <nd ref="776294559"/>
    <nd ref="275518419"/>
    <tag k="highway" v="residential"/>
    <tag k="maxspeed" v="50"/>
    <tag k="maxspeed:source" v="default residential speed limit in Australia"/>
    <tag k="name" v="Woodlands Drive"/>
    <tag k="oneway" v="yes"/>
  </way>
  <way id="62221509" version="2" timestamp="2010-07-07T19:28:18Z" uid="74617" user="JohnSmith" changeset="5161069">
    <nd ref="248835202"/>
    <nd ref="776294680"/>
    <nd ref="776294686"/>
    <nd ref="248835203"/>
    <tag k="highway" v="residential"/>
    <tag k="maxspeed" v="50"/>
    <tag k="maxspeed:source" v="default residential speed limit in Australia"/>
    <tag k="name" v="Beach Road"/>
    <tag k="oneway" v="yes"/>
  </way>
  <way id="62221514" version="2" timestamp="2010-07-07T19:27:21Z" uid="74617" user="JohnSmith" changeset="5161069">
    <nd ref="248835203"/>
    <nd ref="248835204"/>
    <nd ref="260938039"/>
    <nd ref="776294744"/>
    <nd ref="248835205"/>
    <nd ref="776294752"/>
    <nd ref="248835206"/>
    <nd ref="260938122"/>
    <nd ref="248835207"/>
    <nd ref="248835250"/>
    <tag k="highway" v="residential"/>
    <tag k="maxspeed" v="50"/>
    <tag k="maxspeed:source" v="default residential speed limit in Australia"/>
    <tag k="name" v="Beach Road"/>
  </way>
  <way id="62221832" version="1" timestamp="2010-06-19T13:46:03Z" uid="9719" user="dvaey" changeset="5023977">
    <nd ref="696027936"/>
    <nd ref="30290976"/>
    <nd ref="15128157"/>
    <tag k="highway" v="secondary"/>
    <tag k="name" v="Launceston Street"/>
    <tag k="oneway" v="yes"/>
  </way>
  <way id="62221862" version="1" timestamp="2010-06-19T13:46:41Z" uid="9719" user="dvaey" changeset="5023977">
    <nd ref="696027921"/>
    <nd ref="666898800"/>
    <nd ref="30290978"/>
    <nd ref="66392547"/>
    <nd ref="702309309"/>
    <nd ref="66392546"/>
    <tag k="highway" v="secondary"/>
    <tag k="name" v="Melrose Drive"/>
    <tag k="oneway" v="yes"/>
  </way>
  <way id="62221862" version="2" timestamp="2010-06-19T13:48:15Z" uid="9719" user="dvaey" changeset="5023977">
    <nd ref="696027921"/>
    <nd ref="666898800"/>
    <nd ref="30290978"/>
    <nd ref="66392547"/>
    <nd ref="702309309"/>
    <tag k="highway" v="secondary"/>
    <tag k="name" v="Melrose Drive"/>
    <tag k="oneway" v="yes"/>
  </way>
</osm>
