<?xml version='1.0' encoding='UTF-8'?>
<osm version="0.6" generator="libosmium/2.20.0">
  <way id="62307091" version="1" timestamp="2010-06-20T17:45:34Z" uid="33382" user="de_muur" changeset="5035324">
    <nd ref="778430510"/>
    <nd ref="412128001"/>
    <nd ref="52176092"/>
    <nd ref="60261934"/>
    <nd ref="778430528"/>
    <nd ref="60261976"/>
    <tag k="cycleway" v="track"/>
    <tag k="highway" v="tertiary"/>
    <tag k="maxspeed" v="70"/>
    <tag k="name" v="Memelstraße"/>
    <tag k="surface" v="paved"/>
  </way>
  <way id="62307092" version="1" timestamp="2010-06-20T17:45:36Z" uid="33382" user="de_muur" changeset="5035324">
    <nd ref="60261965"/>
    <nd ref="60261981"/>
    <tag k="highway" v="tertiary"/>
    <tag k="maxspeed" v="50"/>
    <tag k="name" v="Eisseler Straße"/>
    <tag k="ref" v="K 27"/>
    <tag k="surface" v="paved"/>
  </way>
  <way id="62307092" version="2" timestamp="2010-08-01T06:29:33Z" uid="33382" user="de_muur" changeset="5367898">
    <nd ref="60261965"/>
    <nd ref="60261981"/>
    <tag k="cycleway" v="track"/>
    <tag k="highway" v="tertiary"/>
    <tag k="maxspeed" v="50"/>
    <tag k="name" v="Eisseler Straße"/>
    <tag k="ref" v="K 27"/>
    <tag k="surface" v="paved"/>
  </way>
  <way id="62307093" version="1" timestamp="2010-06-20T17:45:37Z" uid="33382" user="de_muur" changeset="5035324">
    <nd ref="778430531"/>
    <nd ref="60261965"/>
    <tag k="highway" v="tertiary"/>
    <tag k="maxspeed" v="70"/>
    <tag k="name" v="Eisseler Straße"/>
    <tag k="ref" v="K 27"/>
    <tag k="surface" v="paved"/>
  </way>
  <way id="62307094" version="1" timestamp="2010-06-20T17:45:37Z" uid="33382" user="de_muur" changeset="5035324">
    <nd ref="778430524"/>
    <nd ref="778430529"/>
    <nd ref="778430519"/>
    <nd ref="60261978"/>
    <nd ref="778430531"/>
    <tag k="highway" v="tertiary"/>
    <tag k="name" v="Eisseler Straße"/>
    <tag k="ref" v="K 27"/>
    <tag k="surface" v="paved"/>
  </way>
  <way id="62307095" version="1" timestamp="2010-06-20T17:45:37Z" uid="33382" user="de_muur" changeset="5035324">
    <nd ref="82712232"/>
    <nd ref="82712230"/>
    <nd ref="82712236"/>
    <nd ref="82712233"/>
    <nd ref="82712221"/>
    <nd ref="60261971"/>
    <tag k="cycleway" v="track"/>
    <tag k="highway" v="tertiary"/>
    <tag k="maxspeed" v="50"/>
    <tag k="name" v="Langwedeler Straße"/>
    <tag k="ref" v="K 27"/>
    <tag k="surface" v="paved"/>
  </way>
  <way id="62307096" version="1" timestamp="2010-06-20T17:45:37Z" uid="33382" user="de_muur" changeset="5035324">
    <nd ref="35146907"/>
    <nd ref="366941681"/>
    <nd ref="35146902"/>
    <nd ref="507119607"/>
    <tag k="cycleway" v="track"/>
    <tag k="highway" v="secondary"/>
    <tag k="ref" v="L 158"/>
  </way>
</osm>
