<?xml version='1.0' encoding='UTF-8'?>
<osm version="0.6" generator="libosmium/2.20.0">
  <way id="62319095" version="2" timestamp="2011-03-12T23:39:56Z" uid="30632" user="antblant" changeset="7539626">
    <nd ref="301670193"/>
    <nd ref="1199470150"/>
    <nd ref="255735114"/>
    <tag k="highway" v="secondary"/>
    <tag k="name" v="Łódzka"/>
  </way>
  <way id="62319205" version="1" timestamp="2010-06-20T19:33:21Z" uid="8619" user="cetest" changeset="5036608">
    <nd ref="503667175"/>
    <nd ref="44644484"/>
    <nd ref="484522983"/>
    <nd ref="44650435"/>
    <nd ref="44652427"/>
    <nd ref="44656516"/>
    <tag k="AND:importance_level" v="5"/>
    <tag k="AND_nosr_r" v="15081016"/>
    <tag k="cycleway" v="lane"/>
    <tag k="highway" v="tertiary"/>
    <tag k="name" v="Rijksstraatweg"/>
  </way>
  <way id="62319212" version="1" timestamp="2010-06-20T19:33:32Z" uid="8619" user="cetest" changeset="5036608">
    <nd ref="320520849"/>
    <nd ref="320520853"/>
    <nd ref="320520858"/>
    <nd ref="44645394"/>
    <nd ref="44650899"/>
    <nd ref="44666130"/>
    <nd ref="44667077"/>
    <nd ref="44668530"/>
    <nd ref="44679025"/>
    <nd ref="44679026"/>
    <tag k="highway" v="cycleway"/>
    <tag k="name" v="Zwethkade"/>
    <tag k="smoothness" v="intermediate"/>
    <tag k="tracktype" v="grade3"/>
  </way>
</osm>
