<?xml version='1.0' encoding='UTF-8'?>
<osm version="0.6" generator="libosmium/2.20.0">
  <way id="6232042" version="6" timestamp="2010-01-09T07:08:38Z" uid="30201" user="rrankin" changeset="3575666">
    <nd ref="52037511"/>
    <nd ref="141835396"/>
    <nd ref="610196368"/>
    <tag k="highway" v="residential"/>
    <tag k="name" v="Ross Street"/>
  </way>
  <way id="6232042" version="7" timestamp="2010-07-08T01:33:01Z" uid="74617" user="JohnSmith" changeset="5162525">
    <nd ref="52037511"/>
    <nd ref="141835396"/>
    <nd ref="610196368"/>
    <tag k="highway" v="residential"/>
    <tag k="maxspeed" v="50"/>
    <tag k="maxspeed:source" v="default residential speed limit in Australia"/>
    <tag k="name" v="Ross Street"/>
  </way>
  <way id="6232094" version="5" timestamp="2010-05-07T16:12:00Z" uid="4467" user="Rosscoe" changeset="4631418">
    <nd ref="30736234"/>
    <nd ref="638206707"/>
    <nd ref="33235874"/>
    <tag k="highway" v="motorway_link"/>
    <tag k="layer" v="1"/>
    <tag k="oneway" v="yes"/>
  </way>
  <way id="6232095" version="3" timestamp="2010-05-07T16:11:58Z" uid="4467" user="Rosscoe" changeset="4631418">
    <nd ref="52036189"/>
    <nd ref="33235877"/>
    <tag k="created_by" v="JOSM"/>
    <tag k="highway" v="motorway_link"/>
    <tag k="oneway" v="yes"/>
  </way>
  <way id="6232096" version="5" timestamp="2010-05-07T16:12:02Z" uid="4467" user="Rosscoe" changeset="4631418">
    <nd ref="33235874"/>
    <nd ref="52036219"/>
    <nd ref="52036230"/>
    <nd ref="655873466"/>
    <nd ref="52036513"/>
    <nd ref="52036189"/>
    <tag k="bridge" v="yes"/>
    <tag k="highway" v="motorway_link"/>
    <tag k="layer" v="1"/>
  </way>
  <way id="6232238" version="10" timestamp="2010-01-09T07:08:37Z" uid="30201" user="rrankin" changeset="3575666">
    <nd ref="52039626"/>
    <nd ref="35835678"/>
    <nd ref="141836305"/>
    <nd ref="610196384"/>
    <tag k="highway" v="residential"/>
    <tag k="name" v="Fennell Street"/>
  </way>
  <way id="6232238" version="11" timestamp="2010-07-08T01:36:53Z" uid="74617" user="JohnSmith" changeset="5162525">
    <nd ref="52039626"/>
    <nd ref="35835678"/>
    <nd ref="141836305"/>
    <nd ref="610196384"/>
    <tag k="highway" v="residential"/>
    <tag k="maxspeed" v="50"/>
    <tag k="maxspeed:source" v="default residential speed limit in Australia"/>
    <tag k="name" v="Fennell Street"/>
  </way>
  <way id="6232328" version="3" timestamp="2010-07-08T01:33:47Z" uid="74617" user="JohnSmith" changeset="5162525">
    <nd ref="52039626"/>
    <nd ref="141836561"/>
    <nd ref="52040549"/>
    <tag k="highway" v="residential"/>
    <tag k="maxspeed" v="50"/>
    <tag k="maxspeed:source" v="default residential speed limit in Australia"/>
    <tag k="name" v="Fleet Street"/>
  </way>
  <way id="6232330" version="2" timestamp="2010-03-11T14:49:51Z" uid="7617" user="Franc" changeset="4098277">
    <nd ref="52040549"/>
    <nd ref="664043542"/>
    <nd ref="52040579"/>
    <tag k="highway" v="residential"/>
    <tag k="name" v="New Street"/>
  </way>
  <way id="6232330" version="3" timestamp="2010-07-08T01:38:35Z" uid="74617" user="JohnSmith" changeset="5162525">
    <nd ref="52040549"/>
    <nd ref="664043542"/>
    <nd ref="52040579"/>
    <tag k="highway" v="residential"/>
    <tag k="maxspeed" v="50"/>
    <tag k="maxspeed:source" v="default residential speed limit in Australia"/>
    <tag k="name" v="New Street"/>
  </way>
  <way id="6232392" version="3" timestamp="2010-03-11T14:49:51Z" uid="7617" user="Franc" changeset="4098277">
    <nd ref="52040579"/>
    <nd ref="664043540"/>
    <nd ref="52041311"/>
    <nd ref="52041314"/>
    <nd ref="52041315"/>
    <nd ref="141859973"/>
    <tag k="highway" v="residential"/>
    <tag k="name" v="Dunlop Street"/>
  </way>
  <way id="6232392" version="4" timestamp="2010-07-08T01:37:38Z" uid="74617" user="JohnSmith" changeset="5162525">
    <nd ref="52040579"/>
    <nd ref="664043540"/>
    <nd ref="52041311"/>
    <nd ref="52041314"/>
    <nd ref="52041315"/>
    <nd ref="141859973"/>
    <tag k="highway" v="residential"/>
    <tag k="maxspeed" v="50"/>
    <tag k="maxspeed:source" v="default residential speed limit in Australia"/>
    <tag k="name" v="Dunlop Street"/>
  </way>
  <way id="6232442" version="4" timestamp="2010-03-11T14:49:51Z" uid="7617" user="Franc" changeset="4098277">
    <nd ref="52041813"/>
    <nd ref="60982879"/>
    <nd ref="664043562"/>
    <nd ref="52041815"/>
    <tag k="highway" v="residential"/>
    <tag k="name" v="Galloway Street"/>
  </way>
  <way id="6232442" version="5" timestamp="2010-07-08T01:32:39Z" uid="74617" user="JohnSmith" changeset="5162525">
    <nd ref="52041813"/>
    <nd ref="60982879"/>
    <nd ref="664043562"/>
    <nd ref="52041815"/>
    <tag k="highway" v="residential"/>
    <tag k="maxspeed" v="50"/>
    <tag k="maxspeed:source" v="default residential speed limit in Australia"/>
    <tag k="name" v="Galloway Street"/>
  </way>
  <way id="6232533" version="6" timestamp="2010-07-08T01:36:41Z" uid="74617" user="JohnSmith" changeset="5162525">
    <nd ref="52040549"/>
    <nd ref="35835674"/>
    <nd ref="52041813"/>
    <nd ref="332050475"/>
    <tag k="highway" v="residential"/>
    <tag k="maxspeed" v="50"/>
    <tag k="maxspeed:source" v="default residential speed limit in Australia"/>
    <tag k="name" v="Factory Street"/>
  </way>
</osm>
