<?xml version='1.0' encoding='UTF-8'?>
<osm version="0.6" generator="libosmium/2.20.0">
  <way id="6233447" version="1" timestamp="2007-09-15T12:54:39Z" uid="7617" user="Franc" changeset="437118">
    <nd ref="52051642"/>
    <nd ref="15158993"/>
    <tag k="created_by" v="JOSM"/>
    <tag k="highway" v="unclassified"/>
    <tag k="name" v="Codrington Street"/>
  </way>
  <way id="6233447" version="2" timestamp="2007-10-16T08:56:39Z" uid="7617" user="Franc" changeset="200414">
    <nd ref="52051642"/>
    <nd ref="74972910"/>
    <nd ref="74972929"/>
    <nd ref="15158993"/>
    <tag k="created_by" v="JOSM"/>
    <tag k="highway" v="unclassified"/>
    <tag k="name" v="Codrington Street"/>
  </way>
  <way id="6233447" version="3" timestamp="2008-02-29T11:59:41Z" uid="7617" user="Franc" changeset="231874">
    <nd ref="52051642"/>
    <nd ref="74972910"/>
    <nd ref="74972929"/>
    <nd ref="15158993"/>
    <tag k="created_by" v="JOSM"/>
    <tag k="highway" v="tertiary"/>
    <tag k="name" v="Codrington Street"/>
  </way>
  <way id="6233447" version="5" timestamp="2008-08-20T12:40:57Z" uid="7617" user="Franc" changeset="337935">
    <nd ref="52051631"/>
    <nd ref="74972910"/>
    <nd ref="74972929"/>
    <nd ref="289655780"/>
    <nd ref="15158993"/>
    <tag k="created_by" v="JOSM"/>
    <tag k="highway" v="tertiary"/>
    <tag k="name" v="Codrington Street"/>
  </way>
  <way id="6233447" version="7" timestamp="2009-01-31T03:01:26Z" uid="7617" user="Franc" changeset="857276">
    <nd ref="52051631"/>
    <nd ref="339267704"/>
    <nd ref="74972910"/>
    <nd ref="74972929"/>
    <nd ref="339267705"/>
    <nd ref="15158993"/>
    <tag k="created_by" v="Potlatch 0.10f"/>
    <tag k="highway" v="tertiary"/>
    <tag k="lcn" v="yes"/>
    <tag k="name" v="Codrington Street"/>
  </way>
  <way id="6233447" version="9" timestamp="2009-08-16T07:12:34Z" uid="7617" user="Franc" changeset="2160817">
    <nd ref="52051631"/>
    <nd ref="339267704"/>
    <nd ref="469089298"/>
    <nd ref="74972910"/>
    <nd ref="464776476"/>
    <nd ref="74972929"/>
    <nd ref="339267705"/>
    <nd ref="15158993"/>
    <tag k="highway" v="tertiary"/>
    <tag k="lcn" v="yes"/>
    <tag k="name" v="Codrington Street"/>
  </way>
  <way id="6233447" version="11" timestamp="2009-12-25T01:01:17Z" uid="30201" user="rrankin" changeset="3445791"/>
  <way id="6233448" version="1" timestamp="2007-09-15T12:54:40Z" uid="7617" user="Franc" changeset="437118">
    <nd ref="28372823"/>
    <nd ref="52051650"/>
    <tag k="abutters" v="mixed"/>
    <tag k="created_by" v="JOSM"/>
    <tag k="highway" v="unclassified"/>
    <tag k="name" v="Abecrobmie Street"/>
  </way>
  <way id="6233448" version="2" timestamp="2008-02-29T11:59:39Z" uid="7617" user="Franc" changeset="231874">
    <nd ref="28372823"/>
    <nd ref="52051650"/>
    <tag k="abutters" v="mixed"/>
    <tag k="created_by" v="JOSM"/>
    <tag k="highway" v="unclassified"/>
    <tag k="name" v="Abercrombie Street"/>
  </way>
  <way id="6233448" version="3" timestamp="2008-03-09T23:47:46Z" uid="7617" user="Franc" changeset="297420">
    <nd ref="28372823"/>
    <nd ref="52051650"/>
    <tag k="abutters" v="mixed"/>
    <tag k="created_by" v="JOSM"/>
    <tag k="highway" v="tertiary"/>
    <tag k="name" v="Abercrombie Street"/>
  </way>
  <way id="6233448" version="6" timestamp="2009-12-24T10:27:44Z" uid="30201" user="rrankin" changeset="3440994">
    <nd ref="28372829"/>
    <nd ref="52051631"/>
    <tag k="highway" v="tertiary"/>
    <tag k="name" v="Abercrombie Street"/>
  </way>
  <way id="6233448" version="7" timestamp="2009-12-25T01:01:12Z" uid="30201" user="rrankin" changeset="3445791">
    <nd ref="28372829"/>
    <nd ref="599129950"/>
    <tag k="highway" v="tertiary"/>
    <tag k="name" v="Abercrombie Street"/>
  </way>
  <way id="6233448" version="8" timestamp="2010-01-18T11:36:43Z" uid="7617" user="Franc" changeset="3649518">
    <nd ref="616151269"/>
    <nd ref="616151266"/>
    <nd ref="599129950"/>
    <tag k="highway" v="tertiary"/>
    <tag k="name" v="Abercrombie Street"/>
    <tag k="restriction" v="school_zone"/>
  </way>
  <way id="6233448" version="9" timestamp="2010-05-30T10:36:57Z" uid="7617" user="Franc" changeset="4850427">
    <nd ref="616151269"/>
    <nd ref="616151266"/>
    <nd ref="759073724"/>
    <tag k="highway" v="tertiary"/>
    <tag k="name" v="Abercrombie Street"/>
    <tag k="restriction" v="school_zone"/>
  </way>
  <way id="6233449" version="1" timestamp="2007-09-15T12:54:41Z" uid="7617" user="Franc" changeset="437118">
    <nd ref="52051659"/>
    <nd ref="15158952"/>
    <tag k="abutters" v="mixed"/>
    <tag k="created_by" v="JOSM"/>
    <tag k="highway" v="unclassified"/>
    <tag k="name" v="Abecrobmie Street"/>
  </way>
  <way id="6233449" version="2" timestamp="2008-02-29T11:59:47Z" uid="7617" user="Franc" changeset="231874"/>
  <way id="6233450" version="1" timestamp="2007-09-15T12:54:42Z" uid="7617" user="Franc" changeset="437118">
    <nd ref="52051642"/>
    <nd ref="52051659"/>
    <nd ref="52051631"/>
    <nd ref="52051650"/>
    <nd ref="52051642"/>
    <tag k="created_by" v="JOSM"/>
    <tag k="highway" v="unclassified"/>
    <tag k="junction" v="roundabout"/>
  </way>
  <way id="6233450" version="2" timestamp="2008-02-29T11:59:40Z" uid="7617" user="Franc" changeset="231874">
    <nd ref="52051642"/>
    <nd ref="52051659"/>
    <nd ref="52051631"/>
    <nd ref="52051650"/>
    <nd ref="52051642"/>
    <tag k="created_by" v="JOSM"/>
    <tag k="highway" v="tertiary"/>
    <tag k="junction" v="roundabout"/>
  </way>
  <way id="6233834" version="3" timestamp="2008-05-27T13:30:52Z" uid="9581" user="Lobelt" changeset="533814">
    <nd ref="32463796"/>
    <nd ref="52055190"/>
    <nd ref="52055183"/>
    <nd ref="52055189"/>
    <nd ref="32463789"/>
    <nd ref="32463791"/>
    <nd ref="32463793"/>
    <nd ref="267109822"/>
    <nd ref="32463794"/>
    <nd ref="267109824"/>
    <nd ref="267109825"/>
    <nd ref="32463796"/>
    <tag k="created_by" v="JOSM"/>
    <tag k="highway" v="secondary"/>
  </way>
  <way id="6233835" version="2" timestamp="2008-04-15T11:50:46Z" uid="9581" user="Lobelt" changeset="154125">
    <nd ref="35304710"/>
    <nd ref="32463778"/>
    <nd ref="32463781"/>
    <nd ref="257705226"/>
    <nd ref="32463782"/>
    <nd ref="32463783"/>
    <nd ref="32463784"/>
    <nd ref="32463787"/>
    <nd ref="32463788"/>
    <nd ref="32463789"/>
    <tag k="created_by" v="JOSM"/>
    <tag k="highway" v="secondary"/>
  </way>
  <way id="6233836" version="2" timestamp="2007-10-25T08:51:08Z" uid="9581" user="Lobelt" changeset="314804">
    <nd ref="52055170"/>
    <nd ref="52055172"/>
    <nd ref="52055174"/>
    <nd ref="52055186"/>
    <nd ref="32463793"/>
    <tag k="created_by" v="Potlatch alpha"/>
    <tag k="highway" v="residential"/>
    <tag k="name" v="Ernst-Heckel-Straße"/>
  </way>
  <way id="6233837" version="5" timestamp="2008-09-25T09:05:04Z" uid="9581" user="Lobelt" changeset="693717">
    <nd ref="52055160"/>
    <nd ref="255682104"/>
    <nd ref="299664666"/>
    <nd ref="52055162"/>
    <tag k="created_by" v="JOSM"/>
    <tag k="highway" v="residential"/>
    <tag k="name" v="Ernst-Abbe-Straße"/>
  </way>
  <way id="6233837" version="6" timestamp="2008-10-14T18:11:14Z" uid="9581" user="Lobelt" changeset="330059">
    <nd ref="52055160"/>
    <nd ref="255682104"/>
    <nd ref="299664666"/>
    <nd ref="304620347"/>
    <nd ref="52055162"/>
    <tag k="created_by" v="JOSM"/>
    <tag k="highway" v="residential"/>
    <tag k="name" v="Ernst-Abbe-Straße"/>
  </way>
  <way id="6233841" version="3" timestamp="2008-04-15T11:50:47Z" uid="9581" user="Lobelt" changeset="154125">
    <nd ref="52055153"/>
    <nd ref="52055140"/>
    <nd ref="257705192"/>
    <nd ref="257705193"/>
    <nd ref="255680538"/>
    <nd ref="52055160"/>
    <tag k="created_by" v="JOSM"/>
    <tag k="highway" v="residential"/>
    <tag k="name" v="Lutherstraße"/>
  </way>
</osm>
