<?xml version='1.0' encoding='UTF-8'?>
<osm version="0.6" generator="libosmium/2.20.0">
  <way id="62334152" version="1" timestamp="2010-06-20T23:31:46Z" uid="4467" user="Rosscoe" changeset="5038551">
    <nd ref="778717198"/>
    <nd ref="778717357"/>
    <tag k="highway" v="residential"/>
    <tag k="source" v="survey"/>
  </way>
  <way id="62334152" version="2" timestamp="2010-06-21T00:49:10Z" uid="4467" user="Rosscoe" changeset="5038763">
    <nd ref="778717198"/>
    <nd ref="778717357"/>
    <tag k="highway" v="residential"/>
    <tag k="name" v="James Court"/>
    <tag k="source" v="survey"/>
  </way>
  <way id="62334152" version="3" timestamp="2010-07-08T09:29:36Z" uid="74617" user="JohnSmith" changeset="5164427">
    <nd ref="778717198"/>
    <nd ref="778717357"/>
    <tag k="highway" v="residential"/>
    <tag k="maxspeed" v="50"/>
    <tag k="maxspeed:source" v="default residential speed limit in Australia"/>
    <tag k="name" v="James Court"/>
    <tag k="source" v="survey"/>
  </way>
  <way id="62334152" version="4" timestamp="2010-08-24T13:47:13Z" uid="4467" user="Rosscoe" changeset="5580056">
    <nd ref="778717198"/>
    <nd ref="778717357"/>
    <tag k="highway" v="residential"/>
    <tag k="maxspeed" v="50"/>
    <tag k="name" v="James Court"/>
    <tag k="source" v="survey"/>
    <tag k="source:maxspeed" v="default residential speed limit in Australia"/>
  </way>
  <way id="62334153" version="1" timestamp="2010-06-20T23:31:47Z" uid="4467" user="Rosscoe" changeset="5038551">
    <nd ref="778717388"/>
    <nd ref="778717162"/>
    <tag k="highway" v="residential"/>
    <tag k="source" v="survey"/>
  </way>
  <way id="62334153" version="2" timestamp="2010-06-21T00:49:27Z" uid="4467" user="Rosscoe" changeset="5038763">
    <nd ref="778717388"/>
    <nd ref="778717162"/>
    <tag k="highway" v="residential"/>
    <tag k="name" v="Wrasse Court"/>
    <tag k="source" v="survey"/>
  </way>
  <way id="62334153" version="3" timestamp="2010-07-08T09:37:09Z" uid="74617" user="JohnSmith" changeset="5164427">
    <nd ref="778717388"/>
    <nd ref="778717162"/>
    <tag k="highway" v="residential"/>
    <tag k="maxspeed" v="50"/>
    <tag k="maxspeed:source" v="default residential speed limit in Australia"/>
    <tag k="name" v="Wrasse Court"/>
    <tag k="source" v="survey"/>
  </way>
  <way id="62334153" version="4" timestamp="2010-08-24T13:45:13Z" uid="4467" user="Rosscoe" changeset="5580056">
    <nd ref="778717388"/>
    <nd ref="778717162"/>
    <tag k="highway" v="residential"/>
    <tag k="maxspeed" v="50"/>
    <tag k="name" v="Wrasse Court"/>
    <tag k="source" v="survey"/>
    <tag k="source:maxspeed" v="default residential speed limit in Australia"/>
  </way>
  <way id="62334154" version="1" timestamp="2010-06-20T23:31:48Z" uid="4467" user="Rosscoe" changeset="5038551">
    <nd ref="778717308"/>
    <nd ref="778717367"/>
    <tag k="highway" v="residential"/>
    <tag k="source" v="survey"/>
  </way>
  <way id="62334154" version="2" timestamp="2010-06-21T00:49:17Z" uid="4467" user="Rosscoe" changeset="5038763">
    <nd ref="778717308"/>
    <nd ref="778717367"/>
    <tag k="highway" v="residential"/>
    <tag k="name" v="Lorena Court"/>
    <tag k="source" v="survey"/>
  </way>
  <way id="62334154" version="3" timestamp="2010-07-08T09:33:23Z" uid="74617" user="JohnSmith" changeset="5164427">
    <nd ref="778717308"/>
    <nd ref="778717367"/>
    <tag k="highway" v="residential"/>
    <tag k="maxspeed" v="50"/>
    <tag k="maxspeed:source" v="default residential speed limit in Australia"/>
    <tag k="name" v="Lorena Court"/>
    <tag k="source" v="survey"/>
  </way>
  <way id="62334154" version="4" timestamp="2010-08-24T13:45:34Z" uid="4467" user="Rosscoe" changeset="5580056">
    <nd ref="778717308"/>
    <nd ref="778717367"/>
    <tag k="highway" v="residential"/>
    <tag k="maxspeed" v="50"/>
    <tag k="name" v="Lorena Court"/>
    <tag k="source" v="survey"/>
    <tag k="source:maxspeed" v="default residential speed limit in Australia"/>
  </way>
  <way id="62334155" version="1" timestamp="2010-06-20T23:31:49Z" uid="4467" user="Rosscoe" changeset="5038551">
    <nd ref="778717164"/>
    <nd ref="778717282"/>
    <tag k="highway" v="residential"/>
    <tag k="source" v="survey"/>
  </way>
  <way id="62334155" version="2" timestamp="2010-06-21T00:49:04Z" uid="4467" user="Rosscoe" changeset="5038763">
    <nd ref="778717164"/>
    <nd ref="778717282"/>
    <tag k="highway" v="residential"/>
    <tag k="name" v="Louise Court"/>
    <tag k="source" v="survey"/>
  </way>
  <way id="62334155" version="3" timestamp="2010-07-08T09:31:25Z" uid="74617" user="JohnSmith" changeset="5164427">
    <nd ref="778717164"/>
    <nd ref="778717282"/>
    <tag k="highway" v="residential"/>
    <tag k="maxspeed" v="50"/>
    <tag k="maxspeed:source" v="default residential speed limit in Australia"/>
    <tag k="name" v="Louise Court"/>
    <tag k="source" v="survey"/>
  </way>
  <way id="62334155" version="4" timestamp="2010-08-24T13:46:23Z" uid="4467" user="Rosscoe" changeset="5580056">
    <nd ref="778717164"/>
    <nd ref="778717282"/>
    <tag k="highway" v="residential"/>
    <tag k="maxspeed" v="50"/>
    <tag k="name" v="Louise Court"/>
    <tag k="source" v="survey"/>
    <tag k="source:maxspeed" v="default residential speed limit in Australia"/>
  </way>
  <way id="62334156" version="1" timestamp="2010-06-20T23:31:50Z" uid="4467" user="Rosscoe" changeset="5038551">
    <nd ref="778717163"/>
    <nd ref="778717385"/>
    <nd ref="778717382"/>
    <nd ref="778717196"/>
    <nd ref="778717158"/>
    <tag k="highway" v="residential"/>
    <tag k="source" v="survey"/>
  </way>
  <way id="62334156" version="2" timestamp="2010-06-21T01:03:52Z" uid="4467" user="Rosscoe" changeset="5038797">
    <nd ref="778717163"/>
    <nd ref="778717385"/>
    <tag k="highway" v="residential"/>
    <tag k="name" v="Delma Street"/>
    <tag k="source" v="survey"/>
  </way>
  <way id="62334156" version="3" timestamp="2010-07-08T09:34:08Z" uid="74617" user="JohnSmith" changeset="5164427">
    <nd ref="778717163"/>
    <nd ref="778717385"/>
    <tag k="highway" v="residential"/>
    <tag k="maxspeed" v="50"/>
    <tag k="maxspeed:source" v="default residential speed limit in Australia"/>
    <tag k="name" v="Delma Street"/>
    <tag k="source" v="survey"/>
  </way>
  <way id="62334156" version="4" timestamp="2010-08-24T13:46:34Z" uid="4467" user="Rosscoe" changeset="5580056">
    <nd ref="778717163"/>
    <nd ref="778717385"/>
    <tag k="highway" v="residential"/>
    <tag k="maxspeed" v="50"/>
    <tag k="name" v="Delma Street"/>
    <tag k="source" v="survey"/>
    <tag k="source:maxspeed" v="default residential speed limit in Australia"/>
  </way>
  <way id="62334157" version="1" timestamp="2010-06-20T23:31:51Z" uid="4467" user="Rosscoe" changeset="5038551">
    <nd ref="778717161"/>
    <nd ref="778717255"/>
    <nd ref="444227420"/>
    <tag k="highway" v="residential"/>
    <tag k="source" v="survey"/>
  </way>
  <way id="62334157" version="2" timestamp="2010-06-21T00:35:24Z" uid="4467" user="Rosscoe" changeset="5038729">
    <nd ref="778717161"/>
    <nd ref="778717255"/>
    <nd ref="444227420"/>
    <tag k="highway" v="residential"/>
    <tag k="name" v="Schnapper Court"/>
    <tag k="source" v="survey"/>
  </way>
  <way id="62334157" version="3" timestamp="2010-07-08T09:32:46Z" uid="74617" user="JohnSmith" changeset="5164427">
    <nd ref="778717161"/>
    <nd ref="778717255"/>
    <nd ref="444227420"/>
    <tag k="highway" v="residential"/>
    <tag k="maxspeed" v="50"/>
    <tag k="maxspeed:source" v="default residential speed limit in Australia"/>
    <tag k="name" v="Schnapper Court"/>
    <tag k="source" v="survey"/>
  </way>
  <way id="62334157" version="4" timestamp="2010-08-24T13:30:40Z" uid="4467" user="Rosscoe" changeset="5579932">
    <nd ref="778717161"/>
    <nd ref="877187942"/>
    <nd ref="778717255"/>
    <nd ref="444227420"/>
    <tag k="highway" v="residential"/>
    <tag k="maxspeed" v="50"/>
    <tag k="maxspeed:source" v="default residential speed limit in Australia"/>
    <tag k="name" v="Schnapper Court"/>
    <tag k="source" v="survey"/>
  </way>
  <way id="62334157" version="5" timestamp="2010-08-24T13:47:24Z" uid="4467" user="Rosscoe" changeset="5580056">
    <nd ref="778717161"/>
    <nd ref="877187942"/>
    <nd ref="778717255"/>
    <nd ref="444227420"/>
    <tag k="highway" v="residential"/>
    <tag k="maxspeed" v="50"/>
    <tag k="name" v="Schnapper Court"/>
    <tag k="source" v="survey"/>
    <tag k="source:maxspeed" v="default residential speed limit in Australia"/>
  </way>
  <way id="62334158" version="1" timestamp="2010-06-20T23:31:52Z" uid="4467" user="Rosscoe" changeset="5038551">
    <nd ref="778717153"/>
    <nd ref="778717197"/>
    <nd ref="778717160"/>
    <nd ref="778717365"/>
    <nd ref="778717151"/>
    <tag k="highway" v="residential"/>
    <tag k="source" v="survey"/>
  </way>
  <way id="62334158" version="2" timestamp="2010-06-21T01:04:00Z" uid="4467" user="Rosscoe" changeset="5038797">
    <nd ref="778717153"/>
    <nd ref="778717197"/>
    <nd ref="778717160"/>
    <nd ref="778717365"/>
    <nd ref="778717151"/>
    <tag k="highway" v="residential"/>
    <tag k="name" v="Grove Court"/>
    <tag k="source" v="survey"/>
  </way>
  <way id="62334158" version="3" timestamp="2010-07-08T09:36:04Z" uid="74617" user="JohnSmith" changeset="5164427">
    <nd ref="778717153"/>
    <nd ref="778717197"/>
    <nd ref="778717160"/>
    <nd ref="778717365"/>
    <nd ref="778717151"/>
    <tag k="highway" v="residential"/>
    <tag k="maxspeed" v="50"/>
    <tag k="maxspeed:source" v="default residential speed limit in Australia"/>
    <tag k="name" v="Grove Court"/>
    <tag k="source" v="survey"/>
  </way>
  <way id="62334158" version="5" timestamp="2010-08-24T13:47:34Z" uid="4467" user="Rosscoe" changeset="5580056">
    <nd ref="778717153"/>
    <nd ref="778717197"/>
    <nd ref="778717160"/>
    <nd ref="778717365"/>
    <nd ref="778717151"/>
    <tag k="highway" v="residential"/>
    <tag k="maxspeed" v="50"/>
    <tag k="name" v="Shane Court"/>
    <tag k="source" v="survey"/>
    <tag k="source:maxspeed" v="default residential speed limit in Australia"/>
  </way>
  <way id="62334159" version="1" timestamp="2010-06-20T23:31:53Z" uid="4467" user="Rosscoe" changeset="5038551">
    <nd ref="778717170"/>
    <nd ref="778717373"/>
    <nd ref="778717152"/>
    <tag k="highway" v="residential"/>
    <tag k="source" v="survey"/>
  </way>
  <way id="62334159" version="2" timestamp="2010-06-21T00:35:31Z" uid="4467" user="Rosscoe" changeset="5038729">
    <nd ref="778717170"/>
    <nd ref="778717373"/>
    <nd ref="778717152"/>
    <tag k="highway" v="residential"/>
    <tag k="name" v="Porpoise Place"/>
    <tag k="source" v="survey"/>
  </way>
  <way id="62334159" version="3" timestamp="2010-07-08T09:34:55Z" uid="74617" user="JohnSmith" changeset="5164427">
    <nd ref="778717170"/>
    <nd ref="778717373"/>
    <nd ref="778717152"/>
    <tag k="highway" v="residential"/>
    <tag k="maxspeed" v="50"/>
    <tag k="maxspeed:source" v="default residential speed limit in Australia"/>
    <tag k="name" v="Porpoise Place"/>
    <tag k="source" v="survey"/>
  </way>
  <way id="62334159" version="4" timestamp="2010-08-24T13:45:47Z" uid="4467" user="Rosscoe" changeset="5580056">
    <nd ref="778717170"/>
    <nd ref="778717373"/>
    <nd ref="778717152"/>
    <tag k="highway" v="residential"/>
    <tag k="maxspeed" v="50"/>
    <tag k="name" v="Porpoise Place"/>
    <tag k="source" v="survey"/>
    <tag k="source:maxspeed" v="default residential speed limit in Australia"/>
  </way>
  <way id="62334160" version="1" timestamp="2010-06-20T23:31:54Z" uid="4467" user="Rosscoe" changeset="5038551">
    <nd ref="778717159"/>
    <nd ref="778717389"/>
    <nd ref="778717165"/>
    <tag k="highway" v="residential"/>
    <tag k="source" v="survey"/>
  </way>
  <way id="62334160" version="2" timestamp="2010-06-21T00:49:06Z" uid="4467" user="Rosscoe" changeset="5038763">
    <nd ref="778717159"/>
    <nd ref="778717389"/>
    <nd ref="778717165"/>
    <tag k="highway" v="residential"/>
    <tag k="name" v="Silver Gum Drive"/>
    <tag k="source" v="survey"/>
  </way>
  <way id="62334160" version="3" timestamp="2010-07-08T09:35:56Z" uid="74617" user="JohnSmith" changeset="5164427">
    <nd ref="778717159"/>
    <nd ref="778717389"/>
    <nd ref="778717165"/>
    <tag k="highway" v="residential"/>
    <tag k="maxspeed" v="50"/>
    <tag k="maxspeed:source" v="default residential speed limit in Australia"/>
    <tag k="name" v="Silver Gum Drive"/>
    <tag k="source" v="survey"/>
  </way>
  <way id="62334160" version="4" timestamp="2010-08-24T13:45:22Z" uid="4467" user="Rosscoe" changeset="5580056">
    <nd ref="778717159"/>
    <nd ref="778717389"/>
    <nd ref="778717165"/>
    <tag k="highway" v="residential"/>
    <tag k="maxspeed" v="50"/>
    <tag k="name" v="Silver Gum Drive"/>
    <tag k="source" v="survey"/>
    <tag k="source:maxspeed" v="default residential speed limit in Australia"/>
  </way>
  <way id="62334161" version="1" timestamp="2010-06-20T23:31:55Z" uid="4467" user="Rosscoe" changeset="5038551">
    <nd ref="778717363"/>
    <nd ref="778717382"/>
    <tag k="highway" v="residential"/>
    <tag k="source" v="survey"/>
  </way>
  <way id="62334161" version="2" timestamp="2010-06-21T01:03:54Z" uid="4467" user="Rosscoe" changeset="5038797">
    <nd ref="778717363"/>
    <nd ref="778717382"/>
    <tag k="highway" v="residential"/>
    <tag k="name" v="Doris Street"/>
    <tag k="source" v="survey"/>
  </way>
  <way id="62334161" version="3" timestamp="2010-07-08T09:34:49Z" uid="74617" user="JohnSmith" changeset="5164427">
    <nd ref="778717363"/>
    <nd ref="778717382"/>
    <tag k="highway" v="residential"/>
    <tag k="maxspeed" v="50"/>
    <tag k="maxspeed:source" v="default residential speed limit in Australia"/>
    <tag k="name" v="Doris Street"/>
    <tag k="source" v="survey"/>
  </way>
  <way id="62334161" version="4" timestamp="2010-08-24T13:46:16Z" uid="4467" user="Rosscoe" changeset="5580056">
    <nd ref="778717363"/>
    <nd ref="778717382"/>
    <tag k="highway" v="residential"/>
    <tag k="maxspeed" v="50"/>
    <tag k="name" v="Doris Street"/>
    <tag k="source" v="survey"/>
    <tag k="source:maxspeed" v="default residential speed limit in Australia"/>
  </way>
  <way id="62334162" version="1" timestamp="2010-06-20T23:31:56Z" uid="4467" user="Rosscoe" changeset="5038551">
    <nd ref="778717373"/>
    <nd ref="778717362"/>
    <nd ref="778717392"/>
    <nd ref="778717355"/>
    <nd ref="778717387"/>
    <nd ref="778717353"/>
    <nd ref="778717376"/>
    <tag k="highway" v="residential"/>
    <tag k="source" v="survey"/>
  </way>
  <way id="62334162" version="2" timestamp="2010-06-21T00:35:28Z" uid="4467" user="Rosscoe" changeset="5038729">
    <nd ref="778717373"/>
    <nd ref="778717362"/>
    <nd ref="778717392"/>
    <tag k="highway" v="residential"/>
    <tag k="name" v="Porpoise Place"/>
    <tag k="source" v="survey"/>
  </way>
  <way id="62334162" version="3" timestamp="2010-07-08T09:29:20Z" uid="74617" user="JohnSmith" changeset="5164427">
    <nd ref="778717373"/>
    <nd ref="778717362"/>
    <nd ref="778717392"/>
    <tag k="highway" v="residential"/>
    <tag k="maxspeed" v="50"/>
    <tag k="maxspeed:source" v="default residential speed limit in Australia"/>
    <tag k="name" v="Porpoise Place"/>
    <tag k="source" v="survey"/>
  </way>
  <way id="62334162" version="4" timestamp="2010-08-24T13:46:28Z" uid="4467" user="Rosscoe" changeset="5580056">
    <nd ref="778717373"/>
    <nd ref="778717362"/>
    <nd ref="778717392"/>
    <tag k="highway" v="residential"/>
    <tag k="maxspeed" v="50"/>
    <tag k="name" v="Porpoise Place"/>
    <tag k="source" v="survey"/>
    <tag k="source:maxspeed" v="default residential speed limit in Australia"/>
  </way>
  <way id="62334163" version="1" timestamp="2010-06-20T23:31:57Z" uid="4467" user="Rosscoe" changeset="5038551">
    <nd ref="778717381"/>
    <nd ref="778717360"/>
    <tag k="highway" v="residential"/>
    <tag k="source" v="survey"/>
  </way>
  <way id="62334163" version="2" timestamp="2010-06-21T04:52:36Z" uid="4467" user="Rosscoe" changeset="5039283">
    <nd ref="778717381"/>
    <nd ref="778717360"/>
    <tag k="highway" v="residential"/>
    <tag k="name" v="Barramundi Court"/>
    <tag k="source" v="survey"/>
  </way>
  <way id="62334163" version="3" timestamp="2010-07-08T09:37:00Z" uid="74617" user="JohnSmith" changeset="5164427">
    <nd ref="778717381"/>
    <nd ref="778717360"/>
    <tag k="highway" v="residential"/>
    <tag k="maxspeed" v="50"/>
    <tag k="maxspeed:source" v="default residential speed limit in Australia"/>
    <tag k="name" v="Barramundi Court"/>
    <tag k="source" v="survey"/>
  </way>
  <way id="62334163" version="4" timestamp="2010-08-24T13:47:21Z" uid="4467" user="Rosscoe" changeset="5580056">
    <nd ref="778717381"/>
    <nd ref="778717360"/>
    <tag k="highway" v="residential"/>
    <tag k="maxspeed" v="50"/>
    <tag k="name" v="Barramundi Court"/>
    <tag k="source" v="survey"/>
    <tag k="source:maxspeed" v="default residential speed limit in Australia"/>
  </way>
  <way id="62334164" version="1" timestamp="2010-06-20T23:31:59Z" uid="4467" user="Rosscoe" changeset="5038551">
    <nd ref="778717369"/>
    <nd ref="778717384"/>
    <nd ref="778717199"/>
    <nd ref="778717374"/>
    <tag k="highway" v="residential"/>
    <tag k="source" v="survey"/>
  </way>
  <way id="62334164" version="2" timestamp="2010-06-21T00:49:20Z" uid="4467" user="Rosscoe" changeset="5038763">
    <nd ref="778717369"/>
    <nd ref="778717384"/>
    <nd ref="778717199"/>
    <nd ref="778717374"/>
    <tag k="highway" v="residential"/>
    <tag k="name" v="Kiera Drive"/>
    <tag k="source" v="survey"/>
  </way>
  <way id="62334164" version="3" timestamp="2010-07-08T09:30:21Z" uid="74617" user="JohnSmith" changeset="5164427">
    <nd ref="778717369"/>
    <nd ref="778717384"/>
    <nd ref="778717199"/>
    <nd ref="778717374"/>
    <tag k="highway" v="residential"/>
    <tag k="maxspeed" v="50"/>
    <tag k="maxspeed:source" v="default residential speed limit in Australia"/>
    <tag k="name" v="Kiera Drive"/>
    <tag k="source" v="survey"/>
  </way>
  <way id="62334164" version="4" timestamp="2010-08-24T13:47:30Z" uid="4467" user="Rosscoe" changeset="5580056">
    <nd ref="778717369"/>
    <nd ref="778717384"/>
    <nd ref="778717199"/>
    <nd ref="778717374"/>
    <tag k="highway" v="residential"/>
    <tag k="maxspeed" v="50"/>
    <tag k="name" v="Kiera Drive"/>
    <tag k="source" v="survey"/>
    <tag k="source:maxspeed" v="default residential speed limit in Australia"/>
  </way>
  <way id="62334165" version="1" timestamp="2010-06-20T23:32:00Z" uid="4467" user="Rosscoe" changeset="5038551">
    <nd ref="778712076"/>
    <nd ref="778717221"/>
    <nd ref="778717166"/>
    <nd ref="778717370"/>
    <nd ref="778717155"/>
    <nd ref="778717361"/>
    <nd ref="778717351"/>
    <nd ref="778717383"/>
    <nd ref="778711034"/>
    <tag k="highway" v="residential"/>
    <tag k="source" v="survey"/>
  </way>
  <way id="62334165" version="2" timestamp="2010-06-21T00:35:21Z" uid="4467" user="Rosscoe" changeset="5038729">
    <nd ref="778712076"/>
    <nd ref="778717221"/>
    <nd ref="778717166"/>
    <nd ref="778717370"/>
    <nd ref="778717155"/>
    <tag k="highway" v="residential"/>
    <tag k="name" v="Marlin Court"/>
    <tag k="source" v="survey"/>
  </way>
  <way id="62334165" version="3" timestamp="2010-07-08T09:28:19Z" uid="74617" user="JohnSmith" changeset="5164427">
    <nd ref="778712076"/>
    <nd ref="778717221"/>
    <nd ref="778717166"/>
    <nd ref="778717370"/>
    <nd ref="778717155"/>
    <tag k="highway" v="residential"/>
    <tag k="maxspeed" v="50"/>
    <tag k="maxspeed:source" v="default residential speed limit in Australia"/>
    <tag k="name" v="Marlin Court"/>
    <tag k="source" v="survey"/>
  </way>
  <way id="62334165" version="4" timestamp="2010-08-24T13:30:24Z" uid="4467" user="Rosscoe" changeset="5579932">
    <nd ref="778712076"/>
    <nd ref="877185852"/>
    <nd ref="778717221"/>
    <nd ref="778717166"/>
    <nd ref="778717370"/>
    <nd ref="877188110"/>
    <nd ref="778717155"/>
    <tag k="highway" v="residential"/>
    <tag k="maxspeed" v="50"/>
    <tag k="maxspeed:source" v="default residential speed limit in Australia"/>
    <tag k="name" v="Marlin Court"/>
    <tag k="source" v="survey"/>
  </way>
  <way id="62334165" version="5" timestamp="2010-08-24T13:45:42Z" uid="4467" user="Rosscoe" changeset="5580056">
    <nd ref="778712076"/>
    <nd ref="877185852"/>
    <nd ref="778717221"/>
    <nd ref="778717166"/>
    <nd ref="778717370"/>
    <nd ref="877188110"/>
    <nd ref="778717155"/>
    <tag k="highway" v="residential"/>
    <tag k="maxspeed" v="50"/>
    <tag k="name" v="Marlin Court"/>
    <tag k="source" v="survey"/>
    <tag k="source:maxspeed" v="default residential speed limit in Australia"/>
  </way>
  <way id="62334166" version="1" timestamp="2010-06-20T23:32:02Z" uid="4467" user="Rosscoe" changeset="5038551">
    <nd ref="778717171"/>
    <nd ref="778717356"/>
    <tag k="highway" v="residential"/>
    <tag k="source" v="survey"/>
  </way>
  <way id="62334166" version="2" timestamp="2010-06-21T00:35:33Z" uid="4467" user="Rosscoe" changeset="5038729">
    <nd ref="778717171"/>
    <nd ref="778717356"/>
    <tag k="highway" v="residential"/>
    <tag k="name" v="Bream Court"/>
    <tag k="source" v="survey"/>
  </way>
  <way id="62334166" version="3" timestamp="2010-07-08T09:33:59Z" uid="74617" user="JohnSmith" changeset="5164427">
    <nd ref="778717171"/>
    <nd ref="778717356"/>
    <tag k="highway" v="residential"/>
    <tag k="maxspeed" v="50"/>
    <tag k="maxspeed:source" v="default residential speed limit in Australia"/>
    <tag k="name" v="Bream Court"/>
    <tag k="source" v="survey"/>
  </way>
  <way id="62334166" version="4" timestamp="2010-08-24T13:45:52Z" uid="4467" user="Rosscoe" changeset="5580056">
    <nd ref="778717171"/>
    <nd ref="778717356"/>
    <tag k="highway" v="residential"/>
    <tag k="maxspeed" v="50"/>
    <tag k="name" v="Bream Court"/>
    <tag k="source" v="survey"/>
    <tag k="source:maxspeed" v="default residential speed limit in Australia"/>
  </way>
  <way id="62334167" version="1" timestamp="2010-06-20T23:32:03Z" uid="4467" user="Rosscoe" changeset="5038551">
    <nd ref="778717371"/>
    <nd ref="778717168"/>
    <nd ref="778717359"/>
    <nd ref="778717390"/>
    <nd ref="778717352"/>
    <nd ref="778717385"/>
    <tag k="highway" v="residential"/>
    <tag k="source" v="survey"/>
  </way>
  <way id="62334167" version="2" timestamp="2010-06-21T01:03:42Z" uid="4467" user="Rosscoe" changeset="5038797">
    <nd ref="778717371"/>
    <nd ref="778717168"/>
    <nd ref="778717359"/>
    <nd ref="778717390"/>
    <nd ref="778717352"/>
    <nd ref="778717385"/>
    <tag k="highway" v="residential"/>
    <tag k="name" v="Zamia Court"/>
    <tag k="source" v="survey"/>
  </way>
  <way id="62334167" version="3" timestamp="2010-07-08T09:32:22Z" uid="74617" user="JohnSmith" changeset="5164427">
    <nd ref="778717371"/>
    <nd ref="778717168"/>
    <nd ref="778717359"/>
    <nd ref="778717390"/>
    <nd ref="778717352"/>
    <nd ref="778717385"/>
    <tag k="highway" v="residential"/>
    <tag k="maxspeed" v="50"/>
    <tag k="maxspeed:source" v="default residential speed limit in Australia"/>
    <tag k="name" v="Zamia Court"/>
    <tag k="source" v="survey"/>
  </way>
  <way id="62334167" version="4" timestamp="2010-08-24T13:46:47Z" uid="4467" user="Rosscoe" changeset="5580056">
    <nd ref="778717371"/>
    <nd ref="778717168"/>
    <nd ref="778717359"/>
    <nd ref="778717390"/>
    <nd ref="778717352"/>
    <nd ref="778717385"/>
    <tag k="highway" v="residential"/>
    <tag k="maxspeed" v="50"/>
    <tag k="name" v="Zamia Court"/>
    <tag k="source" v="survey"/>
    <tag k="source:maxspeed" v="default residential speed limit in Australia"/>
  </way>
  <way id="62334168" version="1" timestamp="2010-06-20T23:32:04Z" uid="4467" user="Rosscoe" changeset="5038551">
    <nd ref="778717392"/>
    <nd ref="778711041"/>
    <tag k="highway" v="residential"/>
    <tag k="source" v="survey"/>
  </way>
  <way id="62334168" version="2" timestamp="2010-06-21T00:35:38Z" uid="4467" user="Rosscoe" changeset="5038729">
    <nd ref="778717392"/>
    <nd ref="778711041"/>
    <tag k="highway" v="residential"/>
    <tag k="name" v="Cod Place"/>
    <tag k="source" v="survey"/>
  </way>
  <way id="62334168" version="3" timestamp="2010-07-08T09:34:31Z" uid="74617" user="JohnSmith" changeset="5164427">
    <nd ref="778717392"/>
    <nd ref="778711041"/>
    <tag k="highway" v="residential"/>
    <tag k="maxspeed" v="50"/>
    <tag k="maxspeed:source" v="default residential speed limit in Australia"/>
    <tag k="name" v="Cod Place"/>
    <tag k="source" v="survey"/>
  </way>
  <way id="62334168" version="4" timestamp="2010-08-24T13:47:01Z" uid="4467" user="Rosscoe" changeset="5580056">
    <nd ref="778717392"/>
    <nd ref="778711041"/>
    <tag k="highway" v="residential"/>
    <tag k="maxspeed" v="50"/>
    <tag k="name" v="Cod Place"/>
    <tag k="source" v="survey"/>
    <tag k="source:maxspeed" v="default residential speed limit in Australia"/>
  </way>
  <way id="62334169" version="1" timestamp="2010-06-20T23:32:05Z" uid="4467" user="Rosscoe" changeset="5038551">
    <nd ref="778717178"/>
    <nd ref="778717386"/>
    <nd ref="778712023"/>
    <tag k="highway" v="residential"/>
    <tag k="source" v="survey"/>
  </way>
  <way id="62334169" version="2" timestamp="2010-06-21T01:03:49Z" uid="4467" user="Rosscoe" changeset="5038797">
    <nd ref="778717178"/>
    <nd ref="778717386"/>
    <nd ref="778712023"/>
    <tag k="highway" v="residential"/>
    <tag k="name" v="Herald Court"/>
    <tag k="source" v="survey"/>
  </way>
  <way id="62334169" version="3" timestamp="2010-07-08T09:33:17Z" uid="74617" user="JohnSmith" changeset="5164427">
    <nd ref="778717178"/>
    <nd ref="778717386"/>
    <nd ref="778712023"/>
    <tag k="highway" v="residential"/>
    <tag k="maxspeed" v="50"/>
    <tag k="maxspeed:source" v="default residential speed limit in Australia"/>
    <tag k="name" v="Herald Court"/>
    <tag k="source" v="survey"/>
  </way>
  <way id="62334169" version="4" timestamp="2010-08-24T13:47:40Z" uid="4467" user="Rosscoe" changeset="5580056">
    <nd ref="778717178"/>
    <nd ref="778717386"/>
    <nd ref="778712023"/>
    <tag k="highway" v="residential"/>
    <tag k="maxspeed" v="50"/>
    <tag k="name" v="Herald Court"/>
    <tag k="source" v="survey"/>
    <tag k="source:maxspeed" v="default residential speed limit in Australia"/>
  </way>
  <way id="62334170" version="1" timestamp="2010-06-20T23:32:06Z" uid="4467" user="Rosscoe" changeset="5038551">
    <nd ref="778717364"/>
    <nd ref="778717378"/>
    <nd ref="778717169"/>
    <nd ref="778717162"/>
    <nd ref="778717372"/>
    <nd ref="778717360"/>
    <nd ref="778717391"/>
    <nd ref="778717354"/>
    <tag k="highway" v="residential"/>
    <tag k="source" v="survey"/>
  </way>
  <way id="62334170" version="2" timestamp="2010-06-21T00:49:11Z" uid="4467" user="Rosscoe" changeset="5038763">
    <nd ref="778717364"/>
    <nd ref="778717378"/>
    <nd ref="778717169"/>
    <nd ref="778717162"/>
    <nd ref="778717372"/>
    <nd ref="778717360"/>
    <nd ref="778717391"/>
    <nd ref="778717354"/>
    <tag k="highway" v="residential"/>
    <tag k="name" v="Marshall Avenue"/>
    <tag k="source" v="survey"/>
  </way>
  <way id="62334170" version="3" timestamp="2010-07-08T09:36:31Z" uid="74617" user="JohnSmith" changeset="5164427">
    <nd ref="778717364"/>
    <nd ref="778717378"/>
    <nd ref="778717169"/>
    <nd ref="778717162"/>
    <nd ref="778717372"/>
    <nd ref="778717360"/>
    <nd ref="778717391"/>
    <nd ref="778717354"/>
    <tag k="highway" v="residential"/>
    <tag k="maxspeed" v="50"/>
    <tag k="maxspeed:source" v="default residential speed limit in Australia"/>
    <tag k="name" v="Marshall Avenue"/>
    <tag k="source" v="survey"/>
  </way>
  <way id="62334170" version="4" timestamp="2010-08-24T13:45:11Z" uid="4467" user="Rosscoe" changeset="5580056">
    <nd ref="778717364"/>
    <nd ref="778717378"/>
    <nd ref="778717169"/>
    <nd ref="778717162"/>
    <nd ref="778717372"/>
    <nd ref="778717360"/>
    <nd ref="778717391"/>
    <nd ref="778717354"/>
    <tag k="highway" v="residential"/>
    <tag k="maxspeed" v="50"/>
    <tag k="name" v="Marshall Avenue"/>
    <tag k="source" v="survey"/>
    <tag k="source:maxspeed" v="default residential speed limit in Australia"/>
  </way>
  <way id="62334171" version="1" timestamp="2010-06-20T23:32:08Z" uid="4467" user="Rosscoe" changeset="5038551">
    <nd ref="778717379"/>
    <nd ref="778711792"/>
    <tag k="highway" v="residential"/>
    <tag k="source" v="survey"/>
  </way>
  <way id="62334171" version="2" timestamp="2010-06-21T00:35:34Z" uid="4467" user="Rosscoe" changeset="5038729">
    <nd ref="778717379"/>
    <nd ref="778711792"/>
    <tag k="highway" v="residential"/>
    <tag k="name" v="Flounder Court"/>
    <tag k="source" v="survey"/>
  </way>
  <way id="62334171" version="3" timestamp="2010-07-08T09:35:18Z" uid="74617" user="JohnSmith" changeset="5164427">
    <nd ref="778717379"/>
    <nd ref="778711792"/>
    <tag k="highway" v="residential"/>
    <tag k="maxspeed" v="50"/>
    <tag k="maxspeed:source" v="default residential speed limit in Australia"/>
    <tag k="name" v="Flounder Court"/>
    <tag k="source" v="survey"/>
  </way>
  <way id="62334171" version="4" timestamp="2010-08-24T13:46:05Z" uid="4467" user="Rosscoe" changeset="5580056">
    <nd ref="778717379"/>
    <nd ref="778711792"/>
    <tag k="highway" v="residential"/>
    <tag k="maxspeed" v="50"/>
    <tag k="name" v="Flounder Court"/>
    <tag k="source" v="survey"/>
    <tag k="source:maxspeed" v="default residential speed limit in Australia"/>
  </way>
  <way id="62334172" version="1" timestamp="2010-06-20T23:32:09Z" uid="4467" user="Rosscoe" changeset="5038551">
    <nd ref="778717358"/>
    <nd ref="778717375"/>
    <nd ref="778717366"/>
    <nd ref="444234559"/>
    <tag k="highway" v="residential"/>
    <tag k="source" v="survey"/>
  </way>
  <way id="62334172" version="2" timestamp="2010-06-21T00:35:30Z" uid="4467" user="Rosscoe" changeset="5038729">
    <nd ref="778717358"/>
    <nd ref="778717375"/>
    <nd ref="778717366"/>
    <nd ref="444234559"/>
    <tag k="highway" v="residential"/>
    <tag k="name" v="Perch Court"/>
    <tag k="source" v="survey"/>
  </way>
  <way id="62334172" version="3" timestamp="2010-07-08T09:37:05Z" uid="74617" user="JohnSmith" changeset="5164427">
    <nd ref="778717358"/>
    <nd ref="778717375"/>
    <nd ref="778717366"/>
    <nd ref="444234559"/>
    <tag k="highway" v="residential"/>
    <tag k="maxspeed" v="50"/>
    <tag k="maxspeed:source" v="default residential speed limit in Australia"/>
    <tag k="name" v="Perch Court"/>
    <tag k="source" v="survey"/>
  </way>
  <way id="62334172" version="4" timestamp="2010-08-24T13:46:19Z" uid="4467" user="Rosscoe" changeset="5580056">
    <nd ref="778717358"/>
    <nd ref="778717375"/>
    <nd ref="778717366"/>
    <nd ref="444234559"/>
    <tag k="highway" v="residential"/>
    <tag k="maxspeed" v="50"/>
    <tag k="name" v="Perch Court"/>
    <tag k="source" v="survey"/>
    <tag k="source:maxspeed" v="default residential speed limit in Australia"/>
  </way>
  <way id="62334173" version="1" timestamp="2010-06-20T23:32:11Z" uid="4467" user="Rosscoe" changeset="5038551">
    <nd ref="778717167"/>
    <nd ref="778717353"/>
    <tag k="highway" v="residential"/>
    <tag k="source" v="survey"/>
  </way>
  <way id="62334173" version="2" timestamp="2010-06-21T00:35:19Z" uid="4467" user="Rosscoe" changeset="5038729">
    <nd ref="778717167"/>
    <nd ref="778717353"/>
    <tag k="highway" v="residential"/>
    <tag k="name" v="Rake Court"/>
    <tag k="source" v="survey"/>
  </way>
  <way id="62334173" version="3" timestamp="2010-07-08T09:35:59Z" uid="74617" user="JohnSmith" changeset="5164427">
    <nd ref="778717167"/>
    <nd ref="778717353"/>
    <tag k="highway" v="residential"/>
    <tag k="maxspeed" v="50"/>
    <tag k="maxspeed:source" v="default residential speed limit in Australia"/>
    <tag k="name" v="Rake Court"/>
    <tag k="source" v="survey"/>
  </way>
  <way id="62334173" version="4" timestamp="2010-08-24T13:47:11Z" uid="4467" user="Rosscoe" changeset="5580056">
    <nd ref="778717167"/>
    <nd ref="778717353"/>
    <tag k="highway" v="residential"/>
    <tag k="maxspeed" v="50"/>
    <tag k="name" v="Rake Court"/>
    <tag k="source" v="survey"/>
    <tag k="source:maxspeed" v="default residential speed limit in Australia"/>
  </way>
  <way id="62334174" version="1" timestamp="2010-06-20T23:32:12Z" uid="4467" user="Rosscoe" changeset="5038551">
    <nd ref="778717157"/>
    <nd ref="778717367"/>
    <nd ref="778717374"/>
    <nd ref="778717165"/>
    <nd ref="778717368"/>
    <nd ref="778717154"/>
    <tag k="highway" v="residential"/>
    <tag k="source" v="survey"/>
  </way>
  <way id="62334174" version="2" timestamp="2010-06-21T00:49:25Z" uid="4467" user="Rosscoe" changeset="5038763">
    <nd ref="778717157"/>
    <nd ref="778717367"/>
    <nd ref="778717374"/>
    <nd ref="778717165"/>
    <nd ref="778717368"/>
    <nd ref="778717154"/>
    <tag k="highway" v="residential"/>
    <tag k="name" v="Anita Drive"/>
    <tag k="source" v="survey"/>
  </way>
  <way id="62334174" version="3" timestamp="2010-07-08T09:31:15Z" uid="74617" user="JohnSmith" changeset="5164427">
    <nd ref="778717157"/>
    <nd ref="778717367"/>
    <nd ref="778717374"/>
    <nd ref="778717165"/>
    <nd ref="778717368"/>
    <nd ref="778717154"/>
    <tag k="highway" v="residential"/>
    <tag k="maxspeed" v="50"/>
    <tag k="maxspeed:source" v="default residential speed limit in Australia"/>
    <tag k="name" v="Anita Drive"/>
    <tag k="source" v="survey"/>
  </way>
  <way id="62334174" version="4" timestamp="2010-08-24T13:47:22Z" uid="4467" user="Rosscoe" changeset="5580056">
    <nd ref="778717157"/>
    <nd ref="778717367"/>
    <nd ref="778717374"/>
    <nd ref="778717165"/>
    <nd ref="778717368"/>
    <nd ref="778717154"/>
    <tag k="highway" v="residential"/>
    <tag k="maxspeed" v="50"/>
    <tag k="name" v="Anita Drive"/>
    <tag k="source" v="survey"/>
    <tag k="source:maxspeed" v="default residential speed limit in Australia"/>
  </way>
  <way id="62334175" version="1" timestamp="2010-06-20T23:32:13Z" uid="4467" user="Rosscoe" changeset="5038551">
    <nd ref="778717156"/>
    <nd ref="778717200"/>
    <nd ref="778717377"/>
    <nd ref="778717168"/>
    <tag k="highway" v="residential"/>
    <tag k="source" v="survey"/>
  </way>
  <way id="62334175" version="2" timestamp="2010-06-21T01:03:38Z" uid="4467" user="Rosscoe" changeset="5038797">
    <nd ref="778717156"/>
    <nd ref="778717200"/>
    <nd ref="778717377"/>
    <nd ref="778717168"/>
    <tag k="highway" v="residential"/>
    <tag k="name" v="Raphis Court"/>
    <tag k="source" v="survey"/>
  </way>
  <way id="62334175" version="3" timestamp="2010-07-08T09:29:24Z" uid="74617" user="JohnSmith" changeset="5164427">
    <nd ref="778717156"/>
    <nd ref="778717200"/>
    <nd ref="778717377"/>
    <nd ref="778717168"/>
    <tag k="highway" v="residential"/>
    <tag k="maxspeed" v="50"/>
    <tag k="maxspeed:source" v="default residential speed limit in Australia"/>
    <tag k="name" v="Raphis Court"/>
    <tag k="source" v="survey"/>
  </way>
  <way id="62334175" version="4" timestamp="2010-08-24T13:45:29Z" uid="4467" user="Rosscoe" changeset="5580056">
    <nd ref="778717156"/>
    <nd ref="778717200"/>
    <nd ref="778717377"/>
    <nd ref="778717168"/>
    <tag k="highway" v="residential"/>
    <tag k="maxspeed" v="50"/>
    <tag k="name" v="Raphis Court"/>
    <tag k="source" v="survey"/>
    <tag k="source:maxspeed" v="default residential speed limit in Australia"/>
  </way>
  <way id="62334458" version="1" timestamp="2010-06-20T23:56:09Z" uid="244897" user="M526244" changeset="5038635">
    <nd ref="778735644"/>
    <nd ref="778735660"/>
    <tag k="bridge" v="yes"/>
    <tag k="highway" v="secondary"/>
    <tag k="layer" v="1"/>
    <tag k="name" v="Mullumbimby Road"/>
  </way>
  <way id="62334459" version="1" timestamp="2010-06-20T23:56:09Z" uid="244897" user="M526244" changeset="5038635">
    <nd ref="778735660"/>
    <nd ref="267465286"/>
    <nd ref="267465287"/>
    <nd ref="278872097"/>
    <nd ref="267465288"/>
    <nd ref="267465289"/>
    <nd ref="281160483"/>
    <tag k="highway" v="secondary"/>
    <tag k="name" v="Mullumbimby Road"/>
  </way>
  <way id="62334461" version="2" timestamp="2010-07-09T03:48:21Z" uid="74617" user="JohnSmith" changeset="5170825">
    <nd ref="763655228"/>
    <nd ref="778736557"/>
    <tag k="highway" v="residential"/>
    <tag k="maxspeed" v="50"/>
    <tag k="maxspeed:source" v="default residential speed limit in Australia"/>
    <tag k="name" v="Nicholas Street"/>
    <tag k="source" v="nearmap"/>
  </way>
  <way id="62334470" version="1" timestamp="2010-06-20T23:59:47Z" uid="4467" user="Rosscoe" changeset="5038640">
    <nd ref="778737531"/>
    <nd ref="778739664"/>
    <nd ref="778739165"/>
    <tag k="highway" v="residential"/>
    <tag k="source" v="survey"/>
  </way>
  <way id="62334470" version="2" timestamp="2010-06-21T00:30:55Z" uid="4467" user="Rosscoe" changeset="5038713">
    <nd ref="778737531"/>
    <nd ref="778739664"/>
    <nd ref="778739165"/>
    <tag k="highway" v="residential"/>
    <tag k="name" v="Glamis Court"/>
    <tag k="source" v="survey"/>
  </way>
  <way id="62334470" version="3" timestamp="2010-07-08T09:36:30Z" uid="74617" user="JohnSmith" changeset="5164427">
    <nd ref="778737531"/>
    <nd ref="778739664"/>
    <nd ref="778739165"/>
    <tag k="highway" v="residential"/>
    <tag k="maxspeed" v="50"/>
    <tag k="maxspeed:source" v="default residential speed limit in Australia"/>
    <tag k="name" v="Glamis Court"/>
    <tag k="source" v="survey"/>
  </way>
  <way id="62334470" version="4" timestamp="2010-08-01T02:44:33Z" uid="4467" user="Rosscoe" changeset="5367241">
    <nd ref="778737531"/>
    <nd ref="778739664"/>
    <nd ref="778739165"/>
    <tag k="highway" v="residential"/>
    <tag k="maxspeed" v="50"/>
    <tag k="name" v="Glamis Court"/>
    <tag k="source" v="survey"/>
    <tag k="source:maxspeed" v="default residential speed limit in Australia"/>
  </way>
  <way id="62334471" version="1" timestamp="2010-06-20T23:59:48Z" uid="4467" user="Rosscoe" changeset="5038640">
    <nd ref="778739830"/>
    <nd ref="778739540"/>
    <nd ref="778737510"/>
    <tag k="highway" v="residential"/>
    <tag k="source" v="survey"/>
  </way>
  <way id="62334471" version="2" timestamp="2010-06-21T00:31:16Z" uid="4467" user="Rosscoe" changeset="5038713">
    <nd ref="778739830"/>
    <nd ref="778739540"/>
    <nd ref="778737510"/>
    <tag k="highway" v="residential"/>
    <tag k="name" v="Dundee Court"/>
    <tag k="source" v="survey"/>
  </way>
  <way id="62334471" version="3" timestamp="2010-07-08T09:35:16Z" uid="74617" user="JohnSmith" changeset="5164427">
    <nd ref="778739830"/>
    <nd ref="778739540"/>
    <nd ref="778737510"/>
    <tag k="highway" v="residential"/>
    <tag k="maxspeed" v="50"/>
    <tag k="maxspeed:source" v="default residential speed limit in Australia"/>
    <tag k="name" v="Dundee Court"/>
    <tag k="source" v="survey"/>
  </way>
  <way id="62334471" version="4" timestamp="2010-08-24T13:46:57Z" uid="4467" user="Rosscoe" changeset="5580056">
    <nd ref="778739830"/>
    <nd ref="778739540"/>
    <nd ref="778737510"/>
    <tag k="highway" v="residential"/>
    <tag k="maxspeed" v="50"/>
    <tag k="name" v="Dundee Court"/>
    <tag k="source" v="survey"/>
    <tag k="source:maxspeed" v="default residential speed limit in Australia"/>
  </way>
  <way id="62334472" version="1" timestamp="2010-06-20T23:59:49Z" uid="4467" user="Rosscoe" changeset="5038640">
    <nd ref="778739841"/>
    <nd ref="778737932"/>
    <tag k="highway" v="residential"/>
    <tag k="source" v="survey"/>
  </way>
  <way id="62334472" version="2" timestamp="2010-06-21T00:19:25Z" uid="4467" user="Rosscoe" changeset="5038686">
    <nd ref="778739841"/>
    <nd ref="778737932"/>
    <tag k="highway" v="residential"/>
    <tag k="name" v="Wigham Court"/>
    <tag k="source" v="survey"/>
  </way>
  <way id="62334472" version="3" timestamp="2010-07-08T09:37:04Z" uid="74617" user="JohnSmith" changeset="5164427">
    <nd ref="778739841"/>
    <nd ref="778737932"/>
    <tag k="highway" v="residential"/>
    <tag k="maxspeed" v="50"/>
    <tag k="maxspeed:source" v="default residential speed limit in Australia"/>
    <tag k="name" v="Wigham Court"/>
    <tag k="source" v="survey"/>
  </way>
  <way id="62334472" version="4" timestamp="2010-08-01T02:40:10Z" uid="4467" user="Rosscoe" changeset="5367241">
    <nd ref="778739841"/>
    <nd ref="778737932"/>
    <tag k="highway" v="residential"/>
    <tag k="maxspeed" v="50"/>
    <tag k="name" v="Wigham Court"/>
    <tag k="source" v="survey"/>
    <tag k="source:maxspeed" v="default residential speed limit in Australia"/>
  </way>
  <way id="62334473" version="1" timestamp="2010-06-20T23:59:50Z" uid="4467" user="Rosscoe" changeset="5038640">
    <nd ref="778737686"/>
    <nd ref="778739626"/>
    <tag k="highway" v="residential"/>
    <tag k="source" v="survey"/>
  </way>
  <way id="62334473" version="2" timestamp="2010-06-21T00:19:56Z" uid="4467" user="Rosscoe" changeset="5038686">
    <nd ref="778737686"/>
    <nd ref="778739626"/>
    <tag k="highway" v="residential"/>
    <tag k="name" v="Denise Court"/>
    <tag k="source" v="survey"/>
  </way>
  <way id="62334473" version="3" timestamp="2010-07-08T09:35:59Z" uid="74617" user="JohnSmith" changeset="5164427">
    <nd ref="778737686"/>
    <nd ref="778739626"/>
    <tag k="highway" v="residential"/>
    <tag k="maxspeed" v="50"/>
    <tag k="maxspeed:source" v="default residential speed limit in Australia"/>
    <tag k="name" v="Denise Court"/>
    <tag k="source" v="survey"/>
  </way>
  <way id="62334473" version="4" timestamp="2010-08-01T02:20:49Z" uid="4467" user="Rosscoe" changeset="5367241">
    <nd ref="778737686"/>
    <nd ref="778739626"/>
    <tag k="highway" v="residential"/>
    <tag k="maxspeed" v="50"/>
    <tag k="name" v="Denise Court"/>
    <tag k="source" v="survey"/>
    <tag k="source:maxspeed" v="default residential speed limit in Australia"/>
  </way>
  <way id="62334473" version="5" timestamp="2010-08-01T02:32:07Z" uid="4467" user="Rosscoe" changeset="5367241">
    <nd ref="778737686"/>
    <nd ref="778739626"/>
    <tag k="highway" v="residential"/>
    <tag k="maxspeed" v="50"/>
    <tag k="name" v="Denise Court"/>
    <tag k="source" v="survey"/>
    <tag k="source:maxspeed" v="default residential speed limit in Australia"/>
  </way>
  <way id="62334474" version="1" timestamp="2010-06-20T23:59:51Z" uid="4467" user="Rosscoe" changeset="5038640">
    <nd ref="778739465"/>
    <nd ref="444240055"/>
    <tag k="highway" v="residential"/>
    <tag k="source" v="survey"/>
  </way>
  <way id="62334474" version="2" timestamp="2010-06-21T00:31:10Z" uid="4467" user="Rosscoe" changeset="5038713">
    <nd ref="778739465"/>
    <nd ref="444240055"/>
    <tag k="highway" v="residential"/>
    <tag k="name" v="Highland Court"/>
    <tag k="source" v="survey"/>
  </way>
  <way id="62334474" version="3" timestamp="2010-07-08T09:31:12Z" uid="74617" user="JohnSmith" changeset="5164427">
    <nd ref="778739465"/>
    <nd ref="444240055"/>
    <tag k="highway" v="residential"/>
    <tag k="maxspeed" v="50"/>
    <tag k="maxspeed:source" v="default residential speed limit in Australia"/>
    <tag k="name" v="Highland Court"/>
    <tag k="source" v="survey"/>
  </way>
  <way id="62334474" version="4" timestamp="2010-08-24T13:45:25Z" uid="4467" user="Rosscoe" changeset="5580056">
    <nd ref="778739465"/>
    <nd ref="444240055"/>
    <tag k="highway" v="residential"/>
    <tag k="maxspeed" v="50"/>
    <tag k="name" v="Highland Court"/>
    <tag k="source" v="survey"/>
    <tag k="source:maxspeed" v="default residential speed limit in Australia"/>
  </way>
  <way id="62334475" version="1" timestamp="2010-06-20T23:59:53Z" uid="4467" user="Rosscoe" changeset="5038640">
    <nd ref="778737867"/>
    <nd ref="778739415"/>
    <tag k="highway" v="residential"/>
    <tag k="source" v="survey"/>
  </way>
  <way id="62334475" version="2" timestamp="2010-06-21T00:19:20Z" uid="4467" user="Rosscoe" changeset="5038686">
    <nd ref="778739304"/>
    <nd ref="778737867"/>
    <tag k="highway" v="path"/>
    <tag k="source" v="survey"/>
  </way>
  <way id="62334476" version="1" timestamp="2010-06-20T23:59:54Z" uid="4467" user="Rosscoe" changeset="5038640">
    <nd ref="778738396"/>
    <nd ref="778739771"/>
    <nd ref="444240060"/>
    <tag k="highway" v="residential"/>
    <tag k="source" v="survey"/>
  </way>
  <way id="62334476" version="2" timestamp="2010-06-21T00:31:18Z" uid="4467" user="Rosscoe" changeset="5038713">
    <nd ref="778738396"/>
    <nd ref="778739771"/>
    <nd ref="444240060"/>
    <tag k="highway" v="residential"/>
    <tag k="name" v="Lockerbie Street"/>
    <tag k="source" v="survey"/>
  </way>
  <way id="62334476" version="3" timestamp="2010-07-08T09:32:31Z" uid="74617" user="JohnSmith" changeset="5164427">
    <nd ref="778738396"/>
    <nd ref="778739771"/>
    <nd ref="444240060"/>
    <tag k="highway" v="residential"/>
    <tag k="maxspeed" v="50"/>
    <tag k="maxspeed:source" v="default residential speed limit in Australia"/>
    <tag k="name" v="Lockerbie Street"/>
    <tag k="source" v="survey"/>
  </way>
  <way id="62334476" version="4" timestamp="2010-08-24T13:46:30Z" uid="4467" user="Rosscoe" changeset="5580056">
    <nd ref="778738396"/>
    <nd ref="778739771"/>
    <nd ref="444240060"/>
    <tag k="highway" v="residential"/>
    <tag k="maxspeed" v="50"/>
    <tag k="name" v="Lockerbie Street"/>
    <tag k="source" v="survey"/>
    <tag k="source:maxspeed" v="default residential speed limit in Australia"/>
  </way>
  <way id="62334477" version="1" timestamp="2010-06-20T23:59:55Z" uid="4467" user="Rosscoe" changeset="5038640">
    <nd ref="778738817"/>
    <nd ref="778737772"/>
    <tag k="highway" v="residential"/>
    <tag k="source" v="survey"/>
  </way>
  <way id="62334477" version="2" timestamp="2010-06-21T00:19:29Z" uid="4467" user="Rosscoe" changeset="5038686">
    <nd ref="778738817"/>
    <nd ref="778737772"/>
    <tag k="highway" v="residential"/>
    <tag k="name" v="Dell Court"/>
    <tag k="source" v="survey"/>
  </way>
  <way id="62334477" version="3" timestamp="2010-07-08T09:30:26Z" uid="74617" user="JohnSmith" changeset="5164427">
    <nd ref="778738817"/>
    <nd ref="778737772"/>
    <tag k="highway" v="residential"/>
    <tag k="maxspeed" v="50"/>
    <tag k="maxspeed:source" v="default residential speed limit in Australia"/>
    <tag k="name" v="Dell Court"/>
    <tag k="source" v="survey"/>
  </way>
  <way id="62334477" version="4" timestamp="2010-08-01T02:45:29Z" uid="4467" user="Rosscoe" changeset="5367241">
    <nd ref="778738817"/>
    <nd ref="778737772"/>
    <tag k="highway" v="residential"/>
    <tag k="maxspeed" v="50"/>
    <tag k="name" v="Dell Court"/>
    <tag k="source" v="survey"/>
    <tag k="source:maxspeed" v="default residential speed limit in Australia"/>
  </way>
  <way id="62334478" version="1" timestamp="2010-06-20T23:59:56Z" uid="4467" user="Rosscoe" changeset="5038640">
    <nd ref="778738287"/>
    <nd ref="778739936"/>
    <nd ref="778738835"/>
    <nd ref="778739791"/>
    <nd ref="778737905"/>
    <tag k="highway" v="residential"/>
    <tag k="source" v="survey"/>
  </way>
  <way id="62334478" version="2" timestamp="2010-06-21T00:31:23Z" uid="4467" user="Rosscoe" changeset="5038713">
    <nd ref="778738287"/>
    <nd ref="778739936"/>
    <nd ref="778738835"/>
    <nd ref="778739791"/>
    <nd ref="778737905"/>
    <tag k="highway" v="residential"/>
    <tag k="name" v="Lorne Court"/>
    <tag k="source" v="survey"/>
  </way>
  <way id="62334478" version="3" timestamp="2010-07-08T09:34:51Z" uid="74617" user="JohnSmith" changeset="5164427">
    <nd ref="778738287"/>
    <nd ref="778739936"/>
    <nd ref="778738835"/>
    <nd ref="778739791"/>
    <nd ref="778737905"/>
    <tag k="highway" v="residential"/>
    <tag k="maxspeed" v="50"/>
    <tag k="maxspeed:source" v="default residential speed limit in Australia"/>
    <tag k="name" v="Lorne Court"/>
    <tag k="source" v="survey"/>
  </way>
  <way id="62334478" version="4" timestamp="2010-08-24T13:47:31Z" uid="4467" user="Rosscoe" changeset="5580056">
    <nd ref="778738287"/>
    <nd ref="778739936"/>
    <nd ref="778738835"/>
    <nd ref="778739791"/>
    <nd ref="778737905"/>
    <tag k="highway" v="residential"/>
    <tag k="maxspeed" v="50"/>
    <tag k="name" v="Lorne Court"/>
    <tag k="source" v="survey"/>
    <tag k="source:maxspeed" v="default residential speed limit in Australia"/>
  </way>
  <way id="62334479" version="1" timestamp="2010-06-20T23:59:57Z" uid="4467" user="Rosscoe" changeset="5038640">
    <nd ref="778738378"/>
    <nd ref="778739752"/>
    <nd ref="778737887"/>
    <nd ref="778738472"/>
    <nd ref="778739037"/>
    <nd ref="778739571"/>
    <nd ref="778737573"/>
    <nd ref="778738221"/>
    <tag k="highway" v="residential"/>
    <tag k="source" v="survey"/>
  </way>
  <way id="62334479" version="2" timestamp="2010-06-21T00:31:11Z" uid="4467" user="Rosscoe" changeset="5038713">
    <nd ref="778738378"/>
    <nd ref="778739752"/>
    <nd ref="778737887"/>
    <nd ref="778738472"/>
    <nd ref="778739037"/>
    <nd ref="778739571"/>
    <nd ref="778737573"/>
    <nd ref="778738221"/>
    <tag k="highway" v="residential"/>
    <tag k="name" v="Argyle Court"/>
    <tag k="source" v="survey"/>
  </way>
  <way id="62334479" version="3" timestamp="2010-07-08T09:34:00Z" uid="74617" user="JohnSmith" changeset="5164427">
    <nd ref="778738378"/>
    <nd ref="778739752"/>
    <nd ref="778737887"/>
    <nd ref="778738472"/>
    <nd ref="778739037"/>
    <nd ref="778739571"/>
    <nd ref="778737573"/>
    <nd ref="778738221"/>
    <tag k="highway" v="residential"/>
    <tag k="maxspeed" v="50"/>
    <tag k="maxspeed:source" v="default residential speed limit in Australia"/>
    <tag k="name" v="Argyle Court"/>
    <tag k="source" v="survey"/>
  </way>
  <way id="62334479" version="4" timestamp="2010-08-24T13:45:44Z" uid="4467" user="Rosscoe" changeset="5580056">
    <nd ref="778738378"/>
    <nd ref="778739752"/>
    <nd ref="778737887"/>
    <nd ref="778738472"/>
    <nd ref="778739037"/>
    <nd ref="778739571"/>
    <nd ref="778737573"/>
    <nd ref="778738221"/>
    <tag k="highway" v="residential"/>
    <tag k="maxspeed" v="50"/>
    <tag k="name" v="Argyle Court"/>
    <tag k="source" v="survey"/>
    <tag k="source:maxspeed" v="default residential speed limit in Australia"/>
  </way>
  <way id="62334480" version="1" timestamp="2010-06-20T23:59:58Z" uid="4467" user="Rosscoe" changeset="5038640">
    <nd ref="778738206"/>
    <nd ref="778738780"/>
    <tag k="highway" v="residential"/>
    <tag k="source" v="survey"/>
  </way>
  <way id="62334480" version="2" timestamp="2010-06-21T00:30:59Z" uid="4467" user="Rosscoe" changeset="5038713">
    <nd ref="778738206"/>
    <nd ref="778738780"/>
    <tag k="highway" v="residential"/>
    <tag k="name" v="Hargreaves Street"/>
    <tag k="source" v="survey"/>
  </way>
  <way id="62334480" version="3" timestamp="2010-07-08T09:34:45Z" uid="74617" user="JohnSmith" changeset="5164427">
    <nd ref="778738206"/>
    <nd ref="778738780"/>
    <tag k="highway" v="residential"/>
    <tag k="maxspeed" v="50"/>
    <tag k="maxspeed:source" v="default residential speed limit in Australia"/>
    <tag k="name" v="Hargreaves Street"/>
    <tag k="source" v="survey"/>
  </way>
  <way id="62334480" version="4" timestamp="2010-08-01T02:43:14Z" uid="4467" user="Rosscoe" changeset="5367241">
    <nd ref="778738206"/>
    <nd ref="778738780"/>
    <tag k="highway" v="residential"/>
    <tag k="maxspeed" v="50"/>
    <tag k="name" v="Hargreaves Street"/>
    <tag k="source" v="survey"/>
    <tag k="source:maxspeed" v="default residential speed limit in Australia"/>
  </way>
  <way id="62334481" version="1" timestamp="2010-06-20T23:59:59Z" uid="4467" user="Rosscoe" changeset="5038640">
    <nd ref="778739094"/>
    <nd ref="778738959"/>
    <nd ref="778737772"/>
    <nd ref="778739626"/>
    <nd ref="778738132"/>
    <nd ref="778737653"/>
    <nd ref="778738291"/>
    <nd ref="778739502"/>
    <nd ref="778739348"/>
    <tag k="highway" v="residential"/>
    <tag k="source" v="survey"/>
  </way>
  <way id="62334481" version="2" timestamp="2010-06-21T00:19:49Z" uid="4467" user="Rosscoe" changeset="5038686">
    <nd ref="778739094"/>
    <nd ref="778738959"/>
    <nd ref="778737772"/>
    <nd ref="778739626"/>
    <nd ref="778738132"/>
    <nd ref="778737653"/>
    <nd ref="778738291"/>
    <nd ref="778739502"/>
    <nd ref="778739348"/>
    <tag k="highway" v="residential"/>
    <tag k="name" v="Pittman Street"/>
    <tag k="source" v="survey"/>
  </way>
  <way id="62334481" version="3" timestamp="2010-07-08T09:33:47Z" uid="74617" user="JohnSmith" changeset="5164427">
    <nd ref="778739094"/>
    <nd ref="778738959"/>
    <nd ref="778737772"/>
    <nd ref="778739626"/>
    <nd ref="778738132"/>
    <nd ref="778737653"/>
    <nd ref="778738291"/>
    <nd ref="778739502"/>
    <nd ref="778739348"/>
    <tag k="highway" v="residential"/>
    <tag k="maxspeed" v="50"/>
    <tag k="maxspeed:source" v="default residential speed limit in Australia"/>
    <tag k="name" v="Pittman Street"/>
    <tag k="source" v="survey"/>
  </way>
  <way id="62334481" version="4" timestamp="2010-08-01T02:23:57Z" uid="4467" user="Rosscoe" changeset="5367241">
    <nd ref="778739094"/>
    <nd ref="778738959"/>
    <nd ref="778737772"/>
    <nd ref="778739626"/>
    <nd ref="778738132"/>
    <nd ref="778737653"/>
    <nd ref="778738291"/>
    <nd ref="778739502"/>
    <nd ref="778739348"/>
    <tag k="highway" v="residential"/>
    <tag k="maxspeed" v="50"/>
    <tag k="name" v="Pittman Street"/>
    <tag k="source" v="survey"/>
    <tag k="source:maxspeed" v="default residential speed limit in Australia"/>
  </way>
  <way id="62334481" version="5" timestamp="2010-08-01T02:35:16Z" uid="4467" user="Rosscoe" changeset="5367241">
    <nd ref="778739094"/>
    <nd ref="778738959"/>
    <nd ref="778737772"/>
    <nd ref="778739626"/>
    <nd ref="778738132"/>
    <nd ref="778737653"/>
    <nd ref="778738291"/>
    <nd ref="778739502"/>
    <nd ref="778739348"/>
    <tag k="highway" v="residential"/>
    <tag k="maxspeed" v="50"/>
    <tag k="name" v="Pittman Street"/>
    <tag k="source" v="survey"/>
    <tag k="source:maxspeed" v="default residential speed limit in Australia"/>
  </way>
  <way id="62334481" version="6" timestamp="2010-08-24T22:56:10Z" uid="4467" user="Rosscoe" changeset="5584898">
    <nd ref="778739094"/>
    <nd ref="778738959"/>
    <nd ref="878057910"/>
    <nd ref="778737772"/>
    <nd ref="778739626"/>
    <nd ref="778738132"/>
    <nd ref="778737653"/>
    <nd ref="778738291"/>
    <nd ref="778739502"/>
    <nd ref="778739348"/>
    <tag k="highway" v="residential"/>
    <tag k="maxspeed" v="50"/>
    <tag k="name" v="Pittman Street"/>
    <tag k="source" v="survey"/>
    <tag k="source:maxspeed" v="default residential speed limit in Australia"/>
  </way>
  <way id="62334482" version="1" timestamp="2010-06-21T00:00:01Z" uid="4467" user="Rosscoe" changeset="5038640">
    <nd ref="778738688"/>
    <nd ref="778739267"/>
    <nd ref="778739715"/>
    <nd ref="778738415"/>
    <nd ref="778738920"/>
    <nd ref="778739484"/>
    <nd ref="444240041"/>
    <tag k="highway" v="residential"/>
    <tag k="source" v="survey"/>
  </way>
  <way id="62334482" version="2" timestamp="2010-06-21T00:31:06Z" uid="4467" user="Rosscoe" changeset="5038713">
    <nd ref="778738688"/>
    <nd ref="778739267"/>
    <nd ref="778739715"/>
    <nd ref="778738415"/>
    <nd ref="778738920"/>
    <nd ref="778739484"/>
    <nd ref="444240041"/>
    <tag k="highway" v="residential"/>
    <tag k="name" v="Culloden Place"/>
    <tag k="source" v="survey"/>
  </way>
  <way id="62334482" version="3" timestamp="2010-07-08T09:36:54Z" uid="74617" user="JohnSmith" changeset="5164427">
    <nd ref="778738688"/>
    <nd ref="778739267"/>
    <nd ref="778739715"/>
    <nd ref="778738415"/>
    <nd ref="778738920"/>
    <nd ref="778739484"/>
    <nd ref="444240041"/>
    <tag k="highway" v="residential"/>
    <tag k="maxspeed" v="50"/>
    <tag k="maxspeed:source" v="default residential speed limit in Australia"/>
    <tag k="name" v="Culloden Place"/>
    <tag k="source" v="survey"/>
  </way>
  <way id="62334482" version="4" timestamp="2010-08-01T02:46:30Z" uid="4467" user="Rosscoe" changeset="5367241">
    <nd ref="778738688"/>
    <nd ref="778739267"/>
    <nd ref="778739715"/>
    <nd ref="778738415"/>
    <nd ref="778738920"/>
    <nd ref="778739484"/>
    <nd ref="444240041"/>
    <tag k="highway" v="residential"/>
    <tag k="maxspeed" v="50"/>
    <tag k="name" v="Culloden Place"/>
    <tag k="source" v="survey"/>
    <tag k="source:maxspeed" v="default residential speed limit in Australia"/>
  </way>
  <way id="62334483" version="1" timestamp="2010-06-21T00:00:02Z" uid="4467" user="Rosscoe" changeset="5038640">
    <nd ref="778739917"/>
    <nd ref="778739057"/>
    <nd ref="778739607"/>
    <nd ref="778738172"/>
    <nd ref="778738762"/>
    <tag k="highway" v="residential"/>
    <tag k="source" v="survey"/>
  </way>
  <way id="62334483" version="2" timestamp="2010-06-21T00:31:25Z" uid="4467" user="Rosscoe" changeset="5038713">
    <nd ref="778739917"/>
    <nd ref="778739057"/>
    <nd ref="778739607"/>
    <nd ref="778738172"/>
    <nd ref="778738762"/>
    <tag k="highway" v="residential"/>
    <tag k="name" v="Kintyre Court"/>
    <tag k="source" v="survey"/>
  </way>
  <way id="62334483" version="3" timestamp="2010-07-08T09:35:49Z" uid="74617" user="JohnSmith" changeset="5164427">
    <nd ref="778739917"/>
    <nd ref="778739057"/>
    <nd ref="778739607"/>
    <nd ref="778738172"/>
    <nd ref="778738762"/>
    <tag k="highway" v="residential"/>
    <tag k="maxspeed" v="50"/>
    <tag k="maxspeed:source" v="default residential speed limit in Australia"/>
    <tag k="name" v="Kintyre Court"/>
    <tag k="source" v="survey"/>
  </way>
  <way id="62334483" version="4" timestamp="2010-08-24T13:47:15Z" uid="4467" user="Rosscoe" changeset="5580056">
    <nd ref="778739917"/>
    <nd ref="778739057"/>
    <nd ref="778739607"/>
    <nd ref="778738172"/>
    <nd ref="778738762"/>
    <tag k="highway" v="residential"/>
    <tag k="maxspeed" v="50"/>
    <tag k="name" v="Kintyre Court"/>
    <tag k="source" v="survey"/>
    <tag k="source:maxspeed" v="default residential speed limit in Australia"/>
  </way>
  <way id="62334484" version="1" timestamp="2010-06-21T00:00:03Z" uid="4467" user="Rosscoe" changeset="5038640">
    <nd ref="778739203"/>
    <nd ref="778738152"/>
    <nd ref="778738747"/>
    <tag k="highway" v="residential"/>
    <tag k="source" v="survey"/>
  </way>
  <way id="62334484" version="2" timestamp="2010-06-21T00:31:15Z" uid="4467" user="Rosscoe" changeset="5038713">
    <nd ref="778739203"/>
    <nd ref="778738152"/>
    <nd ref="778738747"/>
    <tag k="highway" v="residential"/>
    <tag k="name" v="Balmoral Court"/>
    <tag k="source" v="survey"/>
  </way>
  <way id="62334484" version="3" timestamp="2010-07-08T09:28:08Z" uid="74617" user="JohnSmith" changeset="5164427">
    <nd ref="778739203"/>
    <nd ref="778738152"/>
    <nd ref="778738747"/>
    <tag k="highway" v="residential"/>
    <tag k="maxspeed" v="50"/>
    <tag k="maxspeed:source" v="default residential speed limit in Australia"/>
    <tag k="name" v="Balmoral Court"/>
    <tag k="source" v="survey"/>
  </way>
  <way id="62334484" version="4" timestamp="2010-08-01T02:25:52Z" uid="4467" user="Rosscoe" changeset="5367241">
    <nd ref="778739203"/>
    <nd ref="778738152"/>
    <nd ref="778738747"/>
    <tag k="highway" v="residential"/>
    <tag k="maxspeed" v="50"/>
    <tag k="name" v="Balmoral Court"/>
    <tag k="source" v="survey"/>
    <tag k="source:maxspeed" v="default residential speed limit in Australia"/>
  </way>
  <way id="62334484" version="5" timestamp="2010-08-01T02:37:15Z" uid="4467" user="Rosscoe" changeset="5367241">
    <nd ref="778739203"/>
    <nd ref="778738152"/>
    <nd ref="778738747"/>
    <tag k="highway" v="residential"/>
    <tag k="maxspeed" v="50"/>
    <tag k="name" v="Balmoral Court"/>
    <tag k="source" v="survey"/>
    <tag k="source:maxspeed" v="default residential speed limit in Australia"/>
  </way>
  <way id="62334484" version="6" timestamp="2010-08-24T14:06:05Z" uid="4467" user="Rosscoe" changeset="5580214">
    <nd ref="778739203"/>
    <nd ref="877224587"/>
    <nd ref="778738152"/>
    <nd ref="778738747"/>
    <tag k="highway" v="residential"/>
    <tag k="maxspeed" v="50"/>
    <tag k="name" v="Balmoral Court"/>
    <tag k="source" v="survey"/>
    <tag k="source:maxspeed" v="default residential speed limit in Australia"/>
  </way>
  <way id="62334485" version="1" timestamp="2010-06-21T00:00:04Z" uid="4467" user="Rosscoe" changeset="5038640">
    <nd ref="778739880"/>
    <nd ref="778739415"/>
    <nd ref="778737653"/>
    <tag k="highway" v="residential"/>
    <tag k="source" v="survey"/>
  </way>
  <way id="62334485" version="2" timestamp="2010-06-21T01:24:42Z" uid="4467" user="Rosscoe" changeset="5038826">
    <nd ref="778739880"/>
    <nd ref="778739415"/>
    <nd ref="778737653"/>
    <tag k="highway" v="residential"/>
    <tag k="name" v="Challenger Street"/>
    <tag k="source" v="survey"/>
  </way>
  <way id="62334485" version="3" timestamp="2010-07-08T09:36:27Z" uid="74617" user="JohnSmith" changeset="5164427">
    <nd ref="778739880"/>
    <nd ref="778739415"/>
    <nd ref="778737653"/>
    <tag k="highway" v="residential"/>
    <tag k="maxspeed" v="50"/>
    <tag k="maxspeed:source" v="default residential speed limit in Australia"/>
    <tag k="name" v="Challenger Street"/>
    <tag k="source" v="survey"/>
  </way>
  <way id="62334485" version="4" timestamp="2010-08-01T02:49:12Z" uid="4467" user="Rosscoe" changeset="5367241">
    <nd ref="778739880"/>
    <nd ref="778739415"/>
    <nd ref="778737653"/>
    <tag k="highway" v="residential"/>
    <tag k="maxspeed" v="50"/>
    <tag k="name" v="Challenger Street"/>
    <tag k="source" v="survey"/>
    <tag k="source:maxspeed" v="default residential speed limit in Australia"/>
  </way>
  <way id="62334486" version="1" timestamp="2010-06-21T00:00:05Z" uid="4467" user="Rosscoe" changeset="5038640">
    <nd ref="778738615"/>
    <nd ref="778737607"/>
    <tag k="highway" v="residential"/>
    <tag k="source" v="survey"/>
  </way>
  <way id="62334486" version="2" timestamp="2010-06-21T00:19:53Z" uid="4467" user="Rosscoe" changeset="5038686">
    <nd ref="778738615"/>
    <nd ref="778737607"/>
    <tag k="highway" v="residential"/>
    <tag k="name" v="Wills Street"/>
    <tag k="source" v="survey"/>
  </way>
  <way id="62334486" version="3" timestamp="2010-07-08T09:32:04Z" uid="74617" user="JohnSmith" changeset="5164427">
    <nd ref="778738615"/>
    <nd ref="778737607"/>
    <tag k="highway" v="residential"/>
    <tag k="maxspeed" v="50"/>
    <tag k="maxspeed:source" v="default residential speed limit in Australia"/>
    <tag k="name" v="Wills Street"/>
    <tag k="source" v="survey"/>
  </way>
  <way id="62334486" version="4" timestamp="2010-08-01T02:40:22Z" uid="4467" user="Rosscoe" changeset="5367241">
    <nd ref="778738615"/>
    <nd ref="778737607"/>
    <tag k="highway" v="residential"/>
    <tag k="maxspeed" v="50"/>
    <tag k="name" v="Wills Street"/>
    <tag k="source" v="survey"/>
    <tag k="source:maxspeed" v="default residential speed limit in Australia"/>
  </way>
  <way id="62334487" version="1" timestamp="2010-06-21T00:00:06Z" uid="4467" user="Rosscoe" changeset="5038640">
    <nd ref="778737811"/>
    <nd ref="778738912"/>
    <tag k="highway" v="residential"/>
    <tag k="source" v="survey"/>
  </way>
  <way id="62334487" version="2" timestamp="2010-06-21T00:31:08Z" uid="4467" user="Rosscoe" changeset="5038713">
    <nd ref="778737811"/>
    <nd ref="778738912"/>
    <tag k="highway" v="residential"/>
    <tag k="name" v="Inverness Court"/>
    <tag k="source" v="survey"/>
  </way>
  <way id="62334487" version="3" timestamp="2010-07-08T09:30:11Z" uid="74617" user="JohnSmith" changeset="5164427">
    <nd ref="778737811"/>
    <nd ref="778738912"/>
    <tag k="highway" v="residential"/>
    <tag k="maxspeed" v="50"/>
    <tag k="maxspeed:source" v="default residential speed limit in Australia"/>
    <tag k="name" v="Inverness Court"/>
    <tag k="source" v="survey"/>
  </way>
  <way id="62334487" version="4" timestamp="2010-08-24T13:46:37Z" uid="4467" user="Rosscoe" changeset="5580056">
    <nd ref="778737811"/>
    <nd ref="778738912"/>
    <tag k="highway" v="residential"/>
    <tag k="maxspeed" v="50"/>
    <tag k="name" v="Inverness Court"/>
    <tag k="source" v="survey"/>
    <tag k="source:maxspeed" v="default residential speed limit in Australia"/>
  </way>
  <way id="62334488" version="1" timestamp="2010-06-21T00:00:07Z" uid="4467" user="Rosscoe" changeset="5038640">
    <nd ref="778739521"/>
    <nd ref="778738504"/>
    <nd ref="778737742"/>
    <nd ref="778739112"/>
    <nd ref="778737588"/>
    <nd ref="778738238"/>
    <nd ref="444240045"/>
    <tag k="highway" v="residential"/>
    <tag k="source" v="survey"/>
  </way>
  <way id="62334488" version="2" timestamp="2010-06-21T00:30:56Z" uid="4467" user="Rosscoe" changeset="5038713">
    <nd ref="778739521"/>
    <nd ref="778738504"/>
    <tag k="highway" v="residential"/>
    <tag k="name" v="Dumfries Court"/>
    <tag k="source" v="survey"/>
  </way>
  <way id="62334488" version="3" timestamp="2010-07-08T09:33:12Z" uid="74617" user="JohnSmith" changeset="5164427">
    <nd ref="778739521"/>
    <nd ref="778738504"/>
    <tag k="highway" v="residential"/>
    <tag k="maxspeed" v="50"/>
    <tag k="maxspeed:source" v="default residential speed limit in Australia"/>
    <tag k="name" v="Dumfries Court"/>
    <tag k="source" v="survey"/>
  </way>
  <way id="62334488" version="4" timestamp="2010-08-01T02:24:31Z" uid="4467" user="Rosscoe" changeset="5367241">
    <nd ref="778739521"/>
    <nd ref="778738504"/>
    <tag k="highway" v="residential"/>
    <tag k="maxspeed" v="50"/>
    <tag k="name" v="Dumfries Court"/>
    <tag k="source" v="survey"/>
    <tag k="source:maxspeed" v="default residential speed limit in Australia"/>
  </way>
  <way id="62334488" version="5" timestamp="2010-08-01T02:35:50Z" uid="4467" user="Rosscoe" changeset="5367241">
    <nd ref="778739521"/>
    <nd ref="778738504"/>
    <tag k="highway" v="residential"/>
    <tag k="maxspeed" v="50"/>
    <tag k="name" v="Dumfries Court"/>
    <tag k="source" v="survey"/>
    <tag k="source:maxspeed" v="default residential speed limit in Australia"/>
  </way>
  <way id="62334489" version="1" timestamp="2010-06-21T00:00:08Z" uid="4467" user="Rosscoe" changeset="5038640">
    <nd ref="778738308"/>
    <nd ref="778739358"/>
    <tag k="highway" v="residential"/>
    <tag k="source" v="survey"/>
    <tag k="surface" v="paved"/>
  </way>
  <way id="62334489" version="2" timestamp="2010-06-21T00:31:17Z" uid="4467" user="Rosscoe" changeset="5038713">
    <nd ref="778738308"/>
    <nd ref="778739358"/>
    <tag k="highway" v="residential"/>
    <tag k="name" v="Kirkconnell Street"/>
    <tag k="source" v="survey"/>
    <tag k="surface" v="paved"/>
  </way>
  <way id="62334489" version="3" timestamp="2010-07-08T09:31:06Z" uid="74617" user="JohnSmith" changeset="5164427">
    <nd ref="778738308"/>
    <nd ref="778739358"/>
    <tag k="highway" v="residential"/>
    <tag k="maxspeed" v="50"/>
    <tag k="maxspeed:source" v="default residential speed limit in Australia"/>
    <tag k="name" v="Kirkconnell Street"/>
    <tag k="source" v="survey"/>
    <tag k="surface" v="paved"/>
  </way>
  <way id="62334489" version="4" timestamp="2010-08-24T13:47:36Z" uid="4467" user="Rosscoe" changeset="5580056">
    <nd ref="778738308"/>
    <nd ref="778739358"/>
    <tag k="highway" v="residential"/>
    <tag k="maxspeed" v="50"/>
    <tag k="name" v="Kirkconnell Street"/>
    <tag k="source" v="survey"/>
    <tag k="source:maxspeed" v="default residential speed limit in Australia"/>
    <tag k="surface" v="paved"/>
  </way>
  <way id="62334490" version="1" timestamp="2010-06-21T00:00:09Z" uid="4467" user="Rosscoe" changeset="5038640">
    <nd ref="778738112"/>
    <nd ref="778738709"/>
    <nd ref="778739683"/>
    <nd ref="778737752"/>
    <tag k="highway" v="residential"/>
    <tag k="source" v="survey"/>
  </way>
  <way id="62334490" version="2" timestamp="2010-06-21T00:19:27Z" uid="4467" user="Rosscoe" changeset="5038686">
    <nd ref="778738112"/>
    <nd ref="778738709"/>
    <nd ref="778739683"/>
    <nd ref="778737752"/>
    <tag k="highway" v="residential"/>
    <tag k="name" v="Burwood Close"/>
    <tag k="source" v="survey"/>
  </way>
  <way id="62334490" version="3" timestamp="2010-07-08T09:35:09Z" uid="74617" user="JohnSmith" changeset="5164427">
    <nd ref="778738112"/>
    <nd ref="778738709"/>
    <nd ref="778739683"/>
    <nd ref="778737752"/>
    <tag k="highway" v="residential"/>
    <tag k="maxspeed" v="50"/>
    <tag k="maxspeed:source" v="default residential speed limit in Australia"/>
    <tag k="name" v="Burwood Close"/>
    <tag k="source" v="survey"/>
  </way>
  <way id="62334490" version="4" timestamp="2010-08-01T02:38:45Z" uid="4467" user="Rosscoe" changeset="5367241">
    <nd ref="778738112"/>
    <nd ref="778738709"/>
    <nd ref="778739683"/>
    <nd ref="778737752"/>
    <tag k="highway" v="residential"/>
    <tag k="maxspeed" v="50"/>
    <tag k="name" v="Burwood Close"/>
    <tag k="source" v="survey"/>
    <tag k="source:maxspeed" v="default residential speed limit in Australia"/>
  </way>
  <way id="62334491" version="1" timestamp="2010-06-21T00:00:11Z" uid="4467" user="Rosscoe" changeset="5038640">
    <nd ref="778739664"/>
    <nd ref="778737720"/>
    <nd ref="778738348"/>
    <nd ref="778739377"/>
    <nd ref="778738920"/>
    <tag k="highway" v="residential"/>
    <tag k="source" v="survey"/>
  </way>
  <way id="62334491" version="2" timestamp="2010-06-21T00:31:22Z" uid="4467" user="Rosscoe" changeset="5038713">
    <nd ref="778739664"/>
    <nd ref="778737720"/>
    <nd ref="778738348"/>
    <nd ref="778739377"/>
    <nd ref="778738920"/>
    <tag k="highway" v="residential"/>
    <tag k="name" v="Glamis Court"/>
    <tag k="source" v="survey"/>
  </way>
  <way id="62334491" version="3" timestamp="2010-07-08T09:34:26Z" uid="74617" user="JohnSmith" changeset="5164427">
    <nd ref="778739664"/>
    <nd ref="778737720"/>
    <nd ref="778738348"/>
    <nd ref="778739377"/>
    <nd ref="778738920"/>
    <tag k="highway" v="residential"/>
    <tag k="maxspeed" v="50"/>
    <tag k="maxspeed:source" v="default residential speed limit in Australia"/>
    <tag k="name" v="Glamis Court"/>
    <tag k="source" v="survey"/>
  </way>
  <way id="62334491" version="4" timestamp="2010-08-01T02:50:45Z" uid="4467" user="Rosscoe" changeset="5367241">
    <nd ref="778739664"/>
    <nd ref="778737720"/>
    <nd ref="778738348"/>
    <nd ref="778739377"/>
    <nd ref="778738920"/>
    <tag k="highway" v="residential"/>
    <tag k="maxspeed" v="50"/>
    <tag k="name" v="Glamis Court"/>
    <tag k="source" v="survey"/>
    <tag k="source:maxspeed" v="default residential speed limit in Australia"/>
  </way>
  <way id="62334492" version="1" timestamp="2010-06-21T00:00:12Z" uid="4467" user="Rosscoe" changeset="5038640">
    <nd ref="778738562"/>
    <nd ref="778738979"/>
    <tag k="highway" v="residential"/>
    <tag k="source" v="survey"/>
  </way>
  <way id="62334492" version="2" timestamp="2010-06-21T00:19:39Z" uid="4467" user="Rosscoe" changeset="5038686">
    <nd ref="778738562"/>
    <nd ref="778738979"/>
    <tag k="highway" v="residential"/>
    <tag k="name" v="Melissa Court"/>
    <tag k="source" v="survey"/>
  </way>
  <way id="62334492" version="3" timestamp="2010-07-08T09:35:53Z" uid="74617" user="JohnSmith" changeset="5164427">
    <nd ref="778738562"/>
    <nd ref="778738979"/>
    <tag k="highway" v="residential"/>
    <tag k="maxspeed" v="50"/>
    <tag k="maxspeed:source" v="default residential speed limit in Australia"/>
    <tag k="name" v="Melissa Court"/>
    <tag k="source" v="survey"/>
  </way>
  <way id="62334492" version="4" timestamp="2010-08-01T02:50:03Z" uid="4467" user="Rosscoe" changeset="5367241">
    <nd ref="778738562"/>
    <nd ref="778738979"/>
    <tag k="highway" v="residential"/>
    <tag k="maxspeed" v="50"/>
    <tag k="name" v="Melissa Court"/>
    <tag k="source" v="survey"/>
    <tag k="source:maxspeed" v="default residential speed limit in Australia"/>
  </way>
  <way id="62334493" version="1" timestamp="2010-06-21T00:00:13Z" uid="4467" user="Rosscoe" changeset="5038640">
    <nd ref="778738998"/>
    <nd ref="444240043"/>
    <tag k="highway" v="residential"/>
    <tag k="source" v="survey"/>
  </way>
  <way id="62334493" version="2" timestamp="2010-06-21T00:30:57Z" uid="4467" user="Rosscoe" changeset="5038713">
    <nd ref="778738998"/>
    <nd ref="444240043"/>
    <tag k="highway" v="residential"/>
    <tag k="name" v="Galashiels Street"/>
    <tag k="source" v="survey"/>
  </way>
  <way id="62334493" version="3" timestamp="2010-07-08T09:34:48Z" uid="74617" user="JohnSmith" changeset="5164427">
    <nd ref="778738998"/>
    <nd ref="444240043"/>
    <tag k="highway" v="residential"/>
    <tag k="maxspeed" v="50"/>
    <tag k="maxspeed:source" v="default residential speed limit in Australia"/>
    <tag k="name" v="Galashiels Street"/>
    <tag k="source" v="survey"/>
  </way>
  <way id="62334493" version="4" timestamp="2010-08-01T02:41:03Z" uid="4467" user="Rosscoe" changeset="5367241">
    <nd ref="778738998"/>
    <nd ref="444240043"/>
    <tag k="highway" v="residential"/>
    <tag k="maxspeed" v="50"/>
    <tag k="name" v="Galashiels Street"/>
    <tag k="source" v="survey"/>
    <tag k="source:maxspeed" v="default residential speed limit in Australia"/>
  </way>
  <way id="62334494" version="1" timestamp="2010-06-21T00:00:15Z" uid="4467" user="Rosscoe" changeset="5038640">
    <nd ref="778739304"/>
    <nd ref="778738327"/>
    <tag k="highway" v="residential"/>
    <tag k="source" v="survey"/>
  </way>
  <way id="62334494" version="2" timestamp="2010-06-21T00:19:46Z" uid="4467" user="Rosscoe" changeset="5038686">
    <nd ref="778739304"/>
    <nd ref="778738327"/>
    <tag k="highway" v="residential"/>
    <tag k="name" v="Cresse Street"/>
    <tag k="source" v="survey"/>
  </way>
  <way id="62334494" version="3" timestamp="2010-07-08T09:29:15Z" uid="74617" user="JohnSmith" changeset="5164427">
    <nd ref="778739304"/>
    <nd ref="778738327"/>
    <tag k="highway" v="residential"/>
    <tag k="maxspeed" v="50"/>
    <tag k="maxspeed:source" v="default residential speed limit in Australia"/>
    <tag k="name" v="Cresse Street"/>
    <tag k="source" v="survey"/>
  </way>
  <way id="62334494" version="4" timestamp="2010-08-01T02:21:45Z" uid="4467" user="Rosscoe" changeset="5367241">
    <nd ref="778739304"/>
    <nd ref="778738327"/>
    <tag k="highway" v="residential"/>
    <tag k="maxspeed" v="50"/>
    <tag k="name" v="Cresse Street"/>
    <tag k="source" v="survey"/>
    <tag k="source:maxspeed" v="default residential speed limit in Australia"/>
  </way>
  <way id="62334494" version="5" timestamp="2010-08-01T02:32:58Z" uid="4467" user="Rosscoe" changeset="5367241">
    <nd ref="778739304"/>
    <nd ref="778738327"/>
    <tag k="highway" v="residential"/>
    <tag k="maxspeed" v="50"/>
    <tag k="name" v="Cresse Street"/>
    <tag k="source" v="survey"/>
    <tag k="source:maxspeed" v="default residential speed limit in Australia"/>
  </way>
  <way id="62334495" version="1" timestamp="2010-06-21T00:00:16Z" uid="4467" user="Rosscoe" changeset="5038640">
    <nd ref="778737742"/>
    <nd ref="778738873"/>
    <nd ref="778738238"/>
    <tag k="highway" v="residential"/>
    <tag k="source" v="survey"/>
  </way>
  <way id="62334495" version="2" timestamp="2010-06-21T00:31:05Z" uid="4467" user="Rosscoe" changeset="5038713">
    <nd ref="778737742"/>
    <nd ref="778738873"/>
    <nd ref="778738238"/>
    <tag k="highway" v="residential"/>
    <tag k="name" v="Banks Wood Street"/>
    <tag k="source" v="survey"/>
  </way>
  <way id="62334495" version="3" timestamp="2010-07-08T09:36:58Z" uid="74617" user="JohnSmith" changeset="5164427">
    <nd ref="778737742"/>
    <nd ref="778738873"/>
    <nd ref="778738238"/>
    <tag k="highway" v="residential"/>
    <tag k="maxspeed" v="50"/>
    <tag k="maxspeed:source" v="default residential speed limit in Australia"/>
    <tag k="name" v="Banks Wood Street"/>
    <tag k="source" v="survey"/>
  </way>
  <way id="62334495" version="4" timestamp="2010-08-01T02:43:51Z" uid="4467" user="Rosscoe" changeset="5367241">
    <nd ref="778737742"/>
    <nd ref="778738873"/>
    <nd ref="778738238"/>
    <tag k="highway" v="residential"/>
    <tag k="maxspeed" v="50"/>
    <tag k="name" v="Banks Wood Street"/>
    <tag k="source" v="survey"/>
    <tag k="source:maxspeed" v="default residential speed limit in Australia"/>
  </way>
  <way id="62334496" version="1" timestamp="2010-06-21T00:00:17Z" uid="4467" user="Rosscoe" changeset="5038640">
    <nd ref="778738818"/>
    <nd ref="778738998"/>
    <nd ref="778737831"/>
    <nd ref="778738453"/>
    <tag k="highway" v="residential"/>
    <tag k="source" v="survey"/>
  </way>
  <way id="62334496" version="2" timestamp="2010-06-21T00:31:24Z" uid="4467" user="Rosscoe" changeset="5038713">
    <nd ref="778738818"/>
    <nd ref="778738998"/>
    <nd ref="778737831"/>
    <nd ref="778738453"/>
    <tag k="highway" v="residential"/>
    <tag k="name" v="Galashiels Street"/>
    <tag k="source" v="survey"/>
  </way>
  <way id="62334496" version="3" timestamp="2010-07-08T09:29:00Z" uid="74617" user="JohnSmith" changeset="5164427">
    <nd ref="778738818"/>
    <nd ref="778738998"/>
    <nd ref="778737831"/>
    <nd ref="778738453"/>
    <tag k="highway" v="residential"/>
    <tag k="maxspeed" v="50"/>
    <tag k="maxspeed:source" v="default residential speed limit in Australia"/>
    <tag k="name" v="Galashiels Street"/>
    <tag k="source" v="survey"/>
  </way>
  <way id="62334496" version="4" timestamp="2010-08-24T13:46:09Z" uid="4467" user="Rosscoe" changeset="5580056">
    <nd ref="778738818"/>
    <nd ref="778738998"/>
    <nd ref="778737831"/>
    <nd ref="778738453"/>
    <tag k="highway" v="residential"/>
    <tag k="maxspeed" v="50"/>
    <tag k="name" v="Galashiels Street"/>
    <tag k="source" v="survey"/>
    <tag k="source:maxspeed" v="default residential speed limit in Australia"/>
  </way>
  <way id="62334497" version="1" timestamp="2010-06-21T00:00:18Z" uid="4467" user="Rosscoe" changeset="5038640">
    <nd ref="778738576"/>
    <nd ref="778738206"/>
    <nd ref="778737556"/>
    <tag k="highway" v="residential"/>
    <tag k="source" v="survey"/>
  </way>
  <way id="62334497" version="2" timestamp="2010-06-21T00:31:14Z" uid="4467" user="Rosscoe" changeset="5038713">
    <nd ref="778738576"/>
    <nd ref="778738206"/>
    <tag k="highway" v="residential"/>
    <tag k="name" v="Richard Street"/>
    <tag k="source" v="survey"/>
  </way>
  <way id="62334497" version="3" timestamp="2010-07-08T09:36:50Z" uid="74617" user="JohnSmith" changeset="5164427">
    <nd ref="778738576"/>
    <nd ref="778738206"/>
    <tag k="highway" v="residential"/>
    <tag k="maxspeed" v="50"/>
    <tag k="maxspeed:source" v="default residential speed limit in Australia"/>
    <tag k="name" v="Richard Street"/>
    <tag k="source" v="survey"/>
  </way>
  <way id="62334497" version="4" timestamp="2010-08-01T02:48:47Z" uid="4467" user="Rosscoe" changeset="5367241">
    <nd ref="778738576"/>
    <nd ref="778738206"/>
    <tag k="highway" v="residential"/>
    <tag k="maxspeed" v="50"/>
    <tag k="name" v="Richard Street"/>
    <tag k="source" v="survey"/>
    <tag k="source:maxspeed" v="default residential speed limit in Australia"/>
  </way>
  <way id="62334498" version="1" timestamp="2010-06-21T00:00:19Z" uid="4467" user="Rosscoe" changeset="5038640">
    <nd ref="778739211"/>
    <nd ref="778738191"/>
    <nd ref="778739286"/>
    <nd ref="778738060"/>
    <tag k="highway" v="residential"/>
    <tag k="source" v="survey"/>
  </way>
  <way id="62334498" version="2" timestamp="2010-06-21T00:19:22Z" uid="4467" user="Rosscoe" changeset="5038686">
    <nd ref="778739211"/>
    <nd ref="778738191"/>
    <nd ref="778739286"/>
    <nd ref="778738060"/>
    <tag k="highway" v="residential"/>
    <tag k="name" v="Nathan Court"/>
    <tag k="source" v="survey"/>
  </way>
  <way id="62334498" version="3" timestamp="2010-07-08T09:33:01Z" uid="74617" user="JohnSmith" changeset="5164427">
    <nd ref="778739211"/>
    <nd ref="778738191"/>
    <nd ref="778739286"/>
    <nd ref="778738060"/>
    <tag k="highway" v="residential"/>
    <tag k="maxspeed" v="50"/>
    <tag k="maxspeed:source" v="default residential speed limit in Australia"/>
    <tag k="name" v="Nathan Court"/>
    <tag k="source" v="survey"/>
  </way>
  <way id="62334498" version="4" timestamp="2010-08-01T02:39:56Z" uid="4467" user="Rosscoe" changeset="5367241">
    <nd ref="778739211"/>
    <nd ref="778738191"/>
    <nd ref="778739286"/>
    <nd ref="778738060"/>
    <tag k="highway" v="residential"/>
    <tag k="maxspeed" v="50"/>
    <tag k="name" v="Nathan Court"/>
    <tag k="source" v="survey"/>
    <tag k="source:maxspeed" v="default residential speed limit in Australia"/>
  </way>
  <way id="62334499" version="1" timestamp="2010-06-21T00:00:20Z" uid="4467" user="Rosscoe" changeset="5038640">
    <nd ref="778739860"/>
    <nd ref="778738019"/>
    <tag k="highway" v="residential"/>
    <tag k="source" v="survey"/>
  </way>
  <way id="62334499" version="2" timestamp="2010-06-21T01:24:50Z" uid="4467" user="Rosscoe" changeset="5038826">
    <nd ref="778739860"/>
    <nd ref="778738019"/>
    <tag k="highway" v="residential"/>
    <tag k="name" v="Pandanus Street"/>
    <tag k="source" v="survey"/>
  </way>
  <way id="62334499" version="3" timestamp="2010-07-08T09:30:55Z" uid="74617" user="JohnSmith" changeset="5164427">
    <nd ref="778739860"/>
    <nd ref="778738019"/>
    <tag k="highway" v="residential"/>
    <tag k="maxspeed" v="50"/>
    <tag k="maxspeed:source" v="default residential speed limit in Australia"/>
    <tag k="name" v="Pandanus Street"/>
    <tag k="source" v="survey"/>
  </way>
  <way id="62334499" version="4" timestamp="2010-08-01T02:20:39Z" uid="4467" user="Rosscoe" changeset="5367241">
    <nd ref="778739860"/>
    <nd ref="778738019"/>
    <tag k="highway" v="residential"/>
    <tag k="maxspeed" v="50"/>
    <tag k="name" v="Pandanus Street"/>
    <tag k="source" v="survey"/>
    <tag k="source:maxspeed" v="default residential speed limit in Australia"/>
  </way>
  <way id="62334499" version="5" timestamp="2010-08-01T02:31:59Z" uid="4467" user="Rosscoe" changeset="5367241">
    <nd ref="778739860"/>
    <nd ref="778738019"/>
    <tag k="highway" v="residential"/>
    <tag k="maxspeed" v="50"/>
    <tag k="name" v="Pandanus Street"/>
    <tag k="source" v="survey"/>
    <tag k="source:maxspeed" v="default residential speed limit in Australia"/>
  </way>
  <way id="62334500" version="1" timestamp="2010-06-21T00:00:21Z" uid="4467" user="Rosscoe" changeset="5038640">
    <nd ref="778739879"/>
    <nd ref="778739018"/>
    <nd ref="778739559"/>
    <tag k="highway" v="residential"/>
    <tag k="source" v="survey"/>
  </way>
  <way id="62334500" version="2" timestamp="2010-06-21T00:31:07Z" uid="4467" user="Rosscoe" changeset="5038713">
    <nd ref="778739879"/>
    <nd ref="778739018"/>
    <nd ref="778739559"/>
    <tag k="highway" v="residential"/>
    <tag k="name" v="Coatbridge Court"/>
    <tag k="source" v="survey"/>
  </way>
  <way id="62334500" version="3" timestamp="2010-07-08T09:33:43Z" uid="74617" user="JohnSmith" changeset="5164427">
    <nd ref="778739879"/>
    <nd ref="778739018"/>
    <nd ref="778739559"/>
    <tag k="highway" v="residential"/>
    <tag k="maxspeed" v="50"/>
    <tag k="maxspeed:source" v="default residential speed limit in Australia"/>
    <tag k="name" v="Coatbridge Court"/>
    <tag k="source" v="survey"/>
  </way>
  <way id="62334500" version="4" timestamp="2010-08-24T13:45:35Z" uid="4467" user="Rosscoe" changeset="5580056">
    <nd ref="778739879"/>
    <nd ref="778739018"/>
    <nd ref="778739559"/>
    <tag k="highway" v="residential"/>
    <tag k="maxspeed" v="50"/>
    <tag k="name" v="Coatbridge Court"/>
    <tag k="source" v="survey"/>
    <tag k="source:maxspeed" v="default residential speed limit in Australia"/>
  </way>
  <way id="62334501" version="1" timestamp="2010-06-21T00:00:22Z" uid="4467" user="Rosscoe" changeset="5038640">
    <nd ref="778738291"/>
    <nd ref="778739896"/>
    <nd ref="778738073"/>
    <nd ref="778738654"/>
    <nd ref="778739247"/>
    <nd ref="778737721"/>
    <nd ref="778738367"/>
    <nd ref="778738893"/>
    <nd ref="778739447"/>
    <tag k="highway" v="residential"/>
    <tag k="source" v="survey"/>
  </way>
  <way id="62334501" version="2" timestamp="2010-06-21T00:19:15Z" uid="4467" user="Rosscoe" changeset="5038686">
    <nd ref="778738291"/>
    <nd ref="778739896"/>
    <nd ref="778738073"/>
    <nd ref="778738654"/>
    <nd ref="778739247"/>
    <nd ref="778737721"/>
    <nd ref="778738367"/>
    <nd ref="778738893"/>
    <nd ref="778739447"/>
    <tag k="highway" v="residential"/>
    <tag k="name" v="Jarrah Street"/>
    <tag k="source" v="survey"/>
  </way>
  <way id="62334501" version="3" timestamp="2010-07-08T09:32:00Z" uid="74617" user="JohnSmith" changeset="5164427">
    <nd ref="778738291"/>
    <nd ref="778739896"/>
    <nd ref="778738073"/>
    <nd ref="778738654"/>
    <nd ref="778739247"/>
    <nd ref="778737721"/>
    <nd ref="778738367"/>
    <nd ref="778738893"/>
    <nd ref="778739447"/>
    <tag k="highway" v="residential"/>
    <tag k="maxspeed" v="50"/>
    <tag k="maxspeed:source" v="default residential speed limit in Australia"/>
    <tag k="name" v="Jarrah Street"/>
    <tag k="source" v="survey"/>
  </way>
  <way id="62334501" version="4" timestamp="2010-07-31T05:38:40Z" uid="4467" user="Rosscoe" changeset="5360030">
    <nd ref="778738291"/>
    <nd ref="778739896"/>
    <nd ref="778738073"/>
    <nd ref="778738654"/>
    <nd ref="778739247"/>
    <nd ref="839657778"/>
    <nd ref="778737721"/>
    <nd ref="839660184"/>
    <nd ref="778738367"/>
    <nd ref="778738893"/>
    <nd ref="778739447"/>
    <tag k="highway" v="residential"/>
    <tag k="maxspeed" v="50"/>
    <tag k="maxspeed:source" v="default residential speed limit in Australia"/>
    <tag k="name" v="Jarrah Street"/>
    <tag k="source" v="survey"/>
  </way>
  <way id="62334501" version="5" timestamp="2010-08-01T02:42:08Z" uid="4467" user="Rosscoe" changeset="5367241">
    <nd ref="778738291"/>
    <nd ref="778739896"/>
    <nd ref="778738073"/>
    <nd ref="778738654"/>
    <nd ref="778739247"/>
    <nd ref="839657778"/>
    <nd ref="778737721"/>
    <nd ref="839660184"/>
    <nd ref="778738367"/>
    <nd ref="778738893"/>
    <nd ref="778739447"/>
    <tag k="highway" v="residential"/>
    <tag k="maxspeed" v="50"/>
    <tag k="name" v="Jarrah Street"/>
    <tag k="source" v="survey"/>
    <tag k="source:maxspeed" v="default residential speed limit in Australia"/>
  </way>
  <way id="62334502" version="1" timestamp="2010-06-21T00:00:23Z" uid="4467" user="Rosscoe" changeset="5038640">
    <nd ref="778737490"/>
    <nd ref="778737752"/>
    <nd ref="778738112"/>
    <tag k="highway" v="residential"/>
    <tag k="source" v="survey"/>
  </way>
  <way id="62334502" version="2" timestamp="2010-06-21T00:19:43Z" uid="4467" user="Rosscoe" changeset="5038686">
    <nd ref="778737490"/>
    <nd ref="778737752"/>
    <nd ref="778738112"/>
    <tag k="highway" v="residential"/>
    <tag k="name" v="Barnfield Drive"/>
    <tag k="source" v="survey"/>
  </way>
  <way id="62334502" version="3" timestamp="2010-07-08T09:35:45Z" uid="74617" user="JohnSmith" changeset="5164427">
    <nd ref="778737490"/>
    <nd ref="778737752"/>
    <nd ref="778738112"/>
    <tag k="highway" v="residential"/>
    <tag k="maxspeed" v="50"/>
    <tag k="maxspeed:source" v="default residential speed limit in Australia"/>
    <tag k="name" v="Barnfield Drive"/>
    <tag k="source" v="survey"/>
  </way>
  <way id="62334502" version="4" timestamp="2010-08-01T02:22:47Z" uid="4467" user="Rosscoe" changeset="5367241">
    <nd ref="778737490"/>
    <nd ref="778737752"/>
    <nd ref="778738112"/>
    <tag k="highway" v="residential"/>
    <tag k="maxspeed" v="50"/>
    <tag k="name" v="Barnfield Drive"/>
    <tag k="source" v="survey"/>
    <tag k="source:maxspeed" v="default residential speed limit in Australia"/>
  </way>
  <way id="62334502" version="5" timestamp="2010-08-01T02:34:04Z" uid="4467" user="Rosscoe" changeset="5367241">
    <nd ref="778737490"/>
    <nd ref="778737752"/>
    <nd ref="778738112"/>
    <tag k="highway" v="residential"/>
    <tag k="maxspeed" v="50"/>
    <tag k="name" v="Barnfield Drive"/>
    <tag k="source" v="survey"/>
    <tag k="source:maxspeed" v="default residential speed limit in Australia"/>
  </way>
  <way id="62334503" version="1" timestamp="2010-06-21T00:00:24Z" uid="4467" user="Rosscoe" changeset="5038640">
    <nd ref="778739076"/>
    <nd ref="778738688"/>
    <nd ref="778738093"/>
    <tag k="highway" v="residential"/>
    <tag k="source" v="survey"/>
  </way>
  <way id="62334503" version="2" timestamp="2010-06-21T00:31:00Z" uid="4467" user="Rosscoe" changeset="5038713">
    <nd ref="778739076"/>
    <nd ref="778738688"/>
    <nd ref="778738093"/>
    <tag k="highway" v="residential"/>
    <tag k="name" v="Culloden Place"/>
    <tag k="source" v="survey"/>
  </way>
  <way id="62334503" version="3" timestamp="2010-07-08T09:34:43Z" uid="74617" user="JohnSmith" changeset="5164427">
    <nd ref="778739076"/>
    <nd ref="778738688"/>
    <nd ref="778738093"/>
    <tag k="highway" v="residential"/>
    <tag k="maxspeed" v="50"/>
    <tag k="maxspeed:source" v="default residential speed limit in Australia"/>
    <tag k="name" v="Culloden Place"/>
    <tag k="source" v="survey"/>
  </way>
  <way id="62334503" version="4" timestamp="2010-08-01T02:45:10Z" uid="4467" user="Rosscoe" changeset="5367241">
    <nd ref="778739076"/>
    <nd ref="778738688"/>
    <nd ref="778738093"/>
    <tag k="highway" v="residential"/>
    <tag k="maxspeed" v="50"/>
    <tag k="name" v="Culloden Place"/>
    <tag k="source" v="survey"/>
    <tag k="source:maxspeed" v="default residential speed limit in Australia"/>
  </way>
  <way id="62334504" version="1" timestamp="2010-06-21T00:00:24Z" uid="4467" user="Rosscoe" changeset="5038640">
    <nd ref="778739810"/>
    <nd ref="778738959"/>
    <tag k="highway" v="residential"/>
    <tag k="source" v="survey"/>
  </way>
  <way id="62334504" version="2" timestamp="2010-06-21T00:19:54Z" uid="4467" user="Rosscoe" changeset="5038686">
    <nd ref="778739810"/>
    <nd ref="778738959"/>
    <tag k="highway" v="residential"/>
    <tag k="name" v="Lyn Court"/>
    <tag k="source" v="survey"/>
  </way>
  <way id="62334504" version="3" timestamp="2010-07-08T09:36:24Z" uid="74617" user="JohnSmith" changeset="5164427">
    <nd ref="778739810"/>
    <nd ref="778738959"/>
    <tag k="highway" v="residential"/>
    <tag k="maxspeed" v="50"/>
    <tag k="maxspeed:source" v="default residential speed limit in Australia"/>
    <tag k="name" v="Lyn Court"/>
    <tag k="source" v="survey"/>
  </way>
  <way id="62334504" version="4" timestamp="2010-08-01T02:49:41Z" uid="4467" user="Rosscoe" changeset="5367241">
    <nd ref="778739810"/>
    <nd ref="778738959"/>
    <tag k="highway" v="residential"/>
    <tag k="maxspeed" v="50"/>
    <tag k="name" v="Lyn Court"/>
    <tag k="source" v="survey"/>
    <tag k="source:maxspeed" v="default residential speed limit in Australia"/>
  </way>
  <way id="62334505" version="1" timestamp="2010-06-21T00:00:25Z" uid="4467" user="Rosscoe" changeset="5038640">
    <nd ref="778738039"/>
    <nd ref="778739589"/>
    <nd ref="444240044"/>
    <tag k="highway" v="residential"/>
    <tag k="source" v="survey"/>
  </way>
  <way id="62334505" version="2" timestamp="2010-06-21T00:31:09Z" uid="4467" user="Rosscoe" changeset="5038713">
    <nd ref="778738039"/>
    <nd ref="778739589"/>
    <nd ref="444240044"/>
    <tag k="highway" v="residential"/>
    <tag k="name" v="Aberdeen Court"/>
    <tag k="source" v="survey"/>
  </way>
  <way id="62334505" version="3" timestamp="2010-07-08T09:35:06Z" uid="74617" user="JohnSmith" changeset="5164427">
    <nd ref="778738039"/>
    <nd ref="778739589"/>
    <nd ref="444240044"/>
    <tag k="highway" v="residential"/>
    <tag k="maxspeed" v="50"/>
    <tag k="maxspeed:source" v="default residential speed limit in Australia"/>
    <tag k="name" v="Aberdeen Court"/>
    <tag k="source" v="survey"/>
  </way>
  <way id="62334505" version="4" timestamp="2010-08-01T02:40:41Z" uid="4467" user="Rosscoe" changeset="5367241">
    <nd ref="778738039"/>
    <nd ref="778739589"/>
    <nd ref="444240044"/>
    <tag k="highway" v="residential"/>
    <tag k="maxspeed" v="50"/>
    <tag k="name" v="Aberdeen Court"/>
    <tag k="source" v="survey"/>
    <tag k="source:maxspeed" v="default residential speed limit in Australia"/>
  </way>
  <way id="62334506" version="1" timestamp="2010-06-21T00:00:26Z" uid="4467" user="Rosscoe" changeset="5038640">
    <nd ref="778737991"/>
    <nd ref="778737791"/>
    <tag k="highway" v="residential"/>
    <tag k="source" v="survey"/>
  </way>
  <way id="62334506" version="2" timestamp="2010-06-21T00:19:19Z" uid="4467" user="Rosscoe" changeset="5038686">
    <nd ref="778737991"/>
    <nd ref="778737791"/>
    <tag k="highway" v="residential"/>
    <tag k="name" v="Mountview Court"/>
    <tag k="source" v="survey"/>
  </way>
  <way id="62334506" version="3" timestamp="2010-07-08T09:30:02Z" uid="74617" user="JohnSmith" changeset="5164427">
    <nd ref="778737991"/>
    <nd ref="778737791"/>
    <tag k="highway" v="residential"/>
    <tag k="maxspeed" v="50"/>
    <tag k="maxspeed:source" v="default residential speed limit in Australia"/>
    <tag k="name" v="Mountview Court"/>
    <tag k="source" v="survey"/>
  </way>
  <way id="62334506" version="4" timestamp="2010-08-01T02:21:18Z" uid="4467" user="Rosscoe" changeset="5367241">
    <nd ref="778737991"/>
    <nd ref="778737791"/>
    <tag k="highway" v="residential"/>
    <tag k="maxspeed" v="50"/>
    <tag k="name" v="Mountview Court"/>
    <tag k="source" v="survey"/>
    <tag k="source:maxspeed" v="default residential speed limit in Australia"/>
  </way>
  <way id="62334506" version="5" timestamp="2010-08-01T02:32:33Z" uid="4467" user="Rosscoe" changeset="5367241">
    <nd ref="778737991"/>
    <nd ref="778737791"/>
    <tag k="highway" v="residential"/>
    <tag k="maxspeed" v="50"/>
    <tag k="name" v="Mountview Court"/>
    <tag k="source" v="survey"/>
    <tag k="source:maxspeed" v="default residential speed limit in Australia"/>
  </way>
  <way id="62334507" version="1" timestamp="2010-06-21T00:00:28Z" uid="4467" user="Rosscoe" changeset="5038640">
    <nd ref="778738854"/>
    <nd ref="778737850"/>
    <tag k="highway" v="residential"/>
    <tag k="source" v="survey"/>
  </way>
  <way id="62334507" version="2" timestamp="2010-06-21T00:19:45Z" uid="4467" user="Rosscoe" changeset="5038686">
    <nd ref="778738854"/>
    <nd ref="778737850"/>
    <tag k="highway" v="residential"/>
    <tag k="name" v="Russell Street"/>
    <tag k="source" v="survey"/>
  </way>
  <way id="62334507" version="3" timestamp="2010-07-08T09:27:59Z" uid="74617" user="JohnSmith" changeset="5164427">
    <nd ref="778738854"/>
    <nd ref="778737850"/>
    <tag k="highway" v="residential"/>
    <tag k="maxspeed" v="50"/>
    <tag k="maxspeed:source" v="default residential speed limit in Australia"/>
    <tag k="name" v="Russell Street"/>
    <tag k="source" v="survey"/>
  </way>
  <way id="62334507" version="4" timestamp="2010-08-01T02:43:27Z" uid="4467" user="Rosscoe" changeset="5367241">
    <nd ref="778738854"/>
    <nd ref="778737850"/>
    <tag k="highway" v="residential"/>
    <tag k="maxspeed" v="50"/>
    <tag k="name" v="Russell Street"/>
    <tag k="source" v="survey"/>
    <tag k="source:maxspeed" v="default residential speed limit in Australia"/>
  </way>
  <way id="62334508" version="1" timestamp="2010-06-21T00:00:29Z" uid="4467" user="Rosscoe" changeset="5038640">
    <nd ref="778739435"/>
    <nd ref="778738654"/>
    <tag k="highway" v="residential"/>
    <tag k="source" v="survey"/>
  </way>
  <way id="62334508" version="2" timestamp="2010-06-21T00:19:28Z" uid="4467" user="Rosscoe" changeset="5038686">
    <nd ref="778739435"/>
    <nd ref="778738654"/>
    <tag k="highway" v="residential"/>
    <tag k="name" v="Brand Court"/>
    <tag k="source" v="survey"/>
  </way>
  <way id="62334508" version="3" timestamp="2010-07-08T09:31:00Z" uid="74617" user="JohnSmith" changeset="5164427">
    <nd ref="778739435"/>
    <nd ref="778738654"/>
    <tag k="highway" v="residential"/>
    <tag k="maxspeed" v="50"/>
    <tag k="maxspeed:source" v="default residential speed limit in Australia"/>
    <tag k="name" v="Brand Court"/>
    <tag k="source" v="survey"/>
  </way>
  <way id="62334508" version="4" timestamp="2010-08-01T02:42:49Z" uid="4467" user="Rosscoe" changeset="5367241">
    <nd ref="778739435"/>
    <nd ref="778738654"/>
    <tag k="highway" v="residential"/>
    <tag k="maxspeed" v="50"/>
    <tag k="name" v="Brand Court"/>
    <tag k="source" v="survey"/>
    <tag k="source:maxspeed" v="default residential speed limit in Australia"/>
  </way>
  <way id="62334509" version="1" timestamp="2010-06-21T00:00:30Z" uid="4467" user="Rosscoe" changeset="5038640">
    <nd ref="778739146"/>
    <nd ref="778738132"/>
    <tag k="highway" v="residential"/>
    <tag k="source" v="survey"/>
  </way>
  <way id="62334509" version="2" timestamp="2010-06-21T00:19:57Z" uid="4467" user="Rosscoe" changeset="5038686">
    <nd ref="778739146"/>
    <nd ref="778738132"/>
    <tag k="highway" v="residential"/>
    <tag k="name" v="Greta Court"/>
    <tag k="source" v="survey"/>
  </way>
  <way id="62334509" version="3" timestamp="2010-07-08T09:29:07Z" uid="74617" user="JohnSmith" changeset="5164427">
    <nd ref="778739146"/>
    <nd ref="778738132"/>
    <tag k="highway" v="residential"/>
    <tag k="maxspeed" v="50"/>
    <tag k="maxspeed:source" v="default residential speed limit in Australia"/>
    <tag k="name" v="Greta Court"/>
    <tag k="source" v="survey"/>
  </way>
  <way id="62334509" version="4" timestamp="2010-08-01T02:23:32Z" uid="4467" user="Rosscoe" changeset="5367241">
    <nd ref="778739146"/>
    <nd ref="778738132"/>
    <tag k="highway" v="residential"/>
    <tag k="maxspeed" v="50"/>
    <tag k="name" v="Greta Court"/>
    <tag k="source" v="survey"/>
    <tag k="source:maxspeed" v="default residential speed limit in Australia"/>
  </way>
  <way id="62334509" version="5" timestamp="2010-08-01T02:34:48Z" uid="4467" user="Rosscoe" changeset="5367241">
    <nd ref="778739146"/>
    <nd ref="778738132"/>
    <tag k="highway" v="residential"/>
    <tag k="maxspeed" v="50"/>
    <tag k="name" v="Greta Court"/>
    <tag k="source" v="survey"/>
    <tag k="source:maxspeed" v="default residential speed limit in Australia"/>
  </way>
  <way id="62334510" version="1" timestamp="2010-06-21T00:00:31Z" uid="4467" user="Rosscoe" changeset="5038640">
    <nd ref="778737705"/>
    <nd ref="778739324"/>
    <nd ref="778739733"/>
    <tag k="highway" v="residential"/>
    <tag k="source" v="survey"/>
  </way>
  <way id="62334510" version="2" timestamp="2010-06-21T00:19:40Z" uid="4467" user="Rosscoe" changeset="5038686">
    <nd ref="778737705"/>
    <nd ref="778739324"/>
    <nd ref="778739733"/>
    <tag k="highway" v="residential"/>
    <tag k="name" v="Parkview Court"/>
    <tag k="source" v="survey"/>
  </way>
  <way id="62334510" version="3" timestamp="2010-07-08T09:34:23Z" uid="74617" user="JohnSmith" changeset="5164427">
    <nd ref="778737705"/>
    <nd ref="778739324"/>
    <nd ref="778739733"/>
    <tag k="highway" v="residential"/>
    <tag k="maxspeed" v="50"/>
    <tag k="maxspeed:source" v="default residential speed limit in Australia"/>
    <tag k="name" v="Parkview Court"/>
    <tag k="source" v="survey"/>
  </way>
  <way id="62334510" version="4" timestamp="2010-07-31T05:38:27Z" uid="4467" user="Rosscoe" changeset="5360030">
    <nd ref="778737705"/>
    <nd ref="778739324"/>
    <nd ref="839658640"/>
    <nd ref="839659795"/>
    <tag k="highway" v="residential"/>
    <tag k="maxspeed" v="50"/>
    <tag k="maxspeed:source" v="default residential speed limit in Australia"/>
    <tag k="name" v="Parkview Court"/>
    <tag k="source" v="survey"/>
  </way>
  <way id="62334510" version="5" timestamp="2010-08-01T02:46:08Z" uid="4467" user="Rosscoe" changeset="5367241">
    <nd ref="778737705"/>
    <nd ref="778739324"/>
    <nd ref="839658640"/>
    <nd ref="839659795"/>
    <tag k="highway" v="residential"/>
    <tag k="maxspeed" v="50"/>
    <tag k="name" v="Parkview Court"/>
    <tag k="source" v="survey"/>
    <tag k="source:maxspeed" v="default residential speed limit in Australia"/>
  </way>
  <way id="62334511" version="1" timestamp="2010-06-21T00:00:32Z" uid="4467" user="Rosscoe" changeset="5038640">
    <nd ref="778738485"/>
    <nd ref="778739936"/>
    <tag k="highway" v="residential"/>
    <tag k="source" v="survey"/>
  </way>
  <way id="62334511" version="2" timestamp="2010-06-21T00:30:58Z" uid="4467" user="Rosscoe" changeset="5038713">
    <nd ref="778738485"/>
    <nd ref="778739936"/>
    <tag k="highway" v="residential"/>
    <tag k="name" v="Skye Place"/>
    <tag k="source" v="survey"/>
  </way>
  <way id="62334511" version="3" timestamp="2010-07-08T09:33:05Z" uid="74617" user="JohnSmith" changeset="5164427">
    <nd ref="778738485"/>
    <nd ref="778739936"/>
    <tag k="highway" v="residential"/>
    <tag k="maxspeed" v="50"/>
    <tag k="maxspeed:source" v="default residential speed limit in Australia"/>
    <tag k="name" v="Skye Place"/>
    <tag k="source" v="survey"/>
  </way>
  <way id="62334511" version="4" timestamp="2010-08-24T13:46:14Z" uid="4467" user="Rosscoe" changeset="5580056">
    <nd ref="778738485"/>
    <nd ref="778739936"/>
    <tag k="highway" v="residential"/>
    <tag k="maxspeed" v="50"/>
    <tag k="name" v="Skye Place"/>
    <tag k="source" v="survey"/>
    <tag k="source:maxspeed" v="default residential speed limit in Australia"/>
  </way>
  <way id="62334512" version="1" timestamp="2010-06-21T00:00:36Z" uid="4467" user="Rosscoe" changeset="5038640">
    <nd ref="778738634"/>
    <nd ref="778737633"/>
    <nd ref="778738256"/>
    <nd ref="778737958"/>
    <tag k="highway" v="residential"/>
    <tag k="source" v="survey"/>
  </way>
  <way id="62334512" version="2" timestamp="2010-06-21T00:31:19Z" uid="4467" user="Rosscoe" changeset="5038713">
    <nd ref="778738634"/>
    <nd ref="778737633"/>
    <nd ref="778738256"/>
    <nd ref="778737958"/>
    <tag k="highway" v="residential"/>
    <tag k="name" v="Edinburgh Place"/>
    <tag k="source" v="survey"/>
  </way>
  <way id="62334512" version="3" timestamp="2010-07-08T09:34:17Z" uid="74617" user="JohnSmith" changeset="5164427">
    <nd ref="778738634"/>
    <nd ref="778737633"/>
    <nd ref="778738256"/>
    <nd ref="778737958"/>
    <tag k="highway" v="residential"/>
    <tag k="maxspeed" v="50"/>
    <tag k="maxspeed:source" v="default residential speed limit in Australia"/>
    <tag k="name" v="Edinburgh Place"/>
    <tag k="source" v="survey"/>
  </way>
  <way id="62334512" version="4" timestamp="2010-08-24T13:45:53Z" uid="4467" user="Rosscoe" changeset="5580056">
    <nd ref="778738634"/>
    <nd ref="778737633"/>
    <nd ref="778738256"/>
    <nd ref="778737958"/>
    <tag k="highway" v="residential"/>
    <tag k="maxspeed" v="50"/>
    <tag k="name" v="Edinburgh Place"/>
    <tag k="source" v="survey"/>
    <tag k="source:maxspeed" v="default residential speed limit in Australia"/>
  </way>
  <way id="62334513" version="1" timestamp="2010-06-21T00:00:37Z" uid="4467" user="Rosscoe" changeset="5038640">
    <nd ref="778739247"/>
    <nd ref="778737932"/>
    <nd ref="778738523"/>
    <nd ref="778739184"/>
    <nd ref="778739880"/>
    <nd ref="778738019"/>
    <nd ref="778738728"/>
    <nd ref="778739701"/>
    <nd ref="778737791"/>
    <nd ref="778738434"/>
    <nd ref="778738979"/>
    <nd ref="778738060"/>
    <nd ref="778738595"/>
    <nd ref="778739228"/>
    <tag k="highway" v="residential"/>
    <tag k="source" v="survey"/>
  </way>
  <way id="62334513" version="2" timestamp="2010-06-21T00:19:32Z" uid="4467" user="Rosscoe" changeset="5038686">
    <nd ref="778739247"/>
    <nd ref="778737932"/>
    <nd ref="778738523"/>
    <nd ref="778739184"/>
    <nd ref="778739880"/>
    <nd ref="778738019"/>
    <nd ref="778738728"/>
    <nd ref="778739701"/>
    <nd ref="778737791"/>
    <nd ref="778738434"/>
    <nd ref="778738979"/>
    <nd ref="778738060"/>
    <nd ref="778738595"/>
    <nd ref="778739228"/>
    <tag k="highway" v="residential"/>
    <tag k="name" v="Shiral Drive"/>
    <tag k="source" v="survey"/>
  </way>
  <way id="62334513" version="3" timestamp="2010-07-08T09:32:56Z" uid="74617" user="JohnSmith" changeset="5164427">
    <nd ref="778739247"/>
    <nd ref="778737932"/>
    <nd ref="778738523"/>
    <nd ref="778739184"/>
    <nd ref="778739880"/>
    <nd ref="778738019"/>
    <nd ref="778738728"/>
    <nd ref="778739701"/>
    <nd ref="778737791"/>
    <nd ref="778738434"/>
    <nd ref="778738979"/>
    <nd ref="778738060"/>
    <nd ref="778738595"/>
    <nd ref="778739228"/>
    <tag k="highway" v="residential"/>
    <tag k="maxspeed" v="50"/>
    <tag k="maxspeed:source" v="default residential speed limit in Australia"/>
    <tag k="name" v="Shiral Drive"/>
    <tag k="source" v="survey"/>
  </way>
  <way id="62334513" version="4" timestamp="2010-08-01T02:43:39Z" uid="4467" user="Rosscoe" changeset="5367241">
    <nd ref="778739247"/>
    <nd ref="778737932"/>
    <nd ref="778738523"/>
    <nd ref="778739184"/>
    <nd ref="778739880"/>
    <nd ref="778738019"/>
    <nd ref="778738728"/>
    <nd ref="778739701"/>
    <nd ref="778737791"/>
    <nd ref="778738434"/>
    <nd ref="778738979"/>
    <nd ref="778738060"/>
    <nd ref="778738595"/>
    <nd ref="778739228"/>
    <tag k="highway" v="residential"/>
    <tag k="maxspeed" v="50"/>
    <tag k="name" v="Shiral Drive"/>
    <tag k="source" v="survey"/>
    <tag k="source:maxspeed" v="default residential speed limit in Australia"/>
  </way>
  <way id="62334528" version="1" timestamp="2010-06-21T00:05:53Z" uid="244897" user="M526244" changeset="5038656">
    <nd ref="778746354"/>
    <nd ref="778746356"/>
    <tag k="bridge" v="yes"/>
    <tag k="highway" v="tertiary"/>
    <tag k="layer" v="1"/>
    <tag k="name" v="River Street"/>
  </way>
  <way id="62334529" version="1" timestamp="2010-06-21T00:05:53Z" uid="244897" user="M526244" changeset="5038656">
    <nd ref="778746356"/>
    <nd ref="267620880"/>
    <nd ref="271280461"/>
    <nd ref="267620881"/>
    <nd ref="271280468"/>
    <nd ref="271280477"/>
    <nd ref="267620882"/>
    <nd ref="271280494"/>
    <nd ref="267620883"/>
    <nd ref="267620884"/>
    <nd ref="268941763"/>
    <nd ref="267620885"/>
    <tag k="highway" v="tertiary"/>
    <tag k="name" v="River Street"/>
  </way>
  <way id="62334625" version="1" timestamp="2010-06-21T00:19:05Z" uid="4467" user="Rosscoe" changeset="5038686">
    <nd ref="778757363"/>
    <nd ref="778757493"/>
    <tag k="highway" v="service"/>
    <tag k="service" v="driveway"/>
    <tag k="source" v="survey"/>
  </way>
  <way id="62334625" version="2" timestamp="2010-08-25T06:45:20Z" uid="4467" user="Rosscoe" changeset="5586487">
    <nd ref="778757363"/>
    <nd ref="878357584"/>
    <nd ref="878356714"/>
    <nd ref="778757493"/>
    <nd ref="878357111"/>
    <nd ref="878356900"/>
    <nd ref="878356157"/>
    <nd ref="878357274"/>
    <nd ref="878356662"/>
    <nd ref="878357654"/>
    <nd ref="878356998"/>
    <nd ref="878356280"/>
    <nd ref="878356773"/>
    <nd ref="878357357"/>
    <nd ref="878356690"/>
    <nd ref="878356942"/>
    <nd ref="878357056"/>
    <tag k="highway" v="service"/>
    <tag k="service" v="driveway"/>
    <tag k="source" v="survey"/>
  </way>
  <way id="62334628" version="1" timestamp="2010-06-21T00:19:06Z" uid="4467" user="Rosscoe" changeset="5038686">
    <nd ref="778737867"/>
    <nd ref="778739415"/>
    <tag k="highway" v="residential"/>
    <tag k="name" v="Galvin Street"/>
    <tag k="source" v="survey"/>
  </way>
  <way id="62334628" version="2" timestamp="2010-07-08T09:36:26Z" uid="74617" user="JohnSmith" changeset="5164427">
    <nd ref="778737867"/>
    <nd ref="778739415"/>
    <tag k="highway" v="residential"/>
    <tag k="maxspeed" v="50"/>
    <tag k="maxspeed:source" v="default residential speed limit in Australia"/>
    <tag k="name" v="Galvin Street"/>
    <tag k="source" v="survey"/>
  </way>
  <way id="62334628" version="3" timestamp="2010-08-01T02:46:56Z" uid="4467" user="Rosscoe" changeset="5367241">
    <nd ref="778737867"/>
    <nd ref="778739415"/>
    <tag k="highway" v="residential"/>
    <tag k="maxspeed" v="50"/>
    <tag k="name" v="Galvin Street"/>
    <tag k="source" v="survey"/>
    <tag k="source:maxspeed" v="default residential speed limit in Australia"/>
  </way>
  <way id="62334629" version="1" timestamp="2010-06-21T00:19:07Z" uid="4467" user="Rosscoe" changeset="5038686">
    <nd ref="778757524"/>
    <nd ref="778757350"/>
    <tag k="highway" v="residential"/>
    <tag k="name" v="Gardenia Court"/>
    <tag k="source" v="survey"/>
  </way>
  <way id="62334629" version="2" timestamp="2010-07-08T09:35:08Z" uid="74617" user="JohnSmith" changeset="5164427">
    <nd ref="778757524"/>
    <nd ref="778757350"/>
    <tag k="highway" v="residential"/>
    <tag k="maxspeed" v="50"/>
    <tag k="maxspeed:source" v="default residential speed limit in Australia"/>
    <tag k="name" v="Gardenia Court"/>
    <tag k="source" v="survey"/>
  </way>
  <way id="62334629" version="3" timestamp="2010-07-31T05:38:55Z" uid="4467" user="Rosscoe" changeset="5360030">
    <nd ref="778757524"/>
    <nd ref="839657668"/>
    <nd ref="778757350"/>
    <tag k="highway" v="residential"/>
    <tag k="maxspeed" v="50"/>
    <tag k="maxspeed:source" v="default residential speed limit in Australia"/>
    <tag k="name" v="Gardenia Court"/>
    <tag k="source" v="survey"/>
  </way>
  <way id="62334629" version="4" timestamp="2010-08-01T02:38:25Z" uid="4467" user="Rosscoe" changeset="5367241">
    <nd ref="778757524"/>
    <nd ref="839657668"/>
    <nd ref="778757350"/>
    <tag k="highway" v="residential"/>
    <tag k="maxspeed" v="50"/>
    <tag k="name" v="Gardenia Court"/>
    <tag k="source" v="survey"/>
    <tag k="source:maxspeed" v="default residential speed limit in Australia"/>
  </way>
  <way id="62334631" version="2" timestamp="2010-06-29T19:04:03Z" uid="74617" user="JohnSmith" changeset="5108182">
    <nd ref="778757638"/>
    <nd ref="778757640"/>
    <nd ref="778757642"/>
    <nd ref="778757644"/>
    <nd ref="778757638"/>
    <tag k="fixme" v="sport=football is ambiguous, see http://wiki.osm.org/wiki/Football for more details"/>
    <tag k="leisure" v="pitch"/>
    <tag k="sport" v="football"/>
  </way>
  <way id="62334632" version="1" timestamp="2010-06-21T00:19:08Z" uid="4467" user="Rosscoe" changeset="5038686">
    <nd ref="778757564"/>
    <nd ref="778757577"/>
    <nd ref="778757479"/>
    <tag k="highway" v="residential"/>
    <tag k="name" v="Ramsay Court"/>
    <tag k="source" v="survey"/>
  </way>
  <way id="62334632" version="2" timestamp="2010-07-08T09:31:04Z" uid="74617" user="JohnSmith" changeset="5164427">
    <nd ref="778757564"/>
    <nd ref="778757577"/>
    <nd ref="778757479"/>
    <tag k="highway" v="residential"/>
    <tag k="maxspeed" v="50"/>
    <tag k="maxspeed:source" v="default residential speed limit in Australia"/>
    <tag k="name" v="Ramsay Court"/>
    <tag k="source" v="survey"/>
  </way>
  <way id="62334632" version="3" timestamp="2010-07-31T05:39:14Z" uid="4467" user="Rosscoe" changeset="5360030">
    <nd ref="778757564"/>
    <nd ref="839660480"/>
    <nd ref="778757577"/>
    <nd ref="778757479"/>
    <tag k="highway" v="residential"/>
    <tag k="maxspeed" v="50"/>
    <tag k="maxspeed:source" v="default residential speed limit in Australia"/>
    <tag k="name" v="Ramsay Court"/>
    <tag k="source" v="survey"/>
  </way>
  <way id="62334632" version="4" timestamp="2010-08-01T02:45:01Z" uid="4467" user="Rosscoe" changeset="5367241">
    <nd ref="778757564"/>
    <nd ref="839660480"/>
    <nd ref="778757577"/>
    <nd ref="778757479"/>
    <tag k="highway" v="residential"/>
    <tag k="maxspeed" v="50"/>
    <tag k="name" v="Ramsay Court"/>
    <tag k="source" v="survey"/>
    <tag k="source:maxspeed" v="default residential speed limit in Australia"/>
  </way>
  <way id="62334633" version="1" timestamp="2010-06-21T00:19:09Z" uid="4467" user="Rosscoe" changeset="5038686">
    <nd ref="778757463"/>
    <nd ref="778757295"/>
    <tag k="highway" v="residential"/>
    <tag k="name" v="Dallas Court"/>
    <tag k="source" v="survey"/>
  </way>
  <way id="62334633" version="2" timestamp="2010-07-08T09:29:11Z" uid="74617" user="JohnSmith" changeset="5164427">
    <nd ref="778757463"/>
    <nd ref="778757295"/>
    <tag k="highway" v="residential"/>
    <tag k="maxspeed" v="50"/>
    <tag k="maxspeed:source" v="default residential speed limit in Australia"/>
    <tag k="name" v="Dallas Court"/>
    <tag k="source" v="survey"/>
  </way>
  <way id="62334633" version="3" timestamp="2010-08-01T02:25:29Z" uid="4467" user="Rosscoe" changeset="5367241">
    <nd ref="778757463"/>
    <nd ref="778757295"/>
    <tag k="highway" v="residential"/>
    <tag k="maxspeed" v="50"/>
    <tag k="name" v="Dallas Court"/>
    <tag k="source" v="survey"/>
    <tag k="source:maxspeed" v="default residential speed limit in Australia"/>
  </way>
  <way id="62334633" version="4" timestamp="2010-08-01T02:36:51Z" uid="4467" user="Rosscoe" changeset="5367241">
    <nd ref="778757463"/>
    <nd ref="778757295"/>
    <tag k="highway" v="residential"/>
    <tag k="maxspeed" v="50"/>
    <tag k="name" v="Dallas Court"/>
    <tag k="source" v="survey"/>
    <tag k="source:maxspeed" v="default residential speed limit in Australia"/>
  </way>
  <way id="62334635" version="1" timestamp="2010-06-21T00:19:10Z" uid="4467" user="Rosscoe" changeset="5038686">
    <nd ref="444201433"/>
    <nd ref="778757538"/>
    <nd ref="778739447"/>
    <nd ref="778757375"/>
    <nd ref="778757310"/>
    <nd ref="444196960"/>
    <tag k="highway" v="residential"/>
    <tag k="name" v="Nicklin Drive"/>
    <tag k="source" v="survey"/>
    <tag k="surface" v="paved"/>
  </way>
  <way id="62334635" version="2" timestamp="2010-07-08T09:33:11Z" uid="74617" user="JohnSmith" changeset="5164427">
    <nd ref="444201433"/>
    <nd ref="778757538"/>
    <nd ref="778739447"/>
    <nd ref="778757375"/>
    <nd ref="778757310"/>
    <nd ref="444196960"/>
    <tag k="highway" v="residential"/>
    <tag k="maxspeed" v="50"/>
    <tag k="maxspeed:source" v="default residential speed limit in Australia"/>
    <tag k="name" v="Nicklin Drive"/>
    <tag k="source" v="survey"/>
    <tag k="surface" v="paved"/>
  </way>
  <way id="62334635" version="3" timestamp="2010-07-31T05:39:09Z" uid="4467" user="Rosscoe" changeset="5360030">
    <nd ref="839658597"/>
    <nd ref="778757538"/>
    <nd ref="839659078"/>
    <nd ref="839660141"/>
    <nd ref="778739447"/>
    <nd ref="778757375"/>
    <nd ref="839658861"/>
    <nd ref="778757310"/>
    <nd ref="444196960"/>
    <tag k="highway" v="residential"/>
    <tag k="maxspeed" v="50"/>
    <tag k="maxspeed:source" v="default residential speed limit in Australia"/>
    <tag k="name" v="Nicklin Drive"/>
    <tag k="source" v="survey"/>
    <tag k="surface" v="paved"/>
  </way>
  <way id="62334635" version="4" timestamp="2010-08-01T02:39:47Z" uid="4467" user="Rosscoe" changeset="5367241">
    <nd ref="839658597"/>
    <nd ref="778757538"/>
    <nd ref="839659078"/>
    <nd ref="839660141"/>
    <nd ref="778739447"/>
    <nd ref="778757375"/>
    <nd ref="839658861"/>
    <nd ref="778757310"/>
    <nd ref="444196960"/>
    <tag k="highway" v="residential"/>
    <tag k="maxspeed" v="50"/>
    <tag k="name" v="Nicklin Drive"/>
    <tag k="source" v="survey"/>
    <tag k="source:maxspeed" v="default residential speed limit in Australia"/>
    <tag k="surface" v="paved"/>
  </way>
  <way id="62334636" version="1" timestamp="2010-06-21T00:19:12Z" uid="4467" user="Rosscoe" changeset="5038686">
    <nd ref="444196963"/>
    <nd ref="778757295"/>
    <nd ref="778757350"/>
    <nd ref="778757479"/>
    <nd ref="778757538"/>
    <tag k="highway" v="residential"/>
    <tag k="name" v="Telina Drive"/>
    <tag k="source" v="survey"/>
  </way>
  <way id="62334636" version="2" timestamp="2010-07-08T09:34:47Z" uid="74617" user="JohnSmith" changeset="5164427">
    <nd ref="444196963"/>
    <nd ref="778757295"/>
    <nd ref="778757350"/>
    <nd ref="778757479"/>
    <nd ref="778757538"/>
    <tag k="highway" v="residential"/>
    <tag k="maxspeed" v="50"/>
    <tag k="maxspeed:source" v="default residential speed limit in Australia"/>
    <tag k="name" v="Telina Drive"/>
    <tag k="source" v="survey"/>
  </way>
  <way id="62334636" version="3" timestamp="2010-07-31T05:39:02Z" uid="4467" user="Rosscoe" changeset="5360030">
    <nd ref="444196963"/>
    <nd ref="778757295"/>
    <nd ref="839659646"/>
    <nd ref="778757350"/>
    <nd ref="839658828"/>
    <nd ref="778757479"/>
    <nd ref="778757538"/>
    <tag k="highway" v="residential"/>
    <tag k="maxspeed" v="50"/>
    <tag k="maxspeed:source" v="default residential speed limit in Australia"/>
    <tag k="name" v="Telina Drive"/>
    <tag k="source" v="survey"/>
  </way>
  <way id="62334636" version="4" timestamp="2010-08-01T02:39:08Z" uid="4467" user="Rosscoe" changeset="5367241">
    <nd ref="444196963"/>
    <nd ref="778757295"/>
    <nd ref="839659646"/>
    <nd ref="778757350"/>
    <nd ref="839658828"/>
    <nd ref="778757479"/>
    <nd ref="778757538"/>
    <tag k="highway" v="residential"/>
    <tag k="maxspeed" v="50"/>
    <tag k="name" v="Telina Drive"/>
    <tag k="source" v="survey"/>
    <tag k="source:maxspeed" v="default residential speed limit in Australia"/>
  </way>
  <way id="62334637" version="1" timestamp="2010-06-21T00:19:13Z" uid="4467" user="Rosscoe" changeset="5038686">
    <nd ref="778757335"/>
    <nd ref="444196965"/>
    <tag k="highway" v="residential"/>
    <tag k="name" v="Gray Court"/>
    <tag k="source" v="survey"/>
  </way>
  <way id="62334637" version="2" timestamp="2010-07-08T09:33:53Z" uid="74617" user="JohnSmith" changeset="5164427">
    <nd ref="778757335"/>
    <nd ref="444196965"/>
    <tag k="highway" v="residential"/>
    <tag k="maxspeed" v="50"/>
    <tag k="maxspeed:source" v="default residential speed limit in Australia"/>
    <tag k="name" v="Gray Court"/>
    <tag k="source" v="survey"/>
  </way>
  <way id="62334637" version="3" timestamp="2010-08-01T02:19:40Z" uid="4467" user="Rosscoe" changeset="5367241">
    <nd ref="778757335"/>
    <nd ref="444196965"/>
    <tag k="highway" v="residential"/>
    <tag k="maxspeed" v="50"/>
    <tag k="name" v="Gray Court"/>
    <tag k="source" v="survey"/>
    <tag k="source:maxspeed" v="default residential speed limit in Australia"/>
  </way>
  <way id="62334637" version="4" timestamp="2010-08-01T02:31:06Z" uid="4467" user="Rosscoe" changeset="5367241">
    <nd ref="778757335"/>
    <nd ref="444196965"/>
    <tag k="highway" v="residential"/>
    <tag k="maxspeed" v="50"/>
    <tag k="name" v="Gray Court"/>
    <tag k="source" v="survey"/>
    <tag k="source:maxspeed" v="default residential speed limit in Australia"/>
  </way>
  <way id="62334639" version="1" timestamp="2010-06-21T00:19:14Z" uid="4467" user="Rosscoe" changeset="5038686">
    <nd ref="778757412"/>
    <nd ref="778757283"/>
    <nd ref="778757311"/>
    <tag k="highway" v="residential"/>
    <tag k="name" v="Fraser Court"/>
    <tag k="source" v="survey"/>
  </way>
  <way id="62334639" version="2" timestamp="2010-07-08T09:35:53Z" uid="74617" user="JohnSmith" changeset="5164427">
    <nd ref="778757412"/>
    <nd ref="778757283"/>
    <nd ref="778757311"/>
    <tag k="highway" v="residential"/>
    <tag k="maxspeed" v="50"/>
    <tag k="maxspeed:source" v="default residential speed limit in Australia"/>
    <tag k="name" v="Fraser Court"/>
    <tag k="source" v="survey"/>
  </way>
  <way id="62334639" version="3" timestamp="2010-08-01T02:22:36Z" uid="4467" user="Rosscoe" changeset="5367241">
    <nd ref="778757412"/>
    <nd ref="778757283"/>
    <nd ref="778757311"/>
    <tag k="highway" v="residential"/>
    <tag k="maxspeed" v="50"/>
    <tag k="name" v="Fraser Court"/>
    <tag k="source" v="survey"/>
    <tag k="source:maxspeed" v="default residential speed limit in Australia"/>
  </way>
  <way id="62334639" version="4" timestamp="2010-08-01T02:33:52Z" uid="4467" user="Rosscoe" changeset="5367241">
    <nd ref="778757412"/>
    <nd ref="778757283"/>
    <nd ref="778757311"/>
    <tag k="highway" v="residential"/>
    <tag k="maxspeed" v="50"/>
    <tag k="name" v="Fraser Court"/>
    <tag k="source" v="survey"/>
    <tag k="source:maxspeed" v="default residential speed limit in Australia"/>
  </way>
  <way id="62334756" version="1" timestamp="2010-06-21T00:30:52Z" uid="4467" user="Rosscoe" changeset="5038713">
    <nd ref="778739112"/>
    <nd ref="778737588"/>
    <tag k="highway" v="residential"/>
    <tag k="name" v="Lochmaben Court"/>
    <tag k="source" v="survey"/>
  </way>
  <way id="62334756" version="2" timestamp="2010-07-08T09:31:10Z" uid="74617" user="JohnSmith" changeset="5164427">
    <nd ref="778739112"/>
    <nd ref="778737588"/>
    <tag k="highway" v="residential"/>
    <tag k="maxspeed" v="50"/>
    <tag k="maxspeed:source" v="default residential speed limit in Australia"/>
    <tag k="name" v="Lochmaben Court"/>
    <tag k="source" v="survey"/>
  </way>
  <way id="62334756" version="3" timestamp="2010-08-01T02:42:42Z" uid="4467" user="Rosscoe" changeset="5367241">
    <nd ref="778739112"/>
    <nd ref="778737588"/>
    <tag k="highway" v="residential"/>
    <tag k="maxspeed" v="50"/>
    <tag k="name" v="Lochmaben Court"/>
    <tag k="source" v="survey"/>
    <tag k="source:maxspeed" v="default residential speed limit in Australia"/>
  </way>
  <way id="62334757" version="1" timestamp="2010-06-21T00:30:53Z" uid="4467" user="Rosscoe" changeset="5038713">
    <nd ref="778738206"/>
    <nd ref="778737556"/>
    <tag k="highway" v="residential"/>
    <tag k="name" v="Jason Street"/>
    <tag k="source" v="survey"/>
  </way>
  <way id="62334757" version="2" timestamp="2010-07-08T09:29:21Z" uid="74617" user="JohnSmith" changeset="5164427">
    <nd ref="778738206"/>
    <nd ref="778737556"/>
    <tag k="highway" v="residential"/>
    <tag k="maxspeed" v="50"/>
    <tag k="maxspeed:source" v="default residential speed limit in Australia"/>
    <tag k="name" v="Jason Street"/>
    <tag k="source" v="survey"/>
  </way>
  <way id="62334757" version="3" timestamp="2010-08-01T02:23:22Z" uid="4467" user="Rosscoe" changeset="5367241">
    <nd ref="778738206"/>
    <nd ref="778737556"/>
    <tag k="highway" v="residential"/>
    <tag k="maxspeed" v="50"/>
    <tag k="name" v="Jason Street"/>
    <tag k="source" v="survey"/>
    <tag k="source:maxspeed" v="default residential speed limit in Australia"/>
  </way>
  <way id="62334757" version="4" timestamp="2010-08-01T02:34:38Z" uid="4467" user="Rosscoe" changeset="5367241">
    <nd ref="778738206"/>
    <nd ref="778737556"/>
    <tag k="highway" v="residential"/>
    <tag k="maxspeed" v="50"/>
    <tag k="name" v="Jason Street"/>
    <tag k="source" v="survey"/>
    <tag k="source:maxspeed" v="default residential speed limit in Australia"/>
  </way>
  <way id="62334758" version="1" timestamp="2010-06-21T00:30:54Z" uid="4467" user="Rosscoe" changeset="5038713">
    <nd ref="778766019"/>
    <nd ref="778737588"/>
    <nd ref="778738238"/>
    <nd ref="444240045"/>
    <tag k="highway" v="residential"/>
    <tag k="name" v="Sam Bezzina Drive"/>
    <tag k="source" v="survey"/>
  </way>
  <way id="62334758" version="2" timestamp="2010-07-08T09:34:28Z" uid="74617" user="JohnSmith" changeset="5164427">
    <nd ref="778766019"/>
    <nd ref="778737588"/>
    <nd ref="778738238"/>
    <nd ref="444240045"/>
    <tag k="highway" v="residential"/>
    <tag k="maxspeed" v="50"/>
    <tag k="maxspeed:source" v="default residential speed limit in Australia"/>
    <tag k="name" v="Sam Bezzina Drive"/>
    <tag k="source" v="survey"/>
  </way>
  <way id="62334758" version="3" timestamp="2010-08-01T02:46:03Z" uid="4467" user="Rosscoe" changeset="5367241">
    <nd ref="778766019"/>
    <nd ref="778737588"/>
    <nd ref="778738238"/>
    <nd ref="444240045"/>
    <tag k="highway" v="residential"/>
    <tag k="maxspeed" v="50"/>
    <tag k="name" v="Sam Bezzina Drive"/>
    <tag k="source" v="survey"/>
    <tag k="source:maxspeed" v="default residential speed limit in Australia"/>
  </way>
  <way id="62334782" version="1" timestamp="2010-06-21T00:35:16Z" uid="4467" user="Rosscoe" changeset="5038729">
    <nd ref="778717155"/>
    <nd ref="778717361"/>
    <nd ref="778717351"/>
    <nd ref="778769095"/>
    <nd ref="778717383"/>
    <nd ref="778711034"/>
    <tag k="highway" v="residential"/>
    <tag k="name" v="Salmon Court"/>
    <tag k="source" v="survey"/>
  </way>
  <way id="62334782" version="2" timestamp="2010-07-08T09:35:51Z" uid="74617" user="JohnSmith" changeset="5164427">
    <nd ref="778717155"/>
    <nd ref="778717361"/>
    <nd ref="778717351"/>
    <nd ref="778769095"/>
    <nd ref="778717383"/>
    <nd ref="778711034"/>
    <tag k="highway" v="residential"/>
    <tag k="maxspeed" v="50"/>
    <tag k="maxspeed:source" v="default residential speed limit in Australia"/>
    <tag k="name" v="Salmon Court"/>
    <tag k="source" v="survey"/>
  </way>
  <way id="62334782" version="3" timestamp="2010-08-24T13:46:43Z" uid="4467" user="Rosscoe" changeset="5580056">
    <nd ref="778717155"/>
    <nd ref="778717361"/>
    <nd ref="778717351"/>
    <nd ref="778769095"/>
    <nd ref="778717383"/>
    <nd ref="778711034"/>
    <tag k="highway" v="residential"/>
    <tag k="maxspeed" v="50"/>
    <tag k="name" v="Salmon Court"/>
    <tag k="source" v="survey"/>
    <tag k="source:maxspeed" v="default residential speed limit in Australia"/>
  </way>
  <way id="62334783" version="1" timestamp="2010-06-21T00:35:18Z" uid="4467" user="Rosscoe" changeset="5038729">
    <nd ref="778717392"/>
    <nd ref="778717355"/>
    <nd ref="778717387"/>
    <nd ref="778717353"/>
    <nd ref="778717376"/>
    <tag k="highway" v="residential"/>
    <tag k="name" v="Cod Place"/>
    <tag k="source" v="survey"/>
  </way>
  <way id="62334783" version="2" timestamp="2010-07-08T09:34:47Z" uid="74617" user="JohnSmith" changeset="5164427">
    <nd ref="778717392"/>
    <nd ref="778717355"/>
    <nd ref="778717387"/>
    <nd ref="778717353"/>
    <nd ref="778717376"/>
    <tag k="highway" v="residential"/>
    <tag k="maxspeed" v="50"/>
    <tag k="maxspeed:source" v="default residential speed limit in Australia"/>
    <tag k="name" v="Cod Place"/>
    <tag k="source" v="survey"/>
  </way>
  <way id="62334783" version="3" timestamp="2010-08-24T13:47:25Z" uid="4467" user="Rosscoe" changeset="5580056">
    <nd ref="778717392"/>
    <nd ref="778717355"/>
    <nd ref="778717387"/>
    <nd ref="778717353"/>
    <nd ref="778717376"/>
    <tag k="highway" v="residential"/>
    <tag k="maxspeed" v="50"/>
    <tag k="name" v="Cod Place"/>
    <tag k="source" v="survey"/>
    <tag k="source:maxspeed" v="default residential speed limit in Australia"/>
  </way>
  <way id="62334828" version="2" timestamp="2011-04-24T03:45:25Z" uid="4467" user="Rosscoe" changeset="7949074">
    <nd ref="778773417"/>
    <nd ref="778773428"/>
    <nd ref="778773429"/>
    <nd ref="778773430"/>
    <nd ref="778773431"/>
    <nd ref="1257554389"/>
    <nd ref="778773432"/>
    <nd ref="1257554390"/>
    <tag k="highway" v="unclassified"/>
    <tag k="source" v="nearmap"/>
  </way>
</osm>
