<?xml version='1.0' encoding='UTF-8'?>
<osm version="0.6" generator="libosmium/2.20.0">
  <way id="6236000" version="3" timestamp="2010-07-09T06:16:50Z" uid="74617" user="JohnSmith" changeset="5171128">
    <nd ref="52092159"/>
    <nd ref="52092262"/>
    <nd ref="52092179"/>
    <nd ref="52092181"/>
    <nd ref="52092165"/>
    <tag k="highway" v="residential"/>
    <tag k="maxspeed" v="50"/>
    <tag k="maxspeed:source" v="default residential speed limit in Australia"/>
    <tag k="name" v="Allen Street"/>
  </way>
  <way id="6236000" version="4" timestamp="2011-02-11T17:12:07Z" uid="4467" user="Rosscoe" changeset="7257123">
    <nd ref="52092159"/>
    <nd ref="1147581554"/>
    <nd ref="52092262"/>
    <nd ref="1147581828"/>
    <nd ref="52092179"/>
    <nd ref="52092165"/>
    <nd ref="1147581846"/>
    <tag k="highway" v="residential"/>
    <tag k="maxspeed" v="50"/>
    <tag k="maxspeed:source" v="default residential speed limit in Australia"/>
    <tag k="name" v="Allen Street"/>
  </way>
  <way id="6236013" version="4" timestamp="2010-05-08T00:35:17Z" uid="4467" user="Rosscoe" changeset="4635210">
    <nd ref="52092262"/>
    <nd ref="52092360"/>
    <tag k="highway" v="residential"/>
    <tag k="name" v="Walker Street"/>
  </way>
  <way id="6236013" version="5" timestamp="2010-07-09T06:19:57Z" uid="74617" user="JohnSmith" changeset="5171128">
    <nd ref="52092262"/>
    <nd ref="52092360"/>
    <tag k="highway" v="residential"/>
    <tag k="maxspeed" v="50"/>
    <tag k="maxspeed:source" v="default residential speed limit in Australia"/>
    <tag k="name" v="Walker Street"/>
  </way>
  <way id="6236032" version="3" timestamp="2010-07-09T06:15:51Z" uid="74617" user="JohnSmith" changeset="5171128">
    <nd ref="52092179"/>
    <nd ref="52092490"/>
    <nd ref="52092492"/>
    <tag k="highway" v="residential"/>
    <tag k="maxspeed" v="50"/>
    <tag k="maxspeed:source" v="default residential speed limit in Australia"/>
    <tag k="name" v="Trott Street"/>
  </way>
  <way id="6236145" version="3" timestamp="2011-02-11T17:12:23Z" uid="4467" user="Rosscoe" changeset="7257123">
    <nd ref="52093852"/>
    <nd ref="1147581862"/>
    <nd ref="52093854"/>
    <nd ref="1147581936"/>
    <nd ref="52093855"/>
    <nd ref="52093857"/>
    <nd ref="52093852"/>
    <tag k="landuse" v="commercial"/>
  </way>
  <way id="6236663" version="10" timestamp="2010-05-08T00:34:50Z" uid="4467" user="Rosscoe" changeset="4635210">
    <nd ref="33123134"/>
    <nd ref="52101621"/>
    <nd ref="52101620"/>
    <nd ref="52101619"/>
    <nd ref="52101618"/>
    <nd ref="52101617"/>
    <nd ref="52101615"/>
    <nd ref="52101614"/>
    <nd ref="52101613"/>
    <nd ref="52101612"/>
    <nd ref="52101610"/>
    <nd ref="52101609"/>
    <nd ref="96579295"/>
    <nd ref="52101608"/>
    <nd ref="52101607"/>
    <tag k="highway" v="trunk"/>
    <tag k="name" v="Robertson Drive (Bunbury Bypass)"/>
    <tag k="oneway" v="yes"/>
    <tag k="ref" v="NR1"/>
  </way>
  <way id="6236663" version="11" timestamp="2010-05-09T04:26:06Z" uid="4467" user="Rosscoe" changeset="4644713">
    <nd ref="33123134"/>
    <nd ref="52101621"/>
    <nd ref="52101620"/>
    <nd ref="52101619"/>
    <nd ref="52101618"/>
    <nd ref="52101617"/>
    <nd ref="52101615"/>
    <nd ref="52101614"/>
    <nd ref="52101613"/>
    <nd ref="726960767"/>
    <nd ref="52101612"/>
    <nd ref="52101610"/>
    <nd ref="52101609"/>
    <nd ref="96579295"/>
    <nd ref="52101608"/>
    <nd ref="52101607"/>
    <tag k="highway" v="trunk"/>
    <tag k="name" v="Robertson Drive (Bunbury Bypass)"/>
    <tag k="oneway" v="yes"/>
    <tag k="ref" v="NR1"/>
  </way>
  <way id="6236663" version="12" timestamp="2010-05-09T07:23:51Z" uid="4467" user="Rosscoe" changeset="4645155">
    <nd ref="33123134"/>
    <nd ref="52101621"/>
    <nd ref="52101620"/>
    <nd ref="52101619"/>
    <nd ref="52101618"/>
    <nd ref="52101617"/>
    <nd ref="52101615"/>
    <nd ref="52101614"/>
    <nd ref="52101613"/>
    <nd ref="726960767"/>
    <nd ref="52101612"/>
    <nd ref="52101610"/>
    <nd ref="52101609"/>
    <nd ref="96579295"/>
    <nd ref="52101608"/>
    <nd ref="52101607"/>
    <tag k="highway" v="trunk"/>
    <tag k="name" v="Robertson Drive (Bunbury Bypass)"/>
    <tag k="oneway" v="yes"/>
    <tag k="ref" v="NR1"/>
  </way>
  <way id="6236663" version="13" timestamp="2010-05-09T08:29:14Z" uid="4467" user="Rosscoe" changeset="4645675">
    <nd ref="33123134"/>
    <nd ref="52101621"/>
    <nd ref="52101620"/>
    <nd ref="52101619"/>
    <nd ref="52101618"/>
    <nd ref="52101617"/>
    <nd ref="52101615"/>
    <nd ref="52101614"/>
    <nd ref="52101613"/>
    <nd ref="726960767"/>
    <nd ref="52101612"/>
    <nd ref="52101610"/>
    <nd ref="52101609"/>
    <nd ref="726995397"/>
    <nd ref="96579295"/>
    <nd ref="52101608"/>
    <nd ref="52101607"/>
    <tag k="highway" v="trunk"/>
    <tag k="name" v="Robertson Drive (Bunbury Bypass)"/>
    <tag k="oneway" v="yes"/>
    <tag k="ref" v="NR1"/>
  </way>
  <way id="6236663" version="14" timestamp="2010-06-12T08:32:32Z" uid="4467" user="Rosscoe" changeset="4968366">
    <nd ref="769796426"/>
    <nd ref="33123131"/>
    <nd ref="33123132"/>
    <nd ref="33123133"/>
    <nd ref="33123134"/>
    <nd ref="52101621"/>
    <nd ref="52101620"/>
    <nd ref="52101619"/>
    <nd ref="52101618"/>
    <nd ref="769796699"/>
    <nd ref="52101617"/>
    <nd ref="769796669"/>
    <nd ref="52101615"/>
    <nd ref="52101614"/>
    <tag k="highway" v="trunk"/>
    <tag k="name" v="Robertson Drive (Bunbury Bypass)"/>
    <tag k="oneway" v="yes"/>
    <tag k="ref" v="NR1"/>
  </way>
  <way id="6236663" version="15" timestamp="2011-01-16T10:31:48Z" uid="4467" user="Rosscoe" changeset="6985728">
    <nd ref="769796426"/>
    <nd ref="33123131"/>
    <nd ref="33123132"/>
    <nd ref="33123133"/>
    <nd ref="33123134"/>
    <nd ref="52101621"/>
    <nd ref="52101620"/>
    <nd ref="52101619"/>
    <nd ref="52101618"/>
    <nd ref="1105910804"/>
    <nd ref="769796699"/>
    <nd ref="52101617"/>
    <nd ref="769796669"/>
    <nd ref="52101615"/>
    <nd ref="1105910837"/>
    <nd ref="52101614"/>
    <tag k="highway" v="trunk"/>
    <tag k="name" v="Robertson Drive (Bunbury Bypass)"/>
    <tag k="oneway" v="yes"/>
    <tag k="ref" v="NR1"/>
  </way>
  <way id="6236768" version="3" timestamp="2010-07-09T06:18:33Z" uid="74617" user="JohnSmith" changeset="5171128">
    <nd ref="52102770"/>
    <nd ref="52102797"/>
    <nd ref="648365670"/>
    <nd ref="648365673"/>
    <nd ref="52102799"/>
    <tag k="highway" v="residential"/>
    <tag k="maxspeed" v="50"/>
    <tag k="maxspeed:source" v="default residential speed limit in Australia"/>
    <tag k="name" v="Laura Avenue"/>
  </way>
  <way id="6236769" version="3" timestamp="2010-07-09T06:16:29Z" uid="74617" user="JohnSmith" changeset="5171128">
    <nd ref="52102797"/>
    <nd ref="52102811"/>
    <nd ref="52102813"/>
    <nd ref="52102814"/>
    <nd ref="52102816"/>
    <tag k="highway" v="residential"/>
    <tag k="maxspeed" v="50"/>
    <tag k="maxspeed:source" v="default residential speed limit in Australia"/>
    <tag k="name" v="Rothesay Cr"/>
  </way>
  <way id="6236769" version="4" timestamp="2011-01-15T07:57:16Z" uid="4467" user="Rosscoe" changeset="6974175">
    <nd ref="52102797"/>
    <nd ref="52102811"/>
    <nd ref="1104295928"/>
    <nd ref="52102813"/>
    <nd ref="52102814"/>
    <nd ref="52102816"/>
    <tag k="highway" v="residential"/>
    <tag k="maxspeed" v="50"/>
    <tag k="maxspeed:source" v="default residential speed limit in Australia"/>
    <tag k="name" v="Rothesay Crescent"/>
  </way>
  <way id="6236772" version="4" timestamp="2010-06-01T08:18:55Z" uid="4467" user="Rosscoe" changeset="4872588">
    <nd ref="52102813"/>
    <nd ref="52103677"/>
    <nd ref="32530522"/>
    <tag k="highway" v="residential"/>
    <tag k="name" v="Eastwell Road"/>
  </way>
  <way id="6236772" version="5" timestamp="2010-07-09T06:17:01Z" uid="74617" user="JohnSmith" changeset="5171128">
    <nd ref="52102813"/>
    <nd ref="52103677"/>
    <nd ref="32530522"/>
    <tag k="highway" v="residential"/>
    <tag k="maxspeed" v="50"/>
    <tag k="maxspeed:source" v="default residential speed limit in Australia"/>
    <tag k="name" v="Eastwell Road"/>
  </way>
  <way id="6236773" version="3" timestamp="2010-07-09T06:24:29Z" uid="74617" user="JohnSmith" changeset="5171128">
    <nd ref="52102841"/>
    <nd ref="52102842"/>
    <nd ref="52102844"/>
    <nd ref="747044783"/>
    <nd ref="747044787"/>
    <tag k="highway" v="residential"/>
    <tag k="maxspeed" v="50"/>
    <tag k="maxspeed:source" v="default residential speed limit in Australia"/>
    <tag k="name" v="Valentine Way"/>
  </way>
  <way id="6236777" version="3" timestamp="2010-07-09T06:23:13Z" uid="74617" user="JohnSmith" changeset="5171128">
    <nd ref="52102883"/>
    <nd ref="52102974"/>
    <nd ref="52102884"/>
    <nd ref="52103009"/>
    <nd ref="52102886"/>
    <nd ref="52102888"/>
    <nd ref="52102889"/>
    <nd ref="52103036"/>
    <nd ref="52102893"/>
    <tag k="highway" v="residential"/>
    <tag k="maxspeed" v="50"/>
    <tag k="maxspeed:source" v="default residential speed limit in Australia"/>
    <tag k="name" v="Dawe Street"/>
  </way>
  <way id="6236780" version="3" timestamp="2010-06-02T03:50:40Z" uid="4467" user="Rosscoe" changeset="4880447">
    <nd ref="52102884"/>
    <nd ref="52102915"/>
    <nd ref="52102917"/>
    <nd ref="52102919"/>
    <nd ref="52102920"/>
    <nd ref="52102921"/>
    <nd ref="52102922"/>
    <tag k="highway" v="residential"/>
    <tag k="name" v="Macgil Street"/>
  </way>
  <way id="6236780" version="4" timestamp="2010-07-09T06:23:45Z" uid="74617" user="JohnSmith" changeset="5171128">
    <nd ref="52102884"/>
    <nd ref="52102915"/>
    <nd ref="52102917"/>
    <nd ref="52102919"/>
    <nd ref="52102920"/>
    <nd ref="52102921"/>
    <nd ref="52102922"/>
    <tag k="highway" v="residential"/>
    <tag k="maxspeed" v="50"/>
    <tag k="maxspeed:source" v="default residential speed limit in Australia"/>
    <tag k="name" v="Macgil Street"/>
  </way>
  <way id="6236782" version="3" timestamp="2010-07-09T06:19:33Z" uid="74617" user="JohnSmith" changeset="5171128">
    <nd ref="52102886"/>
    <nd ref="52102946"/>
    <nd ref="648365676"/>
    <tag k="highway" v="residential"/>
    <tag k="maxspeed" v="50"/>
    <tag k="maxspeed:source" v="default residential speed limit in Australia"/>
    <tag k="name" v="Coode Ct"/>
  </way>
  <way id="6236782" version="4" timestamp="2010-07-09T06:51:51Z" uid="4467" user="Rosscoe" changeset="5171413">
    <nd ref="52102886"/>
    <nd ref="52102946"/>
    <nd ref="648365676"/>
    <tag k="highway" v="residential"/>
    <tag k="maxspeed" v="50"/>
    <tag k="maxspeed:source" v="default residential speed limit in Australia"/>
    <tag k="name" v="Coode Court"/>
  </way>
  <way id="6236783" version="3" timestamp="2010-06-01T02:59:06Z" uid="4467" user="Rosscoe" changeset="4871156">
    <nd ref="52102974"/>
    <nd ref="52102975"/>
    <nd ref="52102977"/>
    <nd ref="598299034"/>
    <nd ref="52102979"/>
    <nd ref="52102980"/>
    <nd ref="52102982"/>
    <nd ref="52102983"/>
    <tag k="highway" v="residential"/>
    <tag k="name" v="Anna Road"/>
  </way>
  <way id="6236783" version="4" timestamp="2010-07-09T06:17:36Z" uid="74617" user="JohnSmith" changeset="5171128">
    <nd ref="52102974"/>
    <nd ref="52102975"/>
    <nd ref="52102977"/>
    <nd ref="598299034"/>
    <nd ref="52102979"/>
    <nd ref="52102980"/>
    <nd ref="52102982"/>
    <nd ref="52102983"/>
    <tag k="highway" v="residential"/>
    <tag k="maxspeed" v="50"/>
    <tag k="maxspeed:source" v="default residential speed limit in Australia"/>
    <tag k="name" v="Anna Road"/>
  </way>
  <way id="6236787" version="3" timestamp="2010-04-18T08:37:15Z" uid="4467" user="Rosscoe" changeset="4455237">
    <nd ref="52103009"/>
    <nd ref="52103010"/>
    <nd ref="52103011"/>
    <nd ref="52103012"/>
    <nd ref="52103013"/>
    <nd ref="52103015"/>
    <nd ref="52103067"/>
    <nd ref="52103018"/>
    <nd ref="700746276"/>
    <tag k="highway" v="residential"/>
    <tag k="name" v="Francine Street"/>
  </way>
  <way id="6236787" version="4" timestamp="2010-07-09T06:18:20Z" uid="74617" user="JohnSmith" changeset="5171128">
    <nd ref="52103009"/>
    <nd ref="52103010"/>
    <nd ref="52103011"/>
    <nd ref="52103012"/>
    <nd ref="52103013"/>
    <nd ref="52103015"/>
    <nd ref="52103067"/>
    <nd ref="52103018"/>
    <nd ref="700746276"/>
    <tag k="highway" v="residential"/>
    <tag k="maxspeed" v="50"/>
    <tag k="maxspeed:source" v="default residential speed limit in Australia"/>
    <tag k="name" v="Francine Street"/>
  </way>
  <way id="6236791" version="3" timestamp="2010-07-09T06:16:44Z" uid="74617" user="JohnSmith" changeset="5171128">
    <nd ref="52103011"/>
    <nd ref="52103028"/>
    <nd ref="52103029"/>
    <nd ref="52103598"/>
    <nd ref="52103030"/>
    <nd ref="52103032"/>
    <nd ref="52103034"/>
    <nd ref="52103036"/>
    <tag k="highway" v="residential"/>
    <tag k="maxspeed" v="50"/>
    <tag k="maxspeed:source" v="default residential speed limit in Australia"/>
    <tag k="name" v="Sellenger Way"/>
  </way>
  <way id="6236793" version="3" timestamp="2010-06-02T06:50:14Z" uid="4467" user="Rosscoe" changeset="4881307">
    <nd ref="52103013"/>
    <nd ref="52103049"/>
    <nd ref="52103050"/>
    <tag k="highway" v="residential"/>
    <tag k="name" v="Rosamond Street"/>
  </way>
  <way id="6236793" version="4" timestamp="2010-07-09T06:19:20Z" uid="74617" user="JohnSmith" changeset="5171128">
    <nd ref="52103013"/>
    <nd ref="52103049"/>
    <nd ref="52103050"/>
    <tag k="highway" v="residential"/>
    <tag k="maxspeed" v="50"/>
    <tag k="maxspeed:source" v="default residential speed limit in Australia"/>
    <tag k="name" v="Rosamond Street"/>
  </way>
  <way id="6236847" version="3" timestamp="2008-07-08T00:06:21Z" uid="6975" user="ulfl" changeset="429882">
    <nd ref="52103418"/>
    <nd ref="52103576"/>
    <nd ref="52103577"/>
    <nd ref="52103579"/>
    <nd ref="52103580"/>
    <nd ref="52103582"/>
    <nd ref="52125929"/>
    <nd ref="52125930"/>
    <nd ref="52125932"/>
    <nd ref="52125935"/>
    <nd ref="52125936"/>
    <nd ref="52125937"/>
    <nd ref="52125938"/>
    <nd ref="52125939"/>
    <nd ref="52125940"/>
    <nd ref="52125941"/>
    <nd ref="52125942"/>
    <nd ref="52122739"/>
    <nd ref="52126204"/>
    <nd ref="52126206"/>
    <tag k="highway" v="secondary"/>
    <tag k="name" v="Norðausturvegur"/>
    <tag k="ref" v="85"/>
    <tag k="surface" v="unpaved"/>
  </way>
  <way id="6236855" version="2" timestamp="2010-06-01T08:24:03Z" uid="4467" user="Rosscoe" changeset="4872615">
    <nd ref="52102799"/>
    <nd ref="52103677"/>
    <tag k="created_by" v="Potlatch alpha"/>
    <tag k="highway" v="residential"/>
    <tag k="name" v="Cicil Street"/>
  </way>
  <way id="6236855" version="3" timestamp="2010-07-09T06:23:06Z" uid="74617" user="JohnSmith" changeset="5171128">
    <nd ref="52102799"/>
    <nd ref="52103677"/>
    <tag k="highway" v="residential"/>
    <tag k="maxspeed" v="50"/>
    <tag k="maxspeed:source" v="default residential speed limit in Australia"/>
    <tag k="name" v="Cicil Street"/>
  </way>
  <way id="6236861" version="5" timestamp="2009-05-11T19:59:40Z" uid="107674" user="GeoCounter" changeset="1157846">
    <nd ref="35519302"/>
    <nd ref="35519303"/>
    <nd ref="35519304"/>
    <nd ref="35519305"/>
    <nd ref="35519306"/>
    <nd ref="35519307"/>
    <nd ref="263830701"/>
    <nd ref="35519308"/>
    <nd ref="35519309"/>
    <nd ref="35519310"/>
    <tag k="bicycle" v="no"/>
    <tag k="created_by" v="JOSM"/>
    <tag k="foot" v="no"/>
    <tag k="highway" v="secondary"/>
    <tag k="layer" v="-1"/>
    <tag k="name" v="Bahnhofstraße"/>
    <tag k="tunnel" v="yes"/>
  </way>
  <way id="6236917" version="2" timestamp="2009-09-30T13:44:45Z" uid="36809" user="pfoten_weg_!_" changeset="2688655">
    <nd ref="52104746"/>
    <nd ref="52104747"/>
    <nd ref="52104750"/>
    <nd ref="52104752"/>
    <nd ref="54778407"/>
    <nd ref="52104754"/>
    <nd ref="52211999"/>
    <tag k="bicycle" v="yes"/>
    <tag k="highway" v="footway"/>
    <tag k="lit" v="yes"/>
    <tag k="surface" v="paved"/>
  </way>
  <way id="6236929" version="1" timestamp="2007-09-15T15:08:17Z" uid="13367" user="nubok" changeset="435295">
    <nd ref="52104847"/>
    <nd ref="52104905"/>
    <nd ref="128192"/>
    <tag k="created_by" v="Potlatch alpha"/>
    <tag k="highway" v="unclassified"/>
  </way>
</osm>
