<?xml version='1.0' encoding='UTF-8'?>
<osm version="0.6" generator="libosmium/2.20.0">
  <way id="6242412" version="2" timestamp="2008-08-25T15:41:04Z" uid="26515" user="Simon Ward" changeset="403727">
    <nd ref="52173471"/>
    <nd ref="52173476"/>
    <tag k="created_by" v="JOSM"/>
    <tag k="highway" v="service"/>
    <tag k="name" v="Alexander Street"/>
    <tag k="source" v="survey"/>
  </way>
  <way id="6242546" version="4" timestamp="2008-08-25T15:31:51Z" uid="26515" user="Simon Ward" changeset="403727">
    <nd ref="9791251"/>
    <nd ref="10015264"/>
    <nd ref="247957329"/>
    <nd ref="52173471"/>
    <nd ref="290970516"/>
    <nd ref="9791509"/>
    <tag k="created_by" v="Potlatch 0.7b"/>
    <tag k="highway" v="tertiary"/>
    <tag k="name" v="Calverley Street"/>
    <tag k="oneway" v="true"/>
  </way>
  <way id="6242546" version="5" timestamp="2008-08-25T15:53:16Z" uid="26515" user="Simon Ward" changeset="403727">
    <nd ref="9791251"/>
    <nd ref="10015264"/>
    <nd ref="247957329"/>
    <nd ref="290975013"/>
    <nd ref="52173471"/>
    <nd ref="290970516"/>
    <nd ref="9791509"/>
    <tag k="created_by" v="Potlatch 0.7b"/>
    <tag k="highway" v="tertiary"/>
    <tag k="name" v="Calverley Street"/>
    <tag k="oneway" v="true"/>
  </way>
  <way id="6242680" version="5" timestamp="2010-06-20T17:45:41Z" uid="33382" user="de_muur" changeset="5035324">
    <nd ref="52176039"/>
    <nd ref="52176029"/>
    <nd ref="52175976"/>
    <nd ref="52176052"/>
    <nd ref="52176026"/>
    <nd ref="52176048"/>
    <nd ref="778430522"/>
    <nd ref="52176044"/>
    <nd ref="778430510"/>
    <tag k="cycleway" v="track"/>
    <tag k="highway" v="tertiary"/>
    <tag k="maxspeed" v="50"/>
    <tag k="name" v="Memelstraße"/>
    <tag k="surface" v="paved"/>
  </way>
  <way id="6242698" version="6" timestamp="2010-10-24T06:17:12Z" uid="33382" user="de_muur" changeset="6153480">
    <nd ref="35711290"/>
    <nd ref="52175872"/>
    <nd ref="35711284"/>
    <nd ref="35711283"/>
    <nd ref="52175890"/>
    <nd ref="52176022"/>
    <nd ref="52175981"/>
    <nd ref="52176100"/>
    <nd ref="52175983"/>
    <nd ref="52175948"/>
    <nd ref="52176026"/>
    <tag k="highway" v="residential"/>
    <tag k="name" v="Maulhoop"/>
    <tag k="postal_code" v="27283"/>
    <tag k="surface" v="paved"/>
  </way>
  <way id="6242731" version="8" timestamp="2010-08-01T06:47:30Z" uid="33382" user="de_muur" changeset="5367976">
    <nd ref="52175812"/>
    <nd ref="52175815"/>
    <nd ref="841481106"/>
    <nd ref="52175824"/>
    <nd ref="841481102"/>
    <tag k="highway" v="residential"/>
    <tag k="name" v="Halsmühlenweg"/>
    <tag k="surface" v="paved"/>
  </way>
  <way id="6242744" version="5" timestamp="2010-07-25T08:46:05Z" uid="4467" user="Rosscoe" changeset="5309813">
    <nd ref="52171393"/>
    <nd ref="644657472"/>
    <nd ref="214875799"/>
    <nd ref="52171403"/>
    <nd ref="644657470"/>
    <nd ref="214875822"/>
    <nd ref="52171363"/>
    <nd ref="644657474"/>
    <nd ref="214875842"/>
    <nd ref="644657473"/>
    <nd ref="52171376"/>
    <nd ref="214875788"/>
    <nd ref="52171393"/>
    <tag k="highway" v="secondary"/>
    <tag k="junction" v="roundabout"/>
    <tag k="source" v="survey"/>
    <tag k="source:name" v="Metropolitan Region Scheme 1955 Atlas"/>
  </way>
  <way id="6242749" version="2" timestamp="2010-07-09T21:02:33Z" uid="74617" user="JohnSmith" changeset="5176956">
    <nd ref="52171543"/>
    <nd ref="32536105"/>
    <nd ref="52171520"/>
    <tag k="highway" v="unclassified"/>
    <tag k="maxspeed" v="50"/>
    <tag k="maxspeed:source" v="default residential speed limit in Australia"/>
    <tag k="name" v="Forrest Avenue"/>
    <tag k="source:name" v="Metropolitan Region Scheme 1955 Atlas"/>
  </way>
  <way id="6242751" version="3" timestamp="2010-07-09T20:52:33Z" uid="74617" user="JohnSmith" changeset="5176956">
    <nd ref="30744866"/>
    <nd ref="52171565"/>
    <nd ref="52171638"/>
    <nd ref="52171583"/>
    <nd ref="52171707"/>
    <nd ref="640709986"/>
    <nd ref="52171693"/>
    <tag k="highway" v="unclassified"/>
    <tag k="maxspeed" v="50"/>
    <tag k="maxspeed:source" v="default residential speed limit in Australia"/>
    <tag k="name" v="Nelson Crescent"/>
    <tag k="source:name" v="Metropolitan Region Scheme 1955 Atlas"/>
  </way>
  <way id="6242754" version="3" timestamp="2010-07-09T21:09:14Z" uid="74617" user="JohnSmith" changeset="5176956">
    <nd ref="52171669"/>
    <nd ref="30744867"/>
    <nd ref="52171646"/>
    <nd ref="52171681"/>
    <tag k="highway" v="unclassified"/>
    <tag k="maxspeed" v="50"/>
    <tag k="maxspeed:source" v="default residential speed limit in Australia"/>
    <tag k="name" v="Bronte Street"/>
  </way>
  <way id="6242755" version="3" timestamp="2010-07-09T21:14:12Z" uid="74617" user="JohnSmith" changeset="5176956">
    <nd ref="52173030"/>
    <nd ref="52173010"/>
    <nd ref="52173005"/>
    <nd ref="52172998"/>
    <tag k="highway" v="unclassified"/>
    <tag k="maxspeed" v="50"/>
    <tag k="maxspeed:source" v="default residential speed limit in Australia"/>
    <tag k="name" v="Nile Street"/>
    <tag k="source:name" v="Metropolitan Region Scheme 1955 Atlas"/>
  </way>
  <way id="6242758" version="2" timestamp="2010-07-09T21:13:09Z" uid="74617" user="JohnSmith" changeset="5176956">
    <nd ref="52171693"/>
    <nd ref="52171715"/>
    <nd ref="52171722"/>
    <nd ref="52171727"/>
    <nd ref="52171736"/>
    <nd ref="52171745"/>
    <nd ref="52171754"/>
    <nd ref="52171765"/>
    <nd ref="52171784"/>
    <nd ref="52171803"/>
    <nd ref="52171813"/>
    <nd ref="52171827"/>
    <nd ref="52172888"/>
    <nd ref="52172915"/>
    <nd ref="52172998"/>
    <tag k="highway" v="unclassified"/>
    <tag k="maxspeed" v="50"/>
    <tag k="maxspeed:source" v="default residential speed limit in Australia"/>
    <tag k="name" v="Nelson Avenue"/>
    <tag k="source:name" v="Metropolitan Region Scheme 1955 Atlas"/>
  </way>
  <way id="6242760" version="3" timestamp="2010-05-07T16:22:39Z" uid="4467" user="Rosscoe" changeset="4631472">
    <nd ref="31338007"/>
    <nd ref="52171620"/>
    <nd ref="52171602"/>
    <nd ref="52173036"/>
    <nd ref="52171681"/>
    <nd ref="52173054"/>
    <nd ref="52173069"/>
    <nd ref="52173079"/>
    <nd ref="52173089"/>
    <tag k="created_by" v="JOSM"/>
    <tag k="highway" v="unclassified"/>
    <tag k="name" v="Waterloo Crescent"/>
    <tag k="source:name" v="Metropolitan Region Scheme 1955 Atlas"/>
  </way>
  <way id="6242760" version="4" timestamp="2010-07-09T21:03:09Z" uid="74617" user="JohnSmith" changeset="5176956">
    <nd ref="31338007"/>
    <nd ref="52171620"/>
    <nd ref="52171602"/>
    <nd ref="52173036"/>
    <nd ref="52171681"/>
    <nd ref="52173054"/>
    <nd ref="52173069"/>
    <nd ref="52173079"/>
    <nd ref="52173089"/>
    <tag k="highway" v="unclassified"/>
    <tag k="maxspeed" v="50"/>
    <tag k="maxspeed:source" v="default residential speed limit in Australia"/>
    <tag k="name" v="Waterloo Crescent"/>
    <tag k="source:name" v="Metropolitan Region Scheme 1955 Atlas"/>
  </way>
  <way id="6242761" version="3" timestamp="2010-05-07T16:22:43Z" uid="4467" user="Rosscoe" changeset="4631472">
    <nd ref="52173089"/>
    <nd ref="52173030"/>
    <tag k="created_by" v="JOSM"/>
    <tag k="highway" v="unclassified"/>
    <tag k="name" v="Trafalgar Road"/>
  </way>
  <way id="6242761" version="4" timestamp="2010-07-09T21:07:49Z" uid="74617" user="JohnSmith" changeset="5176956">
    <nd ref="52173089"/>
    <nd ref="52173030"/>
    <tag k="highway" v="unclassified"/>
    <tag k="maxspeed" v="50"/>
    <tag k="maxspeed:source" v="default residential speed limit in Australia"/>
    <tag k="name" v="Trafalgar Road"/>
  </way>
  <way id="6242762" version="7" timestamp="2010-07-09T20:53:11Z" uid="74617" user="JohnSmith" changeset="5176956">
    <nd ref="52171602"/>
    <nd ref="640701012"/>
    <nd ref="640709970"/>
    <nd ref="52171583"/>
    <nd ref="563696158"/>
    <tag k="highway" v="unclassified"/>
    <tag k="maxspeed" v="50"/>
    <tag k="maxspeed:source" v="default residential speed limit in Australia"/>
    <tag k="name" v="Hale Street"/>
    <tag k="source:name" v="Metropolitan Region Scheme 1955 Atlas"/>
  </way>
  <way id="6242763" version="4" timestamp="2010-07-09T20:58:33Z" uid="74617" user="JohnSmith" changeset="5176956">
    <nd ref="52171565"/>
    <nd ref="640709969"/>
    <nd ref="640701013"/>
    <nd ref="52171620"/>
    <nd ref="52171646"/>
    <tag k="highway" v="unclassified"/>
    <tag k="maxspeed" v="50"/>
    <tag k="maxspeed:source" v="default residential speed limit in Australia"/>
    <tag k="name" v="Horatio Street"/>
    <tag k="source:name" v="Metropolitan Region Scheme 1955 Atlas"/>
  </way>
  <way id="6242764" version="4" timestamp="2010-07-17T09:05:37Z" uid="4467" user="Rosscoe" changeset="5240660">
    <nd ref="52173105"/>
    <nd ref="52173112"/>
    <nd ref="561153117"/>
    <nd ref="561153102"/>
    <nd ref="561034308"/>
    <nd ref="52173120"/>
    <nd ref="52173161"/>
    <nd ref="52173141"/>
    <nd ref="52173134"/>
    <nd ref="821589472"/>
    <nd ref="52173126"/>
    <tag k="highway" v="secondary"/>
    <tag k="name" v="Havelock Street"/>
    <tag k="source:name" v="Metropolitan Region Scheme 1955 Atlas"/>
  </way>
  <way id="6242767" version="5" timestamp="2010-07-09T21:01:50Z" uid="74617" user="JohnSmith" changeset="5176956">
    <nd ref="52173161"/>
    <nd ref="561177044"/>
    <nd ref="579904789"/>
    <nd ref="52173147"/>
    <tag k="highway" v="residential"/>
    <tag k="maxspeed" v="50"/>
    <tag k="maxspeed:source" v="default residential speed limit in Australia"/>
    <tag k="name" v="Parliament Place"/>
    <tag k="source:name" v="Metropolitan Region Scheme 1955 Atlas"/>
  </way>
  <way id="6242770" version="4" timestamp="2010-07-09T20:55:12Z" uid="74617" user="JohnSmith" changeset="5176956">
    <nd ref="52173212"/>
    <nd ref="469352997"/>
    <nd ref="52173184"/>
    <nd ref="469352996"/>
    <nd ref="52173192"/>
    <nd ref="469352995"/>
    <nd ref="52173202"/>
    <nd ref="469352998"/>
    <nd ref="52173212"/>
    <tag k="highway" v="unclassified"/>
    <tag k="junction" v="roundabout"/>
    <tag k="maxspeed" v="50"/>
    <tag k="maxspeed:source" v="default residential speed limit in Australia"/>
    <tag k="name" v="Ord Street"/>
  </way>
  <way id="6242773" version="5" timestamp="2010-07-09T21:13:33Z" uid="74617" user="JohnSmith" changeset="5176956">
    <nd ref="52173212"/>
    <nd ref="346765879"/>
    <nd ref="439204551"/>
    <nd ref="52173120"/>
    <tag k="highway" v="residential"/>
    <tag k="maxspeed" v="50"/>
    <tag k="maxspeed:source" v="default residential speed limit in Australia"/>
    <tag k="name" v="Ord Street"/>
    <tag k="source:name" v="Metropolitan Region Scheme 1955 Atlas"/>
  </way>
  <way id="6242774" version="5" timestamp="2010-07-09T20:59:14Z" uid="74617" user="JohnSmith" changeset="5176956">
    <nd ref="52173254"/>
    <nd ref="30762369"/>
    <nd ref="572305727"/>
    <nd ref="569909423"/>
    <nd ref="572305741"/>
    <nd ref="52173242"/>
    <nd ref="30766766"/>
    <tag k="highway" v="unclassified"/>
    <tag k="maxspeed" v="50"/>
    <tag k="maxspeed:source" v="default residential speed limit in Australia"/>
    <tag k="name" v="King Street"/>
    <tag k="oneway" v="yes"/>
  </way>
  <way id="6242774" version="6" timestamp="2010-07-17T09:05:25Z" uid="4467" user="Rosscoe" changeset="5240660">
    <nd ref="52173254"/>
    <nd ref="30762369"/>
    <nd ref="572305727"/>
    <nd ref="569909423"/>
    <nd ref="572305741"/>
    <nd ref="52173242"/>
    <nd ref="821589521"/>
    <nd ref="30766766"/>
    <tag k="highway" v="unclassified"/>
    <tag k="maxspeed" v="50"/>
    <tag k="maxspeed:source" v="default residential speed limit in Australia"/>
    <tag k="name" v="King Street"/>
    <tag k="oneway" v="yes"/>
  </way>
  <way id="6242776" version="2" timestamp="2010-07-09T21:12:17Z" uid="74617" user="JohnSmith" changeset="5176956">
    <nd ref="52173303"/>
    <nd ref="31002337"/>
    <nd ref="52173268"/>
    <tag k="highway" v="unclassified"/>
    <tag k="maxspeed" v="50"/>
    <tag k="maxspeed:source" v="default residential speed limit in Australia"/>
    <tag k="name" v="John Street"/>
    <tag k="source:name" v="Metropolitan Region Scheme 1955 Atlas"/>
  </way>
  <way id="6242778" version="3" timestamp="2010-07-09T21:02:13Z" uid="74617" user="JohnSmith" changeset="5176956">
    <nd ref="52173262"/>
    <nd ref="52173303"/>
    <nd ref="52173276"/>
    <tag k="highway" v="unclassified"/>
    <tag k="maxspeed" v="50"/>
    <tag k="maxspeed:source" v="default residential speed limit in Australia"/>
    <tag k="name" v="Shenton Street"/>
    <tag k="source" v="survey"/>
    <tag k="source:name" v="Metropolitan Region Scheme 1955 Atlas"/>
  </way>
  <way id="6242781" version="4" timestamp="2010-07-09T20:57:39Z" uid="74617" user="JohnSmith" changeset="5176956">
    <nd ref="52173332"/>
    <nd ref="52173311"/>
    <nd ref="52173318"/>
    <tag k="highway" v="residential"/>
    <tag k="maxspeed" v="50"/>
    <tag k="maxspeed:source" v="default residential speed limit in Australia"/>
    <tag k="name" v="Parker Street"/>
    <tag k="source:name" v="Metropolitan Region Scheme 1955 Atlas"/>
  </way>
  <way id="6242783" version="4" timestamp="2010-07-25T08:45:52Z" uid="4467" user="Rosscoe" changeset="5309813">
    <nd ref="52171077"/>
    <nd ref="832418938"/>
    <nd ref="52171113"/>
    <nd ref="52171122"/>
    <nd ref="600827106"/>
    <nd ref="832419039"/>
    <tag k="highway" v="tertiary"/>
    <tag k="name" v="Cantonment Street"/>
    <tag k="oneway" v="yes"/>
    <tag k="source" v="nearmap"/>
    <tag k="source:name" v="Metropolitan Region Scheme 1955 Atlas"/>
  </way>
  <way id="6242784" version="4" timestamp="2010-06-10T14:33:09Z" uid="4467" user="Rosscoe" changeset="4954607">
    <nd ref="52171122"/>
    <nd ref="768598340"/>
    <nd ref="52171133"/>
    <nd ref="52173345"/>
    <tag k="highway" v="tertiary"/>
    <tag k="name" v="Point Street"/>
  </way>
  <way id="6242784" version="5" timestamp="2010-06-10T14:42:32Z" uid="4467" user="Rosscoe" changeset="4954607">
    <nd ref="52171122"/>
    <nd ref="768598340"/>
    <nd ref="52171133"/>
    <nd ref="52173345"/>
    <tag k="highway" v="tertiary"/>
    <tag k="name" v="Point Street"/>
  </way>
  <way id="6242784" version="6" timestamp="2010-07-25T08:45:23Z" uid="4467" user="Rosscoe" changeset="5309813">
    <nd ref="832419168"/>
    <nd ref="52171122"/>
    <nd ref="768598340"/>
    <nd ref="52171133"/>
    <nd ref="52173345"/>
    <tag k="highway" v="tertiary"/>
    <tag k="name" v="Point Street"/>
  </way>
  <way id="6242785" version="4" timestamp="2010-05-08T03:19:27Z" uid="4467" user="Rosscoe" changeset="4635547">
    <nd ref="165873115"/>
    <nd ref="52171077"/>
    <nd ref="31003989"/>
    <nd ref="52171109"/>
    <nd ref="52171085"/>
    <tag k="created_by" v="JOSM"/>
    <tag k="highway" v="unclassified"/>
    <tag k="name" v="Edward Street"/>
    <tag k="source:name" v="Metropolitan Region Scheme 1955 Atlas"/>
  </way>
  <way id="6242785" version="5" timestamp="2010-06-10T14:30:50Z" uid="4467" user="Rosscoe" changeset="4954607">
    <nd ref="165873115"/>
    <nd ref="52171077"/>
    <nd ref="768598437"/>
    <nd ref="31003989"/>
    <nd ref="52171109"/>
    <nd ref="52171085"/>
    <tag k="highway" v="unclassified"/>
    <tag k="name" v="Edward Street"/>
    <tag k="source:name" v="Metropolitan Region Scheme 1955 Atlas"/>
  </way>
  <way id="6242785" version="6" timestamp="2010-06-10T14:40:59Z" uid="4467" user="Rosscoe" changeset="4954607">
    <nd ref="165873115"/>
    <nd ref="52171077"/>
    <nd ref="768598437"/>
    <nd ref="31003989"/>
    <nd ref="52171109"/>
    <nd ref="52171085"/>
    <tag k="highway" v="unclassified"/>
    <tag k="name" v="Edward Street"/>
    <tag k="source:name" v="Metropolitan Region Scheme 1955 Atlas"/>
  </way>
  <way id="6242785" version="7" timestamp="2010-06-11T06:09:49Z" uid="4467" user="Rosscoe" changeset="4959872">
    <nd ref="165873115"/>
    <nd ref="52171077"/>
    <nd ref="768598437"/>
    <nd ref="31003989"/>
    <nd ref="52171109"/>
    <nd ref="52171085"/>
    <tag k="highway" v="secondary"/>
    <tag k="name" v="Edward Street"/>
    <tag k="source:name" v="Metropolitan Region Scheme 1955 Atlas"/>
  </way>
  <way id="6242785" version="8" timestamp="2010-07-25T08:46:13Z" uid="4467" user="Rosscoe" changeset="5309813">
    <nd ref="165873115"/>
    <nd ref="832418950"/>
    <nd ref="52171077"/>
    <nd ref="768598437"/>
    <nd ref="31003989"/>
    <tag k="highway" v="secondary"/>
    <tag k="name" v="Edward Street"/>
    <tag k="source:name" v="Metropolitan Region Scheme 1955 Atlas"/>
  </way>
  <way id="6242786" version="3" timestamp="2010-07-09T08:09:04Z" uid="74617" user="JohnSmith" changeset="5171412">
    <nd ref="52171085"/>
    <nd ref="635231797"/>
    <nd ref="52173368"/>
    <nd ref="52173380"/>
    <nd ref="43201251"/>
    <nd ref="52173387"/>
    <tag k="highway" v="residential"/>
    <tag k="maxspeed" v="50"/>
    <tag k="maxspeed:source" v="default residential speed limit in Australia"/>
    <tag k="name" v="Quarry Street"/>
    <tag k="source:name" v="Metropolitan Region Scheme 1955 Atlas"/>
  </way>
  <way id="6242786" version="4" timestamp="2010-07-25T08:45:03Z" uid="4467" user="Rosscoe" changeset="5309813">
    <nd ref="832418808"/>
    <nd ref="52171085"/>
    <nd ref="635231797"/>
    <nd ref="52173368"/>
    <nd ref="52173380"/>
    <nd ref="43201251"/>
    <nd ref="52173387"/>
    <tag k="highway" v="residential"/>
    <tag k="maxspeed" v="50"/>
    <tag k="maxspeed:source" v="default residential speed limit in Australia"/>
    <tag k="name" v="Quarry Street"/>
    <tag k="source:name" v="Metropolitan Region Scheme 1955 Atlas"/>
  </way>
  <way id="6242789" version="6" timestamp="2010-06-11T07:42:53Z" uid="4467" user="Rosscoe" changeset="4960309">
    <nd ref="52171493"/>
    <nd ref="600753298"/>
    <nd ref="25596936"/>
    <nd ref="59648605"/>
    <nd ref="571393001"/>
    <nd ref="59967328"/>
    <nd ref="571393000"/>
    <nd ref="59967335"/>
    <nd ref="59967329"/>
    <nd ref="59967330"/>
    <tag k="highway" v="secondary"/>
    <tag k="name" v="Marine Terrace"/>
    <tag k="source:name" v="Metropolitan Region Scheme 1955 Atlas"/>
  </way>
</osm>
