<?xml version='1.0' encoding='UTF-8'?>
<osm version="0.6" generator="libosmium/2.20.0">
  <way id="62535216" version="4" timestamp="2010-08-04T17:40:36Z" uid="9581" user="Lobelt" changeset="5401263">
    <nd ref="270824433"/>
    <nd ref="794528481"/>
    <nd ref="780384856"/>
    <nd ref="800868145"/>
    <nd ref="270824423"/>
    <tag k="cables" v="3"/>
    <tag k="color" v="yellow"/>
    <tag k="frequency" v="50"/>
    <tag k="name" v="Oberlethe / Osternburg"/>
    <tag k="operator" v="EON_Netz"/>
    <tag k="power" v="line"/>
    <tag k="ref" v="E10"/>
    <tag k="voltage" v="110000"/>
    <tag k="wires" v="single"/>
  </way>
  <way id="62535224" version="4" timestamp="2010-08-04T17:46:03Z" uid="9581" user="Lobelt" changeset="5401263">
    <nd ref="270824423"/>
    <nd ref="800868149"/>
    <nd ref="780384899"/>
    <nd ref="794528484"/>
    <nd ref="780384810"/>
    <tag k="cables" v="3"/>
    <tag k="color" v="black"/>
    <tag k="frequency" v="50"/>
    <tag k="name" v="OL/Süd / Osternburg"/>
    <tag k="operator" v="EON_Netz"/>
    <tag k="power" v="line"/>
    <tag k="ref" v="E11"/>
    <tag k="voltage" v="110000"/>
    <tag k="wires" v="single"/>
  </way>
  <way id="62535311" version="2" timestamp="2010-08-04T17:36:29Z" uid="9581" user="Lobelt" changeset="5401263">
    <nd ref="780385382"/>
    <nd ref="355240788"/>
    <nd ref="355240792"/>
    <nd ref="355240793"/>
    <nd ref="355240794"/>
    <nd ref="355240795"/>
    <nd ref="355240799"/>
    <nd ref="355240796"/>
    <nd ref="355240801"/>
    <nd ref="355240797"/>
    <nd ref="355240800"/>
    <nd ref="355240802"/>
    <nd ref="355240803"/>
    <nd ref="355240804"/>
    <nd ref="355240805"/>
    <nd ref="355240806"/>
    <nd ref="365310755"/>
    <nd ref="365310758"/>
    <nd ref="365310759"/>
    <nd ref="365310761"/>
    <nd ref="365310764"/>
    <nd ref="365310767"/>
    <nd ref="365310772"/>
    <nd ref="365310774"/>
    <nd ref="365310781"/>
    <nd ref="365310779"/>
    <nd ref="365310786"/>
    <nd ref="365310785"/>
    <nd ref="365310791"/>
    <nd ref="365310793"/>
    <nd ref="365310797"/>
    <nd ref="365310799"/>
    <nd ref="343494089"/>
    <tag k="cables" v="6"/>
    <tag k="frequency" v="50"/>
    <tag k="name" v="056"/>
    <tag k="operator" v="EON_Netz"/>
    <tag k="power" v="line"/>
    <tag k="ref" v="056"/>
    <tag k="voltage" v="110000"/>
    <tag k="wires" v="single"/>
  </way>
  <way id="62535351" version="2" timestamp="2010-08-04T17:38:00Z" uid="9581" user="Lobelt" changeset="5401263">
    <nd ref="343494062"/>
    <nd ref="343494058"/>
    <nd ref="343494052"/>
    <nd ref="294280254"/>
    <nd ref="343494048"/>
    <nd ref="292753740"/>
    <nd ref="290843273"/>
    <nd ref="287877374"/>
    <nd ref="288908436"/>
    <nd ref="288972261"/>
    <nd ref="267891772"/>
    <nd ref="267891775"/>
    <nd ref="267891778"/>
    <tag k="cables" v="6"/>
    <tag k="frequency" v="50"/>
    <tag k="name" v="055"/>
    <tag k="note" v="süd:gelb,nord:rot"/>
    <tag k="operator" v="EON_Netz"/>
    <tag k="power" v="line"/>
    <tag k="ref" v="055"/>
    <tag k="voltage" v="110000"/>
    <tag k="wires" v="single"/>
  </way>
</osm>
