<?xml version='1.0' encoding='UTF-8'?>
<osm version="0.6" generator="libosmium/2.20.0">
  <way id="62577072" version="1" timestamp="2010-06-21T23:20:07Z" uid="205264" user="Sterol Andro" changeset="5047562">
    <nd ref="780619680"/>
    <nd ref="780619637"/>
    <nd ref="780619735"/>
    <nd ref="780619616"/>
    <nd ref="780619639"/>
    <nd ref="780619668"/>
    <nd ref="780619598"/>
    <nd ref="780619669"/>
    <nd ref="780619723"/>
    <nd ref="780619698"/>
    <nd ref="780619680"/>
    <tag k="area" v="yes"/>
  </way>
  <way id="62577073" version="1" timestamp="2010-06-21T23:20:08Z" uid="205264" user="Sterol Andro" changeset="5047562">
    <nd ref="780619682"/>
    <nd ref="780619739"/>
    <tag k="highway" v="unclassified"/>
    <tag k="name" v="Piazza Eugenio Curiel"/>
  </way>
  <way id="62577075" version="1" timestamp="2010-06-21T23:20:08Z" uid="205264" user="Sterol Andro" changeset="5047562">
    <nd ref="780619607"/>
    <nd ref="780619669"/>
    <tag k="highway" v="residential"/>
    <tag k="name" v="Via Battistero"/>
  </way>
  <way id="62577076" version="1" timestamp="2010-06-21T23:20:08Z" uid="205264" user="Sterol Andro" changeset="5047562">
    <nd ref="780619736"/>
    <nd ref="780619718"/>
    <tag k="highway" v="unclassified"/>
    <tag k="name" v="Via Vercelli"/>
    <tag k="oneway" v="yes"/>
  </way>
  <way id="62577077" version="1" timestamp="2010-06-21T23:20:08Z" uid="205264" user="Sterol Andro" changeset="5047562">
    <nd ref="780619612"/>
    <nd ref="780619662"/>
    <nd ref="780619631"/>
    <tag k="highway" v="unclassified"/>
    <tag k="name" v="Via Agostino De Fango"/>
  </way>
  <way id="62577080" version="1" timestamp="2010-06-21T23:20:08Z" uid="205264" user="Sterol Andro" changeset="5047562">
    <nd ref="445563845"/>
    <nd ref="780619636"/>
    <nd ref="780619614"/>
    <tag k="highway" v="residential"/>
    <tag k="name" v="Via Federico Garlanda"/>
  </way>
  <way id="62577082" version="1" timestamp="2010-06-21T23:20:08Z" uid="205264" user="Sterol Andro" changeset="5047562">
    <nd ref="419373883"/>
    <nd ref="419373885"/>
    <nd ref="301465504"/>
    <tag k="highway" v="unclassified"/>
    <tag k="name" v="Viale Cesare Battisti"/>
    <tag k="oneway" v="yes"/>
  </way>
  <way id="62577086" version="1" timestamp="2010-06-21T23:20:08Z" uid="205264" user="Sterol Andro" changeset="5047562">
    <nd ref="780619600"/>
    <nd ref="780619727"/>
    <tag k="highway" v="residential"/>
    <tag k="name" v="Via Gera"/>
  </way>
  <way id="62577088" version="1" timestamp="2010-06-21T23:20:08Z" uid="205264" user="Sterol Andro" changeset="5047562">
    <nd ref="780619618"/>
    <nd ref="780619720"/>
    <nd ref="780619740"/>
    <nd ref="780619619"/>
    <nd ref="585271803"/>
    <tag k="highway" v="residential"/>
    <tag k="name" v="Via dei Seminari"/>
    <tag k="oneway" v="yes"/>
    <tag k="surface" v="cobblestone"/>
  </way>
  <way id="62577090" version="1" timestamp="2010-06-21T23:20:08Z" uid="205264" user="Sterol Andro" changeset="5047562">
    <nd ref="780619678"/>
    <nd ref="780619682"/>
    <nd ref="780619665"/>
    <tag k="highway" v="residential"/>
    <tag k="name" v="Via Tommaso Mullatera"/>
    <tag k="oneway" v="yes"/>
  </way>
  <way id="62577097" version="1" timestamp="2010-06-21T23:20:08Z" uid="205264" user="Sterol Andro" changeset="5047562">
    <nd ref="780619710"/>
    <nd ref="780619688"/>
    <tag k="highway" v="residential"/>
    <tag k="name" v="Via Pietro Gobetti"/>
  </way>
  <way id="62577097" version="2" timestamp="2010-06-27T14:31:46Z" uid="205264" user="Sterol Andro" changeset="5090019">
    <nd ref="780619710"/>
    <nd ref="780619688"/>
    <tag k="highway" v="residential"/>
    <tag k="name" v="Via Piero Gobetti"/>
  </way>
  <way id="62577098" version="1" timestamp="2010-06-21T23:20:09Z" uid="205264" user="Sterol Andro" changeset="5047562">
    <nd ref="585271797"/>
    <nd ref="780619685"/>
    <nd ref="780619648"/>
    <nd ref="780619625"/>
    <nd ref="780619603"/>
    <nd ref="780619618"/>
    <nd ref="780619646"/>
    <nd ref="780619624"/>
    <tag k="highway" v="pedestrian"/>
    <tag k="name" v="Via San Filippo"/>
    <tag k="surface" v="cobblestone"/>
  </way>
  <way id="62577100" version="1" timestamp="2010-06-21T23:20:09Z" uid="205264" user="Sterol Andro" changeset="5047562">
    <nd ref="780619692"/>
    <nd ref="780619713"/>
    <nd ref="780619635"/>
    <nd ref="780619642"/>
    <nd ref="780619692"/>
    <tag k="area" v="yes"/>
    <tag k="name" v="Piazza Duomo"/>
  </way>
  <way id="62577103" version="1" timestamp="2010-06-21T23:20:09Z" uid="205264" user="Sterol Andro" changeset="5047562">
    <nd ref="780619702"/>
    <nd ref="780619682"/>
    <tag k="highway" v="unclassified"/>
    <tag k="name" v="Piazza Eugenio Curiel"/>
    <tag k="oneway" v="yes"/>
  </way>
  <way id="62577105" version="1" timestamp="2010-06-21T23:20:09Z" uid="205264" user="Sterol Andro" changeset="5047562">
    <nd ref="780619708"/>
    <nd ref="780619600"/>
    <nd ref="780619684"/>
    <tag k="highway" v="residential"/>
    <tag k="name" v="Via Gera"/>
  </way>
  <way id="62577107" version="1" timestamp="2010-06-21T23:20:09Z" uid="205264" user="Sterol Andro" changeset="5047562">
    <nd ref="583755692"/>
    <nd ref="780619725"/>
    <nd ref="780619701"/>
    <nd ref="780619727"/>
    <nd ref="780619717"/>
    <nd ref="780619690"/>
    <nd ref="780619677"/>
    <nd ref="780619714"/>
    <nd ref="780619689"/>
    <nd ref="780619675"/>
    <nd ref="780619650"/>
    <nd ref="780619627"/>
    <nd ref="780619606"/>
    <nd ref="780619731"/>
    <nd ref="780619707"/>
    <nd ref="780619605"/>
    <nd ref="780619730"/>
    <nd ref="780619704"/>
    <tag k="highway" v="residential"/>
    <tag k="name" v="Costa delle Noci"/>
    <tag k="surface" v="cobblestone"/>
  </way>
  <way id="62577111" version="1" timestamp="2010-06-21T23:20:09Z" uid="205264" user="Sterol Andro" changeset="5047562">
    <nd ref="780619685"/>
    <nd ref="780619670"/>
    <nd ref="401297681"/>
    <tag k="highway" v="pedestrian"/>
    <tag k="name" v="Via San Giovanni Battista de La Salle"/>
  </way>
  <way id="62577113" version="1" timestamp="2010-06-21T23:20:09Z" uid="205264" user="Sterol Andro" changeset="5047562">
    <nd ref="780619697"/>
    <nd ref="780619722"/>
    <nd ref="780619695"/>
    <tag k="highway" v="residential"/>
    <tag k="name" v="Via Monte Mucrone"/>
    <tag k="oneway" v="yes"/>
  </way>
  <way id="62577116" version="1" timestamp="2010-06-21T23:20:09Z" uid="205264" user="Sterol Andro" changeset="5047562">
    <nd ref="585271803"/>
    <nd ref="780619610"/>
    <nd ref="780619651"/>
    <nd ref="780619629"/>
    <nd ref="780619607"/>
    <nd ref="780619732"/>
    <nd ref="687962370"/>
    <tag k="highway" v="residential"/>
    <tag k="name" v="Via Duomo"/>
  </way>
</osm>
