<?xml version='1.0' encoding='UTF-8'?>
<osm version="0.6" generator="libosmium/2.20.0">
  <way id="63102806" version="3" timestamp="2010-07-05T14:11:01Z" uid="4467" user="Rosscoe" changeset="5142371">
    <nd ref="351129824"/>
    <nd ref="783928776"/>
    <nd ref="783928784"/>
    <nd ref="783928792"/>
    <nd ref="783928799"/>
    <nd ref="783928806"/>
    <nd ref="783928811"/>
    <nd ref="783966910"/>
    <nd ref="612105911"/>
    <tag k="highway" v="tertiary"/>
    <tag k="maxspeed" v="60"/>
    <tag k="name" v="Aqueduct Road"/>
    <tag k="oneway" v="yes"/>
    <tag k="source" v="nearmap"/>
  </way>
  <way id="63102831" version="2" timestamp="2010-07-05T14:10:46Z" uid="4467" user="Rosscoe" changeset="5142371">
    <nd ref="802158248"/>
    <nd ref="783928907"/>
    <nd ref="783928914"/>
    <nd ref="783928920"/>
    <nd ref="783928926"/>
    <nd ref="783929233"/>
    <tag k="highway" v="tertiary"/>
    <tag k="name" v="Wallowa Road"/>
    <tag k="oneway" v="yes"/>
    <tag k="source" v="nearmap"/>
  </way>
  <way id="63102851" version="2" timestamp="2010-07-05T14:09:52Z" uid="4467" user="Rosscoe" changeset="5142371">
    <nd ref="783919113"/>
    <nd ref="783928998"/>
    <nd ref="783929028"/>
    <nd ref="783929032"/>
    <nd ref="783929161"/>
    <tag k="highway" v="tertiary"/>
    <tag k="maxspeed" v="60"/>
    <tag k="name" v="St Helena Road"/>
    <tag k="oneway" v="yes"/>
    <tag k="source" v="nearmap"/>
  </way>
</osm>
