<?xml version='1.0' encoding='UTF-8'?>
<osm version="0.6" generator="libosmium/2.20.0">
  <way id="63108334" version="2" timestamp="2011-01-29T00:25:18Z" uid="34428" user="usm78-gis" changeset="7118578">
    <nd ref="1125623815"/>
    <nd ref="1125625843"/>
    <nd ref="1125624354"/>
    <nd ref="1125625681"/>
    <nd ref="1125624076"/>
    <nd ref="327497"/>
    <nd ref="783992403"/>
    <nd ref="783992416"/>
    <nd ref="779030291"/>
    <tag k="highway" v="service"/>
    <tag k="oneway" v="yes"/>
    <tag k="service" v="alley"/>
    <tag k="surface" v="paved"/>
  </way>
  <way id="63108937" version="2" timestamp="2011-04-20T17:41:19Z" uid="115477" user="wowik" changeset="7918311">
    <nd ref="784007260"/>
    <nd ref="784007262"/>
    <nd ref="784007254"/>
    <nd ref="784007266"/>
    <nd ref="784007260"/>
    <tag k="addr:city" v="Москва"/>
    <tag k="addr:country" v="RU"/>
    <tag k="building" v="yes"/>
    <tag k="name" v="Музей археологии Москвы (вход)"/>
    <tag k="tourism" v="museum"/>
  </way>
</osm>
