<?xml version='1.0' encoding='UTF-8'?>
<osm version="0.6" generator="libosmium/2.20.0">
  <way id="63738380" version="1" timestamp="2010-06-24T19:29:29Z" uid="33382" user="de_muur" changeset="5068692">
    <nd ref="261690776"/>
    <nd ref="423829234"/>
    <nd ref="261690777"/>
    <nd ref="261690778"/>
    <nd ref="788135041"/>
    <tag k="highway" v="unclassified"/>
    <tag k="name" v="Nüssauer Weg"/>
    <tag k="surface" v="paved"/>
  </way>
  <way id="63738381" version="1" timestamp="2010-06-24T19:29:29Z" uid="33382" user="de_muur" changeset="5068692">
    <nd ref="788135041"/>
    <nd ref="788135055"/>
    <nd ref="261690779"/>
    <tag k="highway" v="residential"/>
    <tag k="name" v="Nüssauer Weg"/>
    <tag k="surface" v="paved"/>
  </way>
  <way id="63738382" version="1" timestamp="2010-06-24T19:29:29Z" uid="33382" user="de_muur" changeset="5068692">
    <nd ref="788135046"/>
    <nd ref="788135051"/>
    <nd ref="788135055"/>
    <tag k="highway" v="residential"/>
    <tag k="surface" v="paved"/>
  </way>
  <way id="63738383" version="1" timestamp="2010-06-24T19:29:29Z" uid="33382" user="de_muur" changeset="5068692">
    <nd ref="261690779"/>
    <nd ref="788135046"/>
    <nd ref="261690780"/>
    <nd ref="261690781"/>
    <nd ref="261690782"/>
    <tag k="highway" v="tertiary"/>
    <tag k="maxspeed" v="50"/>
    <tag k="name" v="Dorfstraße"/>
    <tag k="ref" v="K 62"/>
    <tag k="surface" v="paved"/>
  </way>
  <way id="63738472" version="2" timestamp="2010-07-08T18:30:52Z" uid="74617" user="JohnSmith" changeset="5167338">
    <nd ref="788143561"/>
    <nd ref="788143574"/>
    <tag k="highway" v="residential"/>
    <tag k="maxspeed" v="50"/>
    <tag k="maxspeed:source" v="default residential speed limit in Australia"/>
    <tag k="name" v="Domain Mews"/>
  </way>
  <way id="63738977" version="1" timestamp="2010-06-24T19:31:35Z" uid="33382" user="de_muur" changeset="5068724">
    <nd ref="261690792"/>
    <nd ref="261690793"/>
    <nd ref="306226097"/>
    <tag k="highway" v="tertiary"/>
    <tag k="maxspeed" v="50"/>
    <tag k="name" v="Bergstraße"/>
    <tag k="ref" v="K 17"/>
    <tag k="surface" v="paved"/>
  </way>
  <way id="63738979" version="1" timestamp="2010-06-24T19:31:35Z" uid="33382" user="de_muur" changeset="5068724">
    <nd ref="788150307"/>
    <nd ref="271978829"/>
    <tag k="highway" v="tertiary"/>
    <tag k="maxspeed" v="50"/>
    <tag k="name" v="Grabauer Straße"/>
    <tag k="ref" v="K 73"/>
    <tag k="surface" v="paved"/>
  </way>
  <way id="63738980" version="1" timestamp="2010-06-24T19:31:35Z" uid="33382" user="de_muur" changeset="5068724">
    <nd ref="271978829"/>
    <nd ref="261690792"/>
    <tag k="highway" v="tertiary"/>
    <tag k="maxspeed" v="50"/>
    <tag k="name" v="Grabauer Straße"/>
    <tag k="ref" v="K 73"/>
    <tag k="surface" v="paved"/>
  </way>
</osm>
