<?xml version='1.0' encoding='UTF-8'?>
<osm version="0.6" generator="libosmium/2.20.0">
  <way id="64671009" version="1" timestamp="2010-06-28T09:51:08Z" uid="7617" user="Franc" changeset="5096141">
    <nd ref="31243117"/>
    <nd ref="31243118"/>
    <tag k="cycleway" v="opposite"/>
    <tag k="highway" v="residential"/>
    <tag k="lcn" v="yes"/>
    <tag k="lcn_ref" v="L4"/>
    <tag k="name" v="Barker Street"/>
    <tag k="oneway" v="yes"/>
    <tag k="restriction" v="school_zone"/>
  </way>
  <way id="64671009" version="2" timestamp="2010-07-08T02:55:02Z" uid="74617" user="JohnSmith" changeset="5163091">
    <nd ref="31243117"/>
    <nd ref="31243118"/>
    <tag k="cycleway" v="opposite"/>
    <tag k="highway" v="residential"/>
    <tag k="lcn" v="yes"/>
    <tag k="lcn_ref" v="L4"/>
    <tag k="maxspeed" v="50"/>
    <tag k="maxspeed:source" v="default residential speed limit in Australia"/>
    <tag k="name" v="Barker Street"/>
    <tag k="oneway" v="yes"/>
    <tag k="restriction" v="school_zone"/>
  </way>
  <way id="64671009" version="3" timestamp="2010-11-19T19:26:04Z" uid="7617" user="Franc" changeset="6409508">
    <nd ref="31243117"/>
    <nd ref="995133889"/>
    <nd ref="31243118"/>
    <tag k="cycleway" v="opposite"/>
    <tag k="highway" v="residential"/>
    <tag k="lcn" v="yes"/>
    <tag k="lcn_ref" v="L4"/>
    <tag k="maxspeed" v="50"/>
    <tag k="maxspeed:source" v="default residential speed limit in Australia"/>
    <tag k="name" v="Barker Street"/>
    <tag k="oneway" v="yes"/>
    <tag k="restriction" v="school_zone"/>
  </way>
  <way id="64671011" version="1" timestamp="2010-06-28T09:51:09Z" uid="7617" user="Franc" changeset="5096141">
    <nd ref="794067634"/>
    <nd ref="220298386"/>
    <nd ref="794067652"/>
    <tag k="highway" v="tertiary"/>
    <tag k="maxspeed" v="50"/>
    <tag k="name" v="Coxs Road"/>
    <tag k="restriction" v="school_zone"/>
  </way>
  <way id="64671013" version="1" timestamp="2010-06-28T09:51:09Z" uid="7617" user="Franc" changeset="5096141">
    <nd ref="794067667"/>
    <nd ref="220298352"/>
    <nd ref="41638060"/>
    <nd ref="34610021"/>
    <tag k="highway" v="residential"/>
    <tag k="name" v="Marilyn Street"/>
    <tag k="restriction" v="school_zone"/>
    <tag k="source" v="survey"/>
  </way>
  <way id="64671013" version="2" timestamp="2010-07-08T00:25:21Z" uid="74617" user="JohnSmith" changeset="5162525">
    <nd ref="794067667"/>
    <nd ref="220298352"/>
    <nd ref="41638060"/>
    <nd ref="34610021"/>
    <tag k="highway" v="residential"/>
    <tag k="maxspeed" v="50"/>
    <tag k="maxspeed:source" v="default residential speed limit in Australia"/>
    <tag k="name" v="Marilyn Street"/>
    <tag k="restriction" v="school_zone"/>
    <tag k="source" v="survey"/>
  </way>
  <way id="64671015" version="1" timestamp="2010-06-28T09:51:09Z" uid="7617" user="Franc" changeset="5096141">
    <nd ref="245926092"/>
    <nd ref="245926704"/>
    <nd ref="245926093"/>
    <nd ref="245926681"/>
    <nd ref="245926094"/>
    <nd ref="245926095"/>
    <nd ref="245926096"/>
    <nd ref="245926097"/>
    <nd ref="245926109"/>
    <nd ref="245926110"/>
    <nd ref="245926111"/>
    <nd ref="654585888"/>
    <nd ref="245926108"/>
    <nd ref="654585889"/>
    <nd ref="245926186"/>
    <nd ref="245926185"/>
    <nd ref="654585866"/>
    <nd ref="654585864"/>
    <nd ref="245926671"/>
    <nd ref="245926666"/>
    <nd ref="245926665"/>
    <nd ref="245926603"/>
    <nd ref="245926601"/>
    <nd ref="245926599"/>
    <nd ref="338532398"/>
    <nd ref="245926189"/>
    <tag k="highway" v="trunk"/>
    <tag k="maxspeed" v="70"/>
    <tag k="name" v="Lane Cove Road"/>
    <tag k="oneway" v="yes"/>
    <tag k="ref" v="MR3"/>
    <tag k="source" v="survey"/>
    <tag k="source:name" v="knowledge"/>
  </way>
  <way id="64671018" version="1" timestamp="2010-06-28T09:51:09Z" uid="7617" user="Franc" changeset="5096141">
    <nd ref="794067637"/>
    <nd ref="34610033"/>
    <tag k="highway" v="residential"/>
    <tag k="name" v="Cooney Street"/>
  </way>
  <way id="64671018" version="2" timestamp="2010-07-08T00:26:52Z" uid="74617" user="JohnSmith" changeset="5162525">
    <nd ref="794067637"/>
    <nd ref="34610033"/>
    <tag k="highway" v="residential"/>
    <tag k="maxspeed" v="50"/>
    <tag k="maxspeed:source" v="default residential speed limit in Australia"/>
    <tag k="name" v="Cooney Street"/>
  </way>
  <way id="64671019" version="1" timestamp="2010-06-28T09:51:09Z" uid="7617" user="Franc" changeset="5096141">
    <nd ref="794067640"/>
    <nd ref="41638060"/>
    <tag k="highway" v="residential"/>
    <tag k="name" v="Pamela Street"/>
    <tag k="restriction" v="school_zone"/>
    <tag k="source" v="survey"/>
  </way>
  <way id="64671019" version="2" timestamp="2010-07-08T00:21:19Z" uid="74617" user="JohnSmith" changeset="5162525">
    <nd ref="794067640"/>
    <nd ref="41638060"/>
    <tag k="highway" v="residential"/>
    <tag k="maxspeed" v="50"/>
    <tag k="maxspeed:source" v="default residential speed limit in Australia"/>
    <tag k="name" v="Pamela Street"/>
    <tag k="restriction" v="school_zone"/>
    <tag k="source" v="survey"/>
  </way>
  <way id="64671022" version="1" timestamp="2010-06-28T09:51:10Z" uid="7617" user="Franc" changeset="5096141">
    <nd ref="41638167"/>
    <nd ref="252697728"/>
    <nd ref="252698655"/>
    <nd ref="34610015"/>
    <nd ref="794067679"/>
    <nd ref="26940806"/>
    <nd ref="252698668"/>
    <nd ref="220298736"/>
    <nd ref="245928039"/>
    <nd ref="245928327"/>
    <nd ref="220298644"/>
    <nd ref="671708049"/>
    <nd ref="774765455"/>
    <nd ref="28817517"/>
    <nd ref="774765457"/>
    <nd ref="671708061"/>
    <nd ref="766631959"/>
    <nd ref="28817453"/>
    <nd ref="28817406"/>
    <nd ref="36614000"/>
    <nd ref="28817388"/>
    <tag k="highway" v="trunk"/>
    <tag k="maxspeed" v="70"/>
    <tag k="name" v="Lane Cove Road"/>
    <tag k="oneway" v="yes"/>
    <tag k="ref" v="MR3"/>
    <tag k="source" v="survey"/>
    <tag k="source:name" v="knowledge"/>
  </way>
  <way id="64671025" version="1" timestamp="2010-06-28T09:51:10Z" uid="7617" user="Franc" changeset="5096141">
    <nd ref="794067690"/>
    <nd ref="794067673"/>
    <nd ref="794067676"/>
    <nd ref="794067656"/>
    <nd ref="794067659"/>
    <nd ref="794067661"/>
    <nd ref="794067664"/>
    <nd ref="794067655"/>
    <tag k="highway" v="residential"/>
    <tag k="name" v="Lane Cove Road"/>
    <tag k="source" v="nearmap"/>
    <tag k="source:name" v="extrapolation"/>
  </way>
  <way id="64671025" version="2" timestamp="2010-07-08T00:23:48Z" uid="74617" user="JohnSmith" changeset="5162525">
    <nd ref="794067690"/>
    <nd ref="794067673"/>
    <nd ref="794067676"/>
    <nd ref="794067656"/>
    <nd ref="794067659"/>
    <nd ref="794067661"/>
    <nd ref="794067664"/>
    <nd ref="794067655"/>
    <tag k="highway" v="residential"/>
    <tag k="maxspeed" v="50"/>
    <tag k="maxspeed:source" v="default residential speed limit in Australia"/>
    <tag k="name" v="Lane Cove Road"/>
    <tag k="source" v="nearmap"/>
    <tag k="source:name" v="extrapolation"/>
  </way>
  <way id="64671028" version="1" timestamp="2010-06-28T09:51:10Z" uid="7617" user="Franc" changeset="5096141">
    <nd ref="794067652"/>
    <nd ref="245926681"/>
    <tag k="highway" v="tertiary"/>
    <tag k="maxspeed" v="50"/>
    <tag k="name" v="Coxs Road"/>
  </way>
  <way id="64671030" version="1" timestamp="2010-06-28T09:51:10Z" uid="7617" user="Franc" changeset="5096141">
    <nd ref="41638180"/>
    <nd ref="245926704"/>
    <tag k="highway" v="residential"/>
    <tag k="name" v="Cooney Street"/>
    <tag k="restriction" v="school_zone"/>
    <tag k="source" v="survey"/>
  </way>
  <way id="64671030" version="2" timestamp="2010-07-08T00:25:13Z" uid="74617" user="JohnSmith" changeset="5162525">
    <nd ref="41638180"/>
    <nd ref="245926704"/>
    <tag k="highway" v="residential"/>
    <tag k="maxspeed" v="50"/>
    <tag k="maxspeed:source" v="default residential speed limit in Australia"/>
    <tag k="name" v="Cooney Street"/>
    <tag k="restriction" v="school_zone"/>
    <tag k="source" v="survey"/>
  </way>
</osm>
