<?xml version='1.0' encoding='UTF-8'?>
<osm version="0.6" generator="libosmium/2.20.0">
  <way id="64724834" version="3" timestamp="2011-01-12T16:31:16Z" uid="115477" user="wowik" changeset="6948828">
    <nd ref="794257987"/>
    <nd ref="794257992"/>
    <nd ref="794257995"/>
    <nd ref="794257998"/>
    <nd ref="794257987"/>
    <tag k="addr:city" v="Зеленоград"/>
    <tag k="addr:housenumber" v="1434"/>
    <tag k="addr:street" v="14-й Микрорайон"/>
    <tag k="building" v="yes"/>
    <tag k="is_in" v="Russia"/>
  </way>
  <way id="64724932" version="2" timestamp="2010-07-09T06:35:39Z" uid="74617" user="JohnSmith" changeset="5171134">
    <nd ref="89045018"/>
    <nd ref="794258314"/>
    <tag k="highway" v="residential"/>
    <tag k="maxspeed" v="50"/>
    <tag k="maxspeed:source" v="default residential speed limit in Australia"/>
    <tag k="name" v="Park Terrace"/>
    <tag k="source" v="nearmap"/>
  </way>
  <way id="64724934" version="2" timestamp="2010-07-09T06:39:16Z" uid="74617" user="JohnSmith" changeset="5171134">
    <nd ref="727382305"/>
    <nd ref="452520752"/>
    <nd ref="452520762"/>
    <nd ref="452520764"/>
    <nd ref="794258307"/>
    <nd ref="794258316"/>
    <nd ref="452520766"/>
    <nd ref="794258306"/>
    <nd ref="794258312"/>
    <nd ref="794258309"/>
    <tag k="highway" v="residential"/>
    <tag k="maxspeed" v="50"/>
    <tag k="maxspeed:source" v="default residential speed limit in Australia"/>
    <tag k="name" v="Gilbert Street"/>
    <tag k="source" v="nearmap"/>
  </way>
</osm>
