<?xml version='1.0' encoding='UTF-8'?>
<osm version="0.6" generator="libosmium/2.20.0">
  <way id="65137010" version="3" timestamp="2010-08-17T03:07:35Z" uid="4467" user="Rosscoe" changeset="5514237"/>
  <way id="65137033" version="3" timestamp="2010-08-17T03:07:38Z" uid="4467" user="Rosscoe" changeset="5514237"/>
  <way id="65137037" version="3" timestamp="2010-08-17T03:07:40Z" uid="4467" user="Rosscoe" changeset="5514237"/>
  <way id="65137082" version="3" timestamp="2011-04-20T11:18:51Z" uid="115477" user="wowik" changeset="7915124">
    <nd ref="797142962"/>
    <nd ref="797142963"/>
    <nd ref="797142964"/>
    <nd ref="797142967"/>
    <nd ref="797142962"/>
    <tag k="addr:city" v="Москва"/>
    <tag k="addr:country" v="RU"/>
    <tag k="addr:housenumber" v="5"/>
    <tag k="addr:street" v="Леонтьевский переулок"/>
    <tag k="building" v="yes"/>
  </way>
  <way id="65137207" version="3" timestamp="2011-04-20T12:57:33Z" uid="115477" user="wowik" changeset="7916018">
    <nd ref="797147695"/>
    <nd ref="797147698"/>
    <nd ref="797147699"/>
    <nd ref="797147701"/>
    <nd ref="797147695"/>
    <tag k="addr:city" v="Москва"/>
    <tag k="addr:country" v="RU"/>
    <tag k="addr:housenumber" v="8"/>
    <tag k="addr:street" v="Леонтьевский переулок"/>
    <tag k="building" v="yes"/>
  </way>
  <way id="65137208" version="3" timestamp="2011-04-20T07:31:01Z" uid="115477" user="wowik" changeset="7913535">
    <nd ref="797147724"/>
    <nd ref="797147730"/>
    <nd ref="797147734"/>
    <nd ref="797147739"/>
    <nd ref="797147744"/>
    <nd ref="797147751"/>
    <nd ref="797147724"/>
    <tag k="addr:city" v="Москва"/>
    <tag k="addr:country" v="RU"/>
    <tag k="addr:housenumber" v="4"/>
    <tag k="addr:street" v="Леонтьевский переулок"/>
    <tag k="building" v="yes"/>
    <tag k="name" v="Посольство Греции"/>
  </way>
  <way id="65137483" version="2" timestamp="2010-07-09T05:12:37Z" uid="74617" user="JohnSmith" changeset="5170986">
    <nd ref="797152602"/>
    <nd ref="317503762"/>
    <nd ref="317503763"/>
    <nd ref="317503774"/>
    <nd ref="317503764"/>
    <nd ref="317503765"/>
    <tag k="highway" v="residential"/>
    <tag k="maxspeed" v="50"/>
    <tag k="maxspeed:source" v="default residential speed limit in Australia"/>
    <tag k="name" v="Kalonga Road"/>
    <tag k="source" v="MMBW"/>
  </way>
  <way id="65137566" version="2" timestamp="2010-07-09T05:16:08Z" uid="74617" user="JohnSmith" changeset="5170986">
    <nd ref="797152602"/>
    <nd ref="797152605"/>
    <nd ref="797152606"/>
    <nd ref="797152607"/>
    <tag k="highway" v="residential"/>
    <tag k="maxspeed" v="50"/>
    <tag k="maxspeed:source" v="default residential speed limit in Australia"/>
    <tag k="name" v="Kalonga Road"/>
    <tag k="oneway" v="yes"/>
    <tag k="source" v="MMBW"/>
  </way>
</osm>
