<?xml version='1.0' encoding='UTF-8'?>
<osm version="0.6" generator="libosmium/2.20.0">
  <way id="65234778" version="1" timestamp="2010-06-30T21:45:52Z" uid="49111" user="Markus B" changeset="5117063">
    <nd ref="797671785"/>
    <nd ref="797671788"/>
    <nd ref="797671787"/>
    <nd ref="797671786"/>
    <nd ref="797671785"/>
    <tag k="addr:city" v="Nürnberg"/>
    <tag k="addr:country" v="DE"/>
    <tag k="addr:housenumber" v="53"/>
    <tag k="addr:postcode" v="90482"/>
    <tag k="addr:street" v="Laufamholzstraße"/>
    <tag k="building" v="yes"/>
  </way>
  <way id="65234778" version="3" timestamp="2010-09-30T20:47:10Z" uid="49111" user="Markus B" changeset="5923459">
    <nd ref="797671785"/>
    <nd ref="797671788"/>
    <nd ref="797671787"/>
    <nd ref="797671786"/>
    <nd ref="797671785"/>
    <tag k="addr:city" v="Nürnberg"/>
    <tag k="addr:country" v="DE"/>
    <tag k="addr:housenumber" v="53"/>
    <tag k="addr:postcode" v="90482"/>
    <tag k="addr:street" v="Laufamholzstraße"/>
    <tag k="amenity" v="pub"/>
    <tag k="building" v="yes"/>
    <tag k="name" v="Zum Kutscher"/>
    <tag k="phone" v="+49 911 5460428"/>
    <tag k="smoking" v="no"/>
  </way>
  <way id="65234779" version="1" timestamp="2010-06-30T21:45:52Z" uid="49111" user="Markus B" changeset="5117063">
    <nd ref="797671792"/>
    <nd ref="797671794"/>
    <nd ref="797671795"/>
    <nd ref="797671793"/>
    <nd ref="797671792"/>
    <tag k="addr:city" v="Nürnberg"/>
    <tag k="addr:country" v="DE"/>
    <tag k="addr:housenumber" v="300"/>
    <tag k="addr:postcode" v="90482"/>
    <tag k="addr:street" v="Laufamholzstraße"/>
    <tag k="amenity" v="restaurant"/>
    <tag k="building" v="yes"/>
    <tag k="cuisine" v="regional;balkans"/>
    <tag k="internet_access" v="wlan"/>
    <tag k="name" v="Zur Hammerschmiede"/>
    <tag k="phone" v="+49-911-502277"/>
    <tag k="smoking" v="no"/>
    <tag k="smoking:outside" v="yes"/>
    <tag k="tourism" v="guest_house"/>
    <tag k="website" v="http://restaurant-zur-hammerschmiede.de"/>
  </way>
  <way id="65234780" version="1" timestamp="2010-06-30T21:45:52Z" uid="49111" user="Markus B" changeset="5117063">
    <nd ref="797671797"/>
    <nd ref="797671796"/>
    <nd ref="797671791"/>
    <nd ref="797671790"/>
    <nd ref="797671797"/>
    <tag k="amenity" v="biergarten"/>
    <tag k="opening_hours" v="Mi-Mo 11:30-14:00 17:00-22:00; Di off"/>
    <tag k="smoking" v="yes"/>
  </way>
</osm>
