<?xml version='1.0' encoding='UTF-8'?>
<osm version="0.6" generator="libosmium/2.20.0">
  <way id="65286214" version="2" timestamp="2010-10-17T12:24:11Z" uid="43967" user="railsnail" changeset="6066382">
    <nd ref="463545545"/>
    <nd ref="206379385"/>
    <nd ref="710491100"/>
    <nd ref="954522913"/>
    <nd ref="20824646"/>
    <tag k="admin_level" v="8"/>
    <tag k="boundary" v="administrative"/>
    <tag k="highway" v="primary"/>
    <tag k="name" v="Drautal StraÃŸe"/>
    <tag k="ref" v="B100"/>
  </way>
  <way id="65286276" version="2" timestamp="2010-11-29T20:47:33Z" uid="43967" user="railsnail" changeset="6489725">
    <nd ref="299755346"/>
    <nd ref="1012759794"/>
    <nd ref="1012759711"/>
    <nd ref="1012759688"/>
    <nd ref="299755175"/>
    <nd ref="1012759730"/>
    <nd ref="798117073"/>
    <tag k="name" v="Wartschenbach"/>
    <tag k="source" v="landsat"/>
    <tag k="waterway" v="stream"/>
  </way>
  <way id="65286276" version="3" timestamp="2010-11-29T21:02:09Z" uid="43967" user="railsnail" changeset="6489851">
    <nd ref="299755346"/>
    <nd ref="1012759794"/>
    <nd ref="1012759711"/>
    <nd ref="1012759688"/>
    <nd ref="299755175"/>
    <nd ref="1012759730"/>
    <nd ref="1012771246"/>
    <nd ref="798117073"/>
    <tag k="name" v="Wartschenbach"/>
    <tag k="source" v="landsat"/>
    <tag k="waterway" v="stream"/>
  </way>
</osm>
