<?xml version='1.0' encoding='UTF-8'?>
<osm version="0.6" generator="libosmium/2.20.0">
  <way id="65413515" version="1" timestamp="2010-07-01T20:39:31Z" uid="49111" user="Markus B" changeset="5123579">
    <nd ref="798819835"/>
    <nd ref="798819836"/>
    <nd ref="798819838"/>
    <nd ref="798819837"/>
    <nd ref="798819835"/>
    <tag k="amenity" v="biergarten"/>
    <tag k="smoking" v="yes"/>
  </way>
  <way id="65413516" version="1" timestamp="2010-07-01T20:39:31Z" uid="49111" user="Markus B" changeset="5123579">
    <nd ref="798819843"/>
    <nd ref="798819844"/>
    <nd ref="798819845"/>
    <nd ref="798819846"/>
    <nd ref="798819843"/>
    <tag k="amenity" v="biergarten"/>
    <tag k="name" v="KON TIKI"/>
  </way>
  <way id="65413516" version="2" timestamp="2010-07-03T19:21:06Z" uid="49111" user="Markus B" changeset="5127266">
    <nd ref="798819843"/>
    <nd ref="798819844"/>
    <nd ref="798819845"/>
    <nd ref="798819846"/>
    <nd ref="798819843"/>
    <tag k="amenity" v="biergarten"/>
    <tag k="name" v="KON TIKI"/>
    <tag k="smoking" v="no"/>
  </way>
  <way id="65413517" version="1" timestamp="2010-07-01T20:39:31Z" uid="49111" user="Markus B" changeset="5123579">
    <nd ref="798819851"/>
    <nd ref="798819853"/>
    <nd ref="798819852"/>
    <nd ref="798819849"/>
    <nd ref="798819851"/>
    <tag k="amenity" v="biergarten"/>
    <tag k="name" v="CafÃ© Lucas"/>
    <tag k="smoking" v="yes"/>
  </way>
  <way id="65413893" version="1" timestamp="2010-07-01T20:53:31Z" uid="164966" user="linuss1" changeset="5123662">
    <nd ref="798823724"/>
    <nd ref="798823723"/>
    <tag k="highway" v="residential"/>
    <tag k="name" v="Siedlerweg"/>
  </way>
</osm>
