<?xml version='1.0' encoding='UTF-8'?>
<osm version="0.6" generator="libosmium/2.20.0">
  <way id="65504462" version="1" timestamp="2010-07-03T19:37:20Z" uid="6269" user="Mueck" changeset="5127108">
    <nd ref="14959797"/>
    <nd ref="25931403"/>
    <nd ref="25931402"/>
    <nd ref="26556866"/>
    <nd ref="25931404"/>
    <tag k="bicycle" v="yes"/>
    <tag k="foot" v="yes"/>
    <tag k="highway" v="track"/>
    <tag k="name" v="Karl-Knierer-Weg"/>
    <tag k="smoothness" v="intermediate"/>
    <tag k="surface" v="compacted"/>
    <tag k="tracktype" v="grade2"/>
  </way>
  <way id="65504471" version="1" timestamp="2010-07-03T19:37:23Z" uid="6269" user="Mueck" changeset="5127108">
    <nd ref="14959797"/>
    <nd ref="25971889"/>
    <tag k="bicycle" v="yes"/>
    <tag k="foot" v="yes"/>
    <tag k="highway" v="service"/>
    <tag k="name" v="Linkenheimer Allee"/>
    <tag k="smoothness" v="good"/>
    <tag k="surface" v="asphalt"/>
  </way>
  <way id="65504520" version="1" timestamp="2010-07-03T19:37:45Z" uid="6269" user="Mueck" changeset="5127108">
    <nd ref="17069121"/>
    <nd ref="381078695"/>
    <nd ref="25967655"/>
    <nd ref="14954528"/>
    <nd ref="258537317"/>
    <nd ref="14959797"/>
    <nd ref="25971889"/>
    <tag k="bicycle" v="yes"/>
    <tag k="foot" v="yes"/>
    <tag k="highway" v="service"/>
    <tag k="name" v="Linkenheimer Allee"/>
    <tag k="smoothness" v="good"/>
    <tag k="surface" v="asphalt"/>
  </way>
</osm>
