<?xml version='1.0' encoding='UTF-8'?>
<osm version="0.6" generator="libosmium/2.20.0">
  <way id="65634673" version="2" timestamp="2010-12-14T18:13:57Z" uid="107674" user="GeoCounter" changeset="6660768">
    <nd ref="800374936"/>
    <nd ref="800374925"/>
    <nd ref="800374955"/>
    <nd ref="800374923"/>
    <nd ref="800374951"/>
    <nd ref="800374931"/>
    <nd ref="800374921"/>
    <nd ref="800374929"/>
    <nd ref="800374958"/>
    <nd ref="800374928"/>
    <nd ref="800374956"/>
    <nd ref="800374924"/>
    <nd ref="800374953"/>
    <nd ref="800374933"/>
    <nd ref="800374936"/>
    <tag k="addr:city" v="Heusenstamm"/>
    <tag k="addr:housenumber" v="80"/>
    <tag k="addr:postcode" v="63150"/>
    <tag k="addr:street" v="Frankfurter Straße"/>
    <tag k="amenity" v="place_of_worship"/>
    <tag k="building" v="yes"/>
    <tag k="contact:website" v="http://www.evkirche-heusenstamm.de/"/>
    <tag k="denomination" v="protestant"/>
    <tag k="name" v="Gustav Adolf Kirche"/>
    <tag k="operator" v="Ev. Kirchengemeinde Heusenstamm"/>
    <tag k="religion" v="christian"/>
    <tag k="service_times" v="Su 10:00"/>
  </way>
  <way id="65634673" version="3" timestamp="2010-12-14T22:19:32Z" uid="107674" user="GeoCounter" changeset="6663250">
    <nd ref="800374936"/>
    <nd ref="800374925"/>
    <nd ref="800374955"/>
    <nd ref="800374923"/>
    <nd ref="800374951"/>
    <nd ref="800374931"/>
    <nd ref="800374921"/>
    <nd ref="800374929"/>
    <nd ref="800374958"/>
    <nd ref="800374928"/>
    <nd ref="800374956"/>
    <nd ref="800374924"/>
    <nd ref="800374953"/>
    <nd ref="800374933"/>
    <nd ref="800374936"/>
    <tag k="addr:city" v="Heusenstamm"/>
    <tag k="addr:housenumber" v="80"/>
    <tag k="addr:postcode" v="63150"/>
    <tag k="addr:street" v="Frankfurter Straße"/>
    <tag k="amenity" v="place_of_worship"/>
    <tag k="building" v="yes"/>
    <tag k="contact:website" v="http://www.evkirche-heusenstamm.de/"/>
    <tag k="denomination" v="protestant"/>
    <tag k="name" v="Gustav Adolf Kirche"/>
    <tag k="operator" v="Ev. Kirchengemeinde Heusenstamm"/>
    <tag k="religion" v="christian"/>
    <tag k="service_times" v="Su 10:00; Su[1] 10:00 &quot;Gottesdienst mit Kinderkirche&quot;"/>
  </way>
  <way id="65634673" version="4" timestamp="2011-06-17T18:59:07Z" uid="107674" user="GeoCounter" changeset="8467445">
    <nd ref="800374936"/>
    <nd ref="1328800864"/>
    <nd ref="800374925"/>
    <nd ref="800374955"/>
    <nd ref="800374923"/>
    <nd ref="800374951"/>
    <nd ref="800374931"/>
    <nd ref="800374921"/>
    <nd ref="800374929"/>
    <nd ref="800374958"/>
    <nd ref="800374928"/>
    <nd ref="800374956"/>
    <nd ref="800374924"/>
    <nd ref="800374953"/>
    <nd ref="800374933"/>
    <nd ref="800374936"/>
    <tag k="addr:city" v="Heusenstamm"/>
    <tag k="addr:housenumber" v="80"/>
    <tag k="addr:postcode" v="63150"/>
    <tag k="addr:street" v="Frankfurter Straße"/>
    <tag k="amenity" v="place_of_worship"/>
    <tag k="building" v="yes"/>
    <tag k="contact:website" v="http://www.evkirche-heusenstamm.de/"/>
    <tag k="denomination" v="protestant"/>
    <tag k="name" v="Gustav Adolf Kirche"/>
    <tag k="operator" v="Ev. Kirchengemeinde Heusenstamm"/>
    <tag k="religion" v="christian"/>
    <tag k="service_times" v="Su 10:00; Su[1] 10:00 &quot;Gottesdienst mit Kinderkirche&quot;"/>
  </way>
</osm>
