<?xml version='1.0' encoding='UTF-8'?>
<osm version="0.6" generator="libosmium/2.20.0">
  <way id="65652273" version="1" timestamp="2010-07-04T13:24:22Z" uid="49111" user="Markus B" changeset="5132857">
    <nd ref="800462051"/>
    <nd ref="800462039"/>
    <nd ref="800462041"/>
    <nd ref="800462040"/>
    <nd ref="800462045"/>
    <nd ref="800462042"/>
    <nd ref="800462044"/>
    <nd ref="800462043"/>
    <nd ref="800462051"/>
    <tag k="building" v="yes"/>
  </way>
  <way id="65652273" version="2" timestamp="2011-01-26T16:08:35Z" uid="49111" user="Markus B" changeset="7094782">
    <nd ref="800462051"/>
    <nd ref="800462039"/>
    <nd ref="800462041"/>
    <nd ref="800462040"/>
    <nd ref="800462045"/>
    <nd ref="800462042"/>
    <nd ref="800462044"/>
    <nd ref="800462043"/>
    <nd ref="800462051"/>
    <tag k="amenity" v="restaurant"/>
    <tag k="building" v="yes"/>
    <tag k="name" v="Strandhaus"/>
  </way>
  <way id="65652274" version="1" timestamp="2010-07-04T13:24:22Z" uid="49111" user="Markus B" changeset="5132857">
    <nd ref="800462053"/>
    <nd ref="800462054"/>
    <nd ref="800462046"/>
    <nd ref="800462055"/>
    <nd ref="800462053"/>
    <tag k="building" v="yes"/>
    <tag k="name" v="Yacht-Club Noris"/>
  </way>
  <way id="65652274" version="2" timestamp="2011-01-20T19:35:01Z" uid="49111" user="Markus B" changeset="7033817">
    <nd ref="800462053"/>
    <nd ref="800462054"/>
    <nd ref="800462046"/>
    <nd ref="800462055"/>
    <nd ref="800462053"/>
    <tag k="addr:city" v="Nürnberg"/>
    <tag k="addr:country" v="DE"/>
    <tag k="addr:housenumber" v="134"/>
    <tag k="addr:postcode" v="90478"/>
    <tag k="addr:street" v="Bayernstraße"/>
    <tag k="building" v="yes"/>
    <tag k="email" v="info@ycn.de"/>
    <tag k="name" v="Yacht-Club Noris e.V."/>
    <tag k="phone" v="+49 911 403130"/>
    <tag k="website" v="www.ycn.de"/>
  </way>
  <way id="65652274" version="3" timestamp="2011-01-26T16:08:36Z" uid="49111" user="Markus B" changeset="7094782">
    <nd ref="800462053"/>
    <nd ref="1121967768"/>
    <nd ref="800462054"/>
    <nd ref="1121967813"/>
    <nd ref="800462046"/>
    <nd ref="800462055"/>
    <nd ref="800462053"/>
    <tag k="addr:city" v="Nürnberg"/>
    <tag k="addr:country" v="DE"/>
    <tag k="addr:housenumber" v="134"/>
    <tag k="addr:postcode" v="90478"/>
    <tag k="addr:street" v="Bayernstraße"/>
    <tag k="building" v="yes"/>
    <tag k="email" v="info@ycn.de"/>
    <tag k="name" v="Yacht-Club Noris e.V."/>
    <tag k="phone" v="+49 911 403130"/>
    <tag k="website" v="www.ycn.de"/>
  </way>
  <way id="65652444" version="2" timestamp="2010-07-07T19:25:44Z" uid="74617" user="JohnSmith" changeset="5161069">
    <nd ref="800462721"/>
    <nd ref="800462722"/>
    <nd ref="800462725"/>
    <tag k="highway" v="residential"/>
    <tag k="maxspeed" v="50"/>
    <tag k="maxspeed:source" v="default residential speed limit in Australia"/>
    <tag k="name" v="Marchant Crescent"/>
  </way>
  <way id="65652471" version="2" timestamp="2010-07-07T19:26:50Z" uid="74617" user="JohnSmith" changeset="5161069">
    <nd ref="800462773"/>
    <nd ref="800462774"/>
    <nd ref="800462775"/>
    <tag k="highway" v="residential"/>
    <tag k="maxspeed" v="50"/>
    <tag k="maxspeed:source" v="default residential speed limit in Australia"/>
    <tag k="name" v="Mackenzie Avenue"/>
  </way>
  <way id="65652731" version="2" timestamp="2010-07-07T19:28:07Z" uid="74617" user="JohnSmith" changeset="5161069">
    <nd ref="259746493"/>
    <nd ref="800463434"/>
    <tag k="highway" v="residential"/>
    <tag k="maxspeed" v="50"/>
    <tag k="maxspeed:source" v="default residential speed limit in Australia"/>
    <tag k="name" v="Jarman Place"/>
  </way>
  <way id="65652807" version="2" timestamp="2010-07-07T19:25:02Z" uid="74617" user="JohnSmith" changeset="5161069">
    <nd ref="262922813"/>
    <nd ref="800463579"/>
    <tag k="highway" v="residential"/>
    <tag k="maxspeed" v="50"/>
    <tag k="maxspeed:source" v="default residential speed limit in Australia"/>
    <tag k="name" v="Moras Place"/>
  </way>
</osm>
