<?xml version='1.0' encoding='UTF-8'?>
<osm version="0.6" generator="libosmium/2.20.0">
  <way id="65955055" version="1" timestamp="2010-07-05T04:54:37Z" uid="244897" user="M526244" changeset="5138783">
    <nd ref="243794640"/>
    <nd ref="243794642"/>
    <tag k="bridge" v="yes"/>
    <tag k="highway" v="secondary"/>
    <tag k="layer" v="1"/>
    <tag k="name" v="Granuaille Street"/>
  </way>
  <way id="65955690" version="1" timestamp="2010-07-05T04:56:03Z" uid="244897" user="M526244" changeset="5138783">
    <nd ref="801684938"/>
    <nd ref="801684939"/>
    <nd ref="801684940"/>
    <nd ref="801684942"/>
    <nd ref="801685068"/>
    <tag k="highway" v="residential"/>
    <tag k="name" v="Station Street"/>
    <tag k="source" v="survey"/>
  </way>
  <way id="65955750" version="1" timestamp="2010-07-05T04:57:22Z" uid="244897" user="M526244" changeset="5138783">
    <nd ref="801685068"/>
    <nd ref="801685980"/>
    <nd ref="801685981"/>
    <nd ref="801685982"/>
    <nd ref="801685983"/>
    <tag k="highway" v="residential"/>
    <tag k="name" v="Deacon Street"/>
    <tag k="source" v="survey"/>
  </way>
  <way id="65955751" version="1" timestamp="2010-07-05T04:57:22Z" uid="244897" user="M526244" changeset="5138783">
    <nd ref="801685984"/>
    <nd ref="801685985"/>
    <nd ref="801685983"/>
    <nd ref="801685986"/>
    <nd ref="801685987"/>
    <tag k="highway" v="residential"/>
    <tag k="name" v="Ashton Street"/>
  </way>
  <way id="65955752" version="1" timestamp="2010-07-05T04:57:31Z" uid="244897" user="M526244" changeset="5138783">
    <nd ref="801685988"/>
    <nd ref="801685989"/>
    <nd ref="801686010"/>
    <nd ref="801686012"/>
    <nd ref="801686013"/>
    <nd ref="801686015"/>
    <nd ref="801686021"/>
    <nd ref="801686023"/>
    <nd ref="801686025"/>
    <nd ref="801686027"/>
    <nd ref="801686029"/>
    <nd ref="801686031"/>
    <nd ref="801686033"/>
    <nd ref="801686035"/>
    <nd ref="801686037"/>
    <nd ref="801686039"/>
    <nd ref="801686041"/>
    <tag k="highway" v="residential"/>
    <tag k="name" v="Ballina Road"/>
    <tag k="source" v="survey"/>
  </way>
</osm>
