<?xml version='1.0' encoding='UTF-8'?>
<osm version="0.6" generator="libosmium/2.20.0">
  <way id="66314623" version="1" timestamp="2010-07-06T14:12:04Z" uid="8619" user="cetest" changeset="5150864">
    <nd ref="44847484"/>
    <nd ref="44849292"/>
    <tag k="access" v="private"/>
    <tag k="bicycle" v="yes"/>
    <tag k="foot" v="yes"/>
    <tag k="highway" v="cycleway"/>
    <tag k="name" v="Oude Langendijk"/>
    <tag k="note" v="fietspad met toegang voor bussen"/>
    <tag k="psv" v="yes"/>
  </way>
  <way id="66314624" version="1" timestamp="2010-07-06T14:12:05Z" uid="8619" user="cetest" changeset="5150864">
    <nd ref="44857298"/>
    <nd ref="793931314"/>
    <tag k="AND:importance_level" v="2"/>
    <tag k="AND_nosr_r" v="15079676"/>
    <tag k="cycleway" v="lane"/>
    <tag k="highway" v="secondary"/>
    <tag k="maxspeed" v="50"/>
    <tag k="name" v="Stalpaert van der Wieleweg"/>
  </way>
  <way id="66314625" version="1" timestamp="2010-07-06T14:12:05Z" uid="8619" user="cetest" changeset="5150864">
    <nd ref="564954628"/>
    <nd ref="564954630"/>
    <nd ref="44851593"/>
    <tag k="access" v="private"/>
    <tag k="bicycle" v="yes"/>
    <tag k="highway" v="unclassified"/>
    <tag k="name" v="Oude Langendijk"/>
    <tag k="note" v="autoluw"/>
    <tag k="oneway" v="yes"/>
    <tag k="psv" v="yes"/>
  </way>
  <way id="66314626" version="1" timestamp="2010-07-06T14:12:05Z" uid="8619" user="cetest" changeset="5150864">
    <nd ref="793931314"/>
    <nd ref="667470899"/>
    <tag k="AND:importance_level" v="2"/>
    <tag k="AND_nosr_r" v="15079676"/>
    <tag k="cycleway" v="lane"/>
    <tag k="highway" v="secondary"/>
    <tag k="maxspeed" v="50"/>
    <tag k="name" v="Stalpaert van der Wieleweg"/>
  </way>
  <way id="66314628" version="1" timestamp="2010-07-06T14:12:06Z" uid="8619" user="cetest" changeset="5150864">
    <nd ref="44860346"/>
    <nd ref="803821906"/>
    <nd ref="803821903"/>
    <nd ref="44862990"/>
    <tag k="highway" v="cycleway"/>
    <tag k="name" v="koepoortweg"/>
    <tag k="note" v="FIXME temp route while garage is build"/>
  </way>
  <way id="66314629" version="1" timestamp="2010-07-06T14:12:06Z" uid="8619" user="cetest" changeset="5150864">
    <nd ref="44860729"/>
    <nd ref="44861857"/>
    <nd ref="44862990"/>
    <tag k="AND:importance_level" v="2"/>
    <tag k="AND_nosr_r" v="15079676"/>
    <tag k="cycleway" v="lane"/>
    <tag k="highway" v="secondary"/>
    <tag k="name" v="Stalpaert van der Wieleweg"/>
  </way>
</osm>
