<?xml version='1.0' encoding='UTF-8'?>
<osm version="0.6" generator="libosmium/2.20.0">
  <way id="66438106" version="3" timestamp="2010-07-08T17:02:03Z" uid="74617" user="JohnSmith" changeset="5167338">
    <nd ref="804792420"/>
    <nd ref="804792431"/>
    <tag k="highway" v="residential"/>
    <tag k="maxspeed" v="50"/>
    <tag k="maxspeed:source" v="default residential speed limit in Australia"/>
    <tag k="name" v="Castlereagh Close"/>
    <tag k="source" v="GPS"/>
  </way>
  <way id="66438108" version="3" timestamp="2010-07-08T17:02:14Z" uid="74617" user="JohnSmith" changeset="5167338">
    <nd ref="804792409"/>
    <nd ref="804792418"/>
    <nd ref="804792390"/>
    <nd ref="804792403"/>
    <tag k="highway" v="residential"/>
    <tag k="maxspeed" v="50"/>
    <tag k="maxspeed:source" v="default residential speed limit in Australia"/>
    <tag k="name" v="Waikato Court"/>
    <tag k="source" v="GPS"/>
  </way>
  <way id="66438109" version="3" timestamp="2010-07-08T17:02:01Z" uid="74617" user="JohnSmith" changeset="5167338">
    <nd ref="804792407"/>
    <nd ref="804792452"/>
    <tag k="highway" v="residential"/>
    <tag k="maxspeed" v="50"/>
    <tag k="maxspeed:source" v="default residential speed limit in Australia"/>
    <tag k="name" v="Marlee Court"/>
    <tag k="source" v="GPS"/>
  </way>
  <way id="66438110" version="3" timestamp="2010-07-08T17:02:20Z" uid="74617" user="JohnSmith" changeset="5167338">
    <nd ref="804792406"/>
    <nd ref="804792407"/>
    <nd ref="804792429"/>
    <nd ref="804792427"/>
    <nd ref="804792393"/>
    <nd ref="804792398"/>
    <nd ref="804792414"/>
    <nd ref="804792409"/>
    <nd ref="502859735"/>
    <tag k="highway" v="residential"/>
    <tag k="maxspeed" v="50"/>
    <tag k="maxspeed:source" v="default residential speed limit in Australia"/>
    <tag k="name" v="McGregors Road"/>
    <tag k="source" v="GPS"/>
  </way>
  <way id="66438112" version="3" timestamp="2010-07-08T17:02:13Z" uid="74617" user="JohnSmith" changeset="5167338">
    <nd ref="804792425"/>
    <nd ref="804792441"/>
    <tag k="highway" v="residential"/>
    <tag k="maxspeed" v="50"/>
    <tag k="maxspeed:source" v="default residential speed limit in Australia"/>
    <tag k="name" v="Alice Place"/>
    <tag k="source" v="GPS"/>
  </way>
  <way id="66438113" version="3" timestamp="2010-07-08T17:01:58Z" uid="74617" user="JohnSmith" changeset="5167338">
    <nd ref="804792448"/>
    <nd ref="804792443"/>
    <nd ref="804792417"/>
    <tag k="highway" v="residential"/>
    <tag k="maxspeed" v="50"/>
    <tag k="maxspeed:source" v="default residential speed limit in Australia"/>
    <tag k="name" v="Walker Court"/>
    <tag k="source" v="GPS"/>
  </way>
  <way id="66438114" version="3" timestamp="2010-07-08T17:02:19Z" uid="74617" user="JohnSmith" changeset="5167338">
    <nd ref="804792459"/>
    <nd ref="804792425"/>
    <nd ref="804792411"/>
    <nd ref="804792395"/>
    <nd ref="804792447"/>
    <nd ref="804792456"/>
    <tag k="highway" v="residential"/>
    <tag k="maxspeed" v="50"/>
    <tag k="maxspeed:source" v="default residential speed limit in Australia"/>
    <tag k="name" v="Wesak Drive"/>
    <tag k="source" v="GPS"/>
  </way>
  <way id="66438115" version="3" timestamp="2010-07-08T17:02:07Z" uid="74617" user="JohnSmith" changeset="5167338">
    <nd ref="804792429"/>
    <nd ref="804792448"/>
    <nd ref="804792461"/>
    <nd ref="804792432"/>
    <tag k="highway" v="residential"/>
    <tag k="maxspeed" v="50"/>
    <tag k="maxspeed:source" v="default residential speed limit in Australia"/>
    <tag k="name" v="Tozer Road"/>
    <tag k="source" v="GPS"/>
  </way>
  <way id="66438117" version="3" timestamp="2010-07-08T17:02:17Z" uid="74617" user="JohnSmith" changeset="5167338">
    <nd ref="804792411"/>
    <nd ref="804792422"/>
    <nd ref="804792392"/>
    <tag k="highway" v="residential"/>
    <tag k="maxspeed" v="50"/>
    <tag k="maxspeed:source" v="default residential speed limit in Australia"/>
    <tag k="name" v="Ruby Place"/>
    <tag k="source" v="GPS"/>
  </way>
  <way id="66438118" version="3" timestamp="2010-07-08T17:02:04Z" uid="74617" user="JohnSmith" changeset="5167338">
    <nd ref="804792393"/>
    <nd ref="804792445"/>
    <nd ref="804792454"/>
    <nd ref="804792424"/>
    <nd ref="804792434"/>
    <tag k="highway" v="residential"/>
    <tag k="maxspeed" v="50"/>
    <tag k="maxspeed:source" v="default residential speed limit in Australia"/>
    <tag k="name" v="Whitehead Court"/>
    <tag k="source" v="GPS"/>
  </way>
  <way id="66438119" version="3" timestamp="2010-07-08T17:02:24Z" uid="74617" user="JohnSmith" changeset="5167338">
    <nd ref="804792427"/>
    <nd ref="804792396"/>
    <nd ref="804792413"/>
    <nd ref="804792458"/>
    <tag k="highway" v="residential"/>
    <tag k="maxspeed" v="50"/>
    <tag k="maxspeed:source" v="default residential speed limit in Australia"/>
    <tag k="name" v="Armstrong Grove"/>
    <tag k="source" v="GPS"/>
  </way>
  <way id="66438120" version="3" timestamp="2010-07-08T17:02:09Z" uid="74617" user="JohnSmith" changeset="5167338">
    <nd ref="804792418"/>
    <nd ref="804792451"/>
    <tag k="highway" v="residential"/>
    <tag k="maxspeed" v="50"/>
    <tag k="maxspeed:source" v="default residential speed limit in Australia"/>
    <tag k="name" v="Jandas Court"/>
    <tag k="source" v="GPS"/>
  </way>
  <way id="66438122" version="3" timestamp="2010-07-08T17:02:17Z" uid="74617" user="JohnSmith" changeset="5167338">
    <nd ref="238699586"/>
    <nd ref="804792459"/>
    <nd ref="804792406"/>
    <tag k="highway" v="residential"/>
    <tag k="maxspeed" v="50"/>
    <tag k="maxspeed:source" v="default residential speed limit in Australia"/>
    <tag k="name" v="McKiernan Road"/>
    <tag k="source" v="GPS"/>
  </way>
</osm>
