<?xml version='1.0' encoding='UTF-8'?>
<osm version="0.6" generator="libosmium/2.20.0">
  <way id="66643553" version="2" timestamp="2010-07-09T07:05:39Z" uid="74617" user="JohnSmith" changeset="5171412">
    <nd ref="730793379"/>
    <nd ref="730793365"/>
    <nd ref="730793387"/>
    <tag k="highway" v="residential"/>
    <tag k="maxspeed" v="50"/>
    <tag k="maxspeed:source" v="default residential speed limit in Australia"/>
  </way>
  <way id="66643675" version="4" timestamp="2010-07-25T21:43:20Z" uid="4467" user="Rosscoe" changeset="5316996">
    <nd ref="806240522"/>
    <nd ref="806240524"/>
    <tag k="bridge" v="yes"/>
    <tag k="highway" v="tertiary"/>
    <tag k="layer" v="1"/>
  </way>
  <way id="66643742" version="2" timestamp="2010-07-09T06:53:53Z" uid="74617" user="JohnSmith" changeset="5171412">
    <nd ref="806242913"/>
    <nd ref="806242916"/>
    <tag k="highway" v="residential"/>
    <tag k="maxspeed" v="50"/>
    <tag k="maxspeed:source" v="default residential speed limit in Australia"/>
    <tag k="name" v="Surflin Court"/>
  </way>
  <way id="66643789" version="2" timestamp="2010-07-08T17:02:08Z" uid="74617" user="JohnSmith" changeset="5167338">
    <nd ref="806244164"/>
    <nd ref="806244165"/>
    <nd ref="806244168"/>
    <nd ref="806244163"/>
    <nd ref="806244166"/>
    <nd ref="806244167"/>
    <tag k="highway" v="residential"/>
    <tag k="maxspeed" v="50"/>
    <tag k="maxspeed:source" v="default residential speed limit in Australia"/>
    <tag k="name" v="Mitchell Street"/>
    <tag k="source" v="GPS"/>
  </way>
  <way id="66643816" version="3" timestamp="2010-07-25T21:43:22Z" uid="4467" user="Rosscoe" changeset="5316996">
    <nd ref="703533535"/>
    <nd ref="703533542"/>
    <tag k="bridge" v="yes"/>
    <tag k="highway" v="tertiary"/>
    <tag k="layer" v="1"/>
    <tag k="name" v="Dairyville Road"/>
    <tag k="source" v="GPS"/>
    <tag k="surface" v="paved"/>
  </way>
  <way id="66643832" version="4" timestamp="2010-07-25T21:43:23Z" uid="4467" user="Rosscoe" changeset="5316996">
    <nd ref="806245337"/>
    <nd ref="703533583"/>
    <tag k="bridge" v="yes"/>
    <tag k="highway" v="tertiary"/>
    <tag k="layer" v="1"/>
    <tag k="name" v="Dairyville Road"/>
    <tag k="source" v="GPS"/>
    <tag k="surface" v="paved"/>
  </way>
  <way id="66643897" version="2" timestamp="2010-07-08T17:02:23Z" uid="74617" user="JohnSmith" changeset="5167338">
    <nd ref="806247147"/>
    <nd ref="806247146"/>
    <tag k="highway" v="residential"/>
    <tag k="maxspeed" v="50"/>
    <tag k="maxspeed:source" v="default residential speed limit in Australia"/>
    <tag k="name" v="Maycarn Court"/>
    <tag k="source" v="GPS"/>
  </way>
  <way id="66643898" version="2" timestamp="2010-07-08T17:02:11Z" uid="74617" user="JohnSmith" changeset="5167338">
    <nd ref="806247145"/>
    <nd ref="806247147"/>
    <tag k="highway" v="residential"/>
    <tag k="maxspeed" v="50"/>
    <tag k="maxspeed:source" v="default residential speed limit in Australia"/>
    <tag k="name" v="Pencoed Road"/>
    <tag k="source" v="GPS"/>
  </way>
  <way id="66643899" version="3" timestamp="2010-07-08T17:01:57Z" uid="74617" user="JohnSmith" changeset="5167338">
    <nd ref="806216650"/>
    <nd ref="806251992"/>
    <nd ref="806247145"/>
    <tag k="highway" v="residential"/>
    <tag k="maxspeed" v="50"/>
    <tag k="maxspeed:source" v="default residential speed limit in Australia"/>
    <tag k="name" v="Taits Road"/>
    <tag k="source" v="GPS"/>
  </way>
  <way id="66643900" version="2" timestamp="2010-07-08T17:02:21Z" uid="74617" user="JohnSmith" changeset="5167338">
    <nd ref="806247143"/>
    <nd ref="806247144"/>
    <tag k="highway" v="residential"/>
    <tag k="maxspeed" v="50"/>
    <tag k="maxspeed:source" v="default residential speed limit in Australia"/>
    <tag k="name" v="Brierly Street"/>
    <tag k="source" v="GPS"/>
  </way>
  <way id="66643901" version="2" timestamp="2010-07-08T17:02:09Z" uid="74617" user="JohnSmith" changeset="5167338">
    <nd ref="806247147"/>
    <nd ref="806247143"/>
    <tag k="highway" v="residential"/>
    <tag k="maxspeed" v="50"/>
    <tag k="maxspeed:source" v="default residential speed limit in Australia"/>
    <tag k="name" v="Pencoed Road"/>
    <tag k="source" v="GPS"/>
  </way>
</osm>
