<?xml version='1.0' encoding='UTF-8'?>
<osm version="0.6" generator="libosmium/2.20.0">
  <way id="66984323" version="1" timestamp="2010-07-10T06:34:45Z" uid="4467" user="Rosscoe" changeset="5179611">
    <nd ref="31433108"/>
    <nd ref="62771800"/>
    <nd ref="31105080"/>
    <nd ref="62772572"/>
    <nd ref="809515390"/>
    <nd ref="809514997"/>
    <nd ref="809514969"/>
    <nd ref="809515522"/>
    <nd ref="809515107"/>
    <tag k="highway" v="primary"/>
    <tag k="maxspeed" v="60"/>
    <tag k="name" v="Maribyrnong Road"/>
    <tag k="oneway" v="yes"/>
    <tag k="ref" v="38"/>
    <tag k="source" v="nearmap"/>
    <tag k="source:name" v="survey"/>
  </way>
  <way id="66984323" version="2" timestamp="2010-10-15T04:39:29Z" uid="4467" user="Rosscoe" changeset="6046168">
    <nd ref="31433108"/>
    <nd ref="62771800"/>
    <nd ref="31105080"/>
    <nd ref="62772572"/>
    <nd ref="809515390"/>
    <tag k="highway" v="primary"/>
    <tag k="maxspeed" v="60"/>
    <tag k="name" v="Maribyrnong Road"/>
    <tag k="oneway" v="yes"/>
    <tag k="ref" v="38"/>
    <tag k="source" v="nearmap"/>
    <tag k="source:name" v="survey"/>
  </way>
  <way id="66984324" version="1" timestamp="2010-07-10T06:34:47Z" uid="4467" user="Rosscoe" changeset="5179611">
    <nd ref="809515365"/>
    <nd ref="809514982"/>
    <nd ref="85316458"/>
    <nd ref="30996669"/>
    <tag k="highway" v="primary"/>
    <tag k="maxspeed" v="60"/>
    <tag k="name" v="Brunswick Road"/>
    <tag k="oneway" v="yes"/>
    <tag k="ref" v="38"/>
  </way>
  <way id="66984325" version="1" timestamp="2010-07-10T06:34:48Z" uid="4467" user="Rosscoe" changeset="5179611">
    <nd ref="30996669"/>
    <nd ref="809515428"/>
    <nd ref="33090341"/>
    <nd ref="31028944"/>
    <tag k="highway" v="primary"/>
    <tag k="maxspeed" v="60"/>
    <tag k="name" v="Brunswick Road"/>
    <tag k="oneway" v="yes"/>
    <tag k="ref" v="38"/>
  </way>
  <way id="66984326" version="1" timestamp="2010-07-10T06:34:49Z" uid="4467" user="Rosscoe" changeset="5179611">
    <nd ref="809515411"/>
    <nd ref="809515054"/>
    <nd ref="809515058"/>
    <tag k="bridge" v="yes"/>
    <tag k="highway" v="primary"/>
    <tag k="layer" v="1"/>
    <tag k="maxspeed" v="60"/>
    <tag k="name" v="Ormond Road"/>
    <tag k="oneway" v="yes"/>
    <tag k="ref" v="38"/>
  </way>
  <way id="66984327" version="1" timestamp="2010-07-10T06:34:50Z" uid="4467" user="Rosscoe" changeset="5179611">
    <nd ref="809515107"/>
    <nd ref="809515039"/>
    <nd ref="809515345"/>
    <nd ref="809515165"/>
    <nd ref="809515029"/>
    <nd ref="809515126"/>
    <nd ref="809515455"/>
    <nd ref="809515300"/>
    <nd ref="809515232"/>
    <nd ref="809515051"/>
    <nd ref="76457099"/>
    <nd ref="809515150"/>
    <nd ref="809515496"/>
    <nd ref="809515017"/>
    <nd ref="809515032"/>
    <nd ref="32886112"/>
    <nd ref="74972344"/>
    <nd ref="809515411"/>
    <tag k="highway" v="primary"/>
    <tag k="maxspeed" v="60"/>
    <tag k="name" v="Ormond Road"/>
    <tag k="oneway" v="yes"/>
    <tag k="ref" v="38"/>
  </way>
  <way id="66984328" version="1" timestamp="2010-07-10T06:34:51Z" uid="4467" user="Rosscoe" changeset="5179611">
    <nd ref="809515058"/>
    <nd ref="809515365"/>
    <tag k="highway" v="primary"/>
    <tag k="maxspeed" v="60"/>
    <tag k="name" v="Ormond Road"/>
    <tag k="oneway" v="yes"/>
    <tag k="ref" v="38"/>
  </way>
  <way id="66984588" version="1" timestamp="2010-07-10T06:55:08Z" uid="4467" user="Rosscoe" changeset="5179736">
    <nd ref="809535265"/>
    <nd ref="306735802"/>
    <nd ref="306735803"/>
    <nd ref="306735804"/>
    <tag k="highway" v="residential"/>
    <tag k="maxspeed" v="50"/>
    <tag k="maxspeed:source" v="default residential speed limit in Australia"/>
    <tag k="name" v="Essex Street"/>
    <tag k="source" v="MMBW"/>
  </way>
  <way id="66984589" version="1" timestamp="2010-07-10T06:55:09Z" uid="4467" user="Rosscoe" changeset="5179736">
    <nd ref="809535265"/>
    <nd ref="277358906"/>
    <tag k="highway" v="residential"/>
    <tag k="maxspeed" v="50"/>
    <tag k="name" v="Essex Street"/>
    <tag k="oneway" v="yes"/>
    <tag k="source" v="nearmap"/>
  </way>
  <way id="66984782" version="2" timestamp="2010-08-11T11:41:29Z" uid="171838" user="argrath" changeset="5462079">
    <nd ref="809550579"/>
    <nd ref="809550591"/>
    <nd ref="809550537"/>
    <nd ref="854497724"/>
    <nd ref="809550592"/>
    <tag k="highway" v="primary"/>
    <tag k="oneway" v="no"/>
    <tag k="ref" v="5"/>
  </way>
  <way id="66984784" version="2" timestamp="2010-08-11T11:41:31Z" uid="171838" user="argrath" changeset="5462079">
    <nd ref="499728728"/>
    <nd ref="809550541"/>
    <tag k="highway" v="road"/>
    <tag k="source" v="NRPB of MLIT Japan"/>
    <tag k="source:ja" v="国土画像情報（オルソ化空中写真）国土交通省"/>
  </way>
  <way id="66984784" version="3" timestamp="2010-12-10T19:01:44Z" uid="171838" user="argrath" changeset="6608463">
    <nd ref="499728728"/>
    <nd ref="1031538880"/>
    <nd ref="1031538883"/>
    <nd ref="809550541"/>
    <tag k="highway" v="tertiary"/>
    <tag k="source" v="Bing"/>
  </way>
</osm>
