<?xml version='1.0' encoding='UTF-8'?>
<osm version="0.6" generator="libosmium/2.20.0">
  <way id="67286663" version="1" timestamp="2010-07-12T02:58:19Z" uid="4467" user="Rosscoe" changeset="5195509">
    <nd ref="93514744"/>
    <nd ref="93814873"/>
    <nd ref="93514761"/>
    <nd ref="102579429"/>
    <nd ref="93514772"/>
    <nd ref="93514773"/>
    <nd ref="93514774"/>
    <nd ref="93514778"/>
    <tag k="highway" v="trunk"/>
    <tag k="is_in" v="Hilton,South Australia,Australia"/>
    <tag k="lanes" v="2"/>
    <tag k="maxspeed" v="60"/>
    <tag k="name" v="South Road"/>
    <tag k="oneway" v="yes"/>
    <tag k="postal_code" v="5033"/>
    <tag k="ref" v="A13"/>
    <tag k="source" v="survey"/>
  </way>
  <way id="67286664" version="1" timestamp="2010-07-12T02:58:20Z" uid="4467" user="Rosscoe" changeset="5195509">
    <nd ref="812666959"/>
    <nd ref="618582989"/>
    <nd ref="354807540"/>
    <nd ref="812666976"/>
    <nd ref="354807551"/>
    <nd ref="354807559"/>
    <nd ref="30036207"/>
    <nd ref="109683827"/>
    <nd ref="109683816"/>
    <nd ref="354807579"/>
    <nd ref="181317057"/>
    <nd ref="366491080"/>
    <nd ref="148951524"/>
    <tag k="highway" v="trunk"/>
    <tag k="is_in" v="Mile End South,South Austraila,Australia"/>
    <tag k="lanes" v="2"/>
    <tag k="maxspeed" v="60"/>
    <tag k="name" v="South Road"/>
    <tag k="oneway" v="yes"/>
    <tag k="postal_code" v="5031"/>
    <tag k="ref" v="A13"/>
    <tag k="source" v="survey"/>
  </way>
  <way id="67286665" version="1" timestamp="2010-07-12T02:58:22Z" uid="4467" user="Rosscoe" changeset="5195509">
    <nd ref="812666998"/>
    <nd ref="87176644"/>
    <nd ref="87176646"/>
    <nd ref="812666996"/>
    <nd ref="87176647"/>
    <tag k="highway" v="residential"/>
    <tag k="maxspeed" v="50"/>
    <tag k="name" v="Davenport Terrace"/>
    <tag k="postal_code" v="5033"/>
    <tag k="source" v="nearmap"/>
  </way>
  <way id="67286666" version="1" timestamp="2010-07-12T02:58:23Z" uid="4467" user="Rosscoe" changeset="5195509">
    <nd ref="109670687"/>
    <nd ref="109670704"/>
    <tag k="bridge" v="yes"/>
    <tag k="highway" v="trunk"/>
    <tag k="is_in" v="Hilton,South Australia,Australia;Richmond,South Australia,Australia"/>
    <tag k="lanes" v="2"/>
    <tag k="layer" v="1"/>
    <tag k="maxspeed" v="60"/>
    <tag k="name" v="South Road"/>
    <tag k="oneway" v="yes"/>
    <tag k="postal_code" v="5033"/>
    <tag k="ref" v="A13"/>
    <tag k="source" v="survey"/>
  </way>
  <way id="67286667" version="1" timestamp="2010-07-12T02:58:25Z" uid="4467" user="Rosscoe" changeset="5195509">
    <nd ref="812666971"/>
    <nd ref="812666959"/>
    <tag k="bridge" v="yes"/>
    <tag k="highway" v="trunk"/>
    <tag k="is_in" v="Mile End South,South Austraila,Australia"/>
    <tag k="lanes" v="2"/>
    <tag k="layer" v="1"/>
    <tag k="maxspeed" v="60"/>
    <tag k="name" v="South Road"/>
    <tag k="oneway" v="yes"/>
    <tag k="postal_code" v="5031"/>
    <tag k="ref" v="A13"/>
    <tag k="source" v="survey"/>
  </way>
  <way id="67286668" version="1" timestamp="2010-07-12T02:58:27Z" uid="4467" user="Rosscoe" changeset="5195509">
    <nd ref="812666995"/>
    <nd ref="812666968"/>
    <nd ref="812666965"/>
    <nd ref="87176640"/>
    <nd ref="87176641"/>
    <nd ref="87115638"/>
    <nd ref="450478823"/>
    <nd ref="812666998"/>
    <tag k="highway" v="residential"/>
    <tag k="is_in" v="South Australia,Australia"/>
    <tag k="maxspeed" v="50"/>
    <tag k="name" v="Davenport Terrace"/>
    <tag k="postal_code" v="5033"/>
    <tag k="source" v="nearmap"/>
  </way>
  <way id="67286669" version="1" timestamp="2010-07-12T02:58:28Z" uid="4467" user="Rosscoe" changeset="5195509">
    <nd ref="109670704"/>
    <nd ref="109670715"/>
    <nd ref="109670736"/>
    <nd ref="109670760"/>
    <nd ref="109670788"/>
    <nd ref="812666996"/>
    <nd ref="148197723"/>
    <nd ref="109692173"/>
    <nd ref="109679009"/>
    <nd ref="93514744"/>
    <tag k="highway" v="trunk"/>
    <tag k="is_in" v="Hilton,South Australia,Australia;Richmond,South Australia,Australia"/>
    <tag k="lanes" v="2"/>
    <tag k="maxspeed" v="60"/>
    <tag k="name" v="South Road"/>
    <tag k="oneway" v="yes"/>
    <tag k="postal_code" v="5033"/>
    <tag k="ref" v="A13"/>
    <tag k="source" v="survey"/>
  </way>
</osm>
