<?xml version='1.0' encoding='UTF-8'?>
<osm version="0.6" generator="libosmium/2.20.0">
  <way id="67493139" version="1" timestamp="2010-07-13T09:07:24Z" uid="4467" user="Rosscoe" changeset="5205982">
    <nd ref="814718766"/>
    <nd ref="253711801"/>
    <tag k="highway" v="primary"/>
    <tag k="lanes" v="2"/>
    <tag k="maxspeed" v="40"/>
    <tag k="ref" v="A7"/>
    <tag k="source" v="survey"/>
  </way>
  <way id="67493147" version="1" timestamp="2010-07-13T09:07:25Z" uid="4467" user="Rosscoe" changeset="5205982">
    <nd ref="814718507"/>
    <nd ref="814718748"/>
    <nd ref="647684532"/>
    <nd ref="283090115"/>
    <nd ref="654034328"/>
    <nd ref="253711807"/>
    <tag k="highway" v="trunk"/>
    <tag k="lanes" v="2"/>
    <tag k="maxspeed" v="60"/>
    <tag k="name" v="Nelson Street"/>
    <tag k="ref" v="A16"/>
    <tag k="source" v="survey"/>
    <tag k="source_ref:name" v="http://osm.beldin.org/2009/01/dscf6415.jpg"/>
  </way>
  <way id="67493157" version="1" timestamp="2010-07-13T09:07:26Z" uid="4467" user="Rosscoe" changeset="5205982">
    <nd ref="283090122"/>
    <nd ref="814718507"/>
    <nd ref="253711833"/>
    <tag k="highway" v="trunk"/>
    <tag k="lanes" v="2"/>
    <tag k="maxspeed" v="60"/>
    <tag k="name" v="Port River Expressway"/>
    <tag k="oneway" v="yes"/>
    <tag k="ref" v="A9"/>
    <tag k="source" v="survey"/>
    <tag k="source_ref:name" v="http://osm.beldin.org/2008/12/dscf5728.jpg"/>
  </way>
  <way id="67493171" version="1" timestamp="2010-07-13T09:07:28Z" uid="4467" user="Rosscoe" changeset="5205982">
    <nd ref="814718840"/>
    <nd ref="814718511"/>
    <nd ref="814718843"/>
    <nd ref="35627774"/>
    <tag k="highway" v="unclassified"/>
    <tag k="maxspeed" v="50"/>
    <tag k="name" v="Wills Street"/>
    <tag k="source" v="nearmap"/>
  </way>
  <way id="67493186" version="1" timestamp="2010-07-13T09:07:29Z" uid="4467" user="Rosscoe" changeset="5205982">
    <nd ref="814718896"/>
    <nd ref="647686836"/>
    <nd ref="283090124"/>
    <nd ref="253711828"/>
    <tag k="highway" v="trunk_link"/>
    <tag k="lanes" v="2"/>
    <tag k="maxspeed" v="60"/>
    <tag k="oneway" v="yes"/>
    <tag k="ref" v="A16"/>
    <tag k="source" v="survey"/>
    <tag k="source_ref:name" v="http://osm.beldin.org/2009/01/dscf6415.jpg"/>
  </way>
  <way id="67493196" version="1" timestamp="2010-07-13T09:07:30Z" uid="4467" user="Rosscoe" changeset="5205982">
    <nd ref="814718940"/>
    <nd ref="814718652"/>
    <nd ref="814718597"/>
    <nd ref="814718500"/>
    <nd ref="814718477"/>
    <nd ref="814718839"/>
    <nd ref="35629332"/>
    <nd ref="814718541"/>
    <tag k="highway" v="residential"/>
    <tag k="maxspeed" v="50"/>
    <tag k="name" v="Wills Street"/>
    <tag k="source" v="nearmap"/>
  </way>
  <way id="67493196" version="3" timestamp="2011-03-14T01:57:54Z" uid="4467" user="Rosscoe" changeset="7552410">
    <nd ref="814718940"/>
    <nd ref="814718652"/>
    <nd ref="814718597"/>
    <nd ref="814718500"/>
    <nd ref="1201133327"/>
    <nd ref="35629332"/>
    <nd ref="814718541"/>
    <tag k="highway" v="residential"/>
    <tag k="maxspeed" v="50"/>
    <tag k="name" v="Wills Street"/>
    <tag k="source" v="nearmap"/>
  </way>
  <way id="67493206" version="1" timestamp="2010-07-13T09:07:32Z" uid="4467" user="Rosscoe" changeset="5205982">
    <nd ref="814718896"/>
    <nd ref="647684531"/>
    <nd ref="253711820"/>
    <nd ref="283090122"/>
    <tag k="highway" v="trunk_link"/>
    <tag k="lanes" v="2"/>
    <tag k="maxspeed" v="60"/>
    <tag k="name" v="Nelson Street"/>
    <tag k="oneway" v="yes"/>
    <tag k="source" v="survey"/>
    <tag k="source_ref:name" v="http://osm.beldin.org/2009/01/dscf6415.jpg"/>
  </way>
  <way id="67493216" version="1" timestamp="2010-07-13T09:07:33Z" uid="4467" user="Rosscoe" changeset="5205982">
    <nd ref="814718824"/>
    <nd ref="35627766"/>
    <nd ref="43172615"/>
    <nd ref="814718521"/>
    <nd ref="814718804"/>
    <nd ref="35627774"/>
    <tag k="highway" v="residential"/>
    <tag k="maxspeed" v="50"/>
    <tag k="name" v="Wills Street"/>
    <tag k="source" v="nearmap"/>
  </way>
  <way id="67493566" version="1" timestamp="2010-07-13T09:09:08Z" uid="59758" user="rendle" changeset="5205993">
    <nd ref="814720443"/>
    <nd ref="814720444"/>
    <nd ref="814720447"/>
    <nd ref="814720449"/>
    <nd ref="814720450"/>
    <nd ref="814720451"/>
    <nd ref="814720452"/>
    <nd ref="814720453"/>
    <nd ref="814720454"/>
    <nd ref="814720455"/>
    <nd ref="814720456"/>
    <nd ref="814720457"/>
    <nd ref="814720443"/>
    <tag k="natural" v="water"/>
  </way>
</osm>
