<?xml version='1.0' encoding='UTF-8'?>
<osm version="0.6" generator="libosmium/2.20.0">
  <way id="67711903" version="2" timestamp="2010-10-09T08:01:07Z" uid="33382" user="de_muur" changeset="5991545">
    <nd ref="262492064"/>
    <nd ref="817676267"/>
    <nd ref="29378115"/>
    <tag k="bicycle" v="yes"/>
    <tag k="highway" v="footway"/>
    <tag k="surface" v="paved"/>
  </way>
  <way id="67711904" version="2" timestamp="2010-10-09T08:01:09Z" uid="33382" user="de_muur" changeset="5991545">
    <nd ref="262492087"/>
    <nd ref="29378115"/>
    <tag k="bicycle" v="yes"/>
    <tag k="highway" v="footway"/>
    <tag k="surface" v="paved"/>
  </way>
  <way id="67711997" version="2" timestamp="2010-07-20T15:16:43Z" uid="115477" user="wowik" changeset="5271562">
    <nd ref="817678633"/>
    <nd ref="817678384"/>
    <tag k="highway" v="residential"/>
    <tag k="name" v="Славная"/>
  </way>
  <way id="67711997" version="3" timestamp="2011-02-09T13:49:23Z" uid="115477" user="wowik" changeset="7236250">
    <nd ref="817678633"/>
    <nd ref="817678384"/>
    <tag k="highway" v="residential"/>
    <tag k="name" v="Славная улица"/>
  </way>
  <way id="67711998" version="2" timestamp="2010-07-20T14:55:41Z" uid="115477" user="wowik" changeset="5271382">
    <nd ref="817678317"/>
    <nd ref="817678487"/>
    <nd ref="817678758"/>
    <tag k="highway" v="residential"/>
    <tag k="name" v="Нагорная"/>
  </way>
  <way id="67711998" version="3" timestamp="2010-07-21T15:42:32Z" uid="115477" user="wowik" changeset="5279906">
    <nd ref="817678317"/>
    <nd ref="817678487"/>
    <nd ref="827641530"/>
    <nd ref="827641540"/>
    <nd ref="817678758"/>
    <tag k="highway" v="residential"/>
    <tag k="name" v="Нагорная"/>
  </way>
  <way id="67711998" version="4" timestamp="2011-02-09T13:33:38Z" uid="115477" user="wowik" changeset="7236122">
    <nd ref="817678317"/>
    <nd ref="817678487"/>
    <nd ref="827641530"/>
    <nd ref="827641540"/>
    <nd ref="817678758"/>
    <tag k="highway" v="residential"/>
    <tag k="name" v="Нагорная улица"/>
  </way>
  <way id="67711999" version="2" timestamp="2010-07-20T15:16:43Z" uid="115477" user="wowik" changeset="5271562">
    <nd ref="817678249"/>
    <nd ref="817678715"/>
    <tag k="highway" v="residential"/>
    <tag k="name" v="Взлетная"/>
  </way>
  <way id="67711999" version="3" timestamp="2011-02-09T13:49:32Z" uid="115477" user="wowik" changeset="7236250">
    <nd ref="817678249"/>
    <nd ref="817678715"/>
    <tag k="highway" v="residential"/>
    <tag k="name" v="Взлетная улица"/>
  </way>
</osm>
