<?xml version='1.0' encoding='UTF-8'?>
<osm version="0.6" generator="libosmium/2.20.0">
  <way id="6775343" version="2" timestamp="2009-12-05T23:34:16Z" uid="30201" user="rrankin" changeset="3299495">
    <nd ref="19160866"/>
    <nd ref="53685096"/>
    <tag k="highway" v="residential"/>
  </way>
  <way id="6775343" version="3" timestamp="2010-05-08T07:03:18Z" uid="7617" user="Franc" changeset="4636103">
    <nd ref="19160866"/>
    <nd ref="53685096"/>
    <tag k="highway" v="residential"/>
    <tag k="name" v="Cowper Street"/>
    <tag k="source" v="survey"/>
  </way>
  <way id="6775343" version="4" timestamp="2010-07-08T01:46:20Z" uid="74617" user="JohnSmith" changeset="5162525">
    <nd ref="19160866"/>
    <nd ref="53685096"/>
    <tag k="highway" v="residential"/>
    <tag k="maxspeed" v="50"/>
    <tag k="maxspeed:source" v="default residential speed limit in Australia"/>
    <tag k="name" v="Cowper Street"/>
    <tag k="source" v="survey"/>
  </way>
  <way id="6775343" version="5" timestamp="2010-08-14T12:02:52Z" uid="4467" user="Rosscoe" changeset="5489894">
    <nd ref="19160866"/>
    <nd ref="53685096"/>
    <tag k="highway" v="residential"/>
    <tag k="maxspeed" v="50"/>
    <tag k="name" v="Cowper Street"/>
    <tag k="source" v="survey"/>
    <tag k="source:maxspeed" v="default residential speed limit in Australia"/>
  </way>
  <way id="6775567" version="2" timestamp="2009-12-05T23:34:16Z" uid="30201" user="rrankin" changeset="3299495">
    <nd ref="53681773"/>
    <nd ref="29778402"/>
    <tag k="highway" v="residential"/>
    <tag k="name" v="Wentworth Street"/>
  </way>
  <way id="6775567" version="4" timestamp="2010-02-06T07:20:37Z" uid="30201" user="rrankin" changeset="3802957">
    <nd ref="53681773"/>
    <nd ref="631420494"/>
    <tag k="highway" v="residential"/>
    <tag k="maxspeed" v="50"/>
    <tag k="name" v="Wentworth Street"/>
  </way>
  <way id="6775567" version="5" timestamp="2010-05-08T07:47:31Z" uid="7617" user="Franc" changeset="4636303">
    <nd ref="53681773"/>
    <nd ref="725918439"/>
    <nd ref="631420494"/>
    <tag k="highway" v="residential"/>
    <tag k="maxspeed" v="50"/>
    <tag k="name" v="Wentworth Street"/>
  </way>
</osm>
