<?xml version='1.0' encoding='UTF-8'?>
<osm version="0.6" generator="libosmium/2.20.0">
  <way id="68321560" version="1" timestamp="2010-07-18T08:48:42Z" uid="4467" user="Rosscoe" changeset="5248902">
    <nd ref="253335736"/>
    <nd ref="253335750"/>
    <tag k="highway" v="tertiary"/>
    <tag k="maxspeed" v="50"/>
    <tag k="name" v="Luhrs Road"/>
    <tag k="oneway" v="yes"/>
    <tag k="source" v="survey"/>
    <tag k="source:name" v="local knowledge"/>
  </way>
  <way id="68321566" version="1" timestamp="2010-07-18T08:48:44Z" uid="4467" user="Rosscoe" changeset="5248902">
    <nd ref="822575884"/>
    <nd ref="252207444"/>
    <nd ref="302574208"/>
    <nd ref="822576285"/>
    <nd ref="252207361"/>
    <tag k="highway" v="residential"/>
    <tag k="maxspeed" v="50"/>
    <tag k="maxspeed:source" v="default residential speed limit in Australia"/>
    <tag k="name" v="Lambert Road"/>
    <tag k="source" v="nearmap"/>
  </way>
  <way id="68321573" version="1" timestamp="2010-07-18T08:48:45Z" uid="4467" user="Rosscoe" changeset="5248902">
    <nd ref="822576399"/>
    <nd ref="822575554"/>
    <tag k="highway" v="residential"/>
    <tag k="maxspeed" v="50"/>
    <tag k="name" v="Lambert Road"/>
    <tag k="postal_code" v="5070"/>
    <tag k="source" v="nearmap"/>
  </way>
  <way id="68321578" version="1" timestamp="2010-07-18T08:48:46Z" uid="4467" user="Rosscoe" changeset="5248902">
    <nd ref="822575808"/>
    <nd ref="822575722"/>
    <nd ref="822575384"/>
    <tag k="highway" v="trunk"/>
    <tag k="lanes" v="2"/>
    <tag k="maxspeed" v="60"/>
    <tag k="name" v="Payneham Road"/>
    <tag k="ref" v="A11"/>
    <tag k="source" v="nearmap"/>
  </way>
  <way id="68321583" version="1" timestamp="2010-07-18T08:48:47Z" uid="4467" user="Rosscoe" changeset="5248902">
    <nd ref="822576021"/>
    <nd ref="253335789"/>
    <nd ref="822576426"/>
    <nd ref="822575989"/>
    <nd ref="822576760"/>
    <nd ref="822575433"/>
    <nd ref="822575787"/>
    <tag k="highway" v="trunk"/>
    <tag k="lanes" v="2"/>
    <tag k="maxspeed" v="60"/>
    <tag k="name" v="Payneham Road"/>
    <tag k="ref" v="A11"/>
    <tag k="source" v="survey"/>
  </way>
  <way id="68321589" version="1" timestamp="2010-07-18T08:48:48Z" uid="4467" user="Rosscoe" changeset="5248902">
    <nd ref="356940735"/>
    <nd ref="822575397"/>
    <nd ref="822576203"/>
    <nd ref="822576050"/>
    <nd ref="822575730"/>
    <nd ref="822575628"/>
    <nd ref="822575808"/>
    <tag k="highway" v="trunk"/>
    <tag k="maxspeed" v="60"/>
    <tag k="name" v="North Terrace"/>
    <tag k="ref" v="A11"/>
    <tag k="source" v="survey"/>
  </way>
  <way id="68321589" version="3" timestamp="2011-04-04T02:00:15Z" uid="4467" user="Rosscoe" changeset="7760508"/>
  <way id="68321595" version="1" timestamp="2010-07-18T08:48:49Z" uid="4467" user="Rosscoe" changeset="5248902">
    <nd ref="822576021"/>
    <nd ref="822576256"/>
    <tag k="highway" v="residential"/>
    <tag k="maxspeed" v="50"/>
    <tag k="name" v="Lambert Road"/>
    <tag k="postal_code" v="5070"/>
    <tag k="source" v="nearmap"/>
  </way>
  <way id="68321600" version="1" timestamp="2010-07-18T08:48:50Z" uid="4467" user="Rosscoe" changeset="5248902">
    <nd ref="822575384"/>
    <nd ref="822576176"/>
    <nd ref="822575578"/>
    <nd ref="302587872"/>
    <nd ref="822575914"/>
    <nd ref="822575860"/>
    <tag k="highway" v="trunk"/>
    <tag k="lanes" v="2"/>
    <tag k="maxspeed" v="60"/>
    <tag k="name" v="Payneham Road"/>
    <tag k="ref" v="A11"/>
    <tag k="source" v="nearmap"/>
  </way>
  <way id="68321605" version="1" timestamp="2010-07-18T08:48:51Z" uid="4467" user="Rosscoe" changeset="5248902">
    <nd ref="822576313"/>
    <nd ref="822575846"/>
    <nd ref="822575417"/>
    <nd ref="822576123"/>
    <nd ref="822575704"/>
    <nd ref="822576008"/>
    <nd ref="822575713"/>
    <nd ref="822576355"/>
    <nd ref="822576313"/>
    <tag k="highway" v="residential"/>
    <tag k="junction" v="roundabout"/>
    <tag k="source" v="nearmap"/>
  </way>
  <way id="68321608" version="1" timestamp="2010-07-18T08:48:52Z" uid="4467" user="Rosscoe" changeset="5248902">
    <nd ref="822575384"/>
    <nd ref="301123884"/>
    <nd ref="252207770"/>
    <nd ref="280032474"/>
    <nd ref="252207684"/>
    <nd ref="252207607"/>
    <nd ref="252207572"/>
    <nd ref="281926689"/>
    <nd ref="252207538"/>
    <nd ref="252207447"/>
    <tag k="highway" v="tertiary"/>
    <tag k="is_in" v="St Peters,South Australia,Australia"/>
    <tag k="maxspeed" v="50"/>
    <tag k="name" v="Harrow Road"/>
    <tag k="postal_code" v="5069"/>
    <tag k="source" v="nearmap"/>
    <tag k="source:name" v="unknown"/>
  </way>
  <way id="68321613" version="1" timestamp="2010-07-18T08:48:53Z" uid="4467" user="Rosscoe" changeset="5248902">
    <nd ref="148866204"/>
    <nd ref="148875612"/>
    <nd ref="148875613"/>
    <nd ref="148875614"/>
    <nd ref="253335736"/>
    <tag k="highway" v="tertiary"/>
    <tag k="maxspeed" v="50"/>
    <tag k="name" v="Luhrs Road"/>
    <tag k="source" v="survey"/>
    <tag k="source:name" v="local knowledge"/>
  </way>
  <way id="68321621" version="1" timestamp="2010-07-18T08:48:54Z" uid="4467" user="Rosscoe" changeset="5248902">
    <nd ref="822576298"/>
    <nd ref="568303846"/>
    <nd ref="822575818"/>
    <nd ref="568303850"/>
    <nd ref="253335801"/>
    <nd ref="822576678"/>
    <tag k="highway" v="trunk"/>
    <tag k="lanes" v="2"/>
    <tag k="maxspeed" v="60"/>
    <tag k="name" v="Payneham Road"/>
    <tag k="ref" v="A11"/>
    <tag k="source" v="survey"/>
  </way>
  <way id="68321625" version="1" timestamp="2010-07-18T08:48:55Z" uid="4467" user="Rosscoe" changeset="5248902">
    <nd ref="822576678"/>
    <nd ref="822576021"/>
    <tag k="highway" v="trunk"/>
    <tag k="lanes" v="2"/>
    <tag k="maxspeed" v="60"/>
    <tag k="name" v="Payneham Road"/>
    <tag k="ref" v="A11"/>
    <tag k="source" v="survey"/>
  </way>
  <way id="68321625" version="2" timestamp="2010-07-18T14:53:11Z" uid="4467" user="Rosscoe" changeset="5251803">
    <nd ref="822576678"/>
    <nd ref="823273184"/>
    <nd ref="822576021"/>
    <tag k="highway" v="trunk"/>
    <tag k="lanes" v="2"/>
    <tag k="maxspeed" v="60"/>
    <tag k="name" v="Payneham Road"/>
    <tag k="ref" v="A11"/>
    <tag k="source" v="survey"/>
  </way>
  <way id="68321629" version="1" timestamp="2010-07-18T08:48:56Z" uid="4467" user="Rosscoe" changeset="5248902">
    <nd ref="822576034"/>
    <nd ref="822575833"/>
    <nd ref="822575613"/>
    <nd ref="822576623"/>
    <nd ref="822576372"/>
    <nd ref="822575964"/>
    <nd ref="822575975"/>
    <tag k="highway" v="residential"/>
    <tag k="maxspeed" v="50"/>
    <tag k="maxspeed:source" v="default residential speed limit in Australia"/>
    <tag k="name" v="Lambert Road"/>
    <tag k="source" v="nearmap"/>
  </way>
  <way id="68321629" version="2" timestamp="2010-07-18T23:22:45Z" uid="4467" user="Rosscoe" changeset="5256627">
    <nd ref="822576034"/>
    <nd ref="822575833"/>
    <nd ref="822575613"/>
    <nd ref="252207605"/>
    <nd ref="302574676"/>
    <nd ref="252207570"/>
    <nd ref="822575975"/>
    <tag k="highway" v="residential"/>
    <tag k="maxspeed" v="50"/>
    <tag k="maxspeed:source" v="default residential speed limit in Australia"/>
    <tag k="name" v="Lambert Road"/>
    <tag k="source" v="nearmap"/>
  </way>
  <way id="68321633" version="1" timestamp="2010-07-18T08:48:57Z" uid="4467" user="Rosscoe" changeset="5248902">
    <nd ref="252207368"/>
    <nd ref="633481659"/>
    <nd ref="633481730"/>
    <tag k="boat" v="no"/>
    <tag k="layer" v="-1"/>
    <tag k="name" v="Second Creek"/>
    <tag k="tunnel" v="yes"/>
    <tag k="waterway" v="drain"/>
  </way>
  <way id="68321638" version="1" timestamp="2010-07-18T08:48:57Z" uid="4467" user="Rosscoe" changeset="5248902">
    <nd ref="822575648"/>
    <nd ref="315299700"/>
    <tag k="bicycle" v="yes"/>
    <tag k="bridge" v="yes"/>
    <tag k="highway" v="footway"/>
    <tag k="layer" v="1"/>
    <tag k="source" v="nearmap"/>
  </way>
  <way id="68321641" version="1" timestamp="2010-07-18T08:48:58Z" uid="4467" user="Rosscoe" changeset="5248902">
    <nd ref="822575860"/>
    <nd ref="252214308"/>
    <nd ref="822575569"/>
    <nd ref="822576466"/>
    <nd ref="281926637"/>
    <nd ref="822575545"/>
    <nd ref="822576298"/>
    <tag k="highway" v="trunk"/>
    <tag k="lanes" v="2"/>
    <tag k="maxspeed" v="60"/>
    <tag k="name" v="Payneham Road"/>
    <tag k="ref" v="A11"/>
    <tag k="source" v="survey"/>
  </way>
  <way id="68321646" version="1" timestamp="2010-07-18T08:48:59Z" uid="4467" user="Rosscoe" changeset="5248902">
    <nd ref="252207357"/>
    <nd ref="822575687"/>
    <nd ref="281936873"/>
    <tag k="highway" v="residential"/>
    <tag k="is_in" v="Joslin,South Australia,Australia"/>
    <tag k="maxspeed" v="50"/>
    <tag k="name" v="Lambert Road"/>
    <tag k="source" v="nearmap"/>
  </way>
</osm>
