<?xml version='1.0' encoding='UTF-8'?>
<osm version="0.6" generator="libosmium/2.20.0">
  <way id="68334063" version="1" timestamp="2010-07-18T10:30:19Z" uid="43863" user="Rundling" changeset="5249752">
    <nd ref="822738415"/>
    <nd ref="822738553"/>
    <nd ref="822738504"/>
    <nd ref="822738458"/>
    <nd ref="822738415"/>
    <tag k="addr:city" v="Rosche"/>
    <tag k="addr:housenumber" v="12"/>
    <tag k="addr:postcode" v="29571"/>
    <tag k="addr:street" v="Spitzer Berg"/>
    <tag k="building" v="yes"/>
  </way>
  <way id="68334063" version="2" timestamp="2011-02-25T17:04:24Z" uid="43863" user="Rundling" changeset="7392212">
    <nd ref="822738415"/>
    <nd ref="822738553"/>
    <nd ref="822738504"/>
    <nd ref="822738458"/>
    <nd ref="822738415"/>
    <tag k="addr:city" v="Rosche"/>
    <tag k="addr:housenumber" v="12"/>
    <tag k="addr:postcode" v="29571"/>
    <tag k="addr:street" v="Spitzer Berg"/>
    <tag k="building" v="yes"/>
  </way>
  <way id="68334064" version="1" timestamp="2010-07-18T10:30:19Z" uid="43863" user="Rundling" changeset="5249752">
    <nd ref="822738406"/>
    <nd ref="822738457"/>
    <nd ref="822738413"/>
    <nd ref="822738535"/>
    <nd ref="822738406"/>
    <tag k="addr:city" v="Rosche"/>
    <tag k="addr:housenumber" v="22"/>
    <tag k="addr:postcode" v="29571"/>
    <tag k="addr:street" v="Spitzer Berg"/>
    <tag k="building" v="yes"/>
  </way>
  <way id="68334065" version="1" timestamp="2010-07-18T10:30:20Z" uid="43863" user="Rundling" changeset="5249752">
    <nd ref="822738431"/>
    <nd ref="822738551"/>
    <nd ref="822738509"/>
    <nd ref="822738423"/>
    <nd ref="822738431"/>
    <tag k="addr:city" v="Rosche"/>
    <tag k="addr:housenumber" v="24"/>
    <tag k="addr:postcode" v="29571"/>
    <tag k="addr:street" v="Spitzer Berg"/>
    <tag k="building" v="yes"/>
  </way>
  <way id="68334066" version="1" timestamp="2010-07-18T10:30:20Z" uid="43863" user="Rundling" changeset="5249752">
    <nd ref="822738538"/>
    <nd ref="822738480"/>
    <nd ref="822738444"/>
    <nd ref="822738378"/>
    <nd ref="822738538"/>
    <tag k="addr:city" v="Rosche"/>
    <tag k="addr:housenumber" v="16"/>
    <tag k="addr:postcode" v="29571"/>
    <tag k="addr:street" v="Spitzer Berg"/>
    <tag k="building" v="yes"/>
  </way>
  <way id="68334069" version="1" timestamp="2010-07-18T10:30:20Z" uid="43863" user="Rundling" changeset="5249752">
    <nd ref="822738536"/>
    <nd ref="822738516"/>
    <nd ref="822738472"/>
    <nd ref="822738414"/>
    <nd ref="822738536"/>
    <tag k="addr:city" v="Rosche"/>
    <tag k="addr:housenumber" v="9"/>
    <tag k="addr:postcode" v="29571"/>
    <tag k="addr:street" v="Ameisenweg"/>
    <tag k="building" v="yes"/>
  </way>
  <way id="68334070" version="1" timestamp="2010-07-18T10:30:20Z" uid="43863" user="Rundling" changeset="5249752">
    <nd ref="822738471"/>
    <nd ref="822738429"/>
    <nd ref="822738400"/>
    <nd ref="822738547"/>
    <nd ref="822738471"/>
    <tag k="addr:city" v="Rosche"/>
    <tag k="addr:housenumber" v="28"/>
    <tag k="addr:postcode" v="29571"/>
    <tag k="addr:street" v="Spitzer Berg"/>
    <tag k="building" v="yes"/>
  </way>
  <way id="68334070" version="2" timestamp="2011-02-25T17:04:25Z" uid="43863" user="Rundling" changeset="7392212">
    <nd ref="822738471"/>
    <nd ref="822738429"/>
    <nd ref="822738400"/>
    <nd ref="822738547"/>
    <nd ref="1172585427"/>
    <nd ref="1172585400"/>
    <nd ref="1172585410"/>
    <nd ref="1172585403"/>
    <nd ref="822738471"/>
    <tag k="addr:city" v="Rosche"/>
    <tag k="addr:housenumber" v="28"/>
    <tag k="addr:postcode" v="29571"/>
    <tag k="addr:street" v="Spitzer Berg"/>
    <tag k="building" v="yes"/>
  </way>
  <way id="68334072" version="1" timestamp="2010-07-18T10:30:21Z" uid="43863" user="Rundling" changeset="5249752">
    <nd ref="822738396"/>
    <nd ref="822738520"/>
    <nd ref="822738492"/>
    <nd ref="822738428"/>
    <nd ref="822738396"/>
    <tag k="addr:city" v="Rosche"/>
    <tag k="addr:housenumber" v="6"/>
    <tag k="addr:postcode" v="29571"/>
    <tag k="addr:street" v="Spitzer Berg"/>
    <tag k="building" v="yes"/>
  </way>
  <way id="68334072" version="2" timestamp="2011-02-25T17:04:21Z" uid="43863" user="Rundling" changeset="7392212">
    <nd ref="822738396"/>
    <nd ref="822738520"/>
    <nd ref="822738492"/>
    <nd ref="822738428"/>
    <nd ref="822738396"/>
    <tag k="addr:city" v="Rosche"/>
    <tag k="addr:housenumber" v="6"/>
    <tag k="addr:postcode" v="29571"/>
    <tag k="addr:street" v="Spitzer Berg"/>
    <tag k="building" v="yes"/>
  </way>
  <way id="68334073" version="1" timestamp="2010-07-18T10:30:21Z" uid="43863" user="Rundling" changeset="5249752">
    <nd ref="822738391"/>
    <nd ref="822738534"/>
    <nd ref="822738476"/>
    <nd ref="822738442"/>
    <nd ref="822738391"/>
    <tag k="addr:city" v="Rosche"/>
    <tag k="addr:housenumber" v="2"/>
    <tag k="addr:postcode" v="29571"/>
    <tag k="addr:street" v="Spitzer Berg"/>
    <tag k="building" v="yes"/>
  </way>
  <way id="68334074" version="1" timestamp="2010-07-18T10:30:21Z" uid="43863" user="Rundling" changeset="5249752">
    <nd ref="822738382"/>
    <nd ref="822738517"/>
    <nd ref="822738474"/>
    <nd ref="822738566"/>
    <nd ref="822738382"/>
    <tag k="addr:city" v="Rosche"/>
    <tag k="addr:housenumber" v="14"/>
    <tag k="addr:postcode" v="29571"/>
    <tag k="addr:street" v="Spitzer Berg"/>
    <tag k="building" v="yes"/>
  </way>
  <way id="68334075" version="1" timestamp="2010-07-18T10:30:21Z" uid="43863" user="Rundling" changeset="5249752">
    <nd ref="822738554"/>
    <nd ref="822738463"/>
    <nd ref="822738425"/>
    <nd ref="822738548"/>
    <nd ref="822738554"/>
    <tag k="addr:city" v="Rosche"/>
    <tag k="addr:housenumber" v="5"/>
    <tag k="addr:postcode" v="29571"/>
    <tag k="addr:street" v="Ameisenweg"/>
    <tag k="building" v="yes"/>
  </way>
  <way id="68334076" version="1" timestamp="2010-07-18T10:30:21Z" uid="43863" user="Rundling" changeset="5249752">
    <nd ref="822738484"/>
    <nd ref="270498133"/>
    <tag k="bicycle" v="yes"/>
    <tag k="foot" v="yes"/>
    <tag k="highway" v="path"/>
    <tag k="horse" v="no"/>
    <tag k="ski" v="no"/>
    <tag k="snowmobile" v="official"/>
    <tag k="surface" v="pebblestone"/>
    <tag k="wheelchair" v="no"/>
    <tag k="width" v="2"/>
  </way>
  <way id="68334077" version="1" timestamp="2010-07-18T10:30:22Z" uid="43863" user="Rundling" changeset="5249752">
    <nd ref="822738427"/>
    <nd ref="822738398"/>
    <nd ref="822738541"/>
    <nd ref="822738488"/>
    <nd ref="822738427"/>
    <tag k="addr:city" v="Rosche"/>
    <tag k="addr:housenumber" v="18"/>
    <tag k="addr:postcode" v="29571"/>
    <tag k="addr:street" v="Spitzer Berg"/>
    <tag k="building" v="yes"/>
  </way>
  <way id="68334078" version="1" timestamp="2010-07-18T10:30:22Z" uid="43863" user="Rundling" changeset="5249752">
    <nd ref="822738522"/>
    <nd ref="822738507"/>
    <nd ref="822738464"/>
    <nd ref="822738408"/>
    <nd ref="822738522"/>
    <tag k="addr:city" v="Rosche"/>
    <tag k="addr:housenumber" v="10"/>
    <tag k="addr:postcode" v="29571"/>
    <tag k="addr:street" v="Spitzer Berg"/>
    <tag k="building" v="yes"/>
  </way>
  <way id="68334078" version="2" timestamp="2011-02-25T17:04:22Z" uid="43863" user="Rundling" changeset="7392212">
    <nd ref="822738522"/>
    <nd ref="822738507"/>
    <nd ref="822738464"/>
    <nd ref="822738408"/>
    <nd ref="822738522"/>
    <tag k="addr:city" v="Rosche"/>
    <tag k="addr:housenumber" v="10"/>
    <tag k="addr:postcode" v="29571"/>
    <tag k="addr:street" v="Spitzer Berg"/>
    <tag k="building" v="yes"/>
  </way>
  <way id="68334079" version="1" timestamp="2010-07-18T10:30:22Z" uid="43863" user="Rundling" changeset="5249752">
    <nd ref="822738533"/>
    <nd ref="822738502"/>
    <nd ref="822738441"/>
    <nd ref="822738389"/>
    <nd ref="822738533"/>
    <tag k="addr:city" v="Rosche"/>
    <tag k="addr:housenumber" v="3"/>
    <tag k="addr:postcode" v="29571"/>
    <tag k="addr:street" v="Ameisenweg"/>
    <tag k="building" v="yes"/>
  </way>
  <way id="68334080" version="1" timestamp="2010-07-18T10:30:22Z" uid="43863" user="Rundling" changeset="5249752">
    <nd ref="822738493"/>
    <nd ref="822738430"/>
    <nd ref="822738380"/>
    <nd ref="822738549"/>
    <nd ref="822738493"/>
    <tag k="addr:city" v="Rosche"/>
    <tag k="addr:housenumber" v="20"/>
    <tag k="addr:postcode" v="29571"/>
    <tag k="addr:street" v="Spitzer Berg"/>
    <tag k="building" v="yes"/>
  </way>
  <way id="68334080" version="2" timestamp="2011-02-25T17:04:24Z" uid="43863" user="Rundling" changeset="7392212">
    <nd ref="822738493"/>
    <nd ref="822738430"/>
    <nd ref="822738380"/>
    <nd ref="822738549"/>
    <nd ref="822738493"/>
    <tag k="addr:city" v="Rosche"/>
    <tag k="addr:housenumber" v="20"/>
    <tag k="addr:postcode" v="29571"/>
    <tag k="addr:street" v="Spitzer Berg"/>
    <tag k="building" v="yes"/>
  </way>
  <way id="68334081" version="1" timestamp="2010-07-18T10:30:23Z" uid="43863" user="Rundling" changeset="5249752">
    <nd ref="822738501"/>
    <nd ref="822738456"/>
    <nd ref="822738384"/>
    <nd ref="822738532"/>
    <nd ref="822738501"/>
    <tag k="addr:city" v="Rosche"/>
    <tag k="addr:housenumber" v="30"/>
    <tag k="addr:postcode" v="29571"/>
    <tag k="addr:street" v="Spitzer Berg"/>
    <tag k="building" v="yes"/>
  </way>
  <way id="68334082" version="1" timestamp="2010-07-18T10:30:23Z" uid="43863" user="Rundling" changeset="5249752">
    <nd ref="822738490"/>
    <nd ref="822738524"/>
    <nd ref="822738497"/>
    <nd ref="822738439"/>
    <nd ref="822738490"/>
    <tag k="addr:city" v="Rosche"/>
    <tag k="addr:housenumber" v="6"/>
    <tag k="addr:postcode" v="29571"/>
    <tag k="addr:street" v="Ameisenweg"/>
    <tag k="building" v="yes"/>
  </way>
  <way id="68334083" version="1" timestamp="2010-07-18T10:30:23Z" uid="43863" user="Rundling" changeset="5249752">
    <nd ref="822738412"/>
    <nd ref="822738550"/>
    <nd ref="822738459"/>
    <nd ref="822738422"/>
    <nd ref="822738412"/>
    <tag k="addr:city" v="Rosche"/>
    <tag k="addr:housenumber" v="19"/>
    <tag k="addr:postcode" v="29571"/>
    <tag k="addr:street" v="Spitzer Berg"/>
    <tag k="building" v="yes"/>
  </way>
  <way id="68334084" version="1" timestamp="2010-07-18T10:30:23Z" uid="43863" user="Rundling" changeset="5249752">
    <nd ref="822738508"/>
    <nd ref="822738447"/>
    <nd ref="822738409"/>
    <nd ref="822738503"/>
    <nd ref="822738508"/>
    <tag k="addr:city" v="Rosche"/>
    <tag k="addr:housenumber" v="15"/>
    <tag k="addr:postcode" v="29571"/>
    <tag k="addr:street" v="Ameisenweg"/>
    <tag k="building" v="yes"/>
  </way>
  <way id="68334085" version="1" timestamp="2010-07-18T10:30:23Z" uid="43863" user="Rundling" changeset="5249752">
    <nd ref="822738455"/>
    <nd ref="822738411"/>
    <nd ref="822738525"/>
    <nd ref="822738499"/>
    <nd ref="822738455"/>
    <tag k="addr:city" v="Rosche"/>
    <tag k="addr:housenumber" v="1"/>
    <tag k="addr:postcode" v="29571"/>
    <tag k="addr:street" v="Spitzer Berg"/>
    <tag k="building" v="yes"/>
  </way>
  <way id="68334085" version="2" timestamp="2011-02-25T17:04:21Z" uid="43863" user="Rundling" changeset="7392212">
    <nd ref="822738455"/>
    <nd ref="822738411"/>
    <nd ref="822738525"/>
    <nd ref="822738499"/>
    <nd ref="822738455"/>
    <tag k="addr:city" v="Rosche"/>
    <tag k="addr:housenumber" v="1"/>
    <tag k="addr:postcode" v="29571"/>
    <tag k="addr:street" v="Spitzer Berg"/>
    <tag k="building" v="yes"/>
  </way>
  <way id="68334086" version="1" timestamp="2010-07-18T10:30:23Z" uid="43863" user="Rundling" changeset="5249752">
    <nd ref="822738461"/>
    <nd ref="822738394"/>
    <nd ref="822738539"/>
    <nd ref="822738518"/>
    <nd ref="822738461"/>
    <tag k="addr:city" v="Rosche"/>
    <tag k="addr:housenumber" v="7"/>
    <tag k="addr:postcode" v="29571"/>
    <tag k="addr:street" v="Ameisenweg"/>
    <tag k="building" v="yes"/>
  </way>
  <way id="68334087" version="1" timestamp="2010-07-18T10:30:24Z" uid="43863" user="Rundling" changeset="5249752">
    <nd ref="822738445"/>
    <nd ref="822738393"/>
    <nd ref="822738519"/>
    <nd ref="822738482"/>
    <nd ref="822738445"/>
    <tag k="addr:city" v="Rosche"/>
    <tag k="addr:housenumber" v="26"/>
    <tag k="addr:postcode" v="29571"/>
    <tag k="addr:street" v="Spitzer Berg"/>
    <tag k="building" v="yes"/>
  </way>
  <way id="68334088" version="1" timestamp="2010-07-18T10:30:24Z" uid="43863" user="Rundling" changeset="5249752">
    <nd ref="822738506"/>
    <nd ref="822738446"/>
    <nd ref="822738399"/>
    <nd ref="822738495"/>
    <nd ref="822738506"/>
    <tag k="addr:city" v="Rosche"/>
    <tag k="addr:housenumber" v="8"/>
    <tag k="addr:postcode" v="29571"/>
    <tag k="addr:street" v="Spitzer Berg"/>
    <tag k="building" v="yes"/>
  </way>
  <way id="68334088" version="2" timestamp="2011-02-25T17:04:20Z" uid="43863" user="Rundling" changeset="7392212">
    <nd ref="822738506"/>
    <nd ref="822738446"/>
    <nd ref="822738399"/>
    <nd ref="822738495"/>
    <nd ref="822738506"/>
    <tag k="addr:city" v="Rosche"/>
    <tag k="addr:housenumber" v="8"/>
    <tag k="addr:postcode" v="29571"/>
    <tag k="addr:street" v="Spitzer Berg"/>
    <tag k="building" v="yes"/>
  </way>
  <way id="68334089" version="1" timestamp="2010-07-18T10:30:24Z" uid="43863" user="Rundling" changeset="5249752">
    <nd ref="822738505"/>
    <nd ref="822738478"/>
    <nd ref="822738443"/>
    <nd ref="822738556"/>
    <nd ref="822738505"/>
    <tag k="addr:city" v="Rosche"/>
    <tag k="addr:housenumber" v="10"/>
    <tag k="addr:postcode" v="29571"/>
    <tag k="addr:street" v="Ameisenweg"/>
    <tag k="building" v="yes"/>
  </way>
</osm>
