<?xml version='1.0' encoding='UTF-8'?>
<osm version="0.6" generator="libosmium/2.20.0">
  <way id="68577549" version="1" timestamp="2010-07-19T14:22:20Z" uid="4467" user="Rosscoe" changeset="5261580">
    <nd ref="171120933"/>
    <nd ref="171120954"/>
    <tag k="highway" v="trunk"/>
    <tag k="is_in" v="Glenelg North,South Australia,Australia"/>
    <tag k="maxspeed" v="60"/>
    <tag k="name" v="Tapleys Hill Road"/>
    <tag k="oneway" v="yes"/>
    <tag k="postal_code" v="5045"/>
    <tag k="ref" v="A15"/>
    <tag k="source" v="survey"/>
  </way>
  <way id="68577552" version="1" timestamp="2010-07-19T14:22:21Z" uid="4467" user="Rosscoe" changeset="5261580">
    <nd ref="171121058"/>
    <nd ref="171121033"/>
    <tag k="bridge" v="yes"/>
    <tag k="highway" v="trunk"/>
    <tag k="layer" v="1"/>
    <tag k="name" v="Tapleys Hill Road"/>
    <tag k="ref" v="A15"/>
    <tag k="source" v="survey"/>
  </way>
  <way id="68577554" version="1" timestamp="2010-07-19T14:22:22Z" uid="4467" user="Rosscoe" changeset="5261580">
    <nd ref="253475207"/>
    <nd ref="824521473"/>
    <nd ref="824521516"/>
    <tag k="highway" v="residential"/>
    <tag k="source" v="nearmap"/>
  </way>
  <way id="68577757" version="2" timestamp="2011-06-15T12:25:25Z" uid="30201" user="rrankin" changeset="8446793">
    <nd ref="824525773"/>
    <nd ref="824525775"/>
    <nd ref="824525777"/>
    <nd ref="824525781"/>
    <nd ref="824525755"/>
    <nd ref="824525784"/>
    <nd ref="824525793"/>
    <nd ref="824525797"/>
    <tag k="highway" v="footway"/>
  </way>
</osm>
