<?xml version='1.0' encoding='UTF-8'?>
<osm version="0.6" generator="libosmium/2.20.0">
  <way id="68623792" version="1" timestamp="2010-07-19T19:30:37Z" uid="33382" user="de_muur" changeset="5264207">
    <nd ref="825017491"/>
    <nd ref="247943160"/>
    <nd ref="331264049"/>
    <nd ref="247943181"/>
    <nd ref="825017464"/>
    <nd ref="267691222"/>
    <nd ref="306652421"/>
    <nd ref="267691226"/>
    <nd ref="36800985"/>
    <tag k="cycleway" v="track"/>
    <tag k="highway" v="tertiary"/>
    <tag k="maxspeed" v="50"/>
    <tag k="postal_code" v="27299"/>
    <tag k="ref" v="K 7"/>
    <tag k="surface" v="paved"/>
  </way>
  <way id="68623793" version="1" timestamp="2010-07-19T19:30:38Z" uid="33382" user="de_muur" changeset="5264207">
    <nd ref="322015993"/>
    <nd ref="267691303"/>
    <nd ref="495276447"/>
    <nd ref="267691307"/>
    <nd ref="825017491"/>
    <tag k="cycleway" v="track"/>
    <tag k="highway" v="tertiary"/>
    <tag k="postal_code" v="27299"/>
    <tag k="ref" v="K 7"/>
    <tag k="surface" v="paved"/>
  </way>
  <way id="68623794" version="1" timestamp="2010-07-19T19:30:38Z" uid="33382" user="de_muur" changeset="5264207">
    <nd ref="825017473"/>
    <nd ref="717706867"/>
    <nd ref="267691310"/>
    <tag k="highway" v="tertiary"/>
    <tag k="maxspeed" v="50"/>
    <tag k="name" v="Grasdorfer Straße"/>
    <tag k="ref" v="K 9"/>
  </way>
  <way id="68623795" version="1" timestamp="2010-07-19T19:30:38Z" uid="33382" user="de_muur" changeset="5264207">
    <nd ref="324169526"/>
    <nd ref="324169523"/>
    <nd ref="267691283"/>
    <nd ref="324169528"/>
    <nd ref="267691291"/>
    <nd ref="267691294"/>
    <tag k="cycleway" v="track"/>
    <tag k="highway" v="tertiary"/>
    <tag k="ref" v="K 7"/>
    <tag k="surface" v="paved"/>
  </way>
  <way id="68623796" version="1" timestamp="2010-07-19T19:30:39Z" uid="33382" user="de_muur" changeset="5264207">
    <nd ref="825017471"/>
    <nd ref="258930462"/>
    <nd ref="258930463"/>
    <nd ref="370054992"/>
    <nd ref="303600615"/>
    <tag k="highway" v="tertiary"/>
    <tag k="maxspeed" v="70"/>
    <tag k="name" v="Grasdorfer Straße"/>
    <tag k="ref" v="K 9"/>
    <tag k="surface" v="paved"/>
  </way>
  <way id="68623797" version="1" timestamp="2010-07-19T19:30:39Z" uid="33382" user="de_muur" changeset="5264207">
    <nd ref="370054990"/>
    <nd ref="825017492"/>
    <nd ref="825017478"/>
    <nd ref="825017471"/>
    <nd ref="825017487"/>
    <nd ref="825017468"/>
    <nd ref="825017447"/>
    <nd ref="370054990"/>
    <tag k="highway" v="tertiary"/>
    <tag k="junction" v="roundabout"/>
    <tag k="maxspeed" v="70"/>
    <tag k="name" v="Grasdorfer Straße"/>
    <tag k="ref" v="K 9"/>
    <tag k="surface" v="paved"/>
  </way>
  <way id="68623798" version="1" timestamp="2010-07-19T19:30:39Z" uid="33382" user="de_muur" changeset="5264207">
    <nd ref="495276456"/>
    <nd ref="322015989"/>
    <nd ref="322015990"/>
    <nd ref="322015991"/>
    <nd ref="322015992"/>
    <nd ref="322015993"/>
    <tag k="highway" v="unclassified"/>
    <tag k="name" v="Giersbergstraße"/>
    <tag k="surface" v="paved"/>
  </way>
  <way id="68623799" version="1" timestamp="2010-07-19T19:30:39Z" uid="33382" user="de_muur" changeset="5264207">
    <nd ref="303602143"/>
    <nd ref="303602144"/>
    <nd ref="303602297"/>
    <nd ref="303602145"/>
    <nd ref="303602146"/>
    <nd ref="304038727"/>
    <tag k="highway" v="residential"/>
    <tag k="name" v="Am Dreieck"/>
    <tag k="surface" v="cobblestone"/>
  </way>
</osm>
