<?xml version='1.0' encoding='UTF-8'?>
<osm version="0.6" generator="libosmium/2.20.0">
  <way id="6878490" version="4" timestamp="2010-02-15T05:06:25Z" uid="74617" user="JohnSmith" changeset="3880242">
    <nd ref="53885712"/>
    <nd ref="603453444"/>
    <nd ref="53885791"/>
    <nd ref="603453445"/>
    <nd ref="53885801"/>
    <nd ref="603453446"/>
    <nd ref="257001590"/>
    <nd ref="53885808"/>
    <nd ref="603453447"/>
    <nd ref="53885817"/>
    <nd ref="603453448"/>
    <nd ref="53885831"/>
    <tag k="highway" v="unclassified"/>
    <tag k="maxspeed" v="50"/>
    <tag k="name" v="Currlew Street"/>
  </way>
  <way id="6878495" version="3" timestamp="2010-02-15T05:06:24Z" uid="74617" user="JohnSmith" changeset="3880242">
    <nd ref="53885717"/>
    <nd ref="53885723"/>
    <nd ref="603453176"/>
    <nd ref="53885732"/>
    <nd ref="603453177"/>
    <nd ref="53885742"/>
    <nd ref="603453178"/>
    <nd ref="53885747"/>
    <tag k="highway" v="unclassified"/>
    <tag k="maxspeed" v="50"/>
    <tag k="name" v="Eskmount Drive"/>
  </way>
  <way id="6878505" version="6" timestamp="2010-02-15T05:06:25Z" uid="74617" user="JohnSmith" changeset="3880242">
    <nd ref="53885862"/>
    <nd ref="608644354"/>
    <nd ref="603453490"/>
    <nd ref="603453654"/>
    <nd ref="603453491"/>
    <nd ref="53885632"/>
    <tag k="highway" v="unclassified"/>
    <tag k="maxspeed" v="50"/>
    <tag k="name" v="Campbell Street"/>
  </way>
  <way id="6878510" version="3" timestamp="2010-02-15T05:06:26Z" uid="74617" user="JohnSmith" changeset="3880242">
    <nd ref="53885668"/>
    <nd ref="53885662"/>
    <tag k="highway" v="unclassified"/>
    <tag k="maxspeed" v="50"/>
    <tag k="name" v="Mayne Street"/>
  </way>
  <way id="6878521" version="6" timestamp="2010-02-15T05:06:24Z" uid="74617" user="JohnSmith" changeset="3880242">
    <nd ref="53885923"/>
    <nd ref="603370810"/>
    <nd ref="264044848"/>
    <tag k="highway" v="residential"/>
    <tag k="maxspeed" v="50"/>
    <tag k="name" v="Alpha Street"/>
  </way>
  <way id="6878527" version="8" timestamp="2010-02-15T05:06:08Z" uid="74617" user="JohnSmith" changeset="3880242">
    <nd ref="53885544"/>
    <nd ref="603364770"/>
    <nd ref="53885965"/>
    <nd ref="610181930"/>
    <nd ref="264044846"/>
    <tag k="highway" v="unclassified"/>
    <tag k="maxspeed" v="50"/>
    <tag k="name" v="Bellevue Parade"/>
  </way>
  <way id="6878535" version="6" timestamp="2010-02-15T05:06:19Z" uid="74617" user="JohnSmith" changeset="3880242">
    <nd ref="53885505"/>
    <nd ref="610745477"/>
    <nd ref="53885509"/>
    <nd ref="53885519"/>
    <tag k="highway" v="residential"/>
    <tag k="maxspeed" v="50"/>
    <tag k="name" v="Moore Street"/>
  </way>
</osm>
