<?xml version='1.0' encoding='UTF-8'?>
<osm version="0.6" generator="libosmium/2.20.0">
  <way id="69210105" version="1" timestamp="2010-07-23T06:46:19Z" uid="9719" user="dvaey" changeset="5292853">
    <nd ref="26641734"/>
    <nd ref="829824521"/>
    <nd ref="829824522"/>
    <nd ref="26641733"/>
  </way>
  <way id="69210105" version="2" timestamp="2010-07-23T06:46:35Z" uid="9719" user="dvaey" changeset="5292853">
    <nd ref="26641734"/>
    <nd ref="829824521"/>
    <nd ref="829824522"/>
    <nd ref="26641733"/>
    <tag k="highway" v="unclassified"/>
    <tag k="name" v="Bunda Street"/>
    <tag k="oneway" v="yes"/>
  </way>
  <way id="69210630" version="1" timestamp="2010-07-23T06:55:28Z" uid="143719" user="DarkoS" changeset="5292949">
    <nd ref="60967743"/>
    <nd ref="829831660"/>
    <tag k="bridge" v="yes"/>
    <tag k="highway" v="primary"/>
    <tag k="lanes" v="3"/>
    <tag k="layer" v="1"/>
    <tag k="name" v="Ivana Zajca"/>
    <tag k="oneway" v="yes"/>
    <tag k="ref" v="D8"/>
  </way>
  <way id="69210633" version="1" timestamp="2010-07-23T06:55:29Z" uid="143719" user="DarkoS" changeset="5292949">
    <nd ref="829831662"/>
    <nd ref="829831645"/>
    <nd ref="829831638"/>
    <nd ref="829831666"/>
    <tag k="highway" v="residential"/>
    <tag k="name" v="Orlići"/>
    <tag k="surface" v="asphalt"/>
  </way>
  <way id="69210635" version="1" timestamp="2010-07-23T06:55:29Z" uid="143719" user="DarkoS" changeset="5292949">
    <nd ref="829831646"/>
    <nd ref="357207902"/>
    <tag k="bridge" v="yes"/>
    <tag k="highway" v="primary"/>
    <tag k="lanes" v="3"/>
    <tag k="layer" v="1"/>
    <tag k="name" v="Ivana Zajca"/>
    <tag k="oneway" v="yes"/>
    <tag k="ref" v="D8"/>
  </way>
  <way id="69210636" version="1" timestamp="2010-07-23T06:55:29Z" uid="143719" user="DarkoS" changeset="5292949">
    <nd ref="829831653"/>
    <nd ref="829831642"/>
    <tag k="highway" v="residential"/>
    <tag k="layer" v="-1"/>
    <tag k="name" v="Pod Ohrušvom"/>
    <tag k="surface" v="asphalt"/>
  </way>
  <way id="69210637" version="1" timestamp="2010-07-23T06:55:29Z" uid="143719" user="DarkoS" changeset="5292949">
    <nd ref="829831673"/>
    <nd ref="829831665"/>
    <nd ref="829831637"/>
    <nd ref="829831644"/>
    <tag k="name" v="Rječina"/>
    <tag k="waterway" v="river"/>
  </way>
  <way id="69210639" version="1" timestamp="2010-07-23T06:55:29Z" uid="143719" user="DarkoS" changeset="5292949">
    <nd ref="418991142"/>
    <nd ref="357206540"/>
    <nd ref="418991144"/>
    <tag k="highway" v="residential"/>
    <tag k="oneway" v="yes"/>
    <tag k="surface" v="asphalt"/>
  </way>
  <way id="69210640" version="1" timestamp="2010-07-23T06:55:30Z" uid="143719" user="DarkoS" changeset="5292949">
    <nd ref="829831661"/>
    <nd ref="829831651"/>
    <nd ref="829831673"/>
    <tag k="layer" v="-1"/>
    <tag k="name" v="Rječina"/>
    <tag k="waterway" v="river"/>
  </way>
  <way id="69210641" version="1" timestamp="2010-07-23T06:55:30Z" uid="143719" user="DarkoS" changeset="5292949">
    <nd ref="63899930"/>
    <nd ref="63945118"/>
    <nd ref="829831640"/>
    <nd ref="829831655"/>
    <nd ref="829831648"/>
    <nd ref="829831664"/>
    <nd ref="829831671"/>
    <nd ref="829831650"/>
    <nd ref="63899930"/>
    <tag k="name" v="Mrtvi kanal"/>
    <tag k="waterway" v="canal"/>
  </way>
  <way id="69210642" version="1" timestamp="2010-07-23T06:55:30Z" uid="143719" user="DarkoS" changeset="5292949">
    <nd ref="829831669"/>
    <nd ref="829831679"/>
    <tag k="highway" v="service"/>
    <tag k="passing_places" v="yes"/>
    <tag k="service" v="driveway"/>
    <tag k="surface" v="asphalt"/>
  </way>
  <way id="69210643" version="1" timestamp="2010-07-23T06:55:31Z" uid="143719" user="DarkoS" changeset="5292949">
    <nd ref="341967840"/>
    <nd ref="829831649"/>
    <nd ref="829831657"/>
    <nd ref="829831643"/>
    <nd ref="829831676"/>
    <nd ref="829831659"/>
    <nd ref="829831668"/>
    <nd ref="829831653"/>
    <tag k="highway" v="residential"/>
    <tag k="name" v="Svete Ane"/>
    <tag k="surface" v="asphalt"/>
  </way>
  <way id="69210644" version="1" timestamp="2010-07-23T06:55:31Z" uid="143719" user="DarkoS" changeset="5292949">
    <nd ref="829831638"/>
    <nd ref="829831675"/>
    <tag k="highway" v="residential"/>
    <tag k="surface" v="paved"/>
  </way>
  <way id="69210645" version="1" timestamp="2010-07-23T06:55:31Z" uid="143719" user="DarkoS" changeset="5292949">
    <nd ref="829831677"/>
    <nd ref="829831670"/>
    <tag k="bridge" v="yes"/>
    <tag k="highway" v="footway"/>
    <tag k="layer" v="1"/>
    <tag k="name" v="Most hrvatskih braniteǉa"/>
    <tag k="surface" v="metal"/>
  </way>
  <way id="69210646" version="1" timestamp="2010-07-23T06:55:31Z" uid="143719" user="DarkoS" changeset="5292949">
    <nd ref="60967844"/>
    <nd ref="60967845"/>
    <nd ref="60967847"/>
    <tag k="highway" v="residential"/>
    <tag k="name" v="Rade Šupića"/>
    <tag k="oneway" v="yes"/>
    <tag k="surface" v="asphalt"/>
  </way>
  <way id="69210647" version="1" timestamp="2010-07-23T06:55:31Z" uid="143719" user="DarkoS" changeset="5292949">
    <nd ref="60967844"/>
    <nd ref="357207902"/>
    <tag k="highway" v="tertiary"/>
    <tag k="lanes" v="2"/>
    <tag k="name" v="Šetalište Andrije Kačića Miošića"/>
    <tag k="oneway" v="yes"/>
  </way>
  <way id="69210648" version="1" timestamp="2010-07-23T06:55:31Z" uid="143719" user="DarkoS" changeset="5292949">
    <nd ref="418991142"/>
    <nd ref="418991143"/>
    <nd ref="60967767"/>
    <tag k="highway" v="residential"/>
    <tag k="name" v="Ribarska"/>
    <tag k="oneway" v="yes"/>
    <tag k="surface" v="asphalt"/>
  </way>
  <way id="69210651" version="1" timestamp="2010-07-23T06:55:32Z" uid="143719" user="DarkoS" changeset="5292949">
    <nd ref="829831660"/>
    <nd ref="60967745"/>
    <nd ref="60967746"/>
    <nd ref="60967747"/>
    <nd ref="60967748"/>
    <nd ref="829831646"/>
    <tag k="highway" v="primary"/>
    <tag k="lanes" v="3"/>
    <tag k="name" v="Ivana Zajca"/>
    <tag k="oneway" v="yes"/>
    <tag k="ref" v="D8"/>
  </way>
  <way id="69210652" version="1" timestamp="2010-07-23T06:55:32Z" uid="143719" user="DarkoS" changeset="5292949">
    <nd ref="829831658"/>
    <nd ref="829831661"/>
    <tag k="name" v="Rječina"/>
    <tag k="waterway" v="river"/>
  </way>
  <way id="69210654" version="1" timestamp="2010-07-23T06:55:32Z" uid="143719" user="DarkoS" changeset="5292949">
    <nd ref="829831642"/>
    <nd ref="829831674"/>
    <nd ref="829831678"/>
    <nd ref="829831663"/>
    <nd ref="829831647"/>
    <nd ref="829831639"/>
    <nd ref="829831652"/>
    <nd ref="829831641"/>
    <nd ref="829831672"/>
    <nd ref="829831656"/>
    <nd ref="829831662"/>
    <tag k="highway" v="residential"/>
    <tag k="name" v="Pod Ohrušvom"/>
    <tag k="surface" v="asphalt"/>
  </way>
  <way id="69210836" version="2" timestamp="2010-09-12T04:48:09Z" uid="61114" user="Trav" changeset="5755616">
    <nd ref="359779774"/>
    <nd ref="359779772"/>
    <nd ref="359779773"/>
    <nd ref="714337544"/>
    <tag k="highway" v="service"/>
    <tag k="note" v="Blacktown Hospital"/>
    <tag k="service" v="driveway"/>
  </way>
  <way id="69210837" version="2" timestamp="2010-09-12T04:48:09Z" uid="61114" user="Trav" changeset="5755616">
    <nd ref="829832936"/>
    <nd ref="829832941"/>
    <tag k="highway" v="service"/>
  </way>
</osm>
