<?xml version='1.0' encoding='UTF-8'?>
<osm version="0.6" generator="libosmium/2.20.0">
  <way id="69348021" version="2" timestamp="2011-04-02T23:47:23Z" uid="7617" user="Franc" changeset="7749406">
    <nd ref="830986074"/>
    <nd ref="830986104"/>
    <nd ref="830986090"/>
    <tag k="highway" v="service"/>
    <tag k="name" v="Hudson Lane"/>
    <tag k="oneway" v="yes"/>
  </way>
  <way id="69348372" version="2" timestamp="2010-09-26T20:35:47Z" uid="9581" user="Lobelt" changeset="5885573">
    <nd ref="778230395"/>
    <nd ref="487059"/>
    <nd ref="487061"/>
    <nd ref="927257447"/>
    <tag k="highway" v="motorway"/>
    <tag k="int_ref" v="E 40"/>
    <tag k="lanes" v="3"/>
    <tag k="maxspeed" v="no"/>
    <tag k="oneway" v="yes"/>
    <tag k="osmarender:nameDirection" v="-1"/>
    <tag k="osmarender:renderName" v="no"/>
    <tag k="ref" v="A 4"/>
  </way>
  <way id="69348373" version="2" timestamp="2010-09-26T20:36:25Z" uid="9581" user="Lobelt" changeset="5885573">
    <nd ref="830988330"/>
    <nd ref="486071"/>
    <nd ref="927257460"/>
    <nd ref="486073"/>
    <tag k="highway" v="motorway"/>
    <tag k="int_ref" v="E 40"/>
    <tag k="lanes" v="3"/>
    <tag k="maxspeed" v="no"/>
    <tag k="maxspeed:wet" v="100"/>
    <tag k="oneway" v="yes"/>
    <tag k="osmarender:nameDirection" v="-1"/>
    <tag k="osmarender:renderName" v="no"/>
    <tag k="ref" v="A 4"/>
  </way>
  <way id="69348374" version="2" timestamp="2010-09-26T20:36:28Z" uid="9581" user="Lobelt" changeset="5885573">
    <nd ref="830988329"/>
    <nd ref="830988330"/>
    <tag k="bridge" v="yes"/>
    <tag k="highway" v="motorway"/>
    <tag k="int_ref" v="E 40"/>
    <tag k="lanes" v="3"/>
    <tag k="maxspeed" v="no"/>
    <tag k="maxspeed:wet" v="100"/>
    <tag k="oneway" v="yes"/>
    <tag k="osmarender:nameDirection" v="-1"/>
    <tag k="osmarender:renderName" v="no"/>
    <tag k="ref" v="A 4"/>
  </way>
  <way id="69348428" version="2" timestamp="2011-02-07T15:51:56Z" uid="4467" user="Rosscoe" changeset="7217453">
    <nd ref="830988620"/>
    <nd ref="1140914093"/>
    <nd ref="1140914229"/>
    <tag k="highway" v="unclassified"/>
    <tag k="name" v="Kellys Lane"/>
  </way>
  <way id="69348430" version="2" timestamp="2011-02-09T03:10:55Z" uid="4467" user="Rosscoe" changeset="7232692">
    <nd ref="654963642"/>
    <nd ref="1143303163"/>
    <nd ref="1143303402"/>
    <nd ref="1143303460"/>
    <nd ref="654963650"/>
    <nd ref="1143303442"/>
    <nd ref="1143303316"/>
    <nd ref="1143303296"/>
    <nd ref="830988602"/>
    <tag k="highway" v="residential"/>
    <tag k="name" v="Camp Street"/>
    <tag k="source" v="nearmap"/>
    <tag k="surface" v="asphalt"/>
  </way>
  <way id="69348435" version="2" timestamp="2011-02-07T15:52:18Z" uid="4467" user="Rosscoe" changeset="7217453">
    <nd ref="830988614"/>
    <nd ref="830988612"/>
    <tag k="highway" v="unclassified"/>
    <tag k="name" v="Cummins Road"/>
    <tag k="source" v="nearmap"/>
    <tag k="surface" v="asphalt"/>
  </way>
  <way id="69348436" version="2" timestamp="2011-02-09T03:10:56Z" uid="4467" user="Rosscoe" changeset="7232692">
    <nd ref="830988596"/>
    <nd ref="830988600"/>
    <tag k="highway" v="residential"/>
    <tag k="name" v="Alexander Court"/>
    <tag k="source" v="nearmap"/>
    <tag k="surface" v="asphalt"/>
  </way>
  <way id="69348439" version="2" timestamp="2011-02-09T03:10:44Z" uid="4467" user="Rosscoe" changeset="7232692">
    <nd ref="830988601"/>
    <nd ref="830988599"/>
    <nd ref="830988613"/>
    <nd ref="830988611"/>
    <nd ref="1143303209"/>
    <nd ref="830988619"/>
    <nd ref="830988601"/>
    <tag k="landuse" v="cemetery"/>
    <tag k="name" v="Creswick Cemetery"/>
    <tag k="source" v="nearmap"/>
  </way>
  <way id="69348440" version="2" timestamp="2011-02-09T03:10:43Z" uid="4467" user="Rosscoe" changeset="7232692">
    <nd ref="772359843"/>
    <nd ref="1143303471"/>
    <nd ref="772359844"/>
    <nd ref="772359845"/>
    <nd ref="772359846"/>
    <tag k="highway" v="unclassified"/>
    <tag k="name" v="Smokeytown Road"/>
    <tag k="source" v="nearmap"/>
  </way>
  <way id="69348442" version="2" timestamp="2011-02-07T15:52:16Z" uid="4467" user="Rosscoe" changeset="7217453">
    <nd ref="830988612"/>
    <nd ref="830988624"/>
    <nd ref="830988598"/>
    <tag k="highway" v="unclassified"/>
    <tag k="name" v="Fraser Road"/>
    <tag k="surface" v="gravel"/>
  </way>
  <way id="69348463" version="2" timestamp="2011-02-12T10:37:16Z" uid="4467" user="Rosscoe" changeset="7263208">
    <nd ref="245889566"/>
    <nd ref="830988800"/>
    <tag k="highway" v="residential"/>
    <tag k="maxspeed" v="50"/>
    <tag k="name" v="Janina Street"/>
    <tag k="source" v="nearmap"/>
  </way>
  <way id="69348548" version="1" timestamp="2010-07-24T08:12:00Z" uid="4467" user="Rosscoe" changeset="5301672">
    <nd ref="263675363"/>
    <nd ref="830989581"/>
    <nd ref="830989583"/>
    <nd ref="830989580"/>
    <nd ref="431164436"/>
    <tag k="highway" v="secondary"/>
    <tag k="name" v="Roghan Road"/>
    <tag k="oneway" v="yes"/>
    <tag k="source" v="nearmap"/>
  </way>
</osm>
