<?xml version='1.0' encoding='UTF-8'?>
<osm version="0.6" generator="libosmium/2.20.0">
  <way id="69343063" version="1" timestamp="2010-07-24T05:45:19Z" uid="33382" user="de_muur" changeset="5300911">
    <nd ref="407783790"/>
    <nd ref="21560158"/>
    <tag k="cycleway" v="track"/>
    <tag k="highway" v="secondary"/>
    <tag k="maxspeed" v="50"/>
    <tag k="name" v="Alte Landstraße"/>
    <tag k="postal_code" v="21039"/>
    <tag k="ref" v="K 80"/>
    <tag k="surface" v="paved"/>
  </way>
  <way id="69343063" version="8" timestamp="2010-10-19T14:26:28Z" uid="33382" user="de_muur" changeset="6099755">
    <nd ref="407783790"/>
    <nd ref="21560158"/>
    <tag k="cycleway" v="track"/>
    <tag k="highway" v="secondary"/>
    <tag k="maxspeed" v="50"/>
    <tag k="name" v="Alte Landstraße"/>
    <tag k="old_ref" v="B 5"/>
    <tag k="postal_code" v="21039"/>
    <tag k="ref" v="K 80"/>
    <tag k="surface" v="paved"/>
  </way>
  <way id="69343064" version="1" timestamp="2010-07-24T05:45:20Z" uid="33382" user="de_muur" changeset="5300911">
    <nd ref="252846474"/>
    <nd ref="252846476"/>
    <nd ref="290185219"/>
    <nd ref="252846477"/>
    <nd ref="252846478"/>
    <nd ref="252846479"/>
    <nd ref="21750713"/>
    <tag k="highway" v="secondary"/>
    <tag k="name" v="Rehmen"/>
    <tag k="postal_code" v="21039"/>
    <tag k="ref" v="L 208"/>
  </way>
  <way id="69343064" version="2" timestamp="2010-07-24T06:20:28Z" uid="33382" user="de_muur" changeset="5301057">
    <nd ref="252846474"/>
    <nd ref="290185219"/>
    <tag k="cycleway" v="track"/>
    <tag k="highway" v="secondary"/>
    <tag k="name" v="Rehmen"/>
    <tag k="postal_code" v="21039"/>
    <tag k="ref" v="L 208"/>
    <tag k="surface" v="paved"/>
  </way>
  <way id="69343638" version="1" timestamp="2010-07-24T06:20:22Z" uid="33382" user="de_muur" changeset="5301057">
    <nd ref="583227399"/>
    <nd ref="445393469"/>
    <tag k="highway" v="residential"/>
    <tag k="name" v="Lippenkuhle"/>
    <tag k="surface" v="paved"/>
  </way>
  <way id="69343639" version="1" timestamp="2010-07-24T06:20:22Z" uid="33382" user="de_muur" changeset="5301057">
    <nd ref="290185219"/>
    <nd ref="252846478"/>
    <nd ref="252846479"/>
    <nd ref="21750713"/>
    <tag k="highway" v="secondary"/>
    <tag k="name" v="Rehmen"/>
    <tag k="postal_code" v="21039"/>
    <tag k="ref" v="L 208"/>
    <tag k="surface" v="paved"/>
  </way>
  <way id="69343639" version="2" timestamp="2010-12-06T18:41:34Z" uid="33382" user="de_muur" changeset="6566778">
    <nd ref="290185219"/>
    <nd ref="1025313243"/>
    <tag k="highway" v="secondary"/>
    <tag k="maxspeed" v="50"/>
    <tag k="name" v="Rehmen"/>
    <tag k="postal_code" v="21039"/>
    <tag k="ref" v="L 208"/>
    <tag k="surface" v="paved"/>
  </way>
  <way id="69343640" version="1" timestamp="2010-07-24T06:20:22Z" uid="33382" user="de_muur" changeset="5301057">
    <nd ref="445393448"/>
    <nd ref="290185219"/>
    <tag k="highway" v="residential"/>
    <tag k="name" v="Lindenbreite"/>
    <tag k="postal_code" v="21039"/>
    <tag k="surface" v="paved"/>
  </way>
  <way id="69343641" version="1" timestamp="2010-07-24T06:20:22Z" uid="33382" user="de_muur" changeset="5301057">
    <nd ref="445393536"/>
    <nd ref="252846479"/>
    <tag k="foot" v="yes"/>
    <tag k="highway" v="cycleway"/>
    <tag k="surface" v="paved"/>
  </way>
  <way id="69343642" version="1" timestamp="2010-07-24T06:20:23Z" uid="33382" user="de_muur" changeset="5301057">
    <nd ref="445393469"/>
    <nd ref="21750713"/>
    <tag k="highway" v="residential"/>
    <tag k="name" v="Lippenkuhle"/>
    <tag k="surface" v="paved"/>
  </way>
  <way id="69343643" version="1" timestamp="2010-07-24T06:20:23Z" uid="33382" user="de_muur" changeset="5301057">
    <nd ref="830944305"/>
    <nd ref="583227399"/>
    <tag k="highway" v="residential"/>
    <tag k="name" v="Lippenkuhle"/>
    <tag k="surface" v="paved"/>
  </way>
  <way id="69343736" version="1" timestamp="2010-07-24T06:33:26Z" uid="33382" user="de_muur" changeset="5301115">
    <nd ref="33452231"/>
    <nd ref="246189335"/>
    <nd ref="246189336"/>
    <nd ref="246189127"/>
    <nd ref="246189128"/>
    <nd ref="726895425"/>
    <nd ref="246189129"/>
    <tag k="highway" v="residential"/>
    <tag k="name" v="Am Knollgraben"/>
    <tag k="postal_code" v="21039"/>
  </way>
  <way id="69343736" version="2" timestamp="2010-08-08T19:20:52Z" uid="33382" user="de_muur" changeset="5436742">
    <nd ref="33452231"/>
    <nd ref="849945954"/>
    <nd ref="246189335"/>
    <nd ref="246189336"/>
    <nd ref="246189127"/>
    <nd ref="246189128"/>
    <nd ref="726895425"/>
    <nd ref="246189129"/>
    <tag k="highway" v="residential"/>
    <tag k="name" v="Am Knollgraben"/>
    <tag k="postal_code" v="21039"/>
  </way>
</osm>
