<?xml version='1.0' encoding='UTF-8'?>
<osm version="0.6" generator="libosmium/2.20.0">
  <way id="69350026" version="1" timestamp="2010-07-24T08:59:29Z" uid="4467" user="Rosscoe" changeset="5302076">
    <nd ref="831011285"/>
    <nd ref="831011301"/>
    <tag k="bridge" v="yes"/>
    <tag k="highway" v="secondary"/>
    <tag k="layer" v="1"/>
    <tag k="name" v="Nolan Street"/>
    <tag k="source" v="nearmap"/>
  </way>
  <way id="69350026" version="2" timestamp="2011-04-21T11:46:04Z" uid="4467" user="Rosscoe" changeset="7924737">
    <nd ref="831011285"/>
    <nd ref="831011301"/>
    <tag k="bridge" v="yes"/>
    <tag k="highway" v="secondary"/>
    <tag k="layer" v="1"/>
    <tag k="name" v="Nolan Street"/>
    <tag k="oneway" v="yes"/>
    <tag k="source" v="nearmap"/>
  </way>
  <way id="69350039" version="1" timestamp="2010-07-24T08:59:30Z" uid="4467" user="Rosscoe" changeset="5302076">
    <nd ref="831011301"/>
    <nd ref="693893655"/>
    <nd ref="552637135"/>
    <nd ref="581816608"/>
    <nd ref="391202110"/>
    <tag k="highway" v="secondary"/>
    <tag k="name" v="Nolan Street"/>
    <tag k="source" v="nearmap"/>
  </way>
  <way id="69350039" version="4" timestamp="2011-04-21T11:45:36Z" uid="4467" user="Rosscoe" changeset="7924737">
    <nd ref="1253925917"/>
    <nd ref="1253925888"/>
    <nd ref="552637135"/>
    <nd ref="1250751194"/>
    <nd ref="693893655"/>
    <nd ref="1253925908"/>
    <tag k="highway" v="secondary"/>
    <tag k="name" v="Nolan Street"/>
    <tag k="oneway" v="yes"/>
    <tag k="source" v="nearmap"/>
  </way>
</osm>
