<?xml version='1.0' encoding='UTF-8'?>
<osm version="0.6" generator="libosmium/2.20.0">
  <way id="69364152" version="1" timestamp="2010-07-24T11:12:56Z" uid="18775" user="drlizau" changeset="5303040">
    <nd ref="361768560"/>
    <nd ref="831148938"/>
    <tag k="highway" v="unclassified"/>
    <tag k="name" v="Boothenba Road"/>
    <tag k="source" v="extrapolation"/>
    <tag k="source:name" v="survey"/>
  </way>
  <way id="69364153" version="1" timestamp="2010-07-24T11:12:57Z" uid="18775" user="drlizau" changeset="5303040">
    <nd ref="831148917"/>
    <nd ref="830998838"/>
    <tag k="bridge" v="yes"/>
    <tag k="highway" v="primary"/>
    <tag k="layer" v="1"/>
    <tag k="source" v="survey"/>
  </way>
  <way id="69364154" version="1" timestamp="2010-07-24T11:12:57Z" uid="18775" user="drlizau" changeset="5303040">
    <nd ref="831148940"/>
    <nd ref="831148934"/>
    <nd ref="831148948"/>
    <tag k="highway" v="unclassified"/>
    <tag k="name" v="Beni Road"/>
    <tag k="source" v="extrapolation"/>
    <tag k="source:name" v="survey"/>
  </way>
  <way id="69364155" version="1" timestamp="2010-07-24T11:12:57Z" uid="18775" user="drlizau" changeset="5303040">
    <nd ref="830998926"/>
    <nd ref="831148949"/>
    <nd ref="361768560"/>
    <tag k="attribution" v="Based on Australian Bureau of Statistics data"/>
    <tag k="highway" v="unclassified"/>
    <tag k="name" v="Old Mendooran Road"/>
    <tag k="source" v="ABS data"/>
    <tag k="source:name" v="survey"/>
  </way>
  <way id="69364155" version="2" timestamp="2011-04-02T09:15:20Z" uid="4467" user="Rosscoe" changeset="7742172">
    <nd ref="830998926"/>
    <nd ref="831148949"/>
    <nd ref="1228999955"/>
    <nd ref="1229000049"/>
    <tag k="highway" v="unclassified"/>
    <tag k="name" v="Old Mendooran Road"/>
    <tag k="source" v="ABS data"/>
    <tag k="source:name" v="survey"/>
  </way>
  <way id="69364156" version="1" timestamp="2010-07-24T11:12:57Z" uid="18775" user="drlizau" changeset="5303040">
    <nd ref="830998838"/>
    <nd ref="245104303"/>
    <nd ref="831148915"/>
    <nd ref="830998865"/>
    <nd ref="830998848"/>
    <nd ref="830998944"/>
    <nd ref="622274766"/>
    <nd ref="245104291"/>
    <nd ref="622274770"/>
    <nd ref="245104289"/>
    <nd ref="830998878"/>
    <nd ref="830998896"/>
    <nd ref="830998887"/>
    <nd ref="830998937"/>
    <nd ref="830998912"/>
    <nd ref="830998922"/>
    <nd ref="830998928"/>
    <nd ref="245104286"/>
    <nd ref="830998840"/>
    <nd ref="245104283"/>
    <nd ref="830998858"/>
    <nd ref="245104280"/>
    <nd ref="622274587"/>
    <tag k="highway" v="primary"/>
    <tag k="source" v="survey"/>
  </way>
  <way id="69364409" version="2" timestamp="2010-08-07T04:11:53Z" uid="20587" user="balrog-kun" changeset="5421907">
    <nd ref="831168721"/>
    <nd ref="831168561"/>
    <nd ref="831168621"/>
    <nd ref="831168665"/>
    <nd ref="831168721"/>
    <tag k="addr:city" v="Warszawa@Warszawa Ursynów"/>
    <tag k="addr:country" v="PL"/>
    <tag k="building" v="residential"/>
  </way>
  <way id="69364420" version="2" timestamp="2010-08-07T04:11:53Z" uid="20587" user="balrog-kun" changeset="5421907">
    <nd ref="831168622"/>
    <nd ref="831168684"/>
    <nd ref="831168757"/>
    <nd ref="831168737"/>
    <nd ref="831168590"/>
    <nd ref="831168631"/>
    <nd ref="831168622"/>
    <tag k="addr:city" v="Warszawa@Warszawa Ursynów"/>
    <tag k="addr:country" v="PL"/>
    <tag k="building" v="residential"/>
  </way>
  <way id="69364423" version="2" timestamp="2010-08-07T04:11:51Z" uid="20587" user="balrog-kun" changeset="5421907">
    <nd ref="831168651"/>
    <nd ref="831168694"/>
    <nd ref="831168731"/>
    <nd ref="831168706"/>
    <nd ref="831168651"/>
    <tag k="addr:city" v="Warszawa@Warszawa Ursynów"/>
    <tag k="addr:country" v="PL"/>
    <tag k="building" v="residential"/>
  </way>
  <way id="69364424" version="2" timestamp="2010-08-07T04:12:00Z" uid="20587" user="balrog-kun" changeset="5421907">
    <nd ref="831168623"/>
    <nd ref="831168669"/>
    <nd ref="831168709"/>
    <nd ref="831168748"/>
    <nd ref="831168623"/>
    <tag k="addr:city" v="Warszawa@Warszawa Ursynów"/>
    <tag k="addr:country" v="PL"/>
    <tag k="building" v="residential"/>
  </way>
  <way id="69364425" version="2" timestamp="2010-08-07T04:11:38Z" uid="20587" user="balrog-kun" changeset="5421907">
    <nd ref="831168598"/>
    <nd ref="831168640"/>
    <nd ref="831168688"/>
    <nd ref="831168723"/>
    <nd ref="831168598"/>
    <tag k="addr:city" v="Warszawa@Warszawa Ursynów"/>
    <tag k="addr:country" v="PL"/>
    <tag k="building" v="residential"/>
  </way>
  <way id="69364426" version="2" timestamp="2010-08-07T04:11:47Z" uid="20587" user="balrog-kun" changeset="5421907">
    <nd ref="831168712"/>
    <nd ref="831168753"/>
    <nd ref="831168611"/>
    <nd ref="831168656"/>
    <nd ref="831168712"/>
    <tag k="addr:city" v="Warszawa@Warszawa Ursynów"/>
    <tag k="addr:country" v="PL"/>
    <tag k="building" v="residential"/>
  </way>
  <way id="69364427" version="2" timestamp="2010-08-07T04:11:57Z" uid="20587" user="balrog-kun" changeset="5421907">
    <nd ref="831168659"/>
    <nd ref="831168698"/>
    <nd ref="831168581"/>
    <nd ref="831168626"/>
    <nd ref="831168659"/>
    <tag k="addr:city" v="Warszawa@Warszawa Ursynów"/>
    <tag k="addr:country" v="PL"/>
    <tag k="building" v="residential"/>
  </way>
  <way id="69364471" version="1" timestamp="2010-07-24T11:29:34Z" uid="16922" user="amai" changeset="5303144">
    <nd ref="831175299"/>
    <nd ref="831175330"/>
    <nd ref="831175332"/>
    <tag k="highway" v="road"/>
    <tag k="source" v="Yahoo hires"/>
  </way>
  <way id="69364472" version="1" timestamp="2010-07-24T11:29:35Z" uid="16922" user="amai" changeset="5303144">
    <nd ref="831175313"/>
    <nd ref="831175340"/>
    <nd ref="831175332"/>
    <nd ref="831175342"/>
    <tag k="highway" v="road"/>
    <tag k="source" v="Yahoo hires"/>
  </way>
  <way id="69364473" version="1" timestamp="2010-07-24T11:29:35Z" uid="16922" user="amai" changeset="5303144">
    <nd ref="831175348"/>
    <nd ref="831175352"/>
    <nd ref="831175356"/>
    <nd ref="831175359"/>
    <nd ref="831175348"/>
    <tag k="building" v="yes"/>
    <tag k="source" v="Yahoo hires"/>
  </way>
  <way id="69364474" version="1" timestamp="2010-07-24T11:29:36Z" uid="16922" user="amai" changeset="5303144">
    <nd ref="269615655"/>
    <nd ref="831175385"/>
    <nd ref="831175390"/>
    <nd ref="831175395"/>
    <tag k="highway" v="road"/>
    <tag k="source" v="Yahoo"/>
  </way>
  <way id="69364475" version="1" timestamp="2010-07-24T11:29:38Z" uid="16922" user="amai" changeset="5303144">
    <nd ref="269615617"/>
    <nd ref="831175511"/>
    <nd ref="831175512"/>
    <nd ref="831175513"/>
    <tag k="highway" v="road"/>
    <tag k="source" v="Yahoo hires"/>
  </way>
  <way id="69364522" version="1" timestamp="2010-07-24T11:33:59Z" uid="16922" user="amai" changeset="5303179">
    <nd ref="831182568"/>
    <nd ref="831182570"/>
    <nd ref="831182572"/>
    <nd ref="831182574"/>
    <nd ref="831182576"/>
    <nd ref="831182577"/>
    <nd ref="831182578"/>
    <nd ref="831182579"/>
    <nd ref="831182580"/>
    <nd ref="831182581"/>
    <nd ref="831182568"/>
    <tag k="natural" v="water"/>
    <tag k="source" v="Yahoo"/>
  </way>
</osm>
