<?xml version='1.0' encoding='UTF-8'?>
<osm version="0.6" generator="libosmium/2.20.0">
  <way id="6953037" version="2" timestamp="2008-06-10T20:14:43Z" uid="8619" user="cetest" changeset="121082">
    <nd ref="44994915"/>
    <nd ref="44998511"/>
    <nd ref="44998911"/>
    <tag k="AND:importance_level" v="5"/>
    <tag k="AND_nosr_r" v="15549445"/>
    <tag k="highway" v="unclassified"/>
    <tag k="name" v="Bergstraat"/>
  </way>
  <way id="6953039" version="2" timestamp="2008-06-10T20:14:42Z" uid="8619" user="cetest" changeset="121082">
    <nd ref="44991614"/>
    <nd ref="44992176"/>
    <nd ref="44992767"/>
    <nd ref="44992954"/>
    <nd ref="44993683"/>
    <nd ref="44994466"/>
    <nd ref="269590550"/>
    <nd ref="44994915"/>
    <tag k="AND:importance_level" v="5"/>
    <tag k="AND_nosr_r" v="15549443"/>
    <tag k="highway" v="unclassified"/>
    <tag k="name" v="Vossenakker"/>
  </way>
  <way id="6953039" version="3" timestamp="2008-06-13T19:49:46Z" uid="8619" user="cetest" changeset="149783">
    <nd ref="44991614"/>
    <nd ref="44992176"/>
    <tag k="AND:importance_level" v="5"/>
    <tag k="AND_nosr_r" v="15549443"/>
    <tag k="highway" v="unclassified"/>
    <tag k="name" v="Vossenakker"/>
  </way>
  <way id="6953045" version="2" timestamp="2008-06-10T20:14:44Z" uid="8619" user="cetest" changeset="121082">
    <nd ref="44994915"/>
    <nd ref="44998513"/>
    <tag k="AND_nosr_r" v="15549438"/>
    <tag k="highway" v="unclassified"/>
    <tag k="name" v="Vossenakker"/>
  </way>
  <way id="6953195" version="2" timestamp="2008-06-10T20:14:45Z" uid="8619" user="cetest" changeset="121082">
    <nd ref="44953245"/>
    <nd ref="44954094"/>
    <nd ref="269590544"/>
    <tag k="AND:importance_level" v="5"/>
    <tag k="AND_nosr_r" v="15549302"/>
    <tag k="highway" v="tertiary"/>
    <tag k="name" v="Kazernelaan"/>
  </way>
  <way id="6953950" version="2" timestamp="2008-06-10T20:14:44Z" uid="8619" user="cetest" changeset="121082">
    <nd ref="45020799"/>
    <nd ref="45021171"/>
    <nd ref="247743053"/>
    <tag k="AND:importance_level" v="5"/>
    <tag k="AND_nosr_r" v="15548645"/>
    <tag k="highway" v="unclassified"/>
    <tag k="name" v="Amsterdamseweg"/>
  </way>
  <way id="6953951" version="2" timestamp="2008-06-10T20:14:41Z" uid="8619" user="cetest" changeset="121082">
    <nd ref="45017106"/>
    <nd ref="247743053"/>
    <tag k="AND_nosr_r" v="15548644"/>
    <tag k="highway" v="unclassified"/>
    <tag k="name" v="Telefoonweg"/>
  </way>
  <way id="6953955" version="2" timestamp="2008-06-10T20:14:41Z" uid="8619" user="cetest" changeset="121082">
    <nd ref="247743053"/>
    <nd ref="45021983"/>
    <tag k="AND:importance_level" v="5"/>
    <tag k="AND_nosr_r" v="15548640"/>
    <tag k="highway" v="unclassified"/>
    <tag k="name" v="Amsterdamseweg"/>
  </way>
</osm>
