<?xml version='1.0' encoding='UTF-8'?>
<osm version="0.6" generator="libosmium/2.20.0">
  <way id="69821192" version="1" timestamp="2010-07-27T00:06:09Z" uid="4467" user="Rosscoe" changeset="5325511">
    <nd ref="355757361"/>
    <nd ref="834804846"/>
    <nd ref="355757335"/>
    <nd ref="834804848"/>
    <nd ref="834804858"/>
    <nd ref="355757356"/>
    <tag k="highway" v="residential"/>
    <tag k="maxspeed" v="50"/>
    <tag k="name" v="Cascade Drive"/>
    <tag k="oneway" v="yes"/>
    <tag k="source" v="survey"/>
  </way>
  <way id="69821193" version="1" timestamp="2010-07-27T00:06:10Z" uid="4467" user="Rosscoe" changeset="5325511">
    <nd ref="361390493"/>
    <nd ref="834804841"/>
    <nd ref="834804858"/>
    <nd ref="834804852"/>
    <tag k="highway" v="residential"/>
    <tag k="maxspeed" v="50"/>
    <tag k="name" v="Victoria Parade"/>
    <tag k="oneway" v="yes"/>
    <tag k="source" v="nearmap"/>
    <tag k="source_ref:name" v="http://osm.beldin.org/2009/03/dscf8323.jpg"/>
  </way>
  <way id="69821194" version="1" timestamp="2010-07-27T00:06:11Z" uid="4467" user="Rosscoe" changeset="5325511">
    <nd ref="253339427"/>
    <nd ref="277320556"/>
    <nd ref="277320557"/>
    <tag k="highway" v="residential"/>
    <tag k="maxspeed" v="50"/>
    <tag k="name" v="Cascade Drive"/>
    <tag k="oneway" v="yes"/>
    <tag k="source" v="survey"/>
  </way>
  <way id="69821195" version="1" timestamp="2010-07-27T00:06:12Z" uid="4467" user="Rosscoe" changeset="5325511">
    <nd ref="361390493"/>
    <nd ref="361390487"/>
    <tag k="construction" v="residential"/>
    <tag k="highway" v="construction"/>
    <tag k="maxspeed" v="50"/>
    <tag k="name" v="Victoria Parade"/>
    <tag k="source" v="extrapolation"/>
    <tag k="source_ref:name" v="http://osm.beldin.org/2009/03/dscf8323.jpg"/>
  </way>
</osm>
