<?xml version='1.0' encoding='UTF-8'?>
<osm version="0.6" generator="libosmium/2.20.0">
  <way id="69972361" version="2" timestamp="2011-01-04T22:36:46Z" uid="65847" user="LKK" changeset="6866846">
    <nd ref="836110270"/>
    <nd ref="836110272"/>
    <nd ref="836110273"/>
    <nd ref="836110274"/>
    <nd ref="836110270"/>
    <tag k="amenity" v="kindergarten"/>
    <tag k="building" v="yes"/>
    <tag k="name" v="90 ОДЗ &quot;Веса Паспалеева&quot;"/>
  </way>
  <way id="69972434" version="1" timestamp="2010-07-28T08:47:14Z" uid="4467" user="Rosscoe" changeset="5336013">
    <nd ref="836110618"/>
    <nd ref="48507327"/>
    <tag k="bridge" v="yes"/>
    <tag k="highway" v="secondary"/>
    <tag k="lanes" v="2"/>
    <tag k="layer" v="1"/>
    <tag k="name" v="Princes Highway"/>
    <tag k="oneway" v="yes"/>
    <tag k="ref" v="C101"/>
  </way>
  <way id="69972435" version="1" timestamp="2010-07-28T08:47:15Z" uid="4467" user="Rosscoe" changeset="5336013">
    <nd ref="836110617"/>
    <nd ref="48735457"/>
    <nd ref="48779190"/>
    <nd ref="702473680"/>
    <nd ref="48779189"/>
    <nd ref="48779188"/>
    <nd ref="702473679"/>
    <nd ref="48779186"/>
    <nd ref="48511968"/>
    <nd ref="399721767"/>
    <nd ref="48735540"/>
    <nd ref="48511969"/>
    <nd ref="768552277"/>
    <nd ref="48511970"/>
    <nd ref="48511971"/>
    <nd ref="768552282"/>
    <nd ref="48511972"/>
    <nd ref="48511973"/>
    <nd ref="369312095"/>
    <nd ref="48735884"/>
    <tag k="highway" v="secondary"/>
    <tag k="lanes" v="2"/>
    <tag k="name" v="Princes Highway"/>
    <tag k="oneway" v="yes"/>
    <tag k="ref" v="C101"/>
  </way>
  <way id="69972436" version="1" timestamp="2010-07-28T08:47:17Z" uid="4467" user="Rosscoe" changeset="5336013">
    <nd ref="702473676"/>
    <nd ref="702473677"/>
    <nd ref="702473678"/>
    <nd ref="702473682"/>
    <tag k="highway" v="service"/>
    <tag k="service" v="service_road"/>
  </way>
  <way id="69972440" version="2" timestamp="2011-04-28T06:30:02Z" uid="33382" user="de_muur" changeset="7991425">
    <nd ref="461023401"/>
    <nd ref="836110658"/>
    <nd ref="836110668"/>
    <nd ref="836110648"/>
    <tag k="fixme" v="ich bin mir nicht mehr sicher wo der weg abzweigte ggf die endpunkte verbessern"/>
    <tag k="highway" v="track"/>
    <tag k="tracktype" v="grade3"/>
  </way>
</osm>
