<?xml version='1.0' encoding='UTF-8'?>
<osm version="0.6" generator="libosmium/2.20.0">
  <way id="69974236" version="2" timestamp="2010-07-28T10:24:52Z" uid="4467" user="Rosscoe" changeset="5336645">
    <nd ref="836140721"/>
    <nd ref="259322837"/>
    <tag k="bicycle" v="yes"/>
    <tag k="highway" v="footway"/>
    <tag k="name" v="Walkway from View St to Grace Street"/>
    <tag k="soucre" v="openstreetbugs"/>
  </way>
  <way id="69974236" version="3" timestamp="2010-08-18T01:10:19Z" uid="4467" user="Rosscoe" changeset="5522901">
    <nd ref="836140721"/>
    <nd ref="259322837"/>
    <tag k="bicycle" v="yes"/>
    <tag k="highway" v="footway"/>
    <tag k="name" v="Walkway from View St to Grace Street"/>
    <tag k="source" v="openstreetbugs"/>
  </way>
  <way id="69974237" version="2" timestamp="2010-08-18T01:10:26Z" uid="4467" user="Rosscoe" changeset="5522901">
    <nd ref="836140713"/>
    <nd ref="836140717"/>
    <tag k="highway" v="residential"/>
    <tag k="name" v="Cedar Court"/>
    <tag k="source" v="openstreetbugs"/>
  </way>
  <way id="69974239" version="2" timestamp="2010-08-18T02:22:27Z" uid="4467" user="Rosscoe" changeset="5523040">
    <nd ref="307864253"/>
    <nd ref="836140715"/>
    <nd ref="307864254"/>
    <nd ref="89503867"/>
    <tag k="highway" v="residential"/>
    <tag k="maxspeed" v="50"/>
    <tag k="name" v="Nutgrove Avenue"/>
    <tag k="source:maxspeed" v="default residential speed limit in Australia"/>
  </way>
  <way id="69974241" version="2" timestamp="2010-08-18T01:10:12Z" uid="4467" user="Rosscoe" changeset="5522901">
    <nd ref="307864251"/>
    <nd ref="307864300"/>
    <nd ref="307864252"/>
    <nd ref="307864253"/>
    <tag k="highway" v="residential"/>
    <tag k="maxspeed" v="50"/>
    <tag k="maxspeed:source" v="default residential speed limit in Australia"/>
    <tag k="name" v="Beechworth Road"/>
    <tag k="source" v="name from openstreetbugs"/>
  </way>
  <way id="69974241" version="3" timestamp="2010-08-18T02:23:22Z" uid="4467" user="Rosscoe" changeset="5523040">
    <nd ref="307864251"/>
    <nd ref="307864300"/>
    <nd ref="307864252"/>
    <nd ref="307864253"/>
    <tag k="highway" v="residential"/>
    <tag k="maxspeed" v="50"/>
    <tag k="name" v="Beechworth Road"/>
    <tag k="source" v="name from openstreetbugs"/>
    <tag k="source:maxspeed" v="default residential speed limit in Australia"/>
  </way>
  <way id="69974242" version="2" timestamp="2010-08-18T01:10:23Z" uid="4467" user="Rosscoe" changeset="5522901">
    <nd ref="836140715"/>
    <nd ref="836140720"/>
    <tag k="highway" v="residential"/>
    <tag k="name" v="Mansell Court"/>
    <tag k="source" v="openstreetbugs"/>
  </way>
  <way id="69974243" version="2" timestamp="2010-08-18T02:23:00Z" uid="4467" user="Rosscoe" changeset="5523040">
    <nd ref="836140716"/>
    <nd ref="257848828"/>
    <nd ref="257848594"/>
    <nd ref="257848595"/>
    <nd ref="257848596"/>
    <nd ref="257848597"/>
    <nd ref="257848593"/>
    <nd ref="257848587"/>
    <tag k="highway" v="residential"/>
    <tag k="maxspeed" v="50"/>
    <tag k="name" v="Norfolk Crescent"/>
    <tag k="source:maxspeed" v="default residential speed limit in Australia"/>
  </way>
  <way id="69974245" version="2" timestamp="2010-08-18T01:10:11Z" uid="4467" user="Rosscoe" changeset="5522901">
    <nd ref="836140722"/>
    <nd ref="307864281"/>
    <nd ref="307864251"/>
    <tag k="highway" v="residential"/>
    <tag k="maxspeed" v="50"/>
    <tag k="maxspeed:source" v="default residential speed limit in Australia"/>
    <tag k="name" v="Sandown Avenue"/>
    <tag k="source" v="name from openstreetbugs"/>
  </way>
  <way id="69974245" version="3" timestamp="2010-08-18T02:22:16Z" uid="4467" user="Rosscoe" changeset="5523040">
    <nd ref="836140722"/>
    <nd ref="307864281"/>
    <nd ref="307864251"/>
    <tag k="highway" v="residential"/>
    <tag k="maxspeed" v="50"/>
    <tag k="name" v="Sandown Avenue"/>
    <tag k="source" v="name from openstreetbugs"/>
    <tag k="source:maxspeed" v="default residential speed limit in Australia"/>
  </way>
</osm>
