<?xml version='1.0' encoding='UTF-8'?>
<osm version="0.6" generator="libosmium/2.20.0">
  <way id="70197781" version="1" timestamp="2010-07-30T02:59:29Z" uid="4467" user="Rosscoe" changeset="5351398">
    <nd ref="313892769"/>
    <nd ref="838250938"/>
    <nd ref="838250916"/>
    <tag k="highway" v="primary_link"/>
    <tag k="oneway" v="yes"/>
    <tag k="source" v="nearmap"/>
  </way>
  <way id="70197782" version="1" timestamp="2010-07-30T02:59:30Z" uid="4467" user="Rosscoe" changeset="5351398">
    <nd ref="313891274"/>
    <nd ref="838250975"/>
    <tag k="highway" v="primary"/>
    <tag k="name" v="Roderick Street"/>
    <tag k="oneway" v="yes"/>
  </way>
  <way id="70197783" version="1" timestamp="2010-07-30T02:59:31Z" uid="4467" user="Rosscoe" changeset="5351398">
    <nd ref="313896183"/>
    <nd ref="313892772"/>
    <tag k="highway" v="primary"/>
    <tag k="name" v="Warwick Road"/>
  </way>
  <way id="70197784" version="1" timestamp="2010-07-30T02:59:31Z" uid="4467" user="Rosscoe" changeset="5351398">
    <nd ref="313896509"/>
    <nd ref="313896567"/>
    <nd ref="313891274"/>
    <tag k="highway" v="tertiary"/>
    <tag k="name" v="Roderick Street"/>
    <tag k="oneway" v="yes"/>
  </way>
  <way id="70197785" version="1" timestamp="2010-07-30T02:59:32Z" uid="4467" user="Rosscoe" changeset="5351398">
    <nd ref="838250950"/>
    <nd ref="330757112"/>
    <tag k="bridge" v="yes"/>
    <tag k="highway" v="tertiary"/>
    <tag k="layer" v="1"/>
    <tag k="name" v="Bremer Street"/>
  </way>
  <way id="70197786" version="1" timestamp="2010-07-30T02:59:33Z" uid="4467" user="Rosscoe" changeset="5351398">
    <nd ref="68717383"/>
    <nd ref="838250916"/>
    <nd ref="313896645"/>
    <nd ref="313896487"/>
    <tag k="highway" v="primary"/>
    <tag k="name" v="Warwick Road"/>
  </way>
  <way id="70197787" version="1" timestamp="2010-07-30T02:59:34Z" uid="4467" user="Rosscoe" changeset="5351398">
    <nd ref="838250927"/>
    <nd ref="330757084"/>
    <tag k="bridge" v="yes"/>
    <tag k="highway" v="primary"/>
    <tag k="layer" v="1"/>
    <tag k="name" v="David Trumpy Bridge"/>
    <tag k="ref" v="S38"/>
  </way>
</osm>
