<?xml version='1.0' encoding='UTF-8'?>
<osm version="0.6" generator="libosmium/2.20.0">
  <way id="70339818" version="1" timestamp="2010-07-31T02:37:35Z" uid="20587" user="balrog-kun" changeset="5359588">
    <nd ref="839598640"/>
    <nd ref="839598667"/>
    <nd ref="839598649"/>
    <nd ref="839598635"/>
    <nd ref="839598640"/>
    <tag k="landuse" v="construction"/>
    <tag k="name" v="Remont"/>
  </way>
  <way id="70339820" version="1" timestamp="2010-07-31T02:37:35Z" uid="20587" user="balrog-kun" changeset="5359588">
    <nd ref="286719120"/>
    <nd ref="839598669"/>
    <nd ref="839598650"/>
    <nd ref="839598658"/>
    <nd ref="286719124"/>
    <tag k="layer" v="1"/>
    <tag k="name" v="Tor 10"/>
    <tag k="railway" v="rail"/>
  </way>
  <way id="70339823" version="1" timestamp="2010-07-31T02:37:35Z" uid="20587" user="balrog-kun" changeset="5359588">
    <nd ref="839598633"/>
    <nd ref="839598644"/>
    <nd ref="839598653"/>
    <nd ref="839598660"/>
    <nd ref="286719170"/>
    <tag k="layer" v="1"/>
    <tag k="name" v="Tor 6"/>
    <tag k="railway" v="rail"/>
  </way>
  <way id="70339824" version="1" timestamp="2010-07-31T02:37:35Z" uid="20587" user="balrog-kun" changeset="5359588">
    <nd ref="270830421"/>
    <nd ref="33210583"/>
    <tag k="layer" v="1"/>
    <tag k="name" v="Tor 12"/>
    <tag k="railway" v="rail"/>
    <tag k="source" v="landsat"/>
  </way>
  <way id="70339826" version="1" timestamp="2010-07-31T02:37:36Z" uid="20587" user="balrog-kun" changeset="5359588">
    <nd ref="839598648"/>
    <nd ref="839598632"/>
    <nd ref="839598643"/>
    <nd ref="839598652"/>
    <nd ref="839598648"/>
    <tag k="landuse" v="construction"/>
    <tag k="name" v="Remont"/>
  </way>
</osm>
