<?xml version='1.0' encoding='UTF-8'?>
<osm version="0.6" generator="libosmium/2.20.0">
  <way id="7062359" version="2" timestamp="2007-11-24T20:08:30Z" uid="8619" user="cetest" changeset="609366">
    <nd ref="45205675"/>
    <nd ref="45206358"/>
    <nd ref="130525810"/>
    <nd ref="130525805"/>
    <tag k="AND_nosr_r" v="15457085"/>
    <tag k="highway" v="unclassified"/>
    <tag k="name" v="Eerste Westerparklaan"/>
    <tag k="oneway" v="1"/>
  </way>
  <way id="7062360" version="2" timestamp="2007-11-24T20:08:29Z" uid="8619" user="cetest" changeset="609366">
    <nd ref="45205657"/>
    <nd ref="45206338"/>
    <nd ref="130525805"/>
    <tag k="AND_nosr_r" v="15457084"/>
    <tag k="highway" v="unclassified"/>
    <tag k="name" v="Eerste Westerparklaan"/>
    <tag k="oneway" v="1"/>
  </way>
  <way id="7062365" version="2" timestamp="2007-11-24T19:28:04Z" uid="8619" user="cetest" changeset="609366">
    <nd ref="45205556"/>
    <nd ref="45205673"/>
    <tag k="AND:importance_level" v="5"/>
    <tag k="AND_nosr_r" v="15457080"/>
    <tag k="highway" v="unclassified"/>
    <tag k="name" v="Tweede Westerparklaan"/>
    <tag k="oneway" v="1"/>
  </way>
  <way id="7062393" version="2" timestamp="2007-11-24T19:28:04Z" uid="8619" user="cetest" changeset="609366">
    <nd ref="45205130"/>
    <nd ref="45205078"/>
    <tag k="AND:importance_level" v="5"/>
    <tag k="AND_nosr_r" v="15457058"/>
    <tag k="highway" v="unclassified"/>
    <tag k="name" v="Tweede Westerparklaan"/>
    <tag k="oneway" v="1"/>
  </way>
  <way id="7062396" version="2" timestamp="2007-11-24T19:28:03Z" uid="8619" user="cetest" changeset="609366">
    <nd ref="45200160"/>
    <nd ref="45200519"/>
    <nd ref="45205078"/>
    <tag k="AND_nosr_r" v="15457056"/>
    <tag k="highway" v="unclassified"/>
    <tag k="name" v="Dennewitjeshof"/>
  </way>
  <way id="7062396" version="3" timestamp="2007-11-24T19:41:21Z" uid="8619" user="cetest" changeset="609366">
    <nd ref="45200160"/>
    <nd ref="45205078"/>
    <tag k="AND_nosr_r" v="15457056"/>
    <tag k="highway" v="unclassified"/>
    <tag k="name" v="Dennewitjeshof"/>
  </way>
  <way id="7062929" version="2" timestamp="2007-11-24T19:38:32Z" uid="8619" user="cetest" changeset="609366">
    <nd ref="45200579"/>
    <nd ref="45201509"/>
    <nd ref="45204160"/>
    <nd ref="130475714"/>
    <nd ref="45205130"/>
    <tag k="AND:importance_level" v="5"/>
    <tag k="AND_nosr_r" v="15456640"/>
    <tag k="highway" v="secondary"/>
    <tag k="name" v="&apos;t Zand"/>
  </way>
  <way id="7062939" version="2" timestamp="2007-11-24T19:38:33Z" uid="8619" user="cetest" changeset="609366">
    <nd ref="45205673"/>
    <nd ref="130475718"/>
    <nd ref="45212681"/>
    <nd ref="45213212"/>
    <tag k="AND:importance_level" v="5"/>
    <tag k="AND_nosr_r" v="15456634"/>
    <tag k="highway" v="secondary"/>
    <tag k="name" v="&apos;t Zand"/>
  </way>
  <way id="7062951" version="2" timestamp="2007-11-24T20:01:42Z" uid="8619" user="cetest" changeset="609366">
    <nd ref="45213212"/>
    <nd ref="45214836"/>
    <nd ref="45219335"/>
    <nd ref="45221247"/>
    <nd ref="45222480"/>
    <nd ref="45224860"/>
    <nd ref="45226503"/>
    <nd ref="45226937"/>
    <nd ref="45228047"/>
    <nd ref="45230123"/>
    <nd ref="45230834"/>
    <nd ref="45231388"/>
    <nd ref="45231838"/>
    <nd ref="45232862"/>
    <nd ref="45233330"/>
    <nd ref="45234071"/>
    <nd ref="45234836"/>
    <nd ref="45235214"/>
    <nd ref="130513238"/>
    <nd ref="130513245"/>
    <nd ref="130513250"/>
    <nd ref="130513254"/>
    <nd ref="130513256"/>
    <nd ref="130513214"/>
    <nd ref="130513208"/>
    <tag k="AND:importance_level" v="5"/>
    <tag k="AND_nosr_r" v="15456626"/>
    <tag k="highway" v="secondary"/>
    <tag k="name" v="&apos;t Zand"/>
  </way>
  <way id="7062988" version="4" timestamp="2010-03-27T10:21:18Z" uid="20587" user="balrog-kun" changeset="4244079">
    <nd ref="54259100"/>
    <nd ref="412313636"/>
    <nd ref="412313637"/>
    <nd ref="412313638"/>
    <nd ref="412313639"/>
    <nd ref="59706686"/>
    <nd ref="412313640"/>
    <nd ref="412313641"/>
    <nd ref="412313642"/>
    <nd ref="59706685"/>
    <nd ref="412313643"/>
    <nd ref="412313644"/>
    <nd ref="54259102"/>
    <tag k="highway" v="motorway_link"/>
    <tag k="name" v="East I-10 / Milliken Ave offramp"/>
    <tag k="oneway" v="yes"/>
    <tag k="ref" v="57"/>
    <tag k="tiger:cfcc" v="A63"/>
    <tag k="tiger:county" v="San Bernardino, CA"/>
    <tag k="tiger:reviewed" v="no"/>
    <tag k="tiger:source" v="tiger_import_dch_v0.6_20070809"/>
    <tag k="tiger:tlid" v="144637746"/>
  </way>
</osm>
