<?xml version='1.0' encoding='UTF-8'?>
<osm version="0.6" generator="libosmium/2.20.0">
  <way id="70682199" version="3" timestamp="2010-08-29T11:26:36Z" uid="33382" user="de_muur" changeset="5624577">
    <nd ref="752330083"/>
    <nd ref="845118203"/>
    <nd ref="843130150"/>
    <nd ref="843130153"/>
    <nd ref="843130189"/>
    <nd ref="843130177"/>
    <tag k="bicycle" v="yes"/>
    <tag k="foot" v="yes"/>
    <tag k="highway" v="track"/>
    <tag k="tracktype" v="grade4"/>
    <tag k="width" v="2,5"/>
  </way>
  <way id="70682764" version="2" timestamp="2011-05-09T07:22:29Z" uid="74617" user="JohnSmith" changeset="8090134">
    <nd ref="843134677"/>
    <nd ref="843134684"/>
    <nd ref="1277967963"/>
    <nd ref="1277967949"/>
    <nd ref="843134688"/>
    <tag k="highway" v="residential"/>
    <tag k="maxspeed" v="50"/>
    <tag k="name" v="Larool Street"/>
    <tag k="source" v="survey"/>
  </way>
  <way id="70682788" version="2" timestamp="2011-05-11T12:34:05Z" uid="74617" user="JohnSmith" changeset="8111779">
    <nd ref="843134867"/>
    <nd ref="843134869"/>
    <nd ref="843134872"/>
    <nd ref="1280216551"/>
    <tag k="highway" v="residential"/>
    <tag k="name" v="Alice Street"/>
    <tag k="source" v="local_knowledge"/>
  </way>
  <way id="70682845" version="2" timestamp="2011-01-07T06:22:28Z" uid="4467" user="Rosscoe" changeset="6889518">
    <nd ref="154623370"/>
    <nd ref="1087820241"/>
    <nd ref="843135000"/>
    <tag k="highway" v="residential"/>
    <tag k="maxspeed" v="50"/>
    <tag k="name" v="Roderick Street"/>
    <tag k="source" v="survey"/>
  </way>
  <way id="70682855" version="2" timestamp="2011-01-07T06:34:14Z" uid="4467" user="Rosscoe" changeset="6889518">
    <nd ref="843135284"/>
    <nd ref="843135287"/>
    <nd ref="843135288"/>
    <nd ref="1087827851"/>
    <nd ref="843135289"/>
    <nd ref="843135290"/>
    <tag k="highway" v="residential"/>
    <tag k="maxspeed" v="50"/>
    <tag k="name" v="Griffin Avenue"/>
    <tag k="source" v="survey"/>
  </way>
  <way id="70682879" version="2" timestamp="2011-01-07T06:50:20Z" uid="4467" user="Rosscoe" changeset="6889518">
    <nd ref="843135387"/>
    <nd ref="843135394"/>
    <nd ref="843135394"/>
    <tag k="highway" v="residential"/>
    <tag k="maxspeed" v="50"/>
    <tag k="name" v="Blake Place"/>
    <tag k="source" v="survey"/>
  </way>
  <way id="70682883" version="2" timestamp="2011-01-07T08:26:14Z" uid="4467" user="Rosscoe" changeset="6890142">
    <nd ref="843135403"/>
    <nd ref="843135404"/>
    <nd ref="1087954907"/>
    <nd ref="843135405"/>
    <nd ref="1087955004"/>
    <nd ref="843135407"/>
    <tag k="highway" v="residential"/>
    <tag k="maxspeed" v="50"/>
    <tag k="name" v="Dowell Avenue"/>
    <tag k="source" v="survey"/>
  </way>
  <way id="70682890" version="2" timestamp="2011-01-07T08:25:45Z" uid="4467" user="Rosscoe" changeset="6890142">
    <nd ref="843135432"/>
    <nd ref="843135436"/>
    <tag k="highway" v="residential"/>
    <tag k="name" v="Poolya Avenue"/>
    <tag k="source" v="survey"/>
  </way>
  <way id="70682917" version="2" timestamp="2011-01-07T08:26:09Z" uid="4467" user="Rosscoe" changeset="6890142">
    <nd ref="1087954904"/>
    <nd ref="843135564"/>
    <tag k="highway" v="residential"/>
    <tag k="name" v="Neridah Avenue"/>
    <tag k="source" v="survey"/>
  </way>
</osm>
