<?xml version='1.0' encoding='UTF-8'?>
<osm version="0.6" generator="libosmium/2.20.0">
  <way id="71165541" version="2" timestamp="2010-10-15T14:04:02Z" uid="96874" user="Quedel" changeset="6049555">
    <nd ref="290173992"/>
    <nd ref="847235160"/>
    <nd ref="847235173"/>
    <nd ref="843571583"/>
    <nd ref="847235182"/>
    <nd ref="847235187"/>
    <tag k="highway" v="track"/>
    <tag k="tracktype" v="grade4"/>
  </way>
  <way id="71165546" version="2" timestamp="2010-10-14T15:22:26Z" uid="96874" user="Quedel" changeset="6040209">
    <nd ref="847235233"/>
    <nd ref="847235242"/>
    <tag k="bridge" v="yes"/>
    <tag k="highway" v="track"/>
    <tag k="surface" v="asphalt"/>
    <tag k="tracktype" v="grade1"/>
  </way>
  <way id="71165709" version="2" timestamp="2010-11-25T17:41:13Z" uid="115477" user="wowik" changeset="6455127">
    <nd ref="847239230"/>
    <nd ref="797901650"/>
    <nd ref="324966102"/>
    <tag k="addr:postcode" v="171573"/>
    <tag k="addr:street" v="Шорина"/>
    <tag k="cladr:code" v="69011001000008300"/>
    <tag k="cladr:name" v="Шорина"/>
    <tag k="cladr:suffix" v="улица"/>
    <tag k="highway" v="residential"/>
    <tag k="name" v="улица Шорина"/>
  </way>
</osm>
