<?xml version='1.0' encoding='UTF-8'?>
<osm version="0.6" generator="libosmium/2.20.0">
  <way id="71373027" version="1" timestamp="2010-08-08T05:07:31Z" uid="61114" user="Trav" changeset="5429595">
    <nd ref="849251070"/>
    <nd ref="849251071"/>
    <nd ref="849251072"/>
    <nd ref="849251073"/>
    <nd ref="849251075"/>
    <nd ref="849251076"/>
    <nd ref="849251085"/>
    <nd ref="849251086"/>
    <nd ref="849251087"/>
    <nd ref="849251088"/>
    <nd ref="849251070"/>
    <tag k="leisure" v="park"/>
    <tag k="name" v="Enid Chalker Reserve"/>
    <tag k="source" v="nearmap"/>
    <tag k="source:name" v="survey"/>
  </way>
  <way id="71373028" version="1" timestamp="2010-08-08T05:07:32Z" uid="61114" user="Trav" changeset="5429595">
    <nd ref="358379541"/>
    <nd ref="849251118"/>
    <tag k="highway" v="residential"/>
    <tag k="name" v="Anderson Road"/>
    <tag k="souce:name" v="extrapolation"/>
    <tag k="source" v="nearmap"/>
  </way>
  <way id="71373028" version="2" timestamp="2010-08-17T23:15:40Z" uid="4467" user="Rosscoe" changeset="5522572">
    <nd ref="358379541"/>
    <nd ref="849251118"/>
    <tag k="highway" v="residential"/>
    <tag k="name" v="Anderson Road"/>
    <tag k="source" v="nearmap"/>
    <tag k="source:name" v="extrapolation"/>
  </way>
</osm>
