<?xml version='1.0' encoding='UTF-8'?>
<osm version="0.6" generator="libosmium/2.20.0">
  <way id="71589520" version="2" timestamp="2010-08-15T05:47:25Z" uid="33382" user="de_muur" changeset="5496239">
    <nd ref="745813474"/>
    <nd ref="31197284"/>
    <tag k="highway" v="secondary"/>
    <tag k="maxspeed:backward" v="50"/>
    <tag k="maxspeed:forward" v="30"/>
    <tag k="name" v="Bahnhofstraße"/>
    <tag k="postal_code" v="31698"/>
    <tag k="ref" v="K 30"/>
    <tag k="surface" v="paved"/>
  </way>
  <way id="71589525" version="2" timestamp="2010-08-15T05:47:20Z" uid="33382" user="de_muur" changeset="5496239">
    <nd ref="851501315"/>
    <nd ref="281238595"/>
    <nd ref="31197277"/>
    <nd ref="35503447"/>
    <tag k="highway" v="secondary"/>
    <tag k="maxspeed" v="50"/>
    <tag k="name" v="Industriestraße"/>
    <tag k="postal_code" v="31698"/>
    <tag k="ref" v="K 30"/>
    <tag k="surface" v="paved"/>
  </way>
  <way id="71589543" version="2" timestamp="2010-08-15T05:47:26Z" uid="33382" user="de_muur" changeset="5496239">
    <nd ref="31197284"/>
    <nd ref="31197283"/>
    <nd ref="31197282"/>
    <nd ref="329647669"/>
    <nd ref="31197281"/>
    <tag k="bicycle" v="no"/>
    <tag k="foot" v="no"/>
    <tag k="highway" v="secondary"/>
    <tag k="maxspeed" v="30"/>
    <tag k="name" v="Bahnhofstraße"/>
    <tag k="postal_code" v="31698"/>
    <tag k="ref" v="K 30"/>
    <tag k="surface" v="paved"/>
  </way>
  <way id="71589546" version="2" timestamp="2010-08-15T05:47:26Z" uid="33382" user="de_muur" changeset="5496239">
    <nd ref="31197275"/>
    <nd ref="31197274"/>
    <tag k="highway" v="secondary"/>
    <tag k="name" v="Kobbenser Straße"/>
    <tag k="postal_code" v="31698"/>
    <tag k="ref" v="K 30"/>
    <tag k="surface" v="paved"/>
  </way>
</osm>
