<?xml version='1.0' encoding='UTF-8'?>
<osm version="0.6" generator="libosmium/2.20.0">
  <way id="71607325" version="1" timestamp="2010-08-09T21:51:51Z" uid="38528" user="acrosscanadatrails" changeset="5448947">
    <nd ref="531001766"/>
    <nd ref="531001809"/>
    <nd ref="531001424"/>
    <nd ref="531001283"/>
    <nd ref="531001764"/>
    <nd ref="531001232"/>
    <nd ref="531001154"/>
    <nd ref="531001609"/>
    <tag k="attribution" v="GeoBaseÂ®"/>
    <tag k="geobase:acquisitionTechnique" v="GPS"/>
    <tag k="geobase:datasetName" v="NRN:British Columbia"/>
    <tag k="geobase:uuid" v="46921e6e968311d99c9f000ea65e52d8"/>
    <tag k="highway" v="residential"/>
    <tag k="is_in" v="Hagensborg,British Columbia"/>
    <tag k="lanes" v="2"/>
    <tag k="name" v="Sallooompt Road"/>
    <tag k="source" v="Geobase_Import_2009"/>
  </way>
  <way id="71607327" version="1" timestamp="2010-08-09T21:51:51Z" uid="38528" user="acrosscanadatrails" changeset="5448947">
    <nd ref="315546960"/>
    <nd ref="315546963"/>
    <nd ref="531001606"/>
    <nd ref="315546964"/>
    <nd ref="315546967"/>
    <nd ref="315546968"/>
    <nd ref="315546979"/>
    <nd ref="531001151"/>
    <nd ref="531001860"/>
    <nd ref="531001714"/>
    <nd ref="315546981"/>
    <nd ref="315546983"/>
    <nd ref="531001954"/>
    <nd ref="315546985"/>
    <nd ref="315546987"/>
    <nd ref="315546990"/>
    <nd ref="531004553"/>
    <nd ref="315546992"/>
    <nd ref="315546994"/>
    <nd ref="315546995"/>
    <nd ref="531001264"/>
    <nd ref="531004555"/>
    <tag k="description" v="Chilcotin Highway"/>
    <tag k="highway" v="primary"/>
    <tag k="name" v="Highway 20"/>
    <tag k="ref" v="20"/>
  </way>
  <way id="71607327" version="2" timestamp="2010-08-09T23:56:03Z" uid="38528" user="acrosscanadatrails" changeset="5449705">
    <nd ref="851912487"/>
    <nd ref="851899290"/>
    <nd ref="315546960"/>
    <nd ref="315546963"/>
    <nd ref="531001606"/>
    <nd ref="315546964"/>
    <nd ref="315546967"/>
    <nd ref="315546968"/>
    <nd ref="315546979"/>
    <nd ref="531001151"/>
    <nd ref="531001860"/>
    <nd ref="531001714"/>
    <nd ref="315546981"/>
    <nd ref="315546983"/>
    <nd ref="531001954"/>
    <nd ref="315546985"/>
    <nd ref="315546987"/>
    <nd ref="315546990"/>
    <nd ref="531004553"/>
    <nd ref="315546992"/>
    <nd ref="315546994"/>
    <nd ref="315546995"/>
    <nd ref="531001264"/>
    <nd ref="531004555"/>
    <tag k="description" v="Chilcotin Highway"/>
    <tag k="highway" v="primary"/>
    <tag k="lanes" v="2"/>
    <tag k="name" v="Highway  20"/>
    <tag k="name:en" v="Chilcotin Highway 20;Highway  20;Hwy 20"/>
    <tag k="name:fr" v="Highway  20"/>
    <tag k="ref" v="20"/>
    <tag k="source" v="CanVec 6.0 - NRCan"/>
    <tag k="surface" v="paved"/>
  </way>
</osm>
