<?xml version='1.0' encoding='UTF-8'?>
<osm version="0.6" generator="libosmium/2.20.0">
  <way id="72043776" version="1" timestamp="2010-08-12T10:35:44Z" uid="4467" user="Rosscoe" changeset="5471917">
    <nd ref="671306907"/>
    <nd ref="671306883"/>
    <tag k="highway" v="motorway_link"/>
    <tag k="oneway" v="yes"/>
    <tag k="ref" v="Exit 57"/>
  </way>
  <way id="72043790" version="1" timestamp="2010-08-12T10:35:45Z" uid="4467" user="Rosscoe" changeset="5471917">
    <nd ref="671306956"/>
    <nd ref="179832549"/>
    <nd ref="179832548"/>
    <nd ref="671306867"/>
    <nd ref="671306865"/>
    <nd ref="150545595"/>
    <tag k="highway" v="motorway_link"/>
    <tag k="oneway" v="yes"/>
    <tag k="ref" v="M1 South On Ramp"/>
  </way>
  <way id="72043806" version="1" timestamp="2010-08-12T10:35:46Z" uid="4467" user="Rosscoe" changeset="5471917">
    <nd ref="671306892"/>
    <nd ref="179834993"/>
    <nd ref="671306899"/>
    <nd ref="671306971"/>
    <nd ref="671306960"/>
    <nd ref="671306962"/>
    <tag k="bridge" v="yes"/>
    <tag k="highway" v="motorway_link"/>
    <tag k="layer" v="1"/>
    <tag k="oneway" v="yes"/>
    <tag k="ref" v="Exit 57"/>
  </way>
  <way id="72043821" version="1" timestamp="2010-08-12T10:35:48Z" uid="4467" user="Rosscoe" changeset="5471917">
    <nd ref="179834219"/>
    <nd ref="671306952"/>
    <nd ref="671306940"/>
    <nd ref="179834221"/>
    <tag k="highway" v="motorway_link"/>
    <tag k="oneway" v="yes"/>
    <tag k="ref" v="M1 North On Ramp"/>
  </way>
  <way id="72043829" version="1" timestamp="2010-08-12T10:35:49Z" uid="4467" user="Rosscoe" changeset="5471917">
    <nd ref="671306973"/>
    <nd ref="671306971"/>
    <nd ref="671306932"/>
    <nd ref="671306930"/>
    <nd ref="179834217"/>
    <nd ref="179834219"/>
    <tag k="bridge" v="yes"/>
    <tag k="highway" v="motorway_link"/>
    <tag k="layer" v="1"/>
    <tag k="oneway" v="yes"/>
    <tag k="ref" v="M1 North On Ramp"/>
  </way>
  <way id="72043837" version="1" timestamp="2010-08-12T10:35:50Z" uid="4467" user="Rosscoe" changeset="5471917">
    <nd ref="179833819"/>
    <nd ref="671307015"/>
    <nd ref="671306932"/>
    <nd ref="671306910"/>
    <nd ref="671306907"/>
    <tag k="bridge" v="yes"/>
    <tag k="highway" v="motorway_link"/>
    <tag k="layer" v="1"/>
    <tag k="oneway" v="yes"/>
    <tag k="ref" v="Exit 57"/>
  </way>
</osm>
