<?xml version='1.0' encoding='UTF-8'?>
<osm version="0.6" generator="libosmium/2.20.0">
  <way id="72447267" version="1" timestamp="2010-08-14T13:13:31Z" uid="4467" user="Rosscoe" changeset="5490557">
    <nd ref="457945074"/>
    <nd ref="457945093"/>
    <nd ref="457945094"/>
    <nd ref="457945095"/>
    <nd ref="457945096"/>
    <nd ref="457945097"/>
    <tag k="highway" v="residential"/>
    <tag k="maxspeed" v="50"/>
    <tag k="name" v="Toorak Street"/>
    <tag k="oneway" v="yes"/>
  </way>
  <way id="72447268" version="1" timestamp="2010-08-14T13:13:34Z" uid="4467" user="Rosscoe" changeset="5490557">
    <nd ref="457945078"/>
    <nd ref="457945090"/>
    <tag k="highway" v="residential"/>
    <tag k="maxspeed" v="50"/>
    <tag k="name" v="May Street"/>
    <tag k="oneway" v="yes"/>
  </way>
  <way id="72447269" version="1" timestamp="2010-08-14T13:13:38Z" uid="4467" user="Rosscoe" changeset="5490557">
    <nd ref="457945070"/>
    <nd ref="457945089"/>
    <tag k="highway" v="residential"/>
    <tag k="maxspeed" v="50"/>
    <tag k="name" v="Buffalino Street"/>
    <tag k="oneway" v="yes"/>
  </way>
</osm>
