<?xml version='1.0' encoding='UTF-8'?>
<osm version="0.6" generator="libosmium/2.20.0">
  <way id="72509408" version="1" timestamp="2010-08-15T05:47:19Z" uid="33382" user="de_muur" changeset="5496239">
    <nd ref="31197271"/>
    <nd ref="317610245"/>
    <nd ref="31197270"/>
    <nd ref="317610246"/>
    <nd ref="298776448"/>
    <tag k="highway" v="secondary"/>
    <tag k="maxspeed" v="50"/>
    <tag k="name" v="Lindhorster Straße"/>
    <tag k="ref" v="K 30"/>
    <tag k="surface" v="paved"/>
  </way>
  <way id="72509426" version="2" timestamp="2011-01-07T00:18:22Z" uid="30201" user="rrankin" changeset="6888648">
    <nd ref="860813015"/>
    <nd ref="860813048"/>
    <nd ref="1087159036"/>
    <nd ref="860813049"/>
    <nd ref="860813050"/>
    <nd ref="860813051"/>
    <nd ref="860813052"/>
    <nd ref="860813053"/>
    <nd ref="860813054"/>
    <nd ref="860813055"/>
    <nd ref="860813010"/>
    <tag k="highway" v="footway"/>
  </way>
  <way id="72509460" version="1" timestamp="2010-08-15T05:54:14Z" uid="33382" user="de_muur" changeset="5496255">
    <nd ref="860813532"/>
    <nd ref="31197436"/>
    <nd ref="31197437"/>
    <nd ref="321871674"/>
    <nd ref="293279184"/>
    <tag k="highway" v="secondary"/>
    <tag k="ref" v="L 370"/>
    <tag k="surface" v="paved"/>
  </way>
  <way id="72509461" version="1" timestamp="2010-08-15T05:54:14Z" uid="33382" user="de_muur" changeset="5496255">
    <nd ref="860813536"/>
    <nd ref="31199582"/>
    <nd ref="31199583"/>
    <nd ref="31199584"/>
    <tag k="highway" v="primary"/>
    <tag k="maxspeed" v="50"/>
    <tag k="name" v="Alte Poststraße"/>
    <tag k="ref" v="B 441"/>
    <tag k="surface" v="paved"/>
  </way>
  <way id="72509462" version="1" timestamp="2010-08-15T05:54:14Z" uid="33382" user="de_muur" changeset="5496255">
    <nd ref="860813533"/>
    <nd ref="31413883"/>
    <nd ref="31413884"/>
    <nd ref="679045319"/>
    <nd ref="31413885"/>
    <nd ref="31413886"/>
    <nd ref="31413887"/>
    <nd ref="31413888"/>
    <nd ref="31413889"/>
    <nd ref="31413890"/>
    <nd ref="31413891"/>
    <nd ref="31413892"/>
    <nd ref="31413893"/>
    <nd ref="31413894"/>
    <nd ref="31413895"/>
    <nd ref="679045354"/>
    <nd ref="31413896"/>
    <nd ref="31413897"/>
    <nd ref="31413898"/>
    <nd ref="31413899"/>
    <nd ref="31413900"/>
    <nd ref="479776591"/>
    <nd ref="479776304"/>
    <nd ref="31413901"/>
    <nd ref="479776344"/>
    <nd ref="53322159"/>
    <tag k="highway" v="secondary"/>
    <tag k="name" v="Allee"/>
    <tag k="ref" v="L 370"/>
    <tag k="surface" v="paved"/>
  </way>
  <way id="72509462" version="2" timestamp="2010-08-15T06:41:42Z" uid="33382" user="de_muur" changeset="5496398">
    <nd ref="860813533"/>
    <nd ref="31413883"/>
    <nd ref="31413884"/>
    <nd ref="679045319"/>
    <nd ref="31413885"/>
    <nd ref="860829587"/>
    <nd ref="31413886"/>
    <nd ref="31413887"/>
    <nd ref="31413888"/>
    <nd ref="31413889"/>
    <nd ref="31413890"/>
    <nd ref="31413891"/>
    <nd ref="31413892"/>
    <nd ref="31413893"/>
    <nd ref="860829585"/>
    <tag k="highway" v="secondary"/>
    <tag k="maxspeed" v="50"/>
    <tag k="name" v="Allee"/>
    <tag k="ref" v="L 370"/>
    <tag k="surface" v="paved"/>
  </way>
  <way id="72509463" version="1" timestamp="2010-08-15T05:54:15Z" uid="33382" user="de_muur" changeset="5496255">
    <nd ref="860813534"/>
    <nd ref="360328386"/>
    <nd ref="31197435"/>
    <nd ref="860813532"/>
    <tag k="highway" v="secondary"/>
    <tag k="maxspeed" v="50"/>
    <tag k="ref" v="L 370"/>
    <tag k="surface" v="paved"/>
  </way>
  <way id="72509918" version="1" timestamp="2010-08-15T06:41:39Z" uid="33382" user="de_muur" changeset="5496398">
    <nd ref="31197478"/>
    <nd ref="31197477"/>
    <nd ref="289651711"/>
    <nd ref="31197476"/>
    <nd ref="260539086"/>
    <nd ref="31197475"/>
    <nd ref="31197474"/>
    <nd ref="857323865"/>
    <nd ref="857323733"/>
    <nd ref="31197473"/>
    <nd ref="260539087"/>
    <nd ref="260539088"/>
    <nd ref="31197472"/>
    <nd ref="31197471"/>
    <nd ref="289651615"/>
    <nd ref="31197470"/>
    <tag k="highway" v="tertiary"/>
    <tag k="name" v="Winzlarer Straße"/>
    <tag k="ref" v="K 10"/>
    <tag k="surface" v="paved"/>
  </way>
  <way id="72509919" version="1" timestamp="2010-08-15T06:41:40Z" uid="33382" user="de_muur" changeset="5496398">
    <nd ref="31413900"/>
    <nd ref="479776591"/>
    <nd ref="479776304"/>
    <nd ref="31413901"/>
    <nd ref="479776344"/>
    <nd ref="53322159"/>
    <tag k="highway" v="secondary"/>
    <tag k="maxspeed" v="50"/>
    <tag k="name" v="Allee"/>
    <tag k="ref" v="L 370"/>
    <tag k="surface" v="paved"/>
  </way>
  <way id="72509920" version="1" timestamp="2010-08-15T06:41:40Z" uid="33382" user="de_muur" changeset="5496398">
    <nd ref="860829585"/>
    <nd ref="31413894"/>
    <nd ref="31413895"/>
    <nd ref="679045354"/>
    <nd ref="31413896"/>
    <nd ref="31413897"/>
    <nd ref="31413898"/>
    <nd ref="31413899"/>
    <nd ref="31413900"/>
    <tag k="highway" v="secondary"/>
    <tag k="maxspeed" v="70"/>
    <tag k="name" v="Allee"/>
    <tag k="ref" v="L 370"/>
    <tag k="surface" v="paved"/>
  </way>
  <way id="72509982" version="1" timestamp="2010-08-15T06:47:42Z" uid="33382" user="de_muur" changeset="5496426">
    <nd ref="860839064"/>
    <nd ref="364054914"/>
    <nd ref="364054947"/>
    <nd ref="767307321"/>
    <tag k="highway" v="secondary"/>
    <tag k="maxspeed" v="50"/>
    <tag k="ref" v="L 370"/>
    <tag k="surface" v="paved"/>
  </way>
  <way id="72509983" version="1" timestamp="2010-08-15T06:47:42Z" uid="33382" user="de_muur" changeset="5496426">
    <nd ref="860839074"/>
    <nd ref="860839076"/>
    <tag k="highway" v="secondary"/>
    <tag k="maxspeed" v="70"/>
    <tag k="name" v="Nienburger Straße"/>
    <tag k="ref" v="L 370"/>
    <tag k="surface" v="paved"/>
  </way>
  <way id="72509983" version="2" timestamp="2010-08-17T19:22:56Z" uid="33382" user="de_muur" changeset="5520820">
    <nd ref="860839074"/>
    <nd ref="860839076"/>
    <tag k="highway" v="secondary"/>
    <tag k="maxspeed:backward" v="70"/>
    <tag k="name" v="Nienburger Straße"/>
    <tag k="ref" v="L 370"/>
    <tag k="surface" v="paved"/>
  </way>
  <way id="72509984" version="1" timestamp="2010-08-15T06:47:43Z" uid="33382" user="de_muur" changeset="5496426">
    <nd ref="860839059"/>
    <nd ref="51849589"/>
    <nd ref="51849591"/>
    <nd ref="51849594"/>
    <nd ref="51849598"/>
    <nd ref="860839078"/>
    <tag k="highway" v="secondary"/>
    <tag k="maxspeed" v="70"/>
    <tag k="name" v="Nienburger Straße"/>
    <tag k="ref" v="L 370"/>
    <tag k="surface" v="paved"/>
  </way>
  <way id="72509985" version="1" timestamp="2010-08-15T06:47:43Z" uid="33382" user="de_muur" changeset="5496426">
    <nd ref="860839076"/>
    <nd ref="51849545"/>
    <nd ref="51849550"/>
    <nd ref="51849554"/>
    <nd ref="51849559"/>
    <nd ref="51849564"/>
    <nd ref="51849569"/>
    <nd ref="51849574"/>
    <nd ref="51849578"/>
    <nd ref="51849583"/>
    <nd ref="860839059"/>
    <tag k="highway" v="secondary"/>
    <tag k="name" v="Nienburger Straße"/>
    <tag k="ref" v="L 370"/>
    <tag k="surface" v="paved"/>
  </way>
  <way id="72509986" version="1" timestamp="2010-08-15T06:47:43Z" uid="33382" user="de_muur" changeset="5496426">
    <nd ref="860839078"/>
    <nd ref="51849602"/>
    <nd ref="51849605"/>
    <nd ref="860839056"/>
    <tag k="highway" v="secondary"/>
    <tag k="maxspeed" v="50"/>
    <tag k="name" v="Nienburger Straße"/>
    <tag k="ref" v="L 370"/>
    <tag k="surface" v="paved"/>
  </way>
  <way id="72509987" version="1" timestamp="2010-08-15T06:47:43Z" uid="33382" user="de_muur" changeset="5496426">
    <nd ref="51866964"/>
    <nd ref="860839072"/>
    <nd ref="51866969"/>
    <nd ref="51866973"/>
    <nd ref="286505723"/>
    <nd ref="51866977"/>
    <tag k="highway" v="secondary"/>
    <tag k="maxspeed" v="70"/>
    <tag k="ref" v="L 370"/>
    <tag k="surface" v="paved"/>
  </way>
  <way id="72509988" version="1" timestamp="2010-08-15T06:47:44Z" uid="33382" user="de_muur" changeset="5496426">
    <nd ref="860839056"/>
    <nd ref="51849609"/>
    <nd ref="283721695"/>
    <nd ref="51849613"/>
    <nd ref="51849616"/>
    <nd ref="52562160"/>
    <tag k="highway" v="secondary"/>
    <tag k="maxspeed" v="50"/>
    <tag k="name" v="Nienburger Straße"/>
    <tag k="ref" v="L 370"/>
    <tag k="surface" v="paved"/>
  </way>
  <way id="72509989" version="1" timestamp="2010-08-15T06:47:44Z" uid="33382" user="de_muur" changeset="5496426">
    <nd ref="51866977"/>
    <nd ref="51866981"/>
    <nd ref="51866986"/>
    <nd ref="673431794"/>
    <nd ref="51866991"/>
    <nd ref="673431796"/>
    <nd ref="51866992"/>
    <nd ref="860839062"/>
    <tag k="highway" v="secondary"/>
    <tag k="ref" v="L 370"/>
    <tag k="surface" v="paved"/>
  </way>
  <way id="72509990" version="1" timestamp="2010-08-15T06:47:44Z" uid="33382" user="de_muur" changeset="5496426">
    <nd ref="860839062"/>
    <nd ref="277847853"/>
    <nd ref="277847676"/>
    <nd ref="51866996"/>
    <nd ref="51871562"/>
    <nd ref="51871566"/>
    <nd ref="860839064"/>
    <tag k="highway" v="secondary"/>
    <tag k="maxspeed" v="70"/>
    <tag k="ref" v="L 370"/>
    <tag k="surface" v="paved"/>
  </way>
</osm>
