<?xml version='1.0' encoding='UTF-8'?>
<osm version="0.6" generator="libosmium/2.20.0">
  <way id="72515278" version="1" timestamp="2010-08-15T07:38:06Z" uid="33382" user="de_muur" changeset="5496670">
    <nd ref="29977218"/>
    <nd ref="270908962"/>
    <nd ref="21725003"/>
    <nd ref="300524649"/>
    <nd ref="32922128"/>
    <nd ref="21725005"/>
    <nd ref="21725007"/>
    <nd ref="25747015"/>
    <nd ref="21725106"/>
    <nd ref="25600168"/>
    <tag k="highway" v="primary"/>
    <tag k="maxspeed" v="50"/>
    <tag k="name" v="Neuenlander Straße"/>
    <tag k="oneway" v="yes"/>
    <tag k="ref" v="B 75"/>
    <tag k="surface" v="paved"/>
  </way>
  <way id="72515280" version="1" timestamp="2010-08-15T07:38:07Z" uid="33382" user="de_muur" changeset="5496670">
    <nd ref="21725004"/>
    <nd ref="270908961"/>
    <nd ref="29977216"/>
    <nd ref="30211394"/>
    <nd ref="21724995"/>
    <nd ref="723923241"/>
    <tag k="highway" v="primary"/>
    <tag k="maxspeed" v="50"/>
    <tag k="name" v="Neuenlander Straße"/>
    <tag k="oneway" v="yes"/>
    <tag k="ref" v="B 75"/>
    <tag k="surface" v="paved"/>
  </way>
</osm>
