<?xml version='1.0' encoding='UTF-8'?>
<osm version="0.6" generator="libosmium/2.20.0">
  <way id="73711669" version="1" timestamp="2010-08-21T23:19:02Z" uid="4467" user="Rosscoe" changeset="5556816">
    <nd ref="872868453"/>
    <nd ref="872868293"/>
    <nd ref="872868379"/>
    <nd ref="872868356"/>
    <nd ref="872868428"/>
    <nd ref="872868548"/>
    <nd ref="872868339"/>
    <nd ref="872868453"/>
    <tag k="addr:city" v="Mackay"/>
    <tag k="addr:country" v="AU"/>
    <tag k="addr:postcode" v="4740"/>
    <tag k="addr:state" v="Qld"/>
    <tag k="addr:street" v="Alfred Street"/>
    <tag k="amenity" v="school"/>
    <tag k="name" v="Mackay Central State School"/>
    <tag k="source" v="nearmap"/>
    <tag k="source:addr" v="mackcentss.eq.edu.au"/>
  </way>
  <way id="73711672" version="1" timestamp="2010-08-21T23:19:03Z" uid="4467" user="Rosscoe" changeset="5556816">
    <nd ref="872868525"/>
    <nd ref="872868264"/>
    <nd ref="872868503"/>
    <nd ref="872868404"/>
    <nd ref="872868316"/>
    <nd ref="872868236"/>
    <nd ref="872868525"/>
    <tag k="landuse" v="commercial"/>
  </way>
</osm>
