<?xml version='1.0' encoding='UTF-8'?>
<osm version="0.6" generator="libosmium/2.20.0">
  <way id="73838648" version="3" timestamp="2011-02-07T04:59:49Z" uid="4467" user="Rosscoe" changeset="7212467">
    <nd ref="873815085"/>
    <nd ref="873815088"/>
    <nd ref="873815090"/>
    <nd ref="873815101"/>
    <nd ref="873817616"/>
    <nd ref="873815103"/>
    <nd ref="873815105"/>
    <nd ref="873815114"/>
    <tag k="highway" v="residential"/>
    <tag k="name" v="Falcon Drive"/>
    <tag k="source" v="survey"/>
  </way>
  <way id="73838955" version="3" timestamp="2011-02-07T04:59:16Z" uid="4467" user="Rosscoe" changeset="7212467">
    <nd ref="873815078"/>
    <nd ref="873815996"/>
    <nd ref="873815997"/>
    <nd ref="873815998"/>
    <nd ref="873815999"/>
    <nd ref="873816000"/>
    <nd ref="873816001"/>
    <tag k="highway" v="residential"/>
    <tag k="name" v="Patricia Court"/>
    <tag k="source" v="survey"/>
  </way>
  <way id="73838985" version="3" timestamp="2011-02-07T04:59:54Z" uid="4467" user="Rosscoe" changeset="7212467">
    <nd ref="873816049"/>
    <nd ref="873816001"/>
    <nd ref="873816147"/>
    <tag k="highway" v="residential"/>
    <tag k="name" v="Patricia Court"/>
    <tag k="source" v="survey"/>
  </way>
</osm>
