<?xml version='1.0' encoding='UTF-8'?>
<osm version="0.6" generator="libosmium/2.20.0">
  <way id="73844286" version="2" timestamp="2011-02-07T04:59:08Z" uid="4467" user="Rosscoe" changeset="7212467">
    <nd ref="873820602"/>
    <nd ref="873820605"/>
    <nd ref="873820608"/>
    <nd ref="873820612"/>
    <tag k="highway" v="residential"/>
    <tag k="name" v="Northwood Court"/>
    <tag k="source" v="survey"/>
  </way>
  <way id="73844392" version="2" timestamp="2011-02-07T04:59:10Z" uid="4467" user="Rosscoe" changeset="7212467">
    <nd ref="873819202"/>
    <nd ref="873821297"/>
    <nd ref="873821300"/>
    <nd ref="873821303"/>
    <nd ref="873819050"/>
    <tag k="highway" v="residential"/>
    <tag k="name" v="Kenmare Crescent"/>
    <tag k="source" v="survey"/>
  </way>
  <way id="73844507" version="2" timestamp="2011-02-07T05:00:05Z" uid="4467" user="Rosscoe" changeset="7212467">
    <nd ref="873821300"/>
    <nd ref="873821685"/>
    <nd ref="873821687"/>
    <nd ref="873821689"/>
    <nd ref="873821691"/>
    <nd ref="873821694"/>
    <tag k="highway" v="residential"/>
    <tag k="name" v="Kildare Court"/>
    <tag k="source" v="survey"/>
  </way>
  <way id="73844728" version="2" timestamp="2011-02-07T05:00:04Z" uid="4467" user="Rosscoe" changeset="7212467">
    <nd ref="873821303"/>
    <nd ref="873822385"/>
    <nd ref="873822390"/>
    <nd ref="873822394"/>
    <tag k="highway" v="residential"/>
    <tag k="name" v="Cashel Court"/>
    <tag k="source" v="survey"/>
  </way>
  <way id="73844980" version="2" timestamp="2011-02-07T04:59:45Z" uid="4467" user="Rosscoe" changeset="7212467">
    <nd ref="873819206"/>
    <nd ref="873822606"/>
    <nd ref="873822609"/>
    <nd ref="873822612"/>
    <nd ref="873822613"/>
    <nd ref="873822615"/>
    <tag k="highway" v="residential"/>
    <tag k="name" v="Curragh Court"/>
    <tag k="source" v="survey"/>
  </way>
</osm>
