<?xml version='1.0' encoding='UTF-8'?>
<osm version="0.6" generator="libosmium/2.20.0">
  <way id="73907152" version="1" timestamp="2010-08-22T20:01:50Z" uid="33382" user="de_muur" changeset="5565139">
    <nd ref="268429242"/>
    <nd ref="610520610"/>
    <nd ref="268429244"/>
    <nd ref="268429245"/>
    <nd ref="268429246"/>
    <nd ref="785403726"/>
    <nd ref="268429247"/>
    <nd ref="268429248"/>
    <nd ref="785403714"/>
    <nd ref="268429250"/>
    <nd ref="268429251"/>
    <nd ref="268429252"/>
    <nd ref="683592028"/>
    <nd ref="268428968"/>
    <tag k="foot" v="yes"/>
    <tag k="highway" v="cycleway"/>
    <tag k="surface" v="unpaved"/>
  </way>
  <way id="73907152" version="2" timestamp="2010-08-28T15:43:33Z" uid="33382" user="de_muur" changeset="5617363">
    <nd ref="268429242"/>
    <nd ref="884719143"/>
    <nd ref="610520610"/>
    <nd ref="268429244"/>
    <tag k="foot" v="yes"/>
    <tag k="highway" v="cycleway"/>
    <tag k="surface" v="unpaved"/>
  </way>
  <way id="73907152" version="3" timestamp="2010-08-28T16:10:38Z" uid="33382" user="de_muur" changeset="5617624">
    <nd ref="268429242"/>
    <nd ref="884719143"/>
    <nd ref="610520610"/>
    <nd ref="268429244"/>
    <tag k="foot" v="yes"/>
    <tag k="highway" v="cycleway"/>
    <tag k="horse" v="no"/>
    <tag k="surface" v="unpaved"/>
  </way>
  <way id="73907153" version="1" timestamp="2010-08-22T20:01:51Z" uid="33382" user="de_muur" changeset="5565139">
    <nd ref="268429242"/>
    <nd ref="268429711"/>
    <nd ref="268429712"/>
    <nd ref="268429713"/>
    <nd ref="268429714"/>
    <nd ref="268429715"/>
    <nd ref="268429716"/>
    <nd ref="268429717"/>
    <nd ref="268429718"/>
    <nd ref="268429719"/>
    <nd ref="268429720"/>
    <nd ref="268429721"/>
    <nd ref="268429722"/>
    <nd ref="268429723"/>
    <nd ref="268429724"/>
    <nd ref="268429725"/>
    <nd ref="268429726"/>
    <nd ref="268429727"/>
    <nd ref="268429728"/>
    <nd ref="268429729"/>
    <nd ref="268429730"/>
    <tag k="highway" v="unclassified"/>
    <tag k="name" v="Finkhorster Berg"/>
    <tag k="surface" v="paved"/>
  </way>
  <way id="73907154" version="1" timestamp="2010-08-22T20:01:51Z" uid="33382" user="de_muur" changeset="5565139">
    <nd ref="874390439"/>
    <nd ref="769978730"/>
    <nd ref="268430558"/>
    <tag k="highway" v="tertiary"/>
    <tag k="name" v="Lübecker Straße"/>
    <tag k="ref" v="K 33"/>
    <tag k="surface" v="paved"/>
  </way>
  <way id="73907154" version="2" timestamp="2010-08-25T07:34:57Z" uid="33382" user="de_muur" changeset="5586788">
    <nd ref="874390439"/>
    <nd ref="769978730"/>
    <nd ref="268430558"/>
    <tag k="cycleway" v="track"/>
    <tag k="highway" v="tertiary"/>
    <tag k="name" v="Lübecker Straße"/>
    <tag k="ref" v="K 33"/>
    <tag k="surface" v="paved"/>
  </way>
  <way id="73907155" version="1" timestamp="2010-08-22T20:01:52Z" uid="33382" user="de_muur" changeset="5565139">
    <nd ref="103848541"/>
    <nd ref="103848540"/>
    <nd ref="268429237"/>
    <tag k="highway" v="tertiary"/>
    <tag k="maxspeed" v="50"/>
    <tag k="name" v="Todendorfer Straße"/>
    <tag k="ref" v="K 37"/>
    <tag k="surface" v="paved"/>
  </way>
  <way id="73907156" version="1" timestamp="2010-08-22T20:01:52Z" uid="33382" user="de_muur" changeset="5565139">
    <nd ref="268429237"/>
    <nd ref="268430267"/>
    <tag k="highway" v="tertiary"/>
    <tag k="maxspeed" v="50"/>
    <tag k="name" v="Todendorfer Straße"/>
    <tag k="ref" v="K 37"/>
    <tag k="surface" v="paved"/>
  </way>
  <way id="73907157" version="1" timestamp="2010-08-22T20:01:52Z" uid="33382" user="de_muur" changeset="5565139">
    <nd ref="103848532"/>
    <nd ref="103848533"/>
    <nd ref="103848535"/>
    <nd ref="103848536"/>
    <nd ref="103848538"/>
    <nd ref="268430267"/>
    <tag k="highway" v="tertiary"/>
    <tag k="maxspeed" v="30"/>
    <tag k="name" v="Dorfstraße"/>
    <tag k="ref" v="K 37"/>
    <tag k="surface" v="paved"/>
  </way>
</osm>
