<?xml version='1.0' encoding='UTF-8'?>
<osm version="0.6" generator="libosmium/2.20.0">
  <way id="73919663" version="1" timestamp="2010-08-22T22:07:28Z" uid="6269" user="Mueck" changeset="5565943">
    <nd ref="874512499"/>
    <nd ref="874512500"/>
    <tag k="addr:city" v="Bremerhaven"/>
    <tag k="addr:interpolation" v="even"/>
    <tag k="addr:postcode" v="27574"/>
    <tag k="addr:street" v="Waldstraße"/>
  </way>
  <way id="73919663" version="2" timestamp="2010-08-22T22:09:53Z" uid="6269" user="Mueck" changeset="5565943">
    <nd ref="874512499"/>
    <nd ref="874512500"/>
    <tag k="addr:city" v="Bremerhaven"/>
    <tag k="addr:interpolation" v="odd"/>
    <tag k="addr:postcode" v="27574"/>
    <tag k="addr:street" v="Waldstraße"/>
  </way>
  <way id="73919755" version="1" timestamp="2010-08-22T22:10:15Z" uid="6269" user="Mueck" changeset="5565943">
    <nd ref="874513340"/>
    <nd ref="874513341"/>
    <nd ref="874513342"/>
    <tag k="addr:city" v="Bremerhaven"/>
    <tag k="addr:interpolation" v="odd"/>
    <tag k="addr:postcode" v="27574"/>
  </way>
  <way id="73919755" version="2" timestamp="2010-08-22T22:10:59Z" uid="6269" user="Mueck" changeset="5565943">
    <nd ref="874513340"/>
    <nd ref="874513341"/>
    <nd ref="874513342"/>
    <tag k="addr:city" v="Bremerhaven"/>
    <tag k="addr:interpolation" v="odd"/>
    <tag k="addr:postcode" v="27574"/>
    <tag k="addr:street" v="Walter-Delius-Straße"/>
  </way>
</osm>
