<?xml version='1.0' encoding='UTF-8'?>
<osm version="0.6" generator="libosmium/2.20.0">
  <way id="73975270" version="1" timestamp="2010-08-23T06:40:52Z" uid="49111" user="Markus B" changeset="5568211">
    <nd ref="875324542"/>
    <nd ref="875324590"/>
    <nd ref="875324521"/>
    <nd ref="875324620"/>
    <nd ref="875324542"/>
    <tag k="amenity" v="fire_station"/>
    <tag k="building" v="yes"/>
  </way>
  <way id="73975271" version="1" timestamp="2010-08-23T06:40:52Z" uid="49111" user="Markus B" changeset="5568211">
    <nd ref="875324500"/>
    <nd ref="875324573"/>
    <nd ref="875324678"/>
    <nd ref="875324602"/>
    <nd ref="875324500"/>
    <tag k="building" v="yes"/>
  </way>
  <way id="73975272" version="1" timestamp="2010-08-23T06:40:52Z" uid="49111" user="Markus B" changeset="5568211">
    <nd ref="875324650"/>
    <nd ref="875324525"/>
    <nd ref="875324630"/>
    <nd ref="875324570"/>
    <nd ref="875324650"/>
    <tag k="addr:city" v="Germersberg"/>
    <tag k="addr:country" v="DE"/>
    <tag k="addr:housenumber" v="12 a"/>
    <tag k="addr:postcode" v="91220"/>
    <tag k="addr:street" v="Spanhaufenstraße"/>
    <tag k="amenity" v="restaurant"/>
    <tag k="building" v="yes"/>
    <tag k="cuisine" v="regional"/>
    <tag k="name" v="Cafe Holzwzrm"/>
    <tag k="opening_hours" v="Mo-Sa 07:00-22:00; So 10:00-22:00; Di off; Mi abend off"/>
    <tag k="phone" v="+49 9153 7325"/>
    <tag k="smoking" v="no"/>
    <tag k="smoking:outside" v="yes"/>
  </way>
  <way id="73975272" version="2" timestamp="2010-08-24T06:42:40Z" uid="49111" user="Markus B" changeset="5577399">
    <nd ref="875324650"/>
    <nd ref="875324525"/>
    <nd ref="875324630"/>
    <nd ref="875324570"/>
    <nd ref="875324650"/>
    <tag k="addr:city" v="Germersberg"/>
    <tag k="addr:country" v="DE"/>
    <tag k="addr:housenumber" v="8"/>
    <tag k="addr:postcode" v="91220"/>
    <tag k="addr:street" v="Spanhaufenstraße"/>
    <tag k="building" v="yes"/>
  </way>
  <way id="73975273" version="1" timestamp="2010-08-23T06:40:52Z" uid="49111" user="Markus B" changeset="5568211">
    <nd ref="875324523"/>
    <nd ref="875324623"/>
    <nd ref="875324567"/>
    <nd ref="875324676"/>
    <tag k="highway" v="track"/>
    <tag k="tracktype" v="grade3"/>
  </way>
  <way id="73975274" version="1" timestamp="2010-08-23T06:40:53Z" uid="49111" user="Markus B" changeset="5568211">
    <nd ref="875324601"/>
    <nd ref="875324657"/>
    <nd ref="875324587"/>
    <nd ref="875324517"/>
    <nd ref="875324601"/>
    <tag k="addr:city" v="Germersberg"/>
    <tag k="addr:country" v="DE"/>
    <tag k="addr:housenumber" v="3"/>
    <tag k="addr:postcode" v="91220"/>
    <tag k="addr:street" v="Germersberger Hauptstraße"/>
    <tag k="building" v="yes"/>
    <tag k="name" v="Ferienwohnung"/>
    <tag k="tourism" v="chalet"/>
  </way>
  <way id="73975275" version="1" timestamp="2010-08-23T06:40:53Z" uid="49111" user="Markus B" changeset="5568211">
    <nd ref="875324515"/>
    <nd ref="875324618"/>
    <nd ref="875324564"/>
    <nd ref="875324671"/>
    <nd ref="875324598"/>
    <nd ref="875324536"/>
    <nd ref="875324634"/>
    <nd ref="875324574"/>
    <nd ref="875324679"/>
    <nd ref="875324523"/>
    <nd ref="875324603"/>
    <nd ref="875324543"/>
    <nd ref="875324652"/>
    <tag k="highway" v="track"/>
    <tag k="tracktype" v="grade3"/>
  </way>
  <way id="73975276" version="1" timestamp="2010-08-23T06:40:54Z" uid="49111" user="Markus B" changeset="5568211">
    <nd ref="875324545"/>
    <nd ref="875324653"/>
    <nd ref="250453497"/>
    <tag k="highway" v="footway"/>
  </way>
  <way id="73975276" version="2" timestamp="2010-08-24T06:42:44Z" uid="49111" user="Markus B" changeset="5577399">
    <nd ref="875324545"/>
    <nd ref="876889601"/>
    <nd ref="875324653"/>
    <nd ref="876889524"/>
    <nd ref="250453497"/>
    <tag k="highway" v="footway"/>
  </way>
  <way id="73975278" version="1" timestamp="2010-08-23T06:40:54Z" uid="49111" user="Markus B" changeset="5568211">
    <nd ref="875324572"/>
    <nd ref="875324614"/>
    <nd ref="875324561"/>
    <nd ref="875324658"/>
    <nd ref="875324572"/>
    <tag k="building" v="yes"/>
  </way>
  <way id="73975279" version="1" timestamp="2010-08-23T06:40:55Z" uid="49111" user="Markus B" changeset="5568211">
    <nd ref="875324557"/>
    <nd ref="875324656"/>
    <nd ref="875324586"/>
    <tag k="highway" v="track"/>
    <tag k="tracktype" v="grade5"/>
  </way>
  <way id="73975282" version="1" timestamp="2010-08-23T06:40:55Z" uid="49111" user="Markus B" changeset="5568211">
    <nd ref="875324676"/>
    <nd ref="875324557"/>
    <nd ref="875324541"/>
    <nd ref="875324648"/>
    <nd ref="875324577"/>
    <nd ref="875324690"/>
    <nd ref="875324612"/>
    <tag k="highway" v="track"/>
    <tag k="tracktype" v="grade5"/>
  </way>
  <way id="73975373" version="3" timestamp="2011-03-24T00:10:31Z" uid="4467" user="Rosscoe" changeset="7651939"/>
</osm>
