<?xml version='1.0' encoding='UTF-8'?>
<osm version="0.6" generator="libosmium/2.20.0">
  <way id="74382618" version="1" timestamp="2010-08-25T17:48:21Z" uid="8619" user="cetest" changeset="5591793">
    <nd ref="879108091"/>
    <nd ref="878626211"/>
    <tag k="AND_nosr_r" v="15256458"/>
    <tag k="highway" v="unclassified"/>
    <tag k="name" v="Pruimendijk"/>
  </way>
  <way id="74382621" version="1" timestamp="2010-08-25T17:48:21Z" uid="8619" user="cetest" changeset="5591793">
    <nd ref="44092378"/>
    <nd ref="44093512"/>
    <nd ref="44093893"/>
    <nd ref="44095008"/>
    <nd ref="44096489"/>
    <nd ref="44100497"/>
    <tag k="AND_nosr_r" v="15256447"/>
    <tag k="highway" v="cycleway"/>
    <tag k="oneway" v="yes"/>
  </way>
  <way id="74382622" version="1" timestamp="2010-08-25T17:48:21Z" uid="8619" user="cetest" changeset="5591793">
    <nd ref="871211554"/>
    <nd ref="871211608"/>
    <nd ref="871211586"/>
    <nd ref="871211560"/>
    <nd ref="871211628"/>
    <nd ref="871211580"/>
    <nd ref="871211544"/>
    <tag k="highway" v="cycleway"/>
    <tag k="junction" v="roundabout"/>
    <tag k="oneway" v="yes"/>
    <tag k="source" v="GPS"/>
  </way>
  <way id="74382626" version="1" timestamp="2010-08-25T17:48:21Z" uid="8619" user="cetest" changeset="5591793">
    <nd ref="44090644"/>
    <nd ref="879108089"/>
    <nd ref="879108095"/>
    <nd ref="879108092"/>
    <nd ref="879108090"/>
    <nd ref="879108093"/>
    <nd ref="879108091"/>
    <tag k="highway" v="cycleway"/>
  </way>
  <way id="74382627" version="1" timestamp="2010-08-25T17:48:22Z" uid="8619" user="cetest" changeset="5591793">
    <nd ref="44087903"/>
    <nd ref="873548340"/>
    <nd ref="44089085"/>
    <tag k="highway" v="cycleway"/>
  </way>
  <way id="74382697" version="2" timestamp="2010-10-05T12:05:32Z" uid="20587" user="balrog-kun" changeset="5960751">
    <nd ref="463030533"/>
    <nd ref="130682989"/>
    <nd ref="463025758"/>
    <nd ref="130682987"/>
    <nd ref="463022472"/>
    <nd ref="132284759"/>
    <nd ref="366647760"/>
    <nd ref="130682983"/>
    <tag k="highway" v="secondary"/>
    <tag k="name" v="Kościeliska"/>
    <tag k="ref" v="958"/>
    <tag k="wikipedia" v="pl:Ulica Kościeliska w Zakopanem"/>
  </way>
  <way id="74382701" version="2" timestamp="2010-10-05T12:04:51Z" uid="20587" user="balrog-kun" changeset="5960751">
    <nd ref="463024568"/>
    <nd ref="130682994"/>
    <nd ref="463024307"/>
    <nd ref="463025433"/>
    <nd ref="132285060"/>
    <nd ref="463030533"/>
    <tag k="highway" v="secondary"/>
    <tag k="name" v="Kościeliska"/>
    <tag k="ref" v="958"/>
    <tag k="wikipedia" v="pl:Ulica Kościeliska w Zakopanem"/>
  </way>
</osm>
