<?xml version='1.0' encoding='UTF-8'?>
<osm version="0.6" generator="libosmium/2.20.0">
  <way id="74753360" version="6" timestamp="2010-10-20T18:20:05Z" uid="96874" user="Quedel" changeset="6118586">
    <nd ref="883108049"/>
    <nd ref="883108016"/>
    <nd ref="885924079"/>
    <nd ref="885924096"/>
    <nd ref="885924107"/>
    <nd ref="885924113"/>
    <nd ref="885924121"/>
    <nd ref="885924091"/>
    <nd ref="885924105"/>
    <nd ref="885924111"/>
    <nd ref="885924120"/>
    <nd ref="950209338"/>
    <nd ref="253997442"/>
    <nd ref="296433306"/>
    <nd ref="35700370"/>
    <nd ref="253997797"/>
    <tag k="highway" v="secondary"/>
    <tag k="layer" v="0"/>
    <tag k="parking:lane:both" v="no_parking"/>
    <tag k="ref" v="L 66"/>
  </way>
  <way id="74753370" version="2" timestamp="2010-10-15T21:26:35Z" uid="96874" user="Quedel" changeset="6051410">
    <nd ref="883107840"/>
    <nd ref="883107794"/>
    <nd ref="33506164"/>
    <nd ref="33506163"/>
    <nd ref="389908564"/>
    <nd ref="33506166"/>
    <nd ref="33506165"/>
    <nd ref="253745978"/>
    <tag k="highway" v="secondary"/>
    <tag k="name" v="Quedlinburger StraÃŸe"/>
    <tag k="parking:lane:both" v="no_parking"/>
    <tag k="ref" v="L 85"/>
  </way>
  <way id="74753375" version="5" timestamp="2010-10-17T19:32:27Z" uid="96874" user="Quedel" changeset="6070824">
    <nd ref="883107773"/>
    <nd ref="883107878"/>
    <nd ref="891547752"/>
    <nd ref="891551633"/>
    <nd ref="891551665"/>
    <tag k="construction" v="secondary"/>
    <tag k="highway" v="construction"/>
    <tag k="layer" v="0"/>
    <tag k="note" v="incomplete"/>
    <tag k="ref" v="L 242"/>
  </way>
</osm>
