<?xml version='1.0' encoding='UTF-8'?>
<osm version="0.6" generator="libosmium/2.20.0">
  <way id="74770725" version="1" timestamp="2010-08-27T20:12:02Z" uid="33382" user="de_muur" changeset="5611025">
    <nd ref="100303521"/>
    <nd ref="883388024"/>
    <nd ref="100303476"/>
    <tag k="highway" v="tertiary"/>
    <tag k="maxspeed" v="50"/>
    <tag k="name" v="Sattenfelder Straße"/>
    <tag k="ref" v="K 61"/>
    <tag k="surface" v="paved"/>
  </way>
  <way id="74770727" version="1" timestamp="2010-08-27T20:12:02Z" uid="33382" user="de_muur" changeset="5611025">
    <nd ref="100303514"/>
    <nd ref="100303518"/>
    <nd ref="100303521"/>
    <tag k="highway" v="tertiary"/>
    <tag k="name" v="Sattenfelder Straße"/>
    <tag k="ref" v="K 61"/>
    <tag k="surface" v="paved"/>
  </way>
  <way id="74770730" version="1" timestamp="2010-08-27T20:12:03Z" uid="33382" user="de_muur" changeset="5611025">
    <nd ref="99453900"/>
    <nd ref="99453905"/>
    <nd ref="99453907"/>
    <nd ref="99453910"/>
    <nd ref="99453913"/>
    <nd ref="99453920"/>
    <nd ref="99453923"/>
    <nd ref="100303398"/>
    <nd ref="883388050"/>
    <nd ref="100303402"/>
    <nd ref="100303405"/>
    <nd ref="100303408"/>
    <nd ref="100303409"/>
    <nd ref="100303414"/>
    <nd ref="100303418"/>
    <nd ref="883388035"/>
    <tag k="highway" v="tertiary"/>
    <tag k="name" v="Bahnhofsstraße"/>
    <tag k="ref" v="K 61"/>
    <tag k="surface" v="paved"/>
  </way>
  <way id="74770730" version="2" timestamp="2010-08-28T16:29:16Z" uid="33382" user="de_muur" changeset="5617806"/>
  <way id="74770738" version="1" timestamp="2010-08-27T20:12:04Z" uid="33382" user="de_muur" changeset="5611025">
    <nd ref="883388054"/>
    <nd ref="99453885"/>
    <tag k="highway" v="tertiary"/>
    <tag k="name" v="Lindenallee"/>
    <tag k="ref" v="K 61"/>
    <tag k="surface" v="paved"/>
  </way>
  <way id="74770851" version="1" timestamp="2010-08-27T20:12:27Z" uid="59758" user="rendle" changeset="5610963">
    <nd ref="883388741"/>
    <nd ref="883388745"/>
    <nd ref="883388749"/>
    <nd ref="883388762"/>
    <nd ref="883388764"/>
    <nd ref="883388770"/>
    <nd ref="883388772"/>
    <nd ref="883388775"/>
    <nd ref="883388778"/>
    <nd ref="883388782"/>
    <nd ref="883388783"/>
    <nd ref="883388786"/>
    <nd ref="883388788"/>
    <nd ref="883388789"/>
    <nd ref="883388792"/>
    <nd ref="883388794"/>
    <nd ref="883388796"/>
    <nd ref="883388741"/>
    <tag k="landuse" v="grass"/>
  </way>
</osm>
