<?xml version='1.0' encoding='UTF-8'?>
<osm version="0.6" generator="libosmium/2.20.0">
  <way id="75065503" version="1" timestamp="2010-08-29T11:26:13Z" uid="33382" user="de_muur" changeset="5624577">
    <nd ref="458869666"/>
    <nd ref="458919284"/>
    <nd ref="415306039"/>
    <nd ref="458919288"/>
    <tag k="foot" v="yes"/>
    <tag k="highway" v="cycleway"/>
    <tag k="horse" v="no"/>
    <tag k="surface" v="paved"/>
  </way>
  <way id="75065504" version="1" timestamp="2010-08-29T11:26:13Z" uid="33382" user="de_muur" changeset="5624577">
    <nd ref="266729620"/>
    <nd ref="321668846"/>
    <nd ref="269334866"/>
    <tag k="highway" v="secondary"/>
    <tag k="name" v="Möllner Landstraße"/>
    <tag k="ref" v="L 94"/>
  </way>
  <way id="75065505" version="1" timestamp="2010-08-29T11:26:14Z" uid="33382" user="de_muur" changeset="5624577">
    <nd ref="265779422"/>
    <nd ref="265779423"/>
    <nd ref="321946305"/>
    <nd ref="322749131"/>
    <tag k="highway" v="secondary"/>
    <tag k="name" v="Möllner Landstraße"/>
    <tag k="ref" v="L 94"/>
  </way>
  <way id="75065506" version="1" timestamp="2010-08-29T11:26:14Z" uid="33382" user="de_muur" changeset="5624577">
    <nd ref="458919287"/>
    <nd ref="458959287"/>
    <tag k="highway" v="residential"/>
    <tag k="maxspeed" v="30"/>
    <tag k="name" v="Dorfstraße"/>
    <tag k="surface" v="paved"/>
  </way>
  <way id="75065507" version="1" timestamp="2010-08-29T11:26:15Z" uid="33382" user="de_muur" changeset="5624577">
    <nd ref="96563934"/>
    <nd ref="268196773"/>
    <nd ref="471973007"/>
    <nd ref="268196742"/>
    <nd ref="21296337"/>
    <nd ref="21296336"/>
    <nd ref="21296335"/>
    <tag k="highway" v="tertiary"/>
    <tag k="maxspeed" v="60"/>
    <tag k="ref" v="L 160"/>
    <tag k="surface" v="paved"/>
  </way>
  <way id="75065508" version="1" timestamp="2010-08-29T11:26:15Z" uid="33382" user="de_muur" changeset="5624577">
    <nd ref="266729628"/>
    <nd ref="96563948"/>
    <nd ref="291602658"/>
    <nd ref="292055097"/>
    <nd ref="310512350"/>
    <nd ref="310512347"/>
    <nd ref="96563952"/>
    <tag k="highway" v="residential"/>
    <tag k="maxspeed" v="30"/>
    <tag k="name" v="Rausdorfer Weg"/>
    <tag k="surface" v="paved"/>
  </way>
  <way id="75065509" version="1" timestamp="2010-08-29T11:26:16Z" uid="33382" user="de_muur" changeset="5624577">
    <nd ref="534917310"/>
    <nd ref="571632914"/>
    <nd ref="259977290"/>
    <nd ref="843130167"/>
    <nd ref="331984125"/>
    <nd ref="843130191"/>
    <nd ref="331984126"/>
    <tag k="foot" v="yes"/>
    <tag k="highway" v="cycleway"/>
    <tag k="horse" v="no"/>
    <tag k="surface" v="paved"/>
  </way>
  <way id="75065510" version="1" timestamp="2010-08-29T11:26:16Z" uid="33382" user="de_muur" changeset="5624577">
    <nd ref="296528913"/>
    <nd ref="458959272"/>
    <nd ref="458959267"/>
    <nd ref="259977287"/>
    <nd ref="297341978"/>
    <nd ref="259977288"/>
    <nd ref="534917310"/>
    <tag k="foot" v="yes"/>
    <tag k="highway" v="cycleway"/>
    <tag k="horse" v="no"/>
    <tag k="surface" v="paved"/>
  </way>
  <way id="75065511" version="1" timestamp="2010-08-29T11:26:16Z" uid="33382" user="de_muur" changeset="5624577">
    <nd ref="331984126"/>
    <nd ref="886006073"/>
    <nd ref="843130177"/>
    <nd ref="259977291"/>
    <nd ref="843130195"/>
    <nd ref="534917318"/>
    <tag k="foot" v="yes"/>
    <tag k="highway" v="cycleway"/>
    <tag k="horse" v="no"/>
    <tag k="surface" v="paved"/>
  </way>
  <way id="75065838" version="2" timestamp="2010-12-31T15:54:17Z" uid="4467" user="Rosscoe" changeset="6821165">
    <nd ref="886009009"/>
    <nd ref="1075460319"/>
    <nd ref="1075460285"/>
    <nd ref="886009011"/>
    <tag k="highway" v="service"/>
    <tag k="oneway" v="yes"/>
  </way>
  <way id="75065839" version="2" timestamp="2010-12-31T15:54:23Z" uid="4467" user="Rosscoe" changeset="6821165">
    <nd ref="886009009"/>
    <nd ref="886009012"/>
    <nd ref="1075460293"/>
    <nd ref="1075460298"/>
    <nd ref="886009011"/>
    <tag k="highway" v="service"/>
    <tag k="oneway" v="yes"/>
  </way>
  <way id="75065993" version="4" timestamp="2010-12-31T23:15:40Z" uid="4467" user="Rosscoe" changeset="6824129">
    <nd ref="886010138"/>
    <nd ref="886010139"/>
    <nd ref="886010140"/>
    <nd ref="886010141"/>
    <nd ref="886010142"/>
    <tag k="highway" v="residential"/>
    <tag k="name" v="Naila Court"/>
  </way>
  <way id="75065994" version="4" timestamp="2011-01-01T00:45:59Z" uid="4467" user="Rosscoe" changeset="6824487">
    <nd ref="886012815"/>
    <nd ref="886012817"/>
    <nd ref="886012820"/>
    <nd ref="886010143"/>
    <nd ref="886010144"/>
    <nd ref="886010145"/>
    <nd ref="886010146"/>
    <nd ref="886010147"/>
    <nd ref="886010148"/>
    <nd ref="886010149"/>
    <tag k="highway" v="residential"/>
    <tag k="name" v="Terrence Drive"/>
  </way>
  <way id="75065996" version="4" timestamp="2010-12-31T23:04:54Z" uid="4467" user="Rosscoe" changeset="6824095">
    <nd ref="886010152"/>
    <nd ref="886010153"/>
    <tag k="highway" v="residential"/>
    <tag k="name" v="Rebecca Court"/>
  </way>
  <way id="75065998" version="4" timestamp="2010-12-31T23:11:27Z" uid="4467" user="Rosscoe" changeset="6824111">
    <nd ref="886010175"/>
    <nd ref="886010176"/>
    <nd ref="886010178"/>
    <nd ref="886010173"/>
    <tag k="highway" v="residential"/>
    <tag k="name" v="Orlit Court"/>
  </way>
</osm>
