<?xml version='1.0' encoding='UTF-8'?>
<osm version="0.6" generator="libosmium/2.20.0">
  <way id="7527033" version="3" timestamp="2008-12-17T08:04:43Z" uid="8619" user="cetest" changeset="442135">
    <nd ref="44429487"/>
    <nd ref="319449073"/>
    <nd ref="44432952"/>
    <tag k="AND:importance_level" v="1"/>
    <tag k="AND_nosr_r" v="15089382"/>
    <tag k="created_by" v="Potlatch 0.6a"/>
    <tag k="highway" v="primary"/>
    <tag k="name" v="Statenweg"/>
    <tag k="oneway" v="1"/>
  </way>
  <way id="7527342" version="3" timestamp="2009-01-01T13:55:25Z" uid="6975" user="ulfl" changeset="699648">
    <nd ref="44754428"/>
    <nd ref="323844438"/>
    <nd ref="44753002"/>
    <tag k="AND:importance_level" v="5"/>
    <tag k="AND_nosr_r" v="15089120"/>
    <tag k="highway" v="living_street"/>
    <tag k="name" v="Beukenhorst"/>
  </way>
  <way id="7527424" version="3" timestamp="2009-01-01T13:55:26Z" uid="6975" user="ulfl" changeset="699648">
    <nd ref="44753002"/>
    <nd ref="44753978"/>
    <tag k="AND:importance_level" v="5"/>
    <tag k="AND_nosr_r" v="15089053"/>
    <tag k="highway" v="living_street"/>
    <tag k="name" v="Beukenhorst"/>
  </way>
</osm>
