<?xml version='1.0' encoding='UTF-8'?>
<osm version="0.6" generator="libosmium/2.20.0">
  <way id="7528538" version="2" timestamp="2007-10-13T21:07:32Z" uid="8619" user="cetest" changeset="146009"/>
  <way id="7528541" version="2" timestamp="2007-10-13T21:07:34Z" uid="8619" user="cetest" changeset="146009"/>
  <way id="7528543" version="2" timestamp="2008-04-27T14:50:58Z" uid="8619" user="cetest" changeset="266518">
    <nd ref="44812306"/>
    <nd ref="260195934"/>
    <nd ref="260195952"/>
    <nd ref="44812973"/>
    <tag k="AND_nosr_r" v="15088100"/>
    <tag k="highway" v="unclassified"/>
  </way>
  <way id="7528543" version="3" timestamp="2008-04-27T17:38:53Z" uid="8619" user="cetest" changeset="269138"/>
  <way id="7528547" version="2" timestamp="2008-04-27T14:51:00Z" uid="8619" user="cetest" changeset="266518">
    <nd ref="44815637"/>
    <nd ref="260195924"/>
    <nd ref="44816787"/>
    <tag k="AND_nosr_r" v="15088097"/>
    <tag k="highway" v="unclassified"/>
  </way>
  <way id="7528547" version="3" timestamp="2008-04-27T17:38:52Z" uid="8619" user="cetest" changeset="269138"/>
  <way id="7528558" version="2" timestamp="2007-10-13T21:07:33Z" uid="8619" user="cetest" changeset="146009"/>
  <way id="7528565" version="2" timestamp="2008-04-27T19:13:56Z" uid="8619" user="cetest" changeset="269138">
    <nd ref="44779348"/>
    <nd ref="260259327"/>
    <nd ref="44783375"/>
    <tag k="AND:importance_level" v="5"/>
    <tag k="AND_nosr_r" v="15088083"/>
    <tag k="highway" v="unclassified"/>
    <tag k="name" v="Klapwijkseweg"/>
  </way>
  <way id="7528568" version="7" timestamp="2008-04-27T17:54:14Z" uid="8619" user="cetest" changeset="269138">
    <nd ref="44785992"/>
    <nd ref="44785128"/>
    <nd ref="44784331"/>
    <nd ref="44781520"/>
    <nd ref="141952296"/>
    <nd ref="141952295"/>
    <nd ref="141952388"/>
    <nd ref="141952757"/>
    <nd ref="44778453"/>
    <tag k="AND:importance_level" v="5"/>
    <tag k="AND_nosr_r" v="15088080"/>
    <tag k="created_by" v="Potlatch 0.5d"/>
    <tag k="cycleway" v="lane"/>
    <tag k="highway" v="cycleway"/>
  </way>
  <way id="7528605" version="2" timestamp="2007-10-13T21:07:34Z" uid="8619" user="cetest" changeset="146009"/>
  <way id="7528626" version="2" timestamp="2008-04-27T17:38:31Z" uid="8619" user="cetest" changeset="269138">
    <nd ref="44811677"/>
    <nd ref="44812973"/>
    <tag k="AND_nosr_r" v="15088031"/>
    <tag k="highway" v="unclassified"/>
    <tag k="name" v="De Voorde"/>
  </way>
  <way id="7528628" version="2" timestamp="2008-04-27T17:38:34Z" uid="8619" user="cetest" changeset="269138">
    <nd ref="44812973"/>
    <nd ref="44813765"/>
    <tag k="AND_nosr_r" v="15088029"/>
    <tag k="highway" v="unclassified"/>
    <tag k="name" v="De Voorde"/>
  </way>
  <way id="7528629" version="2" timestamp="2008-04-27T17:38:31Z" uid="8619" user="cetest" changeset="269138">
    <nd ref="44815168"/>
    <nd ref="44816787"/>
    <tag k="AND_nosr_r" v="15088028"/>
    <tag k="highway" v="unclassified"/>
    <tag k="name" v="De Loete"/>
  </way>
  <way id="7528630" version="2" timestamp="2008-04-27T17:38:37Z" uid="8619" user="cetest" changeset="269138">
    <nd ref="44816787"/>
    <nd ref="44818258"/>
    <tag k="AND_nosr_r" v="15088027"/>
    <tag k="highway" v="unclassified"/>
    <tag k="name" v="De Loete"/>
  </way>
  <way id="7528631" version="2" timestamp="2008-04-27T14:51:04Z" uid="8619" user="cetest" changeset="266518">
    <nd ref="44818258"/>
    <nd ref="44819737"/>
    <tag k="AND_nosr_r" v="15088026"/>
    <tag k="highway" v="unclassified"/>
    <tag k="name" v="De Harnasch"/>
  </way>
  <way id="7528634" version="5" timestamp="2008-04-27T19:13:55Z" uid="8619" user="cetest" changeset="269138">
    <nd ref="44788118"/>
    <nd ref="69293456"/>
    <tag k="AND:importance_level" v="5"/>
    <tag k="AND_nosr_r" v="15088025; 15088631; 15088012; 15088103"/>
    <tag k="created_by" v="Potlatch 0.5d"/>
    <tag k="highway" v="unclassified"/>
    <tag k="name" v="Meerweg"/>
    <tag k="tunnel" v="true"/>
  </way>
  <way id="7528665" version="2" timestamp="2007-10-13T21:07:30Z" uid="8619" user="cetest" changeset="146009">
    <nd ref="44784328"/>
    <nd ref="44785990"/>
    <nd ref="69293492"/>
    <nd ref="69293485"/>
    <nd ref="69293477"/>
    <tag k="AND:importance_level" v="4"/>
    <tag k="AND_nosr_r" v="15087999"/>
    <tag k="highway" v="secondary"/>
    <tag k="name" v="Klapwijkseweg"/>
    <tag k="ref" v="N472"/>
  </way>
  <way id="7528665" version="3" timestamp="2007-12-16T15:32:21Z" uid="8619" user="cetest" changeset="328679">
    <nd ref="44784328"/>
    <nd ref="44785990"/>
    <nd ref="69293492"/>
    <tag k="AND:importance_level" v="4"/>
    <tag k="AND_nosr_r" v="15087999"/>
    <tag k="highway" v="secondary"/>
    <tag k="name" v="Klapwijkseweg"/>
    <tag k="ref" v="N472"/>
  </way>
  <way id="7528670" version="1" timestamp="2007-10-04T13:40:36Z" uid="8619" user="cetest" changeset="32227">
    <nd ref="60670422"/>
    <nd ref="60670419"/>
    <nd ref="44642428"/>
    <nd ref="44640502"/>
    <tag k="AND:importance_level" v="2"/>
    <tag k="AND_nosr_r" v="15087995"/>
    <tag k="highway" v="primary"/>
    <tag k="name" v="Doenkade"/>
    <tag k="oneway" v="1"/>
    <tag k="ref" v="N209"/>
  </way>
  <way id="7528674" version="2" timestamp="2007-10-13T21:07:31Z" uid="8619" user="cetest" changeset="146009"/>
  <way id="7528697" version="2" timestamp="2007-10-13T21:07:34Z" uid="8619" user="cetest" changeset="146009"/>
  <way id="7528904" version="2" timestamp="2007-10-13T21:07:31Z" uid="8619" user="cetest" changeset="146009"/>
  <way id="7528947" version="2" timestamp="2007-12-16T09:43:03Z" uid="8619" user="cetest" changeset="323285">
    <nd ref="44718847"/>
    <nd ref="172817599"/>
    <nd ref="44719799"/>
    <tag k="AND:importance_level" v="5"/>
    <tag k="AND_nosr_r" v="15087758"/>
    <tag k="highway" v="unclassified"/>
    <tag k="name" v="Gerberasingel"/>
  </way>
</osm>
