<?xml version='1.0' encoding='UTF-8'?>
<osm version="0.6" generator="libosmium/2.20.0">
  <way id="7530025" version="2" timestamp="2008-04-26T16:52:17Z" uid="8619" user="cetest" changeset="260590">
    <nd ref="44805025"/>
    <nd ref="44805539"/>
    <nd ref="44810856"/>
    <nd ref="44812303"/>
    <nd ref="44830602"/>
    <nd ref="44833200"/>
    <tag k="AND:importance_level" v="5"/>
    <tag k="AND_nosr_r" v="15086820"/>
    <tag k="highway" v="tertiary"/>
    <tag k="name" v="Overgauwseweg"/>
  </way>
  <way id="7530025" version="9" timestamp="2010-07-01T19:25:17Z" uid="8619" user="cetest" changeset="5123019">
    <nd ref="44805025"/>
    <nd ref="798783244"/>
    <nd ref="44805539"/>
    <nd ref="44810856"/>
    <nd ref="44812303"/>
    <nd ref="798783236"/>
    <nd ref="798783242"/>
    <nd ref="798783240"/>
    <nd ref="634604495"/>
    <tag k="AND:importance_level" v="5"/>
    <tag k="AND_nosr_r" v="15086808; 15086725; 15086720; 15086718"/>
    <tag k="highway" v="residential"/>
    <tag k="maxspeed" v="60"/>
    <tag k="name" v="Overgauwseweg"/>
  </way>
  <way id="7530026" version="9" timestamp="2008-12-16T14:20:00Z" uid="8619" user="cetest" changeset="418985">
    <nd ref="44840481"/>
    <nd ref="44840056"/>
    <nd ref="44839634"/>
    <nd ref="319208961"/>
    <nd ref="44839226"/>
    <nd ref="315544882"/>
    <nd ref="315544154"/>
    <nd ref="315544155"/>
    <nd ref="315544156"/>
    <nd ref="315544172"/>
    <nd ref="315544157"/>
    <nd ref="44840481"/>
    <tag k="AND:importance_level" v="4"/>
    <tag k="AND_nosr_r" v="15086819"/>
    <tag k="created_by" v="Potlatch 0.10f"/>
    <tag k="highway" v="secondary"/>
    <tag k="junction" v="roundabout"/>
    <tag k="oneway" v="1"/>
    <tag k="ref" v="N472"/>
  </way>
  <way id="7530035" version="2" timestamp="2007-10-17T19:17:41Z" uid="8619" user="cetest" changeset="224354">
    <nd ref="60670809"/>
    <nd ref="76698411"/>
    <tag k="AND:importance_level" v="4"/>
    <tag k="AND_nosr_r" v="15086811"/>
    <tag k="highway" v="secondary"/>
    <tag k="name" v="Klapwijkseweg"/>
    <tag k="oneway" v="1"/>
    <tag k="ref" v="N472"/>
  </way>
  <way id="7530035" version="3" timestamp="2008-04-27T14:51:07Z" uid="8619" user="cetest" changeset="266518">
    <nd ref="60670809"/>
    <nd ref="260195893"/>
    <nd ref="260196085"/>
    <nd ref="260195974"/>
    <tag k="AND:importance_level" v="4"/>
    <tag k="AND_nosr_r" v="15086811"/>
    <tag k="highway" v="secondary"/>
    <tag k="name" v="Klapwijkseweg"/>
    <tag k="oneway" v="1"/>
    <tag k="ref" v="N472"/>
  </way>
  <way id="7530036" version="2" timestamp="2007-10-13T21:07:34Z" uid="8619" user="cetest" changeset="146009"/>
  <way id="7530038" version="2" timestamp="2008-04-26T16:52:19Z" uid="8619" user="cetest" changeset="260590">
    <nd ref="44802040"/>
    <nd ref="44805025"/>
    <tag k="AND:importance_level" v="5"/>
    <tag k="AND_nosr_r" v="15086808"/>
    <tag k="highway" v="tertiary"/>
    <tag k="name" v="Overgauwseweg"/>
  </way>
  <way id="7530038" version="3" timestamp="2008-04-27T14:51:12Z" uid="8619" user="cetest" changeset="266518"/>
  <way id="7530039" version="2" timestamp="2008-04-26T16:52:18Z" uid="8619" user="cetest" changeset="260590">
    <nd ref="44793659"/>
    <nd ref="44798285"/>
    <nd ref="44799170"/>
    <nd ref="44801609"/>
    <nd ref="44802040"/>
    <tag k="AND:importance_level" v="5"/>
    <tag k="AND_nosr_r" v="15086807"/>
    <tag k="highway" v="tertiary"/>
    <tag k="name" v="Oude Leedeweg"/>
  </way>
  <way id="7530039" version="3" timestamp="2008-04-27T14:50:58Z" uid="8619" user="cetest" changeset="266518">
    <nd ref="44793659"/>
    <nd ref="44798285"/>
    <nd ref="260195811"/>
    <nd ref="260195819"/>
    <tag k="AND:importance_level" v="5"/>
    <tag k="AND_nosr_r" v="15086807"/>
    <tag k="highway" v="tertiary"/>
    <tag k="name" v="Oude Leedeweg"/>
  </way>
  <way id="7530039" version="15" timestamp="2010-07-01T19:25:18Z" uid="8619" user="cetest" changeset="5123019">
    <nd ref="484523088"/>
    <nd ref="484626220"/>
    <nd ref="484626218"/>
    <nd ref="44798285"/>
    <tag k="AND_nosr_r" v="15086807"/>
    <tag k="highway" v="residential"/>
    <tag k="name" v="Oude Leedeweg"/>
  </way>
  <way id="7530040" version="2" timestamp="2007-10-13T21:07:28Z" uid="8619" user="cetest" changeset="146009">
    <nd ref="44788118"/>
    <nd ref="44790161"/>
    <nd ref="44793661"/>
    <nd ref="44801216"/>
    <nd ref="69293472"/>
    <tag k="AND:importance_level" v="4"/>
    <tag k="AND_nosr_r" v="15086806"/>
    <tag k="highway" v="secondary"/>
    <tag k="name" v="Klapwijkseweg"/>
  </way>
  <way id="7530040" version="3" timestamp="2007-10-17T19:17:41Z" uid="8619" user="cetest" changeset="224354">
    <nd ref="44788118"/>
    <nd ref="44790161"/>
    <nd ref="44793661"/>
    <nd ref="44801216"/>
    <nd ref="69293472"/>
    <tag k="AND:importance_level" v="4"/>
    <tag k="AND_nosr_r" v="15086806"/>
    <tag k="created_by" v="JOSM"/>
    <tag k="highway" v="secondary"/>
    <tag k="name" v="Klapwijkseweg"/>
  </way>
  <way id="7530040" version="4" timestamp="2008-04-27T19:13:52Z" uid="8619" user="cetest" changeset="269138">
    <nd ref="44788118"/>
    <nd ref="44790161"/>
    <nd ref="44793661"/>
    <nd ref="44801216"/>
    <nd ref="69293472"/>
    <nd ref="260259259"/>
    <nd ref="44798287"/>
    <tag k="AND:importance_level" v="4"/>
    <tag k="AND_nosr_r" v="15086806"/>
    <tag k="created_by" v="JOSM"/>
    <tag k="highway" v="unclassified"/>
    <tag k="name" v="Klapwijkseweg"/>
  </way>
  <way id="7530042" version="2" timestamp="2007-10-13T21:07:32Z" uid="8619" user="cetest" changeset="146009"/>
  <way id="7530043" version="2" timestamp="2008-04-26T16:52:14Z" uid="8619" user="cetest" changeset="260590">
    <nd ref="44793659"/>
    <nd ref="44798287"/>
    <tag k="AND:importance_level" v="4"/>
    <tag k="AND_nosr_r" v="15086804"/>
    <tag k="highway" v="tertiary"/>
    <tag k="name" v="Groenekade"/>
  </way>
  <way id="7530043" version="3" timestamp="2008-04-27T14:50:56Z" uid="8619" user="cetest" changeset="266518">
    <nd ref="44793659"/>
    <nd ref="44798287"/>
    <tag k="AND:importance_level" v="4"/>
    <tag k="AND_nosr_r" v="15086804"/>
    <tag k="highway" v="cycleway"/>
    <tag k="name" v="Groenekade"/>
  </way>
  <way id="7530044" version="2" timestamp="2008-04-26T16:52:13Z" uid="8619" user="cetest" changeset="260590">
    <nd ref="44784323"/>
    <nd ref="44793659"/>
    <tag k="AND:importance_level" v="4"/>
    <tag k="AND_nosr_r" v="15086803"/>
    <tag k="highway" v="tertiary"/>
    <tag k="name" v="Oude Leedeweg"/>
  </way>
  <way id="7530047" version="2" timestamp="2008-04-30T10:01:52Z" uid="8619" user="cetest" changeset="290668">
    <nd ref="44782887"/>
    <nd ref="44783369"/>
    <nd ref="44784323"/>
    <tag k="AND:importance_level" v="4"/>
    <tag k="AND_nosr_r" v="15086801"/>
    <tag k="highway" v="tertiary"/>
    <tag k="name" v="Overgauwseweg"/>
  </way>
  <way id="7530050" version="2" timestamp="2007-10-13T21:07:33Z" uid="8619" user="cetest" changeset="146009"/>
  <way id="7530052" version="2" timestamp="2008-04-27T19:35:18Z" uid="8619" user="cetest" changeset="269138">
    <nd ref="44847048"/>
    <nd ref="44861879"/>
    <nd ref="44871823"/>
    <tag k="AND:importance_level" v="2"/>
    <tag k="AND_nosr_r" v="15086798"/>
    <tag k="highway" v="secondary"/>
    <tag k="name" v="Delftsestraatweg"/>
    <tag k="ref" v="N473"/>
  </way>
  <way id="7530056" version="2" timestamp="2007-11-23T18:22:59Z" uid="8619" user="cetest" changeset="602021">
    <nd ref="44771665"/>
    <nd ref="44773482"/>
    <tag k="AND:importance_level" v="5"/>
    <tag k="AND_nosr_r" v="15086795"/>
    <tag k="highway" v="unclassified"/>
    <tag k="name" v="Distributieweg"/>
  </way>
  <way id="7530056" version="3" timestamp="2008-03-16T20:52:23Z" uid="8619" user="cetest" changeset="334768">
    <nd ref="44771665"/>
    <nd ref="252500040"/>
    <nd ref="44773482"/>
    <tag k="AND:importance_level" v="5"/>
    <tag k="AND_nosr_r" v="15086795"/>
    <tag k="highway" v="unclassified"/>
    <tag k="name" v="Distributieweg"/>
  </way>
  <way id="7530056" version="4" timestamp="2008-03-22T21:01:03Z" uid="8619" user="cetest" changeset="372043">
    <nd ref="44771665"/>
    <nd ref="252500040"/>
    <tag k="AND:importance_level" v="5"/>
    <tag k="AND_nosr_r" v="15086795"/>
    <tag k="highway" v="unclassified"/>
    <tag k="name" v="Distributieweg"/>
  </way>
  <way id="7530058" version="2" timestamp="2008-03-22T21:02:06Z" uid="8619" user="cetest" changeset="372043">
    <nd ref="44766605"/>
    <nd ref="44770899"/>
    <tag k="AND:importance_level" v="5"/>
    <tag k="AND_nosr_r" v="15086793"/>
    <tag k="highway" v="cycleway"/>
  </way>
  <way id="7530059" version="2" timestamp="2008-04-29T19:35:59Z" uid="8619" user="cetest" changeset="286165">
    <nd ref="44759963"/>
    <nd ref="44770503"/>
    <tag k="AND:importance_level" v="5"/>
    <tag k="AND_nosr_r" v="15086792"/>
    <tag k="highway" v="tertiary"/>
    <tag k="name" v="Zuideindseweg"/>
  </way>
  <way id="7530105" version="2" timestamp="2008-04-27T10:02:35Z" uid="8619" user="cetest" changeset="265509">
    <nd ref="44804118"/>
    <nd ref="44804519"/>
    <nd ref="44805019"/>
    <nd ref="44807566"/>
    <tag k="AND:importance_level" v="5"/>
    <tag k="AND_nosr_r" v="15086752"/>
    <tag k="highway" v="unclassified"/>
  </way>
  <way id="7530107" version="2" timestamp="2007-11-23T18:22:58Z" uid="8619" user="cetest" changeset="602021">
    <nd ref="44773482"/>
    <nd ref="44774403"/>
    <nd ref="44781047"/>
    <nd ref="44781045"/>
    <tag k="AND:importance_level" v="5"/>
    <tag k="AND_nosr_r" v="15086750"/>
    <tag k="highway" v="unclassified"/>
    <tag k="name" v="Overslagweg"/>
  </way>
  <way id="7530136" version="2" timestamp="2008-04-29T19:36:07Z" uid="8619" user="cetest" changeset="286165">
    <nd ref="44861881"/>
    <nd ref="44871376"/>
    <tag k="AND:importance_level" v="5"/>
    <tag k="AND_nosr_r" v="15086727"/>
    <tag k="highway" v="tertiary"/>
    <tag k="name" v="Overgauwseweg"/>
  </way>
  <way id="7530137" version="2" timestamp="2008-04-29T19:36:06Z" uid="8619" user="cetest" changeset="286165">
    <nd ref="44770503"/>
    <nd ref="44770899"/>
    <tag k="AND:importance_level" v="5"/>
    <tag k="AND_nosr_r" v="15086726"/>
    <tag k="highway" v="tertiary"/>
    <tag k="name" v="Zuideindseweg"/>
  </way>
  <way id="7530138" version="2" timestamp="2008-04-29T19:36:03Z" uid="8619" user="cetest" changeset="286165">
    <nd ref="44833200"/>
    <nd ref="44835302"/>
    <nd ref="44838456"/>
    <nd ref="44844097"/>
    <tag k="AND:importance_level" v="5"/>
    <tag k="AND_nosr_r" v="15086725"/>
    <tag k="highway" v="tertiary"/>
    <tag k="name" v="Overgauwseweg"/>
  </way>
  <way id="7530140" version="2" timestamp="2008-04-29T19:36:00Z" uid="8619" user="cetest" changeset="286165">
    <nd ref="44770899"/>
    <nd ref="44771667"/>
    <tag k="AND:importance_level" v="5"/>
    <tag k="AND_nosr_r" v="15086724"/>
    <tag k="highway" v="tertiary"/>
    <tag k="name" v="Zuideindseweg"/>
  </way>
  <way id="7530141" version="2" timestamp="2008-04-29T19:36:03Z" uid="8619" user="cetest" changeset="286165">
    <nd ref="44771667"/>
    <nd ref="44782479"/>
    <tag k="AND:importance_level" v="5"/>
    <tag k="AND_nosr_r" v="15086723"/>
    <tag k="highway" v="tertiary"/>
    <tag k="name" v="Zuideindseweg"/>
  </way>
  <way id="7530142" version="2" timestamp="2008-04-29T19:36:09Z" uid="8619" user="cetest" changeset="286165">
    <nd ref="44846601"/>
    <nd ref="44848924"/>
    <tag k="AND:importance_level" v="5"/>
    <tag k="AND_nosr_r" v="15086722"/>
    <tag k="highway" v="tertiary"/>
    <tag k="name" v="Overgauwseweg"/>
  </way>
  <way id="7530143" version="2" timestamp="2008-04-29T19:36:08Z" uid="8619" user="cetest" changeset="286165">
    <nd ref="44854302"/>
    <nd ref="44861881"/>
    <tag k="AND:importance_level" v="5"/>
    <tag k="AND_nosr_r" v="15086721"/>
    <tag k="highway" v="tertiary"/>
    <tag k="name" v="Overgauwseweg"/>
  </way>
  <way id="7530144" version="2" timestamp="2008-04-29T19:36:01Z" uid="8619" user="cetest" changeset="286165">
    <nd ref="44844097"/>
    <nd ref="44846601"/>
    <tag k="AND:importance_level" v="5"/>
    <tag k="AND_nosr_r" v="15086720"/>
    <tag k="highway" v="tertiary"/>
    <tag k="name" v="Overgauwseweg"/>
  </way>
  <way id="7530145" version="2" timestamp="2008-04-29T19:36:02Z" uid="8619" user="cetest" changeset="286165">
    <nd ref="44786397"/>
    <nd ref="44802039"/>
    <tag k="AND:importance_level" v="5"/>
    <tag k="AND_nosr_r" v="15086719"/>
    <tag k="highway" v="tertiary"/>
    <tag k="name" v="Zuideindseweg"/>
  </way>
  <way id="7530146" version="2" timestamp="2008-04-29T19:36:07Z" uid="8619" user="cetest" changeset="286165">
    <nd ref="44848924"/>
    <nd ref="44854302"/>
    <tag k="AND:importance_level" v="5"/>
    <tag k="AND_nosr_r" v="15086718"/>
    <tag k="highway" v="tertiary"/>
    <tag k="name" v="Overgauwseweg"/>
  </way>
  <way id="7530147" version="2" timestamp="2008-04-29T19:35:54Z" uid="8619" user="cetest" changeset="286165">
    <nd ref="44782479"/>
    <nd ref="44786397"/>
    <tag k="AND:importance_level" v="5"/>
    <tag k="AND_nosr_r" v="15086717"/>
    <tag k="highway" v="tertiary"/>
    <tag k="name" v="Zuideindseweg"/>
  </way>
  <way id="7530148" version="2" timestamp="2008-04-27T19:35:19Z" uid="8619" user="cetest" changeset="269138">
    <nd ref="44871376"/>
    <nd ref="44871661"/>
    <tag k="AND:importance_level" v="2"/>
    <tag k="AND_nosr_r" v="15086716"/>
    <tag k="highway" v="secondary"/>
    <tag k="junction" v="roundabout"/>
    <tag k="oneway" v="1"/>
    <tag k="ref" v="N473"/>
  </way>
  <way id="7530150" version="2" timestamp="2008-04-27T19:35:19Z" uid="8619" user="cetest" changeset="269138">
    <nd ref="44871661"/>
    <nd ref="44871826"/>
    <nd ref="44872156"/>
    <tag k="AND:importance_level" v="2"/>
    <tag k="AND_nosr_r" v="15086715"/>
    <tag k="highway" v="secondary"/>
    <tag k="junction" v="roundabout"/>
    <tag k="oneway" v="1"/>
    <tag k="ref" v="N473"/>
  </way>
  <way id="7530151" version="2" timestamp="2008-04-27T19:35:16Z" uid="8619" user="cetest" changeset="269138">
    <nd ref="44872499"/>
    <nd ref="44872707"/>
    <tag k="AND:importance_level" v="2"/>
    <tag k="AND_nosr_r" v="15086714"/>
    <tag k="highway" v="secondary"/>
    <tag k="junction" v="roundabout"/>
    <tag k="oneway" v="1"/>
    <tag k="ref" v="N473"/>
  </way>
  <way id="7530152" version="2" timestamp="2008-04-27T19:35:20Z" uid="8619" user="cetest" changeset="269138">
    <nd ref="44872707"/>
    <nd ref="44872880"/>
    <tag k="AND:importance_level" v="2"/>
    <tag k="AND_nosr_r" v="15086713"/>
    <tag k="highway" v="secondary"/>
    <tag k="junction" v="roundabout"/>
    <tag k="oneway" v="1"/>
    <tag k="ref" v="N473"/>
  </way>
  <way id="7530153" version="2" timestamp="2008-04-27T19:29:44Z" uid="8619" user="cetest" changeset="269138">
    <nd ref="44878543"/>
    <nd ref="44878183"/>
    <tag k="AND:importance_level" v="2"/>
    <tag k="AND_nosr_r" v="15086712"/>
    <tag k="highway" v="secondary"/>
    <tag k="junction" v="roundabout"/>
    <tag k="oneway" v="1"/>
    <tag k="ref" v="N473"/>
  </way>
  <way id="7530154" version="2" timestamp="2008-04-27T19:35:16Z" uid="8619" user="cetest" changeset="269138">
    <nd ref="44872880"/>
    <nd ref="44872496"/>
    <nd ref="44871823"/>
    <tag k="AND:importance_level" v="2"/>
    <tag k="AND_nosr_r" v="15086711"/>
    <tag k="highway" v="secondary"/>
    <tag k="junction" v="roundabout"/>
    <tag k="oneway" v="1"/>
    <tag k="ref" v="N473"/>
  </way>
  <way id="7530155" version="2" timestamp="2008-04-27T19:35:17Z" uid="8619" user="cetest" changeset="269138">
    <nd ref="44872156"/>
    <nd ref="44872499"/>
    <tag k="AND:importance_level" v="2"/>
    <tag k="AND_nosr_r" v="15086710"/>
    <tag k="highway" v="secondary"/>
    <tag k="junction" v="roundabout"/>
    <tag k="oneway" v="1"/>
    <tag k="ref" v="N473"/>
  </way>
  <way id="7530157" version="2" timestamp="2008-04-27T19:29:43Z" uid="8619" user="cetest" changeset="269138">
    <nd ref="44878185"/>
    <nd ref="44878544"/>
    <tag k="AND:importance_level" v="2"/>
    <tag k="AND_nosr_r" v="15086709"/>
    <tag k="highway" v="secondary"/>
    <tag k="junction" v="roundabout"/>
    <tag k="oneway" v="1"/>
    <tag k="ref" v="N473"/>
  </way>
  <way id="7530158" version="2" timestamp="2008-04-27T19:35:21Z" uid="8619" user="cetest" changeset="269138">
    <nd ref="44871373"/>
    <nd ref="44871376"/>
    <tag k="AND:importance_level" v="2"/>
    <tag k="AND_nosr_r" v="15086708"/>
    <tag k="highway" v="secondary"/>
    <tag k="junction" v="roundabout"/>
    <tag k="oneway" v="1"/>
    <tag k="ref" v="N473"/>
  </way>
  <way id="7530159" version="2" timestamp="2008-04-27T19:29:46Z" uid="8619" user="cetest" changeset="269138">
    <nd ref="44878183"/>
    <nd ref="44877783"/>
    <tag k="AND:importance_level" v="2"/>
    <tag k="AND_nosr_r" v="15086707"/>
    <tag k="highway" v="secondary"/>
    <tag k="junction" v="roundabout"/>
    <tag k="oneway" v="1"/>
    <tag k="ref" v="N473"/>
  </way>
  <way id="7530160" version="2" timestamp="2008-04-27T19:29:42Z" uid="8619" user="cetest" changeset="269138">
    <nd ref="44872156"/>
    <nd ref="44874714"/>
    <nd ref="44878183"/>
    <tag k="AND:importance_level" v="2"/>
    <tag k="AND_nosr_r" v="15086706"/>
    <tag k="highway" v="secondary"/>
    <tag k="name" v="Westlaan"/>
    <tag k="ref" v="N473"/>
  </way>
  <way id="7530161" version="2" timestamp="2008-04-27T19:29:47Z" uid="8619" user="cetest" changeset="269138">
    <nd ref="44877783"/>
    <nd ref="44877784"/>
    <tag k="AND:importance_level" v="2"/>
    <tag k="AND_nosr_r" v="15086705"/>
    <tag k="highway" v="secondary"/>
    <tag k="junction" v="roundabout"/>
    <tag k="oneway" v="1"/>
    <tag k="ref" v="N473"/>
  </way>
  <way id="7530163" version="2" timestamp="2008-04-27T19:29:45Z" uid="8619" user="cetest" changeset="269138">
    <nd ref="44877784"/>
    <nd ref="44878185"/>
    <tag k="AND:importance_level" v="2"/>
    <tag k="AND_nosr_r" v="15086704"/>
    <tag k="highway" v="secondary"/>
    <tag k="junction" v="roundabout"/>
    <tag k="oneway" v="1"/>
    <tag k="ref" v="N473"/>
  </way>
  <way id="7530164" version="2" timestamp="2008-04-27T19:35:21Z" uid="8619" user="cetest" changeset="269138">
    <nd ref="44871823"/>
    <nd ref="44871373"/>
    <tag k="AND:importance_level" v="2"/>
    <tag k="AND_nosr_r" v="15086703"/>
    <tag k="highway" v="secondary"/>
    <tag k="junction" v="roundabout"/>
    <tag k="oneway" v="1"/>
    <tag k="ref" v="N473"/>
  </way>
  <way id="7530165" version="2" timestamp="2008-04-27T19:29:47Z" uid="8619" user="cetest" changeset="269138">
    <nd ref="44878544"/>
    <nd ref="44878945"/>
    <nd ref="44878942"/>
    <tag k="AND:importance_level" v="2"/>
    <tag k="AND_nosr_r" v="15086702"/>
    <tag k="highway" v="secondary"/>
    <tag k="junction" v="roundabout"/>
    <tag k="oneway" v="1"/>
    <tag k="ref" v="N473"/>
  </way>
  <way id="7530166" version="2" timestamp="2008-04-27T19:29:48Z" uid="8619" user="cetest" changeset="269138">
    <nd ref="44878942"/>
    <nd ref="44878543"/>
    <tag k="AND:importance_level" v="2"/>
    <tag k="AND_nosr_r" v="15086701"/>
    <tag k="highway" v="secondary"/>
    <tag k="junction" v="roundabout"/>
    <tag k="oneway" v="1"/>
    <tag k="ref" v="N473"/>
  </way>
  <way id="7530167" version="2" timestamp="2008-04-27T19:29:44Z" uid="8619" user="cetest" changeset="269138">
    <nd ref="44878544"/>
    <nd ref="44878545"/>
    <tag k="AND:importance_level" v="2"/>
    <tag k="AND_nosr_r" v="15086700"/>
    <tag k="highway" v="secondary"/>
    <tag k="name" v="Oostlaan"/>
    <tag k="ref" v="N473"/>
  </way>
  <way id="7530171" version="2" timestamp="2008-12-21T13:07:38Z" uid="8619" user="cetest" changeset="523682">
    <nd ref="44695609"/>
    <nd ref="320520821"/>
    <nd ref="44696754"/>
    <nd ref="44696755"/>
    <nd ref="44696139"/>
    <nd ref="44696759"/>
    <nd ref="44698399"/>
    <nd ref="44700001"/>
    <nd ref="44702074"/>
    <nd ref="44703117"/>
    <tag k="AND:importance_level" v="5"/>
    <tag k="AND_nosr_r" v="15086697"/>
    <tag k="highway" v="unclassified"/>
    <tag k="name" v="Ackersdijkseweg"/>
  </way>
  <way id="7530171" version="3" timestamp="2009-01-27T21:05:06Z" uid="8619" user="cetest" changeset="844330">
    <nd ref="44695609"/>
    <nd ref="320520821"/>
    <nd ref="44696754"/>
    <nd ref="44696755"/>
    <nd ref="44696139"/>
    <nd ref="44696759"/>
    <nd ref="338473166"/>
    <nd ref="338473164"/>
    <nd ref="44698399"/>
    <nd ref="44700001"/>
    <nd ref="338473162"/>
    <nd ref="44702074"/>
    <nd ref="44703117"/>
    <tag k="AND:importance_level" v="5"/>
    <tag k="AND_nosr_r" v="15086697"/>
    <tag k="highway" v="unclassified"/>
    <tag k="name" v="Ackersdijkseweg"/>
  </way>
  <way id="7530173" version="4" timestamp="2008-12-21T13:07:52Z" uid="8619" user="cetest" changeset="523682"/>
  <way id="7530175" version="2" timestamp="2008-12-21T13:07:45Z" uid="8619" user="cetest" changeset="523682">
    <nd ref="44679026"/>
    <nd ref="44679943"/>
    <nd ref="44688450"/>
    <nd ref="320520863"/>
    <nd ref="44688451"/>
    <nd ref="44688909"/>
    <nd ref="44689870"/>
    <tag k="AND:importance_level" v="5"/>
    <tag k="AND_nosr_r" v="15086693"/>
    <tag k="highway" v="cycleway"/>
    <tag k="name" v="Zwetkade"/>
  </way>
  <way id="7530175" version="6" timestamp="2009-01-27T21:18:31Z" uid="8619" user="cetest" changeset="844330">
    <nd ref="44679026"/>
    <nd ref="44679943"/>
    <nd ref="44688450"/>
    <nd ref="320520863"/>
    <nd ref="44688451"/>
    <nd ref="44688909"/>
    <nd ref="44689870"/>
    <tag k="AND:importance_level" v="5"/>
    <tag k="AND_nosr_r" v="15086693"/>
    <tag k="created_by" v="Potlatch 0.10f"/>
    <tag k="highway" v="cycleway"/>
    <tag k="name" v="Zwetkade"/>
  </way>
  <way id="7530186" version="2" timestamp="2008-12-21T13:07:47Z" uid="8619" user="cetest" changeset="523682">
    <nd ref="44688456"/>
    <nd ref="44689870"/>
    <tag k="AND:importance_level" v="5"/>
    <tag k="AND_nosr_r" v="15086682"/>
    <tag k="highway" v="cycleway"/>
  </way>
  <way id="7530187" version="2" timestamp="2008-12-21T13:07:45Z" uid="8619" user="cetest" changeset="523682">
    <nd ref="44689870"/>
    <nd ref="44691956"/>
    <nd ref="44695139"/>
    <tag k="AND:importance_level" v="5"/>
    <tag k="AND_nosr_r" v="15086681"/>
    <tag k="highway" v="cycleway"/>
  </way>
  <way id="7530187" version="5" timestamp="2010-06-22T18:21:18Z" uid="8619" user="cetest" changeset="5053332">
    <nd ref="44688456"/>
    <nd ref="44689870"/>
    <tag k="AND:importance_level" v="5"/>
    <tag k="AND_nosr_r" v="15086678"/>
    <tag k="highway" v="cycleway"/>
  </way>
  <way id="7530190" version="2" timestamp="2008-12-21T13:07:52Z" uid="8619" user="cetest" changeset="523682"/>
  <way id="7530191" version="2" timestamp="2008-12-21T13:07:48Z" uid="8619" user="cetest" changeset="523682">
    <nd ref="44685346"/>
    <nd ref="44688456"/>
    <tag k="AND:importance_level" v="5"/>
    <tag k="AND_nosr_r" v="15086678"/>
    <tag k="bridge" v="yes"/>
    <tag k="highway" v="cycleway"/>
    <tag k="layer" v="1"/>
  </way>
  <way id="7530192" version="3" timestamp="2010-06-22T18:31:27Z" uid="8619" user="cetest" changeset="5053418"/>
  <way id="7530204" version="2" timestamp="2008-04-29T19:36:04Z" uid="8619" user="cetest" changeset="286165">
    <nd ref="44743795"/>
    <nd ref="44751131"/>
    <nd ref="44752977"/>
    <nd ref="44754821"/>
    <nd ref="44756542"/>
    <tag k="AND:importance_level" v="5"/>
    <tag k="AND_nosr_r" v="15086665"/>
    <tag k="highway" v="tertiary"/>
    <tag k="name" v="Zuideindseweg"/>
  </way>
  <way id="7530205" version="2" timestamp="2008-04-29T19:35:57Z" uid="8619" user="cetest" changeset="286165">
    <nd ref="44756542"/>
    <nd ref="44759963"/>
    <tag k="AND:importance_level" v="5"/>
    <tag k="AND_nosr_r" v="15086664"/>
    <tag k="highway" v="tertiary"/>
    <tag k="name" v="Zuideindseweg"/>
  </way>
  <way id="7530206" version="2" timestamp="2008-04-30T10:01:53Z" uid="8619" user="cetest" changeset="290668">
    <nd ref="44737778"/>
    <nd ref="44743795"/>
    <tag k="AND:importance_level" v="5"/>
    <tag k="AND_nosr_r" v="15086663"/>
    <tag k="highway" v="tertiary"/>
    <tag k="name" v="Zuideindseweg"/>
  </way>
  <way id="7530207" version="2" timestamp="2008-04-30T10:01:51Z" uid="8619" user="cetest" changeset="290668">
    <nd ref="44734237"/>
    <nd ref="44737778"/>
    <tag k="AND:importance_level" v="5"/>
    <tag k="AND_nosr_r" v="15086662"/>
    <tag k="bridge" v="yes"/>
    <tag k="highway" v="tertiary"/>
    <tag k="layer" v="1"/>
    <tag k="name" v="Zuideindseweg"/>
  </way>
  <way id="7530208" version="2" timestamp="2008-04-30T10:01:50Z" uid="8619" user="cetest" changeset="290668">
    <nd ref="44725577"/>
    <nd ref="44734237"/>
    <tag k="AND:importance_level" v="5"/>
    <tag k="AND_nosr_r" v="15086661"/>
    <tag k="highway" v="tertiary"/>
    <tag k="name" v="Zuideindseweg"/>
  </way>
  <way id="7530209" version="2" timestamp="2008-04-30T10:01:47Z" uid="8619" user="cetest" changeset="290668">
    <nd ref="44732945"/>
    <nd ref="44733414"/>
    <tag k="AND:importance_level" v="5"/>
    <tag k="AND_nosr_r" v="15086660"/>
    <tag k="highway" v="tertiary"/>
    <tag k="name" v="Oude Leedeweg"/>
  </way>
  <way id="7530211" version="2" timestamp="2008-04-30T10:01:46Z" uid="8619" user="cetest" changeset="290668">
    <nd ref="44732473"/>
    <nd ref="44732945"/>
    <tag k="AND:importance_level" v="5"/>
    <tag k="AND_nosr_r" v="15086659"/>
    <tag k="highway" v="tertiary"/>
    <tag k="name" v="Oude Leedeweg"/>
  </way>
  <way id="7530212" version="2" timestamp="2008-04-30T10:01:49Z" uid="8619" user="cetest" changeset="290668">
    <nd ref="44725577"/>
    <nd ref="44732473"/>
    <tag k="AND:importance_level" v="5"/>
    <tag k="AND_nosr_r" v="15086658"/>
    <tag k="highway" v="tertiary"/>
    <tag k="name" v="Oude Leedeweg"/>
  </way>
  <way id="7530389" version="5" timestamp="2010-06-20T13:44:01Z" uid="8619" user="cetest" changeset="5033095">
    <nd ref="44444726"/>
    <nd ref="680202332"/>
    <nd ref="680202339"/>
    <nd ref="680202313"/>
    <nd ref="778235915"/>
    <nd ref="44446268"/>
    <tag k="highway" v="cycleway"/>
  </way>
  <way id="7530625" version="3" timestamp="2008-09-20T16:01:36Z" uid="8619" user="cetest" changeset="668371">
    <nd ref="44463843"/>
    <nd ref="44463841"/>
    <nd ref="44458316"/>
    <nd ref="44457342"/>
    <tag k="AND:importance_level" v="1"/>
    <tag k="AND_nosr_r" v="15086313"/>
    <tag k="bridge" v="yes"/>
    <tag k="highway" v="motorway_link"/>
    <tag k="layer" v="1"/>
    <tag k="oneway" v="1"/>
  </way>
  <way id="7530696" version="2" timestamp="2010-06-29T19:12:15Z" uid="8619" user="cetest" changeset="5108311">
    <nd ref="44464550"/>
    <nd ref="44469012"/>
    <nd ref="44471627"/>
    <tag k="AND_nosr_r" v="15086246"/>
    <tag k="highway" v="pedestrian"/>
    <tag k="name" v="Schansweg"/>
  </way>
  <way id="7530730" version="2" timestamp="2010-06-29T19:12:16Z" uid="8619" user="cetest" changeset="5108311">
    <nd ref="44475367"/>
    <nd ref="44475897"/>
    <nd ref="796233783"/>
    <nd ref="44481371"/>
    <nd ref="796233781"/>
    <nd ref="796233790"/>
    <nd ref="796233777"/>
    <nd ref="44486318"/>
    <nd ref="796233771"/>
    <nd ref="44488420"/>
    <tag k="AND_nosr_r" v="15086218"/>
    <tag k="highway" v="unclassified"/>
    <tag k="name" v="Oude Kleiweg"/>
  </way>
  <way id="7530747" version="3" timestamp="2010-07-03T16:15:07Z" uid="8619" user="cetest" changeset="5125949">
    <nd ref="44504068"/>
    <nd ref="565101329"/>
    <nd ref="44505456"/>
    <nd ref="799239454"/>
    <nd ref="44506024"/>
    <nd ref="44506468"/>
    <nd ref="44507000"/>
    <tag k="AND_nosr_r" v="15086204"/>
    <tag k="highway" v="cycleway"/>
  </way>
  <way id="7530750" version="3" timestamp="2010-06-29T19:12:17Z" uid="8619" user="cetest" changeset="5108311">
    <nd ref="44474301"/>
    <nd ref="44475367"/>
    <tag k="AND_nosr_r" v="15086201"/>
    <tag k="highway" v="cycleway"/>
    <tag k="name" v="Oudedijkse Schiekade"/>
  </way>
  <way id="7530751" version="3" timestamp="2010-06-29T19:12:17Z" uid="8619" user="cetest" changeset="5108311"/>
  <way id="7530820" version="3" timestamp="2010-07-03T16:14:59Z" uid="8619" user="cetest" changeset="5125949">
    <nd ref="44502645"/>
    <nd ref="799239448"/>
    <nd ref="44504979"/>
    <nd ref="44506467"/>
    <nd ref="44507000"/>
    <tag k="AND_nosr_r" v="15086137"/>
    <tag k="highway" v="footway"/>
  </way>
  <way id="7530828" version="2" timestamp="2010-06-29T19:12:15Z" uid="8619" user="cetest" changeset="5108311">
    <nd ref="44465845"/>
    <nd ref="44464550"/>
    <tag k="AND_nosr_r" v="15086129"/>
    <tag k="highway" v="pedestrian"/>
  </way>
  <way id="7530862" version="3" timestamp="2008-09-20T16:01:38Z" uid="8619" user="cetest" changeset="668371">
    <nd ref="44476443"/>
    <nd ref="44474302"/>
    <nd ref="298456175"/>
    <nd ref="44471876"/>
    <nd ref="44469015"/>
    <nd ref="44467729"/>
    <tag k="AND:importance_level" v="0"/>
    <tag k="AND_nosr_r" v="15086101"/>
    <tag k="highway" v="motorway"/>
    <tag k="int_ref" v="E19;E25"/>
    <tag k="maxspeed" v="80"/>
    <tag k="oneway" v="1"/>
    <tag k="ref" v="A20"/>
  </way>
  <way id="7530906" version="2" timestamp="2010-06-20T13:44:08Z" uid="8619" user="cetest" changeset="5033095"/>
  <way id="7530907" version="3" timestamp="2010-06-20T13:44:05Z" uid="8619" user="cetest" changeset="5033095">
    <nd ref="44449403"/>
    <nd ref="44449962"/>
    <nd ref="778235882"/>
    <nd ref="778235911"/>
    <nd ref="44449961"/>
    <tag k="highway" v="cycleway"/>
  </way>
  <way id="7530907" version="4" timestamp="2010-06-20T13:55:20Z" uid="8619" user="cetest" changeset="5033186">
    <nd ref="44449403"/>
    <nd ref="44449962"/>
    <nd ref="778235882"/>
    <nd ref="778235911"/>
    <nd ref="778239603"/>
    <nd ref="44449961"/>
    <tag k="highway" v="cycleway"/>
  </way>
  <way id="7530909" version="2" timestamp="2010-06-20T13:55:21Z" uid="8619" user="cetest" changeset="5033186">
    <nd ref="44449960"/>
    <nd ref="44449961"/>
    <tag k="AND_nosr_r" v="15086057"/>
    <tag k="highway" v="cycleway"/>
  </way>
  <way id="7530910" version="2" timestamp="2010-06-20T13:44:07Z" uid="8619" user="cetest" changeset="5033095">
    <nd ref="44448284"/>
    <nd ref="778235890"/>
    <nd ref="44449402"/>
    <nd ref="44449961"/>
    <tag k="AND_nosr_r" v="15086056"/>
    <tag k="highway" v="unclassified"/>
  </way>
  <way id="7530933" version="2" timestamp="2010-06-20T13:55:22Z" uid="8619" user="cetest" changeset="5033186"/>
  <way id="7530934" version="2" timestamp="2010-06-20T13:55:20Z" uid="8619" user="cetest" changeset="5033186">
    <nd ref="44449960"/>
    <nd ref="44451049"/>
    <tag k="AND_nosr_r" v="15086036"/>
    <tag k="highway" v="cycleway"/>
  </way>
</osm>
