<?xml version='1.0' encoding='UTF-8'?>
<osm version="0.6" generator="libosmium/2.20.0">
  <way id="7538043" version="2" timestamp="2008-03-22T16:23:38Z" uid="8619" user="cetest" changeset="370656">
    <nd ref="44837775"/>
    <nd ref="44839611"/>
    <tag k="AND_nosr_r" v="15079953"/>
    <tag k="highway" v="footway"/>
  </way>
  <way id="7538050" version="2" timestamp="2008-03-22T16:23:40Z" uid="8619" user="cetest" changeset="370656">
    <nd ref="44839611"/>
    <nd ref="44840464"/>
    <tag k="AND_nosr_r" v="15079947"/>
    <tag k="highway" v="footway"/>
  </way>
  <way id="7538054" version="2" timestamp="2008-03-22T16:23:40Z" uid="8619" user="cetest" changeset="370656">
    <nd ref="44839199"/>
    <nd ref="44840023"/>
    <tag k="AND_nosr_r" v="15079943"/>
    <tag k="highway" v="footway"/>
  </way>
  <way id="7538057" version="2" timestamp="2008-03-22T16:23:37Z" uid="8619" user="cetest" changeset="370656">
    <nd ref="44839198"/>
    <nd ref="44839611"/>
    <tag k="AND_nosr_r" v="15079941"/>
    <tag k="highway" v="footway"/>
  </way>
  <way id="7538058" version="2" timestamp="2008-03-22T16:23:41Z" uid="8619" user="cetest" changeset="370656">
    <nd ref="44839198"/>
    <nd ref="44840021"/>
    <tag k="AND_nosr_r" v="15079940"/>
    <tag k="highway" v="footway"/>
  </way>
  <way id="7538059" version="2" timestamp="2008-03-22T16:23:42Z" uid="8619" user="cetest" changeset="370656">
    <nd ref="44840464"/>
    <nd ref="44840848"/>
    <tag k="AND_nosr_r" v="15079939"/>
    <tag k="highway" v="footway"/>
  </way>
  <way id="7538066" version="2" timestamp="2008-03-22T16:20:11Z" uid="8619" user="cetest" changeset="370656">
    <nd ref="44844887"/>
    <nd ref="23718288"/>
    <tag k="AND_nosr_r" v="15079934"/>
    <tag k="highway" v="unclassified"/>
    <tag k="name" v="Kanaalweg"/>
  </way>
  <way id="7538070" version="2" timestamp="2008-03-22T16:23:42Z" uid="8619" user="cetest" changeset="370656">
    <nd ref="44840021"/>
    <nd ref="44840023"/>
    <tag k="AND_nosr_r" v="15079932"/>
    <tag k="highway" v="footway"/>
  </way>
  <way id="7538077" version="2" timestamp="2008-03-22T16:23:39Z" uid="8619" user="cetest" changeset="370656">
    <nd ref="44840021"/>
    <nd ref="44840464"/>
    <tag k="AND_nosr_r" v="15079928"/>
    <tag k="highway" v="footway"/>
  </way>
  <way id="7538084" version="2" timestamp="2008-03-22T16:23:40Z" uid="8619" user="cetest" changeset="370656">
    <nd ref="44838429"/>
    <nd ref="44839610"/>
    <nd ref="44839611"/>
    <tag k="AND_nosr_r" v="15079923"/>
    <tag k="highway" v="footway"/>
  </way>
  <way id="7538097" version="2" timestamp="2008-03-22T16:21:58Z" uid="8619" user="cetest" changeset="370656">
    <nd ref="21709916"/>
    <nd ref="44844720"/>
    <nd ref="21715040"/>
    <tag k="AND_nosr_r" v="15079915"/>
    <tag k="highway" v="cycleway"/>
    <tag k="name" v="Zuidergracht"/>
  </way>
  <way id="7538103" version="2" timestamp="2008-03-22T16:23:41Z" uid="8619" user="cetest" changeset="370656">
    <nd ref="44833587"/>
    <nd ref="44833589"/>
    <tag k="AND_nosr_r" v="15079911"/>
    <tag k="highway" v="footway"/>
  </way>
  <way id="7538105" version="2" timestamp="2008-03-22T16:21:57Z" uid="8619" user="cetest" changeset="370656">
    <nd ref="21709916"/>
    <nd ref="44842016"/>
    <tag k="AND_nosr_r" v="15079910"/>
    <tag k="highway" v="unclassified"/>
  </way>
  <way id="7538106" version="2" timestamp="2007-10-14T11:45:30Z" uid="8619" user="cetest" changeset="160986">
    <nd ref="44833183"/>
    <nd ref="44834068"/>
    <tag k="AND_nosr_r" v="15079909"/>
    <tag k="highway" v="pedestrian"/>
    <tag k="layer" v="-1"/>
    <tag k="name" v="Gashouderpad"/>
  </way>
  <way id="7538106" version="4" timestamp="2008-11-23T10:54:21Z" uid="8619" user="cetest" changeset="784304">
    <nd ref="44833183"/>
    <nd ref="313884375"/>
    <nd ref="44834068"/>
    <tag k="AND_nosr_r" v="15079909"/>
    <tag k="created_by" v="Merkaartor 0.12"/>
    <tag k="highway" v="cycleway"/>
    <tag k="layer" v="-1"/>
    <tag k="name" v="Gashouderpad"/>
  </way>
  <way id="7538115" version="2" timestamp="2008-03-22T16:23:39Z" uid="8619" user="cetest" changeset="370656">
    <nd ref="44831437"/>
    <nd ref="44832339"/>
    <nd ref="44833587"/>
    <tag k="AND_nosr_r" v="15079903"/>
    <tag k="highway" v="footway"/>
  </way>
  <way id="7538117" version="2" timestamp="2008-03-22T16:20:12Z" uid="8619" user="cetest" changeset="370656"/>
  <way id="7538119" version="2" timestamp="2008-03-22T16:20:10Z" uid="8619" user="cetest" changeset="370656">
    <nd ref="27082117"/>
    <nd ref="44848481"/>
    <tag k="AND:importance_level" v="5"/>
    <tag k="AND_nosr_r" v="15079901"/>
    <tag k="highway" v="unclassified"/>
    <tag k="name" v="Staalweg"/>
  </way>
  <way id="7538123" version="3" timestamp="2008-03-22T16:22:32Z" uid="8619" user="cetest" changeset="370656">
    <nd ref="44832338"/>
    <nd ref="44834672"/>
    <tag k="AND:importance_level" v="5"/>
    <tag k="AND_nosr_r" v="15079899"/>
    <tag k="highway" v="unclassified"/>
    <tag k="name" v="Kanaalweg"/>
  </way>
  <way id="7538125" version="2" timestamp="2008-11-23T11:41:36Z" uid="8619" user="cetest" changeset="784304">
    <nd ref="44847020"/>
    <nd ref="313895188"/>
    <nd ref="44847937"/>
    <tag k="AND_nosr_r" v="15079898"/>
    <tag k="highway" v="unclassified"/>
    <tag k="name" v="Gasthuislaan"/>
    <tag k="oneway" v="1"/>
  </way>
  <way id="7538126" version="2" timestamp="2008-03-22T16:20:12Z" uid="8619" user="cetest" changeset="370656">
    <nd ref="27082117"/>
    <nd ref="44848894"/>
    <nd ref="44848897"/>
    <tag k="AND_nosr_r" v="15079897"/>
    <tag k="highway" v="pedestrian"/>
  </way>
  <way id="7538132" version="2" timestamp="2007-10-14T11:45:14Z" uid="8619" user="cetest" changeset="160986">
    <nd ref="44831002"/>
    <nd ref="44832338"/>
    <tag k="AND:importance_level" v="5"/>
    <tag k="AND_nosr_r" v="15079893"/>
    <tag k="highway" v="pedestrian"/>
    <tag k="layer" v="-1"/>
    <tag k="name" v="Kanaalweg"/>
  </way>
  <way id="7538134" version="2" timestamp="2008-03-22T16:23:39Z" uid="8619" user="cetest" changeset="370656">
    <nd ref="44831437"/>
    <nd ref="44831892"/>
    <nd ref="44832341"/>
    <nd ref="44832726"/>
    <nd ref="44833187"/>
    <nd ref="44833589"/>
    <tag k="AND_nosr_r" v="15079892"/>
    <tag k="highway" v="footway"/>
  </way>
  <way id="7538135" version="2" timestamp="2008-03-22T16:21:57Z" uid="8619" user="cetest" changeset="370656">
    <nd ref="44840018"/>
    <nd ref="21709916"/>
    <tag k="AND_nosr_r" v="15079891"/>
    <tag k="highway" v="unclassified"/>
  </way>
  <way id="7538141" version="2" timestamp="2008-03-22T16:20:12Z" uid="8619" user="cetest" changeset="370656"/>
  <way id="7538147" version="2" timestamp="2009-02-05T19:09:40Z" uid="8619" user="cetest" changeset="162620">
    <nd ref="44834072"/>
    <nd ref="44834673"/>
    <tag k="AND_nosr_r" v="15079884"/>
    <tag k="highway" v="footway"/>
  </way>
  <way id="7538149" version="2" timestamp="2008-03-16T20:52:19Z" uid="8619" user="cetest" changeset="334768">
    <nd ref="44836974"/>
    <nd ref="252500016"/>
    <nd ref="44838418"/>
    <tag k="AND:importance_level" v="5"/>
    <tag k="AND_nosr_r" v="15079882"/>
    <tag k="highway" v="unclassified"/>
    <tag k="name" v="Ezelsveldlaan"/>
  </way>
  <way id="7538149" version="3" timestamp="2008-03-22T16:13:00Z" uid="8619" user="cetest" changeset="370656">
    <nd ref="44836974"/>
    <nd ref="252500016"/>
    <tag k="AND:importance_level" v="5"/>
    <tag k="AND_nosr_r" v="15079882"/>
    <tag k="highway" v="unclassified"/>
    <tag k="name" v="Ezelsveldlaan"/>
  </way>
  <way id="7538151" version="2" timestamp="2008-03-22T16:23:40Z" uid="8619" user="cetest" changeset="370656">
    <nd ref="44836982"/>
    <nd ref="44837777"/>
    <tag k="AND_nosr_r" v="15079881"/>
    <tag k="highway" v="footway"/>
  </way>
  <way id="7538152" version="2" timestamp="2008-03-22T16:23:38Z" uid="8619" user="cetest" changeset="370656">
    <nd ref="44833589"/>
    <nd ref="44834078"/>
    <nd ref="44834676"/>
    <nd ref="44835276"/>
    <tag k="AND_nosr_r" v="15079880"/>
    <tag k="highway" v="footway"/>
  </way>
  <way id="7538154" version="2" timestamp="2009-02-05T19:09:43Z" uid="8619" user="cetest" changeset="162620">
    <nd ref="44839826"/>
    <nd ref="44839828"/>
    <tag k="AND_nosr_r" v="15079878"/>
    <tag k="highway" v="footway"/>
  </way>
  <way id="7538159" version="16" timestamp="2009-10-07T16:26:40Z" uid="86259" user="hasse_osm_korinthenkacker" changeset="2773374">
    <nd ref="247409852"/>
    <nd ref="30441672"/>
    <nd ref="30441671"/>
    <nd ref="30441670"/>
    <nd ref="247409977"/>
    <nd ref="392860415"/>
    <nd ref="30441669"/>
    <nd ref="30441668"/>
    <nd ref="30441667"/>
    <nd ref="30441666"/>
    <nd ref="301657191"/>
    <nd ref="30441665"/>
    <nd ref="408105146"/>
    <nd ref="408105147"/>
    <nd ref="408105149"/>
    <nd ref="408105134"/>
    <tag k="highway" v="tertiary"/>
    <tag k="maxspeed" v="50"/>
    <tag k="name" v="Hepstedter Straße"/>
    <tag k="ref" v="K 114"/>
  </way>
  <way id="7538159" version="19" timestamp="2010-07-11T07:01:41Z" uid="33382" user="de_muur" changeset="5187250">
    <nd ref="247409852"/>
    <nd ref="30441672"/>
    <nd ref="30441671"/>
    <tag k="highway" v="tertiary"/>
    <tag k="maxspeed" v="50"/>
    <tag k="name" v="Hepstedter Straße"/>
    <tag k="ref" v="K 114"/>
    <tag k="surface" v="paved"/>
  </way>
  <way id="7538160" version="2" timestamp="2008-03-22T16:23:41Z" uid="8619" user="cetest" changeset="370656">
    <nd ref="44835276"/>
    <nd ref="44835278"/>
    <tag k="AND_nosr_r" v="15079874"/>
    <tag k="highway" v="footway"/>
  </way>
  <way id="7538162" version="2" timestamp="2008-03-22T16:23:40Z" uid="8619" user="cetest" changeset="370656">
    <nd ref="44837777"/>
    <nd ref="44838807"/>
    <tag k="AND_nosr_r" v="15079873"/>
    <tag k="highway" v="footway"/>
  </way>
  <way id="7538165" version="2" timestamp="2008-03-22T16:23:38Z" uid="8619" user="cetest" changeset="370656">
    <nd ref="44835274"/>
    <nd ref="44835276"/>
    <tag k="AND_nosr_r" v="15079871"/>
    <tag k="highway" v="footway"/>
  </way>
  <way id="7538166" version="10" timestamp="2009-06-29T13:46:40Z" uid="33382" user="de_muur" changeset="1677413">
    <nd ref="30441631"/>
    <nd ref="30441632"/>
    <nd ref="30441633"/>
    <nd ref="30441634"/>
    <nd ref="253747984"/>
    <nd ref="300526749"/>
    <tag k="created_by" v="Potlatch 0.10c"/>
    <tag k="highway" v="tertiary"/>
    <tag k="maxspeed" v="50"/>
    <tag k="name" v="Hauptstraße"/>
    <tag k="ref" v="K 113"/>
  </way>
  <way id="7538166" version="13" timestamp="2010-09-10T16:28:19Z" uid="33382" user="de_muur" changeset="5742603"/>
  <way id="7538169" version="2" timestamp="2008-03-22T16:23:37Z" uid="8619" user="cetest" changeset="370656">
    <nd ref="44839826"/>
    <nd ref="44839613"/>
    <nd ref="44840023"/>
    <tag k="AND_nosr_r" v="15079870"/>
    <tag k="highway" v="footway"/>
  </way>
  <way id="7538172" version="2" timestamp="2008-03-22T16:20:11Z" uid="8619" user="cetest" changeset="370656">
    <nd ref="44847503"/>
    <nd ref="27082117"/>
    <tag k="AND:importance_level" v="5"/>
    <tag k="AND_nosr_r" v="15079868"/>
    <tag k="highway" v="unclassified"/>
    <tag k="name" v="Staalweg"/>
  </way>
  <way id="7538176" version="2" timestamp="2008-03-22T16:23:41Z" uid="8619" user="cetest" changeset="370656">
    <nd ref="44836984"/>
    <nd ref="44837778"/>
    <nd ref="44837777"/>
    <tag k="AND_nosr_r" v="15079864"/>
    <tag k="highway" v="footway"/>
  </way>
  <way id="7538179" version="2" timestamp="2008-03-22T16:23:42Z" uid="8619" user="cetest" changeset="370656">
    <nd ref="44833587"/>
    <nd ref="44834075"/>
    <nd ref="44835274"/>
    <tag k="AND_nosr_r" v="15079861"/>
    <tag k="highway" v="footway"/>
  </way>
  <way id="7538187" version="2" timestamp="2008-03-22T16:23:39Z" uid="8619" user="cetest" changeset="370656">
    <nd ref="44834072"/>
    <nd ref="44834675"/>
    <nd ref="44835274"/>
    <tag k="AND_nosr_r" v="15079854"/>
    <tag k="highway" v="footway"/>
  </way>
  <way id="7538191" version="2" timestamp="2008-03-22T16:23:40Z" uid="8619" user="cetest" changeset="370656">
    <nd ref="44836391"/>
    <nd ref="44836982"/>
    <tag k="AND_nosr_r" v="15079851"/>
    <tag k="highway" v="footway"/>
  </way>
  <way id="7538192" version="2" timestamp="2008-03-22T16:23:38Z" uid="8619" user="cetest" changeset="370656">
    <nd ref="44838807"/>
    <nd ref="44838809"/>
    <tag k="AND_nosr_r" v="15079850"/>
    <tag k="highway" v="footway"/>
  </way>
  <way id="7538194" version="2" timestamp="2008-03-22T16:23:37Z" uid="8619" user="cetest" changeset="370656">
    <nd ref="44834072"/>
    <nd ref="44833186"/>
    <nd ref="44834070"/>
    <nd ref="44835820"/>
    <tag k="AND_nosr_r" v="15079848"/>
    <tag k="highway" v="footway"/>
  </way>
  <way id="7538196" version="2" timestamp="2008-03-22T16:23:42Z" uid="8619" user="cetest" changeset="370656">
    <nd ref="44838807"/>
    <nd ref="44839199"/>
    <tag k="AND_nosr_r" v="15079846"/>
    <tag k="highway" v="footway"/>
  </way>
  <way id="7538200" version="2" timestamp="2007-10-14T11:45:24Z" uid="8619" user="cetest" changeset="160986">
    <nd ref="44865760"/>
    <nd ref="44866158"/>
    <nd ref="44866400"/>
    <tag k="AND:importance_level" v="5"/>
    <tag k="AND_nosr_r" v="15079843"/>
    <tag k="highway" v="unclassified"/>
    <tag k="layer" v="-1"/>
  </way>
  <way id="7538203" version="2" timestamp="2007-10-15T20:08:17Z" uid="8619" user="cetest" changeset="187320"/>
  <way id="7538208" version="2" timestamp="2008-03-22T16:23:37Z" uid="8619" user="cetest" changeset="370656">
    <nd ref="44839198"/>
    <nd ref="44839199"/>
    <tag k="AND_nosr_r" v="15079837"/>
    <tag k="highway" v="footway"/>
  </way>
  <way id="7538209" version="2" timestamp="2007-10-15T20:08:17Z" uid="8619" user="cetest" changeset="187320">
    <nd ref="44834681"/>
    <nd ref="44834079"/>
    <nd ref="44834082"/>
    <nd ref="44834683"/>
    <nd ref="44835280"/>
    <nd ref="44835825"/>
    <nd ref="44835824"/>
    <nd ref="44835279"/>
    <nd ref="44834681"/>
    <tag k="AND_nosr_r" v="15079831"/>
    <tag k="highway" v="unclassified"/>
    <tag k="junction" v="roundabout"/>
    <tag k="oneway" v="1"/>
  </way>
  <way id="7538214" version="2" timestamp="2007-10-15T20:08:18Z" uid="8619" user="cetest" changeset="187320"/>
  <way id="7538218" version="2" timestamp="2008-03-22T16:23:37Z" uid="8619" user="cetest" changeset="370656">
    <nd ref="44835276"/>
    <nd ref="44836982"/>
    <tag k="AND_nosr_r" v="15079827"/>
    <tag k="highway" v="footway"/>
  </way>
  <way id="7538219" version="2" timestamp="2008-03-22T16:23:40Z" uid="8619" user="cetest" changeset="370656">
    <nd ref="44837776"/>
    <nd ref="44839198"/>
    <tag k="AND_nosr_r" v="15079826"/>
    <tag k="highway" v="footway"/>
  </way>
  <way id="7538222" version="2" timestamp="2008-03-22T16:23:37Z" uid="8619" user="cetest" changeset="370656">
    <nd ref="44834673"/>
    <nd ref="44835820"/>
    <tag k="AND_nosr_r" v="15079824"/>
    <tag k="highway" v="footway"/>
  </way>
  <way id="7538229" version="2" timestamp="2008-03-22T16:23:41Z" uid="8619" user="cetest" changeset="370656">
    <nd ref="44835820"/>
    <nd ref="44836979"/>
    <tag k="AND_nosr_r" v="15079818"/>
    <tag k="highway" v="footway"/>
  </way>
  <way id="7538231" version="2" timestamp="2008-07-09T16:54:23Z" uid="8619" user="cetest" changeset="441739">
    <nd ref="44872141"/>
    <nd ref="44876225"/>
    <nd ref="44877774"/>
    <tag k="AND:importance_level" v="5"/>
    <tag k="AND_nosr_r" v="15079816"/>
    <tag k="highway" v="cycleway"/>
    <tag k="name" v="Wilgenlaan"/>
  </way>
  <way id="7538235" version="2" timestamp="2008-07-09T18:14:30Z" uid="8619" user="cetest" changeset="444502">
    <nd ref="44865758"/>
    <nd ref="277422869"/>
    <tag k="AND_nosr_r" v="15079813"/>
    <tag k="highway" v="unclassified"/>
    <tag k="name" v="Leonard Bramerstraat"/>
    <tag k="oneway" v="1"/>
  </way>
  <way id="7538237" version="2" timestamp="2008-02-01T18:45:57Z" uid="8619" user="cetest" changeset="7091">
    <nd ref="44866165"/>
    <nd ref="44866511"/>
    <nd ref="44867181"/>
    <nd ref="44868314"/>
    <tag k="AND_nosr_r" v="15079812"/>
    <tag k="highway" v="footway"/>
  </way>
  <way id="7538242" version="2" timestamp="2008-03-22T16:23:41Z" uid="8619" user="cetest" changeset="370656">
    <nd ref="44835274"/>
    <nd ref="44836391"/>
    <tag k="AND_nosr_r" v="15079807"/>
    <tag k="highway" v="footway"/>
  </way>
  <way id="7538249" version="2" timestamp="2008-03-22T16:23:38Z" uid="8619" user="cetest" changeset="370656">
    <nd ref="44835820"/>
    <nd ref="44836390"/>
    <nd ref="44836391"/>
    <tag k="AND_nosr_r" v="15079801"/>
    <tag k="highway" v="footway"/>
  </way>
  <way id="7538250" version="2" timestamp="2007-10-14T11:45:38Z" uid="8619" user="cetest" changeset="160986">
    <nd ref="44866400"/>
    <nd ref="44866808"/>
    <nd ref="44867176"/>
    <tag k="AND:importance_level" v="5"/>
    <tag k="AND_nosr_r" v="15079800"/>
    <tag k="highway" v="unclassified"/>
    <tag k="layer" v="-1"/>
  </way>
  <way id="7538251" version="2" timestamp="2008-03-16T20:52:24Z" uid="8619" user="cetest" changeset="334768">
    <nd ref="44862991"/>
    <nd ref="252500043"/>
    <nd ref="44865433"/>
    <tag k="AND:importance_level" v="5"/>
    <tag k="AND_nosr_r" v="15079799"/>
    <tag k="highway" v="unclassified"/>
    <tag k="name" v="van Lodensteynstraat"/>
  </way>
  <way id="7538258" version="2" timestamp="2008-02-01T18:43:57Z" uid="8619" user="cetest" changeset="7091">
    <nd ref="44867895"/>
    <nd ref="44868314"/>
    <tag k="AND_nosr_r" v="15079793"/>
    <tag k="highway" v="footway"/>
  </way>
  <way id="7538260" version="2" timestamp="2008-03-17T20:46:32Z" uid="8619" user="cetest" changeset="340995">
    <nd ref="44860346"/>
    <nd ref="44862990"/>
    <tag k="AND:importance_level" v="5"/>
    <tag k="AND_nosr_r" v="15079791"/>
    <tag k="access" v="no"/>
    <tag k="highway" v="unclassified"/>
    <tag k="name" v="Maria Duystlaan"/>
  </way>
  <way id="7538261" version="2" timestamp="2008-03-17T20:45:57Z" uid="8619" user="cetest" changeset="340995">
    <nd ref="44862990"/>
    <nd ref="44864083"/>
    <tag k="AND:importance_level" v="5"/>
    <tag k="AND_nosr_r" v="15079790"/>
    <tag k="highway" v="unclassified"/>
    <tag k="name" v="Maria Duystlaan"/>
  </way>
  <way id="7538274" version="2" timestamp="2008-03-17T20:38:16Z" uid="8619" user="cetest" changeset="340995"/>
  <way id="7538356" version="2" timestamp="2008-03-16T20:52:25Z" uid="8619" user="cetest" changeset="334768">
    <nd ref="44857691"/>
    <nd ref="44858849"/>
    <nd ref="44861097"/>
    <nd ref="252500044"/>
    <nd ref="44864088"/>
    <nd ref="44866507"/>
    <tag k="AND:importance_level" v="5"/>
    <tag k="AND_nosr_r" v="15079707"/>
    <tag k="highway" v="tertiary"/>
    <tag k="name" v="Olof Palmestraat"/>
  </way>
  <way id="7538358" version="2" timestamp="2007-10-14T11:45:27Z" uid="8619" user="cetest" changeset="160986">
    <nd ref="44865976"/>
    <nd ref="44866506"/>
    <tag k="AND:importance_level" v="5"/>
    <tag k="AND_nosr_r" v="15079706"/>
    <tag k="highway" v="tertiary"/>
    <tag k="layer" v="-1"/>
    <tag k="name" v="Bieslandsekade"/>
  </way>
  <way id="7538359" version="2" timestamp="2007-10-14T11:45:32Z" uid="8619" user="cetest" changeset="160986">
    <nd ref="44865000"/>
    <nd ref="44865976"/>
    <tag k="AND:importance_level" v="5"/>
    <tag k="AND_nosr_r" v="15079705"/>
    <tag k="highway" v="tertiary"/>
    <tag k="layer" v="-1"/>
    <tag k="name" v="Bieslandsekade"/>
  </way>
  <way id="7538360" version="3" timestamp="2008-11-20T11:21:42Z" uid="8619" user="cetest" changeset="770823">
    <nd ref="44849730"/>
    <nd ref="313288737"/>
    <nd ref="44848459"/>
    <tag k="AND:importance_level" v="4"/>
    <tag k="AND_nosr_r" v="15079704"/>
    <tag k="created_by" v="Merkaartor 0.12"/>
    <tag k="highway" v="residential"/>
    <tag k="name" v="Oosteinde"/>
    <tag k="oneway" v="1"/>
  </way>
  <way id="7538361" version="3" timestamp="2008-11-20T11:21:42Z" uid="8619" user="cetest" changeset="770823">
    <nd ref="44847940"/>
    <nd ref="44848462"/>
    <nd ref="44848883"/>
    <nd ref="313288731"/>
    <nd ref="44850258"/>
    <tag k="AND:importance_level" v="4"/>
    <tag k="AND_nosr_r" v="15079703"/>
    <tag k="created_by" v="Merkaartor 0.12"/>
    <tag k="highway" v="residential"/>
    <tag k="name" v="Oosteinde"/>
    <tag k="oneway" v="1"/>
  </way>
  <way id="7538367" version="3" timestamp="2008-11-20T11:21:41Z" uid="8619" user="cetest" changeset="770823">
    <nd ref="44851596"/>
    <nd ref="313288748"/>
    <tag k="AND:importance_level" v="4"/>
    <tag k="AND_nosr_r" v="15079699"/>
    <tag k="created_by" v="Merkaartor 0.12"/>
    <tag k="highway" v="residential"/>
    <tag k="name" v="Oosteinde"/>
    <tag k="oneway" v="1"/>
  </way>
  <way id="7538370" version="3" timestamp="2008-11-20T11:21:43Z" uid="8619" user="cetest" changeset="770823">
    <nd ref="44848459"/>
    <nd ref="44847937"/>
    <tag k="AND:importance_level" v="4"/>
    <tag k="AND_nosr_r" v="15079696"/>
    <tag k="bridge" v="yes"/>
    <tag k="created_by" v="Merkaartor 0.12"/>
    <tag k="highway" v="residential"/>
    <tag k="layer" v="1"/>
    <tag k="name" v="Oosteinde"/>
    <tag k="oneway" v="1"/>
  </way>
  <way id="7538378" version="2" timestamp="2008-03-22T16:20:11Z" uid="8619" user="cetest" changeset="370656">
    <nd ref="23718288"/>
    <nd ref="253357616"/>
    <nd ref="44849295"/>
    <tag k="AND:importance_level" v="2"/>
    <tag k="AND_nosr_r" v="15079689"/>
    <tag k="highway" v="secondary"/>
    <tag k="name" v="Oostsingel"/>
  </way>
  <way id="7538379" version="2" timestamp="2008-03-16T20:52:25Z" uid="8619" user="cetest" changeset="334768">
    <nd ref="44866805"/>
    <nd ref="252500042"/>
    <nd ref="44870357"/>
    <nd ref="44871344"/>
    <tag k="AND:importance_level" v="2"/>
    <tag k="AND_nosr_r" v="15079688"/>
    <tag k="highway" v="secondary"/>
    <tag k="name" v="van Miereveltlaan"/>
  </way>
  <way id="7538383" version="2" timestamp="2008-03-17T20:45:57Z" uid="8619" user="cetest" changeset="340995"/>
  <way id="7538386" version="2" timestamp="2008-03-17T20:45:56Z" uid="8619" user="cetest" changeset="340995">
    <nd ref="44861857"/>
    <nd ref="44862990"/>
    <tag k="AND:importance_level" v="2"/>
    <tag k="AND_nosr_r" v="15079683"/>
    <tag k="highway" v="secondary"/>
    <tag k="name" v="Stalpaert van der Wieleweg"/>
  </way>
  <way id="7538387" version="2" timestamp="2008-03-22T16:20:11Z" uid="8619" user="cetest" changeset="370656">
    <nd ref="44844889"/>
    <nd ref="23718288"/>
    <tag k="AND:importance_level" v="2"/>
    <tag k="AND_nosr_r" v="15079682"/>
    <tag k="highway" v="secondary"/>
    <tag k="name" v="Oostplein"/>
  </way>
  <way id="7538390" version="7" timestamp="2010-07-06T14:12:15Z" uid="8619" user="cetest" changeset="5150864">
    <nd ref="44851146"/>
    <nd ref="44852796"/>
    <nd ref="44855153"/>
    <nd ref="44857298"/>
    <tag k="AND:importance_level" v="2"/>
    <tag k="AND_nosr_r" v="15079676"/>
    <tag k="cycleway" v="lane"/>
    <tag k="highway" v="secondary"/>
    <tag k="maxspeed" v="50"/>
    <tag k="name" v="Stalpaert van der Wieleweg"/>
  </way>
  <way id="7538394" version="2" timestamp="2008-04-29T19:27:30Z" uid="8619" user="cetest" changeset="286165">
    <nd ref="44841824"/>
    <nd ref="44844889"/>
    <tag k="AND:importance_level" v="1"/>
    <tag k="AND_nosr_r" v="15079675"/>
    <tag k="highway" v="secondary"/>
    <tag k="name" v="Julianalaan"/>
  </way>
  <way id="7538396" version="2" timestamp="2008-04-27T19:35:22Z" uid="8619" user="cetest" changeset="269138">
    <nd ref="44843627"/>
    <nd ref="44844087"/>
    <tag k="AND:importance_level" v="5"/>
    <tag k="AND_nosr_r" v="15079674"/>
    <tag k="highway" v="secondary"/>
    <tag k="name" v="Delfgauwseweg"/>
  </way>
  <way id="7538398" version="2" timestamp="2008-04-29T19:27:31Z" uid="8619" user="cetest" changeset="286165">
    <nd ref="44831005"/>
    <nd ref="44831438"/>
    <tag k="AND:importance_level" v="1"/>
    <tag k="AND_nosr_r" v="15079673"/>
    <tag k="highway" v="secondary"/>
    <tag k="name" v="Julianalaan"/>
  </way>
  <way id="7538399" version="2" timestamp="2008-04-29T19:27:32Z" uid="8619" user="cetest" changeset="286165">
    <nd ref="44841079"/>
    <nd ref="44841824"/>
    <tag k="AND:importance_level" v="1"/>
    <tag k="AND_nosr_r" v="15079672"/>
    <tag k="highway" v="secondary"/>
    <tag k="name" v="Julianalaan"/>
    <tag k="oneway" v="1"/>
  </way>
  <way id="7538400" version="2" timestamp="2008-04-29T19:28:12Z" uid="8619" user="cetest" changeset="286165">
    <nd ref="44831438"/>
    <nd ref="44831894"/>
    <tag k="AND:importance_level" v="2"/>
    <tag k="AND_nosr_r" v="15079671"/>
    <tag k="highway" v="secondary"/>
    <tag k="name" v="Poortlandplein"/>
  </way>
  <way id="7538400" version="3" timestamp="2009-02-05T19:09:42Z" uid="8619" user="cetest" changeset="162620">
    <nd ref="44831438"/>
    <nd ref="341283805"/>
    <nd ref="44831894"/>
    <tag k="AND:importance_level" v="2"/>
    <tag k="AND_nosr_r" v="15079671"/>
    <tag k="highway" v="secondary"/>
    <tag k="name" v="Poortlandplein"/>
  </way>
  <way id="7538401" version="2" timestamp="2008-04-29T19:28:35Z" uid="8619" user="cetest" changeset="286165">
    <nd ref="44841824"/>
    <nd ref="44841054"/>
    <nd ref="44840684"/>
    <nd ref="44839826"/>
    <tag k="AND:importance_level" v="1"/>
    <tag k="AND_nosr_r" v="15079670"/>
    <tag k="highway" v="secondary"/>
    <tag k="name" v="Julianalaan"/>
    <tag k="oneway" v="1"/>
  </way>
  <way id="7538402" version="2" timestamp="2008-04-27T19:35:29Z" uid="8619" user="cetest" changeset="269138">
    <nd ref="44839614"/>
    <nd ref="44840852"/>
    <tag k="AND:importance_level" v="5"/>
    <tag k="AND_nosr_r" v="15079669"/>
    <tag k="highway" v="secondary"/>
    <tag k="name" v="Delfgauwseweg"/>
  </way>
  <way id="7538403" version="2" timestamp="2008-04-29T19:27:33Z" uid="8619" user="cetest" changeset="286165">
    <nd ref="44834065"/>
    <nd ref="44836975"/>
    <nd ref="44836974"/>
    <tag k="AND:importance_level" v="1"/>
    <tag k="AND_nosr_r" v="15079668"/>
    <tag k="highway" v="secondary"/>
    <tag k="name" v="Michiel de Ruyterweg"/>
  </way>
  <way id="7538403" version="5" timestamp="2008-11-23T10:54:31Z" uid="8619" user="cetest" changeset="784304"/>
  <way id="7538404" version="2" timestamp="2008-04-29T19:28:12Z" uid="8619" user="cetest" changeset="286165">
    <nd ref="44831438"/>
    <nd ref="44828203"/>
    <tag k="AND:importance_level" v="1"/>
    <tag k="AND_nosr_r" v="15079667"/>
    <tag k="highway" v="secondary"/>
    <tag k="name" v="Mijnbouwstraat"/>
    <tag k="oneway" v="1"/>
  </way>
  <way id="7538405" version="2" timestamp="2008-04-29T19:27:34Z" uid="8619" user="cetest" changeset="286165">
    <nd ref="44827626"/>
    <nd ref="44828711"/>
    <nd ref="44831004"/>
    <tag k="AND:importance_level" v="1"/>
    <tag k="AND_nosr_r" v="15079666"/>
    <tag k="highway" v="secondary"/>
    <tag k="name" v="Mijnbouwpad"/>
  </way>
  <way id="7538406" version="2" timestamp="2008-04-29T19:28:33Z" uid="8619" user="cetest" changeset="286165">
    <nd ref="44847503"/>
    <nd ref="44847037"/>
    <tag k="AND:importance_level" v="1"/>
    <tag k="AND_nosr_r" v="15079665"/>
    <tag k="highway" v="secondary"/>
    <tag k="name" v="Oostpoortweg"/>
    <tag k="oneway" v="1"/>
  </way>
  <way id="7538408" version="2" timestamp="2008-04-29T19:28:13Z" uid="8619" user="cetest" changeset="286165">
    <nd ref="44831010"/>
    <nd ref="44831011"/>
    <tag k="AND:importance_level" v="2"/>
    <tag k="AND_nosr_r" v="15079664"/>
    <tag k="highway" v="secondary"/>
    <tag k="name" v="Nassaulaan"/>
  </way>
  <way id="7538409" version="2" timestamp="2008-04-29T19:28:14Z" uid="8619" user="cetest" changeset="286165">
    <nd ref="44831009"/>
    <nd ref="44831010"/>
    <tag k="AND:importance_level" v="2"/>
    <tag k="AND_nosr_r" v="15079663"/>
    <tag k="highway" v="secondary"/>
    <tag k="name" v="Nassaulaan"/>
  </way>
  <way id="7538410" version="2" timestamp="2008-04-27T19:35:24Z" uid="8619" user="cetest" changeset="269138">
    <nd ref="44844087"/>
    <nd ref="44847501"/>
    <tag k="AND:importance_level" v="5"/>
    <tag k="AND_nosr_r" v="15079662"/>
    <tag k="highway" v="secondary"/>
    <tag k="name" v="Saksenweg"/>
  </way>
  <way id="7538411" version="2" timestamp="2008-04-29T19:27:34Z" uid="8619" user="cetest" changeset="286165">
    <nd ref="44847037"/>
    <nd ref="44847501"/>
    <tag k="AND:importance_level" v="1"/>
    <tag k="AND_nosr_r" v="15079661"/>
    <tag k="highway" v="secondary"/>
    <tag k="name" v="Oostpoortweg"/>
  </way>
  <way id="7538413" version="2" timestamp="2008-04-29T19:27:35Z" uid="8619" user="cetest" changeset="286165">
    <nd ref="44839828"/>
    <nd ref="44841079"/>
    <tag k="AND:importance_level" v="1"/>
    <tag k="AND_nosr_r" v="15079660"/>
    <tag k="highway" v="secondary"/>
    <tag k="name" v="Julianalaan"/>
    <tag k="oneway" v="1"/>
  </way>
  <way id="7538414" version="2" timestamp="2008-04-29T19:28:28Z" uid="8619" user="cetest" changeset="286165">
    <nd ref="44837714"/>
    <nd ref="44834443"/>
    <nd ref="44833090"/>
    <nd ref="44832181"/>
    <tag k="AND:importance_level" v="1"/>
    <tag k="AND_nosr_r" v="15079659"/>
    <tag k="highway" v="secondary"/>
    <tag k="name" v="Julianalaan"/>
    <tag k="oneway" v="1"/>
  </way>
  <way id="7538415" version="2" timestamp="2008-04-29T19:27:36Z" uid="8619" user="cetest" changeset="286165">
    <nd ref="44833102"/>
    <nd ref="44835738"/>
    <nd ref="44838049"/>
    <tag k="AND:importance_level" v="1"/>
    <tag k="AND_nosr_r" v="15079658"/>
    <tag k="highway" v="secondary"/>
    <tag k="name" v="Julianalaan"/>
    <tag k="oneway" v="1"/>
  </way>
  <way id="7538417" version="2" timestamp="2008-04-29T19:28:29Z" uid="8619" user="cetest" changeset="286165">
    <nd ref="44849741"/>
    <nd ref="44849106"/>
    <tag k="AND:importance_level" v="1"/>
    <tag k="AND_nosr_r" v="15079657"/>
    <tag k="highway" v="secondary"/>
    <tag k="name" v="Oostpoortweg"/>
    <tag k="oneway" v="1"/>
  </way>
  <way id="7538418" version="2" timestamp="2008-04-29T19:28:19Z" uid="8619" user="cetest" changeset="286165">
    <nd ref="44849106"/>
    <nd ref="44848898"/>
    <tag k="AND:importance_level" v="1"/>
    <tag k="AND_nosr_r" v="15079656"/>
    <tag k="highway" v="secondary"/>
    <tag k="name" v="Oostpoortweg"/>
    <tag k="oneway" v="1"/>
  </way>
  <way id="7538420" version="2" timestamp="2008-04-29T19:27:37Z" uid="8619" user="cetest" changeset="286165">
    <nd ref="44848267"/>
    <nd ref="44848900"/>
    <tag k="AND:importance_level" v="1"/>
    <tag k="AND_nosr_r" v="15079655"/>
    <tag k="highway" v="secondary"/>
    <tag k="name" v="Oostpoortweg"/>
    <tag k="oneway" v="1"/>
  </way>
  <way id="7538421" version="2" timestamp="2008-04-29T19:27:38Z" uid="8619" user="cetest" changeset="286165">
    <nd ref="44847946"/>
    <nd ref="44848267"/>
    <tag k="AND:importance_level" v="1"/>
    <tag k="AND_nosr_r" v="15079654"/>
    <tag k="highway" v="secondary"/>
    <tag k="name" v="Oostpoortweg"/>
    <tag k="oneway" v="1"/>
  </way>
  <way id="7538422" version="2" timestamp="2008-03-16T20:52:22Z" uid="8619" user="cetest" changeset="334768">
    <nd ref="44831440"/>
    <nd ref="252500034"/>
    <nd ref="44831894"/>
    <tag k="AND:importance_level" v="2"/>
    <tag k="AND_nosr_r" v="15079653"/>
    <tag k="highway" v="primary"/>
    <tag k="name" v="Nassaulaan"/>
  </way>
  <way id="7538422" version="3" timestamp="2008-04-29T19:28:15Z" uid="8619" user="cetest" changeset="286165">
    <nd ref="44831440"/>
    <nd ref="252500034"/>
    <nd ref="44831894"/>
    <tag k="AND:importance_level" v="2"/>
    <tag k="AND_nosr_r" v="15079653"/>
    <tag k="highway" v="secondary"/>
    <tag k="name" v="Nassaulaan"/>
  </way>
  <way id="7538423" version="2" timestamp="2008-04-29T19:27:38Z" uid="8619" user="cetest" changeset="286165">
    <nd ref="44832181"/>
    <nd ref="44833102"/>
    <tag k="AND:importance_level" v="1"/>
    <tag k="AND_nosr_r" v="15079652"/>
    <tag k="highway" v="secondary"/>
    <tag k="name" v="Poortlandplein"/>
    <tag k="oneway" v="1"/>
  </way>
  <way id="7538424" version="2" timestamp="2008-04-29T19:27:39Z" uid="8619" user="cetest" changeset="286165">
    <nd ref="44838049"/>
    <nd ref="44839828"/>
    <tag k="AND:importance_level" v="1"/>
    <tag k="AND_nosr_r" v="15079651"/>
    <tag k="highway" v="secondary"/>
    <tag k="name" v="Julianalaan"/>
    <tag k="oneway" v="1"/>
  </way>
  <way id="7538426" version="2" timestamp="2008-04-27T19:35:32Z" uid="8619" user="cetest" changeset="269138">
    <nd ref="44840852"/>
    <nd ref="44843629"/>
    <tag k="AND:importance_level" v="5"/>
    <tag k="AND_nosr_r" v="15079650"/>
    <tag k="highway" v="secondary"/>
    <tag k="name" v="Delfgauwseweg"/>
  </way>
  <way id="7538427" version="2" timestamp="2008-04-27T19:35:31Z" uid="8619" user="cetest" changeset="269138">
    <nd ref="44843627"/>
    <nd ref="44843629"/>
    <tag k="AND:importance_level" v="5"/>
    <tag k="AND_nosr_r" v="15079649"/>
    <tag k="highway" v="secondary"/>
    <tag k="name" v="Delfgauwseweg"/>
  </way>
  <way id="7538428" version="2" timestamp="2007-10-14T11:45:39Z" uid="8619" user="cetest" changeset="160986">
    <nd ref="44831004"/>
    <nd ref="44834065"/>
    <tag k="AND:importance_level" v="1"/>
    <tag k="AND_nosr_r" v="15079648"/>
    <tag k="highway" v="primary"/>
    <tag k="layer" v="0"/>
    <tag k="name" v="Michiel de Ruyterweg"/>
  </way>
  <way id="7538428" version="3" timestamp="2008-04-29T19:27:40Z" uid="8619" user="cetest" changeset="286165">
    <nd ref="44831004"/>
    <nd ref="44834065"/>
    <tag k="AND:importance_level" v="1"/>
    <tag k="AND_nosr_r" v="15079648"/>
    <tag k="highway" v="secondary"/>
    <tag k="layer" v="0"/>
    <tag k="name" v="Michiel de Ruyterweg"/>
  </way>
  <way id="7538429" version="2" timestamp="2008-04-29T19:28:15Z" uid="8619" user="cetest" changeset="286165">
    <nd ref="44831009"/>
    <nd ref="44831440"/>
    <tag k="AND:importance_level" v="2"/>
    <tag k="AND_nosr_r" v="15079647"/>
    <tag k="highway" v="secondary"/>
    <tag k="name" v="Nassaulaan"/>
  </way>
  <way id="7538430" version="2" timestamp="2008-04-29T19:28:31Z" uid="8619" user="cetest" changeset="286165">
    <nd ref="44839826"/>
    <nd ref="44837714"/>
    <tag k="AND:importance_level" v="1"/>
    <tag k="AND_nosr_r" v="15079646"/>
    <tag k="highway" v="secondary"/>
    <tag k="name" v="Julianalaan"/>
    <tag k="oneway" v="1"/>
  </way>
  <way id="7538431" version="2" timestamp="2008-04-29T19:27:40Z" uid="8619" user="cetest" changeset="286165">
    <nd ref="44831438"/>
    <nd ref="44832181"/>
    <tag k="AND:importance_level" v="1"/>
    <tag k="AND_nosr_r" v="15079645"/>
    <tag k="highway" v="secondary"/>
    <tag k="name" v="Poortlandplein"/>
  </way>
  <way id="7538432" version="2" timestamp="2008-04-29T19:28:16Z" uid="8619" user="cetest" changeset="286165">
    <nd ref="44830592"/>
    <nd ref="44831011"/>
    <tag k="AND:importance_level" v="2"/>
    <tag k="AND_nosr_r" v="15079644"/>
    <tag k="highway" v="secondary"/>
    <tag k="name" v="Nassaulaan"/>
  </way>
  <way id="7538433" version="2" timestamp="2008-04-29T19:27:42Z" uid="8619" user="cetest" changeset="286165">
    <nd ref="44844889"/>
    <nd ref="44846120"/>
    <nd ref="44847499"/>
    <nd ref="44847501"/>
    <tag k="AND:importance_level" v="1"/>
    <tag k="AND_nosr_r" v="15079643"/>
    <tag k="highway" v="secondary"/>
    <tag k="name" v="Oostpoortweg"/>
  </way>
  <way id="7538435" version="2" timestamp="2008-04-29T19:27:42Z" uid="8619" user="cetest" changeset="286165">
    <nd ref="44847038"/>
    <nd ref="44847041"/>
    <nd ref="44847946"/>
    <tag k="AND:importance_level" v="1"/>
    <tag k="AND_nosr_r" v="15079642"/>
    <tag k="highway" v="secondary"/>
    <tag k="name" v="Oostpoortweg"/>
    <tag k="oneway" v="1"/>
  </way>
  <way id="7538436" version="2" timestamp="2008-04-29T19:28:31Z" uid="8619" user="cetest" changeset="286165">
    <nd ref="44847946"/>
    <nd ref="44848898"/>
    <tag k="AND:importance_level" v="1"/>
    <tag k="AND_nosr_r" v="15079641"/>
    <tag k="highway" v="secondary"/>
    <tag k="oneway" v="1"/>
  </way>
  <way id="7538437" version="2" timestamp="2008-03-16T20:52:22Z" uid="8619" user="cetest" changeset="334768">
    <nd ref="44848898"/>
    <nd ref="44848484"/>
    <nd ref="252500046"/>
    <nd ref="44847503"/>
    <tag k="AND:importance_level" v="1"/>
    <tag k="AND_nosr_r" v="15079640"/>
    <tag k="highway" v="primary"/>
    <tag k="name" v="Oostpoortweg"/>
    <tag k="oneway" v="1"/>
  </way>
  <way id="7538437" version="3" timestamp="2008-04-29T19:28:27Z" uid="8619" user="cetest" changeset="286165">
    <nd ref="44848898"/>
    <nd ref="44848484"/>
    <nd ref="252500046"/>
    <nd ref="44847503"/>
    <tag k="AND:importance_level" v="1"/>
    <tag k="AND_nosr_r" v="15079640"/>
    <tag k="highway" v="secondary"/>
    <tag k="name" v="Oostpoortweg"/>
    <tag k="oneway" v="1"/>
  </way>
  <way id="7538438" version="2" timestamp="2008-04-29T19:27:43Z" uid="8619" user="cetest" changeset="286165">
    <nd ref="44847037"/>
    <nd ref="44847038"/>
    <tag k="AND:importance_level" v="1"/>
    <tag k="AND_nosr_r" v="15079639"/>
    <tag k="highway" v="secondary"/>
    <tag k="name" v="Oostpoortweg"/>
    <tag k="oneway" v="1"/>
  </way>
  <way id="7538441" version="2" timestamp="2007-10-14T11:45:19Z" uid="8619" user="cetest" changeset="160986">
    <nd ref="44864527"/>
    <nd ref="44866807"/>
    <tag k="AND:importance_level" v="0"/>
    <tag k="AND_nosr_r" v="15079636"/>
    <tag k="highway" v="motorway"/>
    <tag k="int_ref" v="E19"/>
    <tag k="layer" v="0"/>
    <tag k="oneway" v="1"/>
    <tag k="ref" v="A13"/>
  </way>
  <way id="7538444" version="2" timestamp="2007-10-14T11:45:30Z" uid="8619" user="cetest" changeset="160986">
    <nd ref="44866806"/>
    <nd ref="44863951"/>
    <tag k="AND:importance_level" v="0"/>
    <tag k="AND_nosr_r" v="15079633"/>
    <tag k="highway" v="motorway"/>
    <tag k="int_ref" v="E19"/>
    <tag k="layer" v="0"/>
    <tag k="oneway" v="1"/>
    <tag k="ref" v="A13"/>
  </way>
  <way id="7538462" version="2" timestamp="2008-04-06T08:55:35Z" uid="8619" user="cetest" changeset="60539">
    <nd ref="44868288"/>
    <nd ref="44870346"/>
    <tag k="AND_nosr_r" v="15079620"/>
    <tag k="highway" v="unclassified"/>
  </way>
  <way id="7538465" version="2" timestamp="2007-11-11T20:07:06Z" uid="8619" user="cetest" changeset="475566">
    <nd ref="44834050"/>
    <nd ref="44831872"/>
    <tag k="AND:importance_level" v="5"/>
    <tag k="AND_nosr_r" v="15079617"/>
    <tag k="highway" v="footway"/>
    <tag k="oneway" v="1"/>
  </way>
  <way id="7538469" version="2" timestamp="2007-11-11T13:45:23Z" uid="8619" user="cetest" changeset="472435">
    <nd ref="44815350"/>
    <nd ref="44817952"/>
    <nd ref="44820492"/>
    <nd ref="44823032"/>
    <nd ref="44824152"/>
    <nd ref="44826465"/>
    <nd ref="44827621"/>
    <nd ref="44828705"/>
    <nd ref="44829229"/>
    <tag k="AND:importance_level" v="1"/>
    <tag k="AND_nosr_r" v="15078748"/>
    <tag k="highway" v="primary"/>
    <tag k="name" v="Zuidwal"/>
    <tag k="oneway" v="1"/>
  </way>
  <way id="7538469" version="3" timestamp="2008-03-22T16:13:01Z" uid="8619" user="cetest" changeset="370656">
    <nd ref="44815350"/>
    <nd ref="44817952"/>
    <nd ref="44820492"/>
    <tag k="AND:importance_level" v="1"/>
    <tag k="AND_nosr_r" v="15078748"/>
    <tag k="highway" v="primary"/>
    <tag k="name" v="Zuidwal"/>
    <tag k="oneway" v="1"/>
  </way>
  <way id="7538469" version="4" timestamp="2008-04-29T19:28:32Z" uid="8619" user="cetest" changeset="286165">
    <nd ref="44815350"/>
    <nd ref="44817952"/>
    <nd ref="44820492"/>
    <tag k="AND:importance_level" v="1"/>
    <tag k="AND_nosr_r" v="15078748"/>
    <tag k="highway" v="secondary"/>
    <tag k="name" v="Zuidwal"/>
    <tag k="oneway" v="1"/>
  </way>
  <way id="7538470" version="2" timestamp="2007-11-11T13:45:24Z" uid="8619" user="cetest" changeset="472435">
    <nd ref="44831888"/>
    <nd ref="44829661"/>
    <nd ref="44827619"/>
    <nd ref="107405328"/>
    <nd ref="107405331"/>
    <nd ref="107405324"/>
    <nd ref="107405318"/>
    <nd ref="107405314"/>
    <tag k="AND:importance_level" v="1"/>
    <tag k="AND_nosr_r" v="15079612"/>
    <tag k="highway" v="primary"/>
    <tag k="name" v="Zuidwal"/>
    <tag k="oneway" v="1"/>
  </way>
  <way id="7538470" version="3" timestamp="2008-03-23T13:52:59Z" uid="8619" user="cetest" changeset="379971">
    <nd ref="44831888"/>
    <nd ref="44829661"/>
    <nd ref="44827619"/>
    <nd ref="107405328"/>
    <nd ref="107405331"/>
    <nd ref="107405324"/>
    <tag k="AND:importance_level" v="1"/>
    <tag k="AND_nosr_r" v="15079612"/>
    <tag k="highway" v="primary"/>
    <tag k="name" v="Zuidwal"/>
    <tag k="oneway" v="1"/>
  </way>
  <way id="7538470" version="4" timestamp="2008-04-29T19:28:17Z" uid="8619" user="cetest" changeset="286165">
    <nd ref="44831888"/>
    <nd ref="44829661"/>
    <nd ref="44827619"/>
    <nd ref="107405328"/>
    <nd ref="107405331"/>
    <nd ref="107405324"/>
    <tag k="AND:importance_level" v="1"/>
    <tag k="AND_nosr_r" v="15079612"/>
    <tag k="highway" v="secondary"/>
    <tag k="name" v="Zuidwal"/>
    <tag k="oneway" v="1"/>
  </way>
  <way id="7538470" version="8" timestamp="2008-11-23T10:54:14Z" uid="8619" user="cetest" changeset="784304">
    <nd ref="44831888"/>
    <nd ref="44829661"/>
    <nd ref="44827619"/>
    <nd ref="107405328"/>
    <nd ref="311069055"/>
    <tag k="AND:importance_level" v="1"/>
    <tag k="AND_nosr_r" v="15079612"/>
    <tag k="created_by" v="Merkaartor 0.12"/>
    <tag k="highway" v="secondary"/>
    <tag k="layer" v="0"/>
    <tag k="name" v="Zuidwal"/>
    <tag k="oneway" v="yes"/>
  </way>
  <way id="7538471" version="2" timestamp="2007-11-11T13:45:22Z" uid="8619" user="cetest" changeset="472435">
    <nd ref="44820492"/>
    <nd ref="107405324"/>
    <nd ref="44822492"/>
    <nd ref="44825209"/>
    <nd ref="44830585"/>
    <tag k="AND:importance_level" v="4"/>
    <tag k="AND_nosr_r" v="15079611"/>
    <tag k="highway" v="secondary"/>
    <tag k="name" v="Westvest"/>
  </way>
  <way id="7538471" version="3" timestamp="2008-03-22T16:13:00Z" uid="8619" user="cetest" changeset="370656">
    <nd ref="44820492"/>
    <nd ref="107405324"/>
    <tag k="AND:importance_level" v="4"/>
    <tag k="AND_nosr_r" v="15079611"/>
    <tag k="highway" v="secondary"/>
    <tag k="name" v="Westvest"/>
  </way>
  <way id="7538476" version="2" timestamp="2009-02-05T19:46:26Z" uid="8619" user="cetest" changeset="162620">
    <nd ref="44823033"/>
    <nd ref="44824158"/>
    <nd ref="341306502"/>
    <nd ref="44824157"/>
    <nd ref="44826467"/>
    <nd ref="341306496"/>
    <nd ref="44827066"/>
    <tag k="AND_nosr_r" v="15079607"/>
    <tag k="highway" v="unclassified"/>
    <tag k="name" v="Diamantpad"/>
  </way>
  <way id="7538487" version="2" timestamp="2007-11-11T14:26:47Z" uid="8619" user="cetest" changeset="472435"/>
  <way id="7538495" version="2" timestamp="2008-04-12T11:07:30Z" uid="8619" user="cetest" changeset="122665">
    <nd ref="44876597"/>
    <nd ref="44876969"/>
    <nd ref="44877763"/>
    <tag k="AND_nosr_r" v="15079590"/>
    <tag k="highway" v="footway"/>
  </way>
  <way id="7538503" version="2" timestamp="2008-04-12T11:07:31Z" uid="8619" user="cetest" changeset="122665">
    <nd ref="44876970"/>
    <nd ref="44877767"/>
    <tag k="AND_nosr_r" v="15079582"/>
    <tag k="highway" v="footway"/>
  </way>
  <way id="7538504" version="2" timestamp="2008-04-06T09:03:13Z" uid="8619" user="cetest" changeset="60539">
    <nd ref="44866148"/>
    <nd ref="256010234"/>
    <nd ref="44861496"/>
    <tag k="AND_nosr_r" v="15079581"/>
    <tag k="highway" v="unclassified"/>
    <tag k="name" v="Voorstraat"/>
    <tag k="oneway" v="1"/>
  </way>
  <way id="7538511" version="2" timestamp="2008-04-12T11:07:26Z" uid="8619" user="cetest" changeset="122665">
    <nd ref="44876209"/>
    <nd ref="44876211"/>
    <nd ref="44876597"/>
    <tag k="AND_nosr_r" v="15079574"/>
    <tag k="highway" v="footway"/>
  </way>
  <way id="7538515" version="2" timestamp="2008-04-12T11:07:29Z" uid="8619" user="cetest" changeset="122665">
    <nd ref="44876597"/>
    <nd ref="44876970"/>
    <tag k="AND_nosr_r" v="15079570"/>
    <tag k="highway" v="footway"/>
  </way>
  <way id="7538516" version="4" timestamp="2008-11-20T09:46:05Z" uid="8619" user="cetest" changeset="770823">
    <nd ref="44869225"/>
    <nd ref="312351770"/>
    <nd ref="44871617"/>
    <tag k="AND:importance_level" v="5"/>
    <tag k="AND_nosr_r" v="15079569"/>
    <tag k="highway" v="unclassified"/>
    <tag k="name" v="Geerweg"/>
    <tag k="oneway" v="-1"/>
  </way>
  <way id="7538519" version="2" timestamp="2008-04-12T11:07:28Z" uid="8619" user="cetest" changeset="122665">
    <nd ref="44876970"/>
    <nd ref="44876598"/>
    <nd ref="44876599"/>
    <nd ref="44876973"/>
    <tag k="AND_nosr_r" v="15079566"/>
    <tag k="highway" v="footway"/>
  </way>
  <way id="7538521" version="3" timestamp="2008-11-20T09:46:06Z" uid="8619" user="cetest" changeset="770823">
    <nd ref="44871617"/>
    <nd ref="44875781"/>
    <tag k="AND:importance_level" v="5"/>
    <tag k="AND_nosr_r" v="15079564"/>
    <tag k="highway" v="unclassified"/>
    <tag k="name" v="Geerweg"/>
    <tag k="oneway" v="-1"/>
  </way>
  <way id="7538534" version="2" timestamp="2008-04-12T11:07:22Z" uid="8619" user="cetest" changeset="122665">
    <nd ref="44876592"/>
    <nd ref="44877761"/>
    <tag k="AND_nosr_r" v="15079552"/>
    <tag k="highway" v="unclassified"/>
    <tag k="name" v="Nieuwe Plantage"/>
  </way>
  <way id="7538545" version="2" timestamp="2008-04-12T11:07:27Z" uid="8619" user="cetest" changeset="122665">
    <nd ref="44874702"/>
    <nd ref="44875053"/>
    <nd ref="44875429"/>
    <nd ref="44876209"/>
    <tag k="AND_nosr_r" v="15079544"/>
    <tag k="highway" v="footway"/>
  </way>
  <way id="7538546" version="2" timestamp="2008-04-05T14:37:13Z" uid="8619" user="cetest" changeset="51307">
    <nd ref="44874338"/>
    <nd ref="255879264"/>
    <tag k="AND:importance_level" v="5"/>
    <tag k="AND_nosr_r" v="15079543"/>
    <tag k="highway" v="unclassified"/>
    <tag k="name" v="Annageer"/>
    <tag k="oneway" v="1"/>
  </way>
  <way id="7538557" version="2" timestamp="2007-11-11T20:07:06Z" uid="8619" user="cetest" changeset="475566">
    <nd ref="44838796"/>
    <nd ref="44839188"/>
    <tag k="AND_nosr_r" v="15079532"/>
    <tag k="highway" v="footway"/>
    <tag k="name" v="Sint Jansbrug"/>
  </way>
  <way id="7538570" version="2" timestamp="2007-10-14T11:45:23Z" uid="8619" user="cetest" changeset="160986">
    <nd ref="44838793"/>
    <nd ref="44838396"/>
    <tag k="AND:importance_level" v="5"/>
    <tag k="AND_nosr_r" v="15079521"/>
    <tag k="highway" v="unclassified"/>
    <tag k="layer" v="-1"/>
    <tag k="name" v="Houttuinen"/>
    <tag k="oneway" v="1"/>
  </way>
  <way id="7538575" version="2" timestamp="2007-11-11T20:07:04Z" uid="8619" user="cetest" changeset="475566">
    <nd ref="44840012"/>
    <nd ref="44839182"/>
    <nd ref="44836969"/>
    <tag k="AND:importance_level" v="5"/>
    <tag k="AND_nosr_r" v="15079517"/>
    <tag k="highway" v="footway"/>
    <tag k="oneway" v="1"/>
  </way>
  <way id="7538576" version="2" timestamp="2007-11-11T20:07:07Z" uid="8619" user="cetest" changeset="475566"/>
  <way id="7538590" version="2" timestamp="2008-04-12T11:07:33Z" uid="8619" user="cetest" changeset="122665">
    <nd ref="44876602"/>
    <nd ref="44876975"/>
    <nd ref="44876973"/>
    <tag k="AND_nosr_r" v="15079502"/>
    <tag k="highway" v="footway"/>
  </way>
  <way id="7538606" version="2" timestamp="2008-04-06T09:38:20Z" uid="8619" user="cetest" changeset="60539">
    <nd ref="44869225"/>
    <nd ref="256016541"/>
    <nd ref="44867162"/>
    <tag k="AND:importance_level" v="5"/>
    <tag k="AND_nosr_r" v="15079488"/>
    <tag k="highway" v="unclassified"/>
    <tag k="name" v="Geerweg"/>
    <tag k="oneway" v="1"/>
  </way>
  <way id="7538606" version="4" timestamp="2008-11-20T09:46:06Z" uid="8619" user="cetest" changeset="770823">
    <nd ref="44867162"/>
    <nd ref="256016541"/>
    <nd ref="44869225"/>
    <tag k="AND:importance_level" v="5"/>
    <tag k="AND_nosr_r" v="15079488"/>
    <tag k="highway" v="unclassified"/>
    <tag k="name" v="Geerweg"/>
    <tag k="oneway" v="-1"/>
  </way>
  <way id="7538612" version="2" timestamp="2007-11-11T20:09:41Z" uid="8619" user="cetest" changeset="475566"/>
  <way id="7538613" version="2" timestamp="2007-10-14T11:45:15Z" uid="8619" user="cetest" changeset="160986">
    <nd ref="44840012"/>
    <nd ref="44840457"/>
    <tag k="AND:importance_level" v="5"/>
    <tag k="AND_nosr_r" v="15079482"/>
    <tag k="highway" v="unclassified"/>
    <tag k="layer" v="-1"/>
    <tag k="name" v="Buitenwatersloot"/>
  </way>
  <way id="7538613" version="3" timestamp="2008-03-02T12:30:04Z" uid="8619" user="cetest" changeset="249427">
    <nd ref="44840012"/>
    <nd ref="44840457"/>
    <tag k="AND:importance_level" v="5"/>
    <tag k="AND_nosr_r" v="15079482"/>
    <tag k="highway" v="unclassified"/>
    <tag k="layer" v="0"/>
    <tag k="name" v="Buitenwatersloot"/>
  </way>
  <way id="7538615" version="2" timestamp="2008-03-16T20:52:18Z" uid="8619" user="cetest" changeset="334768">
    <nd ref="44840455"/>
    <nd ref="252500010"/>
    <nd ref="44840012"/>
    <tag k="AND:importance_level" v="5"/>
    <tag k="AND_nosr_r" v="15079481"/>
    <tag k="highway" v="unclassified"/>
    <tag k="name" v="Havenstraat"/>
    <tag k="oneway" v="1"/>
  </way>
  <way id="7538672" version="2" timestamp="2008-04-06T09:48:42Z" uid="8619" user="cetest" changeset="60539">
    <nd ref="44856083"/>
    <nd ref="256018435"/>
    <nd ref="44858077"/>
    <nd ref="44859970"/>
    <nd ref="44861499"/>
    <tag k="AND_nosr_r" v="15079433"/>
    <tag k="highway" v="unclassified"/>
    <tag k="name" v="Vlamingstraat"/>
    <tag k="oneway" v="1"/>
  </way>
  <way id="7538679" version="2" timestamp="2008-11-20T10:12:10Z" uid="8619" user="cetest" changeset="770823">
    <nd ref="44861096"/>
    <nd ref="44861368"/>
    <tag k="AND:importance_level" v="5"/>
    <tag k="AND_nosr_r" v="15079427"/>
    <tag k="bridge" v="yes"/>
    <tag k="highway" v="unclassified"/>
    <tag k="layer" v="1"/>
  </way>
  <way id="7538689" version="2" timestamp="2008-11-20T10:12:09Z" uid="8619" user="cetest" changeset="770823">
    <nd ref="44860219"/>
    <nd ref="44860721"/>
    <tag k="AND:importance_level" v="5"/>
    <tag k="AND_nosr_r" v="15079420"/>
    <tag k="bridge" v="yes"/>
    <tag k="highway" v="unclassified"/>
    <tag k="layer" v="1"/>
  </way>
  <way id="7538697" version="2" timestamp="2008-04-12T11:07:32Z" uid="8619" user="cetest" changeset="122665">
    <nd ref="44876973"/>
    <nd ref="44877768"/>
    <tag k="AND_nosr_r" v="15079414"/>
    <tag k="highway" v="footway"/>
  </way>
  <way id="7538703" version="2" timestamp="2008-04-06T09:38:21Z" uid="8619" user="cetest" changeset="60539">
    <nd ref="44856078"/>
    <nd ref="256016484"/>
    <nd ref="44859199"/>
    <tag k="AND_nosr_r" v="15079408"/>
    <tag k="highway" v="unclassified"/>
    <tag k="name" v="Oude Delft"/>
    <tag k="oneway" v="1"/>
  </way>
  <way id="7538713" version="2" timestamp="2008-04-12T11:08:29Z" uid="8619" user="cetest" changeset="122665">
    <nd ref="44872845"/>
    <nd ref="44873224"/>
    <nd ref="44873595"/>
    <tag k="AND_nosr_r" v="15079399"/>
    <tag k="highway" v="unclassified"/>
    <tag k="name" v="Laantje achter Wilhelmina"/>
  </way>
  <way id="7538723" version="2" timestamp="2008-04-12T11:07:28Z" uid="8619" user="cetest" changeset="122665">
    <nd ref="44876209"/>
    <nd ref="44876596"/>
    <tag k="AND_nosr_r" v="15079390"/>
    <tag k="highway" v="footway"/>
  </way>
  <way id="7538747" version="2" timestamp="2008-04-06T09:48:43Z" uid="8619" user="cetest" changeset="60539">
    <nd ref="44860342"/>
    <nd ref="256018440"/>
    <nd ref="44856484"/>
    <tag k="AND_nosr_r" v="15079367"/>
    <tag k="highway" v="unclassified"/>
    <tag k="name" v="Vlamingstraat"/>
    <tag k="oneway" v="1"/>
  </way>
  <way id="7538768" version="2" timestamp="2007-11-11T20:07:07Z" uid="8619" user="cetest" changeset="475566"/>
  <way id="7538769" version="2" timestamp="2008-03-02T13:45:36Z" uid="8619" user="cetest" changeset="254167">
    <nd ref="44839192"/>
    <nd ref="44841571"/>
    <nd ref="44845275"/>
    <tag k="AND_nosr_r" v="15079347"/>
    <tag k="highway" v="unclassified"/>
    <tag k="name" v="Koornmarkt"/>
    <tag k="oneway" v="1"/>
  </way>
  <way id="7538778" version="3" timestamp="2008-11-20T11:21:41Z" uid="8619" user="cetest" changeset="770823">
    <nd ref="44845276"/>
    <nd ref="44845672"/>
    <tag k="AND_nosr_r" v="15079340"/>
    <tag k="bridge" v="yes"/>
    <tag k="created_by" v="Merkaartor 0.12"/>
    <tag k="highway" v="pedestrian"/>
    <tag k="layer" v="1"/>
  </way>
  <way id="7538779" version="4" timestamp="2008-11-20T10:48:45Z" uid="8619" user="cetest" changeset="770823">
    <nd ref="44845672"/>
    <nd ref="313286144"/>
    <nd ref="44844079"/>
    <tag k="AND_nosr_r" v="15079339"/>
    <tag k="bicycle" v="yes"/>
    <tag k="highway" v="pedestrian"/>
    <tag k="name" v="Molslaan"/>
    <tag k="oneway" v="yes"/>
  </way>
  <way id="7538786" version="3" timestamp="2008-11-20T10:48:46Z" uid="8619" user="cetest" changeset="770823">
    <nd ref="44846582"/>
    <nd ref="44844079"/>
    <tag k="AND:importance_level" v="5"/>
    <tag k="AND_nosr_r" v="15079333"/>
    <tag k="bicycle" v="yes"/>
    <tag k="highway" v="pedestrian"/>
    <tag k="name" v="Brabantse Turfmarkt"/>
  </way>
  <way id="7538786" version="4" timestamp="2008-11-20T10:53:29Z" uid="8619" user="cetest" changeset="770823">
    <nd ref="44846582"/>
    <nd ref="313286590"/>
    <nd ref="44844079"/>
    <tag k="AND:importance_level" v="5"/>
    <tag k="AND_nosr_r" v="15079333"/>
    <tag k="bicycle" v="yes"/>
    <tag k="highway" v="pedestrian"/>
    <tag k="name" v="Brabantse Turfmarkt"/>
  </way>
  <way id="7538789" version="2" timestamp="2008-03-16T20:52:18Z" uid="8619" user="cetest" changeset="334768">
    <nd ref="44842012"/>
    <nd ref="252500011"/>
    <nd ref="44843614"/>
    <nd ref="44844070"/>
    <tag k="AND:importance_level" v="5"/>
    <tag k="AND_nosr_r" v="15079330"/>
    <tag k="highway" v="unclassified"/>
    <tag k="name" v="Spoorsingel"/>
    <tag k="oneway" v="1"/>
  </way>
  <way id="7538791" version="10" timestamp="2010-07-05T07:58:48Z" uid="8619" user="cetest" changeset="5139599">
    <nd ref="44844073"/>
    <nd ref="664589577"/>
    <nd ref="664589579"/>
    <tag k="highway" v="residential"/>
    <tag k="name" v="Binnenwatersloot"/>
    <tag k="oneway" v="yes"/>
  </way>
  <way id="7538794" version="3" timestamp="2008-11-20T10:48:52Z" uid="8619" user="cetest" changeset="770823"/>
  <way id="7538809" version="2" timestamp="2008-03-26T19:31:40Z" uid="8619" user="cetest" changeset="400722">
    <nd ref="44853766"/>
    <nd ref="44856081"/>
    <tag k="AND_nosr_r" v="15079311"/>
    <tag k="highway" v="unclassified"/>
    <tag k="name" v="Voldersgracht"/>
  </way>
  <way id="7538825" version="4" timestamp="2008-11-20T10:48:44Z" uid="8619" user="cetest" changeset="770823">
    <nd ref="44852781"/>
    <nd ref="313286140"/>
    <tag k="AND_nosr_r" v="15079296"/>
    <tag k="bicycle" v="yes"/>
    <tag k="highway" v="pedestrian"/>
    <tag k="name" v="Oude Manhuissteeg"/>
  </way>
  <way id="7538826" version="2" timestamp="2008-03-26T19:31:40Z" uid="8619" user="cetest" changeset="400722">
    <nd ref="44853766"/>
    <nd ref="254135269"/>
    <nd ref="44852062"/>
    <tag k="AND_nosr_r" v="15079295"/>
    <tag k="highway" v="pedestrian"/>
    <tag k="name" v="Voldersgracht"/>
    <tag k="oneway" v="1"/>
  </way>
  <way id="7538829" version="2" timestamp="2008-04-05T14:37:12Z" uid="8619" user="cetest" changeset="51307">
    <nd ref="44854738"/>
    <nd ref="44850253"/>
    <tag k="AND_nosr_r" v="15079292"/>
    <tag k="highway" v="unclassified"/>
    <tag k="name" v="Hippolytusbuurt"/>
    <tag k="oneway" v="1"/>
  </way>
  <way id="7538831" version="2" timestamp="2008-03-16T20:52:24Z" uid="8619" user="cetest" changeset="334768">
    <nd ref="44854740"/>
    <nd ref="44853266"/>
    <nd ref="252500041"/>
    <nd ref="44852065"/>
    <tag k="AND:importance_level" v="5"/>
    <tag k="AND_nosr_r" v="15079290"/>
    <tag k="highway" v="unclassified"/>
    <tag k="name" v="Oude Langendijk"/>
    <tag k="oneway" v="1"/>
  </way>
  <way id="7538833" version="2" timestamp="2007-11-11T20:07:05Z" uid="8619" user="cetest" changeset="475566">
    <nd ref="26485784"/>
    <nd ref="44844073"/>
    <tag k="AND_nosr_r" v="15079288"/>
    <tag k="highway" v="unclassified"/>
    <tag k="name" v="Oude Delft"/>
    <tag k="oneway" v="1"/>
  </way>
  <way id="7538834" version="2" timestamp="2008-03-16T20:52:16Z" uid="8619" user="cetest" changeset="334768">
    <nd ref="44847484"/>
    <nd ref="44849292"/>
    <tag k="AND_nosr_r" v="15079287"/>
    <tag k="highway" v="unclassified"/>
    <tag k="name" v="Oude Langendijk"/>
    <tag k="oneway" v="1"/>
  </way>
  <way id="7538842" version="2" timestamp="2008-04-05T14:21:38Z" uid="8619" user="cetest" changeset="51307">
    <nd ref="44846579"/>
    <nd ref="44848449"/>
    <tag k="AND_nosr_r" v="15079280"/>
    <tag k="highway" v="unclassified"/>
    <tag k="name" v="Wijnhaven"/>
  </way>
  <way id="7538842" version="3" timestamp="2008-04-05T14:22:23Z" uid="8619" user="cetest" changeset="51307">
    <nd ref="44846579"/>
    <nd ref="44848449"/>
    <tag k="AND_nosr_r" v="15079280"/>
    <tag k="highway" v="unclassified"/>
    <tag k="name" v="Wijnhaven"/>
  </way>
  <way id="7538847" version="1" timestamp="2007-10-01T20:40:30Z" uid="8619" user="cetest" changeset="14645">
    <nd ref="44855146"/>
    <nd ref="44856079"/>
    <tag k="AND_nosr_r" v="15079276"/>
    <tag k="highway" v="unclassified"/>
    <tag k="name" v="Choorstraat"/>
    <tag k="oneway" v="1"/>
  </way>
  <way id="7538849" version="2" timestamp="2008-04-14T05:48:33Z" uid="8619" user="cetest" changeset="145382">
    <nd ref="44845987"/>
    <nd ref="44848804"/>
    <tag k="AND_nosr_r" v="15079274"/>
    <tag k="highway" v="unclassified"/>
    <tag k="name" v="Maria Gouweloospoort"/>
  </way>
  <way id="7538852" version="2" timestamp="2008-03-02T13:45:36Z" uid="8619" user="cetest" changeset="254167">
    <nd ref="44844076"/>
    <nd ref="44847482"/>
    <nd ref="44848879"/>
    <tag k="AND_nosr_r" v="15079271"/>
    <tag k="highway" v="unclassified"/>
    <tag k="name" v="Oude Delft"/>
    <tag k="oneway" v="1"/>
  </way>
  <way id="7538853" version="2" timestamp="2008-11-20T11:21:41Z" uid="8619" user="cetest" changeset="770823">
    <nd ref="44848456"/>
    <nd ref="44848882"/>
    <tag k="AND_nosr_r" v="15079270"/>
    <tag k="bridge" v="yes"/>
    <tag k="highway" v="unclassified"/>
    <tag k="layer" v="1"/>
  </way>
  <way id="7538857" version="2" timestamp="2008-03-02T13:45:36Z" uid="8619" user="cetest" changeset="254167">
    <nd ref="44848452"/>
    <nd ref="44849290"/>
    <tag k="AND_nosr_r" v="15079266"/>
    <tag k="highway" v="pedestrian"/>
    <tag k="name" v="Markt"/>
    <tag k="oneway" v="1"/>
  </way>
  <way id="7538868" version="2" timestamp="2008-11-20T11:21:40Z" uid="8619" user="cetest" changeset="770823">
    <nd ref="44847018"/>
    <nd ref="44847489"/>
    <tag k="AND_nosr_r" v="15079256"/>
    <tag k="bridge" v="yes"/>
    <tag k="highway" v="unclassified"/>
    <tag k="layer" v="1"/>
    <tag k="name" v="Beestenmarkt"/>
  </way>
  <way id="7538872" version="3" timestamp="2008-11-20T10:48:44Z" uid="8619" user="cetest" changeset="770823">
    <nd ref="44846582"/>
    <nd ref="313286143"/>
    <nd ref="44847936"/>
    <tag k="AND:importance_level" v="5"/>
    <tag k="AND_nosr_r" v="15079253"/>
    <tag k="bicycle" v="yes"/>
    <tag k="highway" v="pedestrian"/>
    <tag k="name" v="Burgwal"/>
  </way>
  <way id="7538874" version="2" timestamp="2008-03-31T19:06:16Z" uid="8619" user="cetest" changeset="435931">
    <nd ref="44831426"/>
    <nd ref="255127991"/>
    <nd ref="44831427"/>
    <tag k="AND:importance_level" v="5"/>
    <tag k="AND_nosr_r" v="15079251"/>
    <tag k="highway" v="unclassified"/>
  </way>
  <way id="7538879" version="2" timestamp="2008-03-22T16:07:16Z" uid="8619" user="cetest" changeset="370656">
    <nd ref="44828702"/>
    <nd ref="44829655"/>
    <nd ref="253356025"/>
    <nd ref="44830582"/>
    <tag k="AND:importance_level" v="5"/>
    <tag k="AND_nosr_r" v="15079247"/>
    <tag k="highway" v="unclassified"/>
    <tag k="name" v="van Leeuwenhoeksingel"/>
  </way>
  <way id="7538879" version="3" timestamp="2008-03-22T16:13:01Z" uid="8619" user="cetest" changeset="370656">
    <nd ref="44828702"/>
    <nd ref="44829655"/>
    <nd ref="253356025"/>
    <tag k="AND:importance_level" v="5"/>
    <tag k="AND_nosr_r" v="15079247"/>
    <tag k="highway" v="unclassified"/>
    <tag k="name" v="van Leeuwenhoeksingel"/>
  </way>
  <way id="7538884" version="5" timestamp="2008-11-23T11:30:14Z" uid="8619" user="cetest" changeset="784304">
    <nd ref="44831888"/>
    <nd ref="44832334"/>
    <nd ref="313892703"/>
    <nd ref="44832718"/>
    <tag k="AND:importance_level" v="5"/>
    <tag k="AND_nosr_r" v="15079243"/>
    <tag k="created_by" v="Merkaartor 0.12"/>
    <tag k="highway" v="tertiary"/>
    <tag k="lanes" v="2"/>
    <tag k="name" v="Asvest"/>
    <tag k="oneway" v="no"/>
  </way>
  <way id="7538910" version="2" timestamp="2007-11-11T20:07:05Z" uid="8619" user="cetest" changeset="475566">
    <nd ref="44836969"/>
    <nd ref="44834050"/>
    <tag k="AND:importance_level" v="5"/>
    <tag k="AND_nosr_r" v="15079222"/>
    <tag k="highway" v="footway"/>
    <tag k="oneway" v="1"/>
  </way>
  <way id="7538914" version="7" timestamp="2010-07-05T07:58:54Z" uid="8619" user="cetest" changeset="5139599">
    <nd ref="664589617"/>
    <nd ref="664589623"/>
    <nd ref="664589625"/>
    <nd ref="664589611"/>
    <tag k="highway" v="residential"/>
    <tag k="name" v="Binnenwatersloot"/>
    <tag k="oneway" v="yes"/>
  </way>
  <way id="7538930" version="2" timestamp="2007-10-14T11:45:37Z" uid="8619" user="cetest" changeset="160986">
    <nd ref="44841176"/>
    <nd ref="44841178"/>
    <tag k="AND_nosr_r" v="15079207"/>
    <tag k="highway" v="unclassified"/>
    <tag k="layer" v="-1"/>
  </way>
  <way id="7538944" version="2" timestamp="2007-11-11T20:09:40Z" uid="8619" user="cetest" changeset="475566">
    <nd ref="44830585"/>
    <nd ref="44832333"/>
    <tag k="AND:importance_level" v="5"/>
    <tag k="AND_nosr_r" v="15079195"/>
    <tag k="highway" v="cycleway"/>
  </way>
  <way id="7538948" version="2" timestamp="2008-11-23T10:54:15Z" uid="8619" user="cetest" changeset="784304">
    <nd ref="44827065"/>
    <nd ref="44827618"/>
    <nd ref="44830134"/>
    <nd ref="44831882"/>
    <tag k="AND_nosr_r" v="15079192"/>
    <tag k="access" v="permissive"/>
    <tag k="highway" v="unclassified"/>
    <tag k="name" v="Korte Geer"/>
  </way>
  <way id="7538952" version="15" timestamp="2010-07-06T14:12:20Z" uid="8619" user="cetest" changeset="5150864">
    <nd ref="44854740"/>
    <nd ref="368038061"/>
    <nd ref="252500041"/>
    <nd ref="564954628"/>
    <tag k="access" v="private"/>
    <tag k="bicycle" v="yes"/>
    <tag k="highway" v="unclassified"/>
    <tag k="name" v="Oude Langendijk"/>
    <tag k="note" v="autoluw"/>
    <tag k="oneway" v="yes"/>
    <tag k="psv" v="yes"/>
  </way>
  <way id="7538955" version="2" timestamp="2008-03-02T13:45:37Z" uid="8619" user="cetest" changeset="254167">
    <nd ref="44851591"/>
    <nd ref="44852062"/>
    <tag k="AND_nosr_r" v="15079186"/>
    <tag k="highway" v="footway"/>
    <tag k="name" v="Bonte Ossteeg"/>
  </way>
  <way id="7538955" version="4" timestamp="2008-11-20T10:48:43Z" uid="8619" user="cetest" changeset="770823">
    <nd ref="44851591"/>
    <nd ref="313286141"/>
    <tag k="AND_nosr_r" v="15079186"/>
    <tag k="created_by" v="Merkaartor 0.12"/>
    <tag k="highway" v="footway"/>
    <tag k="name" v="Bonte Ossteeg"/>
    <tag k="oneway" v="no"/>
  </way>
  <way id="7538962" version="13" timestamp="2010-07-06T14:12:29Z" uid="8619" user="cetest" changeset="5150864">
    <nd ref="44847017"/>
    <nd ref="311053354"/>
    <nd ref="44847484"/>
    <tag k="access" v="private"/>
    <tag k="bicycle" v="yes"/>
    <tag k="foot" v="yes"/>
    <tag k="highway" v="cycleway"/>
    <tag k="name" v="Oude Langendijk"/>
    <tag k="note" v="fietspad met toegang voor bussen"/>
    <tag k="psv" v="yes"/>
  </way>
  <way id="7538964" version="2" timestamp="2008-04-05T14:37:10Z" uid="8619" user="cetest" changeset="51307">
    <nd ref="44850699"/>
    <nd ref="44851590"/>
    <tag k="AND_nosr_r" v="15079179"/>
    <tag k="highway" v="unclassified"/>
    <tag k="name" v="Hippolytusbuurt"/>
    <tag k="oneway" v="1"/>
  </way>
  <way id="7538968" version="2" timestamp="2008-04-05T14:21:39Z" uid="8619" user="cetest" changeset="51307">
    <nd ref="44848449"/>
    <nd ref="44850253"/>
    <tag k="AND_nosr_r" v="15079176"/>
    <tag k="highway" v="unclassified"/>
    <tag k="name" v="Wijnhaven"/>
  </way>
  <way id="7538968" version="3" timestamp="2008-04-05T14:22:22Z" uid="8619" user="cetest" changeset="51307">
    <nd ref="44848449"/>
    <nd ref="44850253"/>
    <tag k="AND_nosr_r" v="15079176"/>
    <tag k="highway" v="unclassified"/>
    <tag k="name" v="Wijnhaven"/>
  </way>
  <way id="7538971" version="2" timestamp="2008-03-02T13:45:36Z" uid="8619" user="cetest" changeset="254167">
    <nd ref="44849290"/>
    <nd ref="44850256"/>
    <tag k="AND:importance_level" v="5"/>
    <tag k="AND_nosr_r" v="15079173"/>
    <tag k="highway" v="pedestrian"/>
    <tag k="name" v="Markt"/>
    <tag k="oneway" v="1"/>
  </way>
  <way id="7538973" version="2" timestamp="2008-04-05T14:37:09Z" uid="8619" user="cetest" changeset="51307">
    <nd ref="44850253"/>
    <nd ref="44850699"/>
    <tag k="AND_nosr_r" v="15079171"/>
    <tag k="highway" v="unclassified"/>
    <tag k="name" v="Cameretten"/>
  </way>
  <way id="7538974" version="2" timestamp="2008-03-16T20:52:25Z" uid="8619" user="cetest" changeset="334768">
    <nd ref="44849292"/>
    <nd ref="44850700"/>
    <tag k="AND:importance_level" v="5"/>
    <tag k="AND_nosr_r" v="15079170"/>
    <tag k="highway" v="unclassified"/>
    <tag k="name" v="Oude Langendijk"/>
  </way>
  <way id="7538980" version="4" timestamp="2008-11-20T11:21:40Z" uid="8619" user="cetest" changeset="770823">
    <nd ref="44850255"/>
    <nd ref="313288716"/>
    <tag k="AND_nosr_r" v="15079166"/>
    <tag k="bicycle" v="yes"/>
    <tag k="created_by" v="Merkaartor 0.12"/>
    <tag k="highway" v="pedestrian"/>
    <tag k="name" v="Markt"/>
  </way>
  <way id="7538984" version="2" timestamp="2008-04-05T14:37:11Z" uid="8619" user="cetest" changeset="51307">
    <nd ref="44854738"/>
    <nd ref="44855146"/>
    <tag k="AND_nosr_r" v="15079163"/>
    <tag k="highway" v="unclassified"/>
    <tag k="name" v="Heilige Geestkerkhof"/>
  </way>
  <way id="7538986" version="2" timestamp="2008-04-05T14:37:09Z" uid="8619" user="cetest" changeset="51307">
    <nd ref="44851590"/>
    <nd ref="44855146"/>
    <tag k="AND_nosr_r" v="15079162"/>
    <tag k="highway" v="unclassified"/>
    <tag k="name" v="Hippolytusbuurt"/>
    <tag k="oneway" v="1"/>
  </way>
  <way id="7538989" version="2" timestamp="2008-04-06T10:14:19Z" uid="8619" user="cetest" changeset="60539">
    <nd ref="44829659"/>
    <nd ref="44834666"/>
    <nd ref="256021984"/>
    <nd ref="44836973"/>
    <tag k="AND:importance_level" v="4"/>
    <tag k="AND_nosr_r" v="15079160"/>
    <tag k="highway" v="unclassified"/>
    <tag k="name" v="Achterom"/>
    <tag k="oneway" v="1"/>
  </way>
  <way id="7538995" version="4" timestamp="2008-11-23T11:30:14Z" uid="8619" user="cetest" changeset="784304">
    <nd ref="44832718"/>
    <nd ref="311331973"/>
    <nd ref="44837442"/>
    <tag k="AND:importance_level" v="5"/>
    <tag k="AND_nosr_r" v="15079155"/>
    <tag k="created_by" v="Merkaartor 0.12"/>
    <tag k="highway" v="tertiary"/>
    <tag k="name" v="Asvest"/>
    <tag k="oneway" v="no"/>
  </way>
</osm>
