<?xml version='1.0' encoding='UTF-8'?>
<osm version="0.6" generator="libosmium/2.20.0">
  <way id="75514351" version="6" timestamp="2010-10-12T16:23:13Z" uid="115477" user="wowik" changeset="6022357">
    <nd ref="891646322"/>
    <nd ref="945921394"/>
    <nd ref="891646326"/>
    <nd ref="891646331"/>
    <nd ref="891646337"/>
    <nd ref="891646352"/>
    <nd ref="891646356"/>
    <nd ref="891646360"/>
    <nd ref="891646366"/>
    <nd ref="891646372"/>
    <nd ref="891646382"/>
    <nd ref="891646386"/>
    <nd ref="891646322"/>
    <tag k="addr:city" v="Менделеево"/>
    <tag k="addr:district" v="Солнечногорский район"/>
    <tag k="addr:postcode" v="141570"/>
    <tag k="addr:region" v="Московская область"/>
    <tag k="admin_level" v="10"/>
    <tag k="boundary" v="administrative"/>
    <tag k="name" v="Менделеево"/>
    <tag k="place" v="village"/>
  </way>
  <way id="75514351" version="8" timestamp="2010-11-30T11:47:05Z" uid="115477" user="wowik" changeset="6493759">
    <nd ref="891646322"/>
    <nd ref="945921394"/>
    <nd ref="891646326"/>
    <nd ref="891646331"/>
    <nd ref="891646337"/>
    <nd ref="891646352"/>
    <nd ref="891646356"/>
    <nd ref="891646360"/>
    <nd ref="891646366"/>
    <nd ref="891646372"/>
    <nd ref="891646382"/>
    <nd ref="891646386"/>
    <nd ref="891646322"/>
    <tag k="addr:city" v="Менделеево"/>
    <tag k="addr:district" v="Солнечногорский район"/>
    <tag k="addr:postcode" v="141570"/>
    <tag k="addr:region" v="Московская область"/>
    <tag k="boundary" v="administrative"/>
    <tag k="name" v="Менделеево"/>
    <tag k="place" v="village"/>
  </way>
  <way id="75514370" version="1" timestamp="2010-09-01T10:56:56Z" uid="115477" user="wowik" changeset="5652928">
    <nd ref="667862663"/>
    <nd ref="891646656"/>
    <nd ref="891646661"/>
    <nd ref="891646664"/>
    <nd ref="891646628"/>
    <tag k="highway" v="service"/>
    <tag k="living_street" v="yes"/>
  </way>
  <way id="75514592" version="1" timestamp="2010-09-01T10:59:05Z" uid="115477" user="wowik" changeset="5652928">
    <nd ref="891652512"/>
    <nd ref="891652475"/>
    <tag k="highway" v="service"/>
    <tag k="living_street" v="yes"/>
  </way>
  <way id="75514592" version="7" timestamp="2010-11-13T10:45:54Z" uid="115477" user="wowik" changeset="6356871">
    <nd ref="922741199"/>
    <nd ref="922741200"/>
    <nd ref="922741201"/>
    <nd ref="922741202"/>
    <nd ref="922741207"/>
    <nd ref="922741212"/>
    <nd ref="922741217"/>
    <nd ref="922741218"/>
    <nd ref="922741219"/>
    <nd ref="922741220"/>
    <nd ref="922741223"/>
    <nd ref="922741227"/>
    <nd ref="922741230"/>
    <nd ref="891652512"/>
    <nd ref="922741199"/>
    <nd ref="922752325"/>
    <nd ref="945129180"/>
    <nd ref="891652475"/>
    <tag k="highway" v="service"/>
    <tag k="living_street" v="yes"/>
    <tag k="name" v="20-й Микрорайон"/>
    <tag k="service" v="alley"/>
  </way>
  <way id="75514592" version="9" timestamp="2011-01-20T14:51:57Z" uid="115477" user="wowik" changeset="7031231">
    <nd ref="922741199"/>
    <nd ref="922741200"/>
    <nd ref="922741201"/>
    <nd ref="922741202"/>
    <nd ref="922741207"/>
    <nd ref="922741217"/>
    <nd ref="922741218"/>
    <nd ref="922741220"/>
    <nd ref="922741223"/>
    <nd ref="922741230"/>
    <nd ref="891652512"/>
    <nd ref="922741199"/>
    <nd ref="922752325"/>
    <nd ref="945129180"/>
    <nd ref="891652475"/>
    <nd ref="1011186313"/>
    <tag k="highway" v="service"/>
    <tag k="living_street" v="yes"/>
  </way>
  <way id="75514593" version="1" timestamp="2010-09-01T10:59:05Z" uid="115477" user="wowik" changeset="5652928">
    <nd ref="891652523"/>
    <nd ref="891652480"/>
    <tag k="highway" v="service"/>
    <tag k="living_street" v="yes"/>
  </way>
  <way id="75514593" version="3" timestamp="2011-01-20T14:51:07Z" uid="115477" user="wowik" changeset="7031231">
    <nd ref="922743220"/>
    <nd ref="891652480"/>
    <tag k="highway" v="service"/>
    <tag k="living_street" v="yes"/>
  </way>
  <way id="75514595" version="1" timestamp="2010-09-01T10:59:05Z" uid="115477" user="wowik" changeset="5652928">
    <nd ref="891652530"/>
    <nd ref="891652484"/>
    <tag k="highway" v="service"/>
    <tag k="living_street" v="yes"/>
  </way>
  <way id="75514639" version="1" timestamp="2010-09-01T10:59:31Z" uid="115477" user="wowik" changeset="5652928">
    <nd ref="891653881"/>
    <nd ref="891653853"/>
    <tag k="highway" v="service"/>
    <tag k="living_street" v="yes"/>
  </way>
</osm>
