<?xml version='1.0' encoding='UTF-8'?>
<osm version="0.6" generator="libosmium/2.20.0">
  <way id="7563201" version="12" timestamp="2011-05-21T21:30:24Z" uid="8619" user="cetest" changeset="8211004">
    <nd ref="44097473"/>
    <nd ref="1112009011"/>
    <nd ref="44096710"/>
    <nd ref="1112009000"/>
    <nd ref="44096412"/>
    <nd ref="1112008996"/>
    <nd ref="44094150"/>
    <nd ref="1295412140"/>
    <nd ref="44092249"/>
    <nd ref="44091255"/>
    <nd ref="44090535"/>
    <nd ref="44090214"/>
    <nd ref="44090216"/>
    <nd ref="1112008957"/>
    <nd ref="1112008933"/>
    <nd ref="44090537"/>
    <tag k="AND:importance_level" v="5;4;5;5"/>
    <tag k="AND_nosr_r" v="15059050;15049102;15059047;15059048;15059074;15059332;15059326;15059325"/>
    <tag k="highway" v="unclassified"/>
    <tag k="name" v="Drieendijk"/>
    <tag k="oneway" v="no"/>
  </way>
  <way id="7563245" version="2" timestamp="2008-03-30T10:51:55Z" uid="8619" user="cetest" changeset="428060">
    <nd ref="44435532"/>
    <nd ref="44440142"/>
    <nd ref="44442627"/>
    <nd ref="44444058"/>
    <tag k="AND:importance_level" v="5"/>
    <tag k="AND_nosr_r" v="15059013"/>
    <tag k="highway" v="cycleway"/>
    <tag k="name" v="Trekkade"/>
  </way>
  <way id="7563260" version="2" timestamp="2008-03-24T15:16:50Z" uid="8619" user="cetest" changeset="386576">
    <nd ref="44465770"/>
    <nd ref="44468262"/>
    <tag k="AND:importance_level" v="5"/>
    <tag k="AND_nosr_r" v="15059000"/>
    <tag k="highway" v="footway"/>
  </way>
  <way id="7563267" version="2" timestamp="2008-03-24T15:16:49Z" uid="8619" user="cetest" changeset="386576">
    <nd ref="44468262"/>
    <nd ref="44468944"/>
    <nd ref="44470694"/>
    <nd ref="44473013"/>
    <tag k="AND:importance_level" v="5"/>
    <tag k="AND_nosr_r" v="15058994"/>
    <tag k="highway" v="footway"/>
  </way>
  <way id="7563268" version="2" timestamp="2008-03-24T15:16:51Z" uid="8619" user="cetest" changeset="386576">
    <nd ref="44482269"/>
    <nd ref="44483908"/>
    <nd ref="44485686"/>
    <nd ref="44486220"/>
    <nd ref="44485685"/>
    <nd ref="44486720"/>
    <nd ref="44489520"/>
    <nd ref="44492617"/>
    <tag k="AND:importance_level" v="5"/>
    <tag k="AND_nosr_r" v="15058993"/>
    <tag k="highway" v="footway"/>
  </way>
  <way id="7563272" version="2" timestamp="2008-03-24T15:16:49Z" uid="8619" user="cetest" changeset="386576">
    <nd ref="44460042"/>
    <nd ref="44459419"/>
    <nd ref="44459420"/>
    <nd ref="44460582"/>
    <nd ref="44461122"/>
    <tag k="AND:importance_level" v="5"/>
    <tag k="AND_nosr_r" v="15058989"/>
    <tag k="highway" v="footway"/>
  </way>
  <way id="7563280" version="2" timestamp="2008-03-24T15:16:50Z" uid="8619" user="cetest" changeset="386576">
    <nd ref="44460042"/>
    <nd ref="44463206"/>
    <nd ref="44463767"/>
    <nd ref="44463769"/>
    <tag k="AND:importance_level" v="5"/>
    <tag k="AND_nosr_r" v="15058983"/>
    <tag k="highway" v="footway"/>
  </way>
  <way id="7563282" version="2" timestamp="2008-03-30T10:51:55Z" uid="8619" user="cetest" changeset="428060">
    <nd ref="44473703"/>
    <nd ref="44481792"/>
    <nd ref="44482271"/>
    <nd ref="44485689"/>
    <nd ref="44488919"/>
    <nd ref="44490010"/>
    <nd ref="44494983"/>
    <nd ref="44495948"/>
    <tag k="AND:importance_level" v="5"/>
    <tag k="AND_nosr_r" v="15058981"/>
    <tag k="highway" v="cycleway"/>
  </way>
  <way id="7563288" version="2" timestamp="2008-03-30T10:51:59Z" uid="8619" user="cetest" changeset="428060">
    <nd ref="44496854"/>
    <nd ref="44506944"/>
    <nd ref="44507501"/>
    <nd ref="44513588"/>
    <tag k="AND:importance_level" v="5"/>
    <tag k="AND_nosr_r" v="15058976"/>
    <tag k="highway" v="unclassified"/>
    <tag k="name" v="Kwakelweg"/>
  </way>
  <way id="7563304" version="2" timestamp="2008-03-24T15:16:50Z" uid="8619" user="cetest" changeset="386576">
    <nd ref="44461122"/>
    <nd ref="44462674"/>
    <tag k="AND:importance_level" v="5"/>
    <tag k="AND_nosr_r" v="15058961"/>
    <tag k="highway" v="footway"/>
  </way>
  <way id="7563313" version="2" timestamp="2008-03-24T15:16:49Z" uid="8619" user="cetest" changeset="386576">
    <nd ref="44453345"/>
    <nd ref="44453346"/>
    <nd ref="44454909"/>
    <nd ref="44457268"/>
    <nd ref="44460042"/>
    <tag k="AND:importance_level" v="5"/>
    <tag k="AND_nosr_r" v="15058952"/>
    <tag k="highway" v="footway"/>
  </way>
  <way id="7563319" version="2" timestamp="2008-03-30T10:51:48Z" uid="8619" user="cetest" changeset="428060">
    <nd ref="44466421"/>
    <nd ref="44468263"/>
    <nd ref="254863167"/>
    <nd ref="44473703"/>
    <tag k="AND:importance_level" v="5"/>
    <tag k="AND_nosr_r" v="15058946"/>
    <tag k="highway" v="cycleway"/>
    <tag k="name" v="Trekkadepad"/>
  </way>
  <way id="7563320" version="2" timestamp="2008-04-15T18:47:14Z" uid="8619" user="cetest" changeset="154044">
    <nd ref="250045721"/>
    <nd ref="257765826"/>
    <nd ref="257765821"/>
    <nd ref="257765818"/>
    <nd ref="257765815"/>
    <nd ref="257765812"/>
    <nd ref="257765810"/>
    <nd ref="257765806"/>
    <nd ref="257765802"/>
    <nd ref="257765798"/>
    <nd ref="257765795"/>
    <nd ref="257765791"/>
    <nd ref="257765786"/>
    <nd ref="44453914"/>
    <nd ref="44454915"/>
    <tag k="AND:importance_level" v="5"/>
    <tag k="AND_nosr_r" v="15058945"/>
    <tag k="highway" v="cycleway"/>
  </way>
  <way id="7563321" version="2" timestamp="2008-03-30T10:51:57Z" uid="8619" user="cetest" changeset="428060">
    <nd ref="44444058"/>
    <nd ref="44451596"/>
    <nd ref="44454465"/>
    <nd ref="44462179"/>
    <nd ref="44472409"/>
    <nd ref="44481313"/>
    <nd ref="44487311"/>
    <nd ref="44495948"/>
    <tag k="AND:importance_level" v="5"/>
    <tag k="AND_nosr_r" v="15058944"/>
    <tag k="highway" v="footway"/>
  </way>
  <way id="7563322" version="2" timestamp="2008-03-24T15:16:50Z" uid="8619" user="cetest" changeset="386576">
    <nd ref="44468262"/>
    <nd ref="44470069"/>
    <nd ref="44476371"/>
    <nd ref="44476904"/>
    <tag k="AND:importance_level" v="5"/>
    <tag k="AND_nosr_r" v="15058943"/>
    <tag k="highway" v="footway"/>
  </way>
  <way id="7563324" version="2" timestamp="2008-03-24T15:16:50Z" uid="8619" user="cetest" changeset="386576">
    <nd ref="44448782"/>
    <nd ref="44448786"/>
    <nd ref="44446769"/>
    <nd ref="44451595"/>
    <nd ref="44453345"/>
    <tag k="AND:importance_level" v="5"/>
    <tag k="AND_nosr_r" v="15058941"/>
    <tag k="highway" v="footway"/>
  </way>
  <way id="7563326" version="2" timestamp="2008-03-24T15:16:49Z" uid="8619" user="cetest" changeset="386576">
    <nd ref="44463771"/>
    <nd ref="44463774"/>
    <nd ref="44464456"/>
    <nd ref="44465771"/>
    <nd ref="44467055"/>
    <nd ref="44467667"/>
    <nd ref="44468262"/>
    <tag k="AND:importance_level" v="5"/>
    <tag k="AND_nosr_r" v="15058939"/>
    <tag k="highway" v="footway"/>
  </way>
  <way id="7563360" version="2" timestamp="2008-03-30T10:51:47Z" uid="8619" user="cetest" changeset="428060">
    <nd ref="44460584"/>
    <nd ref="44465149"/>
    <nd ref="44466421"/>
    <tag k="AND:importance_level" v="5"/>
    <tag k="AND_nosr_r" v="15058910"/>
    <tag k="highway" v="cycleway"/>
    <tag k="name" v="Trekkadepad"/>
  </way>
  <way id="7563366" version="2" timestamp="2008-03-30T10:51:53Z" uid="8619" user="cetest" changeset="428060">
    <nd ref="44444058"/>
    <nd ref="44445166"/>
    <nd ref="44449349"/>
    <nd ref="44460044"/>
    <nd ref="44460584"/>
    <tag k="AND:importance_level" v="5"/>
    <tag k="AND_nosr_r" v="15058904"/>
    <tag k="highway" v="cycleway"/>
    <tag k="name" v="Trekkadepad"/>
  </way>
  <way id="7563388" version="2" timestamp="2008-04-30T07:26:56Z" uid="8619" user="cetest" changeset="290668">
    <nd ref="44516299"/>
    <nd ref="44518355"/>
    <nd ref="44520468"/>
    <nd ref="44523528"/>
    <nd ref="44524573"/>
    <nd ref="44526180"/>
    <nd ref="44527210"/>
    <nd ref="44529165"/>
    <nd ref="44534817"/>
    <nd ref="44535941"/>
    <tag k="AND:importance_level" v="4"/>
    <tag k="AND_nosr_r" v="15058886"/>
    <tag k="highway" v="secondary"/>
    <tag k="name" v="Molenweg"/>
    <tag k="ref" v="N468"/>
  </way>
  <way id="7563395" version="2" timestamp="2008-03-08T14:38:01Z" uid="8619" user="cetest" changeset="285059">
    <nd ref="44588914"/>
    <nd ref="44590239"/>
    <nd ref="44591641"/>
    <nd ref="44598159"/>
    <nd ref="44599691"/>
    <tag k="AND:importance_level" v="5"/>
    <tag k="AND_nosr_r" v="15058881"/>
    <tag k="highway" v="cycleway"/>
  </way>
  <way id="7563398" version="2" timestamp="2008-03-08T14:38:01Z" uid="8619" user="cetest" changeset="285059">
    <nd ref="44572699"/>
    <nd ref="44574247"/>
    <nd ref="44580041"/>
    <nd ref="44583909"/>
    <nd ref="44588914"/>
    <tag k="AND:importance_level" v="5"/>
    <tag k="AND_nosr_r" v="15058879"/>
    <tag k="highway" v="cycleway"/>
  </way>
  <way id="7563398" version="3" timestamp="2008-03-09T09:22:03Z" uid="8619" user="cetest" changeset="290803">
    <nd ref="44572699"/>
    <nd ref="251289402"/>
    <tag k="AND:importance_level" v="5"/>
    <tag k="AND_nosr_r" v="15058879"/>
    <tag k="highway" v="cycleway"/>
  </way>
  <way id="7563404" version="2" timestamp="2008-03-30T10:51:52Z" uid="8619" user="cetest" changeset="428060">
    <nd ref="44552180"/>
    <nd ref="44553075"/>
    <nd ref="44554756"/>
    <nd ref="44555703"/>
    <nd ref="44557402"/>
    <nd ref="44558338"/>
    <nd ref="44559324"/>
    <nd ref="44561301"/>
    <nd ref="44561303"/>
    <tag k="AND:importance_level" v="5"/>
    <tag k="AND_nosr_r" v="15058875"/>
    <tag k="highway" v="cycleway"/>
  </way>
  <way id="7563413" version="2" timestamp="2008-03-09T09:22:03Z" uid="8619" user="cetest" changeset="290803">
    <nd ref="44571790"/>
    <nd ref="44572699"/>
    <tag k="AND:importance_level" v="5"/>
    <tag k="AND_nosr_r" v="15058867"/>
    <tag k="bridge" v="yes"/>
    <tag k="highway" v="cycleway"/>
    <tag k="layer" v="1"/>
  </way>
  <way id="7563417" version="2" timestamp="2008-03-08T14:36:56Z" uid="8619" user="cetest" changeset="285059">
    <nd ref="44552180"/>
    <nd ref="44555228"/>
    <nd ref="44556148"/>
    <nd ref="44557403"/>
    <nd ref="44565957"/>
    <nd ref="44569803"/>
    <nd ref="44571790"/>
    <tag k="AND:importance_level" v="5"/>
    <tag k="AND_nosr_r" v="15058864"/>
    <tag k="highway" v="cycleway"/>
  </way>
  <way id="7563425" version="2" timestamp="2008-03-30T10:51:54Z" uid="8619" user="cetest" changeset="428060">
    <nd ref="44540096"/>
    <nd ref="44544539"/>
    <nd ref="44545651"/>
    <nd ref="44547300"/>
    <nd ref="44549925"/>
    <nd ref="44550855"/>
    <nd ref="44552180"/>
    <tag k="AND:importance_level" v="5"/>
    <tag k="AND_nosr_r" v="15058858"/>
    <tag k="highway" v="cycleway"/>
  </way>
  <way id="7563426" version="2" timestamp="2008-03-09T09:22:03Z" uid="8619" user="cetest" changeset="290803">
    <nd ref="44551783"/>
    <nd ref="44552180"/>
    <tag k="AND:importance_level" v="5"/>
    <tag k="AND_nosr_r" v="15058857"/>
    <tag k="highway" v="cycleway"/>
  </way>
  <way id="7563428" version="2" timestamp="2008-03-30T10:51:49Z" uid="8619" user="cetest" changeset="428060">
    <nd ref="44566902"/>
    <nd ref="254863188"/>
    <nd ref="44572699"/>
    <tag k="AND:importance_level" v="5"/>
    <tag k="AND_nosr_r" v="15058856"/>
    <tag k="highway" v="unclassified"/>
    <tag k="name" v="Kwakelweg"/>
  </way>
  <way id="7563433" version="2" timestamp="2008-03-08T14:36:56Z" uid="8619" user="cetest" changeset="285059">
    <nd ref="44551783"/>
    <nd ref="44551779"/>
    <nd ref="44551256"/>
    <nd ref="44552178"/>
    <nd ref="44552617"/>
    <nd ref="44553498"/>
    <nd ref="44555227"/>
    <tag k="AND:importance_level" v="5"/>
    <tag k="AND_nosr_r" v="15058853"/>
    <tag k="highway" v="cycleway"/>
  </way>
  <way id="7563433" version="3" timestamp="2008-03-08T19:22:16Z" uid="8619" user="cetest" changeset="286842">
    <nd ref="44551783"/>
    <nd ref="44551779"/>
    <nd ref="44551256"/>
    <tag k="AND:importance_level" v="5"/>
    <tag k="AND_nosr_r" v="15058853"/>
    <tag k="highway" v="cycleway"/>
  </way>
  <way id="7563434" version="2" timestamp="2008-04-02T12:27:13Z" uid="8619" user="cetest" changeset="16181">
    <nd ref="44561303"/>
    <nd ref="44561834"/>
    <nd ref="44564825"/>
    <nd ref="44569329"/>
    <nd ref="44572194"/>
    <nd ref="44575419"/>
    <tag k="AND:importance_level" v="5"/>
    <tag k="AND_nosr_r" v="15058852"/>
    <tag k="highway" v="cycleway"/>
  </way>
  <way id="7563435" version="2" timestamp="2008-04-30T07:26:52Z" uid="8619" user="cetest" changeset="290668">
    <nd ref="44576360"/>
    <nd ref="44579023"/>
    <nd ref="44580038"/>
    <nd ref="44580541"/>
    <nd ref="44581659"/>
    <nd ref="44583307"/>
    <nd ref="44583905"/>
    <nd ref="44584980"/>
    <nd ref="44588439"/>
    <nd ref="44590723"/>
    <tag k="AND:importance_level" v="4"/>
    <tag k="AND_nosr_r" v="15058851"/>
    <tag k="highway" v="secondary"/>
    <tag k="name" v="Oostgaag"/>
    <tag k="ref" v="N468"/>
  </way>
  <way id="7563437" version="2" timestamp="2008-04-30T07:26:50Z" uid="8619" user="cetest" changeset="290668">
    <nd ref="44568368"/>
    <nd ref="44569327"/>
    <nd ref="44571338"/>
    <nd ref="44571788"/>
    <nd ref="44573721"/>
    <nd ref="44576360"/>
    <tag k="AND:importance_level" v="4"/>
    <tag k="AND_nosr_r" v="15058850"/>
    <tag k="highway" v="secondary"/>
    <tag k="name" v="Oostgaag"/>
    <tag k="ref" v="N468"/>
  </way>
  <way id="7563438" version="2" timestamp="2008-04-30T07:26:54Z" uid="8619" user="cetest" changeset="290668">
    <nd ref="44567452"/>
    <nd ref="44568368"/>
    <tag k="AND:importance_level" v="4"/>
    <tag k="AND_nosr_r" v="15058849"/>
    <tag k="highway" v="secondary"/>
    <tag k="name" v="Oostgaag"/>
    <tag k="ref" v="N468"/>
  </way>
  <way id="7563439" version="2" timestamp="2008-04-30T07:26:50Z" uid="8619" user="cetest" changeset="290668">
    <nd ref="44590723"/>
    <nd ref="44599219"/>
    <nd ref="44600748"/>
    <tag k="AND:importance_level" v="4"/>
    <tag k="AND_nosr_r" v="15058848"/>
    <tag k="highway" v="secondary"/>
    <tag k="name" v="Oostgaag"/>
    <tag k="ref" v="N468"/>
  </way>
  <way id="7563440" version="2" timestamp="2008-04-30T07:26:51Z" uid="8619" user="cetest" changeset="290668">
    <nd ref="44566409"/>
    <nd ref="44567452"/>
    <tag k="AND:importance_level" v="4"/>
    <tag k="AND_nosr_r" v="15058847"/>
    <tag k="bridge" v="yes"/>
    <tag k="highway" v="secondary"/>
    <tag k="layer" v="1"/>
    <tag k="name" v="Oostgaag"/>
    <tag k="ref" v="N468"/>
  </way>
  <way id="7563442" version="2" timestamp="2008-04-30T07:26:53Z" uid="8619" user="cetest" changeset="290668">
    <nd ref="44600748"/>
    <nd ref="44603475"/>
    <tag k="AND:importance_level" v="4"/>
    <tag k="AND_nosr_r" v="15058846"/>
    <tag k="highway" v="secondary"/>
    <tag k="name" v="Oostgaag"/>
    <tag k="ref" v="N468"/>
  </way>
  <way id="7563443" version="2" timestamp="2008-04-30T07:26:49Z" uid="8619" user="cetest" changeset="290668">
    <nd ref="44603475"/>
    <nd ref="44605636"/>
    <tag k="AND:importance_level" v="4"/>
    <tag k="AND_nosr_r" v="15058845"/>
    <tag k="highway" v="secondary"/>
    <tag k="name" v="Oostgaag"/>
    <tag k="ref" v="N468"/>
  </way>
  <way id="7563444" version="2" timestamp="2008-04-30T07:26:52Z" uid="8619" user="cetest" changeset="290668">
    <nd ref="44562336"/>
    <nd ref="44562854"/>
    <nd ref="44563419"/>
    <nd ref="44564342"/>
    <nd ref="44566409"/>
    <tag k="AND:importance_level" v="4"/>
    <tag k="AND_nosr_r" v="15058844"/>
    <tag k="highway" v="secondary"/>
    <tag k="name" v="Oostgaag"/>
    <tag k="ref" v="N468"/>
  </way>
  <way id="7563445" version="2" timestamp="2008-04-30T07:26:59Z" uid="8619" user="cetest" changeset="290668">
    <nd ref="44561299"/>
    <nd ref="44562336"/>
    <tag k="AND:importance_level" v="4"/>
    <tag k="AND_nosr_r" v="15058843"/>
    <tag k="highway" v="secondary"/>
    <tag k="name" v="Oostgaag"/>
    <tag k="ref" v="N468"/>
  </way>
  <way id="7563446" version="2" timestamp="2008-04-30T07:26:54Z" uid="8619" user="cetest" changeset="290668">
    <nd ref="44559757"/>
    <nd ref="44559758"/>
    <nd ref="44561299"/>
    <tag k="AND:importance_level" v="4"/>
    <tag k="AND_nosr_r" v="15058842"/>
    <tag k="highway" v="secondary"/>
    <tag k="name" v="Oostgaag"/>
    <tag k="ref" v="N468"/>
  </way>
  <way id="7563447" version="2" timestamp="2008-04-30T07:26:55Z" uid="8619" user="cetest" changeset="290668">
    <nd ref="44558777"/>
    <nd ref="44559323"/>
    <nd ref="44559757"/>
    <tag k="AND:importance_level" v="4"/>
    <tag k="AND_nosr_r" v="15058841"/>
    <tag k="highway" v="secondary"/>
    <tag k="name" v="Oostgaag"/>
    <tag k="ref" v="N468"/>
  </way>
  <way id="7563448" version="2" timestamp="2008-04-30T07:26:57Z" uid="8619" user="cetest" changeset="290668">
    <nd ref="44551783"/>
    <nd ref="44552619"/>
    <nd ref="44553074"/>
    <nd ref="44554308"/>
    <nd ref="44554754"/>
    <nd ref="44555701"/>
    <nd ref="44556145"/>
    <nd ref="44557400"/>
    <nd ref="44557868"/>
    <nd ref="44558777"/>
    <tag k="AND:importance_level" v="4"/>
    <tag k="AND_nosr_r" v="15058840"/>
    <tag k="highway" v="secondary"/>
    <tag k="name" v="Molenweg"/>
    <tag k="ref" v="N468"/>
  </way>
  <way id="7563449" version="2" timestamp="2008-04-30T07:26:58Z" uid="8619" user="cetest" changeset="290668">
    <nd ref="44535941"/>
    <nd ref="44536896"/>
    <nd ref="44540094"/>
    <nd ref="44550360"/>
    <nd ref="44551783"/>
    <tag k="AND:importance_level" v="4"/>
    <tag k="AND_nosr_r" v="15058839"/>
    <tag k="highway" v="secondary"/>
    <tag k="name" v="Molenweg"/>
    <tag k="ref" v="N468"/>
  </way>
  <way id="7563450" version="2" timestamp="2008-04-09T15:18:01Z" uid="8619" user="cetest" changeset="93557">
    <nd ref="44526177"/>
    <nd ref="44527780"/>
    <nd ref="44529164"/>
    <nd ref="44530504"/>
    <nd ref="44531870"/>
    <nd ref="44533326"/>
    <nd ref="256581114"/>
    <nd ref="44535330"/>
    <tag k="AND:importance_level" v="5"/>
    <tag k="AND_nosr_r" v="15058838"/>
    <tag k="highway" v="tertiary"/>
    <tag k="name" v="Westgaag"/>
  </way>
  <way id="7563450" version="3" timestamp="2008-04-11T19:34:15Z" uid="8619" user="cetest" changeset="113957">
    <nd ref="44526177"/>
    <nd ref="44527780"/>
    <nd ref="44529164"/>
    <nd ref="44530504"/>
    <nd ref="44531870"/>
    <nd ref="44533326"/>
    <nd ref="256581114"/>
    <tag k="AND:importance_level" v="5"/>
    <tag k="AND_nosr_r" v="15058838"/>
    <tag k="highway" v="tertiary"/>
    <tag k="name" v="Westgaag"/>
  </way>
  <way id="7563456" version="2" timestamp="2008-04-30T07:27:03Z" uid="8619" user="cetest" changeset="290668">
    <nd ref="44498502"/>
    <nd ref="44502151"/>
    <nd ref="44506399"/>
    <nd ref="44508971"/>
    <nd ref="44511039"/>
    <nd ref="44512454"/>
    <nd ref="44514732"/>
    <nd ref="44516299"/>
    <tag k="AND:importance_level" v="4"/>
    <tag k="AND_nosr_r" v="15058834"/>
    <tag k="highway" v="secondary"/>
    <tag k="name" v="Molenweg"/>
    <tag k="ref" v="N468"/>
  </way>
  <way id="7563462" version="2" timestamp="2008-04-09T15:18:02Z" uid="8619" user="cetest" changeset="93557">
    <nd ref="44553496"/>
    <nd ref="44555225"/>
    <nd ref="44558334"/>
    <nd ref="44559754"/>
    <nd ref="44564337"/>
    <nd ref="256581115"/>
    <nd ref="44567902"/>
    <tag k="AND:importance_level" v="5"/>
    <tag k="AND_nosr_r" v="15058829"/>
    <tag k="highway" v="unclassified"/>
    <tag k="name" v="Herenwerf"/>
  </way>
  <way id="7563466" version="2" timestamp="2008-03-08T14:35:40Z" uid="8619" user="cetest" changeset="285059">
    <nd ref="44600746"/>
    <nd ref="44603473"/>
    <tag k="AND:importance_level" v="5"/>
    <tag k="AND_nosr_r" v="15058825"/>
    <tag k="bridge" v="yes"/>
    <tag k="highway" v="cycleway"/>
    <tag k="layer" v="1"/>
    <tag k="name" v="Kralingerpad"/>
  </way>
  <way id="7563472" version="2" timestamp="2008-03-08T14:35:40Z" uid="8619" user="cetest" changeset="285059">
    <nd ref="44555227"/>
    <nd ref="44588438"/>
    <nd ref="44592149"/>
    <nd ref="44597209"/>
    <nd ref="44600746"/>
    <tag k="AND:importance_level" v="5"/>
    <tag k="AND_nosr_r" v="15058820"/>
    <tag k="highway" v="cycleway"/>
    <tag k="name" v="Kralingerpad"/>
  </way>
  <way id="7563474" version="2" timestamp="2008-03-08T14:35:40Z" uid="8619" user="cetest" changeset="285059">
    <nd ref="44603473"/>
    <nd ref="44605118"/>
    <tag k="AND:importance_level" v="5"/>
    <tag k="AND_nosr_r" v="15058819"/>
    <tag k="highway" v="cycleway"/>
    <tag k="name" v="Kralingerpad"/>
  </way>
  <way id="7563476" version="2" timestamp="2008-04-09T15:25:21Z" uid="8619" user="cetest" changeset="93557">
    <nd ref="44621819"/>
    <nd ref="44621818"/>
    <tag k="AND:importance_level" v="5"/>
    <tag k="AND_nosr_r" v="15058817"/>
    <tag k="highway" v="unclassified"/>
    <tag k="name" v="Kralingerpad"/>
  </way>
  <way id="7563500" version="2" timestamp="2008-04-09T15:18:02Z" uid="8619" user="cetest" changeset="93557">
    <nd ref="44621819"/>
    <nd ref="44622940"/>
    <nd ref="44632659"/>
    <nd ref="44641912"/>
    <nd ref="44645788"/>
    <nd ref="44645789"/>
    <tag k="AND:importance_level" v="5"/>
    <tag k="AND_nosr_r" v="15058798"/>
    <tag k="highway" v="tertiary"/>
    <tag k="name" v="Kreekrug"/>
  </way>
  <way id="7563501" version="2" timestamp="2008-03-08T19:12:59Z" uid="8619" user="cetest" changeset="286842">
    <nd ref="44605118"/>
    <nd ref="251191203"/>
    <nd ref="44613436"/>
    <nd ref="44620767"/>
    <nd ref="44621819"/>
    <tag k="AND:importance_level" v="5"/>
    <tag k="AND_nosr_r" v="15058797"/>
    <tag k="highway" v="tertiary"/>
    <tag k="name" v="Kralingerpad"/>
  </way>
  <way id="7563503" version="2" timestamp="2008-04-30T07:52:08Z" uid="8619" user="cetest" changeset="290668">
    <nd ref="44404390"/>
    <nd ref="44399315"/>
    <nd ref="44396008"/>
    <tag k="AND:importance_level" v="2"/>
    <tag k="AND_nosr_r" v="15058796"/>
    <tag k="highway" v="secondary"/>
    <tag k="name" v="Laan 1940 1945"/>
    <tag k="oneway" v="1"/>
  </way>
  <way id="7563504" version="2" timestamp="2008-04-30T07:52:10Z" uid="8619" user="cetest" changeset="290668">
    <nd ref="44395601"/>
    <nd ref="44403882"/>
    <tag k="AND:importance_level" v="2"/>
    <tag k="AND_nosr_r" v="15058795"/>
    <tag k="highway" v="secondary"/>
    <tag k="name" v="Laan 1940 1945"/>
    <tag k="oneway" v="1"/>
  </way>
  <way id="7563674" version="2" timestamp="2008-03-30T10:51:46Z" uid="8619" user="cetest" changeset="428060">
    <nd ref="44424718"/>
    <nd ref="254863203"/>
    <nd ref="44425652"/>
    <tag k="AND:importance_level" v="5"/>
    <tag k="AND_nosr_r" v="15058650"/>
    <tag k="highway" v="unclassified"/>
  </way>
  <way id="7563726" version="2" timestamp="2008-03-08T11:19:57Z" uid="8619" user="cetest" changeset="284136">
    <nd ref="44428451"/>
    <nd ref="44428945"/>
    <nd ref="44430787"/>
    <nd ref="44432083"/>
    <nd ref="44433274"/>
    <nd ref="44433746"/>
    <tag k="AND:importance_level" v="5"/>
    <tag k="AND_nosr_r" v="15058610"/>
    <tag k="highway" v="cycleway"/>
    <tag k="name" v="Maassluiseweg"/>
  </way>
  <way id="7563736" version="2" timestamp="2008-04-15T18:47:15Z" uid="8619" user="cetest" changeset="154044"/>
  <way id="7563738" version="2" timestamp="2008-04-15T18:47:16Z" uid="8619" user="cetest" changeset="154044"/>
  <way id="7563743" version="2" timestamp="2008-03-30T10:52:01Z" uid="8619" user="cetest" changeset="428060"/>
  <way id="7563744" version="2" timestamp="2008-03-30T10:52:00Z" uid="8619" user="cetest" changeset="428060"/>
  <way id="7563753" version="2" timestamp="2008-04-30T07:26:37Z" uid="8619" user="cetest" changeset="290668">
    <nd ref="44444671"/>
    <nd ref="44449340"/>
    <tag k="AND:importance_level" v="5"/>
    <tag k="AND_nosr_r" v="15058586"/>
    <tag k="highway" v="secondary"/>
    <tag k="name" v="Kerkweg"/>
    <tag k="ref" v="N468"/>
  </way>
  <way id="7563767" version="2" timestamp="2008-04-30T07:26:38Z" uid="8619" user="cetest" changeset="290668">
    <nd ref="44441173"/>
    <nd ref="44442626"/>
    <tag k="AND:importance_level" v="5"/>
    <tag k="AND_nosr_r" v="15058577"/>
    <tag k="highway" v="secondary"/>
    <tag k="name" v="Kerkweg"/>
    <tag k="ref" v="N468"/>
  </way>
  <way id="7563770" version="2" timestamp="2008-04-30T07:26:39Z" uid="8619" user="cetest" changeset="290668">
    <nd ref="44442626"/>
    <nd ref="44444671"/>
    <tag k="AND:importance_level" v="5"/>
    <tag k="AND_nosr_r" v="15058574"/>
    <tag k="highway" v="secondary"/>
    <tag k="name" v="Kerkweg"/>
    <tag k="ref" v="N468"/>
  </way>
  <way id="7563773" version="2" timestamp="2008-04-30T07:27:04Z" uid="8619" user="cetest" changeset="290668">
    <nd ref="44423340"/>
    <nd ref="44422415"/>
    <tag k="AND:importance_level" v="4"/>
    <tag k="AND_nosr_r" v="15058571"/>
    <tag k="highway" v="secondary"/>
    <tag k="name" v="Oude Veiling"/>
    <tag k="oneway" v="1"/>
    <tag k="ref" v="N468"/>
  </way>
  <way id="7563774" version="2" timestamp="2008-04-30T07:27:06Z" uid="8619" user="cetest" changeset="290668">
    <nd ref="44424720"/>
    <nd ref="44425654"/>
    <nd ref="44427937"/>
    <tag k="AND:importance_level" v="4"/>
    <tag k="AND_nosr_r" v="15058570"/>
    <tag k="highway" v="secondary"/>
    <tag k="name" v="Oude Veiling"/>
    <tag k="oneway" v="1"/>
    <tag k="ref" v="N468"/>
  </way>
  <way id="7563778" version="2" timestamp="2008-04-30T07:27:12Z" uid="8619" user="cetest" changeset="290668">
    <nd ref="44421946"/>
    <nd ref="44424720"/>
    <tag k="AND:importance_level" v="4"/>
    <tag k="AND_nosr_r" v="15058566"/>
    <tag k="highway" v="secondary"/>
    <tag k="name" v="Oude Veiling"/>
    <tag k="oneway" v="1"/>
    <tag k="ref" v="N468"/>
  </way>
  <way id="7563779" version="2" timestamp="2008-04-30T07:27:05Z" uid="8619" user="cetest" changeset="290668">
    <nd ref="44424718"/>
    <nd ref="44423340"/>
    <tag k="AND:importance_level" v="4"/>
    <tag k="AND_nosr_r" v="15058565"/>
    <tag k="highway" v="secondary"/>
    <tag k="name" v="Oude Veiling"/>
    <tag k="oneway" v="1"/>
    <tag k="ref" v="N468"/>
  </way>
  <way id="7563780" version="2" timestamp="2008-04-30T07:27:07Z" uid="8619" user="cetest" changeset="290668">
    <nd ref="44427937"/>
    <nd ref="44424718"/>
    <tag k="AND:importance_level" v="4"/>
    <tag k="AND_nosr_r" v="15058564"/>
    <tag k="highway" v="secondary"/>
    <tag k="name" v="Oude Veiling"/>
    <tag k="oneway" v="1"/>
    <tag k="ref" v="N468"/>
  </way>
  <way id="7563782" version="2" timestamp="2008-04-30T07:27:00Z" uid="8619" user="cetest" changeset="290668">
    <nd ref="44429418"/>
    <nd ref="44432538"/>
    <tag k="AND:importance_level" v="4"/>
    <tag k="AND_nosr_r" v="15058562"/>
    <tag k="bridge" v="yes"/>
    <tag k="highway" v="secondary"/>
    <tag k="layer" v="1"/>
    <tag k="name" v="Oude Veiling"/>
    <tag k="ref" v="N468"/>
  </way>
  <way id="7563783" version="2" timestamp="2008-03-09T09:41:44Z" uid="8619" user="cetest" changeset="290803">
    <nd ref="44427937"/>
    <nd ref="251291710"/>
    <tag k="AND:importance_level" v="4"/>
    <tag k="AND_nosr_r" v="15058561"/>
    <tag k="highway" v="secondary"/>
    <tag k="name" v="Oude Veiling"/>
    <tag k="ref" v="N468"/>
  </way>
  <way id="7563783" version="3" timestamp="2008-04-30T07:27:11Z" uid="8619" user="cetest" changeset="290668">
    <nd ref="44427937"/>
    <nd ref="251291710"/>
    <tag k="AND:importance_level" v="4"/>
    <tag k="AND_nosr_r" v="15058561"/>
    <tag k="highway" v="secondary"/>
    <tag k="name" v="Oude Veiling"/>
    <tag k="ref" v="N468"/>
  </way>
  <way id="7563785" version="2" timestamp="2008-03-30T10:51:58Z" uid="8619" user="cetest" changeset="428060">
    <nd ref="44432538"/>
    <nd ref="254863165"/>
    <nd ref="44434362"/>
    <tag k="AND:importance_level" v="4"/>
    <tag k="AND_nosr_r" v="15058559"/>
    <tag k="highway" v="secondary"/>
    <tag k="name" v="Oude Veiling"/>
    <tag k="ref" v="N468"/>
  </way>
  <way id="7563785" version="3" timestamp="2008-03-30T12:31:53Z" uid="8619" user="cetest" changeset="428060">
    <nd ref="44432538"/>
    <nd ref="254863165"/>
    <tag k="AND:importance_level" v="4"/>
    <tag k="AND_nosr_r" v="15058559"/>
    <tag k="highway" v="secondary"/>
    <tag k="name" v="Oude Veiling"/>
    <tag k="ref" v="N468"/>
  </way>
  <way id="7563785" version="4" timestamp="2008-04-30T07:27:00Z" uid="8619" user="cetest" changeset="290668">
    <nd ref="44432538"/>
    <nd ref="254863165"/>
    <tag k="AND:importance_level" v="4"/>
    <tag k="AND_nosr_r" v="15058559"/>
    <tag k="highway" v="secondary"/>
    <tag k="name" v="Oude Veiling"/>
    <tag k="ref" v="N468"/>
  </way>
  <way id="7563786" version="2" timestamp="2008-04-30T07:26:40Z" uid="8619" user="cetest" changeset="290668">
    <nd ref="44434361"/>
    <nd ref="44434362"/>
    <tag k="AND:importance_level" v="4"/>
    <tag k="AND_nosr_r" v="15058558"/>
    <tag k="highway" v="secondary"/>
    <tag k="name" v="Oude Veiling"/>
    <tag k="ref" v="N468"/>
  </way>
  <way id="7563790" version="2" timestamp="2008-04-30T07:51:51Z" uid="8619" user="cetest" changeset="290668">
    <nd ref="44414911"/>
    <nd ref="44413344"/>
    <tag k="AND:importance_level" v="2"/>
    <tag k="AND_nosr_r" v="15058555"/>
    <tag k="highway" v="secondary"/>
    <tag k="name" v="Laan 1940 1945"/>
    <tag k="oneway" v="1"/>
  </way>
  <way id="7563792" version="2" timestamp="2008-04-30T07:51:51Z" uid="8619" user="cetest" changeset="290668">
    <nd ref="44415813"/>
    <nd ref="44415766"/>
    <tag k="AND:importance_level" v="2"/>
    <tag k="AND_nosr_r" v="15058553"/>
    <tag k="highway" v="secondary"/>
    <tag k="oneway" v="1"/>
  </way>
  <way id="7563794" version="2" timestamp="2008-04-30T07:27:07Z" uid="8619" user="cetest" changeset="290668">
    <nd ref="44415766"/>
    <nd ref="44417426"/>
    <tag k="AND:importance_level" v="2"/>
    <tag k="AND_nosr_r" v="15058552"/>
    <tag k="highway" v="secondary"/>
    <tag k="oneway" v="1"/>
    <tag k="ref" v="N468"/>
  </way>
  <way id="7563796" version="2" timestamp="2008-04-30T07:52:17Z" uid="8619" user="cetest" changeset="290668">
    <nd ref="44403882"/>
    <nd ref="44407198"/>
    <tag k="AND:importance_level" v="2"/>
    <tag k="AND_nosr_r" v="15058550"/>
    <tag k="highway" v="secondary"/>
    <tag k="name" v="Laan 1940 1945"/>
    <tag k="oneway" v="1"/>
  </way>
  <way id="7563797" version="2" timestamp="2008-04-30T07:52:06Z" uid="8619" user="cetest" changeset="290668">
    <nd ref="44407198"/>
    <nd ref="44407241"/>
    <tag k="AND:importance_level" v="2"/>
    <tag k="AND_nosr_r" v="15058549"/>
    <tag k="highway" v="secondary"/>
    <tag k="name" v="Laan 1940 1945"/>
    <tag k="oneway" v="1"/>
  </way>
  <way id="7563798" version="2" timestamp="2008-04-30T07:51:53Z" uid="8619" user="cetest" changeset="290668">
    <nd ref="44407241"/>
    <nd ref="44409156"/>
    <nd ref="44410228"/>
    <tag k="AND:importance_level" v="2"/>
    <tag k="AND_nosr_r" v="15058548"/>
    <tag k="highway" v="secondary"/>
    <tag k="name" v="Laan 1940 1945"/>
    <tag k="oneway" v="1"/>
  </way>
  <way id="7563799" version="2" timestamp="2008-04-30T07:52:08Z" uid="8619" user="cetest" changeset="290668">
    <nd ref="44407748"/>
    <nd ref="44404390"/>
    <tag k="AND:importance_level" v="2"/>
    <tag k="AND_nosr_r" v="15058547"/>
    <tag k="highway" v="secondary"/>
    <tag k="name" v="Laan 1940 1945"/>
    <tag k="oneway" v="1"/>
  </way>
  <way id="7563800" version="2" timestamp="2008-04-30T07:51:52Z" uid="8619" user="cetest" changeset="290668">
    <nd ref="44413344"/>
    <nd ref="44412813"/>
    <nd ref="44411705"/>
    <nd ref="44411238"/>
    <nd ref="44409730"/>
    <nd ref="44408648"/>
    <nd ref="44407748"/>
    <tag k="AND:importance_level" v="2"/>
    <tag k="AND_nosr_r" v="15058546"/>
    <tag k="highway" v="secondary"/>
    <tag k="name" v="Laan 1940 1945"/>
    <tag k="oneway" v="1"/>
  </way>
  <way id="7563801" version="3" timestamp="2008-04-30T07:27:05Z" uid="8619" user="cetest" changeset="290668">
    <nd ref="44417426"/>
    <nd ref="44420457"/>
    <tag k="AND:importance_level" v="2"/>
    <tag k="AND_nosr_r" v="15058545"/>
    <tag k="highway" v="secondary"/>
    <tag k="oneway" v="1"/>
    <tag k="ref" v="N468"/>
  </way>
  <way id="7563802" version="3" timestamp="2008-04-30T07:27:09Z" uid="8619" user="cetest" changeset="290668">
    <nd ref="44420456"/>
    <nd ref="44418064"/>
    <tag k="AND:importance_level" v="2"/>
    <tag k="AND_nosr_r" v="15058544"/>
    <tag k="highway" v="secondary"/>
    <tag k="oneway" v="1"/>
    <tag k="ref" v="N468"/>
  </way>
  <way id="7563803" version="2" timestamp="2008-04-30T07:27:09Z" uid="8619" user="cetest" changeset="290668">
    <nd ref="44420457"/>
    <nd ref="44421946"/>
    <tag k="AND:importance_level" v="2"/>
    <tag k="AND_nosr_r" v="15058543"/>
    <tag k="highway" v="secondary"/>
    <tag k="oneway" v="1"/>
    <tag k="ref" v="N468"/>
  </way>
  <way id="7563804" version="2" timestamp="2008-04-30T07:51:50Z" uid="8619" user="cetest" changeset="290668">
    <nd ref="44415813"/>
    <nd ref="44414911"/>
    <tag k="AND:importance_level" v="2"/>
    <tag k="AND_nosr_r" v="15058542"/>
    <tag k="highway" v="secondary"/>
    <tag k="name" v="Laan 1940 1945"/>
    <tag k="oneway" v="1"/>
  </way>
  <way id="7563806" version="2" timestamp="2008-04-30T07:51:54Z" uid="8619" user="cetest" changeset="290668">
    <nd ref="44410228"/>
    <nd ref="44411240"/>
    <nd ref="44413346"/>
    <nd ref="44415766"/>
    <tag k="AND:importance_level" v="2"/>
    <tag k="AND_nosr_r" v="15058541"/>
    <tag k="highway" v="secondary"/>
    <tag k="name" v="Laan 1940 1945"/>
    <tag k="oneway" v="1"/>
  </way>
  <way id="7563808" version="2" timestamp="2008-04-30T07:27:10Z" uid="8619" user="cetest" changeset="290668">
    <nd ref="44422415"/>
    <nd ref="44420456"/>
    <tag k="AND:importance_level" v="2"/>
    <tag k="AND_nosr_r" v="15058539"/>
    <tag k="highway" v="secondary"/>
    <tag k="oneway" v="1"/>
    <tag k="ref" v="N468"/>
  </way>
  <way id="7563809" version="2" timestamp="2008-04-30T07:27:08Z" uid="8619" user="cetest" changeset="290668">
    <nd ref="44418064"/>
    <nd ref="44415813"/>
    <tag k="AND:importance_level" v="2"/>
    <tag k="AND_nosr_r" v="15058538"/>
    <tag k="highway" v="secondary"/>
    <tag k="oneway" v="1"/>
    <tag k="ref" v="N468"/>
  </way>
  <way id="7563934" version="2" timestamp="2008-03-30T10:51:48Z" uid="8619" user="cetest" changeset="428060">
    <nd ref="44464443"/>
    <nd ref="44468251"/>
    <nd ref="44470687"/>
    <nd ref="44471768"/>
    <tag k="AND:importance_level" v="5"/>
    <tag k="AND_nosr_r" v="15058435"/>
    <tag k="highway" v="cycleway"/>
    <tag k="name" v="Kluiskade"/>
  </way>
</osm>
