<?xml version='1.0' encoding='UTF-8'?>
<osm version="0.6" generator="libosmium/2.20.0">
  <way id="7564024" version="2" timestamp="2008-03-30T10:51:56Z" uid="8619" user="cetest" changeset="428060">
    <nd ref="44458789"/>
    <nd ref="44461114"/>
    <nd ref="44464443"/>
    <tag k="AND:importance_level" v="5"/>
    <tag k="AND_nosr_r" v="15058358"/>
    <tag k="highway" v="cycleway"/>
    <tag k="name" v="Kluiskade"/>
  </way>
  <way id="7564038" version="2" timestamp="2008-04-30T07:26:41Z" uid="8619" user="cetest" changeset="290668">
    <nd ref="44473698"/>
    <nd ref="44475282"/>
    <tag k="AND:importance_level" v="5"/>
    <tag k="AND_nosr_r" v="15058346"/>
    <tag k="highway" v="secondary"/>
    <tag k="name" v="&apos;s Herenstraat"/>
    <tag k="oneway" v="1"/>
    <tag k="ref" v="N468"/>
  </way>
  <way id="7564039" version="2" timestamp="2008-04-30T07:26:41Z" uid="8619" user="cetest" changeset="290668">
    <nd ref="44466401"/>
    <nd ref="44471251"/>
    <nd ref="44472393"/>
    <nd ref="44473698"/>
    <tag k="AND:importance_level" v="5"/>
    <tag k="AND_nosr_r" v="15058345"/>
    <tag k="highway" v="secondary"/>
    <tag k="name" v="&apos;s Herenstraat"/>
    <tag k="oneway" v="1"/>
    <tag k="ref" v="N468"/>
  </way>
  <way id="7564046" version="2" timestamp="2008-04-30T07:26:42Z" uid="8619" user="cetest" changeset="290668">
    <nd ref="44449340"/>
    <nd ref="44456155"/>
    <nd ref="44458259"/>
    <tag k="AND:importance_level" v="5"/>
    <tag k="AND_nosr_r" v="15058340"/>
    <tag k="highway" v="secondary"/>
    <tag k="name" v="Kerkweg"/>
    <tag k="ref" v="N468"/>
  </way>
  <way id="7564051" version="2" timestamp="2008-04-30T07:43:35Z" uid="8619" user="cetest" changeset="290668">
    <nd ref="44494534"/>
    <nd ref="44496378"/>
    <tag k="AND:importance_level" v="5"/>
    <tag k="AND_nosr_r" v="15058335"/>
    <tag k="highway" v="primary"/>
    <tag k="name" v="Prinses Beatrixlaan"/>
    <tag k="ref" v="S15"/>
  </way>
  <way id="7564055" version="2" timestamp="2008-04-30T07:26:43Z" uid="8619" user="cetest" changeset="290668">
    <nd ref="44493537"/>
    <nd ref="44498502"/>
    <tag k="AND:importance_level" v="5"/>
    <tag k="AND_nosr_r" v="15058332"/>
    <tag k="highway" v="secondary"/>
    <tag k="name" v="&apos;s Herenstraat"/>
    <tag k="oneway" v="1"/>
    <tag k="ref" v="N468"/>
  </way>
  <way id="7564056" version="2" timestamp="2008-04-30T07:43:36Z" uid="8619" user="cetest" changeset="290668">
    <nd ref="44496378"/>
    <nd ref="44498500"/>
    <nd ref="44498502"/>
    <tag k="AND:importance_level" v="5"/>
    <tag k="AND_nosr_r" v="15058331"/>
    <tag k="highway" v="primary"/>
    <tag k="name" v="Prinses Beatrixlaan"/>
    <tag k="ref" v="S15"/>
  </way>
  <way id="7564057" version="2" timestamp="2008-04-30T07:26:44Z" uid="8619" user="cetest" changeset="290668">
    <nd ref="44483700"/>
    <nd ref="44484881"/>
    <tag k="AND:importance_level" v="5"/>
    <tag k="AND_nosr_r" v="15058330"/>
    <tag k="highway" v="secondary"/>
    <tag k="name" v="&apos;s Herenstraat"/>
    <tag k="oneway" v="1"/>
    <tag k="ref" v="N468"/>
  </way>
  <way id="7564058" version="2" timestamp="2008-04-30T07:26:44Z" uid="8619" user="cetest" changeset="290668">
    <nd ref="44480777"/>
    <nd ref="44481306"/>
    <nd ref="44482262"/>
    <nd ref="44483700"/>
    <tag k="AND:importance_level" v="5"/>
    <tag k="AND_nosr_r" v="15058329"/>
    <tag k="highway" v="secondary"/>
    <tag k="name" v="&apos;s Herenstraat"/>
    <tag k="oneway" v="1"/>
    <tag k="ref" v="N468"/>
  </way>
  <way id="7564059" version="2" timestamp="2008-04-30T07:26:45Z" uid="8619" user="cetest" changeset="290668">
    <nd ref="44475282"/>
    <nd ref="44479170"/>
    <nd ref="44480777"/>
    <tag k="AND:importance_level" v="5"/>
    <tag k="AND_nosr_r" v="15058328"/>
    <tag k="highway" v="secondary"/>
    <tag k="name" v="&apos;s Herenstraat"/>
    <tag k="oneway" v="1"/>
    <tag k="ref" v="N468"/>
  </way>
  <way id="7564063" version="2" timestamp="2008-04-30T07:26:46Z" uid="8619" user="cetest" changeset="290668">
    <nd ref="44490482"/>
    <nd ref="44493537"/>
    <tag k="AND:importance_level" v="5"/>
    <tag k="AND_nosr_r" v="15058324"/>
    <tag k="highway" v="secondary"/>
    <tag k="name" v="&apos;s Herenstraat"/>
    <tag k="oneway" v="1"/>
    <tag k="ref" v="N468"/>
  </way>
  <way id="7564065" version="2" timestamp="2008-04-30T07:26:46Z" uid="8619" user="cetest" changeset="290668">
    <nd ref="44484881"/>
    <nd ref="44485681"/>
    <tag k="AND:importance_level" v="5"/>
    <tag k="AND_nosr_r" v="15058322"/>
    <tag k="highway" v="secondary"/>
    <tag k="name" v="&apos;s Herenstraat"/>
    <tag k="oneway" v="1"/>
    <tag k="ref" v="N468"/>
  </way>
  <way id="7564072" version="2" timestamp="2008-04-30T07:26:47Z" uid="8619" user="cetest" changeset="290668">
    <nd ref="44485681"/>
    <nd ref="44486216"/>
    <nd ref="44490482"/>
    <tag k="AND:importance_level" v="5"/>
    <tag k="AND_nosr_r" v="15058316"/>
    <tag k="highway" v="secondary"/>
    <tag k="name" v="&apos;s Herenstraat"/>
    <tag k="oneway" v="1"/>
    <tag k="ref" v="N468"/>
  </way>
  <way id="7564115" version="2" timestamp="2008-04-30T07:52:32Z" uid="8619" user="cetest" changeset="290668">
    <nd ref="44389243"/>
    <nd ref="44390333"/>
    <tag k="AND:importance_level" v="2"/>
    <tag k="AND_nosr_r" v="15058277"/>
    <tag k="highway" v="secondary"/>
    <tag k="name" v="Deltaweg"/>
  </way>
  <way id="7564144" version="2" timestamp="2008-03-07T20:00:57Z" uid="8619" user="cetest" changeset="279948">
    <nd ref="44396933"/>
    <nd ref="251045061"/>
    <nd ref="44391691"/>
    <tag k="AND:importance_level" v="5"/>
    <tag k="AND_nosr_r" v="15058253"/>
    <tag k="highway" v="unclassified"/>
    <tag k="name" v="Haven"/>
    <tag k="oneway" v="1"/>
  </way>
  <way id="7564144" version="3" timestamp="2008-03-09T09:48:34Z" uid="8619" user="cetest" changeset="290803">
    <nd ref="44396933"/>
    <nd ref="251045061"/>
    <tag k="AND:importance_level" v="5"/>
    <tag k="AND_nosr_r" v="15058253"/>
    <tag k="highway" v="unclassified"/>
    <tag k="name" v="Haven"/>
    <tag k="oneway" v="1"/>
  </way>
  <way id="7564526" version="2" timestamp="2008-04-30T07:52:11Z" uid="8619" user="cetest" changeset="290668">
    <nd ref="44391629"/>
    <nd ref="44394322"/>
    <tag k="AND:importance_level" v="2"/>
    <tag k="AND_nosr_r" v="15057907"/>
    <tag k="highway" v="secondary"/>
    <tag k="name" v="Laan 1940 1945"/>
    <tag k="oneway" v="1"/>
  </way>
  <way id="7564527" version="2" timestamp="2008-04-30T07:52:12Z" uid="8619" user="cetest" changeset="290668">
    <nd ref="44394322"/>
    <nd ref="44395601"/>
    <tag k="AND:importance_level" v="2"/>
    <tag k="AND_nosr_r" v="15057906"/>
    <tag k="highway" v="secondary"/>
    <tag k="name" v="Laan 1940 1945"/>
    <tag k="oneway" v="1"/>
  </way>
  <way id="7564528" version="2" timestamp="2008-04-30T07:52:15Z" uid="8619" user="cetest" changeset="290668">
    <nd ref="44396008"/>
    <nd ref="44391980"/>
    <tag k="AND:importance_level" v="2"/>
    <tag k="AND_nosr_r" v="15057905"/>
    <tag k="highway" v="secondary"/>
    <tag k="name" v="Laan 1940 1945"/>
    <tag k="oneway" v="1"/>
  </way>
  <way id="7564529" version="2" timestamp="2008-04-30T07:52:27Z" uid="8619" user="cetest" changeset="290668">
    <nd ref="44387406"/>
    <nd ref="44387888"/>
    <tag k="AND:importance_level" v="2"/>
    <tag k="AND_nosr_r" v="15057904"/>
    <tag k="highway" v="secondary"/>
    <tag k="name" v="Laan 1940 1945"/>
    <tag k="oneway" v="1"/>
  </way>
  <way id="7564531" version="2" timestamp="2008-04-30T07:52:30Z" uid="8619" user="cetest" changeset="290668">
    <nd ref="44387888"/>
    <nd ref="44386920"/>
    <tag k="AND:importance_level" v="2"/>
    <tag k="AND_nosr_r" v="15057903"/>
    <tag k="highway" v="secondary"/>
    <tag k="name" v="Laan 1940 1945"/>
    <tag k="oneway" v="1"/>
  </way>
  <way id="7564532" version="2" timestamp="2008-04-30T07:52:05Z" uid="8619" user="cetest" changeset="290668">
    <nd ref="44395601"/>
    <nd ref="44396008"/>
    <tag k="AND:importance_level" v="2"/>
    <tag k="AND_nosr_r" v="15057902"/>
    <tag k="highway" v="secondary"/>
    <tag k="name" v="P C Hooftlaan"/>
  </way>
  <way id="7564533" version="2" timestamp="2008-04-30T07:52:09Z" uid="8619" user="cetest" changeset="290668">
    <nd ref="44390272"/>
    <nd ref="44390295"/>
    <tag k="AND:importance_level" v="2"/>
    <tag k="AND_nosr_r" v="15057901"/>
    <tag k="highway" v="secondary"/>
    <tag k="name" v="Koningin Wilhelminalaan"/>
  </way>
  <way id="7564534" version="2" timestamp="2008-04-30T07:52:07Z" uid="8619" user="cetest" changeset="290668">
    <nd ref="44388808"/>
    <nd ref="44390272"/>
    <tag k="AND:importance_level" v="2"/>
    <tag k="AND_nosr_r" v="15057900"/>
    <tag k="highway" v="secondary"/>
    <tag k="name" v="Koningin Wilhelminalaan"/>
  </way>
  <way id="7564535" version="2" timestamp="2008-04-30T07:52:05Z" uid="8619" user="cetest" changeset="290668">
    <nd ref="44391980"/>
    <nd ref="44390606"/>
    <nd ref="44390295"/>
    <tag k="AND:importance_level" v="2"/>
    <tag k="AND_nosr_r" v="15057899"/>
    <tag k="highway" v="secondary"/>
    <tag k="name" v="Koningin Wilhelminalaan"/>
    <tag k="oneway" v="1"/>
  </way>
  <way id="7564536" version="2" timestamp="2008-04-30T07:52:13Z" uid="8619" user="cetest" changeset="290668">
    <nd ref="44390295"/>
    <nd ref="44390296"/>
    <nd ref="44391629"/>
    <tag k="AND:importance_level" v="2"/>
    <tag k="AND_nosr_r" v="15057898"/>
    <tag k="highway" v="secondary"/>
    <tag k="name" v="Koningin Wilhelminalaan"/>
    <tag k="oneway" v="1"/>
  </way>
  <way id="7564537" version="2" timestamp="2008-04-30T07:52:20Z" uid="8619" user="cetest" changeset="290668">
    <nd ref="44386920"/>
    <nd ref="44386285"/>
    <tag k="AND:importance_level" v="2"/>
    <tag k="AND_nosr_r" v="15057897"/>
    <tag k="highway" v="secondary"/>
    <tag k="name" v="Laan 1940 1945"/>
    <tag k="oneway" v="1"/>
  </way>
  <way id="7564539" version="2" timestamp="2008-04-30T07:52:31Z" uid="8619" user="cetest" changeset="290668">
    <nd ref="44386285"/>
    <nd ref="44386287"/>
    <nd ref="44386922"/>
    <nd ref="44387411"/>
    <tag k="AND:importance_level" v="2"/>
    <tag k="AND_nosr_r" v="15057896"/>
    <tag k="highway" v="secondary"/>
    <tag k="name" v="Koningin Wilhelminalaan"/>
    <tag k="oneway" v="1"/>
  </way>
  <way id="7564540" version="2" timestamp="2008-04-30T07:52:19Z" uid="8619" user="cetest" changeset="290668">
    <nd ref="44387889"/>
    <nd ref="44387406"/>
    <tag k="AND:importance_level" v="2"/>
    <tag k="AND_nosr_r" v="15057895"/>
    <tag k="highway" v="secondary"/>
    <tag k="name" v="Laan 1940 1945"/>
    <tag k="oneway" v="1"/>
  </way>
  <way id="7564541" version="2" timestamp="2008-04-30T07:52:26Z" uid="8619" user="cetest" changeset="290668">
    <nd ref="44387411"/>
    <nd ref="44387889"/>
    <tag k="AND:importance_level" v="2"/>
    <tag k="AND_nosr_r" v="15057894"/>
    <tag k="highway" v="secondary"/>
    <tag k="name" v="Laan 1940 1945"/>
    <tag k="oneway" v="1"/>
  </way>
  <way id="7564543" version="2" timestamp="2008-04-30T07:52:28Z" uid="8619" user="cetest" changeset="290668">
    <nd ref="44387889"/>
    <nd ref="44388365"/>
    <nd ref="44388808"/>
    <tag k="AND:importance_level" v="2"/>
    <tag k="AND_nosr_r" v="15057893"/>
    <tag k="highway" v="secondary"/>
    <tag k="name" v="Koningin Wilhelminalaan"/>
  </way>
  <way id="7564544" version="2" timestamp="2008-04-30T07:52:22Z" uid="8619" user="cetest" changeset="290668">
    <nd ref="44390333"/>
    <nd ref="44390764"/>
    <tag k="AND:importance_level" v="2"/>
    <tag k="AND_nosr_r" v="15057892"/>
    <tag k="highway" v="secondary"/>
    <tag k="name" v="Deltaweg"/>
  </way>
  <way id="7564546" version="2" timestamp="2008-04-30T07:52:28Z" uid="8619" user="cetest" changeset="290668">
    <nd ref="44387888"/>
    <nd ref="44389785"/>
    <nd ref="44390334"/>
    <nd ref="44390766"/>
    <nd ref="44390764"/>
    <tag k="AND:importance_level" v="2"/>
    <tag k="AND_nosr_r" v="15057891"/>
    <tag k="highway" v="secondary"/>
    <tag k="name" v="Stationsweg"/>
  </way>
  <way id="7564575" version="2" timestamp="2008-03-08T14:35:40Z" uid="8619" user="cetest" changeset="285059">
    <nd ref="44652409"/>
    <nd ref="44652412"/>
    <nd ref="44653873"/>
    <nd ref="44655382"/>
    <tag k="AND:importance_level" v="5"/>
    <tag k="AND_nosr_r" v="15057868"/>
    <tag k="highway" v="cycleway"/>
  </way>
  <way id="7564578" version="2" timestamp="2008-03-08T14:35:39Z" uid="8619" user="cetest" changeset="285059">
    <nd ref="44646298"/>
    <nd ref="44649444"/>
    <nd ref="44651906"/>
    <nd ref="44652409"/>
    <tag k="AND:importance_level" v="5"/>
    <tag k="AND_nosr_r" v="15057866"/>
    <tag k="highway" v="cycleway"/>
    <tag k="name" v="Klinckaertpad"/>
  </way>
  <way id="7564579" version="2" timestamp="2008-03-08T19:10:35Z" uid="8619" user="cetest" changeset="286842">
    <nd ref="44646298"/>
    <nd ref="44648976"/>
    <tag k="AND:importance_level" v="5"/>
    <tag k="AND_nosr_r" v="15057865"/>
    <tag k="highway" v="cycleway"/>
    <tag k="name" v="Scheeweg"/>
  </way>
  <way id="7564580" version="2" timestamp="2008-04-09T15:17:59Z" uid="8619" user="cetest" changeset="93557">
    <nd ref="44648976"/>
    <nd ref="44651897"/>
    <nd ref="44656504"/>
    <nd ref="44673321"/>
    <tag k="AND:importance_level" v="5"/>
    <tag k="AND_nosr_r" v="15057864"/>
    <tag k="highway" v="cycleway"/>
  </way>
  <way id="7564601" version="2" timestamp="2008-03-01T21:39:22Z" uid="8619" user="cetest" changeset="242738"/>
  <way id="7564636" version="2" timestamp="2008-04-06T15:24:47Z" uid="8619" user="cetest" changeset="63294">
    <nd ref="44797329"/>
    <nd ref="44798668"/>
    <nd ref="44801159"/>
    <nd ref="44802001"/>
    <nd ref="44804497"/>
    <nd ref="44805494"/>
    <nd ref="44810788"/>
    <nd ref="44812007"/>
    <tag k="AND:importance_level" v="5"/>
    <tag k="AND_nosr_r" v="15057819"/>
    <tag k="highway" v="unclassified"/>
    <tag k="name" v="Zwet"/>
  </way>
  <way id="7564638" version="2" timestamp="2008-04-06T15:54:52Z" uid="8619" user="cetest" changeset="63294">
    <nd ref="44874950"/>
    <nd ref="44875395"/>
    <nd ref="44875396"/>
    <nd ref="44877356"/>
    <tag k="AND:importance_level" v="5"/>
    <tag k="AND_nosr_r" v="15057818"/>
    <tag k="highway" v="cycleway"/>
    <tag k="name" v="Bovendijk"/>
  </way>
  <way id="7564650" version="2" timestamp="2008-04-06T15:54:32Z" uid="8619" user="cetest" changeset="63294">
    <nd ref="44861464"/>
    <nd ref="44861832"/>
    <tag k="AND:importance_level" v="5"/>
    <tag k="AND_nosr_r" v="15057810"/>
    <tag k="highway" v="cycleway"/>
  </way>
  <way id="7564651" version="2" timestamp="2008-04-06T15:54:38Z" uid="8619" user="cetest" changeset="63294">
    <nd ref="44861460"/>
    <nd ref="44861462"/>
    <nd ref="44861831"/>
    <nd ref="44861832"/>
    <tag k="AND:importance_level" v="5"/>
    <tag k="AND_nosr_r" v="15057809"/>
    <tag k="highway" v="cycleway"/>
  </way>
  <way id="7564651" version="3" timestamp="2008-04-07T09:40:16Z" uid="8619" user="cetest" changeset="71978">
    <nd ref="44861832"/>
    <nd ref="44861831"/>
    <nd ref="44861462"/>
    <nd ref="44861460"/>
    <tag k="AND:importance_level" v="5"/>
    <tag k="AND_nosr_r" v="15057809"/>
    <tag k="highway" v="cycleway"/>
  </way>
  <way id="7564669" version="2" timestamp="2008-04-06T15:54:34Z" uid="8619" user="cetest" changeset="63294">
    <nd ref="44859584"/>
    <nd ref="44859586"/>
    <nd ref="44859939"/>
    <tag k="AND:importance_level" v="5"/>
    <tag k="AND_nosr_r" v="15057792"/>
    <tag k="highway" v="cycleway"/>
  </way>
  <way id="7564674" version="2" timestamp="2008-04-06T15:54:45Z" uid="8619" user="cetest" changeset="63294">
    <nd ref="44877356"/>
    <nd ref="44879650"/>
    <tag k="AND:importance_level" v="5"/>
    <tag k="AND_nosr_r" v="15057787"/>
    <tag k="highway" v="cycleway"/>
    <tag k="name" v="Bovendijk"/>
  </way>
  <way id="7564698" version="2" timestamp="2008-04-06T15:54:36Z" uid="8619" user="cetest" changeset="63294">
    <nd ref="44860680"/>
    <nd ref="44864505"/>
    <nd ref="44866128"/>
    <nd ref="44868242"/>
    <nd ref="44869779"/>
    <tag k="AND:importance_level" v="5"/>
    <tag k="AND_nosr_r" v="15057765"/>
    <tag k="highway" v="cycleway"/>
  </way>
  <way id="7564736" version="2" timestamp="2008-04-06T15:54:33Z" uid="8619" user="cetest" changeset="63294">
    <nd ref="44846075"/>
    <nd ref="44847464"/>
    <tag k="AND:importance_level" v="5"/>
    <tag k="AND_nosr_r" v="15057731"/>
    <tag k="bridge" v="yes"/>
    <tag k="highway" v="unclassified"/>
    <tag k="layer" v="1"/>
    <tag k="name" v="Dorpskade"/>
  </way>
  <way id="7564737" version="2" timestamp="2008-04-06T15:24:53Z" uid="8619" user="cetest" changeset="63294"/>
  <way id="7564799" version="2" timestamp="2008-04-06T15:24:55Z" uid="8619" user="cetest" changeset="63294"/>
  <way id="7564800" version="2" timestamp="2008-04-06T15:24:54Z" uid="8619" user="cetest" changeset="63294"/>
  <way id="7564801" version="2" timestamp="2008-04-06T15:24:57Z" uid="8619" user="cetest" changeset="63294"/>
  <way id="7564803" version="2" timestamp="2008-04-06T15:54:34Z" uid="8619" user="cetest" changeset="63294">
    <nd ref="44859584"/>
    <nd ref="44860294"/>
    <tag k="AND:importance_level" v="5"/>
    <tag k="AND_nosr_r" v="15057673"/>
    <tag k="highway" v="cycleway"/>
  </way>
  <way id="7564803" version="3" timestamp="2008-04-07T09:40:17Z" uid="8619" user="cetest" changeset="71978">
    <nd ref="44860294"/>
    <nd ref="44859584"/>
    <tag k="AND:importance_level" v="5"/>
    <tag k="AND_nosr_r" v="15057673"/>
    <tag k="highway" v="cycleway"/>
  </way>
  <way id="7564805" version="2" timestamp="2008-04-06T15:54:35Z" uid="8619" user="cetest" changeset="63294">
    <nd ref="44860294"/>
    <nd ref="44860293"/>
    <nd ref="44860680"/>
    <tag k="AND:importance_level" v="5"/>
    <tag k="AND_nosr_r" v="15057671"/>
    <tag k="highway" v="cycleway"/>
  </way>
  <way id="7564807" version="2" timestamp="2008-04-06T15:54:38Z" uid="8619" user="cetest" changeset="63294">
    <nd ref="44860294"/>
    <nd ref="44861076"/>
    <nd ref="44861460"/>
    <tag k="AND:importance_level" v="5"/>
    <tag k="AND_nosr_r" v="15057670"/>
    <tag k="highway" v="cycleway"/>
  </way>
  <way id="7564807" version="3" timestamp="2008-04-07T09:40:17Z" uid="8619" user="cetest" changeset="71978">
    <nd ref="44861460"/>
    <nd ref="44861076"/>
    <nd ref="44860294"/>
    <tag k="AND:importance_level" v="5"/>
    <tag k="AND_nosr_r" v="15057670"/>
    <tag k="highway" v="cycleway"/>
  </way>
  <way id="7564811" version="2" timestamp="2008-04-06T15:12:07Z" uid="8619" user="cetest" changeset="63294">
    <nd ref="44775271"/>
    <nd ref="44776164"/>
    <nd ref="44776689"/>
    <nd ref="44777920"/>
    <nd ref="44778380"/>
    <tag k="AND:importance_level" v="5"/>
    <tag k="AND_nosr_r" v="15057667"/>
    <tag k="highway" v="cycleway"/>
  </way>
  <way id="7564817" version="2" timestamp="2008-04-06T15:24:56Z" uid="8619" user="cetest" changeset="63294"/>
  <way id="7564818" version="2" timestamp="2008-04-06T15:12:08Z" uid="8619" user="cetest" changeset="63294"/>
  <way id="7564820" version="2" timestamp="2008-04-06T15:24:46Z" uid="8619" user="cetest" changeset="63294">
    <nd ref="44823635"/>
    <nd ref="44829635"/>
    <nd ref="44828676"/>
    <nd ref="256082869"/>
    <tag k="AND:importance_level" v="5"/>
    <tag k="AND_nosr_r" v="15057660"/>
    <tag k="highway" v="unclassified"/>
  </way>
  <way id="7564822" version="2" timestamp="2008-04-06T15:24:52Z" uid="8619" user="cetest" changeset="63294"/>
  <way id="7564823" version="2" timestamp="2008-04-06T15:12:03Z" uid="8619" user="cetest" changeset="63294">
    <nd ref="44778380"/>
    <nd ref="44778849"/>
    <nd ref="44780137"/>
    <nd ref="44788932"/>
    <nd ref="44793625"/>
    <nd ref="44801563"/>
    <nd ref="44802917"/>
    <nd ref="44806557"/>
    <nd ref="44807513"/>
    <nd ref="44808009"/>
    <nd ref="44809038"/>
    <tag k="AND:importance_level" v="5"/>
    <tag k="AND_nosr_r" v="15057657"/>
    <tag k="highway" v="cycleway"/>
  </way>
  <way id="7564823" version="3" timestamp="2008-04-06T19:44:02Z" uid="8619" user="cetest" changeset="65961">
    <nd ref="44778380"/>
    <nd ref="44778849"/>
    <nd ref="44780137"/>
    <nd ref="44788932"/>
    <nd ref="44793625"/>
    <nd ref="44801563"/>
    <nd ref="44802917"/>
    <nd ref="44806557"/>
    <nd ref="44807513"/>
    <nd ref="44808009"/>
    <tag k="AND:importance_level" v="5"/>
    <tag k="AND_nosr_r" v="15057657"/>
    <tag k="highway" v="cycleway"/>
  </way>
  <way id="7564824" version="2" timestamp="2008-04-06T15:24:55Z" uid="8619" user="cetest" changeset="63294"/>
  <way id="7564826" version="2" timestamp="2008-04-06T15:24:56Z" uid="8619" user="cetest" changeset="63294"/>
  <way id="7564828" version="2" timestamp="2008-04-06T15:12:06Z" uid="8619" user="cetest" changeset="63294">
    <nd ref="44809038"/>
    <nd ref="44813578"/>
    <nd ref="256079787"/>
    <nd ref="44820991"/>
    <nd ref="44825795"/>
    <nd ref="44826436"/>
    <tag k="AND:importance_level" v="5"/>
    <tag k="AND_nosr_r" v="15057653"/>
    <tag k="highway" v="cycleway"/>
  </way>
  <way id="7564829" version="2" timestamp="2008-04-06T15:54:37Z" uid="8619" user="cetest" changeset="63294">
    <nd ref="44859939"/>
    <nd ref="44860686"/>
    <nd ref="44861464"/>
    <tag k="AND:importance_level" v="5"/>
    <tag k="AND_nosr_r" v="15057652"/>
    <tag k="highway" v="cycleway"/>
  </way>
  <way id="7564894" version="2" timestamp="2008-04-06T15:24:58Z" uid="8619" user="cetest" changeset="63294"/>
  <way id="7564925" version="2" timestamp="2007-10-14T11:45:36Z" uid="8619" user="cetest" changeset="160986">
    <nd ref="44850230"/>
    <nd ref="44850668"/>
    <tag k="AND:importance_level" v="5"/>
    <tag k="AND_nosr_r" v="15057573"/>
    <tag k="highway" v="tertiary"/>
    <tag k="layer" v="0"/>
    <tag k="name" v="Dorpskade"/>
  </way>
  <way id="7564960" version="2" timestamp="2007-10-14T11:45:28Z" uid="8619" user="cetest" changeset="160986">
    <nd ref="44851107"/>
    <nd ref="44849710"/>
    <tag k="AND:importance_level" v="0"/>
    <tag k="AND_nosr_r" v="15057545"/>
    <tag k="highway" v="primary"/>
    <tag k="int_ref" v="E30"/>
    <tag k="layer" v="-1"/>
    <tag k="name" v="Lozerlaan"/>
    <tag k="oneway" v="1"/>
    <tag k="ref" v="N211"/>
  </way>
  <way id="7564962" version="2" timestamp="2007-10-14T11:45:33Z" uid="8619" user="cetest" changeset="160986">
    <nd ref="44849713"/>
    <nd ref="44851111"/>
    <tag k="AND:importance_level" v="0"/>
    <tag k="AND_nosr_r" v="15057544"/>
    <tag k="highway" v="primary"/>
    <tag k="int_ref" v="E30"/>
    <tag k="layer" v="-1"/>
    <tag k="name" v="Lozerlaan"/>
    <tag k="oneway" v="1"/>
    <tag k="ref" v="N211"/>
  </way>
  <way id="7564980" version="2" timestamp="2008-04-06T15:54:39Z" uid="8619" user="cetest" changeset="63294">
    <nd ref="44778847"/>
    <nd ref="256089839"/>
    <nd ref="44776155"/>
    <nd ref="44773866"/>
    <nd ref="44773004"/>
    <nd ref="44773001"/>
    <nd ref="44772562"/>
    <nd ref="44771629"/>
    <nd ref="44771257"/>
    <nd ref="44768914"/>
    <nd ref="44764933"/>
    <nd ref="44760347"/>
    <nd ref="44756852"/>
    <nd ref="44755252"/>
    <nd ref="44754751"/>
    <nd ref="44754334"/>
    <tag k="AND:importance_level" v="2"/>
    <tag k="AND_nosr_r" v="15057527"/>
    <tag k="highway" v="primary"/>
    <tag k="oneway" v="1"/>
    <tag k="ref" v="N222"/>
  </way>
  <way id="7564981" version="2" timestamp="2008-04-06T15:54:41Z" uid="8619" user="cetest" changeset="63294">
    <nd ref="44753898"/>
    <nd ref="44754752"/>
    <nd ref="44756081"/>
    <nd ref="44758988"/>
    <nd ref="44763106"/>
    <nd ref="44769371"/>
    <nd ref="44771259"/>
    <nd ref="44772563"/>
    <nd ref="44772566"/>
    <nd ref="44773443"/>
    <nd ref="44774363"/>
    <nd ref="44777779"/>
    <nd ref="256089838"/>
    <nd ref="44778652"/>
    <tag k="AND:importance_level" v="2"/>
    <tag k="AND_nosr_r" v="15057526"/>
    <tag k="highway" v="primary"/>
    <tag k="oneway" v="1"/>
    <tag k="ref" v="N222"/>
  </way>
  <way id="7564983" version="2" timestamp="2008-03-21T20:32:12Z" uid="8619" user="cetest" changeset="365710">
    <nd ref="44753898"/>
    <nd ref="44752908"/>
    <nd ref="44752452"/>
    <nd ref="253248044"/>
    <nd ref="44751074"/>
    <nd ref="44750601"/>
    <nd ref="44751076"/>
    <nd ref="44752456"/>
    <nd ref="44752459"/>
    <nd ref="44752037"/>
    <nd ref="44751078"/>
    <nd ref="44750011"/>
    <nd ref="44749525"/>
    <nd ref="44749019"/>
    <nd ref="44749022"/>
    <nd ref="44749534"/>
    <nd ref="44750019"/>
    <nd ref="44751080"/>
    <nd ref="44751558"/>
    <nd ref="44752913"/>
    <nd ref="44753464"/>
    <nd ref="44754756"/>
    <nd ref="44756084"/>
    <nd ref="44757258"/>
    <nd ref="44758539"/>
    <nd ref="44758541"/>
    <nd ref="44758995"/>
    <nd ref="44759499"/>
    <nd ref="44759901"/>
    <nd ref="44760848"/>
    <nd ref="44760850"/>
    <nd ref="44761328"/>
    <nd ref="44762664"/>
    <nd ref="44764471"/>
    <nd ref="44766554"/>
    <nd ref="44772071"/>
    <nd ref="44773005"/>
    <nd ref="44774368"/>
    <tag k="AND:importance_level" v="5"/>
    <tag k="AND_nosr_r" v="15057525"/>
    <tag k="highway" v="cycleway"/>
  </way>
  <way id="7564983" version="3" timestamp="2008-03-22T11:52:56Z" uid="8619" user="cetest" changeset="369177">
    <nd ref="44753898"/>
    <nd ref="44752908"/>
    <nd ref="44752452"/>
    <nd ref="253248044"/>
    <tag k="AND:importance_level" v="5"/>
    <tag k="AND_nosr_r" v="15057525"/>
    <tag k="highway" v="cycleway"/>
  </way>
  <way id="7564985" version="2" timestamp="2008-04-06T15:24:50Z" uid="8619" user="cetest" changeset="63294">
    <nd ref="44768006"/>
    <nd ref="44770857"/>
    <nd ref="44771265"/>
    <nd ref="44772073"/>
    <nd ref="44774368"/>
    <tag k="AND:importance_level" v="5"/>
    <tag k="AND_nosr_r" v="15057524"/>
    <tag k="highway" v="cycleway"/>
  </way>
  <way id="7564991" version="3" timestamp="2008-04-06T15:54:41Z" uid="8619" user="cetest" changeset="63294">
    <nd ref="44861824"/>
    <nd ref="256089843"/>
    <nd ref="44861072"/>
    <nd ref="44862516"/>
    <tag k="AND:importance_level" v="5"/>
    <tag k="AND_nosr_r" v="15057518"/>
    <tag k="created_by" v="Potlatch alpha"/>
    <tag k="highway" v="secondary"/>
    <tag k="name" v="Bovendijk"/>
  </way>
</osm>
