<?xml version='1.0' encoding='UTF-8'?>
<osm version="0.6" generator="libosmium/2.20.0">
  <way id="75986104" version="2" timestamp="2011-05-25T03:18:07Z" uid="4467" user="Rosscoe" changeset="8241167">
    <nd ref="896863346"/>
    <nd ref="896863171"/>
    <nd ref="896863527"/>
    <nd ref="896863473"/>
    <nd ref="896863370"/>
    <nd ref="896863219"/>
    <nd ref="896863586"/>
    <nd ref="896863518"/>
    <nd ref="896863427"/>
    <nd ref="896863265"/>
    <nd ref="896863159"/>
    <nd ref="896863568"/>
    <nd ref="896863469"/>
    <nd ref="896863315"/>
    <nd ref="896863203"/>
    <nd ref="896863346"/>
    <tag k="highway" v="residential"/>
    <tag k="junction" v="roundabout"/>
    <tag k="maxspeed" v="50"/>
    <tag k="name" v="Cable Beach Road West"/>
  </way>
  <way id="75986108" version="2" timestamp="2011-05-25T03:18:26Z" uid="4467" user="Rosscoe" changeset="8241167">
    <nd ref="247283032"/>
    <nd ref="896863265"/>
    <tag k="highway" v="residential"/>
    <tag k="maxspeed" v="50"/>
    <tag k="name" v="Cable Beach Road West"/>
    <tag k="oneway" v="yes"/>
  </way>
  <way id="75986120" version="2" timestamp="2010-12-30T14:15:40Z" uid="4467" user="Rosscoe" changeset="6809861">
    <nd ref="896863591"/>
    <nd ref="247282850"/>
    <nd ref="247282851"/>
    <tag k="highway" v="residential"/>
    <tag k="maxspeed" v="50"/>
    <tag k="name" v="Cable Beach Road West"/>
    <tag k="source:maxspeed" v="default residential speed limit in Australia"/>
  </way>
  <way id="75986120" version="3" timestamp="2011-05-25T03:18:22Z" uid="4467" user="Rosscoe" changeset="8241167">
    <nd ref="896863591"/>
    <nd ref="247282850"/>
    <tag k="highway" v="residential"/>
    <tag k="maxspeed" v="50"/>
    <tag k="name" v="Cable Beach Road West"/>
    <tag k="source:maxspeed" v="default residential speed limit in Australia"/>
  </way>
  <way id="75986122" version="3" timestamp="2011-05-25T03:18:13Z" uid="4467" user="Rosscoe" changeset="8241167">
    <nd ref="896863234"/>
    <nd ref="896863365"/>
    <nd ref="896863262"/>
    <nd ref="896863573"/>
    <nd ref="896863234"/>
    <tag k="addr:city" v="Broome"/>
    <tag k="addr:country" v="AU"/>
    <tag k="addr:housenumber" v="8"/>
    <tag k="addr:street" v="Millington Road"/>
    <tag k="name" v="Cable Beach Caravan Park"/>
    <tag k="phone" v="+61891922066"/>
    <tag k="tourism" v="caravan_site"/>
  </way>
  <way id="75986126" version="2" timestamp="2011-05-25T02:39:51Z" uid="4467" user="Rosscoe" changeset="8241073">
    <nd ref="896863269"/>
    <nd ref="1299132097"/>
    <nd ref="1299132029"/>
    <nd ref="896863162"/>
    <tag k="highway" v="residential"/>
    <tag k="name" v="Orr Street"/>
  </way>
  <way id="75986126" version="3" timestamp="2011-05-25T03:18:31Z" uid="4467" user="Rosscoe" changeset="8241167">
    <nd ref="896863269"/>
    <nd ref="1299132097"/>
    <nd ref="1299132029"/>
    <nd ref="896863162"/>
    <tag k="highway" v="residential"/>
    <tag k="maxspeed" v="50"/>
    <tag k="name" v="Orr Street"/>
  </way>
  <way id="75986128" version="2" timestamp="2011-05-25T03:18:18Z" uid="4467" user="Rosscoe" changeset="8241167">
    <nd ref="896863527"/>
    <nd ref="896863560"/>
    <tag k="highway" v="residential"/>
    <tag k="maxspeed" v="50"/>
    <tag k="name" v="Sanctuary Road"/>
    <tag k="oneway" v="yes"/>
  </way>
  <way id="75986129" version="2" timestamp="2011-05-24T09:01:43Z" uid="4467" user="Rosscoe" changeset="8233304">
    <nd ref="896863433"/>
    <nd ref="896863407"/>
    <nd ref="896863260"/>
    <nd ref="896863137"/>
    <nd ref="896863470"/>
    <nd ref="896863351"/>
    <nd ref="896863296"/>
    <nd ref="896863194"/>
    <nd ref="896863502"/>
    <nd ref="896863404"/>
    <nd ref="896863339"/>
    <nd ref="896863224"/>
    <nd ref="896863555"/>
    <nd ref="896863460"/>
    <nd ref="896863393"/>
    <nd ref="896863288"/>
    <nd ref="896863605"/>
    <nd ref="896863489"/>
    <nd ref="896863440"/>
    <nd ref="896863332"/>
    <nd ref="896863176"/>
    <nd ref="896863546"/>
    <nd ref="896863433"/>
    <tag k="highway" v="primary"/>
    <tag k="junction" v="roundabout"/>
    <tag k="lanes" v="2"/>
    <tag k="oneway" v="yes"/>
  </way>
  <way id="75986134" version="2" timestamp="2011-05-25T02:08:17Z" uid="4467" user="Rosscoe" changeset="8240957">
    <nd ref="896863285"/>
    <nd ref="896863562"/>
    <nd ref="896863497"/>
    <nd ref="896863401"/>
    <nd ref="896863246"/>
    <nd ref="896863613"/>
    <nd ref="896863552"/>
    <nd ref="896863457"/>
    <nd ref="896863293"/>
    <nd ref="896863187"/>
    <nd ref="896863595"/>
    <nd ref="896863481"/>
    <nd ref="896863336"/>
    <nd ref="896863222"/>
    <nd ref="896863285"/>
    <tag k="highway" v="residential"/>
    <tag k="junction" v="roundabout"/>
  </way>
  <way id="75986134" version="3" timestamp="2011-05-25T03:18:27Z" uid="4467" user="Rosscoe" changeset="8241167">
    <nd ref="896863285"/>
    <nd ref="896863562"/>
    <nd ref="896863497"/>
    <nd ref="896863401"/>
    <nd ref="896863246"/>
    <nd ref="896863613"/>
    <nd ref="896863552"/>
    <nd ref="896863457"/>
    <nd ref="896863293"/>
    <nd ref="896863187"/>
    <nd ref="896863595"/>
    <nd ref="896863481"/>
    <nd ref="896863336"/>
    <nd ref="896863222"/>
    <nd ref="896863285"/>
    <tag k="highway" v="residential"/>
    <tag k="junction" v="roundabout"/>
    <tag k="maxspeed" v="50"/>
  </way>
  <way id="75986136" version="2" timestamp="2011-05-25T03:18:14Z" uid="4467" user="Rosscoe" changeset="8241167">
    <nd ref="896863481"/>
    <nd ref="247283243"/>
    <tag k="highway" v="residential"/>
    <tag k="maxspeed" v="50"/>
    <tag k="name" v="Kapang Drive"/>
    <tag k="oneway" v="yes"/>
  </way>
  <way id="75986146" version="2" timestamp="2010-12-30T14:14:53Z" uid="4467" user="Rosscoe" changeset="6809861">
    <nd ref="247279913"/>
    <nd ref="246727500"/>
    <nd ref="246727501"/>
    <nd ref="246727502"/>
    <nd ref="247280015"/>
    <nd ref="246727503"/>
    <nd ref="246727504"/>
    <nd ref="896863213"/>
    <nd ref="896863151"/>
    <nd ref="896863505"/>
    <nd ref="896863360"/>
    <tag k="highway" v="residential"/>
    <tag k="maxspeed" v="50"/>
    <tag k="name" v="Hamersley Street"/>
    <tag k="source:maxspeed" v="default residential speed limit in Australia"/>
  </way>
  <way id="75986148" version="2" timestamp="2011-05-25T03:18:29Z" uid="4467" user="Rosscoe" changeset="8241167">
    <nd ref="247283030"/>
    <nd ref="896863497"/>
    <tag k="highway" v="residential"/>
    <tag k="maxspeed" v="50"/>
    <tag k="name" v="Sanctuary Road"/>
    <tag k="oneway" v="yes"/>
  </way>
  <way id="75986152" version="2" timestamp="2010-12-30T14:15:03Z" uid="4467" user="Rosscoe" changeset="6809861">
    <nd ref="247283243"/>
    <nd ref="896863222"/>
    <tag k="highway" v="residential"/>
    <tag k="maxspeed" v="50"/>
    <tag k="name" v="Kapang Drive"/>
    <tag k="oneway" v="yes"/>
    <tag k="source:maxspeed" v="default residential speed limit in Australia"/>
  </way>
  <way id="75986153" version="2" timestamp="2010-12-30T14:16:04Z" uid="4467" user="Rosscoe" changeset="6809861">
    <nd ref="896863593"/>
    <nd ref="896863595"/>
    <tag k="highway" v="residential"/>
    <tag k="maxspeed" v="50"/>
    <tag k="name" v="Sanctuary Road"/>
    <tag k="oneway" v="yes"/>
    <tag k="source:maxspeed" v="default residential speed limit in Australia"/>
  </way>
  <way id="75986158" version="2" timestamp="2011-05-25T03:18:15Z" uid="4467" user="Rosscoe" changeset="8241167">
    <nd ref="896863518"/>
    <nd ref="247283032"/>
    <tag k="highway" v="residential"/>
    <tag k="maxspeed" v="50"/>
    <tag k="name" v="Cable Beach Road West"/>
    <tag k="oneway" v="yes"/>
  </way>
  <way id="75986161" version="2" timestamp="2011-05-25T03:18:27Z" uid="4467" user="Rosscoe" changeset="8241167">
    <nd ref="896863558"/>
    <nd ref="896863241"/>
    <tag k="highway" v="service"/>
    <tag k="service" v="driveway"/>
  </way>
  <way id="75986164" version="2" timestamp="2010-12-30T14:15:49Z" uid="4467" user="Rosscoe" changeset="6809861">
    <nd ref="88938875"/>
    <nd ref="896863457"/>
    <tag k="highway" v="residential"/>
    <tag k="maxspeed" v="50"/>
    <tag k="name" v="Lullfitz Drive"/>
    <tag k="oneway" v="yes"/>
    <tag k="source:maxspeed" v="default residential speed limit in Australia"/>
  </way>
  <way id="75986166" version="2" timestamp="2010-12-30T14:15:20Z" uid="4467" user="Rosscoe" changeset="6809861">
    <nd ref="896863285"/>
    <nd ref="247283030"/>
    <tag k="highway" v="residential"/>
    <tag k="maxspeed" v="50"/>
    <tag k="name" v="Sanctuary Road"/>
    <tag k="oneway" v="yes"/>
    <tag k="source:maxspeed" v="default residential speed limit in Australia"/>
  </way>
  <way id="75986171" version="2" timestamp="2010-12-30T14:15:18Z" uid="4467" user="Rosscoe" changeset="6809861">
    <nd ref="896863591"/>
    <nd ref="896863171"/>
    <tag k="highway" v="residential"/>
    <tag k="maxspeed" v="50"/>
    <tag k="name" v="Cable Beach Road West"/>
    <tag k="oneway" v="yes"/>
    <tag k="source:maxspeed" v="default residential speed limit in Australia"/>
  </way>
  <way id="75986174" version="2" timestamp="2011-05-25T03:18:08Z" uid="4467" user="Rosscoe" changeset="8241167">
    <nd ref="896863293"/>
    <nd ref="896863593"/>
    <tag k="highway" v="residential"/>
    <tag k="maxspeed" v="50"/>
    <tag k="name" v="Sanctuary Road"/>
    <tag k="oneway" v="yes"/>
  </way>
  <way id="75986176" version="2" timestamp="2011-05-25T03:18:11Z" uid="4467" user="Rosscoe" changeset="8241167">
    <nd ref="896863203"/>
    <nd ref="896863591"/>
    <tag k="highway" v="residential"/>
    <tag k="maxspeed" v="50"/>
    <tag k="name" v="Cable Beach Road West"/>
    <tag k="oneway" v="yes"/>
  </way>
  <way id="75986186" version="3" timestamp="2010-12-30T14:16:07Z" uid="4467" user="Rosscoe" changeset="6809861">
    <nd ref="247283277"/>
    <nd ref="247283276"/>
    <nd ref="247283275"/>
    <nd ref="247283274"/>
    <nd ref="247283273"/>
    <nd ref="897001522"/>
    <nd ref="247283272"/>
    <nd ref="247283649"/>
    <nd ref="247283269"/>
    <nd ref="247283268"/>
    <nd ref="247283267"/>
    <nd ref="247283266"/>
    <nd ref="247283265"/>
    <nd ref="247283590"/>
    <nd ref="247283262"/>
    <nd ref="247283261"/>
    <nd ref="247283260"/>
    <nd ref="247283259"/>
    <nd ref="247283258"/>
    <nd ref="247283257"/>
    <nd ref="247283389"/>
    <nd ref="247283247"/>
    <nd ref="247283246"/>
    <nd ref="247283245"/>
    <nd ref="247283243"/>
    <tag k="highway" v="residential"/>
    <tag k="maxspeed" v="50"/>
    <tag k="name" v="Kapang Drive"/>
    <tag k="source:maxspeed" v="default residential speed limit in Australia"/>
  </way>
  <way id="75986186" version="4" timestamp="2011-05-25T02:08:08Z" uid="4467" user="Rosscoe" changeset="8240957">
    <nd ref="247283277"/>
    <nd ref="247283276"/>
    <nd ref="247283275"/>
    <nd ref="247283274"/>
    <nd ref="247283273"/>
    <nd ref="897001522"/>
    <nd ref="247283272"/>
    <nd ref="247283649"/>
    <nd ref="247283269"/>
    <nd ref="247283268"/>
    <nd ref="247283267"/>
    <nd ref="247283266"/>
    <nd ref="247283265"/>
    <nd ref="247283590"/>
    <nd ref="247283262"/>
    <nd ref="247283261"/>
    <nd ref="247283260"/>
    <nd ref="247283259"/>
    <nd ref="247283258"/>
    <nd ref="247283257"/>
    <nd ref="247283389"/>
    <nd ref="247283247"/>
    <nd ref="247283246"/>
    <nd ref="247283245"/>
    <nd ref="247283243"/>
    <tag k="highway" v="residential"/>
    <tag k="maxspeed" v="50"/>
    <tag k="name" v="Kapang Drive"/>
    <tag k="source" v="survey"/>
    <tag k="source:maxspeed" v="default residential speed limit in Australia"/>
  </way>
  <way id="75986186" version="5" timestamp="2011-05-25T03:17:57Z" uid="4467" user="Rosscoe" changeset="8241167">
    <nd ref="247283277"/>
    <nd ref="247283275"/>
    <nd ref="247283274"/>
    <nd ref="247283273"/>
    <nd ref="897001522"/>
    <nd ref="247283272"/>
    <nd ref="247283649"/>
    <nd ref="247283269"/>
    <nd ref="247283268"/>
    <nd ref="247283267"/>
    <nd ref="247283266"/>
    <nd ref="247283265"/>
    <nd ref="247283590"/>
    <nd ref="247283262"/>
    <nd ref="247283260"/>
    <nd ref="247283259"/>
    <nd ref="247283258"/>
    <nd ref="247283257"/>
    <nd ref="1299172190"/>
    <nd ref="1299172255"/>
    <nd ref="247283389"/>
    <nd ref="247283247"/>
    <nd ref="247283246"/>
    <nd ref="247283245"/>
    <nd ref="247283243"/>
    <tag k="highway" v="residential"/>
    <tag k="maxspeed" v="50"/>
    <tag k="name" v="Kapang Drive"/>
    <tag k="source" v="survey"/>
    <tag k="source:maxspeed" v="default residential speed limit in Australia"/>
  </way>
  <way id="75986193" version="4" timestamp="2011-05-25T06:07:48Z" uid="4467" user="Rosscoe" changeset="8241691">
    <nd ref="896863515"/>
    <nd ref="896863170"/>
    <nd ref="896863524"/>
    <nd ref="896863383"/>
    <nd ref="896863274"/>
    <nd ref="896863217"/>
    <nd ref="896863583"/>
    <nd ref="896863432"/>
    <nd ref="896863325"/>
    <nd ref="896863263"/>
    <nd ref="896863157"/>
    <nd ref="896863471"/>
    <nd ref="896863369"/>
    <nd ref="896863311"/>
    <nd ref="896863200"/>
    <nd ref="896863516"/>
    <nd ref="896863425"/>
    <nd ref="896863347"/>
    <nd ref="896863247"/>
    <nd ref="896863566"/>
    <nd ref="896863462"/>
    <nd ref="896863515"/>
    <tag k="highway" v="primary"/>
    <tag k="junction" v="roundabout"/>
  </way>
  <way id="75986204" version="2" timestamp="2011-05-25T03:18:17Z" uid="4467" user="Rosscoe" changeset="8241167">
    <nd ref="896863246"/>
    <nd ref="88938875"/>
    <tag k="highway" v="residential"/>
    <tag k="maxspeed" v="50"/>
    <tag k="name" v="Lullfitz Drive"/>
    <tag k="oneway" v="yes"/>
  </way>
  <way id="75986205" version="2" timestamp="2011-05-25T03:18:01Z" uid="4467" user="Rosscoe" changeset="8241167">
    <nd ref="896863560"/>
    <nd ref="896863219"/>
    <tag k="highway" v="residential"/>
    <tag k="maxspeed" v="50"/>
    <tag k="name" v="Sanctuary Road"/>
    <tag k="oneway" v="yes"/>
  </way>
  <way id="75986211" version="2" timestamp="2010-12-30T14:15:00Z" uid="4467" user="Rosscoe" changeset="6809861">
    <nd ref="896863181"/>
    <nd ref="247282830"/>
    <nd ref="247282831"/>
    <nd ref="247282832"/>
    <nd ref="247282833"/>
    <nd ref="247282834"/>
    <nd ref="247282835"/>
    <nd ref="501842493"/>
    <nd ref="247282836"/>
    <nd ref="501842492"/>
    <nd ref="247282840"/>
    <nd ref="247282912"/>
    <nd ref="247282843"/>
    <nd ref="247282844"/>
    <nd ref="247282845"/>
    <nd ref="501842491"/>
    <nd ref="501842490"/>
    <nd ref="247283032"/>
    <tag k="highway" v="residential"/>
    <tag k="maxspeed" v="50"/>
    <tag k="name" v="Cable Beach Road West"/>
    <tag k="source:maxspeed" v="default residential speed limit in Australia"/>
  </way>
  <way id="75986215" version="3" timestamp="2011-05-25T03:18:30Z" uid="4467" user="Rosscoe" changeset="8241167">
    <nd ref="896863173"/>
    <nd ref="896863221"/>
    <nd ref="896863589"/>
    <nd ref="1299172299"/>
    <nd ref="896863448"/>
    <nd ref="896863173"/>
    <tag k="addr:city" v="Broome"/>
    <tag k="addr:country" v="AU"/>
    <tag k="addr:housenumber" v="16"/>
    <tag k="addr:street" v="Millington Road"/>
    <tag k="name" v="Tarangau Caravan Park"/>
    <tag k="phone" v="+61891935084"/>
    <tag k="tourism" v="caravan_site"/>
  </way>
  <way id="75986216" version="2" timestamp="2011-05-25T02:08:21Z" uid="4467" user="Rosscoe" changeset="8240957">
    <nd ref="247281984"/>
    <nd ref="1299097776"/>
    <tag k="highway" v="primary"/>
    <tag k="name" v="Gubinge Road"/>
    <tag k="oneway" v="yes"/>
  </way>
  <way id="75986220" version="2" timestamp="2010-12-30T14:15:05Z" uid="4467" user="Rosscoe" changeset="6809861">
    <nd ref="896863394"/>
    <nd ref="896863229"/>
    <nd ref="896863609"/>
    <nd ref="896863289"/>
    <tag k="highway" v="secondary"/>
    <tag k="name" v="Cable Beach Road East"/>
    <tag k="oneway" v="yes"/>
  </way>
  <way id="75986220" version="3" timestamp="2011-05-25T02:39:43Z" uid="4467" user="Rosscoe" changeset="8241073">
    <nd ref="1299131909"/>
    <nd ref="1299131757"/>
    <nd ref="1299131858"/>
    <tag k="highway" v="primary_link"/>
    <tag k="oneway" v="yes"/>
  </way>
  <way id="75986224" version="2" timestamp="2011-05-25T02:39:50Z" uid="4467" user="Rosscoe" changeset="8241073">
    <nd ref="896863398"/>
    <nd ref="1299131590"/>
    <nd ref="1299132008"/>
    <nd ref="1299131912"/>
    <nd ref="896863239"/>
    <tag k="highway" v="residential"/>
    <tag k="name" v="Dickson Street"/>
  </way>
  <way id="75986224" version="3" timestamp="2011-05-25T03:18:28Z" uid="4467" user="Rosscoe" changeset="8241167">
    <nd ref="896863398"/>
    <nd ref="1299131590"/>
    <nd ref="1299132008"/>
    <nd ref="1299131912"/>
    <nd ref="896863239"/>
    <tag k="highway" v="residential"/>
    <tag k="maxspeed" v="50"/>
    <tag k="name" v="Dickson Street"/>
  </way>
  <way id="75986225" version="2" timestamp="2010-12-30T14:15:03Z" uid="4467" user="Rosscoe" changeset="6809861">
    <nd ref="247283030"/>
    <nd ref="247283096"/>
    <nd ref="247283134"/>
    <nd ref="896863560"/>
    <tag k="highway" v="residential"/>
    <tag k="maxspeed" v="50"/>
    <tag k="name" v="Sanctuary Road"/>
    <tag k="source:maxspeed" v="default residential speed limit in Australia"/>
  </way>
  <way id="75986227" version="2" timestamp="2011-05-25T02:39:40Z" uid="4467" user="Rosscoe" changeset="8241073">
    <nd ref="896863180"/>
    <nd ref="896863551"/>
    <nd ref="1299131701"/>
    <nd ref="1299131728"/>
    <nd ref="1299131881"/>
    <nd ref="1299132110"/>
    <nd ref="1299131850"/>
    <nd ref="1299132024"/>
    <nd ref="1299132164"/>
    <nd ref="1299131794"/>
    <nd ref="1299131947"/>
    <nd ref="1299132089"/>
    <nd ref="1299131587"/>
    <nd ref="1299131606"/>
    <nd ref="1299131753"/>
    <nd ref="1299131906"/>
    <nd ref="1299132039"/>
    <nd ref="1299131669"/>
    <tag k="highway" v="unclassified"/>
    <tag k="name" v="Blackman Street"/>
  </way>
</osm>
