<?xml version='1.0' encoding='UTF-8'?>
<osm version="0.6" generator="libosmium/2.20.0">
  <way id="7605033" version="13" timestamp="2010-03-14T13:52:28Z" uid="9719" user="dvaey" changeset="4123615">
    <nd ref="152476552"/>
    <nd ref="25326019"/>
    <nd ref="277872661"/>
    <nd ref="81228088"/>
    <nd ref="167715340"/>
    <nd ref="25326018"/>
    <nd ref="25326017"/>
    <nd ref="665892779"/>
    <nd ref="25326016"/>
    <nd ref="665892780"/>
    <nd ref="25326015"/>
    <nd ref="25326014"/>
    <nd ref="25326013"/>
    <nd ref="25326012"/>
    <nd ref="25326011"/>
    <nd ref="25326010"/>
    <nd ref="60165144"/>
    <nd ref="54299699"/>
    <tag k="highway" v="trunk"/>
    <tag k="maxspeed" v="80"/>
    <tag k="name" v="Erindale Drive"/>
    <tag k="oneway" v="yes"/>
  </way>
  <way id="7605033" version="14" timestamp="2010-03-14T13:56:55Z" uid="9719" user="dvaey" changeset="4123615">
    <nd ref="152474709"/>
    <nd ref="25326019"/>
    <nd ref="277872661"/>
    <nd ref="81228088"/>
    <nd ref="167715340"/>
    <nd ref="25326018"/>
    <nd ref="25326017"/>
    <nd ref="665892779"/>
    <nd ref="25326016"/>
    <nd ref="665892780"/>
    <nd ref="25326015"/>
    <nd ref="25326014"/>
    <nd ref="25326013"/>
    <nd ref="25326012"/>
    <nd ref="25326011"/>
    <nd ref="25326010"/>
    <nd ref="60165144"/>
    <nd ref="54299699"/>
    <tag k="highway" v="trunk"/>
    <tag k="maxspeed" v="80"/>
    <tag k="name" v="Erindale Drive"/>
    <tag k="oneway" v="yes"/>
  </way>
  <way id="7605126" version="2" timestamp="2008-06-15T12:33:22Z" uid="30201" user="rrankin" changeset="175923">
    <nd ref="55163729"/>
    <nd ref="55163900"/>
    <tag k="created_by" v="Potlatch alpha"/>
    <tag k="highway" v="unclassified"/>
    <tag k="name" v="Fisher Street"/>
  </way>
  <way id="7605240" version="2" timestamp="2008-06-15T12:33:26Z" uid="30201" user="rrankin" changeset="175923"/>
  <way id="7605340" version="2" timestamp="2008-06-07T06:23:16Z" uid="30201" user="rrankin" changeset="81397">
    <nd ref="55164395"/>
    <nd ref="55164397"/>
    <nd ref="268908230"/>
    <nd ref="55164401"/>
    <tag k="created_by" v="Potlatch alpha"/>
    <tag k="highway" v="residential"/>
  </way>
  <way id="7605340" version="3" timestamp="2008-06-15T12:33:24Z" uid="30201" user="rrankin" changeset="175923">
    <nd ref="55164395"/>
    <nd ref="55164397"/>
    <nd ref="268908230"/>
    <nd ref="55164401"/>
    <tag k="created_by" v="Potlatch alpha"/>
    <tag k="highway" v="residential"/>
    <tag k="name" v="Deakin Street"/>
  </way>
  <way id="7605340" version="5" timestamp="2009-12-06T22:37:26Z" uid="30201" user="rrankin" changeset="3310717">
    <nd ref="372423901"/>
    <nd ref="55164397"/>
    <nd ref="472295578"/>
    <nd ref="268908230"/>
    <nd ref="55164401"/>
    <tag k="highway" v="residential"/>
    <tag k="name" v="Deakin Street"/>
  </way>
  <way id="7605340" version="6" timestamp="2010-07-08T03:06:53Z" uid="74617" user="JohnSmith" changeset="5163091">
    <nd ref="372423901"/>
    <nd ref="55164397"/>
    <nd ref="472295578"/>
    <nd ref="268908230"/>
    <nd ref="55164401"/>
    <tag k="highway" v="residential"/>
    <tag k="maxspeed" v="50"/>
    <tag k="maxspeed:source" v="default residential speed limit in Australia"/>
    <tag k="name" v="Deakin Street"/>
  </way>
  <way id="7605414" version="2" timestamp="2008-06-07T06:23:09Z" uid="30201" user="rrankin" changeset="81397">
    <nd ref="55164397"/>
    <nd ref="268908222"/>
    <nd ref="268908229"/>
    <nd ref="55164571"/>
    <tag k="created_by" v="Potlatch alpha"/>
    <tag k="highway" v="residential"/>
  </way>
  <way id="7605414" version="3" timestamp="2008-06-15T12:38:00Z" uid="30201" user="rrankin" changeset="175923">
    <nd ref="55164397"/>
    <nd ref="268908222"/>
    <nd ref="268908229"/>
    <nd ref="55164571"/>
    <tag k="created_by" v="Potlatch alpha"/>
    <tag k="highway" v="residential"/>
    <tag k="name" v="Melton Street"/>
  </way>
  <way id="7605414" version="4" timestamp="2010-07-08T03:07:00Z" uid="74617" user="JohnSmith" changeset="5163091">
    <nd ref="55164397"/>
    <nd ref="268908222"/>
    <nd ref="268908229"/>
    <nd ref="55164571"/>
    <tag k="highway" v="residential"/>
    <tag k="maxspeed" v="50"/>
    <tag k="maxspeed:source" v="default residential speed limit in Australia"/>
    <tag k="name" v="Melton Street"/>
  </way>
  <way id="7605482" version="2" timestamp="2008-06-07T05:44:36Z" uid="30201" user="rrankin" changeset="81397">
    <nd ref="55164623"/>
    <nd ref="55165375"/>
    <nd ref="55162793"/>
    <nd ref="55165968"/>
    <nd ref="55164829"/>
    <nd ref="268906235"/>
    <nd ref="55166383"/>
    <nd ref="55164830"/>
    <tag k="created_by" v="Potlatch alpha"/>
    <tag k="highway" v="residential"/>
  </way>
  <way id="7605482" version="3" timestamp="2008-06-13T06:03:25Z" uid="30201" user="rrankin" changeset="152574">
    <nd ref="55164623"/>
    <nd ref="55165375"/>
    <nd ref="55162793"/>
    <nd ref="55165968"/>
    <nd ref="55164829"/>
    <nd ref="268906235"/>
    <nd ref="55166383"/>
    <nd ref="55164830"/>
    <tag k="created_by" v="Potlatch alpha"/>
    <tag k="highway" v="residential"/>
    <tag k="name" v="Vore Street"/>
  </way>
  <way id="7605482" version="4" timestamp="2009-07-05T07:30:58Z" uid="7617" user="Franc" changeset="1736354">
    <nd ref="55164623"/>
    <nd ref="55165375"/>
    <nd ref="55162793"/>
    <nd ref="55165968"/>
    <nd ref="55164829"/>
    <nd ref="268906235"/>
    <nd ref="55164830"/>
    <tag k="created_by" v="Potlatch alpha"/>
    <tag k="highway" v="residential"/>
    <tag k="name" v="Vore Street"/>
    <tag k="source" v="survey"/>
  </way>
  <way id="7605482" version="5" timestamp="2010-01-15T10:28:27Z" uid="7617" user="Franc" changeset="3623118">
    <nd ref="55164623"/>
    <nd ref="55165375"/>
    <nd ref="614107380"/>
    <tag k="highway" v="residential"/>
    <tag k="name" v="Vore Street"/>
    <tag k="source" v="survey"/>
  </way>
  <way id="7605482" version="6" timestamp="2010-07-08T03:07:03Z" uid="74617" user="JohnSmith" changeset="5163091">
    <nd ref="55164623"/>
    <nd ref="55165375"/>
    <nd ref="614107380"/>
    <tag k="highway" v="residential"/>
    <tag k="maxspeed" v="50"/>
    <tag k="maxspeed:source" v="default residential speed limit in Australia"/>
    <tag k="name" v="Vore Street"/>
    <tag k="source" v="survey"/>
  </way>
  <way id="7605537" version="2" timestamp="2008-06-13T06:26:31Z" uid="30201" user="rrankin" changeset="152574">
    <nd ref="47377803"/>
    <nd ref="55164829"/>
    <nd ref="55165015"/>
    <nd ref="55165016"/>
    <nd ref="55165017"/>
    <tag k="created_by" v="Potlatch alpha"/>
    <tag k="highway" v="residential"/>
    <tag k="name" v="Egerton Street"/>
  </way>
  <way id="7605537" version="3" timestamp="2010-01-15T10:28:35Z" uid="7617" user="Franc" changeset="3623118">
    <nd ref="47377803"/>
    <nd ref="55164829"/>
    <nd ref="614107386"/>
    <nd ref="614107387"/>
    <nd ref="55165015"/>
    <nd ref="55165016"/>
    <nd ref="614107385"/>
    <nd ref="55165017"/>
    <tag k="highway" v="residential"/>
    <tag k="name" v="Egerton Street"/>
  </way>
  <way id="7605537" version="4" timestamp="2010-07-08T03:07:01Z" uid="74617" user="JohnSmith" changeset="5163091">
    <nd ref="47377803"/>
    <nd ref="55164829"/>
    <nd ref="614107386"/>
    <nd ref="614107387"/>
    <nd ref="55165015"/>
    <nd ref="55165016"/>
    <nd ref="614107385"/>
    <nd ref="55165017"/>
    <tag k="highway" v="residential"/>
    <tag k="maxspeed" v="50"/>
    <tag k="maxspeed:source" v="default residential speed limit in Australia"/>
    <tag k="name" v="Egerton Street"/>
  </way>
  <way id="7605582" version="2" timestamp="2008-06-07T05:44:33Z" uid="30201" user="rrankin" changeset="81397">
    <nd ref="55165016"/>
    <nd ref="55166458"/>
    <nd ref="268906235"/>
    <nd ref="47382101"/>
    <tag k="created_by" v="Potlatch alpha"/>
    <tag k="highway" v="residential"/>
  </way>
  <way id="7605582" version="3" timestamp="2008-06-13T06:26:35Z" uid="30201" user="rrankin" changeset="152574">
    <nd ref="55165016"/>
    <nd ref="55166458"/>
    <nd ref="268906235"/>
    <nd ref="47382101"/>
    <tag k="created_by" v="Potlatch alpha"/>
    <tag k="highway" v="unclassified"/>
    <tag k="name" v="Fariola Street"/>
  </way>
  <way id="7605582" version="4" timestamp="2010-01-15T10:28:36Z" uid="7617" user="Franc" changeset="3623118">
    <nd ref="55165016"/>
    <nd ref="614107384"/>
    <nd ref="55166458"/>
    <nd ref="614107397"/>
    <tag k="highway" v="unclassified"/>
    <tag k="name" v="Fariola Street"/>
  </way>
  <way id="7605602" version="2" timestamp="2008-06-13T06:03:28Z" uid="30201" user="rrankin" changeset="152574">
    <nd ref="55165150"/>
    <nd ref="55165228"/>
    <tag k="created_by" v="Potlatch alpha"/>
    <tag k="highway" v="unclassified"/>
    <tag k="name" v="Stanley Street"/>
  </way>
  <way id="7605648" version="2" timestamp="2008-06-13T06:03:27Z" uid="30201" user="rrankin" changeset="152574">
    <nd ref="55165255"/>
    <nd ref="55165363"/>
    <tag k="created_by" v="Potlatch alpha"/>
    <tag k="highway" v="unclassified"/>
    <tag k="name" v="Churchill Street"/>
  </way>
  <way id="7605681" version="2" timestamp="2008-06-13T06:03:30Z" uid="30201" user="rrankin" changeset="152574">
    <nd ref="55165375"/>
    <nd ref="55165429"/>
    <tag k="created_by" v="Potlatch alpha"/>
    <tag k="highway" v="unclassified"/>
    <tag k="name" v="Salisbury Street"/>
  </way>
  <way id="7605779" version="2" timestamp="2008-06-13T06:03:31Z" uid="30201" user="rrankin" changeset="152574">
    <nd ref="55165465"/>
    <nd ref="55165429"/>
    <nd ref="55165623"/>
    <tag k="created_by" v="Potlatch alpha"/>
    <tag k="highway" v="unclassified"/>
    <tag k="name" v="Suttor Street"/>
  </way>
  <way id="7605939" version="2" timestamp="2008-06-15T12:47:19Z" uid="30201" user="rrankin" changeset="175923">
    <nd ref="55165631"/>
    <nd ref="55165957"/>
    <tag k="created_by" v="Potlatch alpha"/>
    <tag k="highway" v="residential"/>
    <tag k="name" v="Grey Street"/>
  </way>
  <way id="7605939" version="3" timestamp="2010-07-08T03:06:54Z" uid="74617" user="JohnSmith" changeset="5163091">
    <nd ref="55165631"/>
    <nd ref="55165957"/>
    <tag k="highway" v="residential"/>
    <tag k="maxspeed" v="50"/>
    <tag k="maxspeed:source" v="default residential speed limit in Australia"/>
    <tag k="name" v="Grey Street"/>
  </way>
  <way id="7605990" version="2" timestamp="2008-06-13T06:03:32Z" uid="30201" user="rrankin" changeset="152574">
    <nd ref="55165968"/>
    <nd ref="55166067"/>
    <tag k="created_by" v="Potlatch alpha"/>
    <tag k="highway" v="unclassified"/>
    <tag k="name" v="Wiblen Street"/>
  </way>
</osm>
