<?xml version='1.0' encoding='UTF-8'?>
<osm version="0.6" generator="libosmium/2.20.0">
  <way id="7659126" version="7" timestamp="2008-12-22T00:10:06Z" uid="1066" user="pavel" changeset="541832">
    <nd ref="29166269"/>
    <nd ref="7081082"/>
    <nd ref="7080856"/>
    <nd ref="30024849"/>
    <nd ref="30024850"/>
    <nd ref="7080854"/>
    <nd ref="243518635"/>
    <nd ref="7080850"/>
    <nd ref="243518640"/>
    <nd ref="30024851"/>
    <nd ref="7080847"/>
    <nd ref="7080844"/>
    <nd ref="320778010"/>
    <nd ref="7080841"/>
    <nd ref="29447592"/>
    <nd ref="7080835"/>
    <nd ref="7080821"/>
    <nd ref="21263162"/>
    <nd ref="55505421"/>
    <nd ref="483390"/>
    <nd ref="483389"/>
    <nd ref="65354242"/>
    <nd ref="8811408"/>
    <tag k="created_by" v="Potlatch 0.10b"/>
    <tag k="highway" v="primary"/>
    <tag k="name" v="Přátelství"/>
    <tag k="note" v="Hlavní cesta Praha - Říčany"/>
    <tag k="ref" v="2"/>
    <tag k="source:ref" v="survey"/>
  </way>
  <way id="7659126" version="10" timestamp="2009-03-03T21:09:38Z" uid="1066" user="pavel" changeset="729965">
    <nd ref="29166269"/>
    <nd ref="7081082"/>
    <nd ref="7080856"/>
    <nd ref="30024849"/>
    <nd ref="30024850"/>
    <nd ref="355309161"/>
    <nd ref="7080854"/>
    <nd ref="243518635"/>
    <nd ref="7080850"/>
    <nd ref="243518640"/>
    <nd ref="30024851"/>
    <nd ref="344251647"/>
    <nd ref="7080847"/>
    <nd ref="7080844"/>
    <nd ref="344247186"/>
    <nd ref="320778010"/>
    <nd ref="7080841"/>
    <nd ref="29447592"/>
    <nd ref="7080835"/>
    <nd ref="7080821"/>
    <nd ref="21263162"/>
    <nd ref="55505421"/>
    <nd ref="483390"/>
    <nd ref="483389"/>
    <nd ref="65354242"/>
    <nd ref="8811408"/>
    <tag k="created_by" v="Potlatch 0.10b"/>
    <tag k="highway" v="primary"/>
    <tag k="name" v="Přátelství"/>
    <tag k="note" v="Hlavní cesta Praha - Říčany"/>
    <tag k="ref" v="2"/>
    <tag k="source:ref" v="survey"/>
  </way>
  <way id="7659126" version="14" timestamp="2009-09-01T00:27:45Z" uid="23543" user="jkjk" changeset="2332611">
    <nd ref="29166269"/>
    <nd ref="7081082"/>
    <nd ref="7080856"/>
    <nd ref="30024849"/>
    <nd ref="30024850"/>
    <nd ref="355309161"/>
    <nd ref="7080854"/>
    <nd ref="243518635"/>
    <nd ref="7080850"/>
    <nd ref="409198481"/>
    <tag k="highway" v="primary"/>
    <tag k="kct_red" v="major"/>
    <tag k="name" v="Přátelství"/>
    <tag k="note" v="Hlavní cesta Praha - Říčany"/>
    <tag k="ref" v="2"/>
    <tag k="source:ref" v="survey"/>
  </way>
  <way id="7659281" version="1" timestamp="2007-09-20T21:45:13Z" uid="6454" user="B10xxx" changeset="484736">
    <nd ref="55503146"/>
    <nd ref="55507220"/>
    <nd ref="28535845"/>
    <tag k="created_by" v="JOSM"/>
    <tag k="highway" v="secondary"/>
    <tag k="ref" v="improve_me"/>
  </way>
</osm>
