<?xml version='1.0' encoding='UTF-8'?>
<osm version="0.6" generator="libosmium/2.20.0">
  <way id="76717609" version="1" timestamp="2010-09-09T11:04:13Z" uid="7617" user="Franc" changeset="5731600">
    <nd ref="903972879"/>
    <nd ref="903972885"/>
    <tag k="addr:interpolation" v="odd"/>
  </way>
  <way id="76717610" version="1" timestamp="2010-09-09T11:04:13Z" uid="7617" user="Franc" changeset="5731600">
    <nd ref="903972927"/>
    <nd ref="31884018"/>
    <nd ref="31536575"/>
    <tag k="highway" v="residential"/>
    <tag k="maxspeed" v="50"/>
    <tag k="maxspeed:source" v="default residential speed limit in Australia"/>
    <tag k="name" v="The Boulevarde"/>
  </way>
  <way id="76717610" version="2" timestamp="2010-11-07T10:58:46Z" uid="7617" user="Franc" changeset="6310020">
    <nd ref="903972927"/>
    <nd ref="980351169"/>
    <nd ref="980351414"/>
    <tag k="highway" v="residential"/>
    <tag k="maxspeed" v="50"/>
    <tag k="maxspeed:source" v="default residential speed limit in Australia"/>
    <tag k="name" v="The Boulevarde"/>
  </way>
  <way id="76717616" version="1" timestamp="2010-09-09T11:04:14Z" uid="7617" user="Franc" changeset="5731600">
    <nd ref="903972918"/>
    <nd ref="31199704"/>
    <nd ref="903972960"/>
    <tag k="highway" v="residential"/>
    <tag k="lcn" v="yes"/>
    <tag k="lcn_ref" v="L4"/>
    <tag k="maxspeed" v="50"/>
    <tag k="maxspeed:source" v="default residential speed limit in Australia"/>
    <tag k="name" v="Victoria Street"/>
    <tag k="restriction" v="school_zone"/>
    <tag k="source:name" v="survey"/>
  </way>
  <way id="76717620" version="1" timestamp="2010-09-09T11:04:14Z" uid="7617" user="Franc" changeset="5731600">
    <nd ref="903972913"/>
    <nd ref="903972914"/>
    <nd ref="903972919"/>
    <nd ref="903972920"/>
    <nd ref="31884013"/>
    <tag k="highway" v="residential"/>
    <tag k="maxspeed" v="50"/>
    <tag k="maxspeed:source" v="default residential speed limit in Australia"/>
    <tag k="name" v="Denison Road"/>
    <tag k="source:name" v="survey"/>
  </way>
  <way id="76717625" version="1" timestamp="2010-09-09T11:04:15Z" uid="7617" user="Franc" changeset="5731600">
    <nd ref="903972959"/>
    <nd ref="31199704"/>
    <nd ref="298558253"/>
    <nd ref="31884013"/>
    <nd ref="316022745"/>
    <nd ref="31536574"/>
    <nd ref="903972915"/>
    <tag k="highway" v="secondary"/>
    <tag k="name" v="Toothill Street"/>
    <tag k="restriction" v="school_zone"/>
  </way>
  <way id="76717627" version="1" timestamp="2010-09-09T11:04:15Z" uid="7617" user="Franc" changeset="5731600">
    <nd ref="903972915"/>
    <nd ref="12603320"/>
    <tag k="highway" v="secondary"/>
    <tag k="name" v="Toothill Street"/>
  </way>
  <way id="76717632" version="1" timestamp="2010-09-09T11:04:15Z" uid="7617" user="Franc" changeset="5731600">
    <nd ref="903972930"/>
    <nd ref="903972958"/>
    <nd ref="903972946"/>
    <nd ref="903972947"/>
    <nd ref="903972948"/>
    <nd ref="903972949"/>
    <nd ref="903972950"/>
    <nd ref="903972951"/>
    <nd ref="903972952"/>
    <nd ref="903972953"/>
    <nd ref="903972954"/>
    <nd ref="903972944"/>
    <nd ref="903972945"/>
    <nd ref="903972932"/>
    <nd ref="903972935"/>
    <nd ref="903972955"/>
    <nd ref="903972956"/>
    <nd ref="903972943"/>
    <nd ref="903972930"/>
    <tag k="building" v="yes"/>
    <tag k="name" v="Office Works"/>
    <tag k="shop" v="stationery"/>
  </way>
  <way id="76717634" version="1" timestamp="2010-09-09T11:04:16Z" uid="7617" user="Franc" changeset="5731600">
    <nd ref="903972960"/>
    <nd ref="31199705"/>
    <nd ref="31199706"/>
    <nd ref="599205477"/>
    <nd ref="31199707"/>
    <tag k="highway" v="residential"/>
    <tag k="lcn" v="yes"/>
    <tag k="lcn_ref" v="L4"/>
    <tag k="maxspeed" v="50"/>
    <tag k="maxspeed:source" v="default residential speed limit in Australia"/>
    <tag k="name" v="Victoria Street"/>
    <tag k="source:name" v="survey"/>
  </way>
  <way id="76717637" version="1" timestamp="2010-09-09T11:04:16Z" uid="7617" user="Franc" changeset="5731600">
    <nd ref="29376584"/>
    <nd ref="29376585"/>
    <nd ref="28358559"/>
    <nd ref="31861355"/>
    <tag k="highway" v="tertiary"/>
    <tag k="name" v="Shaw Street"/>
  </way>
  <way id="76717637" version="2" timestamp="2010-11-19T11:39:02Z" uid="7617" user="Franc" changeset="6406254">
    <nd ref="29376584"/>
    <nd ref="29376585"/>
    <nd ref="28358559"/>
    <nd ref="994534455"/>
    <nd ref="31861355"/>
    <tag k="highway" v="tertiary"/>
    <tag k="name" v="Shaw Street"/>
  </way>
  <way id="76717641" version="1" timestamp="2010-09-09T11:04:17Z" uid="7617" user="Franc" changeset="5731600">
    <nd ref="903972968"/>
    <nd ref="903972967"/>
    <nd ref="903972966"/>
    <nd ref="903972965"/>
    <nd ref="903972963"/>
    <nd ref="903972964"/>
    <nd ref="893982663"/>
    <tag k="addr:interpolation" v="even"/>
  </way>
  <way id="76717641" version="2" timestamp="2011-04-01T09:06:06Z" uid="7617" user="Franc" changeset="7733503">
    <nd ref="1227750985"/>
    <nd ref="1227751002"/>
    <nd ref="903972968"/>
    <nd ref="903972967"/>
    <nd ref="903972966"/>
    <nd ref="903972965"/>
    <nd ref="903972963"/>
    <tag k="addr:interpolation" v="even"/>
  </way>
  <way id="76717641" version="3" timestamp="2011-05-06T10:28:59Z" uid="7617" user="Franc" changeset="8064166">
    <nd ref="1227750985"/>
    <nd ref="1227751002"/>
    <nd ref="903972968"/>
    <tag k="addr:interpolation" v="even"/>
  </way>
</osm>
