<?xml version='1.0' encoding='UTF-8'?>
<osm version="0.6" generator="libosmium/2.20.0">
  <way id="76721725" version="1" timestamp="2010-09-09T11:14:18Z" uid="4467" user="Rosscoe" changeset="5731662">
    <nd ref="322281719"/>
    <nd ref="903975285"/>
    <nd ref="903975311"/>
    <nd ref="903975286"/>
    <nd ref="903975309"/>
    <tag k="highway" v="residential"/>
    <tag k="name" v="Smokebush Street"/>
    <tag k="source" v="survey"/>
  </way>
  <way id="76721726" version="1" timestamp="2010-09-09T11:14:18Z" uid="4467" user="Rosscoe" changeset="5731662">
    <nd ref="903975303"/>
    <nd ref="903975329"/>
    <nd ref="903975298"/>
    <nd ref="903975321"/>
    <nd ref="903975315"/>
    <nd ref="903975268"/>
    <nd ref="322281715"/>
    <nd ref="903975258"/>
    <nd ref="903975303"/>
    <tag k="highway" v="residential"/>
    <tag k="junction" v="roundabout"/>
    <tag k="source" v="survey"/>
  </way>
  <way id="76721727" version="1" timestamp="2010-09-09T11:14:18Z" uid="4467" user="Rosscoe" changeset="5731662">
    <nd ref="903975314"/>
    <nd ref="903975330"/>
    <nd ref="903975254"/>
    <nd ref="322281723"/>
    <tag k="highway" v="residential"/>
    <tag k="name" v="Windgrass Way"/>
    <tag k="source" v="survey"/>
  </way>
  <way id="76721728" version="1" timestamp="2010-09-09T11:14:18Z" uid="4467" user="Rosscoe" changeset="5731662">
    <nd ref="903975328"/>
    <nd ref="903975291"/>
    <nd ref="903975278"/>
    <tag k="highway" v="residential"/>
    <tag k="name" v="Turtle Close"/>
    <tag k="source" v="survey"/>
  </way>
  <way id="76721730" version="1" timestamp="2010-09-09T11:14:19Z" uid="4467" user="Rosscoe" changeset="5731662">
    <nd ref="903975266"/>
    <nd ref="903975301"/>
    <nd ref="903975290"/>
    <nd ref="903975277"/>
    <nd ref="903975267"/>
    <nd ref="903975257"/>
    <nd ref="903975331"/>
    <nd ref="903975323"/>
    <nd ref="903975317"/>
    <nd ref="903975275"/>
    <nd ref="903975268"/>
    <tag k="highway" v="residential"/>
    <tag k="name" v="Bowerbird Road"/>
    <tag k="source" v="survey"/>
  </way>
  <way id="76721731" version="1" timestamp="2010-09-09T11:14:19Z" uid="4467" user="Rosscoe" changeset="5731662">
    <nd ref="903975269"/>
    <nd ref="903975293"/>
    <nd ref="903975306"/>
    <nd ref="903975300"/>
    <nd ref="903975288"/>
    <nd ref="903975320"/>
    <nd ref="903975314"/>
    <nd ref="903975309"/>
    <nd ref="903975304"/>
    <nd ref="903975299"/>
    <nd ref="903975287"/>
    <nd ref="903975302"/>
    <nd ref="903975313"/>
    <nd ref="903975279"/>
    <tag k="highway" v="residential"/>
    <tag k="name" v="Gecko Circuit"/>
    <tag k="source" v="survey"/>
  </way>
  <way id="76721732" version="1" timestamp="2010-09-09T11:14:19Z" uid="4467" user="Rosscoe" changeset="5731662">
    <nd ref="897050090"/>
    <nd ref="903975293"/>
    <nd ref="903975274"/>
    <nd ref="903975264"/>
    <nd ref="903975254"/>
    <nd ref="903975327"/>
    <nd ref="903975296"/>
    <nd ref="903975285"/>
    <nd ref="903975273"/>
    <nd ref="903975259"/>
    <nd ref="903975333"/>
    <nd ref="903975326"/>
    <nd ref="903975319"/>
    <nd ref="903975313"/>
    <nd ref="903975256"/>
    <nd ref="903975303"/>
    <tag k="highway" v="residential"/>
    <tag k="name" v="Desert Pea Boulevard"/>
    <tag k="oneway" v="yes"/>
    <tag k="source" v="survey"/>
  </way>
  <way id="76721733" version="1" timestamp="2010-09-09T11:14:19Z" uid="4467" user="Rosscoe" changeset="5731662">
    <nd ref="903975302"/>
    <nd ref="903975297"/>
    <nd ref="903975286"/>
    <tag k="highway" v="residential"/>
    <tag k="name" v="Woolybutt Crescent"/>
    <tag k="source" v="survey"/>
  </way>
  <way id="76721734" version="1" timestamp="2010-09-09T11:14:19Z" uid="4467" user="Rosscoe" changeset="5731662">
    <nd ref="903975265"/>
    <nd ref="903975278"/>
    <nd ref="903975307"/>
    <nd ref="903975257"/>
    <tag k="highway" v="residential"/>
    <tag k="name" v="Seasnake Close"/>
    <tag k="source" v="survey"/>
  </way>
  <way id="76721735" version="1" timestamp="2010-09-09T11:14:20Z" uid="4467" user="Rosscoe" changeset="5731662">
    <nd ref="903975319"/>
    <nd ref="322281716"/>
    <nd ref="903975308"/>
    <nd ref="903975295"/>
    <nd ref="903975280"/>
    <nd ref="903975272"/>
    <nd ref="903975317"/>
    <tag k="highway" v="residential"/>
    <tag k="name" v="Flannelbush Turn"/>
    <tag k="source" v="survey"/>
  </way>
  <way id="76721736" version="1" timestamp="2010-09-09T11:14:20Z" uid="4467" user="Rosscoe" changeset="5731662">
    <nd ref="903975323"/>
    <nd ref="903975310"/>
    <nd ref="903975305"/>
    <nd ref="903975322"/>
    <nd ref="903975316"/>
    <nd ref="322282206"/>
    <tag k="highway" v="residential"/>
    <tag k="name" v="Mudlark Turn"/>
    <tag k="source" v="survey"/>
  </way>
  <way id="76721737" version="1" timestamp="2010-09-09T11:14:20Z" uid="4467" user="Rosscoe" changeset="5731662">
    <nd ref="903975311"/>
    <nd ref="903975325"/>
    <nd ref="903975318"/>
    <nd ref="903975312"/>
    <nd ref="903975326"/>
    <nd ref="322281717"/>
    <tag k="highway" v="residential"/>
    <tag k="name" v="Petrel Circuit"/>
    <tag k="source" v="survey"/>
  </way>
  <way id="76721738" version="1" timestamp="2010-09-09T11:14:20Z" uid="4467" user="Rosscoe" changeset="5731662">
    <nd ref="903975308"/>
    <nd ref="903975275"/>
    <tag k="highway" v="residential"/>
    <tag k="name" v="Plumegrass Way"/>
    <tag k="source" v="survey"/>
  </way>
  <way id="76721739" version="1" timestamp="2010-09-09T11:14:20Z" uid="4467" user="Rosscoe" changeset="5731662">
    <nd ref="322281715"/>
    <nd ref="903975294"/>
    <nd ref="903975279"/>
    <nd ref="322281716"/>
    <nd ref="322281717"/>
    <nd ref="903975332"/>
    <nd ref="322281718"/>
    <nd ref="903975324"/>
    <nd ref="322281719"/>
    <nd ref="322281720"/>
    <nd ref="322281722"/>
    <nd ref="322281723"/>
    <nd ref="322281724"/>
    <nd ref="322281725"/>
    <nd ref="903975269"/>
    <nd ref="903975255"/>
    <nd ref="897050085"/>
    <tag k="highway" v="residential"/>
    <tag k="name" v="Desert Pea Boulevard"/>
    <tag k="oneway" v="yes"/>
    <tag k="source" v="survey"/>
  </way>
</osm>
