<?xml version='1.0' encoding='UTF-8'?>
<osm version="0.6" generator="libosmium/2.20.0">
  <way id="76743251" version="3" timestamp="2011-01-14T18:12:18Z" uid="23543" user="jkjk" changeset="6969688"/>
  <way id="76743255" version="3" timestamp="2011-01-14T18:11:53Z" uid="23543" user="jkjk" changeset="6969688">
    <nd ref="904175090"/>
    <nd ref="904175100"/>
    <nd ref="1103541241"/>
    <nd ref="1103541584"/>
    <nd ref="1103541330"/>
    <nd ref="1103540702"/>
    <tag k="layer" v="-1"/>
    <tag k="waterway" v="stream"/>
  </way>
  <way id="76743265" version="1" timestamp="2010-09-09T16:37:42Z" uid="33382" user="de_muur" changeset="5734227">
    <nd ref="253743612"/>
    <nd ref="297733184"/>
    <nd ref="21659430"/>
    <nd ref="649106630"/>
    <nd ref="21659425"/>
    <nd ref="21659400"/>
    <nd ref="21659365"/>
    <tag k="cycleway" v="track"/>
    <tag k="highway" v="secondary"/>
    <tag k="name" v="Hauptstraße"/>
    <tag k="ref" v="L 133"/>
    <tag k="surface" v="paved"/>
  </way>
  <way id="76743266" version="1" timestamp="2010-09-09T16:37:43Z" uid="33382" user="de_muur" changeset="5734227">
    <nd ref="297733186"/>
    <nd ref="253743770"/>
    <nd ref="253745014"/>
    <nd ref="904177405"/>
    <tag k="cycleway" v="track"/>
    <tag k="highway" v="unclassified"/>
    <tag k="name" v="Bülstedter Straße"/>
    <tag k="surface" v="paved"/>
  </way>
  <way id="76743267" version="1" timestamp="2010-09-09T16:37:43Z" uid="33382" user="de_muur" changeset="5734227">
    <nd ref="254849910"/>
    <nd ref="370199579"/>
    <nd ref="255482230"/>
    <nd ref="904177422"/>
    <nd ref="255482231"/>
    <nd ref="255482232"/>
    <tag k="highway" v="tertiary"/>
    <tag k="name" v="Kirchtimker Straße"/>
    <tag k="ref" v="K 133"/>
    <tag k="surface" v="paved"/>
  </way>
  <way id="76743268" version="1" timestamp="2010-09-09T16:37:43Z" uid="33382" user="de_muur" changeset="5734227">
    <nd ref="904177405"/>
    <nd ref="253743771"/>
    <nd ref="253745071"/>
    <nd ref="253743612"/>
    <tag k="cycleway" v="track"/>
    <tag k="highway" v="residential"/>
    <tag k="name" v="Bülstedter Straße"/>
    <tag k="surface" v="paved"/>
  </way>
  <way id="76743780" version="1" timestamp="2010-09-09T16:43:22Z" uid="49111" user="Markus B" changeset="5734279">
    <nd ref="904185712"/>
    <nd ref="904185742"/>
    <tag k="amenity" v="fountain"/>
  </way>
  <way id="76743781" version="1" timestamp="2010-09-09T16:43:22Z" uid="49111" user="Markus B" changeset="5734279">
    <nd ref="904185725"/>
    <nd ref="904185756"/>
    <nd ref="904185752"/>
    <tag k="amenity" v="fountain"/>
  </way>
  <way id="76743782" version="1" timestamp="2010-09-09T16:43:22Z" uid="49111" user="Markus B" changeset="5734279">
    <nd ref="267264039"/>
    <nd ref="904185733"/>
    <tag k="highway" v="steps"/>
    <tag k="name" v="Lange Stiege"/>
  </way>
  <way id="76743783" version="1" timestamp="2010-09-09T16:43:22Z" uid="49111" user="Markus B" changeset="5734279">
    <nd ref="890859606"/>
    <nd ref="904185726"/>
    <nd ref="904185771"/>
    <nd ref="890859705"/>
    <nd ref="890859606"/>
    <tag k="leisure" v="pitch"/>
    <tag k="name" v="Handball"/>
  </way>
  <way id="76743784" version="1" timestamp="2010-09-09T16:43:22Z" uid="49111" user="Markus B" changeset="5734279">
    <nd ref="904185698"/>
    <nd ref="904185722"/>
    <nd ref="904185732"/>
    <tag k="amenity" v="bench"/>
  </way>
  <way id="76743786" version="1" timestamp="2010-09-09T16:43:23Z" uid="49111" user="Markus B" changeset="5734279">
    <nd ref="890859636"/>
    <nd ref="890859561"/>
    <nd ref="890859651"/>
    <nd ref="890859567"/>
    <nd ref="890859636"/>
    <tag k="leisure" v="playground"/>
    <tag k="name" v="Kindergarten"/>
  </way>
  <way id="76743787" version="1" timestamp="2010-09-09T16:43:23Z" uid="49111" user="Markus B" changeset="5734279">
    <nd ref="904185715"/>
    <nd ref="904185735"/>
    <nd ref="904185704"/>
    <nd ref="904185746"/>
    <nd ref="904185715"/>
    <tag k="amenity" v="biergarten"/>
  </way>
</osm>
