<?xml version='1.0' encoding='UTF-8'?>
<osm version="0.6" generator="libosmium/2.20.0">
  <way id="77207068" version="1" timestamp="2010-09-12T17:58:44Z" uid="33382" user="de_muur" changeset="5762415">
    <nd ref="148099"/>
    <nd ref="148100"/>
    <nd ref="33379661"/>
    <nd ref="148101"/>
    <nd ref="93064879"/>
    <tag k="highway" v="motorway"/>
    <tag k="int_ref" v="E 22"/>
    <tag k="maxspeed" v="100"/>
    <tag k="oneway" v="yes"/>
    <tag k="osmarender:renderName" v="no"/>
    <tag k="ref" v="A 1"/>
  </way>
  <way id="77207073" version="1" timestamp="2010-09-12T17:58:45Z" uid="33382" user="de_muur" changeset="5762415">
    <nd ref="148094"/>
    <nd ref="148095"/>
    <tag k="highway" v="motorway"/>
    <tag k="int_ref" v="E 22"/>
    <tag k="maxspeed" v="100"/>
    <tag k="oneway" v="yes"/>
    <tag k="ref" v="A 1"/>
  </way>
  <way id="77207075" version="1" timestamp="2010-09-12T17:58:45Z" uid="33382" user="de_muur" changeset="5762415">
    <nd ref="148110"/>
    <nd ref="148111"/>
    <nd ref="148112"/>
    <nd ref="148113"/>
    <nd ref="254401830"/>
    <nd ref="254401831"/>
    <nd ref="148114"/>
    <nd ref="254401832"/>
    <nd ref="254401833"/>
    <nd ref="254401834"/>
    <nd ref="254401750"/>
    <tag k="highway" v="motorway"/>
    <tag k="int_ref" v="E 22"/>
    <tag k="maxspeed" v="80"/>
    <tag k="oneway" v="yes"/>
    <tag k="osmarender:renderName" v="no"/>
    <tag k="ref" v="A 1"/>
  </way>
</osm>
