<?xml version='1.0' encoding='UTF-8'?>
<osm version="0.6" generator="libosmium/2.20.0">
  <way id="77227572" version="1" timestamp="2010-09-12T19:50:40Z" uid="8619" user="cetest" changeset="5763690">
    <nd ref="43938328"/>
    <nd ref="43940987"/>
    <tag k="AND_nosr_r" v="15278290"/>
    <tag k="highway" v="unclassified"/>
    <tag k="name" v="De Waag"/>
  </way>
  <way id="77227573" version="1" timestamp="2010-09-12T19:50:40Z" uid="8619" user="cetest" changeset="5763690">
    <nd ref="673235946"/>
    <nd ref="673235784"/>
    <tag k="bicycle" v="yes"/>
    <tag k="foot" v="yes"/>
    <tag k="hgv" v="no"/>
    <tag k="motorcar" v="no"/>
    <tag k="motorcycle" v="no"/>
    <tag k="name" v="Waterbus Drechtsteden"/>
    <tag k="operator" v="Waterbus B.V."/>
    <tag k="route" v="ferry"/>
  </way>
  <way id="77227575" version="1" timestamp="2010-09-12T19:50:40Z" uid="8619" user="cetest" changeset="5763690">
    <nd ref="909240920"/>
    <nd ref="43953827"/>
    <tag k="AND_nosr_r" v="15278174"/>
    <tag k="highway" v="unclassified"/>
    <tag k="name" v="Kuipershaven"/>
  </way>
  <way id="77227576" version="1" timestamp="2010-09-12T19:50:40Z" uid="8619" user="cetest" changeset="5763690">
    <nd ref="284940920"/>
    <nd ref="43931345"/>
    <tag k="AND:importance_level" v="5"/>
    <tag k="AND_nosr_r" v="15242567"/>
    <tag k="highway" v="tertiary"/>
    <tag k="layer" v="1"/>
    <tag k="name" v="Lange Geldersekade"/>
  </way>
  <way id="77227578" version="1" timestamp="2010-09-12T19:50:40Z" uid="8619" user="cetest" changeset="5763690">
    <nd ref="909240944"/>
    <nd ref="283965675"/>
    <nd ref="43937102"/>
    <nd ref="43938728"/>
    <tag k="highway" v="unclassified"/>
    <tag k="name" v="Wijnstraat"/>
  </way>
</osm>
