<?xml version='1.0' encoding='UTF-8'?>
<osm version="0.6" generator="libosmium/2.20.0">
  <way id="77433110" version="3" timestamp="2010-09-15T18:54:54Z" uid="23543" user="jkjk" changeset="5789778">
    <nd ref="500368198"/>
    <nd ref="500368196"/>
    <nd ref="500368189"/>
    <nd ref="500368242"/>
    <nd ref="500368182"/>
    <nd ref="500368175"/>
    <nd ref="500368159"/>
    <nd ref="500368152"/>
    <nd ref="544356395"/>
    <nd ref="500368146"/>
    <nd ref="911322617"/>
    <tag k="construction" v="motorway"/>
    <tag k="highway" v="construction"/>
    <tag k="layer" v="-1"/>
    <tag k="name" v="Pražský okruh"/>
    <tag k="note" v="to be finished in 2010"/>
    <tag k="oneway" v="yes"/>
    <tag k="opening_date" v="2010-09-20"/>
  </way>
  <way id="77433110" version="4" timestamp="2010-09-19T23:02:48Z" uid="23543" user="jkjk" changeset="5825108">
    <nd ref="500368198"/>
    <nd ref="500368196"/>
    <nd ref="500368189"/>
    <nd ref="500368242"/>
    <nd ref="500368182"/>
    <nd ref="500368175"/>
    <nd ref="500368159"/>
    <nd ref="500368152"/>
    <nd ref="544356395"/>
    <nd ref="500368146"/>
    <nd ref="911322617"/>
    <tag k="highway" v="motorway"/>
    <tag k="layer" v="-1"/>
    <tag k="name" v="Pražský okruh"/>
    <tag k="oneway" v="yes"/>
    <tag k="ref" v="R1"/>
  </way>
  <way id="77433112" version="3" timestamp="2010-09-15T18:54:58Z" uid="23543" user="jkjk" changeset="5789778">
    <nd ref="911322613"/>
    <nd ref="250835622"/>
    <nd ref="459394090"/>
    <nd ref="913118101"/>
    <nd ref="913118097"/>
    <nd ref="250835624"/>
    <nd ref="500368121"/>
    <nd ref="500368127"/>
    <tag k="construction" v="motorway"/>
    <tag k="highway" v="construction"/>
    <tag k="layer" v="-2"/>
    <tag k="name" v="Pražský okruh"/>
    <tag k="note" v="to be finished in 2010"/>
    <tag k="oneway" v="yes"/>
    <tag k="opening_date" v="2010-09-20"/>
  </way>
  <way id="77433112" version="4" timestamp="2010-09-19T23:02:49Z" uid="23543" user="jkjk" changeset="5825108">
    <nd ref="911322613"/>
    <nd ref="250835622"/>
    <nd ref="459394090"/>
    <nd ref="913118101"/>
    <nd ref="913118097"/>
    <nd ref="250835624"/>
    <nd ref="500368121"/>
    <nd ref="500368127"/>
    <tag k="highway" v="motorway"/>
    <tag k="layer" v="-2"/>
    <tag k="name" v="Pražský okruh"/>
    <tag k="oneway" v="yes"/>
    <tag k="ref" v="R1"/>
  </way>
  <way id="77433113" version="3" timestamp="2010-09-15T18:54:45Z" uid="23543" user="jkjk" changeset="5789778">
    <nd ref="500368133"/>
    <nd ref="500368116"/>
    <nd ref="500368106"/>
    <tag k="construction" v="motorway"/>
    <tag k="highway" v="construction"/>
    <tag k="layer" v="-1"/>
    <tag k="name" v="Pražský okruh"/>
    <tag k="note" v="to be finished in 2010"/>
    <tag k="oneway" v="yes"/>
    <tag k="opening_date" v="2010-09-20"/>
  </way>
  <way id="77433113" version="4" timestamp="2010-09-19T23:02:53Z" uid="23543" user="jkjk" changeset="5825108">
    <nd ref="500368133"/>
    <nd ref="500368116"/>
    <nd ref="500368106"/>
    <tag k="highway" v="motorway"/>
    <tag k="layer" v="-1"/>
    <tag k="name" v="Pražský okruh"/>
    <tag k="oneway" v="yes"/>
    <tag k="ref" v="R1"/>
  </way>
  <way id="77433115" version="3" timestamp="2010-09-15T18:54:48Z" uid="23543" user="jkjk" changeset="5789778">
    <nd ref="911322610"/>
    <nd ref="911322613"/>
    <tag k="construction" v="motorway"/>
    <tag k="highway" v="construction"/>
    <tag k="layer" v="-2"/>
    <tag k="name" v="Pražský okruh"/>
    <tag k="note" v="ekodukt"/>
    <tag k="oneway" v="yes"/>
    <tag k="opening_date" v="2010-09-20"/>
    <tag k="tunnel" v="yes"/>
  </way>
  <way id="77433115" version="4" timestamp="2010-09-19T23:02:55Z" uid="23543" user="jkjk" changeset="5825108">
    <nd ref="911322610"/>
    <nd ref="911322613"/>
    <tag k="highway" v="motorway"/>
    <tag k="layer" v="-2"/>
    <tag k="name" v="Pražský okruh"/>
    <tag k="oneway" v="yes"/>
    <tag k="ref" v="R1"/>
    <tag k="tunnel" v="yes"/>
  </way>
  <way id="77433116" version="3" timestamp="2010-09-15T18:54:40Z" uid="23543" user="jkjk" changeset="5789778">
    <nd ref="911322617"/>
    <nd ref="500368133"/>
    <tag k="construction" v="motorway"/>
    <tag k="highway" v="construction"/>
    <tag k="layer" v="-1"/>
    <tag k="name" v="Pražský okruh"/>
    <tag k="note" v="ekodukt"/>
    <tag k="oneway" v="yes"/>
    <tag k="opening_date" v="2010-09-20"/>
    <tag k="tunnel" v="yes"/>
  </way>
  <way id="77433116" version="4" timestamp="2010-09-19T23:02:54Z" uid="23543" user="jkjk" changeset="5825108">
    <nd ref="911322617"/>
    <nd ref="500368133"/>
    <tag k="highway" v="motorway"/>
    <tag k="layer" v="-1"/>
    <tag k="name" v="Pražský okruh"/>
    <tag k="oneway" v="yes"/>
    <tag k="ref" v="R1"/>
    <tag k="tunnel" v="yes"/>
  </way>
  <way id="77433117" version="3" timestamp="2010-09-15T18:54:51Z" uid="23543" user="jkjk" changeset="5789778">
    <nd ref="911322612"/>
    <nd ref="250835620"/>
    <nd ref="911322610"/>
    <tag k="construction" v="motorway"/>
    <tag k="highway" v="construction"/>
    <tag k="layer" v="-2"/>
    <tag k="name" v="Pražský okruh"/>
    <tag k="note" v="to be finished in 2010"/>
    <tag k="oneway" v="yes"/>
    <tag k="opening_date" v="2010-09-20"/>
  </way>
  <way id="77433117" version="4" timestamp="2010-09-19T23:02:49Z" uid="23543" user="jkjk" changeset="5825108">
    <nd ref="911322612"/>
    <nd ref="250835620"/>
    <nd ref="911322610"/>
    <tag k="highway" v="motorway"/>
    <tag k="layer" v="-2"/>
    <tag k="name" v="Pražský okruh"/>
    <tag k="oneway" v="yes"/>
    <tag k="ref" v="R1"/>
  </way>
  <way id="77433118" version="3" timestamp="2010-09-15T18:54:42Z" uid="23543" user="jkjk" changeset="5789778">
    <nd ref="911322611"/>
    <nd ref="911322612"/>
    <tag k="construction" v="motorway"/>
    <tag k="highway" v="construction"/>
    <tag k="layer" v="-2"/>
    <tag k="name" v="Pražský okruh"/>
    <tag k="note" v="ekodukt"/>
    <tag k="oneway" v="yes"/>
    <tag k="opening_date" v="2010-09-20"/>
    <tag k="tunnel" v="yes"/>
  </way>
  <way id="77433118" version="4" timestamp="2010-09-19T23:02:48Z" uid="23543" user="jkjk" changeset="5825108">
    <nd ref="911322611"/>
    <nd ref="911322612"/>
    <tag k="highway" v="motorway"/>
    <tag k="layer" v="-2"/>
    <tag k="name" v="Pražský okruh"/>
    <tag k="oneway" v="yes"/>
    <tag k="ref" v="R1"/>
    <tag k="tunnel" v="yes"/>
  </way>
  <way id="77433119" version="3" timestamp="2010-09-15T18:54:53Z" uid="23543" user="jkjk" changeset="5789778">
    <nd ref="500368106"/>
    <nd ref="911322609"/>
    <tag k="construction" v="motorway"/>
    <tag k="highway" v="construction"/>
    <tag k="layer" v="-1"/>
    <tag k="name" v="Pražský okruh"/>
    <tag k="note" v="ekodukt"/>
    <tag k="oneway" v="yes"/>
    <tag k="opening_date" v="2010-09-20"/>
    <tag k="tunnel" v="yes"/>
  </way>
  <way id="77433119" version="4" timestamp="2010-09-19T23:02:52Z" uid="23543" user="jkjk" changeset="5825108">
    <nd ref="500368106"/>
    <nd ref="911322609"/>
    <tag k="highway" v="motorway"/>
    <tag k="layer" v="-1"/>
    <tag k="name" v="Pražský okruh"/>
    <tag k="oneway" v="yes"/>
    <tag k="ref" v="R1"/>
    <tag k="tunnel" v="yes"/>
  </way>
  <way id="77433463" version="2" timestamp="2011-04-05T02:50:39Z" uid="4467" user="Rosscoe" changeset="7771132">
    <nd ref="36713465"/>
    <nd ref="911327660"/>
    <nd ref="1233256412"/>
    <tag k="admin_level" v="10"/>
    <tag k="attribution" v="Based on Australian Bureau of Statistics data"/>
    <tag k="boundary" v="administrative"/>
    <tag k="source" v="ABS_2006"/>
  </way>
  <way id="77433464" version="3" timestamp="2011-04-05T02:50:42Z" uid="4467" user="Rosscoe" changeset="7771132">
    <nd ref="1233256461"/>
    <nd ref="911327662"/>
    <tag k="highway" v="residential"/>
    <tag k="history" v="Retrieved from v11"/>
    <tag k="name" v="Victoria Road"/>
    <tag k="source_ref:name" v="http://osm.beldin.org/2009/02/dscf7135.jpg"/>
  </way>
  <way id="77433465" version="3" timestamp="2011-04-05T02:50:06Z" uid="4467" user="Rosscoe" changeset="7771132">
    <nd ref="911327663"/>
    <nd ref="911327662"/>
    <nd ref="1233256465"/>
    <nd ref="1233256567"/>
    <tag k="highway" v="residential"/>
    <tag k="history" v="Retrieved from v11"/>
    <tag k="name" v="Victoria Road"/>
    <tag k="source_ref:name" v="http://osm.beldin.org/2009/02/dscf7135.jpg"/>
  </way>
  <way id="77433466" version="2" timestamp="2011-04-05T02:51:31Z" uid="4467" user="Rosscoe" changeset="7771132"/>
  <way id="77433494" version="2" timestamp="2010-10-23T12:11:30Z" uid="7617" user="Franc" changeset="6144458">
    <nd ref="8407503"/>
    <nd ref="961424439"/>
    <tag k="highway" v="residential"/>
    <tag k="image" v="80n:dsc04102.jpg"/>
    <tag k="maxspeed" v="50"/>
    <tag k="maxspeed:source" v="default residential speed limit in Australia"/>
    <tag k="name" v="Ocean Avenue"/>
    <tag k="restriction" v="school_zone"/>
  </way>
  <way id="77433573" version="1" timestamp="2010-09-13T23:43:55Z" uid="6269" user="Mueck" changeset="5774651">
    <nd ref="911328276"/>
    <nd ref="911328306"/>
    <nd ref="312836718"/>
  </way>
  <way id="77433573" version="2" timestamp="2010-09-13T23:44:35Z" uid="6269" user="Mueck" changeset="5774651">
    <nd ref="911328276"/>
    <nd ref="911328306"/>
    <nd ref="312836718"/>
    <tag k="bicycle" v="no"/>
    <tag k="foot" v="yes"/>
    <tag k="highway" v="path"/>
  </way>
  <way id="77433617" version="2" timestamp="2011-04-05T02:49:47Z" uid="4467" user="Rosscoe" changeset="7771132">
    <nd ref="1233256688"/>
    <nd ref="1233256567"/>
    <nd ref="36713291"/>
    <nd ref="911328784"/>
    <tag k="highway" v="residential"/>
    <tag k="history" v="Retrieved from v11"/>
    <tag k="name" v="Victoria Road"/>
    <tag k="source_ref:name" v="http://osm.beldin.org/2009/02/dscf7135.jpg"/>
  </way>
  <way id="77433648" version="2" timestamp="2010-11-07T02:35:45Z" uid="7617" user="Franc" changeset="6307957">
    <nd ref="652437229"/>
    <nd ref="32846237"/>
    <nd ref="14280580"/>
    <nd ref="14280582"/>
    <nd ref="14280586"/>
    <nd ref="980013574"/>
    <nd ref="573770111"/>
    <nd ref="14280585"/>
    <nd ref="14693766"/>
    <nd ref="14693767"/>
    <tag k="cycleway" v="lane"/>
    <tag k="highway" v="residential"/>
    <tag k="lcn" v="yes"/>
    <tag k="maxspeed" v="50"/>
    <tag k="maxspeed:source" v="default residential speed limit in Australia"/>
    <tag k="name" v="Craigend Street"/>
    <tag k="oneway" v="yes"/>
  </way>
</osm>
