<?xml version='1.0' encoding='UTF-8'?>
<osm version="0.6" generator="libosmium/2.20.0">
  <way id="7787168" version="1" timestamp="2007-09-23T03:20:30Z" uid="7617" user="Franc" changeset="498457">
    <nd ref="18319546"/>
    <nd ref="26359943"/>
    <nd ref="56883420"/>
    <nd ref="26359942"/>
    <nd ref="26359941"/>
    <nd ref="26359940"/>
    <nd ref="26359939"/>
    <nd ref="26360064"/>
    <tag k="created_by" v="JOSM"/>
    <tag k="highway" v="residential"/>
    <tag k="name" v="Sparks Street"/>
    <tag k="source" v="Yahoo Imagery"/>
    <tag k="source:name" v="survey"/>
  </way>
  <way id="7787168" version="2" timestamp="2010-07-07T21:43:54Z" uid="74617" user="JohnSmith" changeset="5161069">
    <nd ref="18319546"/>
    <nd ref="26359943"/>
    <nd ref="56883420"/>
    <nd ref="26359942"/>
    <nd ref="26359941"/>
    <nd ref="26359940"/>
    <nd ref="26359939"/>
    <nd ref="26360064"/>
    <tag k="highway" v="residential"/>
    <tag k="maxspeed" v="50"/>
    <tag k="maxspeed:source" v="default residential speed limit in Australia"/>
    <tag k="name" v="Sparks Street"/>
    <tag k="source" v="Yahoo Imagery"/>
    <tag k="source:name" v="survey"/>
  </way>
  <way id="7787170" version="1" timestamp="2007-09-23T02:17:57Z" uid="7617" user="Franc" changeset="498457">
    <nd ref="56883420"/>
    <nd ref="56883405"/>
    <tag k="created_by" v="JOSM"/>
    <tag k="highway" v="residential"/>
    <tag k="name" v="Meridian Street"/>
    <tag k="source" v="Yahoo Imagery"/>
    <tag k="source:name" v="survey"/>
  </way>
  <way id="7787170" version="2" timestamp="2007-12-29T02:28:08Z" uid="7617" user="Franc" changeset="465245">
    <nd ref="56883420"/>
    <nd ref="56883405"/>
    <tag k="created_by" v="JOSM"/>
    <tag k="highway" v="residential"/>
    <tag k="name" v="Meridian Street"/>
    <tag k="source" v="survey"/>
  </way>
  <way id="7787170" version="3" timestamp="2010-07-07T21:43:38Z" uid="74617" user="JohnSmith" changeset="5161069">
    <nd ref="56883420"/>
    <nd ref="56883405"/>
    <tag k="highway" v="residential"/>
    <tag k="maxspeed" v="50"/>
    <tag k="maxspeed:source" v="default residential speed limit in Australia"/>
    <tag k="name" v="Meridian Street"/>
    <tag k="source" v="survey"/>
  </way>
  <way id="7787172" version="1" timestamp="2007-09-23T02:17:56Z" uid="7617" user="Franc" changeset="498457">
    <nd ref="26359943"/>
    <nd ref="56883428"/>
    <tag k="created_by" v="JOSM"/>
    <tag k="highway" v="residential"/>
    <tag k="name" v="Charles Street"/>
    <tag k="source" v="Yahoo Imagery"/>
    <tag k="source:name" v="survey"/>
  </way>
  <way id="7787172" version="2" timestamp="2007-12-29T02:28:07Z" uid="7617" user="Franc" changeset="465245">
    <nd ref="26359943"/>
    <nd ref="56883428"/>
    <tag k="created_by" v="JOSM"/>
    <tag k="highway" v="residential"/>
    <tag k="name" v="Charles Street"/>
    <tag k="source" v="survey"/>
  </way>
  <way id="7787172" version="3" timestamp="2010-07-07T21:44:30Z" uid="74617" user="JohnSmith" changeset="5161069">
    <nd ref="26359943"/>
    <nd ref="56883428"/>
    <tag k="highway" v="residential"/>
    <tag k="maxspeed" v="50"/>
    <tag k="maxspeed:source" v="default residential speed limit in Australia"/>
    <tag k="name" v="Charles Street"/>
    <tag k="source" v="survey"/>
  </way>
  <way id="7787296" version="1" timestamp="2007-09-23T02:17:55Z" uid="7617" user="Franc" changeset="498457">
    <nd ref="56886777"/>
    <nd ref="26359940"/>
    <tag k="created_by" v="JOSM"/>
    <tag k="highway" v="residential"/>
    <tag k="name" v="Ney Street"/>
    <tag k="source" v="Yahoo Imagery"/>
    <tag k="source:name" v="survey"/>
  </way>
  <way id="7787296" version="2" timestamp="2010-07-07T21:43:33Z" uid="74617" user="JohnSmith" changeset="5161069">
    <nd ref="56886777"/>
    <nd ref="26359940"/>
    <tag k="highway" v="residential"/>
    <tag k="maxspeed" v="50"/>
    <tag k="maxspeed:source" v="default residential speed limit in Australia"/>
    <tag k="name" v="Ney Street"/>
    <tag k="source" v="Yahoo Imagery"/>
    <tag k="source:name" v="survey"/>
  </way>
  <way id="7787299" version="1" timestamp="2007-09-25T09:46:13Z" uid="7617" user="Franc" changeset="516021">
    <nd ref="56878025"/>
    <nd ref="26359942"/>
    <tag k="created_by" v="JOSM"/>
    <tag k="highway" v="residential"/>
    <tag k="name" v="Maloney Street"/>
    <tag k="source" v="Yahoo Imagery"/>
    <tag k="source:name" v="survey"/>
  </way>
  <way id="7787299" version="2" timestamp="2007-12-29T02:28:04Z" uid="7617" user="Franc" changeset="465245">
    <nd ref="56878025"/>
    <nd ref="26359942"/>
    <tag k="created_by" v="JOSM"/>
    <tag k="highway" v="residential"/>
    <tag k="name" v="Maloney Street"/>
    <tag k="source" v="survey"/>
  </way>
  <way id="7787299" version="3" timestamp="2010-07-07T21:44:17Z" uid="74617" user="JohnSmith" changeset="5161069">
    <nd ref="56878025"/>
    <nd ref="26359942"/>
    <tag k="highway" v="residential"/>
    <tag k="maxspeed" v="50"/>
    <tag k="maxspeed:source" v="default residential speed limit in Australia"/>
    <tag k="name" v="Maloney Street"/>
    <tag k="source" v="survey"/>
  </way>
  <way id="7787324" version="2" timestamp="2010-07-08T17:49:00Z" uid="74617" user="JohnSmith" changeset="5167338">
    <nd ref="56884050"/>
    <nd ref="56884029"/>
    <tag k="highway" v="residential"/>
    <tag k="maxspeed" v="50"/>
    <tag k="maxspeed:source" v="default residential speed limit in Australia"/>
    <tag k="name" v="Bank Street"/>
  </way>
  <way id="7787391" version="1" timestamp="2007-09-23T02:41:52Z" uid="7617" user="Franc" changeset="498457">
    <nd ref="26359875"/>
    <nd ref="56888273"/>
    <nd ref="58130044"/>
    <nd ref="58129980"/>
    <nd ref="56886794"/>
    <tag k="created_by" v="JOSM"/>
    <tag k="highway" v="residential"/>
    <tag k="name" v="Cleland Street"/>
    <tag k="source" v="Yahoo Imagery"/>
    <tag k="source:name" v="survey"/>
  </way>
  <way id="7787391" version="2" timestamp="2010-07-07T21:44:22Z" uid="74617" user="JohnSmith" changeset="5161069">
    <nd ref="26359875"/>
    <nd ref="56888273"/>
    <nd ref="58130044"/>
    <nd ref="58129980"/>
    <nd ref="56886794"/>
    <tag k="highway" v="residential"/>
    <tag k="maxspeed" v="50"/>
    <tag k="maxspeed:source" v="default residential speed limit in Australia"/>
    <tag k="name" v="Cleland Street"/>
    <tag k="source" v="Yahoo Imagery"/>
    <tag k="source:name" v="survey"/>
  </way>
  <way id="7787617" version="2" timestamp="2010-03-27T12:49:02Z" uid="20587" user="balrog-kun" changeset="4245371">
    <nd ref="54965258"/>
    <nd ref="54935037"/>
    <nd ref="54899424"/>
    <nd ref="54952796"/>
    <nd ref="54605176"/>
    <nd ref="54865776"/>
    <nd ref="54593257"/>
    <nd ref="54500967"/>
    <nd ref="54143434"/>
    <nd ref="54885912"/>
    <nd ref="54559469"/>
    <nd ref="54959948"/>
    <nd ref="54950679"/>
    <tag k="created_by" v="JOSM"/>
    <tag k="highway" v="residential"/>
    <tag k="name" v="Roswell Avenue"/>
    <tag k="tiger:cfcc" v="A41"/>
    <tag k="tiger:county" v="San Bernardino, CA"/>
    <tag k="tiger:name_base" v="Roswell"/>
    <tag k="tiger:name_type" v="Ave"/>
    <tag k="tiger:reviewed" v="no"/>
    <tag k="tiger:separated" v="no"/>
    <tag k="tiger:source" v="tiger_import_dch_v0.6_20070809"/>
    <tag k="tiger:tlid" v="144685893:144685889:144685891:144670867:144670877:144670878:144670585:144670592:144670593:144670596:144670558:144670580:144670551:144979723:144979725:144979726:144670474:144968745:144968746:144687042:144670473:144690368:144687045:144670459:144690098:14467"/>
    <tag k="tiger:zip_left" v="91710"/>
    <tag k="tiger:zip_right" v="91710"/>
  </way>
  <way id="7787618" version="2" timestamp="2010-03-27T12:49:03Z" uid="20587" user="balrog-kun" changeset="4245371">
    <nd ref="56891124"/>
    <nd ref="54688903"/>
    <nd ref="54688905"/>
    <nd ref="54688907"/>
    <tag k="created_by" v="JOSM"/>
    <tag k="highway" v="residential"/>
    <tag k="name" v="Norton Avenue"/>
    <tag k="tiger:cfcc" v="A41"/>
    <tag k="tiger:county" v="San Bernardino, CA"/>
    <tag k="tiger:name_base" v="Norton"/>
    <tag k="tiger:name_type" v="Ave"/>
    <tag k="tiger:reviewed" v="no"/>
    <tag k="tiger:separated" v="no"/>
    <tag k="tiger:source" v="tiger_import_dch_v0.6_20070809"/>
    <tag k="tiger:tlid" v="144968748:144968749:144988644:144988645"/>
  </way>
</osm>
