<?xml version='1.0' encoding='UTF-8'?>
<osm version="0.6" generator="libosmium/2.20.0">
  <way id="7825005" version="5" timestamp="2010-07-07T09:02:35Z" uid="74617" user="JohnSmith" changeset="5156250">
    <nd ref="44108138"/>
    <nd ref="655405925"/>
    <nd ref="57323368"/>
    <nd ref="57323369"/>
    <nd ref="57323370"/>
    <nd ref="57323371"/>
    <nd ref="57323372"/>
    <nd ref="57323373"/>
    <nd ref="57323375"/>
    <nd ref="57323376"/>
    <nd ref="57323377"/>
    <nd ref="57323378"/>
    <nd ref="57323379"/>
    <nd ref="57323380"/>
    <nd ref="57323381"/>
    <nd ref="57323382"/>
    <nd ref="57323383"/>
    <nd ref="57323384"/>
    <nd ref="57323385"/>
    <nd ref="44108348"/>
    <tag k="highway" v="residential"/>
    <tag k="maxspeed" v="50"/>
    <tag k="maxspeed:source" v="default residential speed limit in Australia"/>
    <tag k="name" v="Leane Street"/>
  </way>
  <way id="7825011" version="5" timestamp="2010-07-07T09:00:31Z" uid="74617" user="JohnSmith" changeset="5156250">
    <nd ref="44108322"/>
    <nd ref="57323581"/>
    <tag k="highway" v="residential"/>
    <tag k="maxspeed" v="50"/>
    <tag k="maxspeed:source" v="default residential speed limit in Australia"/>
    <tag k="name" v="Tivey Place"/>
  </way>
  <way id="7825138" version="4" timestamp="2010-07-07T09:01:11Z" uid="74617" user="JohnSmith" changeset="5156250">
    <nd ref="44108398"/>
    <nd ref="57325601"/>
    <nd ref="57325602"/>
    <nd ref="57325603"/>
    <nd ref="57325604"/>
    <nd ref="57325605"/>
    <nd ref="57325606"/>
    <tag k="highway" v="residential"/>
    <tag k="maxspeed" v="50"/>
    <tag k="maxspeed:source" v="default residential speed limit in Australia"/>
    <tag k="name" v="Wylly Place"/>
  </way>
  <way id="7825145" version="6" timestamp="2010-07-08T16:14:38Z" uid="74617" user="JohnSmith" changeset="5167338">
    <nd ref="25976256"/>
    <nd ref="315130790"/>
    <nd ref="56644416"/>
    <nd ref="56657665"/>
    <nd ref="82526032"/>
    <nd ref="56644530"/>
    <nd ref="56657709"/>
    <tag k="highway" v="residential"/>
    <tag k="maxspeed" v="50"/>
    <tag k="maxspeed:source" v="default residential speed limit in Australia"/>
    <tag k="name" v="Coff Street"/>
    <tag k="source" v="survey"/>
  </way>
  <way id="7825147" version="3" timestamp="2010-07-08T16:15:27Z" uid="74617" user="JohnSmith" changeset="5167338">
    <nd ref="56644646"/>
    <nd ref="56657683"/>
    <nd ref="82526058"/>
    <nd ref="82526053"/>
    <nd ref="82526068"/>
    <nd ref="56644442"/>
    <nd ref="56657665"/>
    <tag k="highway" v="residential"/>
    <tag k="maxspeed" v="50"/>
    <tag k="maxspeed:source" v="default residential speed limit in Australia"/>
    <tag k="name" v="Castle Street"/>
    <tag k="source" v="survey"/>
  </way>
  <way id="7825149" version="2" timestamp="2010-07-08T16:13:40Z" uid="74617" user="JohnSmith" changeset="5167338">
    <nd ref="56644967"/>
    <nd ref="56649770"/>
    <tag k="highway" v="residential"/>
    <tag k="maxspeed" v="50"/>
    <tag k="maxspeed:source" v="default residential speed limit in Australia"/>
    <tag k="name" v="Duke Street"/>
    <tag k="source" v="survey"/>
  </way>
  <way id="7825153" version="3" timestamp="2010-07-08T16:14:05Z" uid="74617" user="JohnSmith" changeset="5167338">
    <nd ref="56649861"/>
    <nd ref="56644748"/>
    <tag k="highway" v="residential"/>
    <tag k="maxspeed" v="50"/>
    <tag k="maxspeed:source" v="default residential speed limit in Australia"/>
    <tag k="name" v="Gordon Street"/>
    <tag k="source" v="survey"/>
  </way>
  <way id="7825173" version="5" timestamp="2010-07-07T08:59:42Z" uid="74617" user="JohnSmith" changeset="5156250">
    <nd ref="57325604"/>
    <nd ref="57326110"/>
    <nd ref="57326111"/>
    <nd ref="57326112"/>
    <tag k="highway" v="residential"/>
    <tag k="maxspeed" v="50"/>
    <tag k="maxspeed:source" v="default residential speed limit in Australia"/>
    <tag k="name" v="Wylly Place"/>
  </way>
  <way id="7825464" version="6" timestamp="2010-07-07T09:02:05Z" uid="74617" user="JohnSmith" changeset="5156250">
    <nd ref="56780924"/>
    <nd ref="57330683"/>
    <nd ref="57330686"/>
    <nd ref="57330687"/>
    <nd ref="57330688"/>
    <nd ref="57330689"/>
    <nd ref="57330690"/>
    <nd ref="57330691"/>
    <nd ref="57330692"/>
    <nd ref="57330693"/>
    <nd ref="57330694"/>
    <nd ref="57330695"/>
    <nd ref="57330696"/>
    <nd ref="57330697"/>
    <nd ref="57330698"/>
    <nd ref="57330699"/>
    <nd ref="57330700"/>
    <nd ref="57330701"/>
    <nd ref="57330702"/>
    <nd ref="57330703"/>
    <nd ref="57330704"/>
    <nd ref="57330705"/>
    <nd ref="57330706"/>
    <nd ref="57330707"/>
    <nd ref="57330708"/>
    <nd ref="57330709"/>
    <nd ref="655159390"/>
    <nd ref="23395624"/>
    <tag k="highway" v="residential"/>
    <tag k="maxspeed" v="50"/>
    <tag k="maxspeed:source" v="default residential speed limit in Australia"/>
    <tag k="name" v="McNicoll Street"/>
  </way>
  <way id="7825486" version="4" timestamp="2010-07-07T08:59:10Z" uid="74617" user="JohnSmith" changeset="5156250">
    <nd ref="57330687"/>
    <nd ref="57330958"/>
    <nd ref="57330959"/>
    <nd ref="57330960"/>
    <nd ref="57330961"/>
    <tag k="highway" v="residential"/>
    <tag k="maxspeed" v="50"/>
    <tag k="maxspeed:source" v="default residential speed limit in Australia"/>
    <tag k="name" v="Higgs Place"/>
  </way>
  <way id="7825517" version="5" timestamp="2010-07-07T08:59:04Z" uid="74617" user="JohnSmith" changeset="5156250">
    <nd ref="57330692"/>
    <nd ref="57331603"/>
    <nd ref="57331604"/>
    <nd ref="57331605"/>
    <nd ref="57331606"/>
    <nd ref="57331607"/>
    <nd ref="57331610"/>
    <nd ref="57331611"/>
    <nd ref="57330693"/>
    <tag k="highway" v="residential"/>
    <tag k="maxspeed" v="50"/>
    <tag k="maxspeed:source" v="default residential speed limit in Australia"/>
    <tag k="name" v="McNicoll Place"/>
  </way>
  <way id="7825534" version="4" timestamp="2010-07-07T09:01:23Z" uid="74617" user="JohnSmith" changeset="5156250">
    <nd ref="57330696"/>
    <nd ref="57332130"/>
    <nd ref="57332131"/>
    <nd ref="57332132"/>
    <tag k="highway" v="residential"/>
    <tag k="maxspeed" v="50"/>
    <tag k="maxspeed:source" v="default residential speed limit in Australia"/>
    <tag k="name" v="Tudor Place"/>
  </way>
  <way id="7825562" version="4" timestamp="2010-07-07T09:00:22Z" uid="74617" user="JohnSmith" changeset="5156250">
    <nd ref="57330701"/>
    <nd ref="57332806"/>
    <nd ref="57332807"/>
    <nd ref="57332808"/>
    <tag k="highway" v="residential"/>
    <tag k="maxspeed" v="50"/>
    <tag k="maxspeed:source" v="default residential speed limit in Australia"/>
    <tag k="name" v="Mahon Place"/>
  </way>
  <way id="7825592" version="4" timestamp="2010-07-07T09:01:31Z" uid="74617" user="JohnSmith" changeset="5156250">
    <nd ref="56780926"/>
    <nd ref="57333301"/>
    <nd ref="57333302"/>
    <nd ref="57333303"/>
    <nd ref="57333304"/>
    <nd ref="57333306"/>
    <tag k="highway" v="residential"/>
    <tag k="maxspeed" v="50"/>
    <tag k="maxspeed:source" v="default residential speed limit in Australia"/>
    <tag k="name" v="Wisdom Place"/>
  </way>
  <way id="7825706" version="6" timestamp="2010-07-07T09:00:45Z" uid="74617" user="JohnSmith" changeset="5156250">
    <nd ref="57330690"/>
    <nd ref="57335303"/>
    <nd ref="57335304"/>
    <nd ref="57335305"/>
    <nd ref="57335306"/>
    <nd ref="57335307"/>
    <nd ref="57335308"/>
    <nd ref="57335309"/>
    <nd ref="57335310"/>
    <nd ref="57335311"/>
    <nd ref="57335312"/>
    <nd ref="57335313"/>
    <nd ref="57335314"/>
    <nd ref="57335315"/>
    <nd ref="57335316"/>
    <nd ref="57335318"/>
    <nd ref="330731020"/>
    <nd ref="57335319"/>
    <nd ref="57335321"/>
    <nd ref="57335322"/>
    <nd ref="57335324"/>
    <nd ref="57335325"/>
    <nd ref="57335326"/>
    <nd ref="57335327"/>
    <nd ref="57335328"/>
    <nd ref="57335329"/>
    <nd ref="57335330"/>
    <nd ref="57335331"/>
    <nd ref="57330694"/>
    <tag k="highway" v="residential"/>
    <tag k="maxspeed" v="50"/>
    <tag k="maxspeed:source" v="default residential speed limit in Australia"/>
    <tag k="name" v="Poynton Street"/>
  </way>
  <way id="7825788" version="4" timestamp="2010-07-07T09:02:43Z" uid="74617" user="JohnSmith" changeset="5156250">
    <nd ref="57330699"/>
    <nd ref="57337128"/>
    <nd ref="57337129"/>
    <nd ref="57337130"/>
    <nd ref="57337131"/>
    <nd ref="57337132"/>
    <nd ref="57337134"/>
    <nd ref="57337135"/>
    <nd ref="57337136"/>
    <nd ref="57337137"/>
    <nd ref="57337138"/>
    <nd ref="57337139"/>
    <nd ref="57337140"/>
    <nd ref="57337141"/>
    <nd ref="57337142"/>
    <nd ref="57337143"/>
    <nd ref="57337144"/>
    <nd ref="57337145"/>
    <nd ref="57337146"/>
    <nd ref="57337147"/>
    <nd ref="57337148"/>
    <nd ref="57337149"/>
    <nd ref="57337150"/>
    <nd ref="57337151"/>
    <nd ref="57337152"/>
    <nd ref="57330703"/>
    <tag k="highway" v="residential"/>
    <tag k="maxspeed" v="50"/>
    <tag k="maxspeed:source" v="default residential speed limit in Australia"/>
    <tag k="name" v="Bamford Street"/>
  </way>
  <way id="7825819" version="4" timestamp="2010-07-07T08:57:25Z" uid="74617" user="JohnSmith" changeset="5156250">
    <nd ref="57330706"/>
    <nd ref="57338049"/>
    <nd ref="57338050"/>
    <nd ref="57338051"/>
    <nd ref="57338052"/>
    <nd ref="57338053"/>
    <nd ref="57338054"/>
    <nd ref="57338055"/>
    <tag k="highway" v="residential"/>
    <tag k="maxspeed" v="50"/>
    <tag k="maxspeed:source" v="default residential speed limit in Australia"/>
    <tag k="name" v="Lynch Street"/>
  </way>
  <way id="7825859" version="5" timestamp="2010-07-07T08:58:46Z" uid="74617" user="JohnSmith" changeset="5156250">
    <nd ref="57338053"/>
    <nd ref="57338593"/>
    <nd ref="57338594"/>
    <nd ref="57338596"/>
    <nd ref="57338597"/>
    <nd ref="57338598"/>
    <nd ref="57338599"/>
    <nd ref="57338600"/>
    <nd ref="57338601"/>
    <nd ref="57338602"/>
    <nd ref="57338603"/>
    <nd ref="655158846"/>
    <nd ref="23395442"/>
    <tag k="highway" v="residential"/>
    <tag k="maxspeed" v="50"/>
    <tag k="maxspeed:source" v="default residential speed limit in Australia"/>
    <tag k="name" v="Lynch Street"/>
  </way>
  <way id="7825915" version="1" timestamp="2007-09-22T13:06:10Z" uid="7617" user="Franc" changeset="496029">
    <nd ref="26359589"/>
    <nd ref="26359626"/>
    <nd ref="26359627"/>
    <nd ref="26359628"/>
    <nd ref="57338867"/>
    <nd ref="26359630"/>
    <nd ref="26359631"/>
    <nd ref="18319575"/>
    <tag k="created_by" v="JOSM"/>
    <tag k="highway" v="residential"/>
    <tag k="name" v="Tunstall Avenue"/>
    <tag k="source" v="Yahoo Imagery"/>
  </way>
  <way id="7825915" version="3" timestamp="2009-12-04T08:04:34Z" uid="7617" user="Franc" changeset="3286537">
    <nd ref="26359589"/>
    <nd ref="580661853"/>
    <nd ref="26359626"/>
    <nd ref="26359627"/>
    <nd ref="26359628"/>
    <nd ref="57338867"/>
    <nd ref="26359630"/>
    <nd ref="26359631"/>
    <tag k="highway" v="residential"/>
    <tag k="name" v="Tunstall Avenue"/>
    <tag k="source" v="Yahoo Imagery"/>
  </way>
  <way id="7825915" version="5" timestamp="2010-10-20T09:57:49Z" uid="7617" user="Franc" changeset="6110089">
    <nd ref="26359589"/>
    <nd ref="957923836"/>
    <nd ref="580661853"/>
    <nd ref="26359626"/>
    <nd ref="26359627"/>
    <nd ref="957923743"/>
    <tag k="highway" v="residential"/>
    <tag k="maxspeed" v="50"/>
    <tag k="name" v="Tunstall Avenue"/>
    <tag k="source" v="Yahoo Imagery"/>
    <tag k="source:maxspeed" v="state_limit"/>
  </way>
  <way id="7825916" version="1" timestamp="2007-09-22T13:06:11Z" uid="7617" user="Franc" changeset="496029">
    <nd ref="26359631"/>
    <nd ref="26359638"/>
    <nd ref="26359637"/>
    <nd ref="57338900"/>
    <nd ref="26359769"/>
    <nd ref="26359633"/>
    <nd ref="26359634"/>
    <tag k="created_by" v="JOSM"/>
    <tag k="highway" v="residential"/>
    <tag k="name" v="Tressider Avenue"/>
    <tag k="source" v="survey"/>
  </way>
  <way id="7825916" version="5" timestamp="2010-01-30T06:10:59Z" uid="30201" user="rrankin" changeset="3748418">
    <nd ref="26359631"/>
    <nd ref="26359638"/>
    <nd ref="26359637"/>
    <nd ref="57338900"/>
    <nd ref="26359769"/>
    <nd ref="622832163"/>
    <tag k="highway" v="residential"/>
    <tag k="maxspeed" v="50"/>
    <tag k="name" v="Tressider Avenue"/>
    <tag k="source" v="survey"/>
    <tag k="source:maxspeed" v="state_limit"/>
  </way>
  <way id="7825918" version="1" timestamp="2007-09-22T13:06:12Z" uid="7617" user="Franc" changeset="496029">
    <nd ref="26359650"/>
    <nd ref="26359649"/>
    <nd ref="26359639"/>
    <nd ref="26359681"/>
    <nd ref="26359635"/>
    <nd ref="26359633"/>
    <nd ref="26359768"/>
    <tag k="created_by" v="JOSM"/>
    <tag k="highway" v="residential"/>
    <tag k="name" v="Eastern Avenue"/>
    <tag k="source" v="survey"/>
  </way>
  <way id="7825920" version="1" timestamp="2007-09-22T13:06:13Z" uid="7617" user="Franc" changeset="496029">
    <nd ref="26359636"/>
    <nd ref="57338879"/>
    <tag k="created_by" v="YahooApplet 1.0"/>
    <tag k="highway" v="residential"/>
    <tag k="name" v="Shaw Avenue"/>
    <tag k="source" v="survey"/>
  </way>
  <way id="7825924" version="1" timestamp="2007-09-22T13:06:14Z" uid="7617" user="Franc" changeset="496029">
    <nd ref="57338879"/>
    <nd ref="57338890"/>
    <nd ref="57338900"/>
    <tag k="created_by" v="JOSM"/>
    <tag k="highway" v="residential"/>
    <tag k="name" v="Shaw Avenue"/>
    <tag k="oneway" v="yes"/>
    <tag k="source" v="survey"/>
  </way>
  <way id="7825928" version="1" timestamp="2007-09-22T13:06:14Z" uid="7617" user="Franc" changeset="496029">
    <nd ref="18450846"/>
    <nd ref="26359648"/>
    <nd ref="26359645"/>
    <nd ref="26359642"/>
    <nd ref="26359655"/>
    <tag k="created_by" v="JOSM"/>
    <tag k="highway" v="residential"/>
    <tag k="name" v="Doncaster Avenue"/>
    <tag k="source" v="survey"/>
  </way>
  <way id="7825929" version="1" timestamp="2007-09-22T13:06:15Z" uid="7617" user="Franc" changeset="496029">
    <nd ref="57338916"/>
    <nd ref="57338978"/>
    <nd ref="57338951"/>
    <nd ref="57338966"/>
    <nd ref="57338934"/>
    <nd ref="26359646"/>
    <nd ref="57339003"/>
    <nd ref="26359647"/>
    <nd ref="26359648"/>
    <tag k="created_by" v="JOSM"/>
    <tag k="highway" v="residential"/>
    <tag k="name" v="Roma Avenue"/>
    <tag k="source" v="survey"/>
  </way>
  <way id="7825929" version="3" timestamp="2010-07-07T22:09:36Z" uid="74617" user="JohnSmith" changeset="5161069">
    <nd ref="57338916"/>
    <nd ref="57338978"/>
    <nd ref="600901132"/>
    <tag k="highway" v="residential"/>
    <tag k="maxspeed" v="50"/>
    <tag k="maxspeed:(Mo-Fr 08:00-09:30,14:30-16:00)" v="40"/>
    <tag k="maxspeed:source" v="default residential speed limit in Australia"/>
    <tag k="name" v="Roma Avenue"/>
    <tag k="restriction" v="school_zone"/>
    <tag k="source" v="survey"/>
  </way>
  <way id="7825931" version="1" timestamp="2007-09-22T13:06:16Z" uid="7617" user="Franc" changeset="496029">
    <nd ref="57338951"/>
    <nd ref="26359643"/>
    <nd ref="26359640"/>
    <nd ref="26359651"/>
    <nd ref="26359680"/>
    <nd ref="42585948"/>
    <nd ref="26359679"/>
    <nd ref="26359634"/>
    <nd ref="26359901"/>
    <nd ref="26359900"/>
    <tag k="created_by" v="JOSM"/>
    <tag k="highway" v="residential"/>
    <tag k="name" v="Cottenham Avenue"/>
    <tag k="source" v="survey"/>
  </way>
  <way id="7825933" version="1" timestamp="2007-09-22T13:06:17Z" uid="7617" user="Franc" changeset="496029">
    <nd ref="57338990"/>
    <nd ref="57339003"/>
    <tag k="created_by" v="JOSM"/>
    <tag k="highway" v="residential"/>
    <tag k="name" v="Lorne Avenue"/>
    <tag k="source" v="survey"/>
  </way>
  <way id="7825933" version="2" timestamp="2008-02-05T09:46:28Z" uid="7617" user="Franc" changeset="42432">
    <nd ref="57338990"/>
    <nd ref="245915295"/>
    <nd ref="245915292"/>
    <nd ref="57339003"/>
    <tag k="created_by" v="JOSM"/>
    <tag k="highway" v="residential"/>
    <tag k="name" v="Lorne Avenue"/>
    <tag k="source" v="survey"/>
  </way>
  <way id="7825934" version="1" timestamp="2007-09-22T13:18:59Z" uid="7617" user="Franc" changeset="496029">
    <nd ref="26359749"/>
    <nd ref="26359750"/>
    <tag k="created_by" v="JOSM"/>
    <tag k="highway" v="residential"/>
    <tag k="name" v="grosvenor Street"/>
  </way>
  <way id="7825934" version="2" timestamp="2008-02-05T09:46:29Z" uid="7617" user="Franc" changeset="42432">
    <nd ref="26359749"/>
    <nd ref="245915292"/>
    <tag k="created_by" v="JOSM"/>
    <tag k="highway" v="residential"/>
    <tag k="name" v="grosvenor Street"/>
  </way>
  <way id="7825934" version="4" timestamp="2009-12-04T08:04:35Z" uid="7617" user="Franc" changeset="3286537">
    <nd ref="26359749"/>
    <nd ref="580661846"/>
    <nd ref="245915292"/>
    <tag k="highway" v="residential"/>
    <tag k="name" v="Grosvenor Street"/>
  </way>
  <way id="7825935" version="1" timestamp="2007-09-22T13:06:18Z" uid="7617" user="Franc" changeset="496029">
    <nd ref="26359647"/>
    <nd ref="26359644"/>
    <nd ref="26359641"/>
    <nd ref="26359654"/>
    <tag k="created_by" v="JOSM"/>
    <tag k="highway" v="residential"/>
    <tag k="name" v="Mooramie Avenue"/>
    <tag k="source" v="survey"/>
  </way>
  <way id="7825937" version="1" timestamp="2007-09-22T13:06:19Z" uid="7617" user="Franc" changeset="496029">
    <nd ref="26359651"/>
    <nd ref="26359654"/>
    <nd ref="26359655"/>
    <nd ref="42601488"/>
    <nd ref="57339045"/>
    <nd ref="57339029"/>
    <nd ref="57339062"/>
    <nd ref="29377084"/>
    <tag k="created_by" v="JOSM"/>
    <tag k="highway" v="residential"/>
    <tag k="name" v="Barker Street"/>
    <tag k="source" v="survey"/>
  </way>
  <way id="7825937" version="4" timestamp="2010-01-26T06:33:58Z" uid="7617" user="Franc" changeset="3716892">
    <nd ref="26359651"/>
    <nd ref="26359654"/>
    <nd ref="26359655"/>
    <nd ref="620381459"/>
    <nd ref="620381458"/>
    <nd ref="42601488"/>
    <nd ref="57339045"/>
    <nd ref="57339029"/>
    <nd ref="57339062"/>
    <nd ref="29377084"/>
    <tag k="highway" v="residential"/>
    <tag k="maxspeed" v="50"/>
    <tag k="name" v="Barker Street"/>
    <tag k="source" v="survey"/>
    <tag k="source:maxspeed" v="state_limit"/>
  </way>
  <way id="7825937" version="5" timestamp="2010-01-30T06:11:00Z" uid="30201" user="rrankin" changeset="3748418">
    <nd ref="26359651"/>
    <nd ref="26359654"/>
    <nd ref="26359655"/>
    <nd ref="620381459"/>
    <nd ref="620381458"/>
    <nd ref="42601488"/>
    <nd ref="57339045"/>
    <nd ref="622832180"/>
    <tag k="highway" v="residential"/>
    <tag k="maxspeed" v="50"/>
    <tag k="name" v="Barker Street"/>
    <tag k="source" v="survey"/>
    <tag k="source:maxspeed" v="state_limit"/>
  </way>
</osm>
