<?xml version='1.0' encoding='UTF-8'?>
<osm version="0.6" generator="libosmium/2.20.0">
  <way id="7899234" version="3" timestamp="2008-09-22T07:57:57Z" uid="30201" user="rrankin" changeset="678480">
    <nd ref="58140801"/>
    <nd ref="58140866"/>
    <nd ref="58140913"/>
    <nd ref="58140958"/>
    <nd ref="58140837"/>
    <nd ref="57967426"/>
    <nd ref="57967522"/>
    <nd ref="57967538"/>
    <nd ref="58140801"/>
    <tag k="created_by" v="Potlatch alpha"/>
    <tag k="highway" v="secondary"/>
    <tag k="junction" v="roundabout"/>
    <tag k="name" v="Ramsgate Road"/>
  </way>
  <way id="7899234" version="4" timestamp="2010-01-20T06:20:58Z" uid="7617" user="Franc" changeset="3664317">
    <nd ref="58140801"/>
    <nd ref="616960091"/>
    <nd ref="58140866"/>
    <nd ref="58140913"/>
    <nd ref="616960090"/>
    <nd ref="58140958"/>
    <nd ref="58140837"/>
    <nd ref="616960093"/>
    <nd ref="57967426"/>
    <nd ref="57967522"/>
    <nd ref="616960094"/>
    <nd ref="57967538"/>
    <nd ref="58140801"/>
    <tag k="highway" v="secondary"/>
    <tag k="junction" v="roundabout"/>
    <tag k="source" v="nearmap"/>
  </way>
  <way id="7899517" version="2" timestamp="2009-07-20T11:23:59Z" uid="7617" user="Franc" changeset="1883815">
    <nd ref="58140958"/>
    <nd ref="59594186"/>
    <nd ref="59703046"/>
    <nd ref="59702409"/>
    <nd ref="59702252"/>
    <nd ref="58146104"/>
    <nd ref="444374149"/>
    <tag k="created_by" v="Potlatch alpha"/>
    <tag k="highway" v="residential"/>
    <tag k="name" v="Alfred Street"/>
    <tag k="oneway" v="yes"/>
  </way>
  <way id="7899517" version="3" timestamp="2010-07-07T21:33:47Z" uid="74617" user="JohnSmith" changeset="5161069">
    <nd ref="58140958"/>
    <nd ref="59594186"/>
    <nd ref="59703046"/>
    <nd ref="59702409"/>
    <nd ref="59702252"/>
    <nd ref="58146104"/>
    <nd ref="444374149"/>
    <tag k="highway" v="residential"/>
    <tag k="maxspeed" v="50"/>
    <tag k="maxspeed:source" v="default residential speed limit in Australia"/>
    <tag k="name" v="Alfred Street"/>
    <tag k="oneway" v="yes"/>
  </way>
  <way id="7899579" version="2" timestamp="2009-07-20T11:23:59Z" uid="7617" user="Franc" changeset="1883815">
    <nd ref="444374151"/>
    <nd ref="59702250"/>
    <nd ref="59702410"/>
    <nd ref="58146929"/>
    <nd ref="59703049"/>
    <nd ref="59594187"/>
    <nd ref="58140913"/>
    <tag k="abutters" v="residential"/>
    <tag k="created_by" v="Potlatch alpha"/>
    <tag k="highway" v="residential"/>
    <tag k="name" v="Alfred Street"/>
    <tag k="oneway" v="yes"/>
  </way>
  <way id="7899579" version="3" timestamp="2009-12-23T23:06:57Z" uid="30201" user="rrankin" changeset="3438624">
    <nd ref="444374151"/>
    <nd ref="59702250"/>
    <nd ref="59702410"/>
    <nd ref="58146929"/>
    <nd ref="59703049"/>
    <nd ref="59594187"/>
    <nd ref="58140913"/>
    <tag k="highway" v="residential"/>
    <tag k="name" v="Alfred Street"/>
    <tag k="oneway" v="yes"/>
  </way>
  <way id="7899579" version="4" timestamp="2010-07-07T21:28:35Z" uid="74617" user="JohnSmith" changeset="5161069">
    <nd ref="444374151"/>
    <nd ref="59702250"/>
    <nd ref="59702410"/>
    <nd ref="58146929"/>
    <nd ref="59703049"/>
    <nd ref="59594187"/>
    <nd ref="58140913"/>
    <tag k="highway" v="residential"/>
    <tag k="maxspeed" v="50"/>
    <tag k="maxspeed:source" v="default residential speed limit in Australia"/>
    <tag k="name" v="Alfred Street"/>
    <tag k="oneway" v="yes"/>
  </way>
  <way id="7899702" version="1" timestamp="2007-09-23T03:05:33Z" uid="7617" user="Franc" changeset="498457">
    <nd ref="58148017"/>
    <nd ref="58163227"/>
    <nd ref="58163258"/>
    <nd ref="58148037"/>
    <nd ref="58148392"/>
    <nd ref="58148239"/>
    <nd ref="58148186"/>
    <tag k="created_by" v="JOSM"/>
    <tag k="highway" v="residential"/>
    <tag k="name" v="Florence Avenue"/>
    <tag k="source" v="survey"/>
  </way>
  <way id="7899702" version="2" timestamp="2010-01-30T06:10:52Z" uid="30201" user="rrankin" changeset="3748418">
    <nd ref="58148017"/>
    <nd ref="58163227"/>
    <nd ref="58163258"/>
    <nd ref="622831864"/>
    <tag k="highway" v="residential"/>
    <tag k="name" v="Florence Avenue"/>
    <tag k="source" v="survey"/>
  </way>
  <way id="7899702" version="3" timestamp="2010-07-07T21:43:23Z" uid="74617" user="JohnSmith" changeset="5161069">
    <nd ref="58148017"/>
    <nd ref="58163227"/>
    <nd ref="58163258"/>
    <nd ref="622831864"/>
    <tag k="highway" v="residential"/>
    <tag k="maxspeed" v="50"/>
    <tag k="maxspeed:source" v="default residential speed limit in Australia"/>
    <tag k="name" v="Florence Avenue"/>
    <tag k="source" v="survey"/>
  </way>
  <way id="7899703" version="1" timestamp="2007-09-25T02:48:11Z" uid="7617" user="Franc" changeset="512855">
    <nd ref="58148212"/>
    <nd ref="58148060"/>
    <nd ref="58148083"/>
    <nd ref="58148104"/>
    <nd ref="58148126"/>
    <nd ref="58148144"/>
    <nd ref="58148167"/>
    <nd ref="58148186"/>
    <nd ref="58148212"/>
    <tag k="created_by" v="Potlatch alpha"/>
    <tag k="highway" v="residential"/>
    <tag k="junction" v="roundabout"/>
    <tag k="source" v="Yahoo Imagery"/>
  </way>
  <way id="7899703" version="2" timestamp="2010-07-07T21:44:31Z" uid="74617" user="JohnSmith" changeset="5161069">
    <nd ref="58148212"/>
    <nd ref="58148060"/>
    <nd ref="58148083"/>
    <nd ref="58148104"/>
    <nd ref="58148126"/>
    <nd ref="58148144"/>
    <nd ref="58148167"/>
    <nd ref="58148186"/>
    <nd ref="58148212"/>
    <tag k="highway" v="residential"/>
    <tag k="junction" v="roundabout"/>
    <tag k="maxspeed" v="50"/>
    <tag k="maxspeed:source" v="default residential speed limit in Australia"/>
    <tag k="source" v="Yahoo Imagery"/>
  </way>
  <way id="7899704" version="1" timestamp="2007-09-23T03:05:33Z" uid="7617" user="Franc" changeset="498457">
    <nd ref="58148144"/>
    <nd ref="58148282"/>
    <nd ref="58148310"/>
    <nd ref="58148291"/>
    <nd ref="58148345"/>
    <nd ref="58163208"/>
    <nd ref="58148263"/>
    <tag k="created_by" v="JOSM"/>
    <tag k="highway" v="residential"/>
    <tag k="name" v="Vernon Avenue"/>
    <tag k="source" v="survey"/>
  </way>
  <way id="7899704" version="2" timestamp="2010-07-07T21:43:50Z" uid="74617" user="JohnSmith" changeset="5161069">
    <nd ref="58148144"/>
    <nd ref="58148282"/>
    <nd ref="58148310"/>
    <nd ref="58148291"/>
    <nd ref="58148345"/>
    <nd ref="58163208"/>
    <nd ref="58148263"/>
    <tag k="highway" v="residential"/>
    <tag k="maxspeed" v="50"/>
    <tag k="maxspeed:source" v="default residential speed limit in Australia"/>
    <tag k="name" v="Vernon Avenue"/>
    <tag k="source" v="survey"/>
  </way>
  <way id="7899706" version="1" timestamp="2007-09-23T02:55:09Z" uid="7617" user="Franc" changeset="498457">
    <nd ref="58148345"/>
    <nd ref="58148037"/>
    <nd ref="58148328"/>
    <tag k="created_by" v="JOSM"/>
    <tag k="highway" v="residential"/>
    <tag k="name" v="O&apos;Connor Street"/>
    <tag k="source:name" v="survey"/>
  </way>
  <way id="7899706" version="2" timestamp="2010-01-30T06:10:53Z" uid="30201" user="rrankin" changeset="3748418">
    <nd ref="58148345"/>
    <nd ref="622831850"/>
    <tag k="highway" v="residential"/>
    <tag k="name" v="O&apos;Connor Street"/>
    <tag k="source:name" v="survey"/>
  </way>
  <way id="7899706" version="3" timestamp="2010-07-07T21:43:35Z" uid="74617" user="JohnSmith" changeset="5161069">
    <nd ref="58148345"/>
    <nd ref="622831850"/>
    <tag k="highway" v="residential"/>
    <tag k="maxspeed" v="50"/>
    <tag k="maxspeed:source" v="default residential speed limit in Australia"/>
    <tag k="name" v="O&apos;Connor Street"/>
    <tag k="source:name" v="survey"/>
  </way>
  <way id="7899710" version="1" timestamp="2007-09-23T02:55:10Z" uid="7617" user="Franc" changeset="498457">
    <nd ref="58148365"/>
    <nd ref="58148392"/>
    <tag k="created_by" v="JOSM"/>
    <tag k="highway" v="residential"/>
    <tag k="name" v="Casino Street"/>
    <tag k="source" v="survey"/>
  </way>
  <way id="7899710" version="2" timestamp="2010-07-07T21:44:06Z" uid="74617" user="JohnSmith" changeset="5161069">
    <nd ref="58148365"/>
    <nd ref="58148392"/>
    <tag k="highway" v="residential"/>
    <tag k="maxspeed" v="50"/>
    <tag k="maxspeed:source" v="default residential speed limit in Australia"/>
    <tag k="name" v="Casino Street"/>
    <tag k="source" v="survey"/>
  </way>
  <way id="7899711" version="1" timestamp="2007-09-23T02:55:11Z" uid="7617" user="Franc" changeset="498457">
    <nd ref="58148402"/>
    <nd ref="58148418"/>
    <nd ref="58148060"/>
    <tag k="created_by" v="JOSM"/>
    <tag k="highway" v="residential"/>
    <tag k="name" v="Lismore Street"/>
    <tag k="source" v="survey"/>
  </way>
  <way id="7899711" version="2" timestamp="2010-07-07T21:43:17Z" uid="74617" user="JohnSmith" changeset="5161069">
    <nd ref="58148402"/>
    <nd ref="58148418"/>
    <nd ref="58148060"/>
    <tag k="highway" v="residential"/>
    <tag k="maxspeed" v="50"/>
    <tag k="maxspeed:source" v="default residential speed limit in Australia"/>
    <tag k="name" v="Lismore Street"/>
    <tag k="source" v="survey"/>
  </way>
  <way id="7899716" version="1" timestamp="2007-09-23T03:05:34Z" uid="7617" user="Franc" changeset="498457">
    <nd ref="58148475"/>
    <nd ref="58148459"/>
    <tag k="created_by" v="JOSM"/>
    <tag k="highway" v="residential"/>
    <tag k="name" v="Hilary Close"/>
    <tag k="source" v="survey"/>
  </way>
  <way id="7899730" version="2" timestamp="2010-01-20T06:20:58Z" uid="7617" user="Franc" changeset="3664317">
    <nd ref="58140837"/>
    <nd ref="616960092"/>
    <nd ref="58149134"/>
    <nd ref="33225485"/>
    <tag k="highway" v="secondary"/>
    <tag k="name" v="Ramsgate Road"/>
    <tag k="oneway" v="yes"/>
  </way>
  <way id="7899730" version="3" timestamp="2010-10-23T08:01:05Z" uid="7617" user="Franc" changeset="6142688">
    <nd ref="58140837"/>
    <nd ref="616960092"/>
    <nd ref="58149134"/>
    <nd ref="961284225"/>
    <nd ref="33225485"/>
    <tag k="highway" v="secondary"/>
    <tag k="name" v="Ramsgate Road"/>
    <tag k="oneway" v="yes"/>
  </way>
</osm>
