<?xml version='1.0' encoding='UTF-8'?>
<osm version="0.6" generator="libosmium/2.20.0">
  <way id="7908073" version="1" timestamp="2007-09-23T04:56:29Z" uid="7617" user="Franc" changeset="506102">
    <nd ref="58282580"/>
    <nd ref="58282635"/>
    <nd ref="58262789"/>
    <nd ref="58282599"/>
    <tag k="created_by" v="JOSM"/>
    <tag k="highway" v="residential"/>
    <tag k="name" v="Kendall Street"/>
    <tag k="source" v="survey"/>
  </way>
  <way id="7908073" version="2" timestamp="2009-11-09T06:25:52Z" uid="30201" user="rrankin" changeset="3070916">
    <nd ref="58282580"/>
    <nd ref="58282635"/>
    <nd ref="559875738"/>
    <nd ref="58262789"/>
    <nd ref="58282599"/>
    <tag k="highway" v="residential"/>
    <tag k="name" v="Kendall Street"/>
    <tag k="source" v="survey"/>
  </way>
  <way id="7908073" version="4" timestamp="2010-07-07T21:48:18Z" uid="74617" user="JohnSmith" changeset="5161069">
    <nd ref="58282580"/>
    <nd ref="58282635"/>
    <nd ref="559875738"/>
    <nd ref="58262789"/>
    <nd ref="58282599"/>
    <tag k="highway" v="residential"/>
    <tag k="maxspeed" v="50"/>
    <tag k="maxspeed:source" v="default residential speed limit in Australia"/>
    <tag k="name" v="Kendall Street"/>
    <tag k="source" v="survey"/>
  </way>
  <way id="7908076" version="1" timestamp="2007-09-23T04:47:19Z" uid="7617" user="Franc" changeset="506102">
    <nd ref="58282613"/>
    <nd ref="58282635"/>
    <tag k="created_by" v="JOSM"/>
    <tag k="highway" v="service"/>
    <tag k="name" v="Fletcher Lane"/>
    <tag k="source" v="survey"/>
  </way>
  <way id="7908076" version="3" timestamp="2009-11-09T06:25:52Z" uid="30201" user="rrankin" changeset="3070916">
    <nd ref="559875733"/>
    <nd ref="559875727"/>
    <nd ref="58282613"/>
    <nd ref="58282635"/>
    <tag k="highway" v="service"/>
    <tag k="name" v="Fletcher Lane"/>
    <tag k="source" v="survey"/>
  </way>
  <way id="7908078" version="1" timestamp="2007-09-23T04:47:20Z" uid="7617" user="Franc" changeset="506102">
    <nd ref="58282613"/>
    <nd ref="58282645"/>
    <tag k="created_by" v="JOSM"/>
    <tag k="highway" v="service"/>
    <tag k="name" v="Yarwood Lane"/>
    <tag k="source" v="survey"/>
  </way>
  <way id="7908078" version="2" timestamp="2009-11-09T06:25:52Z" uid="30201" user="rrankin" changeset="3070916">
    <nd ref="72697752"/>
    <nd ref="58282613"/>
    <nd ref="58282645"/>
    <tag k="highway" v="service"/>
    <tag k="name" v="Yarwood Lane"/>
    <tag k="source" v="survey"/>
  </way>
  <way id="7908078" version="4" timestamp="2009-12-01T11:21:41Z" uid="7617" user="Franc" changeset="3263307">
    <nd ref="72697752"/>
    <nd ref="58282613"/>
    <nd ref="577038266"/>
    <nd ref="58282645"/>
    <tag k="highway" v="service"/>
    <tag k="name" v="Yarwood Lane"/>
    <tag k="source" v="survey"/>
  </way>
  <way id="7908079" version="1" timestamp="2007-09-23T04:47:21Z" uid="7617" user="Franc" changeset="506102">
    <nd ref="58282675"/>
    <nd ref="58282661"/>
    <tag k="created_by" v="JOSM"/>
    <tag k="highway" v="residential"/>
    <tag k="name" v="Raine Street"/>
    <tag k="source" v="Yahoo Imagery"/>
  </way>
  <way id="7908079" version="3" timestamp="2009-12-01T11:21:41Z" uid="7617" user="Franc" changeset="3263307">
    <nd ref="58282675"/>
    <nd ref="58282645"/>
    <tag k="highway" v="residential"/>
    <tag k="name" v="Raine Street"/>
    <tag k="source" v="Yahoo Imagery"/>
  </way>
  <way id="7908079" version="4" timestamp="2010-07-07T21:49:28Z" uid="74617" user="JohnSmith" changeset="5161069">
    <nd ref="58282675"/>
    <nd ref="58282645"/>
    <tag k="highway" v="residential"/>
    <tag k="maxspeed" v="50"/>
    <tag k="maxspeed:source" v="default residential speed limit in Australia"/>
    <tag k="name" v="Raine Street"/>
    <tag k="source" v="Yahoo Imagery"/>
  </way>
  <way id="7908081" version="1" timestamp="2007-09-23T04:47:21Z" uid="7617" user="Franc" changeset="506102">
    <nd ref="20979734"/>
    <nd ref="58282758"/>
    <tag k="created_by" v="JOSM"/>
    <tag k="highway" v="service"/>
    <tag k="name" v="Convent Lane"/>
    <tag k="source" v="survey"/>
  </way>
  <way id="7908082" version="1" timestamp="2007-09-23T04:47:22Z" uid="7617" user="Franc" changeset="506102">
    <nd ref="58282774"/>
    <nd ref="58282795"/>
    <tag k="created_by" v="JOSM"/>
    <tag k="highway" v="service"/>
    <tag k="name" v="Dyson Lane"/>
    <tag k="source" v="survey"/>
  </way>
  <way id="7908084" version="1" timestamp="2007-09-23T04:47:23Z" uid="7617" user="Franc" changeset="506102">
    <nd ref="20979734"/>
    <nd ref="58282869"/>
    <nd ref="58282813"/>
    <tag k="created_by" v="JOSM"/>
    <tag k="highway" v="residential"/>
    <tag k="name" v="Adelaide Street"/>
    <tag k="source" v="survey"/>
  </way>
  <way id="7908084" version="4" timestamp="2010-07-07T21:52:41Z" uid="74617" user="JohnSmith" changeset="5161069">
    <nd ref="20979734"/>
    <nd ref="58282869"/>
    <nd ref="58282813"/>
    <tag k="highway" v="residential"/>
    <tag k="lcn" v="yes"/>
    <tag k="maxspeed" v="50"/>
    <tag k="maxspeed:source" v="default residential speed limit in Australia"/>
    <tag k="name" v="Adelaide Street"/>
    <tag k="source" v="survey"/>
  </way>
  <way id="7908086" version="1" timestamp="2007-09-23T04:47:24Z" uid="7617" user="Franc" changeset="506102">
    <nd ref="58282818"/>
    <nd ref="58282855"/>
    <nd ref="8529552"/>
    <tag k="created_by" v="JOSM"/>
    <tag k="highway" v="residential"/>
    <tag k="name" v="Junction Street"/>
    <tag k="source" v="survey"/>
  </way>
  <way id="7908086" version="3" timestamp="2010-07-07T21:51:16Z" uid="74617" user="JohnSmith" changeset="5161069">
    <nd ref="58282818"/>
    <nd ref="58282855"/>
    <nd ref="8529552"/>
    <tag k="highway" v="residential"/>
    <tag k="maxspeed" v="50"/>
    <tag k="maxspeed:source" v="default residential speed limit in Australia"/>
    <tag k="name" v="Junction Street"/>
    <tag k="source" v="survey"/>
  </way>
  <way id="7908088" version="1" timestamp="2007-09-23T04:47:24Z" uid="7617" user="Franc" changeset="506102">
    <nd ref="58282818"/>
    <nd ref="58282836"/>
    <nd ref="20979734"/>
    <tag k="created_by" v="JOSM"/>
    <tag k="highway" v="service"/>
    <tag k="name" v="Carrol Lane"/>
    <tag k="source" v="survey"/>
  </way>
  <way id="7908088" version="2" timestamp="2009-11-09T06:25:53Z" uid="30201" user="rrankin" changeset="3070916">
    <nd ref="58282818"/>
    <nd ref="58282836"/>
    <nd ref="20979734"/>
    <tag k="highway" v="service"/>
    <tag k="name" v="Carroll Lane"/>
    <tag k="source" v="survey"/>
  </way>
  <way id="7908089" version="1" timestamp="2007-09-23T04:47:25Z" uid="7617" user="Franc" changeset="506102">
    <nd ref="58282855"/>
    <nd ref="58282886"/>
    <nd ref="58282869"/>
    <tag k="created_by" v="JOSM"/>
    <tag k="highway" v="service"/>
    <tag k="name" v="Evesson Lane"/>
    <tag k="source" v="survey"/>
  </way>
  <way id="7908093" version="1" timestamp="2007-09-23T04:47:26Z" uid="7617" user="Franc" changeset="506102">
    <nd ref="58282836"/>
    <nd ref="58282886"/>
    <tag k="created_by" v="JOSM"/>
    <tag k="highway" v="service"/>
    <tag k="source" v="survey"/>
  </way>
  <way id="7908655" version="1" timestamp="2007-09-23T04:56:20Z" uid="7617" user="Franc" changeset="506102">
    <nd ref="58292172"/>
    <nd ref="58292199"/>
    <nd ref="58292185"/>
    <tag k="created_by" v="JOSM"/>
    <tag k="highway" v="residential"/>
    <tag k="name" v="Bellevue Garden"/>
    <tag k="source" v="survey"/>
  </way>
  <way id="7908655" version="3" timestamp="2010-07-07T21:51:59Z" uid="74617" user="JohnSmith" changeset="5161069">
    <nd ref="58292172"/>
    <nd ref="58292199"/>
    <nd ref="58292185"/>
    <tag k="highway" v="residential"/>
    <tag k="maxspeed" v="50"/>
    <tag k="maxspeed:source" v="default residential speed limit in Australia"/>
    <tag k="name" v="Bellevue Garden"/>
    <tag k="source" v="survey"/>
  </way>
  <way id="7908656" version="1" timestamp="2007-09-23T04:56:21Z" uid="7617" user="Franc" changeset="506102">
    <nd ref="58282599"/>
    <nd ref="58292199"/>
    <tag k="created_by" v="JOSM"/>
    <tag k="highway" v="residential"/>
    <tag k="source" v="survey"/>
  </way>
  <way id="7908656" version="2" timestamp="2009-11-09T06:25:47Z" uid="30201" user="rrankin" changeset="3070916">
    <nd ref="58282599"/>
    <nd ref="58292199"/>
    <tag k="highway" v="residential"/>
    <tag k="name" v="Bellevue Gardin"/>
    <tag k="source" v="survey"/>
  </way>
  <way id="7908656" version="4" timestamp="2009-12-23T05:06:56Z" uid="30201" user="rrankin" changeset="3431995">
    <nd ref="58282599"/>
    <nd ref="58292199"/>
    <tag k="highway" v="residential"/>
    <tag k="name" v="Bellevue Garden"/>
    <tag k="source" v="survey"/>
  </way>
  <way id="7908656" version="5" timestamp="2010-07-07T21:53:08Z" uid="74617" user="JohnSmith" changeset="5161069">
    <nd ref="58282599"/>
    <nd ref="58292199"/>
    <tag k="highway" v="residential"/>
    <tag k="maxspeed" v="50"/>
    <tag k="maxspeed:source" v="default residential speed limit in Australia"/>
    <tag k="name" v="Bellevue Garden"/>
    <tag k="source" v="survey"/>
  </way>
  <way id="7908660" version="1" timestamp="2007-09-23T04:56:21Z" uid="7617" user="Franc" changeset="506102">
    <nd ref="58292208"/>
    <nd ref="58292303"/>
    <nd ref="58292229"/>
    <nd ref="58292218"/>
    <tag k="created_by" v="JOSM"/>
    <tag k="highway" v="residential"/>
    <tag k="name" v="View Street"/>
    <tag k="source" v="survey"/>
  </way>
  <way id="7908660" version="3" timestamp="2010-07-07T21:47:47Z" uid="74617" user="JohnSmith" changeset="5161069">
    <nd ref="58292208"/>
    <nd ref="58292303"/>
    <nd ref="58292229"/>
    <nd ref="58292218"/>
    <tag k="highway" v="residential"/>
    <tag k="maxspeed" v="50"/>
    <tag k="maxspeed:source" v="default residential speed limit in Australia"/>
    <tag k="name" v="View Street"/>
    <tag k="source" v="survey"/>
  </way>
  <way id="7908662" version="1" timestamp="2007-09-23T04:56:22Z" uid="7617" user="Franc" changeset="506102">
    <nd ref="58262808"/>
    <nd ref="58292266"/>
    <nd ref="58292272"/>
    <nd ref="58292218"/>
    <tag k="created_by" v="JOSM"/>
    <tag k="highway" v="service"/>
    <tag k="name" v="Bathurst Lane"/>
    <tag k="source" v="survey"/>
  </way>
  <way id="7908663" version="1" timestamp="2007-09-23T04:56:23Z" uid="7617" user="Franc" changeset="506102">
    <nd ref="58282813"/>
    <nd ref="58262890"/>
    <nd ref="58292303"/>
    <nd ref="58292286"/>
    <tag k="created_by" v="JOSM"/>
    <tag k="highway" v="residential"/>
    <tag k="name" v="Adelaide Street"/>
    <tag k="source" v="survey"/>
  </way>
  <way id="7908663" version="2" timestamp="2009-11-09T06:25:48Z" uid="30201" user="rrankin" changeset="3070916">
    <nd ref="58282813"/>
    <nd ref="559875710"/>
    <nd ref="58262890"/>
    <nd ref="58292303"/>
    <nd ref="58292286"/>
    <tag k="highway" v="residential"/>
    <tag k="name" v="Adelaide Street"/>
    <tag k="source" v="survey"/>
  </way>
  <way id="7908663" version="4" timestamp="2010-07-07T21:50:46Z" uid="74617" user="JohnSmith" changeset="5161069">
    <nd ref="58282813"/>
    <nd ref="559875710"/>
    <nd ref="58262890"/>
    <nd ref="58292303"/>
    <nd ref="58292286"/>
    <tag k="highway" v="residential"/>
    <tag k="maxspeed" v="50"/>
    <tag k="maxspeed:source" v="default residential speed limit in Australia"/>
    <tag k="name" v="Adelaide Street"/>
    <tag k="source" v="survey"/>
  </way>
</osm>
