<?xml version='1.0' encoding='UTF-8'?>
<osm version="0.6" generator="libosmium/2.20.0">
  <way id="79568568" version="1" timestamp="2010-09-27T20:35:25Z" uid="9581" user="Lobelt" changeset="5895628">
    <nd ref="835525088"/>
    <nd ref="487018"/>
    <nd ref="487020"/>
    <nd ref="279121750"/>
    <nd ref="133247695"/>
    <tag k="highway" v="motorway"/>
    <tag k="int_ref" v="E 40"/>
    <tag k="lanes" v="3"/>
    <tag k="maxspeed" v="no"/>
    <tag k="oneway" v="yes"/>
    <tag k="osmarender:nameDirection" v="-1"/>
    <tag k="osmarender:renderName" v="no"/>
    <tag k="ref" v="A 4"/>
  </way>
  <way id="79568569" version="1" timestamp="2010-09-27T20:35:26Z" uid="9581" user="Lobelt" changeset="5895628">
    <nd ref="928538038"/>
    <nd ref="835525088"/>
    <tag k="bridge" v="yes"/>
    <tag k="highway" v="motorway"/>
    <tag k="int_ref" v="E 40"/>
    <tag k="lanes" v="3"/>
    <tag k="layer" v="1"/>
    <tag k="maxspeed" v="no"/>
    <tag k="oneway" v="yes"/>
    <tag k="osmarender:nameDirection" v="-1"/>
    <tag k="osmarender:renderName" v="no"/>
    <tag k="ref" v="A 4"/>
  </way>
  <way id="79568570" version="1" timestamp="2010-09-27T20:35:26Z" uid="9581" user="Lobelt" changeset="5895628">
    <nd ref="835525089"/>
    <nd ref="928538046"/>
    <tag k="bridge" v="yes"/>
    <tag k="highway" v="motorway"/>
    <tag k="int_ref" v="E 40"/>
    <tag k="lanes" v="3"/>
    <tag k="layer" v="1"/>
    <tag k="maxspeed" v="no"/>
    <tag k="oneway" v="yes"/>
    <tag k="ref" v="A 4"/>
  </way>
  <way id="79568571" version="1" timestamp="2010-09-27T20:35:27Z" uid="9581" user="Lobelt" changeset="5895628">
    <nd ref="928538046"/>
    <nd ref="486119"/>
    <nd ref="310451554"/>
    <tag k="highway" v="motorway"/>
    <tag k="int_ref" v="E 40"/>
    <tag k="lanes" v="3"/>
    <tag k="maxspeed" v="no"/>
    <tag k="oneway" v="yes"/>
    <tag k="ref" v="A 4"/>
  </way>
</osm>
