<?xml version='1.0' encoding='UTF-8'?>
<osm version="0.6" generator="libosmium/2.20.0">
  <way id="79594281" version="1" timestamp="2010-09-28T08:05:26Z" uid="85955" user="Gerd Höweler" changeset="5901493">
    <nd ref="26502826"/>
    <nd ref="926620808"/>
    <tag k="highway" v="pedestrian"/>
  </way>
  <way id="79594282" version="1" timestamp="2010-09-28T08:05:27Z" uid="85955" user="Gerd Höweler" changeset="5901493">
    <nd ref="928935954"/>
    <nd ref="928935955"/>
    <tag k="highway" v="residential"/>
    <tag k="name" v="C/ DE LES ERES"/>
  </way>
  <way id="79594283" version="1" timestamp="2010-09-28T08:05:27Z" uid="85955" user="Gerd Höweler" changeset="5901493">
    <nd ref="928935963"/>
    <nd ref="928935961"/>
    <nd ref="928935960"/>
    <tag k="highway" v="residential"/>
  </way>
  <way id="79594284" version="1" timestamp="2010-09-28T08:05:27Z" uid="85955" user="Gerd Höweler" changeset="5901493">
    <nd ref="928935958"/>
    <nd ref="928935954"/>
  </way>
  <way id="79594285" version="1" timestamp="2010-09-28T08:05:27Z" uid="85955" user="Gerd Höweler" changeset="5901493">
    <nd ref="676356864"/>
    <nd ref="676356799"/>
    <nd ref="676356791"/>
    <nd ref="676356776"/>
    <nd ref="676356768"/>
    <nd ref="676356869"/>
    <nd ref="676356854"/>
    <nd ref="676356845"/>
    <nd ref="676356829"/>
    <nd ref="309821880"/>
    <nd ref="309821922"/>
    <nd ref="309821558"/>
    <nd ref="309821559"/>
    <nd ref="309821864"/>
    <tag k="highway" v="residential"/>
    <tag k="name" v="Carrer d&apos; Abeurador"/>
  </way>
  <way id="79594285" version="2" timestamp="2010-09-28T08:48:06Z" uid="85955" user="Gerd Höweler" changeset="5901813">
    <nd ref="676356864"/>
    <nd ref="676356799"/>
    <nd ref="676356791"/>
    <nd ref="676356776"/>
    <nd ref="676356768"/>
    <nd ref="676356869"/>
    <nd ref="676356854"/>
    <nd ref="676356845"/>
    <nd ref="676356829"/>
    <nd ref="309821880"/>
    <nd ref="309821922"/>
    <nd ref="309821558"/>
    <nd ref="309821559"/>
    <nd ref="309821864"/>
    <tag k="highway" v="pedestrian"/>
    <tag k="name" v="Carrer d&apos; Abeurador"/>
  </way>
  <way id="79594286" version="1" timestamp="2010-09-28T08:05:27Z" uid="85955" user="Gerd Höweler" changeset="5901493">
    <nd ref="30752780"/>
    <nd ref="928935956"/>
    <nd ref="928935950"/>
    <nd ref="928935952"/>
    <nd ref="447911447"/>
    <tag k="highway" v="pedestrian"/>
  </way>
  <way id="79594286" version="2" timestamp="2010-09-28T08:48:07Z" uid="85955" user="Gerd Höweler" changeset="5901813">
    <nd ref="30752780"/>
    <nd ref="928935956"/>
    <nd ref="928935950"/>
    <nd ref="928935952"/>
    <nd ref="447911447"/>
    <nd ref="447911446"/>
    <nd ref="447911445"/>
    <nd ref="928993728"/>
    <nd ref="928993751"/>
    <nd ref="928993738"/>
    <nd ref="928993742"/>
    <nd ref="928993731"/>
    <nd ref="928993734"/>
    <nd ref="928993753"/>
    <nd ref="928993739"/>
    <nd ref="928993735"/>
    <nd ref="928993733"/>
    <nd ref="928993752"/>
    <nd ref="928993743"/>
    <nd ref="676356852"/>
    <tag k="highway" v="pedestrian"/>
    <tag k="surface" v="paved"/>
  </way>
  <way id="79594287" version="1" timestamp="2010-09-28T08:05:27Z" uid="85955" user="Gerd Höweler" changeset="5901493">
    <nd ref="926620815"/>
    <nd ref="928935961"/>
    <nd ref="928935954"/>
    <tag k="highway" v="residential"/>
    <tag k="name" v="C/ DE LES ERES"/>
  </way>
  <way id="79594288" version="1" timestamp="2010-09-28T08:05:28Z" uid="85955" user="Gerd Höweler" changeset="5901493">
    <nd ref="926620813"/>
    <nd ref="847875667"/>
    <tag k="highway" v="pedestrian"/>
  </way>
  <way id="79594300" version="2" timestamp="2011-01-13T16:55:27Z" uid="115477" user="wowik" changeset="6959027">
    <nd ref="928936203"/>
    <nd ref="928935448"/>
    <nd ref="928936618"/>
    <nd ref="928935883"/>
    <nd ref="928936203"/>
    <tag k="addr:housenumber" v="3"/>
    <tag k="addr:street" v="Тургеневский проезд"/>
    <tag k="building" v="house"/>
  </way>
  <way id="79594302" version="2" timestamp="2011-01-13T16:55:22Z" uid="115477" user="wowik" changeset="6959027">
    <nd ref="928936184"/>
    <nd ref="928935436"/>
    <nd ref="928936604"/>
    <nd ref="928935868"/>
    <nd ref="928936184"/>
    <tag k="addr:housenumber" v="1"/>
    <tag k="addr:street" v="улица Тургенева"/>
    <tag k="building" v="house"/>
  </way>
  <way id="79594305" version="2" timestamp="2011-01-13T16:55:25Z" uid="115477" user="wowik" changeset="6959027">
    <nd ref="928937020"/>
    <nd ref="928937029"/>
    <nd ref="928936304"/>
    <nd ref="928935555"/>
    <nd ref="928937020"/>
    <tag k="addr:housenumber" v="13"/>
    <tag k="addr:street" v="улица Тургенева"/>
    <tag k="building" v="house"/>
  </way>
  <way id="79594321" version="2" timestamp="2011-01-13T16:55:36Z" uid="115477" user="wowik" changeset="6959027">
    <nd ref="928936073"/>
    <nd ref="928935328"/>
    <nd ref="928936486"/>
    <nd ref="928935755"/>
    <nd ref="928936073"/>
    <tag k="addr:housenumber" v="3а"/>
    <tag k="addr:street" v="Тургеневский проезд"/>
    <tag k="building" v="house"/>
  </way>
  <way id="79594323" version="2" timestamp="2011-01-13T16:55:29Z" uid="115477" user="wowik" changeset="6959027">
    <nd ref="928936917"/>
    <nd ref="928936188"/>
    <nd ref="928935437"/>
    <nd ref="928936605"/>
    <nd ref="928936917"/>
    <tag k="addr:housenumber" v="10"/>
    <tag k="addr:street" v="Тургеневский проезд"/>
    <tag k="building" v="house"/>
  </way>
  <way id="79594325" version="2" timestamp="2011-01-13T16:55:48Z" uid="115477" user="wowik" changeset="6959027">
    <nd ref="928936895"/>
    <nd ref="928936177"/>
    <nd ref="928935426"/>
    <nd ref="928936586"/>
    <nd ref="928936895"/>
    <tag k="addr:housenumber" v="11"/>
    <tag k="addr:street" v="улица Тургенева"/>
    <tag k="building" v="house"/>
  </way>
  <way id="79594327" version="2" timestamp="2011-01-13T16:55:41Z" uid="115477" user="wowik" changeset="6959027">
    <nd ref="928936037"/>
    <nd ref="928935291"/>
    <nd ref="928936439"/>
    <nd ref="928935712"/>
    <nd ref="928936037"/>
    <tag k="addr:housenumber" v="27"/>
    <tag k="addr:street" v="улица Тургенева"/>
    <tag k="building" v="house"/>
  </way>
  <way id="79594339" version="2" timestamp="2011-01-13T16:55:38Z" uid="115477" user="wowik" changeset="6959027">
    <nd ref="928935640"/>
    <nd ref="928936807"/>
    <nd ref="928935318"/>
    <nd ref="928936468"/>
    <nd ref="928935640"/>
    <tag k="addr:housenumber" v="12"/>
    <tag k="addr:street" v="Тургеневский проезд"/>
    <tag k="building" v="house"/>
  </way>
  <way id="79594341" version="2" timestamp="2011-01-13T16:56:01Z" uid="115477" user="wowik" changeset="6959027">
    <nd ref="928935911"/>
    <nd ref="928937052"/>
    <nd ref="928936336"/>
    <nd ref="928935580"/>
    <nd ref="928935911"/>
    <tag k="addr:housenumber" v="26"/>
    <tag k="addr:street" v="улица Тургенева"/>
    <tag k="building" v="house"/>
  </way>
  <way id="79594344" version="2" timestamp="2011-01-13T16:55:44Z" uid="115477" user="wowik" changeset="6959027">
    <nd ref="928935591"/>
    <nd ref="928936763"/>
    <nd ref="928936042"/>
    <nd ref="928935296"/>
    <nd ref="928935591"/>
    <tag k="addr:housenumber" v="5"/>
    <tag k="addr:street" v="Тургеневский проезд"/>
    <tag k="building" v="house"/>
  </way>
  <way id="79594357" version="2" timestamp="2011-01-13T16:55:25Z" uid="115477" user="wowik" changeset="6959027">
    <nd ref="928935460"/>
    <nd ref="928936625"/>
    <nd ref="928935902"/>
    <nd ref="928935498"/>
    <nd ref="928935460"/>
    <tag k="addr:housenumber" v="4"/>
    <tag k="addr:street" v="улица Тургенева"/>
    <tag k="building" v="house"/>
  </way>
  <way id="79594361" version="2" timestamp="2011-01-13T16:55:28Z" uid="115477" user="wowik" changeset="6959027">
    <nd ref="928935476"/>
    <nd ref="928936634"/>
    <nd ref="928935921"/>
    <nd ref="928937060"/>
    <nd ref="928935476"/>
    <tag k="addr:housenumber" v="7"/>
    <tag k="addr:street" v="Тургеневский проезд"/>
    <tag k="building" v="house"/>
  </way>
  <way id="79594371" version="2" timestamp="2011-01-13T16:56:01Z" uid="115477" user="wowik" changeset="6959027">
    <nd ref="928936550"/>
    <nd ref="928935828"/>
    <nd ref="928936992"/>
    <nd ref="928936281"/>
    <nd ref="928936550"/>
    <tag k="addr:housenumber" v="2"/>
    <tag k="addr:street" v="улица Тургенева"/>
    <tag k="building" v="house"/>
  </way>
  <way id="79594375" version="2" timestamp="2011-01-13T16:55:28Z" uid="115477" user="wowik" changeset="6959027">
    <nd ref="928935393"/>
    <nd ref="928936536"/>
    <nd ref="928935798"/>
    <nd ref="928936973"/>
    <nd ref="928935393"/>
    <tag k="addr:housenumber" v="5"/>
    <tag k="addr:street" v="улица Тургенева"/>
    <tag k="building" v="house"/>
  </way>
  <way id="79594390" version="2" timestamp="2011-01-13T16:55:19Z" uid="115477" user="wowik" changeset="6959027">
    <nd ref="928936624"/>
    <nd ref="928935889"/>
    <nd ref="928937043"/>
    <nd ref="928936324"/>
    <nd ref="928936624"/>
    <tag k="addr:housenumber" v="37"/>
    <tag k="addr:street" v="улица Тургенева"/>
    <tag k="building" v="house"/>
  </way>
  <way id="79594391" version="2" timestamp="2011-01-13T16:55:38Z" uid="115477" user="wowik" changeset="6959027">
    <nd ref="928935284"/>
    <nd ref="928936436"/>
    <nd ref="928935708"/>
    <nd ref="928936868"/>
    <nd ref="928936156"/>
    <nd ref="928935284"/>
    <tag k="addr:housenumber" v="10"/>
    <tag k="addr:street" v="улица Тургенева"/>
    <tag k="building" v="house"/>
  </way>
  <way id="79594393" version="2" timestamp="2011-01-13T16:55:48Z" uid="115477" user="wowik" changeset="6959027">
    <nd ref="928936427"/>
    <nd ref="928936433"/>
    <nd ref="928935699"/>
    <nd ref="928936864"/>
    <nd ref="928936427"/>
    <tag k="addr:housenumber" v="1"/>
    <tag k="addr:street" v="Тургеневский проезд"/>
    <tag k="building" v="house"/>
  </way>
  <way id="79594396" version="2" timestamp="2011-01-13T16:55:43Z" uid="115477" user="wowik" changeset="6959027">
    <nd ref="928937155"/>
    <nd ref="928936425"/>
    <nd ref="928935678"/>
    <nd ref="928936849"/>
    <nd ref="928937155"/>
    <tag k="addr:housenumber" v="3а"/>
    <tag k="addr:street" v="улица Тургенева"/>
    <tag k="building" v="house"/>
  </way>
  <way id="79594398" version="2" timestamp="2011-01-13T16:55:36Z" uid="115477" user="wowik" changeset="6959027">
    <nd ref="928936677"/>
    <nd ref="928935962"/>
    <nd ref="928937118"/>
    <nd ref="928936398"/>
    <nd ref="928936677"/>
    <tag k="addr:housenumber" v="19"/>
    <tag k="addr:street" v="улица Тургенева"/>
    <tag k="building" v="house"/>
  </way>
  <way id="79594407" version="2" timestamp="2011-01-13T16:55:47Z" uid="115477" user="wowik" changeset="6959027">
    <nd ref="928936317"/>
    <nd ref="928935567"/>
    <nd ref="928936731"/>
    <nd ref="928936015"/>
    <nd ref="928936317"/>
    <tag k="addr:housenumber" v="1а"/>
    <tag k="addr:street" v="Тургеневский проезд"/>
    <tag k="building" v="house"/>
  </way>
  <way id="79594410" version="2" timestamp="2011-01-13T16:55:33Z" uid="115477" user="wowik" changeset="6959027">
    <nd ref="928936249"/>
    <nd ref="928935489"/>
    <nd ref="928937004"/>
    <nd ref="928936283"/>
    <nd ref="928936249"/>
    <tag k="addr:housenumber" v="17"/>
    <tag k="addr:street" v="улица Тургенева"/>
    <tag k="building" v="house"/>
  </way>
  <way id="79594420" version="2" timestamp="2011-01-13T16:55:45Z" uid="115477" user="wowik" changeset="6959027">
    <nd ref="928936128"/>
    <nd ref="928935376"/>
    <nd ref="928936526"/>
    <nd ref="928935782"/>
    <nd ref="928936128"/>
    <tag k="addr:housenumber" v="15"/>
    <tag k="addr:street" v="улица Тургенева"/>
    <tag k="building" v="house"/>
  </way>
  <way id="79594437" version="2" timestamp="2011-01-13T16:55:30Z" uid="115477" user="wowik" changeset="6959027">
    <nd ref="928937148"/>
    <nd ref="928936420"/>
    <nd ref="928935670"/>
    <nd ref="928935684"/>
    <nd ref="928937148"/>
    <tag k="addr:housenumber" v="6"/>
    <tag k="addr:street" v="Тургеневский проезд"/>
    <tag k="building" v="house"/>
  </way>
  <way id="79594441" version="2" timestamp="2011-01-13T16:55:35Z" uid="115477" user="wowik" changeset="6959027">
    <nd ref="928936000"/>
    <nd ref="928937147"/>
    <nd ref="928936418"/>
    <nd ref="928935668"/>
    <nd ref="928936000"/>
    <tag k="addr:housenumber" v="14"/>
    <tag k="addr:street" v="улица Тургенева"/>
    <tag k="building" v="house"/>
  </way>
  <way id="79594443" version="2" timestamp="2011-01-13T16:55:26Z" uid="115477" user="wowik" changeset="6959027">
    <nd ref="928935516"/>
    <nd ref="928936661"/>
    <nd ref="928935946"/>
    <nd ref="928937098"/>
    <nd ref="928935516"/>
    <tag k="addr:housenumber" v="31"/>
    <tag k="addr:street" v="улица Тургенева"/>
    <tag k="building" v="house"/>
  </way>
  <way id="79594451" version="2" timestamp="2011-01-13T16:55:21Z" uid="115477" user="wowik" changeset="6959027">
    <nd ref="928936061"/>
    <nd ref="928935316"/>
    <nd ref="928936460"/>
    <nd ref="928935744"/>
    <nd ref="928936061"/>
    <tag k="addr:housenumber" v="8"/>
    <tag k="addr:street" v="улица Тургенева"/>
    <tag k="building" v="house"/>
  </way>
  <way id="79594457" version="2" timestamp="2011-01-13T16:55:44Z" uid="115477" user="wowik" changeset="6959027">
    <nd ref="928937031"/>
    <nd ref="928936308"/>
    <nd ref="928935557"/>
    <nd ref="928936721"/>
    <nd ref="928937031"/>
    <tag k="addr:housenumber" v="8"/>
    <tag k="addr:street" v="Тургеневский проезд"/>
    <tag k="building" v="house"/>
  </way>
  <way id="79594462" version="2" timestamp="2011-01-13T16:55:32Z" uid="115477" user="wowik" changeset="6959027">
    <nd ref="928936161"/>
    <nd ref="928935413"/>
    <nd ref="928936556"/>
    <nd ref="928935840"/>
    <nd ref="928936161"/>
    <tag k="addr:housenumber" v="29"/>
    <tag k="addr:street" v="улица Тургенева"/>
    <tag k="building" v="house"/>
  </way>
  <way id="79594469" version="2" timestamp="2011-01-13T16:55:50Z" uid="115477" user="wowik" changeset="6959027">
    <nd ref="928935937"/>
    <nd ref="928937081"/>
    <nd ref="928936377"/>
    <nd ref="928935617"/>
    <nd ref="928935937"/>
    <tag k="addr:housenumber" v="6"/>
    <tag k="addr:street" v="улица Тургенева"/>
    <tag k="building" v="house"/>
  </way>
  <way id="79594513" version="2" timestamp="2011-01-13T16:55:50Z" uid="115477" user="wowik" changeset="6959027">
    <nd ref="928936214"/>
    <nd ref="928935457"/>
    <tag k="highway" v="service"/>
    <tag k="living_street" v="yes"/>
    <tag k="name" v="1-й Станционный проезд"/>
    <tag k="name:en" v="1-j Stancionnyj proezd"/>
    <tag k="surface" v="gravel"/>
  </way>
  <way id="79594515" version="2" timestamp="2011-01-13T16:55:44Z" uid="115477" user="wowik" changeset="6959027">
    <nd ref="928935651"/>
    <nd ref="928936819"/>
    <nd ref="928936084"/>
    <nd ref="928935340"/>
    <nd ref="928935651"/>
    <tag k="addr:housenumber" v="2б"/>
    <tag k="addr:street" v="улица Тургенева"/>
    <tag k="building" v="house"/>
  </way>
  <way id="79594517" version="2" timestamp="2011-01-13T16:55:20Z" uid="115477" user="wowik" changeset="6959027">
    <nd ref="928936780"/>
    <nd ref="928936051"/>
    <nd ref="928935304"/>
    <nd ref="928936450"/>
    <nd ref="928936780"/>
    <tag k="addr:housenumber" v="9"/>
    <tag k="addr:street" v="улица Тургенева"/>
    <tag k="building" v="house"/>
  </way>
  <way id="79594534" version="2" timestamp="2011-01-13T16:55:48Z" uid="115477" user="wowik" changeset="6959027">
    <nd ref="928935536"/>
    <nd ref="928936682"/>
    <nd ref="928935965"/>
    <nd ref="928937128"/>
    <nd ref="928935536"/>
    <tag k="addr:housenumber" v="2а"/>
    <tag k="addr:street" v="улица Тургенева"/>
    <tag k="building" v="house"/>
  </way>
  <way id="79594537" version="2" timestamp="2011-01-13T16:55:34Z" uid="115477" user="wowik" changeset="6959027">
    <nd ref="928935518"/>
    <nd ref="928936663"/>
    <nd ref="928935947"/>
    <nd ref="928937102"/>
    <nd ref="928935518"/>
    <tag k="addr:housenumber" v="14"/>
    <tag k="addr:street" v="улица Тургенева"/>
    <tag k="building" v="house"/>
  </way>
  <way id="79594538" version="2" timestamp="2011-01-13T16:55:54Z" uid="115477" user="wowik" changeset="6959027">
    <nd ref="928936642"/>
    <nd ref="928935928"/>
    <nd ref="928937070"/>
    <nd ref="928936364"/>
    <nd ref="928936642"/>
    <tag k="addr:housenumber" v="7"/>
    <tag k="addr:street" v="улица Тургенева"/>
    <tag k="building" v="house"/>
  </way>
  <way id="79594540" version="2" timestamp="2011-01-13T16:55:28Z" uid="115477" user="wowik" changeset="6959027">
    <nd ref="928936932"/>
    <nd ref="928936211"/>
    <nd ref="928935454"/>
    <nd ref="928935464"/>
    <nd ref="928936932"/>
    <tag k="addr:housenumber" v="23"/>
    <tag k="addr:street" v="улица Тургенева"/>
    <tag k="building" v="house"/>
  </way>
  <way id="79594558" version="2" timestamp="2011-01-13T16:55:31Z" uid="115477" user="wowik" changeset="6959027">
    <nd ref="928935407"/>
    <nd ref="928936548"/>
    <nd ref="928935825"/>
    <nd ref="928936989"/>
    <nd ref="928935407"/>
    <tag k="addr:housenumber" v="12"/>
    <tag k="addr:street" v="улица Тургенева"/>
    <tag k="building" v="house"/>
  </way>
  <way id="79594561" version="2" timestamp="2011-01-13T16:55:36Z" uid="115477" user="wowik" changeset="6959027">
    <nd ref="928936814"/>
    <nd ref="928936081"/>
    <nd ref="928935335"/>
    <nd ref="928936498"/>
    <nd ref="928936814"/>
    <tag k="addr:housenumber" v="21"/>
    <tag k="addr:street" v="улица Тургенева"/>
    <tag k="building" v="house"/>
  </way>
  <way id="79594563" version="2" timestamp="2011-01-13T16:55:29Z" uid="115477" user="wowik" changeset="6959027">
    <nd ref="928935753"/>
    <nd ref="928936925"/>
    <nd ref="928936201"/>
    <nd ref="928935446"/>
    <nd ref="928935753"/>
    <tag k="addr:housenumber" v="35"/>
    <tag k="addr:street" v="улица Тургенева"/>
    <tag k="building" v="house"/>
  </way>
  <way id="79594564" version="2" timestamp="2011-01-13T16:55:31Z" uid="115477" user="wowik" changeset="6959027">
    <nd ref="928935367"/>
    <nd ref="928936520"/>
    <nd ref="928935775"/>
    <nd ref="928936948"/>
    <nd ref="928935367"/>
    <tag k="addr:housenumber" v="9"/>
    <tag k="addr:street" v="Тургеневский проезд"/>
    <tag k="building" v="house"/>
  </way>
  <way id="79594578" version="2" timestamp="2011-01-13T16:55:22Z" uid="115477" user="wowik" changeset="6959027">
    <nd ref="928936144"/>
    <nd ref="928935395"/>
    <nd ref="928936538"/>
    <nd ref="928935805"/>
    <nd ref="928936144"/>
    <tag k="addr:housenumber" v="4"/>
    <tag k="addr:street" v="Тургеневский проезд"/>
    <tag k="building" v="house"/>
  </way>
  <way id="79594582" version="2" timestamp="2011-01-13T16:55:35Z" uid="115477" user="wowik" changeset="6959027">
    <nd ref="928935633"/>
    <nd ref="928936805"/>
    <nd ref="928936071"/>
    <nd ref="928935326"/>
    <nd ref="928935633"/>
    <tag k="addr:housenumber" v="33"/>
    <tag k="addr:street" v="улица Тургенева"/>
    <tag k="building" v="house"/>
  </way>
  <way id="79594583" version="2" timestamp="2011-01-13T16:55:55Z" uid="115477" user="wowik" changeset="6959027">
    <nd ref="928936403"/>
    <nd ref="928935653"/>
    <nd ref="928936821"/>
    <nd ref="928936086"/>
    <nd ref="928936403"/>
    <tag k="addr:housenumber" v="11"/>
    <tag k="addr:street" v="Тургеневский проезд"/>
    <tag k="building" v="house"/>
  </way>
  <way id="79594597" version="2" timestamp="2011-01-13T16:55:26Z" uid="115477" user="wowik" changeset="6959027">
    <nd ref="928937037"/>
    <nd ref="928936315"/>
    <nd ref="928935566"/>
    <nd ref="928936729"/>
    <nd ref="928937037"/>
    <tag k="addr:housenumber" v="3"/>
    <tag k="addr:street" v="улица Тургенева"/>
    <tag k="building" v="house"/>
  </way>
</osm>
