<?xml version='1.0' encoding='UTF-8'?>
<osm version="0.6" generator="libosmium/2.20.0">
  <way id="796678" version="3" timestamp="2008-12-25T01:13:54Z" uid="26515" user="Simon Ward" changeset="594458">
    <nd ref="3450923"/>
    <nd ref="3450925"/>
    <nd ref="3634975"/>
    <nd ref="3636724"/>
    <nd ref="3634973"/>
    <nd ref="3634972"/>
    <nd ref="3450927"/>
    <nd ref="3689582"/>
    <nd ref="3450928"/>
    <nd ref="3450929"/>
    <nd ref="321541070"/>
    <nd ref="321541066"/>
    <nd ref="3450932"/>
    <nd ref="3692923"/>
    <nd ref="32614061"/>
    <nd ref="3560604"/>
    <nd ref="3560606"/>
    <nd ref="3353253"/>
    <nd ref="3353257"/>
    <nd ref="3351381"/>
    <tag k="abutters" v="commercial"/>
    <tag k="created_by" v="JOSM"/>
    <tag k="highway" v="secondary"/>
    <tag k="name" v="Fairfield Street"/>
    <tag k="ref" v="B6469"/>
  </way>
  <way id="796678" version="4" timestamp="2008-12-25T01:20:12Z" uid="26515" user="Simon Ward" changeset="594458">
    <nd ref="3450923"/>
    <nd ref="3450925"/>
    <nd ref="3634975"/>
    <nd ref="3636724"/>
    <nd ref="3634973"/>
    <nd ref="3634972"/>
    <nd ref="3450927"/>
    <nd ref="3689582"/>
    <nd ref="3450928"/>
    <nd ref="3450929"/>
    <nd ref="321541601"/>
    <nd ref="321541070"/>
    <nd ref="321541066"/>
    <nd ref="3450932"/>
    <nd ref="3692923"/>
    <nd ref="32614061"/>
    <nd ref="3560604"/>
    <nd ref="3560606"/>
    <nd ref="3353253"/>
    <nd ref="3353257"/>
    <nd ref="3351381"/>
    <tag k="abutters" v="commercial"/>
    <tag k="created_by" v="JOSM"/>
    <tag k="highway" v="secondary"/>
    <tag k="name" v="Fairfield Street"/>
    <tag k="ref" v="B6469"/>
  </way>
  <way id="796678" version="5" timestamp="2008-12-25T02:33:50Z" uid="26515" user="Simon Ward" changeset="594458">
    <nd ref="3450923"/>
    <nd ref="3450925"/>
    <nd ref="3634975"/>
    <nd ref="3636724"/>
    <nd ref="3634973"/>
    <nd ref="3634972"/>
    <nd ref="3450927"/>
    <nd ref="3689582"/>
    <nd ref="3450928"/>
    <nd ref="3450929"/>
    <tag k="abutters" v="commercial"/>
    <tag k="created_by" v="JOSM"/>
    <tag k="highway" v="secondary"/>
    <tag k="name" v="Fairfield Street"/>
    <tag k="ref" v="B6469"/>
  </way>
  <way id="796678" version="6" timestamp="2008-12-25T02:41:26Z" uid="26515" user="Simon Ward" changeset="594458">
    <nd ref="3450923"/>
    <nd ref="3450925"/>
    <nd ref="3634975"/>
    <nd ref="3636724"/>
    <nd ref="3634973"/>
    <nd ref="3634972"/>
    <nd ref="3450927"/>
    <nd ref="3689582"/>
    <nd ref="3450928"/>
    <nd ref="3450929"/>
    <tag k="abutters" v="commercial"/>
    <tag k="created_by" v="JOSM"/>
    <tag k="highway" v="secondary"/>
    <tag k="lit" v="yes"/>
    <tag k="name" v="Fairfield Street"/>
    <tag k="ref" v="B6469"/>
  </way>
  <way id="796679" version="2" timestamp="2008-12-25T02:07:47Z" uid="26515" user="Simon Ward" changeset="594458">
    <nd ref="3353182"/>
    <nd ref="3353197"/>
    <nd ref="3353196"/>
    <nd ref="3353194"/>
    <nd ref="321543456"/>
    <nd ref="321543455"/>
    <tag k="abutters" v="industrial"/>
    <tag k="created_by" v="JOSM"/>
    <tag k="highway" v="service"/>
    <tag k="name" v="Baring Street"/>
  </way>
  <way id="796679" version="3" timestamp="2008-12-25T02:10:54Z" uid="26515" user="Simon Ward" changeset="594458">
    <nd ref="3353196"/>
    <nd ref="3353197"/>
    <nd ref="3353182"/>
    <tag k="abutters" v="industrial"/>
    <tag k="created_by" v="JOSM"/>
    <tag k="highway" v="service"/>
    <tag k="name" v="Baring Street"/>
    <tag k="oneway" v="yes"/>
  </way>
</osm>
