<?xml version='1.0' encoding='UTF-8'?>
<osm version="0.6" generator="libosmium/2.20.0">
  <way id="797063" version="2" timestamp="2008-12-25T02:42:28Z" uid="26515" user="Simon Ward" changeset="594458">
    <nd ref="3689582"/>
    <nd ref="321544280"/>
    <nd ref="3689583"/>
    <tag k="created_by" v="JOSM"/>
    <tag k="highway" v="service"/>
    <tag k="name" v="Cotswold Street"/>
  </way>
  <way id="797063" version="3" timestamp="2008-12-25T02:42:44Z" uid="26515" user="Simon Ward" changeset="594458">
    <nd ref="3689582"/>
    <nd ref="321544280"/>
    <tag k="created_by" v="JOSM"/>
    <tag k="highway" v="service"/>
    <tag k="name" v="Cotswold Street"/>
  </way>
  <way id="797574" version="2" timestamp="2008-12-25T00:57:09Z" uid="26515" user="Simon Ward" changeset="594458">
    <nd ref="3450932"/>
    <nd ref="3353247"/>
    <nd ref="3353238"/>
    <nd ref="3353240"/>
    <nd ref="3353258"/>
    <tag k="abutters" v="commercial"/>
    <tag k="created_by" v="JOSM"/>
    <tag k="highway" v="service"/>
    <tag k="lit" v="yes"/>
    <tag k="name" v="Temperance Street"/>
  </way>
  <way id="797577" version="2" timestamp="2008-12-25T00:59:06Z" uid="26515" user="Simon Ward" changeset="594458">
    <nd ref="3353236"/>
    <nd ref="3353237"/>
    <tag k="abutters" v="commercial"/>
    <tag k="created_by" v="JOSM"/>
    <tag k="highway" v="service"/>
    <tag k="lit" v="yes"/>
    <tag k="name" v="Rachel Street"/>
  </way>
</osm>
