<?xml version='1.0' encoding='UTF-8'?>
<osm version="0.6" generator="libosmium/2.20.0">
  <way id="799957" version="3" timestamp="2008-12-24T18:14:54Z" uid="26515" user="Simon Ward" changeset="584642">
    <nd ref="3353218"/>
    <nd ref="3353217"/>
    <nd ref="3353219"/>
    <tag k="abutters" v="industrial"/>
    <tag k="created_by" v="JOSM"/>
    <tag k="highway" v="unclassified"/>
    <tag k="name" v="Cakebread Street"/>
  </way>
  <way id="799957" version="4" timestamp="2008-12-24T18:54:38Z" uid="26515" user="Simon Ward" changeset="584642">
    <nd ref="3353218"/>
    <nd ref="3353217"/>
    <nd ref="3353219"/>
    <tag k="abutters" v="industrial"/>
    <tag k="created_by" v="JOSM"/>
    <tag k="highway" v="unclassified"/>
    <tag k="lit" v="yes"/>
    <tag k="name" v="Cakebread Street"/>
  </way>
  <way id="799957" version="5" timestamp="2008-12-24T18:56:52Z" uid="26515" user="Simon Ward" changeset="584642">
    <nd ref="3353218"/>
    <nd ref="3353217"/>
    <tag k="abutters" v="industrial"/>
    <tag k="created_by" v="JOSM"/>
    <tag k="highway" v="unclassified"/>
    <tag k="lit" v="yes"/>
    <tag k="name" v="Cakebread Street"/>
    <tag k="noexit" v="yes"/>
  </way>
  <way id="799958" version="3" timestamp="2008-12-24T16:45:52Z" uid="26515" user="Simon Ward" changeset="583809">
    <nd ref="3353212"/>
    <nd ref="3353216"/>
    <nd ref="3353217"/>
    <tag k="created_by" v="JOSM"/>
    <tag k="highway" v="unclassified"/>
    <tag k="name" v="Charlton Place"/>
  </way>
  <way id="799958" version="4" timestamp="2008-12-24T18:14:54Z" uid="26515" user="Simon Ward" changeset="584642">
    <nd ref="3353212"/>
    <nd ref="3353216"/>
    <nd ref="3353217"/>
    <tag k="abutters" v="industrial"/>
    <tag k="created_by" v="JOSM"/>
    <tag k="highway" v="unclassified"/>
    <tag k="name" v="Charlton Place"/>
  </way>
  <way id="799958" version="5" timestamp="2008-12-24T18:42:06Z" uid="26515" user="Simon Ward" changeset="584642">
    <nd ref="3353212"/>
    <nd ref="321509425"/>
    <nd ref="3353216"/>
    <nd ref="3353217"/>
    <tag k="abutters" v="industrial"/>
    <tag k="created_by" v="JOSM"/>
    <tag k="highway" v="unclassified"/>
    <tag k="name" v="Charlton Place"/>
  </way>
  <way id="799961" version="3" timestamp="2008-12-24T19:20:02Z" uid="26515" user="Simon Ward" changeset="584642">
    <nd ref="3353220"/>
    <nd ref="321512399"/>
    <nd ref="3353221"/>
    <nd ref="3353226"/>
    <nd ref="3353230"/>
    <tag k="created_by" v="JOSM"/>
    <tag k="highway" v="unclassified"/>
    <tag k="name" v="Paddock Street"/>
  </way>
  <way id="799961" version="4" timestamp="2008-12-24T19:24:34Z" uid="26515" user="Simon Ward" changeset="584642">
    <nd ref="3353220"/>
    <nd ref="321512399"/>
    <nd ref="3353221"/>
    <nd ref="3353226"/>
    <nd ref="3353230"/>
    <tag k="created_by" v="JOSM"/>
    <tag k="highway" v="unclassified"/>
    <tag k="lit" v="yes"/>
    <tag k="name" v="Paddock Street"/>
  </way>
  <way id="799963" version="3" timestamp="2008-12-25T15:59:48Z" uid="26515" user="Simon Ward" changeset="599630">
    <nd ref="3353223"/>
    <nd ref="3699042"/>
    <nd ref="3353225"/>
    <tag k="created_by" v="JOSM"/>
    <tag k="highway" v="unclassified"/>
    <tag k="name" v="Niven Street"/>
    <tag k="old_name" v="North Street"/>
  </way>
  <way id="799965" version="3" timestamp="2008-12-25T15:06:41Z" uid="26515" user="Simon Ward" changeset="599630"/>
  <way id="799969" version="3" timestamp="2008-12-25T15:12:35Z" uid="26515" user="Simon Ward" changeset="599630">
    <nd ref="3353925"/>
    <nd ref="3353933"/>
    <tag k="abutters" v="commercial"/>
    <tag k="created_by" v="JOSM"/>
    <tag k="highway" v="unclassified"/>
    <tag k="lit" v="yes"/>
    <tag k="name" v="Kale Street"/>
  </way>
  <way id="799971" version="3" timestamp="2008-08-09T15:17:31Z" uid="26515" user="Simon Ward" changeset="156549">
    <nd ref="268646643"/>
    <nd ref="268646642"/>
    <nd ref="268646641"/>
    <nd ref="268646640"/>
    <nd ref="3353933"/>
    <nd ref="3353932"/>
    <nd ref="3353930"/>
    <tag k="abutters" v="residential"/>
    <tag k="created_by" v="JOSM"/>
    <tag k="highway" v="residential"/>
    <tag k="name" v="Wadeson Road"/>
    <tag k="p" v=""/>
    <tag k="postal_code" v="M13 9TU"/>
  </way>
  <way id="799971" version="4" timestamp="2008-08-09T15:19:46Z" uid="26515" user="Simon Ward" changeset="156549">
    <nd ref="268646643"/>
    <nd ref="268646642"/>
    <nd ref="268646641"/>
    <nd ref="268646640"/>
    <nd ref="3353933"/>
    <nd ref="3353932"/>
    <nd ref="3353930"/>
    <tag k="abutters" v="residential"/>
    <tag k="created_by" v="JOSM"/>
    <tag k="highway" v="residential"/>
    <tag k="name" v="Wadeson Road"/>
    <tag k="postal_code" v="M13 9TU"/>
  </way>
</osm>
