<?xml version='1.0' encoding='UTF-8'?>
<osm version="0.6" generator="libosmium/2.20.0">
  <way id="80217362" version="3" timestamp="2011-04-02T06:31:35Z" uid="4467" user="Rosscoe" changeset="7741287">
    <nd ref="635782248"/>
    <nd ref="168107932"/>
    <nd ref="1228879443"/>
    <nd ref="1228879372"/>
    <nd ref="1228879421"/>
    <nd ref="170401601"/>
    <nd ref="170401834"/>
    <nd ref="170401808"/>
    <nd ref="170401666"/>
    <nd ref="475579311"/>
    <nd ref="150934095"/>
    <nd ref="170401206"/>
    <nd ref="475571338"/>
    <tag k="highway" v="tertiary"/>
    <tag k="name" v="Fitzroy Street"/>
    <tag k="surface" v="asphalt"/>
  </way>
  <way id="80217377" version="1" timestamp="2010-10-03T06:18:57Z" uid="4467" user="Rosscoe" changeset="5941237">
    <nd ref="936125527"/>
    <nd ref="936125528"/>
    <tag k="aeroway" v="runway"/>
    <tag k="name" v="Karajini"/>
    <tag k="source" v="Yahoo;survey"/>
  </way>
  <way id="80217716" version="1" timestamp="2010-10-03T06:49:47Z" uid="33382" user="de_muur" changeset="5941344">
    <nd ref="13329584"/>
    <nd ref="13329586"/>
    <nd ref="13329587"/>
    <nd ref="13330223"/>
    <nd ref="13330225"/>
    <nd ref="13330226"/>
    <nd ref="323087191"/>
    <tag k="highway" v="motorway"/>
    <tag k="int_ref" v="E 22"/>
    <tag k="lanes" v="3"/>
    <tag k="maxspeed" v="120"/>
    <tag k="oneway" v="yes"/>
    <tag k="ref" v="A 1"/>
  </way>
  <way id="80217717" version="1" timestamp="2010-10-03T06:49:47Z" uid="33382" user="de_muur" changeset="5941344">
    <nd ref="936131953"/>
    <nd ref="21652060"/>
    <nd ref="21652058"/>
    <nd ref="272315275"/>
    <nd ref="21652057"/>
    <tag k="highway" v="secondary"/>
    <tag k="maxspeed" v="80"/>
    <tag k="name" v="Sachsenwaldstraße"/>
    <tag k="ref" v="K 26; L 314"/>
    <tag k="surface" v="paved"/>
  </way>
  <way id="80217718" version="1" timestamp="2010-10-03T06:49:47Z" uid="33382" user="de_muur" changeset="5941344">
    <nd ref="266670295"/>
    <nd ref="936131956"/>
    <nd ref="323922471"/>
    <nd ref="323922475"/>
    <nd ref="323922479"/>
    <nd ref="323922481"/>
    <nd ref="323922485"/>
    <tag k="bicycle" v="yes"/>
    <tag k="highway" v="footway"/>
    <tag k="surface" v="paved"/>
  </way>
  <way id="80217719" version="1" timestamp="2010-10-03T06:49:47Z" uid="33382" user="de_muur" changeset="5941344">
    <nd ref="266670295"/>
    <nd ref="199599102"/>
    <nd ref="199600282"/>
    <tag k="highway" v="secondary"/>
    <tag k="maxspeed" v="50"/>
    <tag k="name" v="Sachsenwaldstraße"/>
    <tag k="ref" v="L 314"/>
    <tag k="surface" v="paved"/>
  </way>
  <way id="80217720" version="1" timestamp="2010-10-03T06:49:47Z" uid="33382" user="de_muur" changeset="5941344">
    <nd ref="257174740"/>
    <nd ref="199568380"/>
    <nd ref="199568382"/>
    <nd ref="265594281"/>
    <tag k="cycleway" v="track"/>
    <tag k="highway" v="secondary"/>
    <tag k="maxspeed" v="50"/>
    <tag k="name" v="Schönningstedter Straße"/>
    <tag k="ref" v="L 314"/>
    <tag k="surface" v="paved"/>
  </way>
</osm>
