<?xml version='1.0' encoding='UTF-8'?>
<osm version="0.6" generator="libosmium/2.20.0">
  <way id="80499050" version="1" timestamp="2010-10-06T08:32:28Z" uid="4467" user="Rosscoe" changeset="5967035">
    <nd ref="939084845"/>
    <nd ref="939084822"/>
    <nd ref="939084839"/>
    <nd ref="939084831"/>
    <nd ref="939084825"/>
    <nd ref="939084814"/>
    <nd ref="939084850"/>
    <nd ref="939084837"/>
    <tag k="highway" v="residential"/>
    <tag k="name" v="Honeyeater Corner"/>
    <tag k="source" v="survey"/>
    <tag k="surface" v="asphalt"/>
  </way>
  <way id="80499051" version="1" timestamp="2010-10-06T08:32:28Z" uid="4467" user="Rosscoe" changeset="5967035">
    <nd ref="920073708"/>
    <nd ref="305874940"/>
    <tag k="highway" v="residential"/>
    <tag k="name" v="Ridge Elbow"/>
    <tag k="source" v="survey"/>
    <tag k="surface" v="asphalt"/>
  </way>
  <way id="80499052" version="1" timestamp="2010-10-06T08:32:28Z" uid="4467" user="Rosscoe" changeset="5967035">
    <nd ref="939084849"/>
    <nd ref="939084844"/>
    <nd ref="939084845"/>
    <nd ref="939084814"/>
    <tag k="highway" v="residential"/>
    <tag k="name" v="Peregrine Link"/>
    <tag k="source" v="survey"/>
    <tag k="surface" v="asphalt"/>
  </way>
  <way id="80499053" version="1" timestamp="2010-10-06T08:32:29Z" uid="4467" user="Rosscoe" changeset="5967035">
    <nd ref="939084821"/>
    <nd ref="939084833"/>
    <nd ref="939084829"/>
    <tag k="highway" v="residential"/>
    <tag k="name" v="Tattler Route"/>
    <tag k="source" v="survey"/>
    <tag k="surface" v="asphalt"/>
  </way>
  <way id="80499055" version="1" timestamp="2010-10-06T08:32:29Z" uid="4467" user="Rosscoe" changeset="5967035">
    <nd ref="939084819"/>
    <nd ref="939084829"/>
    <nd ref="920073694"/>
    <tag k="highway" v="residential"/>
    <tag k="name" v="Ridge Elbow"/>
    <tag k="source" v="survey"/>
    <tag k="surface" v="asphalt"/>
  </way>
  <way id="80499056" version="1" timestamp="2010-10-06T08:32:29Z" uid="4467" user="Rosscoe" changeset="5967035">
    <nd ref="939084816"/>
    <nd ref="939084833"/>
    <nd ref="939084828"/>
    <tag k="highway" v="service"/>
    <tag k="name" v="Firetail Lane"/>
    <tag k="source" v="survey"/>
  </way>
  <way id="80499057" version="1" timestamp="2010-10-06T08:32:29Z" uid="4467" user="Rosscoe" changeset="5967035">
    <nd ref="939084842"/>
    <nd ref="939084854"/>
    <nd ref="939084850"/>
    <tag k="highway" v="residential"/>
    <tag k="name" v="Finch Street"/>
    <tag k="source" v="survey"/>
    <tag k="surface" v="asphalt"/>
  </way>
  <way id="80499058" version="1" timestamp="2010-10-06T08:32:29Z" uid="4467" user="Rosscoe" changeset="5967035">
    <nd ref="939084840"/>
    <nd ref="939084835"/>
    <tag k="highway" v="service"/>
    <tag k="name" v="Loft Lane"/>
    <tag k="source" v="survey"/>
    <tag k="surface" v="asphalt"/>
  </way>
  <way id="80499059" version="1" timestamp="2010-10-06T08:32:30Z" uid="4467" user="Rosscoe" changeset="5967035">
    <nd ref="939084817"/>
    <nd ref="939084819"/>
    <nd ref="939084816"/>
    <nd ref="939084847"/>
    <nd ref="939084838"/>
    <tag k="highway" v="residential"/>
    <tag k="name" v="Kingfisher Way"/>
    <tag k="source" v="survey"/>
    <tag k="surface" v="asphalt"/>
  </way>
  <way id="80499060" version="1" timestamp="2010-10-06T08:32:30Z" uid="4467" user="Rosscoe" changeset="5967035">
    <nd ref="939084838"/>
    <nd ref="939084841"/>
    <nd ref="939084821"/>
    <nd ref="939084846"/>
    <tag k="highway" v="residential"/>
    <tag k="name" v="Kookaburra Parkway"/>
    <tag k="source" v="survey"/>
    <tag k="surface" v="asphalt"/>
  </way>
</osm>
