<?xml version='1.0' encoding='UTF-8'?>
<osm version="0.6" generator="libosmium/2.20.0">
  <way id="8057124" version="3" timestamp="2009-12-06T23:34:14Z" uid="200463" user="harmagedon" changeset="3311555">
    <nd ref="60243125"/>
    <nd ref="60243126"/>
    <nd ref="60243114"/>
    <nd ref="60243115"/>
    <nd ref="60243116"/>
    <nd ref="60243117"/>
    <nd ref="60243118"/>
    <nd ref="60243119"/>
    <nd ref="60243120"/>
    <nd ref="60243121"/>
    <nd ref="60243122"/>
    <nd ref="60243123"/>
    <nd ref="60243124"/>
    <nd ref="60243125"/>
    <tag k="leisure" v="park"/>
    <tag k="name" v="Stadtpark Kainzenhof"/>
  </way>
  <way id="8057152" version="30" timestamp="2010-03-24T08:50:00Z" uid="58091" user="Andreas M" changeset="4219282">
    <nd ref="288447733"/>
    <nd ref="60243709"/>
    <nd ref="289570692"/>
    <nd ref="60243626"/>
    <nd ref="160360954"/>
    <nd ref="160360818"/>
    <nd ref="289571875"/>
    <nd ref="160361347"/>
    <nd ref="60243627"/>
    <nd ref="160361599"/>
    <nd ref="96983793"/>
    <nd ref="60243629"/>
    <nd ref="289573087"/>
    <nd ref="60243630"/>
    <nd ref="96982802"/>
    <nd ref="96984388"/>
    <nd ref="60243631"/>
    <nd ref="96983560"/>
    <nd ref="92552668"/>
    <nd ref="160370906"/>
    <nd ref="96983401"/>
    <nd ref="160367252"/>
    <nd ref="92552669"/>
    <nd ref="160367644"/>
    <nd ref="96984103"/>
    <nd ref="92552671"/>
    <nd ref="96984047"/>
    <nd ref="92552672"/>
    <nd ref="337379314"/>
    <nd ref="96983991"/>
    <nd ref="92552673"/>
    <nd ref="92552674"/>
    <nd ref="92552676"/>
    <nd ref="337380342"/>
    <nd ref="92552678"/>
    <nd ref="96982255"/>
    <nd ref="96982254"/>
    <nd ref="96982253"/>
    <tag k="addr:postcode" v="3423"/>
    <tag k="highway" v="secondary"/>
    <tag k="is_in" v="St. Andrä-Wördern,Bezirk Tulln,Niederösterreich,Österreich,Europa"/>
    <tag k="name" v="Greifensteiner Straße"/>
    <tag k="ref" v="L118"/>
  </way>
  <way id="8057155" version="3" timestamp="2009-09-30T15:25:26Z" uid="36809" user="pfoten_weg_!_" changeset="2689341">
    <nd ref="60243554"/>
    <nd ref="135426623"/>
    <nd ref="60243556"/>
    <nd ref="60243558"/>
    <nd ref="60243560"/>
    <nd ref="60243562"/>
    <nd ref="60243564"/>
    <nd ref="60243569"/>
    <nd ref="60243571"/>
    <tag k="highway" v="residential"/>
    <tag k="name" v="Gachenaustraße"/>
  </way>
  <way id="8057157" version="4" timestamp="2009-09-30T15:25:28Z" uid="36809" user="pfoten_weg_!_" changeset="2689341">
    <nd ref="135420345"/>
    <nd ref="60243572"/>
    <nd ref="60243574"/>
    <nd ref="60243576"/>
    <nd ref="60243578"/>
    <nd ref="175659166"/>
    <nd ref="175659157"/>
    <nd ref="175659131"/>
    <nd ref="175659137"/>
    <tag k="highway" v="residential"/>
    <tag k="name" v="Adolf-Sturm-Straße"/>
  </way>
  <way id="8057158" version="2" timestamp="2009-09-30T15:25:27Z" uid="36809" user="pfoten_weg_!_" changeset="2689341">
    <nd ref="60243580"/>
    <nd ref="60243574"/>
    <tag k="highway" v="residential"/>
  </way>
  <way id="8057159" version="3" timestamp="2009-09-30T15:25:27Z" uid="36809" user="pfoten_weg_!_" changeset="2689341">
    <nd ref="60243578"/>
    <nd ref="60243582"/>
    <nd ref="60243584"/>
    <nd ref="60243586"/>
    <nd ref="60243588"/>
    <nd ref="379538950"/>
    <nd ref="60243589"/>
    <nd ref="60243592"/>
    <nd ref="60243594"/>
    <tag k="highway" v="footway"/>
  </way>
  <way id="8057161" version="2" timestamp="2009-09-30T15:25:23Z" uid="36809" user="pfoten_weg_!_" changeset="2689341">
    <nd ref="60243617"/>
    <nd ref="60243615"/>
    <nd ref="60243619"/>
    <tag k="highway" v="residential"/>
  </way>
  <way id="8057163" version="2" timestamp="2009-09-30T15:25:21Z" uid="36809" user="pfoten_weg_!_" changeset="2689341">
    <nd ref="60243625"/>
    <nd ref="60243663"/>
    <nd ref="60243632"/>
    <nd ref="60243634"/>
    <nd ref="60243636"/>
    <nd ref="60243638"/>
    <nd ref="60243640"/>
    <nd ref="60243642"/>
    <nd ref="60243645"/>
    <nd ref="60243646"/>
    <nd ref="60243648"/>
    <nd ref="60243650"/>
    <nd ref="60243653"/>
    <nd ref="60243656"/>
    <nd ref="60243659"/>
    <tag k="highway" v="footway"/>
  </way>
  <way id="8057164" version="7" timestamp="2009-09-30T15:25:25Z" uid="36809" user="pfoten_weg_!_" changeset="2689341">
    <nd ref="60243667"/>
    <nd ref="60243669"/>
    <nd ref="303913329"/>
    <nd ref="60243672"/>
    <nd ref="60243674"/>
    <nd ref="367031606"/>
    <nd ref="60243676"/>
    <nd ref="60243678"/>
    <nd ref="60243680"/>
    <nd ref="60243684"/>
    <nd ref="60243686"/>
    <nd ref="303913361"/>
    <nd ref="60243688"/>
    <nd ref="60243690"/>
    <nd ref="60243692"/>
    <nd ref="60243695"/>
    <tag k="highway" v="unclassified"/>
  </way>
  <way id="8057252" version="2" timestamp="2009-09-30T15:25:30Z" uid="36809" user="pfoten_weg_!_" changeset="2689341">
    <nd ref="60184628"/>
    <nd ref="60244192"/>
    <nd ref="60244194"/>
    <nd ref="60244199"/>
    <nd ref="60244195"/>
    <nd ref="60244196"/>
    <nd ref="60746881"/>
    <tag k="highway" v="footway"/>
  </way>
  <way id="8057253" version="2" timestamp="2009-09-30T15:25:31Z" uid="36809" user="pfoten_weg_!_" changeset="2689341">
    <nd ref="60184611"/>
    <nd ref="60244198"/>
    <nd ref="60244197"/>
    <nd ref="60244199"/>
    <tag k="highway" v="footway"/>
  </way>
  <way id="8057254" version="2" timestamp="2009-09-30T15:25:31Z" uid="36809" user="pfoten_weg_!_" changeset="2689341">
    <nd ref="60184612"/>
    <nd ref="60244200"/>
    <nd ref="60244201"/>
    <nd ref="60244202"/>
    <nd ref="60244203"/>
    <tag k="highway" v="residential"/>
  </way>
  <way id="8057256" version="5" timestamp="2009-10-11T01:47:47Z" uid="36809" user="pfoten_weg_!_" changeset="2809526">
    <nd ref="76457199"/>
    <nd ref="122064179"/>
    <nd ref="76457198"/>
    <nd ref="76457197"/>
    <nd ref="76457196"/>
    <nd ref="76457195"/>
    <nd ref="76457194"/>
    <nd ref="76457193"/>
    <nd ref="76457192"/>
    <nd ref="76457191"/>
    <tag k="highway" v="motorway"/>
    <tag k="lanes" v="3"/>
    <tag k="name" v="Carretera Riaño - Puerto de Tarna"/>
    <tag k="oneway" v="yes"/>
    <tag k="ref" v="AS-117"/>
  </way>
  <way id="8057256" version="6" timestamp="2009-10-11T18:10:32Z" uid="36809" user="pfoten_weg_!_" changeset="2818212">
    <nd ref="76457199"/>
    <nd ref="122064179"/>
    <nd ref="76457198"/>
    <nd ref="76457197"/>
    <nd ref="76457196"/>
    <nd ref="76457195"/>
    <nd ref="76457194"/>
    <nd ref="76457193"/>
    <nd ref="76457192"/>
    <nd ref="76457191"/>
    <tag k="highway" v="motorway"/>
    <tag k="lanes" v="3"/>
    <tag k="name" v="Carretera Riaño - Puerto de Tarna"/>
    <tag k="oneway" v="yes"/>
    <tag k="ref" v="AS-117"/>
  </way>
  <way id="8057256" version="7" timestamp="2009-10-11T18:16:53Z" uid="36809" user="pfoten_weg_!_" changeset="2818212">
    <nd ref="76457199"/>
    <nd ref="122064179"/>
    <nd ref="76457198"/>
    <nd ref="76457197"/>
    <nd ref="76457196"/>
    <nd ref="76457195"/>
    <nd ref="76457194"/>
    <nd ref="76457193"/>
    <nd ref="76457192"/>
    <nd ref="76457191"/>
    <tag k="highway" v="motorway"/>
    <tag k="lanes" v="3"/>
    <tag k="name" v="Carretera Riaño - Puerto de Tarna"/>
    <tag k="oneway" v="yes"/>
    <tag k="ref" v="AS-117"/>
  </way>
  <way id="8057257" version="8" timestamp="2009-10-11T01:49:08Z" uid="36809" user="pfoten_weg_!_" changeset="2809526">
    <nd ref="60244234"/>
    <nd ref="48691362"/>
    <nd ref="48691363"/>
    <nd ref="48691365"/>
    <nd ref="48691468"/>
    <nd ref="48691476"/>
    <nd ref="60244235"/>
    <nd ref="60244236"/>
    <nd ref="60244237"/>
    <nd ref="121771413"/>
    <nd ref="121771418"/>
    <nd ref="121771421"/>
    <nd ref="493407625"/>
    <nd ref="30455141"/>
    <tag k="highway" v="motorway"/>
    <tag k="lanes" v="2"/>
    <tag k="name" v="Carretera Riaño - Puerto de Tarna"/>
    <tag k="oneway" v="yes"/>
    <tag k="ref" v="AS-117"/>
  </way>
  <way id="8057258" version="2" timestamp="2009-08-12T23:56:43Z" uid="36809" user="pfoten_weg_!_" changeset="2125213">
    <nd ref="30548947"/>
    <nd ref="30548949"/>
    <nd ref="30548951"/>
    <nd ref="30548952"/>
    <nd ref="30548954"/>
    <tag k="name" v="Soto de Rey - El Entrego"/>
    <tag k="railway" v="rail"/>
  </way>
  <way id="8057258" version="3" timestamp="2009-08-13T20:21:02Z" uid="36809" user="pfoten_weg_!_" changeset="2136432"/>
  <way id="8057259" version="2" timestamp="2009-10-11T01:49:03Z" uid="36809" user="pfoten_weg_!_" changeset="2809526">
    <nd ref="60244238"/>
    <nd ref="60244239"/>
    <tag k="bridge" v="yes"/>
    <tag k="layer" v="1"/>
    <tag k="name" v="Soto de Rey - El Entrego"/>
    <tag k="railway" v="rail"/>
  </way>
  <way id="8057260" version="3" timestamp="2009-10-11T01:47:46Z" uid="36809" user="pfoten_weg_!_" changeset="2809526">
    <nd ref="60244239"/>
    <nd ref="493385489"/>
    <nd ref="493385485"/>
    <tag k="name" v="Soto de Rey - El Entrego"/>
    <tag k="railway" v="rail"/>
  </way>
  <way id="8057261" version="3" timestamp="2009-10-11T01:48:54Z" uid="36809" user="pfoten_weg_!_" changeset="2809526">
    <nd ref="493385446"/>
    <nd ref="493385491"/>
    <nd ref="60244238"/>
    <tag k="name" v="Soto de Rey - El Entrego"/>
    <tag k="railway" v="rail"/>
  </way>
  <way id="8057263" version="4" timestamp="2009-10-11T01:50:43Z" uid="36809" user="pfoten_weg_!_" changeset="2809526">
    <nd ref="25748208"/>
    <nd ref="25748207"/>
    <nd ref="25748206"/>
    <nd ref="25748205"/>
    <nd ref="25748204"/>
    <nd ref="25748203"/>
    <nd ref="25748202"/>
    <nd ref="25748201"/>
    <nd ref="79681077"/>
    <nd ref="79681078"/>
    <nd ref="79681080"/>
    <nd ref="79681082"/>
    <nd ref="79681083"/>
    <nd ref="79681084"/>
    <nd ref="79681085"/>
    <nd ref="79681086"/>
    <nd ref="79681089"/>
    <nd ref="79681090"/>
    <nd ref="79681091"/>
    <nd ref="79681093"/>
    <nd ref="79681094"/>
    <nd ref="79681095"/>
    <nd ref="79681097"/>
    <nd ref="79681099"/>
    <nd ref="79681101"/>
    <nd ref="79681103"/>
    <nd ref="79681105"/>
    <nd ref="79681107"/>
    <tag k="highway" v="tertiary"/>
    <tag k="name" v="Carretera Riaño - Puerto de Tarna"/>
    <tag k="ref" v="AS-117a"/>
  </way>
  <way id="8057263" version="5" timestamp="2009-10-11T18:10:40Z" uid="36809" user="pfoten_weg_!_" changeset="2818212"/>
  <way id="8057264" version="3" timestamp="2009-10-11T01:49:03Z" uid="36809" user="pfoten_weg_!_" changeset="2809526">
    <nd ref="25748215"/>
    <nd ref="25748214"/>
    <tag k="bridge" v="yes"/>
    <tag k="highway" v="tertiary"/>
    <tag k="layer" v="1"/>
    <tag k="name" v="Carretera Riaño - Puerto de Tarna"/>
    <tag k="ref" v="AS-117a"/>
  </way>
  <way id="8057265" version="3" timestamp="2009-10-11T01:54:16Z" uid="36809" user="pfoten_weg_!_" changeset="2809526">
    <nd ref="25748209"/>
    <nd ref="25748208"/>
    <tag k="bridge" v="yes"/>
    <tag k="highway" v="tertiary"/>
    <tag k="layer" v="1"/>
    <tag k="name" v="Carretera Riaño - Puerto de Tarna"/>
    <tag k="ref" v="AS-117a"/>
  </way>
  <way id="8057266" version="5" timestamp="2009-10-11T01:49:30Z" uid="36809" user="pfoten_weg_!_" changeset="2809526">
    <nd ref="25748092"/>
    <nd ref="493378840"/>
    <nd ref="25748094"/>
    <nd ref="493378845"/>
    <nd ref="25748096"/>
    <nd ref="493378854"/>
    <nd ref="25748098"/>
    <nd ref="493378859"/>
    <nd ref="25748090"/>
    <nd ref="25748226"/>
    <nd ref="493378862"/>
    <nd ref="25748092"/>
    <tag k="bridge" v="yes"/>
    <tag k="highway" v="primary"/>
    <tag k="junction" v="roundabout"/>
    <tag k="layer" v="1"/>
    <tag k="name" v="Enlace de Barros"/>
  </way>
  <way id="8057274" version="7" timestamp="2009-10-11T01:49:31Z" uid="36809" user="pfoten_weg_!_" changeset="2809526">
    <nd ref="493405071"/>
    <nd ref="493378845"/>
    <nd ref="493411521"/>
    <nd ref="493407625"/>
    <tag k="highway" v="motorway_link"/>
    <tag k="layer" v="1"/>
    <tag k="name" v="Enlace de Barros"/>
    <tag k="oneway" v="yes"/>
  </way>
  <way id="8057281" version="3" timestamp="2009-10-11T01:47:47Z" uid="36809" user="pfoten_weg_!_" changeset="2809526">
    <nd ref="25748214"/>
    <nd ref="25748213"/>
    <nd ref="25748212"/>
    <nd ref="25748211"/>
    <nd ref="25748210"/>
    <nd ref="25748209"/>
    <tag k="highway" v="tertiary"/>
    <tag k="name" v="Carretera Riaño - Puerto de Tarna"/>
    <tag k="ref" v="AS-117a"/>
  </way>
  <way id="8057281" version="4" timestamp="2009-10-11T18:10:42Z" uid="36809" user="pfoten_weg_!_" changeset="2818212"/>
  <way id="8057282" version="3" timestamp="2009-10-11T01:51:55Z" uid="36809" user="pfoten_weg_!_" changeset="2809526">
    <nd ref="27676598"/>
    <nd ref="27676600"/>
    <nd ref="48686999"/>
    <tag k="highway" v="residential"/>
    <tag k="is_in" v="Langreo;Asturias;Principado de Asturias;España;Europe"/>
    <tag k="is_in:city" v="Langreo"/>
    <tag k="is_in:continent" v="Europe"/>
    <tag k="is_in:country" v="España"/>
    <tag k="is_in:province" v="Asturias"/>
    <tag k="is_in:region" v="Principado de Asturias"/>
    <tag k="name" v="Calle Sabino Alonso"/>
  </way>
  <way id="8057283" version="3" timestamp="2009-10-11T01:52:02Z" uid="36809" user="pfoten_weg_!_" changeset="2809526">
    <nd ref="48686950"/>
    <nd ref="27676597"/>
    <nd ref="27676598"/>
    <tag k="bridge" v="yes"/>
    <tag k="highway" v="residential"/>
    <tag k="is_in" v="Langreo;Asturias;Principado de Asturias;España;Europe"/>
    <tag k="is_in:city" v="Langreo"/>
    <tag k="is_in:continent" v="Europe"/>
    <tag k="is_in:country" v="España"/>
    <tag k="is_in:province" v="Asturias"/>
    <tag k="is_in:region" v="Principado de Asturias"/>
    <tag k="layer" v="1"/>
    <tag k="name" v="Calle Sabino Alonso"/>
  </way>
  <way id="8057284" version="3" timestamp="2009-10-11T01:51:45Z" uid="36809" user="pfoten_weg_!_" changeset="2809526">
    <nd ref="27676594"/>
    <nd ref="27676596"/>
    <nd ref="48686950"/>
    <tag k="highway" v="residential"/>
    <tag k="is_in" v="Langreo;Asturias;Principado de Asturias;España;Europe"/>
    <tag k="is_in:city" v="Langreo"/>
    <tag k="is_in:continent" v="Europe"/>
    <tag k="is_in:country" v="España"/>
    <tag k="is_in:province" v="Asturias"/>
    <tag k="is_in:region" v="Principado de Asturias"/>
    <tag k="name" v="Calle Sabino Alonso"/>
  </way>
  <way id="8057364" version="4" timestamp="2010-06-29T19:03:55Z" uid="74617" user="JohnSmith" changeset="5108182">
    <nd ref="60244954"/>
    <nd ref="60244970"/>
    <nd ref="60244969"/>
    <nd ref="60244968"/>
    <nd ref="60244967"/>
    <nd ref="60244966"/>
    <nd ref="60244965"/>
    <nd ref="60244964"/>
    <nd ref="60244963"/>
    <nd ref="60244962"/>
    <nd ref="60244961"/>
    <nd ref="309880577"/>
    <nd ref="60244960"/>
    <nd ref="60244959"/>
    <nd ref="60244958"/>
    <nd ref="60244957"/>
    <nd ref="60244956"/>
    <nd ref="60244955"/>
    <nd ref="60244954"/>
    <tag k="fixme" v="sport=football is ambiguous, see http://wiki.osm.org/wiki/Football for more details"/>
    <tag k="leisure" v="pitch"/>
    <tag k="sport" v="football"/>
  </way>
  <way id="8057368" version="2" timestamp="2009-11-11T18:27:11Z" uid="36809" user="pfoten_weg_!_" changeset="3091919">
    <nd ref="58641860"/>
    <nd ref="58671816"/>
    <nd ref="58641862"/>
    <nd ref="58641864"/>
    <tag k="highway" v="secondary"/>
  </way>
  <way id="8057395" version="2" timestamp="2009-09-30T15:27:01Z" uid="36809" user="pfoten_weg_!_" changeset="2689341">
    <nd ref="60184595"/>
    <nd ref="60184594"/>
    <tag k="highway" v="residential"/>
  </way>
  <way id="8057763" version="2" timestamp="2008-02-18T02:29:33Z" uid="26515" user="Simon Ward" changeset="145894">
    <nd ref="25931557"/>
    <nd ref="25931558"/>
    <nd ref="248123815"/>
    <nd ref="248123817"/>
    <nd ref="25931559"/>
    <tag k="created_by" v="JOSM"/>
  </way>
  <way id="8057763" version="3" timestamp="2008-02-18T04:56:37Z" uid="26515" user="Simon Ward" changeset="146820"/>
  <way id="8057764" version="2" timestamp="2008-02-18T02:29:34Z" uid="26515" user="Simon Ward" changeset="145894">
    <nd ref="3190798"/>
    <nd ref="25931557"/>
    <nd ref="25931563"/>
    <nd ref="248123805"/>
    <nd ref="25931567"/>
    <nd ref="25931569"/>
    <nd ref="248123812"/>
    <nd ref="25931570"/>
    <tag k="created_by" v="JOSM"/>
  </way>
  <way id="8057764" version="3" timestamp="2008-02-18T04:54:25Z" uid="26515" user="Simon Ward" changeset="146820">
    <nd ref="3190798"/>
    <nd ref="25931557"/>
    <nd ref="25931563"/>
    <tag k="created_by" v="JOSM"/>
    <tag k="highway" v="residential"/>
    <tag k="name" v="Brighton Grove"/>
  </way>
  <way id="8057764" version="4" timestamp="2008-02-18T04:59:56Z" uid="26515" user="Simon Ward" changeset="146820">
    <nd ref="3190798"/>
    <nd ref="25931557"/>
    <nd ref="25931563"/>
    <tag k="created_by" v="JOSM"/>
    <tag k="highway" v="residential"/>
    <tag k="name" v="Birch Grove"/>
  </way>
  <way id="8057764" version="5" timestamp="2008-03-04T00:23:38Z" uid="26515" user="Simon Ward" changeset="265000">
    <nd ref="3190798"/>
    <nd ref="25931557"/>
    <nd ref="250423217"/>
    <nd ref="250423212"/>
    <nd ref="25931563"/>
    <tag k="created_by" v="JOSM"/>
    <tag k="highway" v="residential"/>
    <tag k="name" v="Birch Grove"/>
  </way>
  <way id="8057771" version="2" timestamp="2008-02-18T04:54:26Z" uid="26515" user="Simon Ward" changeset="146820">
    <nd ref="25932800"/>
    <nd ref="25932801"/>
    <tag k="created_by" v="JOSM"/>
    <tag k="highway" v="residential"/>
    <tag k="name" v="Rainforth Street"/>
  </way>
  <way id="8057785" version="2" timestamp="2008-02-18T04:54:30Z" uid="26515" user="Simon Ward" changeset="146820">
    <nd ref="25932798"/>
    <nd ref="25932797"/>
    <tag k="created_by" v="JOSM"/>
    <tag k="highway" v="residential"/>
  </way>
  <way id="8057785" version="3" timestamp="2008-02-18T05:41:01Z" uid="26515" user="Simon Ward" changeset="146820">
    <nd ref="25932798"/>
    <nd ref="25932797"/>
    <tag k="created_by" v="JOSM"/>
    <tag k="note" v="FIXME"/>
  </way>
  <way id="8057785" version="4" timestamp="2008-06-29T20:33:57Z" uid="26515" user="Simon Ward" changeset="347947">
    <nd ref="25932798"/>
    <nd ref="25932797"/>
    <tag k="created_by" v="JOSM"/>
    <tag k="highway" v="residential"/>
    <tag k="lit" v="yes"/>
    <tag k="name" v="Swayfield Avenue"/>
  </way>
  <way id="8057788" version="2" timestamp="2008-02-18T04:54:33Z" uid="26515" user="Simon Ward" changeset="146820">
    <nd ref="25932793"/>
    <nd ref="25932795"/>
    <tag k="created_by" v="JOSM"/>
    <tag k="highway" v="residential"/>
  </way>
  <way id="8057788" version="3" timestamp="2008-02-18T05:41:02Z" uid="26515" user="Simon Ward" changeset="146820">
    <nd ref="25932793"/>
    <nd ref="25932795"/>
    <tag k="created_by" v="JOSM"/>
    <tag k="highway" v="residential"/>
    <tag k="name" v="Mead Grove"/>
  </way>
  <way id="8057791" version="2" timestamp="2008-02-18T04:54:40Z" uid="26515" user="Simon Ward" changeset="146820">
    <nd ref="25932796"/>
    <nd ref="25932795"/>
    <nd ref="25651528"/>
    <tag k="created_by" v="JOSM"/>
    <tag k="highway" v="residential"/>
  </way>
  <way id="8057791" version="3" timestamp="2008-02-18T05:41:02Z" uid="26515" user="Simon Ward" changeset="146820">
    <nd ref="25932796"/>
    <nd ref="25932795"/>
    <nd ref="25651528"/>
    <tag k="created_by" v="JOSM"/>
    <tag k="highway" v="residential"/>
    <tag k="name" v="Albert Place"/>
  </way>
  <way id="8057792" version="2" timestamp="2008-02-18T04:54:46Z" uid="26515" user="Simon Ward" changeset="146820">
    <nd ref="25932745"/>
    <nd ref="25932754"/>
    <tag k="created_by" v="JOSM"/>
    <tag k="highway" v="residential"/>
    <tag k="name" v="Meldon Road"/>
    <tag k="oneway" v="true"/>
  </way>
  <way id="8057793" version="2" timestamp="2008-02-18T02:29:40Z" uid="26515" user="Simon Ward" changeset="145894">
    <nd ref="25651527"/>
    <nd ref="25931614"/>
    <nd ref="25931685"/>
    <nd ref="25931686"/>
    <nd ref="25931684"/>
    <nd ref="25931687"/>
    <nd ref="25931690"/>
    <nd ref="25932767"/>
    <nd ref="25932745"/>
    <nd ref="25931757"/>
    <nd ref="25931756"/>
    <nd ref="25931755"/>
    <nd ref="25931752"/>
    <nd ref="248123907"/>
    <nd ref="25931751"/>
    <tag k="created_by" v="JOSM"/>
  </way>
  <way id="8057793" version="3" timestamp="2008-02-18T04:54:47Z" uid="26515" user="Simon Ward" changeset="146820">
    <nd ref="25651527"/>
    <nd ref="25931614"/>
    <nd ref="25931685"/>
    <nd ref="25931686"/>
    <nd ref="25931684"/>
    <nd ref="25931687"/>
    <nd ref="25931690"/>
    <nd ref="25932767"/>
    <nd ref="25932745"/>
    <nd ref="25931757"/>
    <nd ref="25931756"/>
    <nd ref="25931755"/>
    <nd ref="25931752"/>
    <nd ref="248123907"/>
    <nd ref="25931751"/>
    <tag k="created_by" v="JOSM"/>
    <tag k="highway" v="residential"/>
    <tag k="name" v="Beresford Road"/>
  </way>
  <way id="8057793" version="4" timestamp="2008-02-18T05:41:06Z" uid="26515" user="Simon Ward" changeset="146820">
    <nd ref="25651527"/>
    <nd ref="248128271"/>
    <tag k="created_by" v="JOSM"/>
    <tag k="foot" v="yes"/>
    <tag k="name" v="Beresford Road"/>
  </way>
  <way id="8057793" version="5" timestamp="2008-02-20T07:25:25Z" uid="26515" user="Simon Ward" changeset="161792">
    <nd ref="25651527"/>
    <nd ref="248128271"/>
    <tag k="created_by" v="JOSM"/>
    <tag k="foot" v="yes"/>
    <tag k="highway" v="footway"/>
    <tag k="name" v="Beresford Road"/>
  </way>
  <way id="8057795" version="2" timestamp="2008-02-18T01:30:54Z" uid="26515" user="Simon Ward" changeset="145894"/>
  <way id="8057796" version="2" timestamp="2008-02-18T04:54:44Z" uid="26515" user="Simon Ward" changeset="146820">
    <nd ref="25931611"/>
    <nd ref="25931708"/>
    <nd ref="25931709"/>
    <nd ref="25931711"/>
    <nd ref="25931713"/>
    <tag k="created_by" v="JOSM"/>
    <tag k="highway" v="residential"/>
  </way>
  <way id="8057796" version="3" timestamp="2008-02-18T05:41:04Z" uid="26515" user="Simon Ward" changeset="146820">
    <nd ref="25931611"/>
    <nd ref="25931708"/>
    <nd ref="25931709"/>
    <nd ref="248127283"/>
    <nd ref="25931684"/>
    <tag k="created_by" v="JOSM"/>
    <tag k="highway" v="residential"/>
    <tag k="name" v="Bexhill Drive"/>
  </way>
  <way id="8057798" version="2" timestamp="2008-02-18T02:29:38Z" uid="26515" user="Simon Ward" changeset="145894">
    <nd ref="25931604"/>
    <nd ref="25931617"/>
    <nd ref="25931628"/>
    <nd ref="248123881"/>
    <nd ref="248123890"/>
    <nd ref="25931744"/>
    <tag k="created_by" v="JOSM"/>
  </way>
  <way id="8057798" version="3" timestamp="2008-02-18T04:54:42Z" uid="26515" user="Simon Ward" changeset="146820">
    <nd ref="25931604"/>
    <nd ref="248127285"/>
    <nd ref="25931617"/>
    <nd ref="25931628"/>
    <nd ref="248123881"/>
    <nd ref="248123890"/>
    <nd ref="25931744"/>
    <tag k="created_by" v="JOSM"/>
    <tag k="highway" v="residential"/>
    <tag k="name" v="Brynton Road"/>
  </way>
  <way id="8057799" version="2" timestamp="2008-02-18T02:49:14Z" uid="26515" user="Simon Ward" changeset="145894">
    <nd ref="25931736"/>
    <nd ref="25931782"/>
    <tag k="created_by" v="JOSM"/>
    <tag k="highway" v="residential"/>
    <tag k="name" v="Tabley Grove"/>
  </way>
  <way id="8057801" version="2" timestamp="2008-02-18T02:49:16Z" uid="26515" user="Simon Ward" changeset="145894">
    <nd ref="25931733"/>
    <nd ref="25931783"/>
    <tag k="created_by" v="JOSM"/>
    <tag k="highway" v="residential"/>
    <tag k="name" v="Hardon Grove"/>
  </way>
  <way id="8057802" version="2" timestamp="2008-02-18T04:55:58Z" uid="26515" user="Simon Ward" changeset="146820">
    <nd ref="25931609"/>
    <nd ref="25932799"/>
    <tag k="created_by" v="JOSM"/>
    <tag k="highway" v="residential"/>
  </way>
  <way id="8057802" version="3" timestamp="2008-02-18T05:41:14Z" uid="26515" user="Simon Ward" changeset="146820">
    <nd ref="25931609"/>
    <nd ref="25932799"/>
    <tag k="created_by" v="JOSM"/>
    <tag k="highway" v="residential"/>
    <tag k="name" v="Sunnybank Road"/>
  </way>
  <way id="8057804" version="2" timestamp="2008-02-18T02:49:15Z" uid="26515" user="Simon Ward" changeset="145894">
    <nd ref="25931748"/>
    <nd ref="25931779"/>
    <tag k="created_by" v="JOSM"/>
    <tag k="highway" v="residential"/>
    <tag k="name" v="Handforth Grove"/>
  </way>
  <way id="8057805" version="2" timestamp="2008-02-18T02:49:15Z" uid="26515" user="Simon Ward" changeset="145894">
    <nd ref="25931747"/>
    <nd ref="25931780"/>
    <tag k="created_by" v="JOSM"/>
    <tag k="highway" v="residential"/>
    <tag k="name" v="Skelton Grove"/>
  </way>
  <way id="8057806" version="2" timestamp="2008-02-18T01:30:37Z" uid="26515" user="Simon Ward" changeset="145894">
    <nd ref="25931743"/>
    <nd ref="25931740"/>
    <nd ref="248120724"/>
    <nd ref="25931744"/>
    <nd ref="248120725"/>
    <nd ref="25931737"/>
    <nd ref="25931736"/>
    <tag k="created_by" v="JOSM"/>
  </way>
  <way id="8057806" version="3" timestamp="2008-02-18T04:54:47Z" uid="26515" user="Simon Ward" changeset="146820">
    <nd ref="25931743"/>
    <nd ref="25931740"/>
    <nd ref="248120724"/>
    <nd ref="25931744"/>
    <nd ref="248120725"/>
    <nd ref="25931737"/>
    <nd ref="25931736"/>
    <tag k="created_by" v="JOSM"/>
    <tag k="highway" v="residential"/>
    <tag k="name" v="Brynton Road"/>
  </way>
  <way id="8057817" version="3" timestamp="2009-04-26T17:51:25Z" uid="26515" user="Simon Ward" changeset="978073">
    <nd ref="21624635"/>
    <nd ref="21624776"/>
    <nd ref="21624706"/>
    <nd ref="21624705"/>
    <nd ref="21624779"/>
    <nd ref="21624778"/>
    <tag k="highway" v="residential"/>
    <tag k="lit" v="yes"/>
    <tag k="name" v="Lindsay Road"/>
    <tag k="source" v="survey"/>
    <tag k="surface" v="paved"/>
  </way>
  <way id="8057821" version="3" timestamp="2009-04-26T17:48:40Z" uid="26515" user="Simon Ward" changeset="978013">
    <nd ref="21624637"/>
    <nd ref="21624636"/>
    <tag k="highway" v="residential"/>
    <tag k="lit" v="yes"/>
    <tag k="name" v="Brighton Avenue"/>
    <tag k="source" v="survey"/>
    <tag k="surface" v="paved"/>
  </way>
  <way id="8057823" version="3" timestamp="2009-04-26T17:48:40Z" uid="26515" user="Simon Ward" changeset="978013">
    <nd ref="21624626"/>
    <nd ref="21624625"/>
    <tag k="highway" v="residential"/>
    <tag k="lit" v="yes"/>
    <tag k="name" v="Brecon Avenue"/>
    <tag k="source" v="survey"/>
    <tag k="surface" v="paved"/>
  </way>
  <way id="8057825" version="3" timestamp="2009-04-26T18:18:12Z" uid="26515" user="Simon Ward" changeset="978565">
    <nd ref="21624649"/>
    <nd ref="385451644"/>
    <tag k="highway" v="residential"/>
    <tag k="lit" v="yes"/>
    <tag k="name" v="Calverley Avenue"/>
    <tag k="source" v="survey"/>
    <tag k="surface" v="paved"/>
  </way>
  <way id="8057826" version="3" timestamp="2009-04-26T17:55:38Z" uid="26515" user="Simon Ward" changeset="978132">
    <nd ref="21624708"/>
    <nd ref="21624707"/>
    <nd ref="21624706"/>
    <tag k="highway" v="residential"/>
    <tag k="lit" v="yes"/>
    <tag k="name" v="Devon Avenue"/>
    <tag k="source" v="survey"/>
    <tag k="surface" v="paved"/>
  </way>
  <way id="8057828" version="3" timestamp="2009-04-26T17:55:38Z" uid="26515" user="Simon Ward" changeset="978132">
    <nd ref="21624775"/>
    <nd ref="21624705"/>
    <tag k="highway" v="residential"/>
    <tag k="lit" v="yes"/>
    <tag k="name" v="Paignton Avenue"/>
    <tag k="source" v="survey"/>
    <tag k="surface" v="paved"/>
  </way>
  <way id="8057829" version="3" timestamp="2009-04-26T18:09:43Z" uid="26515" user="Simon Ward" changeset="978400">
    <nd ref="21624779"/>
    <nd ref="385447124"/>
    <nd ref="21624782"/>
    <tag k="highway" v="residential"/>
    <tag k="lit" v="yes"/>
    <tag k="name" v="Cringle Hall Road"/>
    <tag k="source" v="survey"/>
    <tag k="surface" v="paved"/>
  </way>
  <way id="8057829" version="4" timestamp="2009-04-26T18:10:52Z" uid="26515" user="Simon Ward" changeset="978424">
    <nd ref="21624779"/>
    <nd ref="385447616"/>
    <nd ref="385447124"/>
    <nd ref="21624782"/>
    <tag k="highway" v="residential"/>
    <tag k="lit" v="yes"/>
    <tag k="name" v="Cringle Hall Road"/>
    <tag k="source" v="survey"/>
    <tag k="surface" v="paved"/>
  </way>
  <way id="8057876" version="2" timestamp="2009-04-26T17:50:37Z" uid="26515" user="Simon Ward" changeset="978052">
    <nd ref="21624615"/>
    <nd ref="21624631"/>
    <nd ref="21624632"/>
    <tag k="abutters" v="residential"/>
    <tag k="created_by" v="JOSM"/>
    <tag k="highway" v="residential"/>
    <tag k="lit" v="yes"/>
    <tag k="name" v="Orville Drive"/>
    <tag k="source" v="survey"/>
    <tag k="surface" v="paved"/>
  </way>
</osm>
