<?xml version='1.0' encoding='UTF-8'?>
<osm version="0.6" generator="libosmium/2.20.0">
  <way id="80576047" version="1" timestamp="2010-10-07T08:31:09Z" uid="49111" user="Markus B" changeset="5976079">
    <nd ref="940000208"/>
    <nd ref="306374569"/>
    <nd ref="306374584"/>
    <nd ref="313040286"/>
    <tag k="highway" v="residential"/>
    <tag k="name" v="Elbstraße"/>
    <tag k="surface" v="asphalt"/>
  </way>
  <way id="80576047" version="2" timestamp="2010-10-07T14:34:27Z" uid="49111" user="Markus B" changeset="5978670">
    <nd ref="940000208"/>
    <nd ref="940348801"/>
    <nd ref="306374569"/>
    <nd ref="940348802"/>
    <nd ref="306374584"/>
    <nd ref="313040286"/>
    <tag k="highway" v="residential"/>
    <tag k="name" v="Elbstraße"/>
    <tag k="surface" v="asphalt"/>
  </way>
  <way id="80576048" version="1" timestamp="2010-10-07T08:31:09Z" uid="49111" user="Markus B" changeset="5976079">
    <nd ref="940000198"/>
    <nd ref="940000201"/>
    <nd ref="940000220"/>
    <nd ref="940000204"/>
    <nd ref="940000180"/>
    <nd ref="940000185"/>
    <nd ref="940000211"/>
    <nd ref="313049337"/>
    <tag k="waterway" v="stream"/>
  </way>
  <way id="80576049" version="1" timestamp="2010-10-07T08:31:10Z" uid="49111" user="Markus B" changeset="5976079">
    <nd ref="306374574"/>
    <nd ref="940000208"/>
    <tag k="bridge" v="yes"/>
    <tag k="highway" v="residential"/>
    <tag k="name" v="Elbstraße"/>
    <tag k="surface" v="asphalt"/>
  </way>
</osm>
