<?xml version='1.0' encoding='UTF-8'?>
<osm version="0.6" generator="libosmium/2.20.0">
  <way id="8077695" version="6" timestamp="2009-10-20T14:26:26Z" uid="36809" user="pfoten_weg_!_" changeset="2903434">
    <nd ref="34027898"/>
    <nd ref="60470290"/>
    <nd ref="60470291"/>
    <nd ref="201742592"/>
    <nd ref="201742897"/>
    <nd ref="34027907"/>
    <tag k="highway" v="residential"/>
    <tag k="maxspeed" v="30"/>
    <tag k="name" v="Alte Schulstraße"/>
  </way>
  <way id="8077790" version="4" timestamp="2010-03-27T14:10:45Z" uid="20587" user="balrog-kun" changeset="4245371">
    <nd ref="48894318"/>
    <nd ref="60470345"/>
    <nd ref="60470356"/>
    <nd ref="49266943"/>
    <tag k="bridge" v="yes"/>
    <tag k="created_by" v="Potlatch 0.9c"/>
    <tag k="highway" v="secondary"/>
    <tag k="layer" v="1"/>
    <tag k="name" v="Clairemont Drive"/>
  </way>
  <way id="8077903" version="9" timestamp="2008-12-13T16:19:23Z" uid="58091" user="Andreas M" changeset="358771">
    <nd ref="60470475"/>
    <nd ref="60470476"/>
    <nd ref="60470477"/>
    <nd ref="60470478"/>
    <nd ref="60470475"/>
    <tag k="amenity" v="parking"/>
    <tag k="description" v="480 Stellplätze"/>
    <tag k="fee" v="no"/>
    <tag k="name" v="Park&apos;n Ride"/>
    <tag k="parking" v="park_and_ride"/>
  </way>
</osm>
