<?xml version='1.0' encoding='UTF-8'?>
<osm version="0.6" generator="libosmium/2.20.0">
  <way id="8089377" version="4" timestamp="2008-09-07T06:28:48Z" uid="58091" user="Andreas M" changeset="557625">
    <nd ref="378960"/>
    <nd ref="29049115"/>
    <nd ref="29049126"/>
    <nd ref="378959"/>
    <nd ref="378958"/>
    <nd ref="33254350"/>
    <nd ref="33254341"/>
    <nd ref="33254352"/>
    <nd ref="33254353"/>
    <nd ref="33254354"/>
    <nd ref="60733317"/>
    <nd ref="60733318"/>
    <nd ref="114206332"/>
    <nd ref="33470652"/>
    <nd ref="60210206"/>
    <nd ref="60210198"/>
    <tag k="created_by" v="Potlatch alpha"/>
    <tag k="highway" v="secondary"/>
    <tag k="name" v="Nordwestbahnstraße"/>
    <tag k="source" v="yahoo"/>
  </way>
  <way id="8089377" version="6" timestamp="2009-01-01T17:11:50Z" uid="58091" user="Andreas M" changeset="703113">
    <nd ref="378960"/>
    <nd ref="29049115"/>
    <nd ref="29049126"/>
    <nd ref="378959"/>
    <nd ref="378958"/>
    <nd ref="33254350"/>
    <nd ref="33254341"/>
    <nd ref="33254352"/>
    <nd ref="33254353"/>
    <nd ref="33254354"/>
    <nd ref="60733317"/>
    <nd ref="60733318"/>
    <tag k="created_by" v="Potlatch alpha"/>
    <tag k="highway" v="secondary"/>
    <tag k="name" v="Nordwestbahnstraße"/>
    <tag k="source" v="yahoo"/>
  </way>
  <way id="8089390" version="5" timestamp="2008-09-12T12:02:18Z" uid="58091" user="Andreas M" changeset="611471">
    <nd ref="33344391"/>
    <nd ref="27028192"/>
    <nd ref="27028193"/>
    <nd ref="33344350"/>
    <nd ref="33182077"/>
    <tag k="created_by" v="Potlatch 0.9c"/>
    <tag k="fixme" v="yes"/>
    <tag k="highway" v="residential"/>
    <tag k="is_in" v="Austria, Europe,Vienna,Wien"/>
    <tag k="name" v="Schwarzspanierstraße"/>
    <tag k="source" v="yahoo"/>
  </way>
  <way id="8089426" version="3" timestamp="2010-07-08T17:48:27Z" uid="74617" user="JohnSmith" changeset="5167338">
    <nd ref="60594877"/>
    <nd ref="62668211"/>
    <nd ref="60594878"/>
    <nd ref="60594879"/>
    <nd ref="60594880"/>
    <nd ref="60594881"/>
    <nd ref="60594882"/>
    <nd ref="60594970"/>
    <nd ref="60594883"/>
    <tag k="highway" v="residential"/>
    <tag k="maxspeed" v="50"/>
    <tag k="maxspeed:source" v="default residential speed limit in Australia"/>
    <tag k="name" v="McMahon Street"/>
  </way>
  <way id="8089427" version="2" timestamp="2010-07-08T17:47:21Z" uid="74617" user="JohnSmith" changeset="5167338">
    <nd ref="60594881"/>
    <nd ref="60594899"/>
    <nd ref="60594884"/>
    <nd ref="60594886"/>
    <tag k="highway" v="residential"/>
    <tag k="maxspeed" v="50"/>
    <tag k="maxspeed:source" v="default residential speed limit in Australia"/>
    <tag k="name" v="Wren Street"/>
  </way>
  <way id="8089428" version="3" timestamp="2010-07-08T17:49:43Z" uid="74617" user="JohnSmith" changeset="5167338">
    <nd ref="60594922"/>
    <nd ref="60594893"/>
    <nd ref="62668231"/>
    <nd ref="60594899"/>
    <tag k="highway" v="residential"/>
    <tag k="maxspeed" v="50"/>
    <tag k="maxspeed:source" v="default residential speed limit in Australia"/>
    <tag k="name" v="Argyle Street"/>
  </way>
  <way id="8089429" version="2" timestamp="2010-07-08T17:48:44Z" uid="74617" user="JohnSmith" changeset="5167338">
    <nd ref="55231613"/>
    <nd ref="60594937"/>
    <nd ref="60594943"/>
    <nd ref="60594948"/>
    <nd ref="60594954"/>
    <nd ref="60594959"/>
    <nd ref="60594965"/>
    <nd ref="60594970"/>
    <tag k="highway" v="residential"/>
    <tag k="maxspeed" v="50"/>
    <tag k="maxspeed:source" v="default residential speed limit in Australia"/>
    <tag k="name" v="Argyle Street"/>
  </way>
  <way id="8089430" version="3" timestamp="2010-07-08T17:47:37Z" uid="74617" user="JohnSmith" changeset="5167338">
    <nd ref="60594975"/>
    <nd ref="60594985"/>
    <nd ref="60594992"/>
    <nd ref="60595000"/>
    <nd ref="60595005"/>
    <nd ref="60595010"/>
    <nd ref="60595016"/>
    <nd ref="60595023"/>
    <nd ref="60595030"/>
    <nd ref="60595035"/>
    <nd ref="60594916"/>
    <nd ref="60595040"/>
    <tag k="highway" v="residential"/>
    <tag k="maxspeed" v="50"/>
    <tag k="maxspeed:source" v="default residential speed limit in Australia"/>
    <tag k="name" v="Head Street"/>
  </way>
  <way id="8089431" version="2" timestamp="2010-07-08T17:46:39Z" uid="74617" user="JohnSmith" changeset="5167338">
    <nd ref="60595046"/>
    <nd ref="60595051"/>
    <nd ref="60594932"/>
    <nd ref="60594927"/>
    <tag k="highway" v="residential"/>
    <tag k="maxspeed" v="50"/>
    <tag k="maxspeed:source" v="default residential speed limit in Australia"/>
    <tag k="name" v="Argyle Street"/>
  </way>
  <way id="8089472" version="2" timestamp="2008-12-20T11:00:35Z" uid="58091" user="Andreas M" changeset="504586">
    <nd ref="60059989"/>
    <nd ref="60595399"/>
    <tag k="created_by" v="Potlatch alpha"/>
    <tag k="highway" v="residential"/>
    <tag k="name" v="Robert-Blum-Gasse"/>
    <tag k="oneway" v="yes"/>
    <tag k="source" v="yahoo"/>
  </way>
  <way id="8089507" version="2" timestamp="2008-12-20T11:00:34Z" uid="58091" user="Andreas M" changeset="504586">
    <nd ref="60596332"/>
    <nd ref="60596331"/>
    <tag k="created_by" v="Potlatch alpha"/>
    <tag k="highway" v="residential"/>
    <tag k="name" v="Robert-Blum-Gasse"/>
    <tag k="source" v="yahoo"/>
  </way>
  <way id="8089507" version="3" timestamp="2009-01-18T13:10:40Z" uid="58091" user="Andreas M" changeset="804850">
    <nd ref="333077168"/>
    <nd ref="60596331"/>
    <tag k="created_by" v="Potlatch alpha"/>
    <tag k="highway" v="residential"/>
    <tag k="layer" v="-1"/>
    <tag k="name" v="Robert-Blum-Gasse"/>
    <tag k="source" v="yahoo"/>
  </way>
  <way id="8089517" version="2" timestamp="2008-12-20T11:00:34Z" uid="58091" user="Andreas M" changeset="504586">
    <nd ref="60595878"/>
    <nd ref="60596386"/>
    <nd ref="320135830"/>
    <nd ref="60596387"/>
    <tag k="created_by" v="Potlatch alpha"/>
    <tag k="highway" v="residential"/>
    <tag k="name" v="Griegstraße"/>
    <tag k="source" v="yahoo"/>
  </way>
  <way id="8089524" version="4" timestamp="2008-12-20T11:00:35Z" uid="58091" user="Andreas M" changeset="504586">
    <nd ref="69706580"/>
    <nd ref="60595879"/>
    <tag k="created_by" v="Potlatch 0.6a"/>
    <tag k="highway" v="residential"/>
    <tag k="name" v="Griegstraße"/>
    <tag k="oneway" v="yes"/>
    <tag k="source" v="yahoo"/>
  </way>
  <way id="8089636" version="4" timestamp="2009-01-01T13:56:51Z" uid="6975" user="ulfl" changeset="699648">
    <nd ref="60587589"/>
    <nd ref="60598817"/>
    <nd ref="60598823"/>
    <nd ref="60598827"/>
    <nd ref="60598826"/>
    <nd ref="60598824"/>
    <nd ref="60598825"/>
    <tag k="highway" v="residential"/>
    <tag k="name" v="Republikplatz"/>
    <tag k="source" v="image"/>
  </way>
</osm>
