<?xml version='1.0' encoding='UTF-8'?>
<osm version="0.6" generator="libosmium/2.20.0">
  <way id="81133052" version="2" timestamp="2011-02-07T09:49:45Z" uid="4467" user="Rosscoe" changeset="7214157">
    <nd ref="655404910"/>
    <nd ref="1140594051"/>
    <nd ref="945471810"/>
    <nd ref="945471799"/>
    <tag k="cycleway" v="lane"/>
    <tag k="highway" v="tertiary"/>
    <tag k="name" v="Sutton Street"/>
  </way>
  <way id="81133052" version="3" timestamp="2011-02-07T14:13:29Z" uid="4467" user="Rosscoe" changeset="7216528">
    <nd ref="655404910"/>
    <nd ref="1140594051"/>
    <nd ref="1140842708"/>
    <nd ref="1140842755"/>
    <nd ref="945471810"/>
    <nd ref="945471799"/>
    <tag k="cycleway" v="lane"/>
    <tag k="highway" v="tertiary"/>
    <tag k="name" v="Sutton Street"/>
  </way>
  <way id="81133053" version="2" timestamp="2011-02-07T09:32:11Z" uid="4467" user="Rosscoe" changeset="7214025">
    <nd ref="945471815"/>
    <nd ref="673003137"/>
    <nd ref="1140561136"/>
    <nd ref="1140561148"/>
    <nd ref="1140561169"/>
    <nd ref="945471802"/>
    <tag k="cycleway" v="lane"/>
    <tag k="highway" v="tertiary"/>
    <tag k="name" v="Sutton Street"/>
  </way>
  <way id="81133053" version="3" timestamp="2011-02-07T15:52:02Z" uid="4467" user="Rosscoe" changeset="7217453">
    <nd ref="945471815"/>
    <nd ref="1140913117"/>
    <nd ref="1140913650"/>
    <nd ref="1140914340"/>
    <nd ref="1140914316"/>
    <nd ref="673003137"/>
    <nd ref="1140913808"/>
    <nd ref="1140561136"/>
    <nd ref="1140913365"/>
    <nd ref="1140561148"/>
    <nd ref="1140913505"/>
    <nd ref="1140561169"/>
    <nd ref="945471802"/>
    <tag k="cycleway" v="lane"/>
    <tag k="highway" v="tertiary"/>
    <tag k="name" v="Sutton Street"/>
  </way>
  <way id="81133057" version="2" timestamp="2011-02-07T09:32:12Z" uid="4467" user="Rosscoe" changeset="7214025">
    <nd ref="945471806"/>
    <nd ref="1140561141"/>
    <nd ref="945471814"/>
    <tag k="cycleway" v="lane"/>
    <tag k="highway" v="tertiary"/>
    <tag k="name" v="Pleasant Street South"/>
  </way>
  <way id="81133059" version="3" timestamp="2011-02-07T09:32:10Z" uid="4467" user="Rosscoe" changeset="7214025">
    <nd ref="945471809"/>
    <nd ref="942464591"/>
    <nd ref="772361265"/>
    <nd ref="772361266"/>
    <nd ref="1140561135"/>
    <tag k="cycleway" v="lane"/>
    <tag k="highway" v="tertiary"/>
    <tag k="name" v="Pleasant Street South"/>
  </way>
  <way id="81133601" version="2" timestamp="2011-02-07T11:12:11Z" uid="4467" user="Rosscoe" changeset="7214726">
    <nd ref="945478374"/>
    <nd ref="436208086"/>
    <tag k="highway" v="residential"/>
    <tag k="maxspeed" v="50"/>
    <tag k="name" v="Barkly Street"/>
    <tag k="source:maxspeed" v="default residential speed limit in Australia"/>
  </way>
  <way id="81133601" version="3" timestamp="2011-02-07T11:59:38Z" uid="4467" user="Rosscoe" changeset="7215161">
    <nd ref="945478374"/>
    <nd ref="1140747303"/>
    <tag k="highway" v="residential"/>
    <tag k="maxspeed" v="50"/>
    <tag k="name" v="Barkly Street"/>
    <tag k="source:maxspeed" v="default residential speed limit in Australia"/>
  </way>
  <way id="81133602" version="2" timestamp="2011-02-07T06:18:32Z" uid="4467" user="Rosscoe" changeset="7212788">
    <nd ref="655120355"/>
    <nd ref="655120356"/>
    <nd ref="35289741"/>
    <tag k="highway" v="secondary"/>
    <tag k="name" v="Barkly Street"/>
    <tag k="ref" v="C298"/>
  </way>
  <way id="81133602" version="3" timestamp="2011-02-07T11:59:56Z" uid="4467" user="Rosscoe" changeset="7215161">
    <nd ref="655120355"/>
    <nd ref="1140747357"/>
    <nd ref="655120356"/>
    <nd ref="35289741"/>
    <tag k="highway" v="secondary"/>
    <tag k="name" v="Barkly Street"/>
    <tag k="ref" v="C298"/>
  </way>
  <way id="81133602" version="4" timestamp="2011-02-07T15:52:27Z" uid="4467" user="Rosscoe" changeset="7217453">
    <nd ref="655120355"/>
    <nd ref="1140747357"/>
    <nd ref="655120356"/>
    <nd ref="1140913403"/>
    <nd ref="35289741"/>
    <tag k="highway" v="secondary"/>
    <tag k="name" v="Barkly Street"/>
    <tag k="ref" v="C298"/>
  </way>
  <way id="81133604" version="2" timestamp="2011-02-07T09:22:40Z" uid="4467" user="Rosscoe" changeset="7213935">
    <nd ref="945471807"/>
    <nd ref="672691003"/>
    <tag k="highway" v="secondary"/>
    <tag k="name" v="La Trobe Street;Ballarat - Carngham Road"/>
    <tag k="ref" v="C296"/>
    <tag k="source" v="nearmap"/>
  </way>
  <way id="81133606" version="2" timestamp="2011-02-07T11:59:42Z" uid="4467" user="Rosscoe" changeset="7215161">
    <nd ref="902638368"/>
    <nd ref="902638377"/>
    <nd ref="902638355"/>
    <nd ref="945478392"/>
    <nd ref="902638362"/>
    <nd ref="1140747304"/>
    <nd ref="945478398"/>
    <tag k="cycleway" v="lane"/>
    <tag k="highway" v="residential"/>
    <tag k="name" v="Princes Street"/>
  </way>
  <way id="81133608" version="2" timestamp="2011-02-07T11:59:36Z" uid="4467" user="Rosscoe" changeset="7215161">
    <nd ref="945478398"/>
    <nd ref="1140747203"/>
    <nd ref="1140747357"/>
    <tag k="highway" v="residential"/>
    <tag k="name" v="Princes Street"/>
  </way>
  <way id="81133609" version="2" timestamp="2011-02-07T15:52:24Z" uid="4467" user="Rosscoe" changeset="7217453">
    <nd ref="945478389"/>
    <nd ref="1140913123"/>
    <tag k="highway" v="secondary"/>
    <tag k="name" v="Barkly Street"/>
    <tag k="ref" v="C298"/>
  </way>
  <way id="81133611" version="2" timestamp="2011-02-07T11:59:47Z" uid="4467" user="Rosscoe" changeset="7215161">
    <nd ref="945478382"/>
    <nd ref="867528439"/>
    <nd ref="1140747288"/>
    <tag k="highway" v="secondary"/>
    <tag k="name" v="Grant Street"/>
    <tag k="ref" v="C297"/>
  </way>
  <way id="81133612" version="2" timestamp="2011-02-07T11:15:23Z" uid="4467" user="Rosscoe" changeset="7214726">
    <nd ref="945478380"/>
    <nd ref="477076552"/>
    <nd ref="477076560"/>
    <nd ref="945478401"/>
    <tag k="cycleway" v="lane"/>
    <tag k="highway" v="residential"/>
    <tag k="maxspeed" v="50"/>
    <tag k="name" v="Barkly Street"/>
    <tag k="source:maxspeed" v="default residential speed limit in Australia"/>
  </way>
  <way id="81133613" version="2" timestamp="2011-02-07T11:12:41Z" uid="4467" user="Rosscoe" changeset="7214726">
    <nd ref="945478401"/>
    <nd ref="436208074"/>
    <nd ref="945478365"/>
    <tag k="highway" v="residential"/>
    <tag k="maxspeed" v="50"/>
    <tag k="name" v="Barkly Street"/>
    <tag k="source:maxspeed" v="default residential speed limit in Australia"/>
  </way>
  <way id="81133613" version="3" timestamp="2011-02-07T11:59:40Z" uid="4467" user="Rosscoe" changeset="7215161">
    <nd ref="945478401"/>
    <nd ref="1140747229"/>
    <tag k="highway" v="residential"/>
    <tag k="maxspeed" v="50"/>
    <tag k="name" v="Barkly Street"/>
    <tag k="source:maxspeed" v="default residential speed limit in Australia"/>
  </way>
  <way id="81133615" version="3" timestamp="2011-02-07T11:11:43Z" uid="4467" user="Rosscoe" changeset="7214726">
    <nd ref="945478365"/>
    <nd ref="672690958"/>
    <nd ref="892895361"/>
    <nd ref="946576497"/>
    <nd ref="945478374"/>
    <tag k="cycleway" v="lane"/>
    <tag k="highway" v="residential"/>
    <tag k="maxspeed" v="50"/>
    <tag k="name" v="Barkly Street"/>
    <tag k="source:maxspeed" v="default residential speed limit in Australia"/>
  </way>
</osm>
