<?xml version='1.0' encoding='UTF-8'?>
<osm version="0.6" generator="libosmium/2.20.0">
  <way id="8120075" version="2" timestamp="2008-12-14T14:56:25Z" uid="6975" user="ulfl" changeset="375714">
    <nd ref="691991"/>
    <nd ref="692007"/>
    <nd ref="692006"/>
    <nd ref="692005"/>
    <tag k="highway" v="secondary"/>
    <tag k="name" v="Amherst St. (Route 101A)"/>
  </way>
  <way id="8120076" version="2" timestamp="2007-12-15T19:40:45Z" uid="8328" user="benpre" changeset="314664"/>
  <way id="8120696" version="4" timestamp="2008-12-14T15:04:57Z" uid="6975" user="ulfl" changeset="375714">
    <nd ref="1939867"/>
    <nd ref="1939878"/>
    <nd ref="1939861"/>
    <nd ref="1939860"/>
    <nd ref="1939855"/>
    <nd ref="1939856"/>
    <nd ref="1935995"/>
    <nd ref="1935982"/>
    <nd ref="1939888"/>
    <nd ref="1935967"/>
    <nd ref="1939887"/>
    <nd ref="1935969"/>
    <nd ref="1939883"/>
    <nd ref="1935972"/>
    <nd ref="1939886"/>
    <nd ref="1935978"/>
    <nd ref="1935982"/>
    <tag k="bicycle" v="yes"/>
    <tag k="car" v="no"/>
    <tag k="foot" v="yes"/>
    <tag k="highway" v="footway"/>
    <tag k="name" v="Svandammsparken"/>
  </way>
  <way id="8120697" version="4" timestamp="2008-12-14T15:04:57Z" uid="6975" user="ulfl" changeset="375714">
    <nd ref="1939865"/>
    <nd ref="1936009"/>
    <nd ref="1936003"/>
    <nd ref="1935995"/>
    <nd ref="1939882"/>
    <tag k="bicycle" v="yes"/>
    <tag k="car" v="no"/>
    <tag k="foot" v="yes"/>
    <tag k="highway" v="footway"/>
    <tag k="name" v="Svandammsparken"/>
  </way>
  <way id="8120698" version="4" timestamp="2008-12-14T15:04:58Z" uid="6975" user="ulfl" changeset="375714">
    <nd ref="1935967"/>
    <nd ref="1939855"/>
    <nd ref="1939859"/>
    <tag k="bicycle" v="yes"/>
    <tag k="car" v="no"/>
    <tag k="foot" v="yes"/>
    <tag k="highway" v="footway"/>
    <tag k="name" v="Svandammsparken"/>
  </way>
  <way id="8120699" version="4" timestamp="2008-12-14T15:04:59Z" uid="6975" user="ulfl" changeset="375714">
    <nd ref="1939861"/>
    <nd ref="1939876"/>
    <nd ref="180860"/>
    <tag k="bicycle" v="yes"/>
    <tag k="car" v="no"/>
    <tag k="foot" v="yes"/>
    <tag k="highway" v="footway"/>
    <tag k="name" v="Svandammsparken"/>
  </way>
  <way id="8120701" version="4" timestamp="2008-12-14T15:04:58Z" uid="6975" user="ulfl" changeset="375714">
    <nd ref="1936009"/>
    <nd ref="156044"/>
    <tag k="bicycle" v="yes"/>
    <tag k="car" v="no"/>
    <tag k="foot" v="yes"/>
    <tag k="highway" v="footway"/>
    <tag k="name" v="Svandammsparken"/>
  </way>
  <way id="8120702" version="3" timestamp="2008-12-14T15:04:59Z" uid="6975" user="ulfl" changeset="375714">
    <nd ref="1939873"/>
    <nd ref="169767"/>
    <tag k="bicycle" v="yes"/>
    <tag k="car" v="no"/>
    <tag k="foot" v="yes"/>
    <tag k="highway" v="footway"/>
    <tag k="name" v="Svandammsparken"/>
  </way>
  <way id="8120703" version="4" timestamp="2008-12-14T15:04:59Z" uid="6975" user="ulfl" changeset="375714">
    <nd ref="1939872"/>
    <nd ref="155338"/>
    <tag k="bicycle" v="yes"/>
    <tag k="car" v="no"/>
    <tag k="foot" v="yes"/>
    <tag k="highway" v="footway"/>
    <tag k="name" v="Svandammsparken"/>
  </way>
</osm>
