<?xml version='1.0' encoding='UTF-8'?>
<osm version="0.6" generator="libosmium/2.20.0">
  <way id="8122225" version="4" timestamp="2008-12-14T13:17:26Z" uid="6975" user="ulfl" changeset="366940">
    <nd ref="7066314"/>
    <nd ref="310254353"/>
    <nd ref="7205493"/>
    <nd ref="7204396"/>
    <nd ref="7205414"/>
    <nd ref="7205410"/>
    <nd ref="7205249"/>
    <nd ref="310255065"/>
    <nd ref="7205250"/>
    <nd ref="310255071"/>
    <nd ref="7205253"/>
    <nd ref="310255073"/>
    <nd ref="7205134"/>
    <nd ref="310255076"/>
    <nd ref="7204885"/>
    <tag k="highway" v="cycleway"/>
    <tag k="name" v="Västra Stångåstranden"/>
  </way>
  <way id="8122226" version="3" timestamp="2008-12-14T13:17:26Z" uid="6975" user="ulfl" changeset="366940">
    <nd ref="7204682"/>
    <nd ref="310255077"/>
    <nd ref="7204877"/>
    <nd ref="7204878"/>
    <nd ref="7204880"/>
    <nd ref="7204885"/>
    <tag k="highway" v="cycleway"/>
    <tag k="name" v="Västra Stångåstranden"/>
  </way>
  <way id="8122488" version="17" timestamp="2009-10-02T20:05:52Z" uid="86259" user="hasse_osm_korinthenkacker" changeset="2717024">
    <nd ref="7421860"/>
    <nd ref="365459690"/>
    <nd ref="7421853"/>
    <tag k="highway" v="secondary"/>
    <tag k="name" v="Rosenheimer Straße"/>
    <tag k="ref" v="MB 4"/>
  </way>
  <way id="8122714" version="2" timestamp="2008-03-30T22:41:39Z" uid="7617" user="Franc" changeset="435811">
    <nd ref="28191532"/>
    <nd ref="255015820"/>
    <nd ref="34646383"/>
    <nd ref="28196042"/>
    <tag k="class" v="secondary"/>
    <tag k="created_by" v="Potlatch alpha"/>
    <tag k="highway" v="secondary"/>
    <tag k="lanes" v="2"/>
    <tag k="maxspeed" v="60"/>
    <tag k="name" v="President Ave"/>
  </way>
  <way id="8122714" version="3" timestamp="2008-12-14T14:56:22Z" uid="6975" user="ulfl" changeset="375714">
    <nd ref="28191532"/>
    <nd ref="255015820"/>
    <nd ref="34646383"/>
    <nd ref="28196042"/>
    <tag k="highway" v="secondary"/>
    <tag k="lanes" v="2"/>
    <tag k="maxspeed" v="60"/>
    <tag k="name" v="President Ave"/>
  </way>
  <way id="8122714" version="4" timestamp="2009-05-01T22:55:16Z" uid="7617" user="Franc" changeset="1043126"/>
</osm>
