<?xml version='1.0' encoding='UTF-8'?>
<osm version="0.6" generator="libosmium/2.20.0">
  <way id="8139025" version="1" timestamp="2007-07-04T22:22:48Z" uid="8328" user="benpre" changeset="127410">
    <nd ref="25936139"/>
    <nd ref="25935411"/>
    <tag k="created_by" v="JOSM"/>
    <tag k="highway" v="unclassified"/>
  </way>
  <way id="8139095" version="2" timestamp="2011-06-15T03:55:59Z" uid="30201" user="rrankin" changeset="8443750">
    <nd ref="25955364"/>
    <nd ref="25955351"/>
    <nd ref="25955365"/>
    <nd ref="1325961706"/>
    <nd ref="1325961737"/>
    <nd ref="1325961843"/>
    <nd ref="1325961830"/>
    <nd ref="1325961808"/>
    <nd ref="1325961762"/>
    <nd ref="1325961864"/>
    <tag k="highway" v="residential"/>
    <tag k="maxspeed" v="50"/>
    <tag k="source" v="nearmap"/>
  </way>
  <way id="8139096" version="2" timestamp="2007-10-18T20:48:23Z" uid="6454" user="B10xxx" changeset="241224">
    <nd ref="652389"/>
    <nd ref="171381"/>
    <tag k="created_by" v="Alban"/>
    <tag k="highway" v="motorway_link"/>
    <tag k="oneway" v="true"/>
  </way>
  <way id="8139098" version="8" timestamp="2010-05-10T14:07:00Z" uid="4467" user="Rosscoe" changeset="4659638">
    <nd ref="25955845"/>
    <nd ref="25955844"/>
    <nd ref="728553059"/>
    <tag k="highway" v="residential"/>
    <tag k="name" v="Booner Street"/>
    <tag k="surface" v="paved"/>
  </way>
  <way id="8139098" version="9" timestamp="2010-07-08T04:35:51Z" uid="74617" user="JohnSmith" changeset="5163091">
    <nd ref="25955845"/>
    <nd ref="25955844"/>
    <nd ref="728553059"/>
    <tag k="highway" v="residential"/>
    <tag k="maxspeed" v="50"/>
    <tag k="maxspeed:source" v="default residential speed limit in Australia"/>
    <tag k="name" v="Booner Street"/>
    <tag k="surface" v="paved"/>
  </way>
  <way id="8139138" version="5" timestamp="2009-10-02T11:21:30Z" uid="86259" user="hasse_osm_korinthenkacker" changeset="2711165">
    <nd ref="25972156"/>
    <nd ref="292309857"/>
    <tag k="highway" v="residential"/>
    <tag k="maxspeed" v="30"/>
    <tag k="name" v="Alpenblickstraße"/>
  </way>
  <way id="8139138" version="6" timestamp="2009-10-02T11:28:29Z" uid="86259" user="hasse_osm_korinthenkacker" changeset="2711249">
    <nd ref="25972156"/>
    <nd ref="292309857"/>
    <tag k="highway" v="residential"/>
    <tag k="maxspeed" v="30"/>
    <tag k="name" v="Alpenblickstraße"/>
  </way>
  <way id="8139139" version="2" timestamp="2009-04-03T06:46:14Z" uid="36809" user="pfoten_weg_!_" changeset="111830">
    <nd ref="25972202"/>
    <nd ref="25972158"/>
    <nd ref="25972159"/>
    <tag k="created_by" v="RambaZamba"/>
    <tag k="highway" v="residential"/>
    <tag k="name" v="Ulrich-von-Hassel-Straße"/>
    <tag k="source" v="survey"/>
  </way>
  <way id="8139139" version="5" timestamp="2009-08-28T21:31:15Z" uid="36809" user="pfoten_weg_!_" changeset="2295609">
    <nd ref="365163538"/>
    <nd ref="25972158"/>
    <nd ref="25972159"/>
    <tag k="discovered_by" v="RambaZamba"/>
    <tag k="highway" v="residential"/>
    <tag k="name" v="Ulrich-von-Hassel-Straße"/>
    <tag k="source" v="survey"/>
  </way>
  <way id="8139139" version="7" timestamp="2009-08-31T17:44:09Z" uid="36809" user="pfoten_weg_!_" changeset="2328905">
    <nd ref="365163538"/>
    <nd ref="25972158"/>
    <nd ref="25972159"/>
    <tag k="highway" v="residential"/>
    <tag k="name" v="Ulrich-von-Hassel-Straße"/>
    <tag k="source" v="survey"/>
  </way>
  <way id="8139139" version="8" timestamp="2009-10-02T11:21:30Z" uid="86259" user="hasse_osm_korinthenkacker" changeset="2711165">
    <nd ref="365163538"/>
    <nd ref="25972158"/>
    <nd ref="25972159"/>
    <tag k="highway" v="residential"/>
    <tag k="name" v="Ulrich-von-Hassel-Straße"/>
  </way>
  <way id="8139139" version="9" timestamp="2009-10-02T11:28:29Z" uid="86259" user="hasse_osm_korinthenkacker" changeset="2711249">
    <nd ref="365163538"/>
    <nd ref="25972158"/>
    <nd ref="25972159"/>
    <tag k="highway" v="residential"/>
    <tag k="name" v="Ulrich-von-Hassel-Straße"/>
  </way>
  <way id="8139139" version="10" timestamp="2009-10-02T11:43:49Z" uid="86259" user="hasse_osm_korinthenkacker" changeset="2711457"/>
  <way id="8139140" version="2" timestamp="2009-04-03T06:46:13Z" uid="36809" user="pfoten_weg_!_" changeset="111830">
    <nd ref="25972212"/>
    <nd ref="25972213"/>
    <tag k="created_by" v="RambaZamba"/>
    <tag k="highway" v="residential"/>
    <tag k="name" v="Poststraße"/>
    <tag k="source" v="survey"/>
  </way>
  <way id="8139140" version="4" timestamp="2009-08-28T21:34:12Z" uid="36809" user="pfoten_weg_!_" changeset="2295609">
    <nd ref="25972212"/>
    <nd ref="25972213"/>
    <tag k="discovered_by" v="RambaZamba"/>
    <tag k="highway" v="residential"/>
    <tag k="name" v="Poststraße"/>
    <tag k="source" v="survey"/>
  </way>
  <way id="8139140" version="6" timestamp="2009-08-31T17:46:06Z" uid="36809" user="pfoten_weg_!_" changeset="2328905">
    <nd ref="25972212"/>
    <nd ref="25972213"/>
    <tag k="highway" v="residential"/>
    <tag k="name" v="Poststraße"/>
    <tag k="source" v="survey"/>
  </way>
  <way id="8139140" version="7" timestamp="2009-10-02T11:21:28Z" uid="86259" user="hasse_osm_korinthenkacker" changeset="2711165">
    <nd ref="25972212"/>
    <nd ref="25972213"/>
    <tag k="highway" v="residential"/>
    <tag k="name" v="Poststraße"/>
  </way>
  <way id="8139140" version="8" timestamp="2009-10-02T11:28:27Z" uid="86259" user="hasse_osm_korinthenkacker" changeset="2711249">
    <nd ref="25972212"/>
    <nd ref="25972213"/>
    <tag k="highway" v="residential"/>
    <tag k="name" v="Poststraße"/>
  </way>
  <way id="8139140" version="9" timestamp="2009-10-02T11:43:50Z" uid="86259" user="hasse_osm_korinthenkacker" changeset="2711457"/>
  <way id="8139141" version="2" timestamp="2009-04-03T06:46:13Z" uid="36809" user="pfoten_weg_!_" changeset="111830">
    <nd ref="25972221"/>
    <nd ref="25972220"/>
    <nd ref="25972219"/>
    <nd ref="25972218"/>
    <nd ref="25972217"/>
    <nd ref="25972216"/>
    <nd ref="25972184"/>
    <tag k="created_by" v="RambaZamba"/>
    <tag k="highway" v="residential"/>
    <tag k="name" v="Lechnerstraße"/>
    <tag k="source" v="survey"/>
  </way>
  <way id="8139141" version="4" timestamp="2009-08-28T21:28:23Z" uid="36809" user="pfoten_weg_!_" changeset="2295609">
    <nd ref="25972221"/>
    <nd ref="25972220"/>
    <nd ref="25972219"/>
    <nd ref="25972218"/>
    <nd ref="25972217"/>
    <nd ref="25972216"/>
    <nd ref="25972184"/>
    <tag k="discovered_by" v="RambaZamba"/>
    <tag k="highway" v="residential"/>
    <tag k="name" v="Lechnerstraße"/>
    <tag k="source" v="survey"/>
  </way>
  <way id="8139141" version="6" timestamp="2009-08-31T17:44:53Z" uid="36809" user="pfoten_weg_!_" changeset="2328905">
    <nd ref="25972221"/>
    <nd ref="25972220"/>
    <nd ref="25972219"/>
    <nd ref="25972218"/>
    <nd ref="25972217"/>
    <nd ref="25972216"/>
    <nd ref="25972184"/>
    <tag k="highway" v="residential"/>
    <tag k="name" v="Lechnerstraße"/>
    <tag k="source" v="survey"/>
  </way>
  <way id="8139141" version="7" timestamp="2009-10-02T11:21:29Z" uid="86259" user="hasse_osm_korinthenkacker" changeset="2711165">
    <nd ref="25972221"/>
    <nd ref="25972220"/>
    <nd ref="25972219"/>
    <nd ref="25972218"/>
    <nd ref="25972217"/>
    <nd ref="25972216"/>
    <nd ref="25972184"/>
    <tag k="highway" v="residential"/>
    <tag k="name" v="Lechnerstraße"/>
  </way>
  <way id="8139141" version="8" timestamp="2009-10-02T11:28:28Z" uid="86259" user="hasse_osm_korinthenkacker" changeset="2711249">
    <nd ref="25972221"/>
    <nd ref="25972220"/>
    <nd ref="25972219"/>
    <nd ref="25972218"/>
    <nd ref="25972217"/>
    <nd ref="25972216"/>
    <nd ref="25972184"/>
    <tag k="highway" v="residential"/>
    <tag k="name" v="Lechnerstraße"/>
  </way>
  <way id="8139141" version="9" timestamp="2009-10-02T11:43:50Z" uid="86259" user="hasse_osm_korinthenkacker" changeset="2711457"/>
  <way id="8139142" version="2" timestamp="2009-04-03T06:46:13Z" uid="36809" user="pfoten_weg_!_" changeset="111830">
    <nd ref="25972180"/>
    <nd ref="25972207"/>
    <nd ref="25972208"/>
    <tag k="created_by" v="RambaZamba"/>
    <tag k="highway" v="residential"/>
    <tag k="name" v="Lechnerstraße"/>
    <tag k="source" v="survey"/>
  </way>
  <way id="8139142" version="4" timestamp="2009-08-28T21:34:06Z" uid="36809" user="pfoten_weg_!_" changeset="2295609">
    <nd ref="25972180"/>
    <nd ref="25972207"/>
    <nd ref="25972208"/>
    <tag k="discovered_by" v="RambaZamba"/>
    <tag k="highway" v="residential"/>
    <tag k="name" v="Lechnerstraße"/>
    <tag k="source" v="survey"/>
  </way>
  <way id="8139142" version="6" timestamp="2009-08-31T17:48:06Z" uid="36809" user="pfoten_weg_!_" changeset="2328905">
    <nd ref="25972180"/>
    <nd ref="25972207"/>
    <nd ref="25972208"/>
    <tag k="highway" v="residential"/>
    <tag k="name" v="Lechnerstraße"/>
    <tag k="source" v="survey"/>
  </way>
  <way id="8139142" version="7" timestamp="2009-10-02T11:21:29Z" uid="86259" user="hasse_osm_korinthenkacker" changeset="2711165">
    <nd ref="25972180"/>
    <nd ref="25972207"/>
    <nd ref="25972208"/>
    <tag k="highway" v="residential"/>
    <tag k="name" v="Lechnerstraße"/>
  </way>
  <way id="8139142" version="8" timestamp="2009-10-02T11:28:28Z" uid="86259" user="hasse_osm_korinthenkacker" changeset="2711249">
    <nd ref="25972180"/>
    <nd ref="25972207"/>
    <nd ref="25972208"/>
    <tag k="highway" v="residential"/>
    <tag k="name" v="Lechnerstraße"/>
  </way>
  <way id="8139142" version="9" timestamp="2009-10-02T11:43:49Z" uid="86259" user="hasse_osm_korinthenkacker" changeset="2711457"/>
  <way id="8139144" version="2" timestamp="2009-04-03T06:46:11Z" uid="36809" user="pfoten_weg_!_" changeset="111830">
    <nd ref="25972233"/>
    <nd ref="25972232"/>
    <nd ref="25972231"/>
    <nd ref="25972230"/>
    <tag k="created_by" v="RambaZamba"/>
    <tag k="highway" v="residential"/>
    <tag k="name" v="Rößlstraße"/>
    <tag k="source" v="survey"/>
  </way>
  <way id="8139144" version="4" timestamp="2009-08-28T21:32:27Z" uid="36809" user="pfoten_weg_!_" changeset="2295609">
    <nd ref="25972233"/>
    <nd ref="25972232"/>
    <nd ref="25972231"/>
    <nd ref="25972230"/>
    <tag k="discovered_by" v="RambaZamba"/>
    <tag k="highway" v="residential"/>
    <tag k="name" v="Rößlstraße"/>
    <tag k="source" v="survey"/>
  </way>
  <way id="8139144" version="6" timestamp="2009-08-31T17:49:42Z" uid="36809" user="pfoten_weg_!_" changeset="2328905">
    <nd ref="25972233"/>
    <nd ref="25972232"/>
    <nd ref="25972231"/>
    <nd ref="25972230"/>
    <tag k="highway" v="residential"/>
    <tag k="name" v="Rößlstraße"/>
    <tag k="source" v="survey"/>
  </way>
  <way id="8139144" version="7" timestamp="2009-10-02T11:21:27Z" uid="86259" user="hasse_osm_korinthenkacker" changeset="2711165">
    <nd ref="25972233"/>
    <nd ref="25972232"/>
    <nd ref="25972231"/>
    <nd ref="25972230"/>
    <tag k="highway" v="residential"/>
    <tag k="name" v="Rößlstraße"/>
  </way>
  <way id="8139144" version="8" timestamp="2009-10-02T11:28:25Z" uid="86259" user="hasse_osm_korinthenkacker" changeset="2711249">
    <nd ref="25972233"/>
    <nd ref="25972232"/>
    <nd ref="25972231"/>
    <nd ref="25972230"/>
    <tag k="highway" v="residential"/>
    <tag k="name" v="Rößlstraße"/>
  </way>
  <way id="8139144" version="9" timestamp="2009-10-22T07:53:52Z" uid="36809" user="pfoten_weg_!_" changeset="2919160"/>
  <way id="8139145" version="2" timestamp="2009-04-03T06:46:11Z" uid="36809" user="pfoten_weg_!_" changeset="111830">
    <nd ref="25972221"/>
    <nd ref="25972222"/>
    <nd ref="25972223"/>
    <tag k="created_by" v="RambaZamba"/>
    <tag k="highway" v="residential"/>
    <tag k="name" v="Zeller Straße"/>
    <tag k="source" v="survey"/>
  </way>
  <way id="8139145" version="4" timestamp="2009-08-28T21:28:41Z" uid="36809" user="pfoten_weg_!_" changeset="2295609">
    <nd ref="25972221"/>
    <nd ref="25972222"/>
    <nd ref="25972223"/>
    <tag k="discovered_by" v="RambaZamba"/>
    <tag k="highway" v="residential"/>
    <tag k="name" v="Zeller Straße"/>
    <tag k="source" v="survey"/>
  </way>
  <way id="8139145" version="6" timestamp="2009-08-31T17:46:22Z" uid="36809" user="pfoten_weg_!_" changeset="2328905">
    <nd ref="25972221"/>
    <nd ref="25972222"/>
    <nd ref="25972223"/>
    <tag k="highway" v="residential"/>
    <tag k="name" v="Zeller Straße"/>
    <tag k="source" v="survey"/>
  </way>
  <way id="8139145" version="7" timestamp="2009-10-02T11:21:27Z" uid="86259" user="hasse_osm_korinthenkacker" changeset="2711165">
    <nd ref="25972221"/>
    <nd ref="25972222"/>
    <nd ref="25972223"/>
    <tag k="highway" v="residential"/>
    <tag k="name" v="Zeller Straße"/>
  </way>
  <way id="8139145" version="8" timestamp="2009-10-02T11:28:25Z" uid="86259" user="hasse_osm_korinthenkacker" changeset="2711249">
    <nd ref="25972221"/>
    <nd ref="25972222"/>
    <nd ref="25972223"/>
    <tag k="highway" v="residential"/>
    <tag k="name" v="Zeller Straße"/>
  </way>
  <way id="8139146" version="2" timestamp="2009-04-03T06:46:11Z" uid="36809" user="pfoten_weg_!_" changeset="111830">
    <nd ref="25972230"/>
    <nd ref="25972229"/>
    <nd ref="25972228"/>
    <nd ref="25972227"/>
    <nd ref="25972226"/>
    <nd ref="25972225"/>
    <nd ref="25972224"/>
    <nd ref="25972223"/>
    <tag k="created_by" v="RambaZamba"/>
    <tag k="highway" v="residential"/>
    <tag k="name" v="Zeller Straße"/>
    <tag k="source" v="survey"/>
  </way>
  <way id="8139146" version="4" timestamp="2009-08-28T21:31:44Z" uid="36809" user="pfoten_weg_!_" changeset="2295609">
    <nd ref="25972230"/>
    <nd ref="25972229"/>
    <nd ref="25972228"/>
    <nd ref="25972227"/>
    <nd ref="25972226"/>
    <nd ref="25972225"/>
    <nd ref="25972224"/>
    <nd ref="25972223"/>
    <tag k="discovered_by" v="RambaZamba"/>
    <tag k="highway" v="residential"/>
    <tag k="name" v="Zeller Straße"/>
    <tag k="source" v="survey"/>
  </way>
  <way id="8139146" version="6" timestamp="2009-08-31T17:50:43Z" uid="36809" user="pfoten_weg_!_" changeset="2328905">
    <nd ref="25972230"/>
    <nd ref="25972229"/>
    <nd ref="25972228"/>
    <nd ref="25972227"/>
    <nd ref="25972226"/>
    <nd ref="25972225"/>
    <nd ref="25972224"/>
    <nd ref="25972223"/>
    <tag k="highway" v="residential"/>
    <tag k="name" v="Zeller Straße"/>
    <tag k="source" v="survey"/>
  </way>
  <way id="8139146" version="7" timestamp="2009-10-02T11:21:28Z" uid="86259" user="hasse_osm_korinthenkacker" changeset="2711165">
    <nd ref="25972230"/>
    <nd ref="25972229"/>
    <nd ref="25972228"/>
    <nd ref="25972227"/>
    <nd ref="25972226"/>
    <nd ref="25972225"/>
    <nd ref="25972224"/>
    <nd ref="25972223"/>
    <tag k="highway" v="residential"/>
    <tag k="name" v="Zeller Straße"/>
  </way>
  <way id="8139146" version="8" timestamp="2009-10-02T11:28:26Z" uid="86259" user="hasse_osm_korinthenkacker" changeset="2711249">
    <nd ref="25972230"/>
    <nd ref="25972229"/>
    <nd ref="25972228"/>
    <nd ref="25972227"/>
    <nd ref="25972226"/>
    <nd ref="25972225"/>
    <nd ref="25972224"/>
    <nd ref="25972223"/>
    <tag k="highway" v="residential"/>
    <tag k="name" v="Zeller Straße"/>
  </way>
  <way id="8139147" version="2" timestamp="2009-04-03T06:46:13Z" uid="36809" user="pfoten_weg_!_" changeset="111830">
    <nd ref="25972230"/>
    <nd ref="25972206"/>
    <tag k="created_by" v="RambaZamba"/>
    <tag k="highway" v="residential"/>
    <tag k="name" v="Zeller Straße"/>
    <tag k="source" v="survey"/>
  </way>
  <way id="8139147" version="4" timestamp="2009-08-28T21:28:43Z" uid="36809" user="pfoten_weg_!_" changeset="2295609">
    <nd ref="25972230"/>
    <nd ref="25972206"/>
    <tag k="discovered_by" v="RambaZamba"/>
    <tag k="highway" v="residential"/>
    <tag k="name" v="Zeller Straße"/>
    <tag k="source" v="survey"/>
  </way>
  <way id="8139147" version="6" timestamp="2009-08-31T17:46:33Z" uid="36809" user="pfoten_weg_!_" changeset="2328905">
    <nd ref="25972230"/>
    <nd ref="25972206"/>
    <tag k="highway" v="residential"/>
    <tag k="name" v="Zeller Straße"/>
    <tag k="source" v="survey"/>
  </way>
  <way id="8139147" version="7" timestamp="2009-10-02T11:21:28Z" uid="86259" user="hasse_osm_korinthenkacker" changeset="2711165">
    <nd ref="25972230"/>
    <nd ref="25972206"/>
    <tag k="highway" v="residential"/>
    <tag k="name" v="Zeller Straße"/>
  </way>
  <way id="8139147" version="8" timestamp="2009-10-02T11:28:26Z" uid="86259" user="hasse_osm_korinthenkacker" changeset="2711249">
    <nd ref="25972230"/>
    <nd ref="25972206"/>
    <tag k="highway" v="residential"/>
    <tag k="name" v="Zeller Straße"/>
  </way>
  <way id="8139148" version="2" timestamp="2009-04-03T06:46:10Z" uid="36809" user="pfoten_weg_!_" changeset="111830">
    <nd ref="25972819"/>
    <nd ref="25972818"/>
    <nd ref="25972817"/>
    <nd ref="25972816"/>
    <nd ref="25972815"/>
    <nd ref="25972814"/>
    <nd ref="25972813"/>
    <nd ref="25972812"/>
    <nd ref="25972811"/>
    <nd ref="25972233"/>
    <tag k="created_by" v="RambaZamba"/>
    <tag k="highway" v="residential"/>
    <tag k="name" v="Adalbert-Stifter-Ring"/>
    <tag k="source" v="survey"/>
  </way>
  <way id="8139148" version="4" timestamp="2009-08-28T21:31:31Z" uid="36809" user="pfoten_weg_!_" changeset="2295609">
    <nd ref="25972819"/>
    <nd ref="25972818"/>
    <nd ref="25972817"/>
    <nd ref="25972816"/>
    <nd ref="25972815"/>
    <nd ref="25972814"/>
    <nd ref="25972813"/>
    <nd ref="25972812"/>
    <nd ref="25972811"/>
    <nd ref="25972233"/>
    <tag k="discovered_by" v="RambaZamba"/>
    <tag k="highway" v="residential"/>
    <tag k="name" v="Adalbert-Stifter-Ring"/>
    <tag k="source" v="survey"/>
  </way>
  <way id="8139148" version="6" timestamp="2009-08-31T17:50:59Z" uid="36809" user="pfoten_weg_!_" changeset="2328905">
    <nd ref="25972819"/>
    <nd ref="25972818"/>
    <nd ref="25972817"/>
    <nd ref="25972816"/>
    <nd ref="25972815"/>
    <nd ref="25972814"/>
    <nd ref="25972813"/>
    <nd ref="25972812"/>
    <nd ref="25972811"/>
    <nd ref="25972233"/>
    <tag k="highway" v="residential"/>
    <tag k="name" v="Adalbert-Stifter-Ring"/>
    <tag k="source" v="survey"/>
  </way>
  <way id="8139148" version="7" timestamp="2009-10-02T11:21:26Z" uid="86259" user="hasse_osm_korinthenkacker" changeset="2711165">
    <nd ref="25972819"/>
    <nd ref="25972818"/>
    <nd ref="25972817"/>
    <nd ref="25972816"/>
    <nd ref="25972815"/>
    <nd ref="25972814"/>
    <nd ref="25972813"/>
    <nd ref="25972812"/>
    <nd ref="25972811"/>
    <nd ref="25972233"/>
    <tag k="highway" v="residential"/>
    <tag k="name" v="Adalbert-Stifter-Ring"/>
  </way>
  <way id="8139148" version="8" timestamp="2009-10-02T11:28:23Z" uid="86259" user="hasse_osm_korinthenkacker" changeset="2711249">
    <nd ref="25972819"/>
    <nd ref="25972818"/>
    <nd ref="25972817"/>
    <nd ref="25972816"/>
    <nd ref="25972815"/>
    <nd ref="25972814"/>
    <nd ref="25972813"/>
    <nd ref="25972812"/>
    <nd ref="25972811"/>
    <nd ref="25972233"/>
    <tag k="highway" v="residential"/>
    <tag k="name" v="Adalbert-Stifter-Ring"/>
  </way>
  <way id="8139148" version="9" timestamp="2009-10-22T07:53:52Z" uid="36809" user="pfoten_weg_!_" changeset="2919160"/>
  <way id="8139149" version="2" timestamp="2009-04-03T06:46:11Z" uid="36809" user="pfoten_weg_!_" changeset="111830">
    <nd ref="25972819"/>
    <nd ref="25972807"/>
    <tag k="created_by" v="RambaZamba"/>
    <tag k="highway" v="residential"/>
    <tag k="name" v="Adalbert-Stifter-Ring"/>
    <tag k="source" v="survey"/>
  </way>
  <way id="8139149" version="4" timestamp="2009-08-28T21:29:56Z" uid="36809" user="pfoten_weg_!_" changeset="2295609">
    <nd ref="25972819"/>
    <nd ref="25972807"/>
    <tag k="discovered_by" v="RambaZamba"/>
    <tag k="highway" v="residential"/>
    <tag k="name" v="Adalbert-Stifter-Ring"/>
    <tag k="source" v="survey"/>
  </way>
  <way id="8139149" version="6" timestamp="2009-08-31T17:48:55Z" uid="36809" user="pfoten_weg_!_" changeset="2328905">
    <nd ref="25972819"/>
    <nd ref="25972807"/>
    <tag k="highway" v="residential"/>
    <tag k="name" v="Adalbert-Stifter-Ring"/>
    <tag k="source" v="survey"/>
  </way>
  <way id="8139149" version="7" timestamp="2009-10-02T11:21:26Z" uid="86259" user="hasse_osm_korinthenkacker" changeset="2711165">
    <nd ref="25972819"/>
    <nd ref="25972807"/>
    <tag k="highway" v="residential"/>
    <tag k="name" v="Adalbert-Stifter-Ring"/>
  </way>
  <way id="8139149" version="8" timestamp="2009-10-02T11:28:24Z" uid="86259" user="hasse_osm_korinthenkacker" changeset="2711249">
    <nd ref="25972819"/>
    <nd ref="25972807"/>
    <tag k="highway" v="residential"/>
    <tag k="name" v="Adalbert-Stifter-Ring"/>
  </way>
  <way id="8139149" version="9" timestamp="2009-10-22T07:53:52Z" uid="36809" user="pfoten_weg_!_" changeset="2919160"/>
  <way id="8139150" version="2" timestamp="2009-03-23T21:55:46Z" uid="36809" user="pfoten_weg_!_" changeset="849581">
    <nd ref="25972877"/>
    <nd ref="25972878"/>
    <tag k="created_by" v="RambaZamba"/>
    <tag k="highway" v="residential"/>
    <tag k="name" v="NoName"/>
    <tag k="source" v="survey"/>
  </way>
  <way id="8139150" version="5" timestamp="2009-08-28T21:31:07Z" uid="36809" user="pfoten_weg_!_" changeset="2295609">
    <nd ref="25972877"/>
    <nd ref="25972878"/>
    <tag k="discovered_by" v="RambaZamba"/>
    <tag k="highway" v="service"/>
    <tag k="source" v="survey"/>
  </way>
  <way id="8139150" version="7" timestamp="2009-08-31T17:50:25Z" uid="36809" user="pfoten_weg_!_" changeset="2328905">
    <nd ref="25972877"/>
    <nd ref="25972878"/>
    <tag k="highway" v="service"/>
    <tag k="source" v="survey"/>
  </way>
  <way id="8139150" version="8" timestamp="2009-10-02T11:21:26Z" uid="86259" user="hasse_osm_korinthenkacker" changeset="2711165">
    <nd ref="25972877"/>
    <nd ref="25972878"/>
    <tag k="highway" v="service"/>
  </way>
  <way id="8139150" version="9" timestamp="2009-10-02T11:28:24Z" uid="86259" user="hasse_osm_korinthenkacker" changeset="2711249">
    <nd ref="25972877"/>
    <nd ref="25972878"/>
    <tag k="highway" v="service"/>
  </way>
  <way id="8139184" version="7" timestamp="2010-05-12T08:25:11Z" uid="4467" user="Rosscoe" changeset="4675174"/>
  <way id="8139198" version="4" timestamp="2010-04-29T22:49:31Z" uid="244897" user="M526244" changeset="4562126">
    <nd ref="25984034"/>
    <nd ref="25984037"/>
    <nd ref="25984040"/>
    <tag k="highway" v="residential"/>
    <tag k="maxspeed" v="50"/>
    <tag k="name" v="Queen Street"/>
    <tag k="source" v="survey"/>
    <tag k="surface" v="paved"/>
  </way>
  <way id="8139300" version="1" timestamp="2007-09-12T14:41:19Z" uid="1066" user="pavel" changeset="415600">
    <nd ref="26003876"/>
    <nd ref="26003877"/>
    <nd ref="26003884"/>
    <tag k="created_by" v="YahooApplet 1.0"/>
    <tag k="highway" v="residential"/>
    <tag k="name" v="U Lipy ?"/>
  </way>
  <way id="8139601" version="2" timestamp="2007-11-03T16:50:48Z" uid="1066" user="pavel" changeset="395243"/>
  <way id="8139602" version="3" timestamp="2007-11-03T16:50:03Z" uid="1066" user="pavel" changeset="395243">
    <nd ref="25831674"/>
    <nd ref="25831695"/>
    <nd ref="25831701"/>
    <nd ref="25831738"/>
    <nd ref="25831774"/>
    <nd ref="25831818"/>
    <nd ref="25831838"/>
    <nd ref="25831841"/>
    <nd ref="21672572"/>
    <nd ref="21672570"/>
    <nd ref="25831848"/>
    <nd ref="25921118"/>
    <nd ref="25831860"/>
    <nd ref="25831541"/>
    <nd ref="90698284"/>
    <nd ref="21672568"/>
    <nd ref="90698283"/>
    <nd ref="21672567"/>
    <tag k="created_by" v="JOSM"/>
    <tag k="highway" v="secondary"/>
    <tag k="name" v="Prazska"/>
    <tag k="ref" v="201"/>
  </way>
  <way id="8139834" version="4" timestamp="2009-07-31T14:28:07Z" uid="4467" user="Rosscoe" changeset="1995211">
    <nd ref="25769827"/>
    <nd ref="262577479"/>
    <nd ref="25769828"/>
    <nd ref="25769917"/>
    <nd ref="25769920"/>
    <tag k="highway" v="unclassified"/>
    <tag k="name" v="Federal Street"/>
    <tag k="oneway" v="yes"/>
  </way>
  <way id="8139902" version="2" timestamp="2010-04-06T11:39:07Z" uid="20587" user="balrog-kun" changeset="4342994">
    <nd ref="26427820"/>
    <nd ref="26427782"/>
    <tag k="created_by" v="BlueNinja"/>
    <tag k="highway" v="residential"/>
    <tag k="name" v="Southwest 15th St."/>
  </way>
  <way id="8139906" version="7" timestamp="2010-06-04T20:11:26Z" uid="33382" user="de_muur" changeset="4904092">
    <nd ref="26550082"/>
    <nd ref="26550081"/>
    <nd ref="26550080"/>
    <nd ref="26550079"/>
    <nd ref="26550078"/>
    <nd ref="26550077"/>
    <nd ref="26550076"/>
    <nd ref="26550075"/>
    <nd ref="26550074"/>
    <nd ref="764610255"/>
    <nd ref="26550073"/>
    <nd ref="26550072"/>
    <nd ref="26550071"/>
    <nd ref="26550070"/>
    <nd ref="26550069"/>
    <nd ref="26550068"/>
    <nd ref="26550067"/>
    <nd ref="26550066"/>
    <nd ref="26550065"/>
    <nd ref="26550064"/>
    <nd ref="26550063"/>
    <nd ref="26550062"/>
    <nd ref="26550061"/>
    <nd ref="26550060"/>
    <nd ref="26550059"/>
    <nd ref="26550058"/>
    <nd ref="26550057"/>
    <nd ref="26550056"/>
    <nd ref="26550055"/>
    <nd ref="26550054"/>
    <nd ref="26550053"/>
    <nd ref="26550052"/>
    <nd ref="26550051"/>
    <nd ref="26550050"/>
    <nd ref="26550049"/>
    <nd ref="26550048"/>
    <nd ref="26550047"/>
    <nd ref="26550046"/>
    <nd ref="26550045"/>
    <nd ref="26550044"/>
    <nd ref="26550043"/>
    <nd ref="26550042"/>
    <nd ref="26550041"/>
    <nd ref="26550040"/>
    <nd ref="26550039"/>
    <nd ref="301808145"/>
    <nd ref="26550038"/>
    <nd ref="26550037"/>
    <nd ref="26550036"/>
    <nd ref="539062711"/>
    <nd ref="26550035"/>
    <nd ref="26550034"/>
    <nd ref="26550033"/>
    <nd ref="26550032"/>
    <nd ref="26550031"/>
    <nd ref="26118744"/>
    <tag k="boat" v="yes"/>
    <tag k="name" v="Weser"/>
    <tag k="source" v="Landsat"/>
    <tag k="waterway" v="river"/>
  </way>
</osm>
