<?xml version='1.0' encoding='UTF-8'?>
<osm version="0.6" generator="libosmium/2.20.0">
  <way id="81537095" version="1" timestamp="2010-10-15T17:05:57Z" uid="9581" user="Lobelt" changeset="6050752">
    <nd ref="20978794"/>
    <nd ref="20978792"/>
    <nd ref="20978790"/>
    <tag k="bicycle" v="no"/>
    <tag k="highway" v="secondary"/>
    <tag k="maxspeed" v="70"/>
    <tag k="name" v="Siebenbürger Straße"/>
  </way>
  <way id="81537096" version="1" timestamp="2010-10-15T17:05:57Z" uid="9581" user="Lobelt" changeset="6050752">
    <nd ref="20977807"/>
    <nd ref="20978794"/>
    <tag k="bicycle" v="no"/>
    <tag k="highway" v="secondary"/>
    <tag k="maxspeed" v="70"/>
    <tag k="name" v="Siebenbürger Straße"/>
  </way>
  <way id="81537098" version="1" timestamp="2010-10-15T17:05:57Z" uid="9581" user="Lobelt" changeset="6050752">
    <nd ref="20978790"/>
    <nd ref="76989142"/>
    <nd ref="20978774"/>
    <nd ref="110842568"/>
    <nd ref="655410386"/>
    <nd ref="110843846"/>
    <nd ref="20978757"/>
    <nd ref="20978741"/>
    <nd ref="20978733"/>
    <nd ref="20978728"/>
    <nd ref="20978726"/>
    <nd ref="20978722"/>
    <tag k="bicycle" v="no"/>
    <tag k="highway" v="secondary"/>
    <tag k="maxspeed" v="70"/>
    <tag k="name" v="Siebenbürger Straße"/>
  </way>
</osm>
