<?xml version='1.0' encoding='UTF-8'?>
<osm version="0.6" generator="libosmium/2.20.0">
  <way id="81595743" version="1" timestamp="2010-10-15T22:06:55Z" uid="96874" user="Quedel" changeset="6051410">
    <nd ref="253996867"/>
    <nd ref="253996868"/>
    <nd ref="418221463"/>
    <tag k="highway" v="residential"/>
    <tag k="name" v="Frachtstraße"/>
    <tag k="parking:condition:left" v="free"/>
    <tag k="parking:lane:left" v="inline"/>
    <tag k="parking:lane:right" v="no_parking"/>
  </way>
  <way id="81595745" version="1" timestamp="2010-10-15T22:06:55Z" uid="96874" user="Quedel" changeset="6051410">
    <nd ref="250163496"/>
    <nd ref="250163497"/>
    <tag k="highway" v="residential"/>
    <tag k="name" v="Goezestraße"/>
    <tag k="parking:lane:left" v="no_stopping"/>
    <tag k="parking:lane:right" v="no_parking"/>
  </way>
  <way id="81595750" version="1" timestamp="2010-10-15T22:06:56Z" uid="96874" user="Quedel" changeset="6051410">
    <nd ref="253746205"/>
    <nd ref="253746206"/>
    <nd ref="253746248"/>
    <nd ref="253746207"/>
    <nd ref="253746177"/>
    <nd ref="250163499"/>
    <tag k="highway" v="residential"/>
    <tag k="name" v="Goezestraße"/>
    <tag k="parking:lane:both" v="no_parking"/>
  </way>
  <way id="81595751" version="1" timestamp="2010-10-15T22:06:57Z" uid="96874" user="Quedel" changeset="6051410">
    <nd ref="250163497"/>
    <nd ref="253746247"/>
    <nd ref="250163498"/>
    <nd ref="253746205"/>
    <tag k="highway" v="residential"/>
    <tag k="name" v="Goezestraße"/>
    <tag k="parking:condition:left" v="free"/>
    <tag k="parking:lane:left" v="inline"/>
    <tag k="parking:lane:right" v="no_parking"/>
  </way>
</osm>
