<?xml version='1.0' encoding='UTF-8'?>
<osm version="0.6" generator="libosmium/2.20.0">
  <way id="81976288" version="4" timestamp="2011-04-01T18:20:58Z" uid="6269" user="Mueck" changeset="7737379">
    <nd ref="955119348"/>
    <nd ref="955119356"/>
    <nd ref="955119361"/>
    <nd ref="32542993"/>
    <nd ref="955119333"/>
    <nd ref="1210334902"/>
    <nd ref="1228143760"/>
    <nd ref="955119348"/>
    <tag k="addr:city" v="Karlsruhe"/>
    <tag k="addr:country" v="DE"/>
    <tag k="addr:postcode" v="76137"/>
    <tag k="addr:street" v="Victor-Gollancz-StraÃŸe"/>
    <tag k="amenity" v="parking"/>
    <tag k="capacity" v="60"/>
    <tag k="fee" v="yes"/>
    <tag k="name" v="Hauptbahnhof P5"/>
    <tag k="opening_hours" v="24/7"/>
    <tag k="operator" v="Contipark Parkgaragen GmbH"/>
    <tag k="park_ride" v="train"/>
    <tag k="parking" v="surface"/>
    <tag k="payment:account_cards" v="no"/>
    <tag k="payment:coins" v="yes"/>
    <tag k="payment:credit_cards" v="visa; mastercard; american_express"/>
    <tag k="payment:debit_cards" v="no"/>
    <tag k="payment:electronic_purses" v="no"/>
    <tag k="payment:notes" v="no"/>
    <tag k="payment:telephone_cards" v="no"/>
  </way>
  <way id="81976651" version="1" timestamp="2010-10-17T20:22:17Z" uid="17602" user="B10xyz" changeset="6071414">
    <nd ref="955126131"/>
    <nd ref="955126111"/>
    <tag k="cables" v="3"/>
    <tag k="power" v="line"/>
    <tag k="wires" v="1"/>
  </way>
  <way id="81976652" version="1" timestamp="2010-10-17T20:22:17Z" uid="17602" user="B10xyz" changeset="6071414">
    <nd ref="955126106"/>
    <nd ref="955126117"/>
    <nd ref="955126115"/>
    <nd ref="955126127"/>
    <nd ref="955126157"/>
    <nd ref="955126088"/>
    <nd ref="955126121"/>
    <tag k="highway" v="service"/>
  </way>
</osm>
