<?xml version='1.0' encoding='UTF-8'?>
<osm version="0.6" generator="libosmium/2.20.0">
  <way id="83046158" version="1" timestamp="2010-10-26T18:22:36Z" uid="43967" user="railsnail" changeset="6185149">
    <nd ref="966151186"/>
    <nd ref="275169962"/>
    <tag k="bridge" v="yes"/>
    <tag k="electrified" v="yes"/>
    <tag k="layer" v="1"/>
    <tag k="operator" v="ÖBB"/>
    <tag k="railway" v="rail"/>
    <tag k="tracks" v="1"/>
    <tag k="usage" v="main"/>
  </way>
  <way id="83046159" version="1" timestamp="2010-10-26T18:22:36Z" uid="43967" user="railsnail" changeset="6185149">
    <nd ref="275169962"/>
    <nd ref="275169961"/>
    <nd ref="275169960"/>
    <nd ref="331233647"/>
    <tag k="electrified" v="yes"/>
    <tag k="operator" v="ÖBB"/>
    <tag k="railway" v="rail"/>
    <tag k="tracks" v="1"/>
    <tag k="usage" v="main"/>
  </way>
  <way id="83046159" version="2" timestamp="2010-10-27T20:06:08Z" uid="43967" user="railsnail" changeset="6201218">
    <nd ref="275169962"/>
    <nd ref="275169961"/>
    <nd ref="967174706"/>
    <nd ref="275169960"/>
    <nd ref="331233647"/>
    <tag k="electrified" v="yes"/>
    <tag k="operator" v="ÖBB"/>
    <tag k="railway" v="rail"/>
    <tag k="tracks" v="1"/>
    <tag k="usage" v="main"/>
  </way>
  <way id="83046159" version="3" timestamp="2011-03-20T20:26:17Z" uid="43967" user="railsnail" changeset="7621334">
    <nd ref="275169962"/>
    <nd ref="1211032031"/>
    <nd ref="1211031917"/>
    <nd ref="275169961"/>
    <nd ref="1211032004"/>
    <nd ref="1211032314"/>
    <nd ref="1211032542"/>
    <nd ref="967174706"/>
    <nd ref="275169960"/>
    <nd ref="331233647"/>
    <tag k="electrified" v="yes"/>
    <tag k="operator" v="ÖBB"/>
    <tag k="railway" v="rail"/>
    <tag k="tracks" v="1"/>
    <tag k="usage" v="main"/>
  </way>
</osm>
