<?xml version='1.0' encoding='UTF-8'?>
<osm version="0.6" generator="libosmium/2.20.0">
  <way id="83353724" version="2" timestamp="2011-01-24T15:57:26Z" uid="6269" user="Mueck" changeset="7073890">
    <nd ref="970158434"/>
    <nd ref="970158405"/>
    <nd ref="1118829323"/>
    <nd ref="970158373"/>
    <tag k="highway" v="service"/>
  </way>
  <way id="83353729" version="2" timestamp="2011-03-17T17:17:07Z" uid="6269" user="Mueck" changeset="7587440">
    <nd ref="970158332"/>
    <nd ref="408163925"/>
    <nd ref="408163926"/>
    <tag k="light_rail" v="yes"/>
    <tag k="name" v="3"/>
    <tag k="public_transport" v="platform"/>
    <tag k="railway" v="platform"/>
    <tag k="ref" v="3"/>
  </way>
  <way id="83353802" version="2" timestamp="2011-03-17T17:17:08Z" uid="6269" user="Mueck" changeset="7587440">
    <nd ref="970158522"/>
    <nd ref="970158556"/>
    <nd ref="970158332"/>
    <tag k="light_rail" v="yes"/>
    <tag k="name" v="2"/>
    <tag k="public_transport" v="platform"/>
    <tag k="railway" v="platform"/>
    <tag k="ref" v="2"/>
  </way>
</osm>
