<?xml version='1.0' encoding='UTF-8'?>
<osm version="0.6" generator="libosmium/2.20.0">
  <way id="83635846" version="1" timestamp="2010-11-01T18:40:18Z" uid="9581" user="Lobelt" changeset="6259349">
    <nd ref="481596"/>
    <nd ref="481600"/>
    <nd ref="481601"/>
    <tag k="highway" v="motorway"/>
    <tag k="int_ref" v="E 40"/>
    <tag k="maxspeed" v="100"/>
    <tag k="oneway" v="yes"/>
    <tag k="ref" v="A 5"/>
  </way>
  <way id="83635846" version="2" timestamp="2011-04-12T18:20:09Z" uid="9581" user="Lobelt" changeset="7845173">
    <nd ref="481596"/>
    <nd ref="481600"/>
    <nd ref="481601"/>
    <tag k="highway" v="motorway"/>
    <tag k="int_ref" v="E 40"/>
    <tag k="maxspeed" v="100"/>
    <tag k="oneway" v="yes"/>
    <tag k="overtaking:hgv" v="no"/>
    <tag k="ref" v="A 5"/>
  </way>
  <way id="83635847" version="1" timestamp="2010-11-01T18:40:19Z" uid="9581" user="Lobelt" changeset="6259349">
    <nd ref="482347"/>
    <nd ref="482349"/>
    <nd ref="482350"/>
    <tag k="destination" v="Basel;Frankfurt;Wiesbaden;GieÃŸen"/>
    <tag k="hgv" v="no"/>
    <tag k="highway" v="motorway"/>
    <tag k="int_ref" v="E 40"/>
    <tag k="maxspeed" v="120"/>
    <tag k="oneway" v="yes"/>
    <tag k="ref" v="A 5"/>
  </way>
</osm>
