<?xml version='1.0' encoding='UTF-8'?>
<osm version="0.6" generator="libosmium/2.20.0">
  <way id="83822230" version="1" timestamp="2010-11-03T15:42:41Z" uid="33382" user="de_muur" changeset="6277111">
    <nd ref="30397562"/>
    <nd ref="660831117"/>
    <nd ref="30397564"/>
    <nd ref="662298678"/>
    <nd ref="660831126"/>
    <nd ref="662298680"/>
    <nd ref="869301044"/>
    <nd ref="30397565"/>
    <nd ref="869301096"/>
    <nd ref="30397566"/>
    <tag k="cycleway" v="track"/>
    <tag k="highway" v="secondary"/>
    <tag k="maxspeed" v="50"/>
    <tag k="name" v="Oyterdamm"/>
    <tag k="postal_code" v="28876"/>
    <tag k="ref" v="L 168"/>
    <tag k="surface" v="paved"/>
  </way>
  <way id="83822231" version="1" timestamp="2010-11-03T15:42:43Z" uid="33382" user="de_muur" changeset="6277111">
    <nd ref="30421479"/>
    <nd ref="30421480"/>
    <nd ref="21524197"/>
    <tag k="cycleway" v="track"/>
    <tag k="highway" v="secondary"/>
    <tag k="maxspeed" v="70"/>
    <tag k="name" v="Hauptstraße"/>
    <tag k="ref" v="L 168"/>
    <tag k="surface" v="paved"/>
  </way>
  <way id="83822481" version="1" timestamp="2010-11-03T15:55:58Z" uid="33382" user="de_muur" changeset="6277199">
    <nd ref="975871312"/>
    <nd ref="21524153"/>
    <nd ref="60806210"/>
    <nd ref="975871313"/>
    <tag k="cycleway" v="track"/>
    <tag k="highway" v="secondary"/>
    <tag k="maxspeed:backward" v="100"/>
    <tag k="maxspeed:forward" v="70"/>
    <tag k="name" v="Nadah"/>
    <tag k="ref" v="L 168"/>
    <tag k="surface" v="paved"/>
  </way>
  <way id="83822482" version="1" timestamp="2010-11-03T15:55:59Z" uid="33382" user="de_muur" changeset="6277199">
    <nd ref="21524100"/>
    <nd ref="21524221"/>
    <tag k="cycleway" v="track"/>
    <tag k="highway" v="secondary"/>
    <tag k="maxspeed" v="100"/>
    <tag k="ref" v="L 168"/>
    <tag k="surface" v="paved"/>
  </way>
  <way id="83822483" version="1" timestamp="2010-11-03T15:56:00Z" uid="33382" user="de_muur" changeset="6277199">
    <nd ref="975871313"/>
    <nd ref="358441988"/>
    <nd ref="21524143"/>
    <tag k="cycleway" v="track"/>
    <tag k="highway" v="secondary"/>
    <tag k="maxspeed" v="100"/>
    <tag k="name" v="Nadah"/>
    <tag k="ref" v="L 168"/>
    <tag k="surface" v="paved"/>
  </way>
  <way id="83822484" version="1" timestamp="2010-11-03T15:56:01Z" uid="33382" user="de_muur" changeset="6277199">
    <nd ref="21524143"/>
    <nd ref="30439871"/>
    <tag k="cycleway" v="track"/>
    <tag k="highway" v="secondary"/>
    <tag k="maxspeed" v="70"/>
    <tag k="name" v="Nadah"/>
    <tag k="ref" v="L 168"/>
    <tag k="surface" v="paved"/>
  </way>
  <way id="83822648" version="1" timestamp="2010-11-03T16:05:36Z" uid="33382" user="de_muur" changeset="6277282">
    <nd ref="46441368"/>
    <nd ref="362673624"/>
    <nd ref="362673634"/>
    <nd ref="362673641"/>
    <tag k="highway" v="motorway_link"/>
    <tag k="oneway" v="yes"/>
  </way>
  <way id="83822649" version="1" timestamp="2010-11-03T16:05:36Z" uid="33382" user="de_muur" changeset="6277282">
    <nd ref="975872725"/>
    <nd ref="434565426"/>
    <nd ref="303979635"/>
    <nd ref="975872726"/>
    <tag k="cycleway" v="track"/>
    <tag k="highway" v="secondary"/>
    <tag k="maxspeed:backward" v="70"/>
    <tag k="maxspeed:forward" v="100"/>
    <tag k="name" v="Große Straße"/>
    <tag k="ref" v="L 168"/>
    <tag k="surface" v="paved"/>
  </way>
  <way id="83822650" version="1" timestamp="2010-11-03T16:05:37Z" uid="33382" user="de_muur" changeset="6277282">
    <nd ref="975872726"/>
    <nd ref="60806104"/>
    <nd ref="323939707"/>
    <tag k="cycleway" v="track"/>
    <tag k="highway" v="secondary"/>
    <tag k="maxspeed" v="100"/>
    <tag k="name" v="Große Straße"/>
    <tag k="ref" v="L 168"/>
    <tag k="surface" v="paved"/>
  </way>
  <way id="83822651" version="1" timestamp="2010-11-03T16:05:37Z" uid="33382" user="de_muur" changeset="6277282">
    <nd ref="975872727"/>
    <nd ref="60806106"/>
    <nd ref="60806105"/>
    <nd ref="323939707"/>
    <tag k="cycleway" v="track"/>
    <tag k="highway" v="secondary"/>
    <tag k="maxspeed" v="100"/>
    <tag k="name" v="Stuckenborsteler Straße"/>
    <tag k="ref" v="L 168"/>
  </way>
  <way id="83822652" version="1" timestamp="2010-11-03T16:05:37Z" uid="33382" user="de_muur" changeset="6277282">
    <nd ref="46441368"/>
    <nd ref="46441373"/>
    <nd ref="46441379"/>
    <tag k="highway" v="motorway_link"/>
    <tag k="oneway" v="no"/>
  </way>
  <way id="83822653" version="1" timestamp="2010-11-03T16:05:37Z" uid="33382" user="de_muur" changeset="6277282">
    <nd ref="975872728"/>
    <nd ref="38967111"/>
    <tag k="highway" v="secondary"/>
    <tag k="maxspeed" v="50"/>
    <tag k="name" v="Stuckenborsteler Straße"/>
    <tag k="ref" v="L 168"/>
    <tag k="surface" v="paved"/>
  </way>
  <way id="83822654" version="1" timestamp="2010-11-03T16:05:37Z" uid="33382" user="de_muur" changeset="6277282">
    <nd ref="77966846"/>
    <nd ref="77966847"/>
    <nd ref="77966848"/>
    <nd ref="38967111"/>
    <tag k="highway" v="motorway_link"/>
    <tag k="oneway" v="yes"/>
  </way>
  <way id="83822655" version="1" timestamp="2010-11-03T16:05:38Z" uid="33382" user="de_muur" changeset="6277282">
    <nd ref="77966842"/>
    <nd ref="38967152"/>
    <nd ref="38967158"/>
    <nd ref="38967124"/>
    <tag k="highway" v="motorway_link"/>
    <tag k="oneway" v="yes"/>
  </way>
  <way id="83822656" version="1" timestamp="2010-11-03T16:05:38Z" uid="33382" user="de_muur" changeset="6277282">
    <nd ref="77966842"/>
    <nd ref="77966843"/>
    <nd ref="77966844"/>
    <nd ref="77966845"/>
    <nd ref="77966846"/>
    <tag k="highway" v="motorway_link"/>
    <tag k="oneway" v="no"/>
  </way>
  <way id="83822657" version="1" timestamp="2010-11-03T16:05:38Z" uid="33382" user="de_muur" changeset="6277282">
    <nd ref="975872729"/>
    <nd ref="46441379"/>
    <tag k="highway" v="primary"/>
    <tag k="maxspeed" v="50"/>
    <tag k="ref" v="B 75"/>
    <tag k="surface" v="paved"/>
  </way>
  <way id="83822941" version="1" timestamp="2010-11-03T16:18:28Z" uid="33382" user="de_muur" changeset="6277379">
    <nd ref="975875304"/>
    <nd ref="353011604"/>
    <nd ref="269448572"/>
    <tag k="addr:city" v="Scheeßel"/>
    <tag k="addr:country" v="DE"/>
    <tag k="addr:postcode" v="27383"/>
    <tag k="addr:street" v="Harburger Straße"/>
    <tag k="highway" v="primary"/>
    <tag k="maxspeed" v="50"/>
    <tag k="name" v="Harburger Straße"/>
    <tag k="ref" v="B 75"/>
  </way>
  <way id="83822942" version="1" timestamp="2010-11-03T16:18:30Z" uid="33382" user="de_muur" changeset="6277379">
    <nd ref="975875303"/>
    <nd ref="31761265"/>
    <tag k="addr:city" v="Scheeßel"/>
    <tag k="addr:postcode" v="27383"/>
    <tag k="addr:street" v="Veersebrücker Straße"/>
    <tag k="highway" v="primary"/>
    <tag k="maxspeed" v="50"/>
    <tag k="name" v="Veersebrücker Straße"/>
    <tag k="ref" v="B 75"/>
  </way>
  <way id="83822943" version="1" timestamp="2010-11-03T16:18:31Z" uid="33382" user="de_muur" changeset="6277379">
    <nd ref="975875307"/>
    <nd ref="29917324"/>
    <nd ref="29917325"/>
    <nd ref="29917327"/>
    <nd ref="29917326"/>
    <nd ref="29917328"/>
    <nd ref="29917329"/>
    <tag k="bicycle" v="yes"/>
    <tag k="cycleway" v="track"/>
    <tag k="highway" v="primary"/>
    <tag k="maxspeed" v="100"/>
    <tag k="name" v="Wümmetal"/>
    <tag k="ref" v="B 75"/>
    <tag k="surface" v="paved"/>
  </way>
  <way id="83822944" version="1" timestamp="2010-11-03T16:18:31Z" uid="33382" user="de_muur" changeset="6277379">
    <nd ref="975875309"/>
    <nd ref="392513079"/>
    <nd ref="29917331"/>
    <tag k="bicycle" v="yes"/>
    <tag k="cycleway" v="track"/>
    <tag k="highway" v="primary"/>
    <tag k="maxspeed" v="70"/>
    <tag k="name" v="Stemmerfeld"/>
    <tag k="ref" v="B 75"/>
    <tag k="surface" v="paved"/>
  </way>
  <way id="83822945" version="1" timestamp="2010-11-03T16:18:32Z" uid="33382" user="de_muur" changeset="6277379">
    <nd ref="29917331"/>
    <nd ref="29917332"/>
    <tag k="bicycle" v="yes"/>
    <tag k="cycleway" v="track"/>
    <tag k="highway" v="primary"/>
    <tag k="maxspeed" v="100"/>
    <tag k="name" v="Stemmerfeld"/>
    <tag k="ref" v="B 75"/>
    <tag k="surface" v="paved"/>
  </way>
</osm>
