<?xml version='1.0' encoding='UTF-8'?>
<osm version="0.6" generator="libosmium/2.20.0">
  <way id="83887734" version="1" timestamp="2010-11-04T06:24:53Z" uid="4467" user="Rosscoe" changeset="6285757">
    <nd ref="976447233"/>
    <nd ref="257685708"/>
    <tag k="highway" v="residential"/>
    <tag k="maxspeed" v="50"/>
    <tag k="maxspeed:source" v="default residential speed limit in Australia"/>
    <tag k="name" v="Monash Street"/>
    <tag k="source" v="yahoo"/>
  </way>
  <way id="83887734" version="2" timestamp="2010-11-04T07:13:50Z" uid="4467" user="Rosscoe" changeset="6286167">
    <nd ref="976447233"/>
    <nd ref="257685708"/>
    <tag k="highway" v="residential"/>
    <tag k="maxspeed" v="50"/>
    <tag k="name" v="Monash Street"/>
    <tag k="source" v="yahoo"/>
    <tag k="source:maxspeed" v="default residential speed limit in Australia"/>
  </way>
  <way id="83887735" version="1" timestamp="2010-11-04T06:24:54Z" uid="4467" user="Rosscoe" changeset="6285757">
    <nd ref="976447233"/>
    <nd ref="257685556"/>
    <tag k="highway" v="residential"/>
    <tag k="maxspeed" v="50"/>
    <tag k="maxspeed:source" v="default residential speed limit in Australia"/>
    <tag k="name" v="Monash Street"/>
    <tag k="oneway" v="yes"/>
    <tag k="source" v="nearmap"/>
  </way>
  <way id="83887735" version="2" timestamp="2010-11-04T07:14:16Z" uid="4467" user="Rosscoe" changeset="6286167">
    <nd ref="976447233"/>
    <nd ref="257685556"/>
    <tag k="highway" v="residential"/>
    <tag k="maxspeed" v="50"/>
    <tag k="name" v="Monash Street"/>
    <tag k="oneway" v="yes"/>
    <tag k="source" v="nearmap"/>
    <tag k="source:maxspeed" v="default residential speed limit in Australia"/>
  </way>
  <way id="83887736" version="1" timestamp="2010-11-04T06:24:55Z" uid="4467" user="Rosscoe" changeset="6285757">
    <nd ref="976447208"/>
    <nd ref="257685547"/>
    <tag k="highway" v="residential"/>
    <tag k="maxspeed" v="50"/>
    <tag k="maxspeed:source" v="default residential speed limit in Australia"/>
    <tag k="name" v="Macedon Street"/>
    <tag k="source" v="yahoo"/>
    <tag k="source:name" v="survey"/>
  </way>
  <way id="83887736" version="2" timestamp="2010-11-04T07:13:58Z" uid="4467" user="Rosscoe" changeset="6286167">
    <nd ref="976447208"/>
    <nd ref="257685547"/>
    <tag k="highway" v="residential"/>
    <tag k="maxspeed" v="50"/>
    <tag k="name" v="Macedon Street"/>
    <tag k="source" v="yahoo"/>
    <tag k="source:maxspeed" v="default residential speed limit in Australia"/>
    <tag k="source:name" v="survey"/>
  </way>
  <way id="83887737" version="1" timestamp="2010-11-04T06:24:55Z" uid="4467" user="Rosscoe" changeset="6285757">
    <nd ref="976447175"/>
    <nd ref="976447154"/>
    <tag k="highway" v="residential"/>
    <tag k="name" v="Edgewater Boulevard"/>
  </way>
  <way id="83887738" version="1" timestamp="2010-11-04T06:24:55Z" uid="4467" user="Rosscoe" changeset="6285757">
    <nd ref="976447214"/>
    <nd ref="257686082"/>
    <tag k="highway" v="residential"/>
    <tag k="maxspeed" v="50"/>
    <tag k="maxspeed:source" v="default residential speed limit in Australia"/>
    <tag k="name" v="Rowe Street"/>
    <tag k="source" v="yahoo"/>
  </way>
  <way id="83887738" version="2" timestamp="2010-11-04T07:14:13Z" uid="4467" user="Rosscoe" changeset="6286167">
    <nd ref="976447214"/>
    <nd ref="257686082"/>
    <tag k="highway" v="residential"/>
    <tag k="maxspeed" v="50"/>
    <tag k="name" v="Rowe Street"/>
    <tag k="source" v="yahoo"/>
    <tag k="source:maxspeed" v="default residential speed limit in Australia"/>
  </way>
  <way id="83887739" version="1" timestamp="2010-11-04T06:24:55Z" uid="4467" user="Rosscoe" changeset="6285757">
    <nd ref="690269696"/>
    <nd ref="976447230"/>
    <nd ref="976447189"/>
    <nd ref="976447165"/>
    <nd ref="976447154"/>
    <nd ref="690270629"/>
    <nd ref="690269631"/>
    <nd ref="306106568"/>
    <tag k="highway" v="residential"/>
    <tag k="name" v="Edgewater Boulevard"/>
    <tag k="oneway" v="yes"/>
    <tag k="source" v="nearmap"/>
  </way>
  <way id="83887740" version="1" timestamp="2010-11-04T06:24:55Z" uid="4467" user="Rosscoe" changeset="6285757">
    <nd ref="976447177"/>
    <nd ref="976447225"/>
    <nd ref="976447208"/>
    <nd ref="976447173"/>
    <nd ref="976447223"/>
    <nd ref="976447199"/>
    <nd ref="976447171"/>
    <nd ref="976447218"/>
    <nd ref="976447177"/>
    <tag k="highway" v="residential"/>
    <tag k="junction" v="roundabout"/>
    <tag k="source" v="nearmap"/>
  </way>
  <way id="83887741" version="1" timestamp="2010-11-04T06:24:55Z" uid="4467" user="Rosscoe" changeset="6285757">
    <nd ref="976447243"/>
    <nd ref="257685553"/>
    <tag k="highway" v="residential"/>
    <tag k="maxspeed" v="50"/>
    <tag k="maxspeed:source" v="default residential speed limit in Australia"/>
    <tag k="name" v="Kellaway Street"/>
    <tag k="source" v="yahoo"/>
    <tag k="source:name" v="survey"/>
  </way>
  <way id="83887741" version="2" timestamp="2010-11-04T07:13:53Z" uid="4467" user="Rosscoe" changeset="6286167">
    <nd ref="976447243"/>
    <nd ref="257685553"/>
    <tag k="highway" v="residential"/>
    <tag k="maxspeed" v="50"/>
    <tag k="name" v="Kellaway Street"/>
    <tag k="source" v="yahoo"/>
    <tag k="source:maxspeed" v="default residential speed limit in Australia"/>
    <tag k="source:name" v="survey"/>
  </way>
  <way id="83887742" version="1" timestamp="2010-11-04T06:24:56Z" uid="4467" user="Rosscoe" changeset="6285757">
    <nd ref="976447216"/>
    <nd ref="976447206"/>
    <nd ref="976447243"/>
    <nd ref="976447236"/>
    <nd ref="976447214"/>
    <nd ref="976447167"/>
    <nd ref="976447211"/>
    <nd ref="976447196"/>
    <nd ref="976447216"/>
    <tag k="highway" v="residential"/>
    <tag k="junction" v="roundabout"/>
    <tag k="source" v="nearmap"/>
  </way>
  <way id="83887743" version="1" timestamp="2010-11-04T06:24:56Z" uid="4467" user="Rosscoe" changeset="6285757">
    <nd ref="976447175"/>
    <nd ref="976447221"/>
    <nd ref="976447169"/>
    <nd ref="976447157"/>
    <tag k="highway" v="residential"/>
    <tag k="name" v="Edgewater Boulevard"/>
    <tag k="oneway" v="yes"/>
    <tag k="source" v="nearmap"/>
  </way>
  <way id="83887744" version="1" timestamp="2010-11-04T06:24:56Z" uid="4467" user="Rosscoe" changeset="6285757">
    <nd ref="976447223"/>
    <nd ref="257686080"/>
    <nd ref="976447216"/>
    <tag k="highway" v="residential"/>
    <tag k="maxspeed" v="50"/>
    <tag k="maxspeed:source" v="default residential speed limit in Australia"/>
    <tag k="name" v="Rowe Street"/>
    <tag k="source" v="yahoo"/>
  </way>
  <way id="83887744" version="2" timestamp="2010-11-04T07:13:39Z" uid="4467" user="Rosscoe" changeset="6286167">
    <nd ref="976447223"/>
    <nd ref="257686080"/>
    <nd ref="976447216"/>
    <tag k="highway" v="residential"/>
    <tag k="maxspeed" v="50"/>
    <tag k="name" v="Rowe Street"/>
    <tag k="source" v="yahoo"/>
    <tag k="source:maxspeed" v="default residential speed limit in Australia"/>
  </way>
</osm>
