<?xml version='1.0' encoding='UTF-8'?>
<osm version="0.6" generator="libosmium/2.20.0">
  <way id="84525924" version="1" timestamp="2010-11-08T08:56:27Z" uid="33382" user="de_muur" changeset="6318670">
    <nd ref="913734595"/>
    <nd ref="286415216"/>
    <nd ref="913734833"/>
    <nd ref="286415215"/>
    <nd ref="286395404"/>
    <nd ref="286396502"/>
    <nd ref="286395785"/>
    <nd ref="286395652"/>
    <nd ref="286395784"/>
    <nd ref="286395650"/>
    <nd ref="286395649"/>
    <tag k="highway" v="secondary"/>
    <tag k="ref" v="L 204"/>
    <tag k="surface" v="paved"/>
  </way>
  <way id="84525925" version="1" timestamp="2010-11-08T08:56:28Z" uid="33382" user="de_muur" changeset="6318670">
    <nd ref="282712607"/>
    <nd ref="913734602"/>
    <nd ref="913735169"/>
    <nd ref="282712608"/>
    <tag k="highway" v="secondary"/>
    <tag k="maxspeed" v="50"/>
    <tag k="name" v="Sterleyer Straße"/>
    <tag k="ref" v="L 218"/>
    <tag k="surface" v="paved"/>
  </way>
  <way id="84525925" version="2" timestamp="2010-11-08T09:12:09Z" uid="33382" user="de_muur" changeset="6318752">
    <nd ref="282712607"/>
    <nd ref="913734602"/>
    <nd ref="913735169"/>
    <tag k="highway" v="secondary"/>
    <tag k="maxspeed" v="50"/>
    <tag k="name" v="Sterleyer Straße"/>
    <tag k="ref" v="L 218"/>
    <tag k="surface" v="paved"/>
  </way>
  <way id="84525926" version="1" timestamp="2010-11-08T08:56:28Z" uid="33382" user="de_muur" changeset="6318670">
    <nd ref="913734996"/>
    <nd ref="282712607"/>
    <tag k="highway" v="secondary"/>
    <tag k="maxspeed" v="50"/>
    <tag k="name" v="Sterleyer Straße"/>
    <tag k="ref" v="L 218"/>
    <tag k="surface" v="paved"/>
  </way>
  <way id="84525927" version="1" timestamp="2010-11-08T08:56:29Z" uid="33382" user="de_muur" changeset="6318670">
    <nd ref="282712577"/>
    <nd ref="282712578"/>
    <nd ref="441665808"/>
    <nd ref="282712579"/>
    <nd ref="282712580"/>
    <nd ref="282712610"/>
    <nd ref="282712359"/>
    <nd ref="913915425"/>
    <nd ref="282712582"/>
    <nd ref="282712583"/>
    <nd ref="282712584"/>
    <nd ref="286431314"/>
    <nd ref="282711499"/>
    <nd ref="286431413"/>
    <nd ref="286358844"/>
    <nd ref="286358845"/>
    <nd ref="738092619"/>
    <nd ref="738092620"/>
    <nd ref="282553144"/>
    <nd ref="738092618"/>
    <nd ref="738092617"/>
    <nd ref="738092621"/>
    <nd ref="282553145"/>
    <nd ref="738092622"/>
    <nd ref="410415033"/>
    <nd ref="851402952"/>
    <nd ref="282553071"/>
    <nd ref="738092642"/>
    <nd ref="458241513"/>
    <nd ref="282553072"/>
    <nd ref="282553073"/>
    <nd ref="282553075"/>
    <nd ref="286370199"/>
    <tag k="highway" v="tertiary"/>
    <tag k="ref" v="K 69"/>
    <tag k="surface" v="paved"/>
  </way>
  <way id="84525928" version="1" timestamp="2010-11-08T08:56:29Z" uid="33382" user="de_muur" changeset="6318670">
    <nd ref="286394668"/>
    <nd ref="286394688"/>
    <nd ref="286394670"/>
    <nd ref="286394671"/>
    <nd ref="286394672"/>
    <nd ref="913915367"/>
    <nd ref="913915528"/>
    <nd ref="913915487"/>
    <nd ref="286394004"/>
    <nd ref="913915529"/>
    <tag k="highway" v="secondary"/>
    <tag k="maxspeed" v="50"/>
    <tag k="name" v="Alte Dorfstraße"/>
    <tag k="ref" v="L 204"/>
    <tag k="surface" v="asphalt"/>
  </way>
</osm>
