<?xml version='1.0' encoding='UTF-8'?>
<osm version="0.6" generator="libosmium/2.20.0">
  <way id="8453007" version="2" timestamp="2008-02-24T18:15:52Z" uid="13367" user="nubok" changeset="192595">
    <nd ref="30267668"/>
    <nd ref="30267675"/>
    <tag k="created_by" v="Potlatch 0.7b"/>
  </way>
  <way id="8453007" version="3" timestamp="2008-02-24T18:16:15Z" uid="13367" user="nubok" changeset="192595"/>
  <way id="8453008" version="2" timestamp="2008-02-24T18:16:22Z" uid="13367" user="nubok" changeset="192595">
    <nd ref="30267668"/>
    <nd ref="30267675"/>
    <tag k="created_by" v="Potlatch 0.7b"/>
    <tag k="note" v="FIXME previously unwayed segment"/>
  </way>
  <way id="8453008" version="3" timestamp="2008-02-24T18:16:31Z" uid="13367" user="nubok" changeset="192595">
    <nd ref="30267668"/>
    <nd ref="30267675"/>
    <tag k="created_by" v="Potlatch 0.7b"/>
    <tag k="note" v="FIXME previously unwayed segment"/>
  </way>
  <way id="8453008" version="4" timestamp="2008-02-24T18:16:37Z" uid="13367" user="nubok" changeset="192595">
    <nd ref="30267668"/>
    <nd ref="30267675"/>
    <tag k="created_by" v="Potlatch 0.7b"/>
    <tag k="note" v="FIXME previously unwayed segment"/>
  </way>
  <way id="8453008" version="5" timestamp="2008-02-24T18:16:52Z" uid="13367" user="nubok" changeset="192595"/>
  <way id="8453009" version="2" timestamp="2008-02-24T18:16:57Z" uid="13367" user="nubok" changeset="192595"/>
  <way id="8453141" version="1" timestamp="2007-06-13T13:12:09Z" uid="1066" user="pavel" changeset="94081">
    <nd ref="30303284"/>
    <nd ref="21053161"/>
    <tag k="created_by" v="JOSM"/>
    <tag k="highway" v="secondary"/>
    <tag k="note" v="FIXME previously tagged segment"/>
  </way>
  <way id="8453142" version="1" timestamp="2007-06-13T13:12:13Z" uid="1066" user="pavel" changeset="94081">
    <nd ref="30303285"/>
    <nd ref="21053163"/>
    <tag k="created_by" v="JOSM"/>
    <tag k="highway" v="secondary"/>
    <tag k="note" v="FIXME previously tagged segment"/>
  </way>
  <way id="8453143" version="1" timestamp="2007-06-13T13:12:15Z" uid="1066" user="pavel" changeset="94081">
    <nd ref="30303286"/>
    <nd ref="30303285"/>
    <tag k="created_by" v="JOSM"/>
    <tag k="highway" v="secondary"/>
    <tag k="note" v="FIXME previously tagged segment"/>
  </way>
  <way id="8453144" version="1" timestamp="2007-06-13T13:12:22Z" uid="1066" user="pavel" changeset="94081">
    <nd ref="30303291"/>
    <nd ref="21263158"/>
    <tag k="created_by" v="JOSM"/>
    <tag k="highway" v="secondary"/>
    <tag k="note" v="FIXME previously tagged segment"/>
  </way>
  <way id="8453147" version="1" timestamp="2007-06-13T13:17:10Z" uid="1066" user="pavel" changeset="94081">
    <nd ref="29820889"/>
    <nd ref="30303610"/>
    <tag k="created_by" v="JOSM"/>
    <tag k="note" v="FIXME previously unwayed segment"/>
  </way>
  <way id="8453148" version="1" timestamp="2007-06-13T13:17:12Z" uid="1066" user="pavel" changeset="94081">
    <nd ref="30303610"/>
    <nd ref="30303612"/>
    <tag k="created_by" v="JOSM"/>
    <tag k="note" v="FIXME previously unwayed segment"/>
  </way>
  <way id="8453149" version="1" timestamp="2007-06-13T13:17:13Z" uid="1066" user="pavel" changeset="94081">
    <nd ref="30303612"/>
    <nd ref="30303609"/>
    <tag k="created_by" v="JOSM"/>
    <tag k="note" v="FIXME previously unwayed segment"/>
  </way>
  <way id="8453150" version="1" timestamp="2007-06-13T13:19:25Z" uid="1066" user="pavel" changeset="94081">
    <nd ref="30303692"/>
    <nd ref="30303695"/>
    <tag k="created_by" v="JOSM"/>
    <tag k="note" v="FIXME previously unwayed segment"/>
  </way>
  <way id="8453151" version="1" timestamp="2007-06-13T13:19:29Z" uid="1066" user="pavel" changeset="94081">
    <nd ref="30303695"/>
    <nd ref="30303694"/>
    <tag k="created_by" v="JOSM"/>
    <tag k="note" v="FIXME previously unwayed segment"/>
  </way>
  <way id="8453604" version="2" timestamp="2007-12-13T20:32:01Z" uid="8328" user="benpre" changeset="289153">
    <nd ref="21422357"/>
    <nd ref="30317828"/>
    <tag k="note" v="FIXME previously unwayed segment"/>
  </way>
  <way id="8453605" version="2" timestamp="2007-12-13T20:32:01Z" uid="8328" user="benpre" changeset="289153">
    <nd ref="30317828"/>
    <nd ref="21422358"/>
    <tag k="note" v="FIXME previously unwayed segment"/>
  </way>
  <way id="8453769" version="3" timestamp="2010-07-09T05:29:47Z" uid="74617" user="JohnSmith" changeset="5170986">
    <nd ref="30341839"/>
    <nd ref="30341841"/>
    <tag k="highway" v="residential"/>
    <tag k="maxspeed" v="50"/>
    <tag k="maxspeed:source" v="default residential speed limit in Australia"/>
    <tag k="name" v="Adelaide Street"/>
  </way>
  <way id="8453770" version="7" timestamp="2010-03-20T09:49:41Z" uid="4467" user="Rosscoe" changeset="4177676">
    <nd ref="27373752"/>
    <nd ref="27373753"/>
    <nd ref="30341853"/>
    <nd ref="670261136"/>
    <tag k="highway" v="residential"/>
    <tag k="name" v="Parker Street"/>
  </way>
  <way id="8453770" version="8" timestamp="2010-07-09T05:29:25Z" uid="74617" user="JohnSmith" changeset="5170986">
    <nd ref="27373752"/>
    <nd ref="27373753"/>
    <nd ref="30341853"/>
    <nd ref="670261136"/>
    <tag k="highway" v="residential"/>
    <tag k="maxspeed" v="50"/>
    <tag k="maxspeed:source" v="default residential speed limit in Australia"/>
    <tag k="name" v="Parker Street"/>
  </way>
  <way id="8453939" version="1" timestamp="2007-08-18T23:15:09Z" uid="8807" user="brendanpuck" changeset="229367">
    <nd ref="30348622"/>
    <nd ref="30348623"/>
    <tag k="created_by" v="JOSM"/>
    <tag k="highway" v="primary"/>
    <tag k="name" v="Central Coast Highway"/>
    <tag k="note" v="FIXME previously tagged segment"/>
    <tag k="oneway" v="yes"/>
  </way>
  <way id="8453940" version="1" timestamp="2007-08-18T23:14:59Z" uid="8807" user="brendanpuck" changeset="229367">
    <nd ref="30348623"/>
    <nd ref="30348624"/>
    <tag k="created_by" v="JOSM"/>
    <tag k="highway" v="primary"/>
    <tag k="name" v="Central Coast Highway"/>
    <tag k="note" v="FIXME previously tagged segment"/>
    <tag k="oneway" v="yes"/>
  </way>
  <way id="8453941" version="1" timestamp="2007-08-18T23:15:47Z" uid="8807" user="brendanpuck" changeset="229367">
    <nd ref="30348624"/>
    <nd ref="30348625"/>
    <tag k="created_by" v="JOSM"/>
    <tag k="highway" v="primary"/>
    <tag k="name" v="Central Coast Highway"/>
    <tag k="note" v="FIXME previously tagged segment"/>
    <tag k="oneway" v="yes"/>
  </way>
  <way id="8453942" version="1" timestamp="2007-08-18T23:15:49Z" uid="8807" user="brendanpuck" changeset="229367">
    <nd ref="30348625"/>
    <nd ref="30348626"/>
    <tag k="created_by" v="JOSM"/>
    <tag k="highway" v="primary"/>
    <tag k="name" v="Central Coast Highway"/>
    <tag k="note" v="FIXME previously tagged segment"/>
    <tag k="oneway" v="yes"/>
  </way>
  <way id="8453943" version="1" timestamp="2007-08-18T23:15:52Z" uid="8807" user="brendanpuck" changeset="229367">
    <nd ref="30348626"/>
    <nd ref="30348627"/>
    <tag k="created_by" v="JOSM"/>
    <tag k="highway" v="primary"/>
    <tag k="name" v="Central Coast Highway"/>
    <tag k="note" v="FIXME previously tagged segment"/>
    <tag k="oneway" v="yes"/>
  </way>
  <way id="8453944" version="1" timestamp="2007-08-18T23:15:54Z" uid="8807" user="brendanpuck" changeset="229367">
    <nd ref="30348627"/>
    <nd ref="30348628"/>
    <tag k="created_by" v="JOSM"/>
    <tag k="highway" v="primary"/>
    <tag k="name" v="Central Coast Highway"/>
    <tag k="note" v="FIXME previously tagged segment"/>
    <tag k="oneway" v="yes"/>
  </way>
  <way id="8453945" version="1" timestamp="2007-08-18T23:15:41Z" uid="8807" user="brendanpuck" changeset="229367">
    <nd ref="30348628"/>
    <nd ref="30348629"/>
    <tag k="created_by" v="JOSM"/>
    <tag k="highway" v="primary"/>
    <tag k="name" v="Central Coast Highway"/>
    <tag k="note" v="FIXME previously tagged segment"/>
    <tag k="oneway" v="yes"/>
  </way>
  <way id="8453946" version="1" timestamp="2007-08-18T23:15:42Z" uid="8807" user="brendanpuck" changeset="229367">
    <nd ref="30348629"/>
    <nd ref="30348630"/>
    <tag k="created_by" v="JOSM"/>
    <tag k="highway" v="primary"/>
    <tag k="name" v="Central Coast Highway"/>
    <tag k="note" v="FIXME previously tagged segment"/>
    <tag k="oneway" v="yes"/>
  </way>
  <way id="8453947" version="1" timestamp="2007-08-18T23:15:43Z" uid="8807" user="brendanpuck" changeset="229367">
    <nd ref="30348630"/>
    <nd ref="30348631"/>
    <tag k="created_by" v="JOSM"/>
    <tag k="highway" v="primary"/>
    <tag k="name" v="Central Coast Highway"/>
    <tag k="note" v="FIXME previously tagged segment"/>
    <tag k="oneway" v="yes"/>
  </way>
  <way id="8453948" version="1" timestamp="2007-08-18T23:15:44Z" uid="8807" user="brendanpuck" changeset="229367">
    <nd ref="30348631"/>
    <nd ref="30348632"/>
    <tag k="created_by" v="JOSM"/>
    <tag k="highway" v="primary"/>
    <tag k="name" v="Central Coast Highway"/>
    <tag k="note" v="FIXME previously tagged segment"/>
    <tag k="oneway" v="yes"/>
  </way>
  <way id="8453949" version="1" timestamp="2007-08-18T23:15:32Z" uid="8807" user="brendanpuck" changeset="229367">
    <nd ref="30348632"/>
    <nd ref="30348633"/>
    <tag k="created_by" v="JOSM"/>
    <tag k="highway" v="primary"/>
    <tag k="name" v="Central Coast Highway"/>
    <tag k="note" v="FIXME previously tagged segment"/>
    <tag k="oneway" v="yes"/>
  </way>
  <way id="8453950" version="1" timestamp="2007-08-18T23:15:34Z" uid="8807" user="brendanpuck" changeset="229367">
    <nd ref="30348633"/>
    <nd ref="30348634"/>
    <tag k="created_by" v="JOSM"/>
    <tag k="highway" v="primary"/>
    <tag k="name" v="Central Coast Highway"/>
    <tag k="note" v="FIXME previously tagged segment"/>
    <tag k="oneway" v="yes"/>
  </way>
  <way id="8453951" version="1" timestamp="2007-08-18T23:15:37Z" uid="8807" user="brendanpuck" changeset="229367">
    <nd ref="30348634"/>
    <nd ref="30348635"/>
    <tag k="created_by" v="JOSM"/>
    <tag k="highway" v="primary"/>
    <tag k="name" v="Central Coast Highway"/>
    <tag k="note" v="FIXME previously tagged segment"/>
    <tag k="oneway" v="yes"/>
  </way>
  <way id="8453952" version="1" timestamp="2007-08-18T23:15:39Z" uid="8807" user="brendanpuck" changeset="229367">
    <nd ref="30348635"/>
    <nd ref="30348636"/>
    <tag k="created_by" v="JOSM"/>
    <tag k="highway" v="primary"/>
    <tag k="name" v="Central Coast Highway"/>
    <tag k="note" v="FIXME previously tagged segment"/>
    <tag k="oneway" v="yes"/>
  </way>
  <way id="8453953" version="1" timestamp="2007-08-18T23:15:20Z" uid="8807" user="brendanpuck" changeset="229367">
    <nd ref="30348636"/>
    <nd ref="30348637"/>
    <tag k="created_by" v="JOSM"/>
    <tag k="highway" v="primary"/>
    <tag k="name" v="Central Coast Highway"/>
    <tag k="note" v="FIXME previously tagged segment"/>
    <tag k="oneway" v="yes"/>
  </way>
  <way id="8453954" version="1" timestamp="2007-08-18T23:15:23Z" uid="8807" user="brendanpuck" changeset="229367">
    <nd ref="30348637"/>
    <nd ref="30348638"/>
    <tag k="created_by" v="JOSM"/>
    <tag k="highway" v="primary"/>
    <tag k="name" v="Central Coast Highway"/>
    <tag k="note" v="FIXME previously tagged segment"/>
    <tag k="oneway" v="yes"/>
  </way>
  <way id="8453955" version="1" timestamp="2007-08-18T23:15:25Z" uid="8807" user="brendanpuck" changeset="229367">
    <nd ref="30348638"/>
    <nd ref="30348639"/>
    <tag k="created_by" v="JOSM"/>
    <tag k="highway" v="primary"/>
    <tag k="name" v="Central Coast Highway"/>
    <tag k="note" v="FIXME previously tagged segment"/>
    <tag k="oneway" v="yes"/>
  </way>
  <way id="8453956" version="1" timestamp="2007-08-18T23:15:28Z" uid="8807" user="brendanpuck" changeset="229367">
    <nd ref="30348639"/>
    <nd ref="30348640"/>
    <tag k="created_by" v="JOSM"/>
    <tag k="highway" v="primary"/>
    <tag k="name" v="Central Coast Highway"/>
    <tag k="note" v="FIXME previously tagged segment"/>
    <tag k="oneway" v="yes"/>
  </way>
  <way id="8453957" version="1" timestamp="2007-08-18T23:16:15Z" uid="8807" user="brendanpuck" changeset="229367">
    <nd ref="30348640"/>
    <nd ref="30348641"/>
    <tag k="created_by" v="JOSM"/>
    <tag k="highway" v="primary"/>
    <tag k="name" v="Central Coast Highway"/>
    <tag k="note" v="FIXME previously tagged segment"/>
    <tag k="oneway" v="yes"/>
  </way>
  <way id="8453958" version="1" timestamp="2007-08-18T23:16:13Z" uid="8807" user="brendanpuck" changeset="229367">
    <nd ref="30348641"/>
    <nd ref="30348642"/>
    <tag k="created_by" v="JOSM"/>
    <tag k="highway" v="primary"/>
    <tag k="name" v="Central Coast Highway"/>
    <tag k="note" v="FIXME previously tagged segment"/>
    <tag k="oneway" v="yes"/>
  </way>
  <way id="8453959" version="1" timestamp="2007-08-18T23:16:20Z" uid="8807" user="brendanpuck" changeset="229367">
    <nd ref="30348642"/>
    <nd ref="30348643"/>
    <tag k="created_by" v="JOSM"/>
    <tag k="highway" v="primary"/>
    <tag k="name" v="Central Coast Highway"/>
    <tag k="note" v="FIXME previously tagged segment"/>
    <tag k="oneway" v="yes"/>
  </way>
  <way id="8453960" version="1" timestamp="2007-08-18T23:16:18Z" uid="8807" user="brendanpuck" changeset="229367">
    <nd ref="30348643"/>
    <nd ref="30348644"/>
    <tag k="created_by" v="JOSM"/>
    <tag k="highway" v="primary"/>
    <tag k="name" v="Central Coast Highway"/>
    <tag k="note" v="FIXME previously tagged segment"/>
    <tag k="oneway" v="yes"/>
  </way>
  <way id="8453961" version="1" timestamp="2007-08-18T23:16:04Z" uid="8807" user="brendanpuck" changeset="229367">
    <nd ref="30348644"/>
    <nd ref="30348645"/>
    <tag k="created_by" v="JOSM"/>
    <tag k="highway" v="primary"/>
    <tag k="name" v="Central Coast Highway"/>
    <tag k="note" v="FIXME previously tagged segment"/>
    <tag k="oneway" v="yes"/>
  </way>
  <way id="8453962" version="1" timestamp="2007-08-18T23:16:02Z" uid="8807" user="brendanpuck" changeset="229367">
    <nd ref="30348645"/>
    <nd ref="30348646"/>
    <tag k="created_by" v="JOSM"/>
    <tag k="highway" v="primary"/>
    <tag k="name" v="Central Coast Highway"/>
    <tag k="note" v="FIXME previously tagged segment"/>
    <tag k="oneway" v="yes"/>
  </way>
  <way id="8453963" version="1" timestamp="2007-08-18T23:16:09Z" uid="8807" user="brendanpuck" changeset="229367">
    <nd ref="30348646"/>
    <nd ref="30348647"/>
    <tag k="created_by" v="JOSM"/>
    <tag k="highway" v="primary"/>
    <tag k="name" v="Central Coast Highway"/>
    <tag k="note" v="FIXME previously tagged segment"/>
    <tag k="oneway" v="yes"/>
  </way>
  <way id="8453964" version="1" timestamp="2007-08-18T23:16:07Z" uid="8807" user="brendanpuck" changeset="229367">
    <nd ref="30348647"/>
    <nd ref="30349125"/>
    <tag k="created_by" v="JOSM"/>
    <tag k="highway" v="primary"/>
    <tag k="name" v="Central Coast Highway"/>
    <tag k="note" v="FIXME previously tagged segment"/>
    <tag k="oneway" v="yes"/>
  </way>
  <way id="8453965" version="1" timestamp="2007-08-18T23:15:59Z" uid="8807" user="brendanpuck" changeset="229367">
    <nd ref="30348648"/>
    <nd ref="30348649"/>
    <tag k="created_by" v="JOSM"/>
    <tag k="highway" v="primary"/>
    <tag k="name" v="Central Coast Highway"/>
    <tag k="note" v="FIXME previously tagged segment"/>
    <tag k="oneway" v="yes"/>
  </way>
  <way id="8453966" version="1" timestamp="2007-08-18T23:15:58Z" uid="8807" user="brendanpuck" changeset="229367">
    <nd ref="30348649"/>
    <nd ref="30348650"/>
    <tag k="created_by" v="JOSM"/>
    <tag k="highway" v="primary"/>
    <tag k="name" v="Central Coast Highway"/>
    <tag k="note" v="FIXME previously tagged segment"/>
    <tag k="oneway" v="yes"/>
  </way>
  <way id="8453967" version="1" timestamp="2007-08-18T23:16:01Z" uid="8807" user="brendanpuck" changeset="229367">
    <nd ref="30348650"/>
    <nd ref="30348651"/>
    <tag k="created_by" v="JOSM"/>
    <tag k="highway" v="primary"/>
    <tag k="name" v="Central Coast Highway"/>
    <tag k="note" v="FIXME previously tagged segment"/>
    <tag k="oneway" v="yes"/>
  </way>
  <way id="8453968" version="1" timestamp="2007-08-18T23:14:12Z" uid="8807" user="brendanpuck" changeset="229367">
    <nd ref="30348651"/>
    <nd ref="30348652"/>
    <tag k="created_by" v="JOSM"/>
    <tag k="highway" v="primary"/>
    <tag k="name" v="Central Coast Highway"/>
    <tag k="note" v="FIXME previously tagged segment"/>
    <tag k="oneway" v="yes"/>
  </way>
  <way id="8453969" version="1" timestamp="2007-08-18T23:14:11Z" uid="8807" user="brendanpuck" changeset="229367">
    <nd ref="30348652"/>
    <nd ref="30348653"/>
    <tag k="created_by" v="JOSM"/>
    <tag k="highway" v="primary"/>
    <tag k="name" v="Central Coast Highway"/>
    <tag k="note" v="FIXME previously tagged segment"/>
    <tag k="oneway" v="yes"/>
  </way>
  <way id="8453970" version="1" timestamp="2007-08-18T23:14:15Z" uid="8807" user="brendanpuck" changeset="229367">
    <nd ref="30348653"/>
    <nd ref="30348654"/>
    <tag k="created_by" v="JOSM"/>
    <tag k="highway" v="primary"/>
    <tag k="name" v="Central Coast Highway"/>
    <tag k="note" v="FIXME previously tagged segment"/>
    <tag k="oneway" v="yes"/>
  </way>
  <way id="8453971" version="1" timestamp="2007-08-18T23:14:14Z" uid="8807" user="brendanpuck" changeset="229367">
    <nd ref="30348654"/>
    <nd ref="30348655"/>
    <tag k="created_by" v="JOSM"/>
    <tag k="highway" v="primary"/>
    <tag k="name" v="Central Coast Highway"/>
    <tag k="note" v="FIXME previously tagged segment"/>
    <tag k="oneway" v="yes"/>
  </way>
  <way id="8453972" version="1" timestamp="2007-08-18T23:14:07Z" uid="8807" user="brendanpuck" changeset="229367">
    <nd ref="30348655"/>
    <nd ref="30348656"/>
    <tag k="created_by" v="JOSM"/>
    <tag k="highway" v="primary"/>
    <tag k="name" v="Central Coast Highway"/>
    <tag k="note" v="FIXME previously tagged segment"/>
    <tag k="oneway" v="yes"/>
  </way>
  <way id="8453973" version="1" timestamp="2007-08-18T23:14:06Z" uid="8807" user="brendanpuck" changeset="229367">
    <nd ref="30348656"/>
    <nd ref="30348657"/>
    <tag k="created_by" v="JOSM"/>
    <tag k="highway" v="primary"/>
    <tag k="name" v="Central Coast Highway"/>
    <tag k="note" v="FIXME previously tagged segment"/>
    <tag k="oneway" v="yes"/>
  </way>
  <way id="8453974" version="1" timestamp="2007-08-18T23:14:09Z" uid="8807" user="brendanpuck" changeset="229367">
    <nd ref="30348657"/>
    <nd ref="30348658"/>
    <tag k="created_by" v="JOSM"/>
    <tag k="highway" v="primary"/>
    <tag k="name" v="Central Coast Highway"/>
    <tag k="note" v="FIXME previously tagged segment"/>
    <tag k="oneway" v="yes"/>
  </way>
  <way id="8453975" version="1" timestamp="2007-08-18T23:14:08Z" uid="8807" user="brendanpuck" changeset="229367">
    <nd ref="30348658"/>
    <nd ref="30348661"/>
    <tag k="created_by" v="JOSM"/>
    <tag k="highway" v="primary"/>
    <tag k="name" v="Central Coast Highway"/>
    <tag k="note" v="FIXME previously tagged segment"/>
    <tag k="oneway" v="yes"/>
  </way>
  <way id="8453975" version="2" timestamp="2008-03-17T05:49:28Z" uid="7617" user="Franc" changeset="337753"/>
  <way id="8453976" version="1" timestamp="2007-08-18T23:14:22Z" uid="8807" user="brendanpuck" changeset="229367">
    <nd ref="30348661"/>
    <nd ref="30348667"/>
    <tag k="created_by" v="JOSM"/>
    <tag k="highway" v="primary"/>
    <tag k="name" v="Central Coast Highway"/>
    <tag k="note" v="FIXME previously tagged segment"/>
    <tag k="oneway" v="yes"/>
  </way>
  <way id="8453977" version="1" timestamp="2007-08-18T23:14:21Z" uid="8807" user="brendanpuck" changeset="229367">
    <nd ref="30348667"/>
    <nd ref="30348673"/>
    <tag k="created_by" v="JOSM"/>
    <tag k="highway" v="primary"/>
    <tag k="name" v="Central Coast Highway"/>
    <tag k="note" v="FIXME previously tagged segment"/>
    <tag k="oneway" v="yes"/>
  </way>
  <way id="8453977" version="2" timestamp="2008-03-17T05:49:30Z" uid="7617" user="Franc" changeset="337753"/>
  <way id="8453978" version="1" timestamp="2007-08-18T23:14:25Z" uid="8807" user="brendanpuck" changeset="229367">
    <nd ref="30348673"/>
    <nd ref="30348679"/>
    <tag k="created_by" v="JOSM"/>
    <tag k="highway" v="primary"/>
    <tag k="name" v="Central Coast Highway"/>
    <tag k="note" v="FIXME previously tagged segment"/>
    <tag k="oneway" v="yes"/>
  </way>
  <way id="8453978" version="2" timestamp="2008-03-17T05:49:29Z" uid="7617" user="Franc" changeset="337753"/>
  <way id="8453979" version="1" timestamp="2007-08-18T23:14:23Z" uid="8807" user="brendanpuck" changeset="229367">
    <nd ref="30348679"/>
    <nd ref="30348682"/>
    <tag k="created_by" v="JOSM"/>
    <tag k="highway" v="primary"/>
    <tag k="name" v="Central Coast Highway"/>
    <tag k="note" v="FIXME previously tagged segment"/>
    <tag k="oneway" v="yes"/>
  </way>
  <way id="8453979" version="2" timestamp="2008-03-17T05:49:28Z" uid="7617" user="Franc" changeset="337753"/>
  <way id="8453980" version="1" timestamp="2007-08-18T23:14:17Z" uid="8807" user="brendanpuck" changeset="229367">
    <nd ref="30348682"/>
    <nd ref="30348689"/>
    <tag k="created_by" v="JOSM"/>
    <tag k="highway" v="primary"/>
    <tag k="name" v="Central Coast Highway"/>
    <tag k="note" v="FIXME previously tagged segment"/>
    <tag k="oneway" v="yes"/>
  </way>
  <way id="8453980" version="2" timestamp="2008-03-17T05:49:33Z" uid="7617" user="Franc" changeset="337753"/>
  <way id="8453981" version="1" timestamp="2007-08-18T23:14:16Z" uid="8807" user="brendanpuck" changeset="229367">
    <nd ref="30348689"/>
    <nd ref="30348695"/>
    <tag k="created_by" v="JOSM"/>
    <tag k="highway" v="primary"/>
    <tag k="name" v="Central Coast Highway"/>
    <tag k="note" v="FIXME previously tagged segment"/>
    <tag k="oneway" v="yes"/>
  </way>
  <way id="8453981" version="2" timestamp="2008-03-17T05:49:32Z" uid="7617" user="Franc" changeset="337753"/>
  <way id="8453982" version="1" timestamp="2007-08-18T23:14:20Z" uid="8807" user="brendanpuck" changeset="229367">
    <nd ref="30348695"/>
    <nd ref="30348700"/>
    <tag k="created_by" v="JOSM"/>
    <tag k="highway" v="primary"/>
    <tag k="name" v="Central Coast Highway"/>
    <tag k="note" v="FIXME previously tagged segment"/>
    <tag k="oneway" v="yes"/>
  </way>
  <way id="8453982" version="2" timestamp="2008-03-17T05:49:31Z" uid="7617" user="Franc" changeset="337753"/>
  <way id="8453983" version="1" timestamp="2007-08-18T23:14:19Z" uid="8807" user="brendanpuck" changeset="229367">
    <nd ref="30348700"/>
    <nd ref="30348707"/>
    <tag k="created_by" v="JOSM"/>
    <tag k="highway" v="primary"/>
    <tag k="name" v="Central Coast Highway"/>
    <tag k="note" v="FIXME previously tagged segment"/>
    <tag k="oneway" v="yes"/>
  </way>
  <way id="8453983" version="2" timestamp="2008-03-17T05:49:30Z" uid="7617" user="Franc" changeset="337753"/>
  <way id="8453984" version="1" timestamp="2007-08-18T23:14:01Z" uid="8807" user="brendanpuck" changeset="229367">
    <nd ref="30348707"/>
    <nd ref="30348712"/>
    <tag k="created_by" v="JOSM"/>
    <tag k="highway" v="primary"/>
    <tag k="name" v="Central Coast Highway"/>
    <tag k="note" v="FIXME previously tagged segment"/>
    <tag k="oneway" v="yes"/>
  </way>
  <way id="8453984" version="2" timestamp="2008-03-17T05:49:23Z" uid="7617" user="Franc" changeset="337753"/>
  <way id="8453985" version="1" timestamp="2007-08-18T23:14:02Z" uid="8807" user="brendanpuck" changeset="229367">
    <nd ref="30348712"/>
    <nd ref="34750491"/>
    <tag k="created_by" v="JOSM"/>
    <tag k="highway" v="primary"/>
    <tag k="name" v="Central Coast Highway"/>
    <tag k="note" v="FIXME previously tagged segment"/>
    <tag k="oneway" v="yes"/>
  </way>
  <way id="8453988" version="8" timestamp="2010-10-15T11:58:35Z" uid="7617" user="Franc" changeset="6048572">
    <nd ref="30348588"/>
    <nd ref="30348590"/>
    <nd ref="949931721"/>
    <nd ref="949933481"/>
    <nd ref="949932712"/>
    <tag k="highway" v="primary"/>
    <tag k="maxspeed" v="70"/>
    <tag k="name" v="Pacific Highway"/>
    <tag k="source" v="landsat"/>
  </way>
  <way id="8453989" version="1" timestamp="2007-08-18T23:16:22Z" uid="8807" user="brendanpuck" changeset="229367">
    <nd ref="30349125"/>
    <nd ref="30348648"/>
    <tag k="created_by" v="JOSM"/>
    <tag k="highway" v="primary"/>
    <tag k="name" v="Central Coast Highway"/>
    <tag k="note" v="FIXME previously tagged segment"/>
    <tag k="oneway" v="yes"/>
  </way>
</osm>
