<?xml version='1.0' encoding='UTF-8'?>
<osm version="0.6" generator="libosmium/2.20.0">
  <way id="84530000" version="1" timestamp="2010-11-08T11:34:34Z" uid="115477" user="wowik" changeset="6319684">
    <nd ref="982235418"/>
    <nd ref="982235420"/>
    <nd ref="982235421"/>
    <nd ref="982235422"/>
    <nd ref="982235418"/>
    <tag k="addr:city" v="Зеленоград"/>
    <tag k="addr:housenumber" v="309c1"/>
    <tag k="addr:street" v="3-й Микрорайон"/>
    <tag k="building" v="yes"/>
    <tag k="is_in" v="Russia"/>
    <tag k="landuse" v="service"/>
  </way>
  <way id="84530000" version="3" timestamp="2010-12-20T15:27:50Z" uid="115477" user="wowik" changeset="6716973">
    <nd ref="982235418"/>
    <nd ref="982235420"/>
    <nd ref="982235421"/>
    <nd ref="982235422"/>
    <nd ref="982235418"/>
    <tag k="addr:city" v="Зеленоград"/>
    <tag k="addr:housenumber" v="309с1"/>
    <tag k="addr:street" v="3-й Микрорайон"/>
    <tag k="building" v="yes"/>
    <tag k="building:levels" v="1"/>
    <tag k="is_in" v="Russia"/>
    <tag k="landuse" v="service"/>
  </way>
  <way id="84530000" version="4" timestamp="2011-01-12T16:45:07Z" uid="115477" user="wowik" changeset="6948926">
    <nd ref="982235418"/>
    <nd ref="982235420"/>
    <nd ref="982235421"/>
    <nd ref="982235422"/>
    <nd ref="982235418"/>
    <tag k="addr:city" v="Зеленоград"/>
    <tag k="addr:housenumber" v="309с1"/>
    <tag k="addr:postcode" v="124482"/>
    <tag k="addr:street" v="3-й Микрорайон"/>
    <tag k="building" v="yes"/>
    <tag k="building:levels" v="1"/>
    <tag k="is_in" v="Russia"/>
    <tag k="landuse" v="service"/>
  </way>
  <way id="84530001" version="1" timestamp="2010-11-08T11:34:35Z" uid="115477" user="wowik" changeset="6319684">
    <nd ref="982235426"/>
    <nd ref="982235427"/>
    <nd ref="982235428"/>
    <nd ref="982235431"/>
    <nd ref="982235433"/>
    <nd ref="982235434"/>
    <nd ref="982235426"/>
    <tag k="addr:city" v="Зеленоград"/>
    <tag k="addr:housenumber" v="313c1"/>
    <tag k="addr:street" v="3-й Микрорайон"/>
    <tag k="building" v="yes"/>
    <tag k="is_in" v="Russia"/>
    <tag k="landuse" v="service"/>
  </way>
  <way id="84530001" version="3" timestamp="2010-12-20T15:29:34Z" uid="115477" user="wowik" changeset="6716973">
    <nd ref="982235426"/>
    <nd ref="982235427"/>
    <nd ref="982235428"/>
    <nd ref="982235431"/>
    <nd ref="982235433"/>
    <nd ref="982235434"/>
    <nd ref="982235426"/>
    <tag k="addr:city" v="Зеленоград"/>
    <tag k="addr:housenumber" v="313с1"/>
    <tag k="addr:street" v="3-й Микрорайон"/>
    <tag k="building" v="yes"/>
    <tag k="building:levels" v="1"/>
    <tag k="is_in" v="Russia"/>
    <tag k="landuse" v="service"/>
  </way>
  <way id="84530001" version="4" timestamp="2011-01-12T16:44:37Z" uid="115477" user="wowik" changeset="6948926">
    <nd ref="982235426"/>
    <nd ref="982235427"/>
    <nd ref="982235428"/>
    <nd ref="982235431"/>
    <nd ref="982235433"/>
    <nd ref="982235434"/>
    <nd ref="982235426"/>
    <tag k="addr:city" v="Зеленоград"/>
    <tag k="addr:housenumber" v="313с1"/>
    <tag k="addr:postcode" v="124482"/>
    <tag k="addr:street" v="3-й Микрорайон"/>
    <tag k="building" v="yes"/>
    <tag k="building:levels" v="1"/>
    <tag k="is_in" v="Russia"/>
    <tag k="landuse" v="service"/>
  </way>
  <way id="84530002" version="1" timestamp="2010-11-08T11:34:35Z" uid="115477" user="wowik" changeset="6319684">
    <nd ref="982235440"/>
    <nd ref="982235444"/>
    <nd ref="982235446"/>
    <nd ref="982235447"/>
    <nd ref="982235440"/>
    <tag k="addr:city" v="Зеленоград"/>
    <tag k="addr:housenumber" v="311c1"/>
    <tag k="addr:street" v="3-й Микрорайон"/>
    <tag k="building" v="yes"/>
    <tag k="is_in" v="Russia"/>
    <tag k="landuse" v="service"/>
  </way>
  <way id="84530002" version="2" timestamp="2010-11-08T11:34:56Z" uid="115477" user="wowik" changeset="6319684">
    <nd ref="982235440"/>
    <nd ref="982235444"/>
    <nd ref="982235446"/>
    <nd ref="982235447"/>
    <nd ref="982235440"/>
    <tag k="addr:city" v="Зеленоград"/>
    <tag k="addr:housenumber" v="311c2"/>
    <tag k="addr:street" v="3-й Микрорайон"/>
    <tag k="building" v="yes"/>
    <tag k="is_in" v="Russia"/>
    <tag k="landuse" v="service"/>
  </way>
  <way id="84530002" version="3" timestamp="2010-11-08T11:35:15Z" uid="115477" user="wowik" changeset="6319684">
    <nd ref="982235440"/>
    <nd ref="982235444"/>
    <nd ref="982235446"/>
    <nd ref="982235447"/>
    <nd ref="982235440"/>
    <tag k="addr:city" v="Зеленоград"/>
    <tag k="addr:housenumber" v="3103c2"/>
    <tag k="addr:street" v="3-й Микрорайон"/>
    <tag k="building" v="yes"/>
    <tag k="is_in" v="Russia"/>
    <tag k="landuse" v="service"/>
  </way>
  <way id="84530002" version="5" timestamp="2010-12-20T15:27:49Z" uid="115477" user="wowik" changeset="6716973">
    <nd ref="982235440"/>
    <nd ref="982235444"/>
    <nd ref="982235446"/>
    <nd ref="982235447"/>
    <nd ref="982235440"/>
    <tag k="addr:city" v="Зеленоград"/>
    <tag k="addr:housenumber" v="3103с2"/>
    <tag k="addr:street" v="3-й Микрорайон"/>
    <tag k="building" v="yes"/>
    <tag k="building:levels" v="1"/>
    <tag k="is_in" v="Russia"/>
    <tag k="landuse" v="service"/>
  </way>
  <way id="84530002" version="6" timestamp="2011-01-12T16:45:15Z" uid="115477" user="wowik" changeset="6948926">
    <nd ref="982235440"/>
    <nd ref="982235444"/>
    <nd ref="982235446"/>
    <nd ref="982235447"/>
    <nd ref="982235440"/>
    <tag k="addr:city" v="Зеленоград"/>
    <tag k="addr:housenumber" v="3103с2"/>
    <tag k="addr:postcode" v="124482"/>
    <tag k="addr:street" v="3-й Микрорайон"/>
    <tag k="building" v="yes"/>
    <tag k="building:levels" v="1"/>
    <tag k="is_in" v="Russia"/>
    <tag k="landuse" v="service"/>
  </way>
  <way id="84530002" version="8" timestamp="2011-01-25T18:14:22Z" uid="115477" user="wowik" changeset="7086130">
    <nd ref="982235440"/>
    <nd ref="982235444"/>
    <nd ref="982235446"/>
    <nd ref="982235447"/>
    <nd ref="982235440"/>
    <tag k="addr:city" v="Зеленоград"/>
    <tag k="addr:housenumber" v="303 с2"/>
    <tag k="addr:postcode" v="124482"/>
    <tag k="addr:street" v="3-й Микрорайон"/>
    <tag k="building" v="yes"/>
    <tag k="building:levels" v="1"/>
    <tag k="is_in" v="Russia"/>
    <tag k="landuse" v="service"/>
  </way>
  <way id="84530003" version="1" timestamp="2010-11-08T11:34:37Z" uid="115477" user="wowik" changeset="6319684">
    <nd ref="982235454"/>
    <nd ref="982235463"/>
    <nd ref="982235465"/>
    <nd ref="982235467"/>
    <nd ref="982235454"/>
    <tag k="addr:city" v="Зеленоград"/>
    <tag k="addr:housenumber" v="315c1"/>
    <tag k="addr:street" v="3-й Микрорайон"/>
    <tag k="building" v="yes"/>
    <tag k="is_in" v="Russia"/>
    <tag k="landuse" v="service"/>
  </way>
  <way id="84530003" version="3" timestamp="2010-12-20T15:31:27Z" uid="115477" user="wowik" changeset="6716973">
    <nd ref="982235454"/>
    <nd ref="982235463"/>
    <nd ref="982235465"/>
    <nd ref="982235467"/>
    <nd ref="982235454"/>
    <tag k="addr:city" v="Зеленоград"/>
    <tag k="addr:housenumber" v="315с1"/>
    <tag k="addr:street" v="3-й Микрорайон"/>
    <tag k="building" v="yes"/>
    <tag k="building:levels" v="1"/>
    <tag k="is_in" v="Russia"/>
    <tag k="landuse" v="service"/>
  </way>
  <way id="84530005" version="1" timestamp="2010-11-08T11:34:38Z" uid="115477" user="wowik" changeset="6319684">
    <nd ref="982235485"/>
    <nd ref="982235488"/>
    <nd ref="982235492"/>
    <nd ref="982235494"/>
    <nd ref="982235485"/>
    <tag k="addr:city" v="Зеленоград"/>
    <tag k="addr:housenumber" v="315c3"/>
    <tag k="addr:street" v="3-й Микрорайон"/>
    <tag k="building" v="yes"/>
    <tag k="is_in" v="Russia"/>
    <tag k="landuse" v="service"/>
  </way>
  <way id="84530005" version="3" timestamp="2010-12-20T15:31:25Z" uid="115477" user="wowik" changeset="6716973">
    <nd ref="982235485"/>
    <nd ref="982235488"/>
    <nd ref="982235492"/>
    <nd ref="982235494"/>
    <nd ref="982235485"/>
    <tag k="addr:city" v="Зеленоград"/>
    <tag k="addr:housenumber" v="315с3"/>
    <tag k="addr:street" v="3-й Микрорайон"/>
    <tag k="building" v="yes"/>
    <tag k="building:levels" v="1"/>
    <tag k="is_in" v="Russia"/>
    <tag k="landuse" v="service"/>
  </way>
  <way id="84530005" version="4" timestamp="2011-01-12T16:45:00Z" uid="115477" user="wowik" changeset="6948926">
    <nd ref="982235485"/>
    <nd ref="982235488"/>
    <nd ref="982235492"/>
    <nd ref="982235494"/>
    <nd ref="982235485"/>
    <tag k="addr:city" v="Зеленоград"/>
    <tag k="addr:housenumber" v="315с3"/>
    <tag k="addr:postcode" v="124482"/>
    <tag k="addr:street" v="3-й Микрорайон"/>
    <tag k="building" v="yes"/>
    <tag k="building:levels" v="1"/>
    <tag k="is_in" v="Russia"/>
    <tag k="landuse" v="service"/>
  </way>
  <way id="84530006" version="1" timestamp="2010-11-08T11:34:42Z" uid="115477" user="wowik" changeset="6319684">
    <nd ref="982235613"/>
    <nd ref="982235614"/>
    <nd ref="982235616"/>
    <nd ref="982235618"/>
    <nd ref="982235613"/>
    <tag k="addr:city" v="Зеленоград"/>
    <tag k="addr:housenumber" v="361c1"/>
    <tag k="addr:street" v="3-й Микрорайон"/>
    <tag k="amenity" v="shop"/>
    <tag k="building" v="yes"/>
    <tag k="is_in" v="Russia"/>
    <tag k="shop" v="convenience"/>
  </way>
  <way id="84530006" version="3" timestamp="2010-12-20T15:27:50Z" uid="115477" user="wowik" changeset="6716973">
    <nd ref="982235613"/>
    <nd ref="982235614"/>
    <nd ref="982235616"/>
    <nd ref="982235618"/>
    <nd ref="982235613"/>
    <tag k="addr:city" v="Зеленоград"/>
    <tag k="addr:housenumber" v="361с1"/>
    <tag k="addr:street" v="3-й Микрорайон"/>
    <tag k="amenity" v="shop"/>
    <tag k="building" v="yes"/>
    <tag k="building:levels" v="1"/>
    <tag k="is_in" v="Russia"/>
    <tag k="shop" v="convenience"/>
  </way>
  <way id="84530006" version="4" timestamp="2011-01-12T16:45:37Z" uid="115477" user="wowik" changeset="6948926">
    <nd ref="982235613"/>
    <nd ref="982235614"/>
    <nd ref="982235616"/>
    <nd ref="982235618"/>
    <nd ref="982235613"/>
    <tag k="addr:city" v="Зеленоград"/>
    <tag k="addr:housenumber" v="361с1"/>
    <tag k="addr:postcode" v="124482"/>
    <tag k="addr:street" v="3-й Микрорайон"/>
    <tag k="amenity" v="shop"/>
    <tag k="building" v="yes"/>
    <tag k="building:levels" v="1"/>
    <tag k="is_in" v="Russia"/>
    <tag k="shop" v="convenience"/>
  </way>
  <way id="84530109" version="1" timestamp="2010-11-08T11:40:18Z" uid="115477" user="wowik" changeset="6319684">
    <nd ref="982244440"/>
    <nd ref="982244443"/>
    <nd ref="982244445"/>
    <nd ref="982244447"/>
    <nd ref="982244440"/>
    <tag k="addr:city" v="Зеленоград"/>
    <tag k="addr:street" v="3-й Микрорайон"/>
    <tag k="building" v="yes"/>
    <tag k="is_in" v="Russia"/>
    <tag k="landuse" v="service"/>
  </way>
  <way id="84530109" version="2" timestamp="2010-12-20T15:25:30Z" uid="115477" user="wowik" changeset="6716973">
    <nd ref="982244440"/>
    <nd ref="982244443"/>
    <nd ref="982244445"/>
    <nd ref="982244447"/>
    <nd ref="982244440"/>
    <tag k="addr:city" v="Зеленоград"/>
    <tag k="addr:street" v="3-й Микрорайон"/>
    <tag k="building" v="yes"/>
    <tag k="building:levels" v="1"/>
    <tag k="is_in" v="Russia"/>
    <tag k="landuse" v="service"/>
  </way>
  <way id="84530109" version="3" timestamp="2011-01-12T16:45:02Z" uid="115477" user="wowik" changeset="6948926">
    <nd ref="982244440"/>
    <nd ref="982244443"/>
    <nd ref="982244445"/>
    <nd ref="982244447"/>
    <nd ref="982244440"/>
    <tag k="addr:city" v="Зеленоград"/>
    <tag k="addr:postcode" v="124482"/>
    <tag k="addr:street" v="3-й Микрорайон"/>
    <tag k="building" v="yes"/>
    <tag k="building:levels" v="1"/>
    <tag k="is_in" v="Russia"/>
    <tag k="landuse" v="service"/>
  </way>
  <way id="84530110" version="1" timestamp="2010-11-08T11:40:18Z" uid="115477" user="wowik" changeset="6319684">
    <nd ref="982244453"/>
    <nd ref="982244454"/>
    <nd ref="982244456"/>
    <nd ref="982244457"/>
    <nd ref="982244453"/>
    <tag k="addr:city" v="Зеленоград"/>
    <tag k="addr:housenumber" v="363c1"/>
    <tag k="addr:street" v="3-й Микрорайон"/>
    <tag k="amenity" v="shop"/>
    <tag k="building" v="yes"/>
    <tag k="is_in" v="Russia"/>
    <tag k="shop" v="convenience"/>
  </way>
  <way id="84530110" version="3" timestamp="2010-12-20T15:25:29Z" uid="115477" user="wowik" changeset="6716973">
    <nd ref="982244453"/>
    <nd ref="982244454"/>
    <nd ref="982244456"/>
    <nd ref="982244457"/>
    <nd ref="982244453"/>
    <tag k="addr:city" v="Зеленоград"/>
    <tag k="addr:housenumber" v="363с1"/>
    <tag k="addr:street" v="3-й Микрорайон"/>
    <tag k="amenity" v="shop"/>
    <tag k="building" v="yes"/>
    <tag k="building:levels" v="1"/>
    <tag k="is_in" v="Russia"/>
    <tag k="shop" v="convenience"/>
  </way>
  <way id="84530111" version="1" timestamp="2010-11-08T11:40:19Z" uid="115477" user="wowik" changeset="6319684">
    <nd ref="982244474"/>
    <nd ref="982244477"/>
    <nd ref="982244481"/>
    <nd ref="982244485"/>
    <nd ref="982244474"/>
    <tag k="addr:city" v="Зеленоград"/>
    <tag k="addr:housenumber" v="3605c1"/>
    <tag k="addr:street" v="3-й Микрорайон"/>
    <tag k="building" v="yes"/>
    <tag k="is_in" v="Russia"/>
    <tag k="landuse" v="service"/>
  </way>
  <way id="84530111" version="2" timestamp="2010-11-09T12:12:19Z" uid="115477" user="wowik" changeset="6327211">
    <nd ref="982244474"/>
    <nd ref="982244477"/>
    <nd ref="982244481"/>
    <nd ref="982244485"/>
    <nd ref="982244474"/>
    <tag k="addr:city" v="Зеленоград"/>
    <tag k="addr:housenumber" v="305c1"/>
    <tag k="addr:street" v="3-й Микрорайон"/>
    <tag k="building" v="yes"/>
    <tag k="is_in" v="Russia"/>
    <tag k="landuse" v="service"/>
  </way>
  <way id="84530111" version="4" timestamp="2010-12-20T15:25:29Z" uid="115477" user="wowik" changeset="6716973">
    <nd ref="982244474"/>
    <nd ref="982244477"/>
    <nd ref="982244481"/>
    <nd ref="982244485"/>
    <nd ref="982244474"/>
    <tag k="addr:city" v="Зеленоград"/>
    <tag k="addr:housenumber" v="305с1"/>
    <tag k="addr:street" v="3-й Микрорайон"/>
    <tag k="building" v="yes"/>
    <tag k="building:levels" v="1"/>
    <tag k="is_in" v="Russia"/>
    <tag k="landuse" v="service"/>
  </way>
  <way id="84530184" version="1" timestamp="2010-11-08T11:44:33Z" uid="115477" user="wowik" changeset="6319684">
    <nd ref="982250587"/>
    <nd ref="982250589"/>
    <nd ref="982250593"/>
    <nd ref="982250595"/>
    <nd ref="982250587"/>
    <tag k="addr:city" v="Зеленоград"/>
    <tag k="addr:street" v="3-й Микрорайон"/>
    <tag k="building" v="yes"/>
    <tag k="is_in" v="Russia"/>
    <tag k="landuse" v="service"/>
  </way>
  <way id="84530184" version="2" timestamp="2010-12-20T15:31:24Z" uid="115477" user="wowik" changeset="6716973">
    <nd ref="982250587"/>
    <nd ref="982250589"/>
    <nd ref="982250593"/>
    <nd ref="982250595"/>
    <nd ref="982250587"/>
    <tag k="addr:city" v="Зеленоград"/>
    <tag k="addr:street" v="3-й Микрорайон"/>
    <tag k="building" v="yes"/>
    <tag k="building:levels" v="1"/>
    <tag k="is_in" v="Russia"/>
    <tag k="landuse" v="service"/>
  </way>
  <way id="84530184" version="3" timestamp="2011-01-12T16:45:25Z" uid="115477" user="wowik" changeset="6948926">
    <nd ref="982250587"/>
    <nd ref="982250589"/>
    <nd ref="982250593"/>
    <nd ref="982250595"/>
    <nd ref="982250587"/>
    <tag k="addr:city" v="Зеленоград"/>
    <tag k="addr:postcode" v="124482"/>
    <tag k="addr:street" v="3-й Микрорайон"/>
    <tag k="building" v="yes"/>
    <tag k="building:levels" v="1"/>
    <tag k="is_in" v="Russia"/>
    <tag k="landuse" v="service"/>
  </way>
  <way id="84530185" version="1" timestamp="2010-11-08T11:44:33Z" uid="115477" user="wowik" changeset="6319684">
    <nd ref="982250607"/>
    <nd ref="982250612"/>
    <tag k="highway" v="service"/>
    <tag k="living_street" v="yes"/>
  </way>
  <way id="84530276" version="1" timestamp="2010-11-08T11:47:49Z" uid="115477" user="wowik" changeset="6319684">
    <nd ref="982256810"/>
    <nd ref="982256817"/>
    <nd ref="982256829"/>
    <nd ref="982256840"/>
    <nd ref="982256810"/>
    <tag k="addr:city" v="Зеленоград"/>
    <tag k="addr:housenumber" v="339Г"/>
    <tag k="addr:street" v="3-й Микрорайон"/>
    <tag k="building" v="yes"/>
    <tag k="building:levels" v="1"/>
    <tag k="is_in" v="Russia"/>
  </way>
  <way id="84530276" version="2" timestamp="2011-01-12T16:45:36Z" uid="115477" user="wowik" changeset="6948926">
    <nd ref="982256810"/>
    <nd ref="982256817"/>
    <nd ref="982256829"/>
    <nd ref="982256840"/>
    <nd ref="982256810"/>
    <tag k="addr:city" v="Зеленоград"/>
    <tag k="addr:housenumber" v="339Г"/>
    <tag k="addr:postcode" v="124482"/>
    <tag k="addr:street" v="3-й Микрорайон"/>
    <tag k="building" v="yes"/>
    <tag k="building:levels" v="1"/>
    <tag k="is_in" v="Russia"/>
  </way>
  <way id="84530279" version="1" timestamp="2010-11-08T11:47:50Z" uid="115477" user="wowik" changeset="6319684">
    <nd ref="982256895"/>
    <nd ref="982256901"/>
    <nd ref="982256908"/>
    <nd ref="982256913"/>
    <nd ref="982256895"/>
    <tag k="addr:city" v="Зеленоград"/>
    <tag k="addr:housenumber" v="359с1"/>
    <tag k="addr:street" v="3-й Микрорайон"/>
    <tag k="building" v="yes"/>
    <tag k="building:levels" v="1"/>
    <tag k="is_in" v="Russia"/>
  </way>
  <way id="84530279" version="2" timestamp="2011-01-12T16:45:19Z" uid="115477" user="wowik" changeset="6948926">
    <nd ref="982256895"/>
    <nd ref="982256901"/>
    <nd ref="982256908"/>
    <nd ref="982256913"/>
    <nd ref="982256895"/>
    <tag k="addr:city" v="Зеленоград"/>
    <tag k="addr:housenumber" v="359с1"/>
    <tag k="addr:postcode" v="124482"/>
    <tag k="addr:street" v="3-й Микрорайон"/>
    <tag k="building" v="yes"/>
    <tag k="building:levels" v="1"/>
    <tag k="is_in" v="Russia"/>
  </way>
  <way id="84530280" version="1" timestamp="2010-11-08T11:47:51Z" uid="115477" user="wowik" changeset="6319684">
    <nd ref="982256950"/>
    <nd ref="982256957"/>
    <nd ref="982256963"/>
    <nd ref="982256969"/>
    <nd ref="982256950"/>
    <tag k="addr:city" v="Зеленоград"/>
    <tag k="addr:housenumber" v="340А"/>
    <tag k="addr:street" v="3-й Микрорайон"/>
    <tag k="building" v="yes"/>
    <tag k="building:levels" v="1"/>
    <tag k="is_in" v="Russia"/>
  </way>
  <way id="84530280" version="2" timestamp="2011-01-12T16:44:52Z" uid="115477" user="wowik" changeset="6948926">
    <nd ref="982256950"/>
    <nd ref="982256957"/>
    <nd ref="982256963"/>
    <nd ref="982256969"/>
    <nd ref="982256950"/>
    <tag k="addr:city" v="Зеленоград"/>
    <tag k="addr:housenumber" v="340А"/>
    <tag k="addr:postcode" v="124482"/>
    <tag k="addr:street" v="3-й Микрорайон"/>
    <tag k="building" v="yes"/>
    <tag k="building:levels" v="1"/>
    <tag k="is_in" v="Russia"/>
  </way>
  <way id="84530542" version="1" timestamp="2010-11-08T11:52:04Z" uid="115477" user="wowik" changeset="6319684">
    <nd ref="982262269"/>
    <nd ref="982262273"/>
    <nd ref="982262279"/>
    <nd ref="982262280"/>
    <nd ref="982262269"/>
    <tag k="addr:city" v="Зеленоград"/>
    <tag k="addr:housenumber" v="342с1"/>
    <tag k="addr:street" v="3-й Микрорайон"/>
    <tag k="building" v="yes"/>
    <tag k="building:levels" v="1"/>
    <tag k="is_in" v="Russia"/>
    <tag k="landuse" v="service"/>
  </way>
  <way id="84530542" version="2" timestamp="2011-01-12T16:44:41Z" uid="115477" user="wowik" changeset="6948926">
    <nd ref="982262269"/>
    <nd ref="982262273"/>
    <nd ref="982262279"/>
    <nd ref="982262280"/>
    <nd ref="982262269"/>
    <tag k="addr:city" v="Зеленоград"/>
    <tag k="addr:housenumber" v="342с1"/>
    <tag k="addr:postcode" v="124482"/>
    <tag k="addr:street" v="3-й Микрорайон"/>
    <tag k="building" v="yes"/>
    <tag k="building:levels" v="1"/>
    <tag k="is_in" v="Russia"/>
    <tag k="landuse" v="service"/>
  </way>
  <way id="84530543" version="1" timestamp="2010-11-08T11:52:05Z" uid="115477" user="wowik" changeset="6319684">
    <nd ref="982262284"/>
    <nd ref="982262289"/>
    <nd ref="982262291"/>
    <nd ref="982262294"/>
    <nd ref="982262284"/>
    <tag k="addr:city" v="Зеленоград"/>
    <tag k="addr:housenumber" v="343с1"/>
    <tag k="addr:street" v="3-й Микрорайон"/>
    <tag k="building" v="yes"/>
    <tag k="building:levels" v="1"/>
    <tag k="is_in" v="Russia"/>
    <tag k="landuse" v="service"/>
  </way>
  <way id="84530543" version="2" timestamp="2011-01-12T16:45:20Z" uid="115477" user="wowik" changeset="6948926">
    <nd ref="982262284"/>
    <nd ref="982262289"/>
    <nd ref="982262291"/>
    <nd ref="982262294"/>
    <nd ref="982262284"/>
    <tag k="addr:city" v="Зеленоград"/>
    <tag k="addr:housenumber" v="343с1"/>
    <tag k="addr:postcode" v="124482"/>
    <tag k="addr:street" v="3-й Микрорайон"/>
    <tag k="building" v="yes"/>
    <tag k="building:levels" v="1"/>
    <tag k="is_in" v="Russia"/>
    <tag k="landuse" v="service"/>
  </way>
  <way id="84530545" version="1" timestamp="2010-11-08T11:52:06Z" uid="115477" user="wowik" changeset="6319684">
    <nd ref="982262313"/>
    <nd ref="982262314"/>
    <nd ref="982262316"/>
    <nd ref="982262317"/>
    <nd ref="982262313"/>
    <tag k="addr:city" v="Зеленоград"/>
    <tag k="addr:housenumber" v="353с1"/>
    <tag k="addr:street" v="3-й Микрорайон"/>
    <tag k="building" v="yes"/>
    <tag k="building:levels" v="1"/>
    <tag k="is_in" v="Russia"/>
    <tag k="landuse" v="service"/>
  </way>
  <way id="84530545" version="2" timestamp="2011-01-12T16:45:28Z" uid="115477" user="wowik" changeset="6948926">
    <nd ref="982262313"/>
    <nd ref="982262314"/>
    <nd ref="982262316"/>
    <nd ref="982262317"/>
    <nd ref="982262313"/>
    <tag k="addr:city" v="Зеленоград"/>
    <tag k="addr:housenumber" v="353с1"/>
    <tag k="addr:postcode" v="124482"/>
    <tag k="addr:street" v="3-й Микрорайон"/>
    <tag k="building" v="yes"/>
    <tag k="building:levels" v="1"/>
    <tag k="is_in" v="Russia"/>
    <tag k="landuse" v="service"/>
  </way>
  <way id="84530546" version="1" timestamp="2010-11-08T11:52:06Z" uid="115477" user="wowik" changeset="6319684">
    <nd ref="982262320"/>
    <nd ref="982262322"/>
    <nd ref="982262323"/>
    <nd ref="982262327"/>
    <nd ref="982262320"/>
    <tag k="addr:city" v="Зеленоград"/>
    <tag k="addr:housenumber" v="348Г"/>
    <tag k="addr:street" v="3-й Микрорайон"/>
    <tag k="building" v="yes"/>
    <tag k="building:levels" v="1"/>
    <tag k="is_in" v="Russia"/>
    <tag k="landuse" v="service"/>
  </way>
  <way id="84530546" version="2" timestamp="2011-01-12T16:45:01Z" uid="115477" user="wowik" changeset="6948926">
    <nd ref="982262320"/>
    <nd ref="982262322"/>
    <nd ref="982262323"/>
    <nd ref="982262327"/>
    <nd ref="982262320"/>
    <tag k="addr:city" v="Зеленоград"/>
    <tag k="addr:housenumber" v="348Г"/>
    <tag k="addr:postcode" v="124482"/>
    <tag k="addr:street" v="3-й Микрорайон"/>
    <tag k="building" v="yes"/>
    <tag k="building:levels" v="1"/>
    <tag k="is_in" v="Russia"/>
    <tag k="landuse" v="service"/>
  </way>
  <way id="84530736" version="1" timestamp="2010-11-08T12:01:00Z" uid="115477" user="wowik" changeset="6319974">
    <nd ref="982271510"/>
    <nd ref="982271516"/>
    <nd ref="982271519"/>
    <nd ref="982271523"/>
    <nd ref="982271510"/>
    <tag k="addr:city" v="Зеленоград"/>
    <tag k="addr:housenumber" v="347А"/>
    <tag k="addr:street" v="3-й Микрорайон"/>
    <tag k="building" v="yes"/>
    <tag k="building:levels" v="1"/>
    <tag k="is_in" v="Russia"/>
  </way>
  <way id="84530736" version="2" timestamp="2011-01-12T16:44:47Z" uid="115477" user="wowik" changeset="6948926">
    <nd ref="982271510"/>
    <nd ref="982271516"/>
    <nd ref="982271519"/>
    <nd ref="982271523"/>
    <nd ref="982271510"/>
    <tag k="addr:city" v="Зеленоград"/>
    <tag k="addr:housenumber" v="347А"/>
    <tag k="addr:postcode" v="124482"/>
    <tag k="addr:street" v="3-й Микрорайон"/>
    <tag k="building" v="yes"/>
    <tag k="building:levels" v="1"/>
    <tag k="is_in" v="Russia"/>
  </way>
  <way id="84530739" version="1" timestamp="2010-11-08T12:01:02Z" uid="115477" user="wowik" changeset="6319974">
    <nd ref="982271546"/>
    <nd ref="982271552"/>
    <nd ref="982271557"/>
    <nd ref="982271561"/>
    <nd ref="982271546"/>
    <tag k="addr:city" v="Зеленоград"/>
    <tag k="addr:housenumber" v="344Ас1"/>
    <tag k="addr:street" v="3-й Микрорайон"/>
    <tag k="building" v="yes"/>
    <tag k="building:levels" v="1"/>
    <tag k="is_in" v="Russia"/>
  </way>
  <way id="84530739" version="2" timestamp="2011-01-12T16:45:33Z" uid="115477" user="wowik" changeset="6948926">
    <nd ref="982271546"/>
    <nd ref="982271552"/>
    <nd ref="982271557"/>
    <nd ref="982271561"/>
    <nd ref="982271546"/>
    <tag k="addr:city" v="Зеленоград"/>
    <tag k="addr:housenumber" v="344Ас1"/>
    <tag k="addr:postcode" v="124482"/>
    <tag k="addr:street" v="3-й Микрорайон"/>
    <tag k="building" v="yes"/>
    <tag k="building:levels" v="1"/>
    <tag k="is_in" v="Russia"/>
  </way>
  <way id="84530740" version="1" timestamp="2010-11-08T12:01:02Z" uid="115477" user="wowik" changeset="6319974">
    <nd ref="982271574"/>
    <nd ref="982271576"/>
    <nd ref="982271580"/>
    <nd ref="982271585"/>
    <nd ref="982271574"/>
    <tag k="addr:city" v="Зеленоград"/>
    <tag k="addr:housenumber" v="347с1"/>
    <tag k="addr:street" v="3-й Микрорайон"/>
    <tag k="building" v="yes"/>
    <tag k="building:levels" v="1"/>
    <tag k="is_in" v="Russia"/>
  </way>
  <way id="84530740" version="2" timestamp="2011-01-12T16:45:06Z" uid="115477" user="wowik" changeset="6948926">
    <nd ref="982271574"/>
    <nd ref="982271576"/>
    <nd ref="982271580"/>
    <nd ref="982271585"/>
    <nd ref="982271574"/>
    <tag k="addr:city" v="Зеленоград"/>
    <tag k="addr:housenumber" v="347с1"/>
    <tag k="addr:postcode" v="124482"/>
    <tag k="addr:street" v="3-й Микрорайон"/>
    <tag k="building" v="yes"/>
    <tag k="building:levels" v="1"/>
    <tag k="is_in" v="Russia"/>
  </way>
  <way id="84530779" version="1" timestamp="2010-11-08T12:03:45Z" uid="115477" user="wowik" changeset="6319974">
    <nd ref="982277045"/>
    <nd ref="982277048"/>
    <nd ref="982277050"/>
    <nd ref="982277054"/>
    <nd ref="982277045"/>
    <tag k="addr:city" v="Зеленоград"/>
    <tag k="addr:street" v="3-й Микрорайон"/>
    <tag k="building" v="yes"/>
    <tag k="is_in" v="Russia"/>
    <tag k="landuse" v="service"/>
  </way>
  <way id="84530779" version="2" timestamp="2010-12-20T15:31:28Z" uid="115477" user="wowik" changeset="6716973">
    <nd ref="982277045"/>
    <nd ref="982277048"/>
    <nd ref="982277050"/>
    <nd ref="982277054"/>
    <nd ref="982277045"/>
    <tag k="addr:city" v="Зеленоград"/>
    <tag k="addr:street" v="3-й Микрорайон"/>
    <tag k="building" v="yes"/>
    <tag k="building:levels" v="1"/>
    <tag k="is_in" v="Russia"/>
    <tag k="landuse" v="service"/>
  </way>
  <way id="84530779" version="3" timestamp="2011-01-12T16:45:30Z" uid="115477" user="wowik" changeset="6948926">
    <nd ref="982277045"/>
    <nd ref="982277048"/>
    <nd ref="982277050"/>
    <nd ref="982277054"/>
    <nd ref="982277045"/>
    <tag k="addr:city" v="Зеленоград"/>
    <tag k="addr:postcode" v="124482"/>
    <tag k="addr:street" v="3-й Микрорайон"/>
    <tag k="building" v="yes"/>
    <tag k="building:levels" v="1"/>
    <tag k="is_in" v="Russia"/>
    <tag k="landuse" v="service"/>
  </way>
  <way id="84530779" version="4" timestamp="2011-01-25T18:40:31Z" uid="115477" user="wowik" changeset="7086415">
    <nd ref="982277045"/>
    <nd ref="982277048"/>
    <nd ref="982277050"/>
    <nd ref="982277054"/>
    <nd ref="982277045"/>
    <tag k="addr:city" v="Зеленоград"/>
    <tag k="addr:housenumber" v="317А с9"/>
    <tag k="addr:postcode" v="124482"/>
    <tag k="addr:street" v="3-й Микрорайон"/>
    <tag k="building" v="yes"/>
    <tag k="building:levels" v="1"/>
    <tag k="is_in" v="Russia"/>
    <tag k="landuse" v="service"/>
    <tag k="note" v="addr:housenumber нeточен"/>
  </way>
  <way id="84530781" version="1" timestamp="2010-11-08T12:03:45Z" uid="115477" user="wowik" changeset="6319974">
    <nd ref="982277061"/>
    <nd ref="982277066"/>
    <nd ref="982277070"/>
    <nd ref="982277071"/>
    <nd ref="982277073"/>
    <nd ref="982277061"/>
    <tag k="barrier" v="fence"/>
  </way>
  <way id="84530781" version="2" timestamp="2010-11-09T13:14:28Z" uid="115477" user="wowik" changeset="6327211">
    <nd ref="982277061"/>
    <nd ref="983353397"/>
    <nd ref="983353390"/>
    <nd ref="982277066"/>
    <nd ref="982277070"/>
    <nd ref="983353402"/>
    <nd ref="982277071"/>
    <nd ref="982277073"/>
    <nd ref="982277061"/>
    <tag k="barrier" v="fence"/>
  </way>
</osm>
