<?xml version='1.0' encoding='UTF-8'?>
<osm version="0.6" generator="libosmium/2.20.0">
  <way id="84542411" version="1" timestamp="2010-11-08T13:49:06Z" uid="115477" user="wowik" changeset="6319974">
    <nd ref="982369417"/>
    <nd ref="982369420"/>
    <nd ref="982369421"/>
    <nd ref="982369423"/>
    <nd ref="982369417"/>
    <tag k="barrier" v="fence"/>
  </way>
  <way id="84542412" version="1" timestamp="2010-11-08T13:49:06Z" uid="115477" user="wowik" changeset="6319974">
    <nd ref="982369426"/>
    <nd ref="982369427"/>
    <nd ref="982369429"/>
    <nd ref="982369431"/>
    <nd ref="982369426"/>
    <tag k="barrier" v="fence"/>
  </way>
  <way id="84542413" version="1" timestamp="2010-11-08T13:49:06Z" uid="115477" user="wowik" changeset="6319974">
    <nd ref="982369412"/>
    <nd ref="982369439"/>
    <tag k="foot" v="yes"/>
    <tag k="highway" v="footway"/>
  </way>
  <way id="84542415" version="1" timestamp="2010-11-08T13:49:07Z" uid="115477" user="wowik" changeset="6319974">
    <nd ref="982369445"/>
    <nd ref="982369447"/>
    <nd ref="982369449"/>
    <nd ref="982369451"/>
    <nd ref="982369445"/>
    <tag k="addr:city" v="Зеленоград"/>
    <tag k="addr:housenumber" v="426Б"/>
    <tag k="addr:street" v="4-й Микрорайон"/>
    <tag k="building" v="yes"/>
    <tag k="is_in" v="Russia"/>
    <tag k="landuse" v="service"/>
  </way>
  <way id="84542416" version="1" timestamp="2010-11-08T13:49:07Z" uid="115477" user="wowik" changeset="6319974">
    <nd ref="982369456"/>
    <nd ref="982369458"/>
    <nd ref="982369459"/>
    <nd ref="982369460"/>
    <nd ref="982369456"/>
    <tag k="addr:city" v="Зеленоград"/>
    <tag k="addr:housenumber" v="447с1"/>
    <tag k="addr:street" v="4-й Микрорайон"/>
    <tag k="building" v="yes"/>
    <tag k="is_in" v="Russia"/>
    <tag k="landuse" v="service"/>
  </way>
  <way id="84542508" version="1" timestamp="2010-11-08T13:50:15Z" uid="115477" user="wowik" changeset="6319974">
    <nd ref="524077324"/>
    <nd ref="451946061"/>
    <nd ref="451946503"/>
    <nd ref="522504304"/>
    <tag k="bicycle" v="yes"/>
    <tag k="foot" v="yes"/>
    <tag k="highway" v="footway"/>
    <tag k="living_street" v="yes"/>
    <tag k="motorcar" v="no"/>
    <tag k="surface" v="paved"/>
  </way>
</osm>
