<?xml version='1.0' encoding='UTF-8'?>
<osm version="0.6" generator="libosmium/2.20.0">
  <way id="84540032" version="1" timestamp="2010-11-08T13:35:05Z" uid="115477" user="wowik" changeset="6319974">
    <nd ref="982355361"/>
    <nd ref="982355366"/>
    <nd ref="982355372"/>
    <nd ref="982355373"/>
    <nd ref="982355361"/>
    <tag k="building" v="yes"/>
    <tag k="leisure" v="sports_centre"/>
    <tag k="name" v="ФОК"/>
  </way>
  <way id="84540032" version="2" timestamp="2010-11-08T13:37:39Z" uid="115477" user="wowik" changeset="6319974">
    <nd ref="982355361"/>
    <nd ref="982355366"/>
    <nd ref="982355372"/>
    <nd ref="982355373"/>
    <nd ref="982355361"/>
    <tag k="addr:city" v="Зеленоград"/>
    <tag k="addr:housenumber" v="443"/>
    <tag k="addr:street" v="4-й Микрорайон"/>
    <tag k="building" v="yes"/>
    <tag k="is_in" v="Russia"/>
    <tag k="leisure" v="sports_centre"/>
    <tag k="name" v="ФОК &quot;Юность&quot;"/>
    <tag k="sport" v="fencing"/>
  </way>
  <way id="84540032" version="3" timestamp="2010-11-08T13:39:41Z" uid="115477" user="wowik" changeset="6319974">
    <nd ref="982355361"/>
    <nd ref="982355366"/>
    <nd ref="982355372"/>
    <nd ref="982355373"/>
    <nd ref="982355361"/>
    <tag k="addr:city" v="Зеленоград"/>
    <tag k="addr:housenumber" v="443"/>
    <tag k="addr:street" v="4-й Микрорайон"/>
    <tag k="building" v="yes"/>
    <tag k="is_in" v="Russia"/>
    <tag k="leisure" v="sports_centre"/>
    <tag k="name" v="ФОК &quot;Юность&quot;"/>
    <tag k="sport" v="fencing,boxing,weight lifting"/>
  </way>
  <way id="84540032" version="4" timestamp="2010-11-08T13:40:04Z" uid="115477" user="wowik" changeset="6319974">
    <nd ref="982355361"/>
    <nd ref="982355366"/>
    <nd ref="982355372"/>
    <nd ref="982355373"/>
    <nd ref="982355361"/>
    <tag k="addr:city" v="Зеленоград"/>
    <tag k="addr:housenumber" v="443"/>
    <tag k="addr:street" v="4-й Микрорайон"/>
    <tag k="amenity" v="school"/>
    <tag k="building" v="yes"/>
    <tag k="is_in" v="Russia"/>
    <tag k="leisure" v="sports_centre"/>
    <tag k="name" v="ФОК &quot;Юность&quot;"/>
    <tag k="sport" v="fencing,boxing,weight lifting"/>
  </way>
  <way id="84540032" version="5" timestamp="2010-12-20T14:49:10Z" uid="115477" user="wowik" changeset="6716627">
    <nd ref="982355361"/>
    <nd ref="982355366"/>
    <nd ref="982355372"/>
    <nd ref="982355373"/>
    <nd ref="982355361"/>
    <tag k="addr:city" v="Зеленоград"/>
    <tag k="addr:housenumber" v="443"/>
    <tag k="addr:street" v="4-й Микрорайон"/>
    <tag k="amenity" v="school"/>
    <tag k="building" v="yes"/>
    <tag k="building:levels" v="3"/>
    <tag k="is_in" v="Russia"/>
    <tag k="leisure" v="sports_centre"/>
    <tag k="name" v="ФОК &quot;Юность&quot;"/>
    <tag k="sport" v="fencing,boxing,weight lifting"/>
  </way>
</osm>
