<?xml version='1.0' encoding='UTF-8'?>
<osm version="0.6" generator="libosmium/2.20.0">
  <way id="84623132" version="3" timestamp="2010-12-19T23:23:37Z" uid="6269" user="Mueck" changeset="6711092">
    <nd ref="29764682"/>
    <nd ref="295712841"/>
    <nd ref="29764677"/>
    <nd ref="988572530"/>
    <nd ref="29764484"/>
    <nd ref="1050228843"/>
    <nd ref="29764483"/>
    <nd ref="416974475"/>
    <tag k="highway" v="secondary"/>
    <tag k="name" v="Hauptstraße"/>
    <tag k="ref" v="L 121"/>
  </way>
  <way id="84623687" version="1" timestamp="2010-11-09T08:23:54Z" uid="115477" user="wowik" changeset="6325744">
    <nd ref="983105154"/>
    <nd ref="983105354"/>
    <nd ref="983105292"/>
    <nd ref="983105071"/>
    <nd ref="983105154"/>
    <tag k="addr:city" v="Зеленоград"/>
    <tag k="addr:housenumber" v="3с2"/>
    <tag k="addr:street" v="Панфиловский проспект"/>
    <tag k="building" v="yes"/>
    <tag k="is_in" v="Russia"/>
  </way>
  <way id="84623688" version="1" timestamp="2010-11-09T08:23:55Z" uid="115477" user="wowik" changeset="6325744">
    <nd ref="983105139"/>
    <nd ref="983105085"/>
    <nd ref="983105276"/>
    <nd ref="983105217"/>
    <nd ref="983105139"/>
    <tag k="addr:city" v="Зеленоград"/>
    <tag k="addr:street" v="1-й Микрорайон"/>
    <tag k="building" v="yes"/>
    <tag k="is_in" v="Russia"/>
    <tag k="landuse" v="service"/>
  </way>
  <way id="84623689" version="1" timestamp="2010-11-09T08:23:55Z" uid="115477" user="wowik" changeset="6325744">
    <nd ref="983105074"/>
    <nd ref="983105267"/>
    <nd ref="983105198"/>
    <nd ref="983104986"/>
    <nd ref="983105074"/>
    <tag k="addr:city" v="Зеленоград"/>
    <tag k="addr:housenumber" v="7"/>
    <tag k="addr:street" v="Панфиловский проспект"/>
    <tag k="building" v="yes"/>
    <tag k="is_in" v="Russia"/>
  </way>
  <way id="84623690" version="1" timestamp="2010-11-09T08:23:56Z" uid="115477" user="wowik" changeset="6325744">
    <nd ref="983105317"/>
    <nd ref="983105260"/>
    <nd ref="983105032"/>
    <nd ref="983104979"/>
    <nd ref="983105317"/>
    <tag k="addr:city" v="Зеленоград"/>
    <tag k="addr:housenumber" v="158А"/>
    <tag k="addr:street" v="1-й Микрорайон"/>
    <tag k="building" v="yes"/>
    <tag k="is_in" v="Russia"/>
  </way>
  <way id="84623690" version="2" timestamp="2010-11-09T15:54:21Z" uid="115477" user="wowik" changeset="6329024">
    <nd ref="983105317"/>
    <nd ref="983105260"/>
    <nd ref="983105032"/>
    <nd ref="983104979"/>
    <nd ref="983105317"/>
    <tag k="addr:city" v="Зеленоград"/>
    <tag k="addr:housenumber" v="158А"/>
    <tag k="addr:street" v="1-й Микрорайон"/>
    <tag k="building" v="yes"/>
    <tag k="is_in" v="Russia"/>
    <tag k="landuse" v="service"/>
  </way>
  <way id="84623691" version="1" timestamp="2010-11-09T08:23:56Z" uid="115477" user="wowik" changeset="6325744">
    <nd ref="983105131"/>
    <nd ref="983105337"/>
    <nd ref="983105270"/>
    <nd ref="983105052"/>
    <nd ref="983105131"/>
    <tag k="addr:city" v="Зеленоград"/>
    <tag k="addr:street" v="1-й Микрорайон"/>
    <tag k="building" v="yes"/>
    <tag k="is_in" v="Russia"/>
    <tag k="landuse" v="service"/>
  </way>
  <way id="84623692" version="1" timestamp="2010-11-09T08:23:56Z" uid="115477" user="wowik" changeset="6325744">
    <nd ref="983105288"/>
    <nd ref="983105222"/>
    <nd ref="983105008"/>
    <nd ref="983105349"/>
    <nd ref="983105288"/>
    <tag k="addr:city" v="Зеленоград"/>
    <tag k="addr:housenumber" v="3с4"/>
    <tag k="addr:street" v="Панфиловский проспект"/>
    <tag k="building" v="yes"/>
    <tag k="is_in" v="Russia"/>
  </way>
  <way id="84623693" version="1" timestamp="2010-11-09T08:23:57Z" uid="115477" user="wowik" changeset="6325744">
    <nd ref="983105350"/>
    <nd ref="983105037"/>
    <nd ref="983105149"/>
    <nd ref="983105285"/>
    <nd ref="983105050"/>
    <nd ref="983105117"/>
    <nd ref="983105158"/>
    <nd ref="983105294"/>
    <nd ref="983105069"/>
    <nd ref="983105263"/>
    <nd ref="983105321"/>
    <nd ref="983105183"/>
    <nd ref="983105350"/>
    <tag k="addr:city" v="Зеленоград"/>
    <tag k="addr:housenumber" v="158с1"/>
    <tag k="addr:street" v="1-й Микрорайон"/>
    <tag k="building" v="yes"/>
    <tag k="is_in" v="Russia"/>
    <tag k="landuse" v="service"/>
  </way>
  <way id="84623694" version="1" timestamp="2010-11-09T08:23:57Z" uid="115477" user="wowik" changeset="6325744">
    <nd ref="983105013"/>
    <nd ref="983105185"/>
    <nd ref="983105121"/>
    <nd ref="983105324"/>
    <nd ref="983105013"/>
    <tag k="addr:city" v="Зеленоград"/>
    <tag k="addr:housenumber" v="11с5"/>
    <tag k="addr:street" v="Панфиловский проспект"/>
    <tag k="building" v="yes"/>
    <tag k="cladr:code" v="77000002000220500"/>
    <tag k="is_in" v="Russia"/>
  </way>
  <way id="84623695" version="1" timestamp="2010-11-09T08:23:58Z" uid="115477" user="wowik" changeset="6325744">
    <nd ref="983105344"/>
    <nd ref="983105106"/>
    <nd ref="983105060"/>
    <nd ref="983105251"/>
    <nd ref="983105344"/>
    <tag k="addr:city" v="Зеленоград"/>
    <tag k="addr:housenumber" v="164А"/>
    <tag k="addr:street" v="1-й Микрорайон"/>
    <tag k="building" v="yes"/>
    <tag k="is_in" v="Russia"/>
    <tag k="landuse" v="service"/>
  </way>
  <way id="84623695" version="2" timestamp="2010-11-13T09:23:47Z" uid="115477" user="wowik" changeset="6356660">
    <nd ref="983105344"/>
    <nd ref="983105106"/>
    <nd ref="983105060"/>
    <nd ref="983105251"/>
    <nd ref="983105344"/>
    <tag k="addr:city" v="Зеленоград"/>
    <tag k="building" v="yes"/>
    <tag k="is_in" v="Russia"/>
    <tag k="landuse" v="service"/>
  </way>
  <way id="84623696" version="1" timestamp="2010-11-09T08:23:58Z" uid="115477" user="wowik" changeset="6325744">
    <nd ref="983105028"/>
    <nd ref="983105219"/>
    <nd ref="983105143"/>
    <nd ref="983105322"/>
    <nd ref="983105038"/>
    <nd ref="983104981"/>
    <nd ref="983105028"/>
    <tag k="addr:city" v="Зеленоград"/>
    <tag k="addr:street" v="2-й Микрорайон"/>
    <tag k="building" v="yes"/>
    <tag k="is_in" v="Russia"/>
    <tag k="landuse" v="service"/>
  </way>
  <way id="84623697" version="1" timestamp="2010-11-09T08:23:58Z" uid="115477" user="wowik" changeset="6325744">
    <nd ref="983105266"/>
    <nd ref="983105190"/>
    <nd ref="983104984"/>
    <nd ref="983105330"/>
    <nd ref="983105266"/>
    <tag k="addr:city" v="Зеленоград"/>
    <tag k="addr:housenumber" v="3с3"/>
    <tag k="addr:street" v="Панфиловский проспект"/>
    <tag k="building" v="yes"/>
    <tag k="is_in" v="Russia"/>
  </way>
  <way id="84623698" version="1" timestamp="2010-11-09T08:23:59Z" uid="115477" user="wowik" changeset="6325744">
    <nd ref="983105045"/>
    <nd ref="983105223"/>
    <nd ref="983105153"/>
    <nd ref="983104989"/>
    <nd ref="983105045"/>
    <tag k="addr:city" v="Зеленоград"/>
    <tag k="addr:street" v="1-й Микрорайон"/>
    <tag k="building" v="yes"/>
    <tag k="is_in" v="Russia"/>
    <tag k="landuse" v="service"/>
  </way>
  <way id="84623699" version="1" timestamp="2010-11-09T08:23:59Z" uid="115477" user="wowik" changeset="6325744">
    <nd ref="983105104"/>
    <nd ref="983105300"/>
    <nd ref="983105248"/>
    <nd ref="983105019"/>
    <nd ref="983105104"/>
    <tag k="addr:city" v="Зеленоград"/>
    <tag k="addr:street" v="1-й Микрорайон"/>
    <tag k="building" v="yes"/>
    <tag k="is_in" v="Russia"/>
    <tag k="landuse" v="service"/>
  </way>
  <way id="84623700" version="1" timestamp="2010-11-09T08:23:59Z" uid="115477" user="wowik" changeset="6325744">
    <nd ref="983105136"/>
    <nd ref="983105084"/>
    <nd ref="983105082"/>
    <nd ref="983104971"/>
    <nd ref="983105274"/>
    <nd ref="983105214"/>
    <nd ref="983105136"/>
    <tag k="addr:city" v="Зеленоград"/>
    <tag k="addr:street" v="1-й Микрорайон"/>
    <tag k="building" v="yes"/>
    <tag k="is_in" v="Russia"/>
    <tag k="landuse" v="service"/>
  </way>
  <way id="84623701" version="1" timestamp="2010-11-09T08:23:59Z" uid="115477" user="wowik" changeset="6325744">
    <nd ref="983105255"/>
    <nd ref="983105172"/>
    <nd ref="983104975"/>
    <nd ref="983105311"/>
    <nd ref="983105255"/>
    <tag k="addr:city" v="Зеленоград"/>
    <tag k="addr:street" v="2-й Микрорайон"/>
    <tag k="building" v="yes"/>
    <tag k="is_in" v="Russia"/>
    <tag k="landuse" v="service"/>
  </way>
  <way id="84623702" version="1" timestamp="2010-11-09T08:24:00Z" uid="115477" user="wowik" changeset="6325744">
    <nd ref="983105342"/>
    <nd ref="983105272"/>
    <nd ref="983105058"/>
    <nd ref="983104995"/>
    <nd ref="983105342"/>
    <tag k="addr:city" v="Зеленоград"/>
    <tag k="addr:housenumber" v="139с1"/>
    <tag k="addr:street" v="1-й Микрорайон"/>
    <tag k="building" v="yes"/>
    <tag k="is_in" v="Russia"/>
    <tag k="landuse" v="service"/>
  </way>
  <way id="84623702" version="2" timestamp="2010-11-09T08:41:24Z" uid="115477" user="wowik" changeset="6325744"/>
  <way id="84623703" version="1" timestamp="2010-11-09T08:24:00Z" uid="115477" user="wowik" changeset="6325744">
    <nd ref="983105347"/>
    <nd ref="983105167"/>
    <nd ref="983105096"/>
    <nd ref="983105295"/>
    <nd ref="983105347"/>
    <tag k="addr:city" v="Зеленоград"/>
    <tag k="addr:street" v="1-й Микрорайон"/>
    <tag k="building" v="yes"/>
    <tag k="is_in" v="Russia"/>
    <tag k="landuse" v="service"/>
  </way>
  <way id="84623704" version="1" timestamp="2010-11-09T08:24:00Z" uid="115477" user="wowik" changeset="6325744">
    <nd ref="983105329"/>
    <nd ref="983105093"/>
    <nd ref="983105048"/>
    <nd ref="983105229"/>
    <nd ref="983105329"/>
    <tag k="addr:city" v="Зеленоград"/>
    <tag k="addr:housenumber" v="11с3"/>
    <tag k="addr:street" v="Панфиловский проспект"/>
    <tag k="building" v="yes"/>
    <tag k="cladr:code" v="77000002000220500"/>
    <tag k="is_in" v="Russia"/>
  </way>
  <way id="84623705" version="1" timestamp="2010-11-09T08:24:01Z" uid="115477" user="wowik" changeset="6325744">
    <nd ref="983105055"/>
    <nd ref="983104999"/>
    <tag k="highway" v="service"/>
    <tag k="living_street" v="yes"/>
  </way>
  <way id="84623706" version="1" timestamp="2010-11-09T08:24:01Z" uid="115477" user="wowik" changeset="6325744">
    <nd ref="983105129"/>
    <nd ref="983105335"/>
    <nd ref="983105269"/>
    <nd ref="983105051"/>
    <nd ref="983105129"/>
    <tag k="addr:city" v="Зеленоград"/>
    <tag k="addr:housenumber" v="164А"/>
    <tag k="addr:street" v="1-й Микрорайон"/>
    <tag k="building" v="yes"/>
    <tag k="is_in" v="Russia"/>
    <tag k="landuse" v="service"/>
  </way>
  <way id="84623707" version="1" timestamp="2010-11-09T08:24:02Z" uid="115477" user="wowik" changeset="6325744">
    <nd ref="983105332"/>
    <nd ref="983104992"/>
    <tag k="highway" v="service"/>
    <tag k="living_street" v="yes"/>
  </way>
  <way id="84623708" version="1" timestamp="2010-11-09T08:24:02Z" uid="115477" user="wowik" changeset="6325744">
    <nd ref="983105310"/>
    <nd ref="983104999"/>
    <nd ref="983105027"/>
    <tag k="highway" v="service"/>
    <tag k="living_street" v="yes"/>
  </way>
  <way id="84623709" version="1" timestamp="2010-11-09T08:24:02Z" uid="115477" user="wowik" changeset="6325744">
    <nd ref="983105221"/>
    <nd ref="983105006"/>
    <nd ref="983105348"/>
    <nd ref="983105114"/>
    <nd ref="983105221"/>
    <tag k="addr:city" v="Зеленоград"/>
    <tag k="addr:housenumber" v="11с4"/>
    <tag k="addr:street" v="Панфиловский проспект"/>
    <tag k="building" v="yes"/>
    <tag k="cladr:code" v="77000002000220500"/>
    <tag k="is_in" v="Russia"/>
  </way>
  <way id="84623710" version="1" timestamp="2010-11-09T08:24:02Z" uid="115477" user="wowik" changeset="6325744">
    <nd ref="983105205"/>
    <nd ref="983104990"/>
    <nd ref="983105341"/>
    <nd ref="983105100"/>
    <nd ref="983105205"/>
    <tag k="addr:city" v="Зеленоград"/>
    <tag k="addr:street" v="1-й Микрорайон"/>
    <tag k="building" v="yes"/>
    <tag k="is_in" v="Russia"/>
  </way>
  <way id="84623711" version="1" timestamp="2010-11-09T08:24:02Z" uid="115477" user="wowik" changeset="6325744">
    <nd ref="983104964"/>
    <nd ref="983105297"/>
    <nd ref="983105075"/>
    <nd ref="983105018"/>
    <nd ref="983104964"/>
    <tag k="addr:city" v="Зеленоград"/>
    <tag k="addr:street" v="1-й Микрорайон"/>
    <tag k="building" v="yes"/>
    <tag k="is_in" v="Russia"/>
    <tag k="landuse" v="service"/>
  </way>
  <way id="84623712" version="1" timestamp="2010-11-09T08:24:03Z" uid="115477" user="wowik" changeset="6325744">
    <nd ref="983105031"/>
    <nd ref="983104978"/>
    <nd ref="983105147"/>
    <nd ref="983105090"/>
    <nd ref="983105031"/>
    <tag k="addr:city" v="Зеленоград"/>
    <tag k="addr:housenumber" v="3c1"/>
    <tag k="addr:street" v="Панфиловский проспект"/>
    <tag k="building" v="yes"/>
    <tag k="is_in" v="Russia"/>
  </way>
  <way id="84623713" version="1" timestamp="2010-11-09T08:24:03Z" uid="115477" user="wowik" changeset="6325744">
    <nd ref="983105124"/>
    <nd ref="983105073"/>
    <nd ref="983105301"/>
    <nd ref="983105250"/>
    <nd ref="983105124"/>
    <tag k="addr:city" v="Зеленоград"/>
    <tag k="addr:street" v="1-й Микрорайон"/>
    <tag k="building" v="yes"/>
    <tag k="is_in" v="Russia"/>
    <tag k="landuse" v="service"/>
  </way>
  <way id="84623714" version="1" timestamp="2010-11-09T08:24:03Z" uid="115477" user="wowik" changeset="6325744">
    <nd ref="983105015"/>
    <nd ref="983105196"/>
    <nd ref="983105126"/>
    <nd ref="983105331"/>
    <nd ref="983105015"/>
    <tag k="addr:city" v="Зеленоград"/>
    <tag k="addr:street" v="1-й Микрорайон"/>
    <tag k="building" v="yes"/>
    <tag k="is_in" v="Russia"/>
    <tag k="landuse" v="service"/>
  </way>
  <way id="84623715" version="1" timestamp="2010-11-09T08:24:04Z" uid="115477" user="wowik" changeset="6325744">
    <nd ref="983105187"/>
    <nd ref="983104982"/>
    <nd ref="983105326"/>
    <nd ref="983105092"/>
    <nd ref="983105187"/>
    <tag k="addr:city" v="Зеленоград"/>
    <tag k="addr:street" v="1-й Микрорайон"/>
    <tag k="building" v="yes"/>
    <tag k="is_in" v="Russia"/>
    <tag k="landuse" v="service"/>
  </way>
  <way id="84623716" version="1" timestamp="2010-11-09T08:24:04Z" uid="115477" user="wowik" changeset="6325744">
    <nd ref="983104992"/>
    <nd ref="983105055"/>
    <tag k="highway" v="service"/>
    <tag k="living_street" v="yes"/>
    <tag k="tunnel" v="yes"/>
  </way>
</osm>
