<?xml version='1.0' encoding='UTF-8'?>
<osm version="0.6" generator="libosmium/2.20.0">
  <way id="84631133" version="1" timestamp="2010-11-09T09:58:25Z" uid="115477" user="wowik" changeset="6325744">
    <nd ref="983146595"/>
    <nd ref="983146504"/>
    <nd ref="983146469"/>
    <nd ref="983146555"/>
    <nd ref="983146595"/>
    <tag k="addr:city" v="Зеленоград"/>
    <tag k="addr:street" v="Проезд N 4801"/>
    <tag k="building" v="yes"/>
    <tag k="is_in" v="Russia"/>
  </way>
  <way id="84631134" version="1" timestamp="2010-11-09T09:58:25Z" uid="115477" user="wowik" changeset="6325744">
    <nd ref="983146455"/>
    <nd ref="983146540"/>
    <nd ref="983146513"/>
    <nd ref="983146440"/>
    <nd ref="983146455"/>
    <tag k="addr:city" v="Зеленоград"/>
    <tag k="addr:street" v="1-й Западный проезд"/>
    <tag k="building" v="yes"/>
    <tag k="is_in" v="Russia"/>
  </way>
  <way id="84631135" version="1" timestamp="2010-11-09T09:58:25Z" uid="115477" user="wowik" changeset="6325744">
    <nd ref="983146588"/>
    <nd ref="983146559"/>
    <nd ref="983146459"/>
    <nd ref="983146438"/>
    <nd ref="983146588"/>
    <tag k="addr:city" v="Зеленоград"/>
    <tag k="addr:street" v="1-й Западный проезд"/>
    <tag k="building" v="yes"/>
    <tag k="is_in" v="Russia"/>
  </way>
  <way id="84631136" version="1" timestamp="2010-11-09T09:58:25Z" uid="115477" user="wowik" changeset="6325744">
    <nd ref="983146573"/>
    <nd ref="983146548"/>
    <nd ref="983146450"/>
    <nd ref="983146607"/>
    <nd ref="983146573"/>
    <tag k="addr:city" v="Зеленоград"/>
    <tag k="addr:street" v="1-й Западный проезд"/>
    <tag k="building" v="yes"/>
    <tag k="is_in" v="Russia"/>
  </way>
  <way id="84631137" version="1" timestamp="2010-11-09T09:58:26Z" uid="115477" user="wowik" changeset="6325744">
    <nd ref="983146468"/>
    <nd ref="983146444"/>
    <nd ref="701143438"/>
    <nd ref="983146579"/>
    <nd ref="983146446"/>
    <nd ref="983146468"/>
    <tag k="addr:city" v="Зеленоград"/>
    <tag k="addr:housenumber" v="2с1"/>
    <tag k="addr:street" v="Проезд N 4801"/>
    <tag k="building" v="yes"/>
    <tag k="is_in" v="Russia"/>
  </way>
  <way id="84631137" version="3" timestamp="2011-01-17T13:59:20Z" uid="115477" user="wowik" changeset="6999740">
    <nd ref="983146468"/>
    <nd ref="983146444"/>
    <nd ref="701143438"/>
    <nd ref="983146579"/>
    <nd ref="983146446"/>
    <nd ref="983146468"/>
    <tag k="addr:city" v="Зеленоград"/>
    <tag k="addr:housenumber" v="2 с1"/>
    <tag k="addr:street" v="4-й Западный проезд"/>
    <tag k="building" v="yes"/>
    <tag k="is_in" v="Russia"/>
  </way>
  <way id="84631138" version="1" timestamp="2010-11-09T09:58:26Z" uid="115477" user="wowik" changeset="6325744">
    <nd ref="983146567"/>
    <nd ref="983146471"/>
    <nd ref="983146445"/>
    <nd ref="983146525"/>
    <nd ref="983146567"/>
    <tag k="addr:city" v="Зеленоград"/>
    <tag k="addr:street" v="Проезд N 4801"/>
    <tag k="building" v="yes"/>
    <tag k="is_in" v="Russia"/>
  </way>
  <way id="84631139" version="1" timestamp="2010-11-09T09:58:26Z" uid="115477" user="wowik" changeset="6325744">
    <nd ref="983146516"/>
    <nd ref="983146458"/>
    <nd ref="983146558"/>
    <nd ref="983146541"/>
    <nd ref="983146600"/>
    <tag k="highway" v="service"/>
    <tag k="oneway" v="yes"/>
  </way>
  <way id="84631140" version="1" timestamp="2010-11-09T09:58:26Z" uid="115477" user="wowik" changeset="6325744">
    <nd ref="983146571"/>
    <nd ref="983146475"/>
    <nd ref="983146447"/>
    <nd ref="983146531"/>
    <nd ref="983146571"/>
    <tag k="addr:city" v="Зеленоград"/>
    <tag k="addr:street" v="Проезд N 4801"/>
    <tag k="building" v="yes"/>
    <tag k="is_in" v="Russia"/>
  </way>
  <way id="84631141" version="1" timestamp="2010-11-09T09:58:27Z" uid="115477" user="wowik" changeset="6325744">
    <nd ref="983146448"/>
    <nd ref="983146605"/>
    <nd ref="983146477"/>
    <nd ref="983146532"/>
    <nd ref="983146448"/>
    <tag k="addr:city" v="Зеленоград"/>
    <tag k="addr:street" v="Проезд N 4801"/>
    <tag k="building" v="yes"/>
    <tag k="is_in" v="Russia"/>
  </way>
  <way id="84631141" version="2" timestamp="2011-01-17T13:59:34Z" uid="115477" user="wowik" changeset="6999740">
    <nd ref="983146448"/>
    <nd ref="983146605"/>
    <nd ref="983146477"/>
    <nd ref="983146532"/>
    <nd ref="983146448"/>
    <tag k="addr:city" v="Зеленоград"/>
    <tag k="addr:street" v="4-й Западный проезд"/>
    <tag k="building" v="yes"/>
    <tag k="is_in" v="Russia"/>
  </way>
  <way id="84631142" version="1" timestamp="2010-11-09T09:58:27Z" uid="115477" user="wowik" changeset="6325744">
    <nd ref="983146464"/>
    <nd ref="983146550"/>
    <nd ref="983146608"/>
    <nd ref="983146478"/>
    <nd ref="983146464"/>
    <tag k="addr:city" v="Зеленоград"/>
    <tag k="addr:housenumber" v="2с5"/>
    <tag k="addr:street" v="Проезд N 4801"/>
    <tag k="building" v="yes"/>
    <tag k="is_in" v="Russia"/>
  </way>
  <way id="84631142" version="3" timestamp="2011-01-17T13:58:50Z" uid="115477" user="wowik" changeset="6999740">
    <nd ref="983146464"/>
    <nd ref="983146550"/>
    <nd ref="983146608"/>
    <nd ref="983146478"/>
    <nd ref="983146464"/>
    <tag k="addr:city" v="Зеленоград"/>
    <tag k="addr:housenumber" v="2 с5"/>
    <tag k="addr:street" v="4-й Западный проезд"/>
    <tag k="building" v="yes"/>
    <tag k="is_in" v="Russia"/>
  </way>
  <way id="84631142" version="4" timestamp="2011-02-03T13:25:28Z" uid="115477" user="wowik" changeset="7173991">
    <nd ref="983146464"/>
    <nd ref="983146550"/>
    <nd ref="983146608"/>
    <nd ref="983146478"/>
    <nd ref="983146464"/>
    <tag k="addr:city" v="Зеленоград"/>
    <tag k="addr:street" v="4-й Западный проезд"/>
    <tag k="building" v="yes"/>
    <tag k="is_in" v="Russia"/>
  </way>
  <way id="84631143" version="1" timestamp="2010-11-09T09:58:27Z" uid="115477" user="wowik" changeset="6325744">
    <nd ref="983146577"/>
    <nd ref="983146485"/>
    <nd ref="983146453"/>
    <nd ref="983146538"/>
    <nd ref="983146577"/>
    <tag k="addr:city" v="Зеленоград"/>
    <tag k="addr:street" v="1-й Западный проезд"/>
    <tag k="building" v="yes"/>
    <tag k="is_in" v="Russia"/>
  </way>
  <way id="84631144" version="1" timestamp="2010-11-09T09:58:27Z" uid="115477" user="wowik" changeset="6325744">
    <nd ref="983146529"/>
    <nd ref="983146437"/>
    <nd ref="983146584"/>
    <nd ref="983146492"/>
    <nd ref="983146529"/>
    <tag k="addr:city" v="Зеленоград"/>
    <tag k="addr:street" v="Проезд N 4801"/>
    <tag k="building" v="yes"/>
    <tag k="is_in" v="Russia"/>
  </way>
  <way id="84631145" version="1" timestamp="2010-11-09T09:58:27Z" uid="115477" user="wowik" changeset="6325744">
    <nd ref="983146556"/>
    <nd ref="983146524"/>
    <nd ref="983146436"/>
    <nd ref="983146580"/>
    <nd ref="983146556"/>
    <tag k="addr:city" v="Зеленоград"/>
    <tag k="addr:housenumber" v="12с9"/>
    <tag k="addr:street" v="1-й Западный проезд"/>
    <tag k="building" v="yes"/>
    <tag k="is_in" v="Russia"/>
  </way>
  <way id="84631146" version="1" timestamp="2010-11-09T09:58:28Z" uid="115477" user="wowik" changeset="6325744">
    <nd ref="983146498"/>
    <nd ref="983146460"/>
    <nd ref="983146547"/>
    <nd ref="983146517"/>
    <nd ref="983146498"/>
    <tag k="addr:city" v="Зеленоград"/>
    <tag k="addr:street" v="1-й Западный проезд"/>
    <tag k="building" v="yes"/>
    <tag k="is_in" v="Russia"/>
  </way>
  <way id="84631147" version="1" timestamp="2010-11-09T09:58:28Z" uid="115477" user="wowik" changeset="6325744">
    <nd ref="983146522"/>
    <nd ref="983146503"/>
    <nd ref="983146598"/>
    <nd ref="983146569"/>
    <nd ref="983146522"/>
    <tag k="addr:city" v="Зеленоград"/>
    <tag k="addr:housenumber" v="12с8"/>
    <tag k="addr:street" v="1-й Западный проезд"/>
    <tag k="building" v="yes"/>
    <tag k="is_in" v="Russia"/>
  </way>
  <way id="84631147" version="3" timestamp="2011-02-09T16:15:23Z" uid="115477" user="wowik" changeset="7237446">
    <nd ref="983146522"/>
    <nd ref="983146503"/>
    <nd ref="983146598"/>
    <nd ref="983146569"/>
    <nd ref="983146522"/>
    <tag k="addr:city" v="Зеленоград"/>
    <tag k="addr:housenumber" v="12 с8"/>
    <tag k="addr:street" v="1-й Западный проезд"/>
    <tag k="building" v="yes"/>
    <tag k="is_in" v="Russia"/>
    <tag k="note" v="addr:housenumber нeточен"/>
  </way>
  <way id="84631148" version="1" timestamp="2010-11-09T09:58:28Z" uid="115477" user="wowik" changeset="6325744">
    <nd ref="983146574"/>
    <nd ref="983146592"/>
    <nd ref="983146467"/>
    <nd ref="983146523"/>
    <nd ref="983146599"/>
    <nd ref="983146472"/>
    <nd ref="983146528"/>
    <nd ref="983146502"/>
    <nd ref="983146443"/>
    <nd ref="983146566"/>
    <nd ref="983146454"/>
    <nd ref="983146578"/>
    <nd ref="983146509"/>
    <nd ref="983146451"/>
    <nd ref="983146574"/>
    <tag k="addr:city" v="Зеленоград"/>
    <tag k="addr:housenumber" v="2с7"/>
    <tag k="addr:street" v="Проезд N 4801"/>
    <tag k="building" v="yes"/>
    <tag k="is_in" v="Russia"/>
  </way>
  <way id="84631148" version="3" timestamp="2011-01-17T13:59:03Z" uid="115477" user="wowik" changeset="6999740">
    <nd ref="983146574"/>
    <nd ref="983146592"/>
    <nd ref="983146467"/>
    <nd ref="983146523"/>
    <nd ref="983146599"/>
    <nd ref="983146472"/>
    <nd ref="983146528"/>
    <nd ref="983146502"/>
    <nd ref="983146443"/>
    <nd ref="983146566"/>
    <nd ref="983146454"/>
    <nd ref="983146578"/>
    <nd ref="983146509"/>
    <nd ref="983146451"/>
    <nd ref="983146574"/>
    <tag k="addr:city" v="Зеленоград"/>
    <tag k="addr:housenumber" v="2 с7"/>
    <tag k="addr:street" v="4-й Западный проезд"/>
    <tag k="building" v="yes"/>
    <tag k="is_in" v="Russia"/>
  </way>
  <way id="84631149" version="1" timestamp="2010-11-09T09:58:28Z" uid="115477" user="wowik" changeset="6325744">
    <nd ref="983146527"/>
    <nd ref="983146505"/>
    <nd ref="983146583"/>
    <nd ref="983146557"/>
    <nd ref="983146527"/>
    <tag k="addr:city" v="Зеленоград"/>
    <tag k="addr:street" v="1-й Западный проезд"/>
    <tag k="building" v="yes"/>
    <tag k="is_in" v="Russia"/>
  </way>
  <way id="84631150" version="1" timestamp="2010-11-09T09:58:29Z" uid="115477" user="wowik" changeset="6325744">
    <nd ref="983146511"/>
    <nd ref="983146591"/>
    <nd ref="983146465"/>
    <nd ref="983146519"/>
    <nd ref="983146511"/>
    <tag k="addr:city" v="Зеленоград"/>
    <tag k="addr:street" v="1-й Западный проезд"/>
    <tag k="building" v="yes"/>
    <tag k="is_in" v="Russia"/>
  </way>
  <way id="84631151" version="1" timestamp="2010-11-09T09:58:29Z" uid="115477" user="wowik" changeset="6325744">
    <nd ref="983146533"/>
    <nd ref="983146452"/>
    <nd ref="983146612"/>
    <nd ref="983146510"/>
    <nd ref="983146533"/>
    <tag k="addr:city" v="Зеленоград"/>
    <tag k="addr:street" v="1-й Западный проезд"/>
    <tag k="building" v="yes"/>
    <tag k="is_in" v="Russia"/>
  </way>
  <way id="84631152" version="1" timestamp="2010-11-09T09:58:29Z" uid="115477" user="wowik" changeset="6325744">
    <nd ref="983146570"/>
    <nd ref="983146461"/>
    <nd ref="983146530"/>
    <nd ref="983146587"/>
    <nd ref="701143626"/>
    <nd ref="983146554"/>
    <nd ref="983146502"/>
    <nd ref="983146443"/>
    <nd ref="983146566"/>
    <nd ref="983146454"/>
    <nd ref="983146578"/>
    <nd ref="983146509"/>
    <nd ref="983146451"/>
    <nd ref="983146574"/>
    <nd ref="983146520"/>
    <nd ref="983146570"/>
    <tag k="addr:city" v="Зеленоград"/>
    <tag k="addr:housenumber" v="2с6"/>
    <tag k="addr:street" v="Проезд N 4801"/>
    <tag k="building" v="yes"/>
    <tag k="is_in" v="Russia"/>
  </way>
  <way id="84631152" version="3" timestamp="2011-01-17T13:58:51Z" uid="115477" user="wowik" changeset="6999740">
    <nd ref="983146570"/>
    <nd ref="983146461"/>
    <nd ref="983146530"/>
    <nd ref="983146587"/>
    <nd ref="701143626"/>
    <nd ref="983146554"/>
    <nd ref="983146502"/>
    <nd ref="983146443"/>
    <nd ref="983146566"/>
    <nd ref="983146454"/>
    <nd ref="983146578"/>
    <nd ref="983146509"/>
    <nd ref="983146451"/>
    <nd ref="983146574"/>
    <nd ref="983146520"/>
    <nd ref="983146570"/>
    <tag k="addr:city" v="Зеленоград"/>
    <tag k="addr:housenumber" v="2 с6"/>
    <tag k="addr:street" v="4-й Западный проезд"/>
    <tag k="building" v="yes"/>
    <tag k="is_in" v="Russia"/>
  </way>
  <way id="84631153" version="1" timestamp="2010-11-09T09:58:29Z" uid="115477" user="wowik" changeset="6325744">
    <nd ref="983146506"/>
    <nd ref="983146585"/>
    <nd ref="983146456"/>
    <nd ref="983146514"/>
    <nd ref="983146506"/>
    <tag k="addr:city" v="Зеленоград"/>
    <tag k="addr:housenumber" v="2с3"/>
    <tag k="addr:street" v="Проезд N 4801"/>
    <tag k="building" v="yes"/>
    <tag k="is_in" v="Russia"/>
  </way>
  <way id="84631153" version="3" timestamp="2011-01-17T13:59:02Z" uid="115477" user="wowik" changeset="6999740">
    <nd ref="983146506"/>
    <nd ref="983146585"/>
    <nd ref="983146456"/>
    <nd ref="983146514"/>
    <nd ref="983146506"/>
    <tag k="addr:city" v="Зеленоград"/>
    <tag k="addr:housenumber" v="2 с3"/>
    <tag k="addr:street" v="4-й Западный проезд"/>
    <tag k="building" v="yes"/>
    <tag k="is_in" v="Russia"/>
  </way>
  <way id="84631153" version="4" timestamp="2011-02-03T13:25:31Z" uid="115477" user="wowik" changeset="7173991">
    <nd ref="983146506"/>
    <nd ref="983146585"/>
    <nd ref="983146456"/>
    <nd ref="983146514"/>
    <nd ref="983146506"/>
    <tag k="addr:city" v="Зеленоград"/>
    <tag k="addr:housenumber" v="2 с8"/>
    <tag k="addr:street" v="4-й Западный проезд"/>
    <tag k="building" v="yes"/>
    <tag k="is_in" v="Russia"/>
  </way>
  <way id="84631154" version="1" timestamp="2010-11-09T09:58:29Z" uid="115477" user="wowik" changeset="6325744">
    <nd ref="983146508"/>
    <nd ref="983146590"/>
    <nd ref="983146562"/>
    <nd ref="983146463"/>
    <nd ref="983146508"/>
    <tag k="addr:city" v="Зеленоград"/>
    <tag k="addr:street" v="1-й Западный проезд"/>
    <tag k="building" v="yes"/>
    <tag k="is_in" v="Russia"/>
  </way>
  <way id="84631301" version="1" timestamp="2010-11-09T10:01:55Z" uid="115477" user="wowik" changeset="6325744">
    <nd ref="983148384"/>
    <nd ref="983148402"/>
    <nd ref="983148392"/>
    <nd ref="983148394"/>
    <nd ref="983148390"/>
    <nd ref="983148395"/>
    <nd ref="983148384"/>
    <tag k="addr:city" v="Зеленоград"/>
    <tag k="addr:housenumber" v="10с2"/>
    <tag k="addr:street" v="Панфиловский проспект"/>
    <tag k="building" v="yes"/>
    <tag k="is_in" v="Russia"/>
  </way>
  <way id="84631302" version="1" timestamp="2010-11-09T10:01:56Z" uid="115477" user="wowik" changeset="6325744">
    <nd ref="983148398"/>
    <nd ref="983148388"/>
    <nd ref="983148405"/>
    <nd ref="983148396"/>
    <nd ref="983148398"/>
    <tag k="addr:city" v="Зеленоград"/>
    <tag k="addr:street" v="Панфиловский проспект"/>
    <tag k="building" v="yes"/>
    <tag k="is_in" v="Russia"/>
  </way>
  <way id="84631303" version="1" timestamp="2010-11-09T10:01:56Z" uid="115477" user="wowik" changeset="6325744">
    <nd ref="983148403"/>
    <nd ref="983148397"/>
    <nd ref="983148386"/>
    <nd ref="983148393"/>
    <nd ref="983148403"/>
    <tag k="addr:city" v="Зеленоград"/>
    <tag k="addr:street" v="Панфиловский проспект"/>
    <tag k="building" v="yes"/>
    <tag k="is_in" v="Russia"/>
  </way>
  <way id="84631304" version="1" timestamp="2010-11-09T10:01:56Z" uid="115477" user="wowik" changeset="6325744">
    <nd ref="983148404"/>
    <nd ref="983148400"/>
    <nd ref="983148391"/>
    <nd ref="983148385"/>
    <nd ref="983148404"/>
    <tag k="addr:city" v="Зеленоград"/>
    <tag k="addr:street" v="Панфиловский проспект"/>
    <tag k="building" v="yes"/>
    <tag k="is_in" v="Russia"/>
  </way>
  <way id="84631657" version="1" timestamp="2010-11-09T10:07:08Z" uid="115477" user="wowik" changeset="6325744">
    <nd ref="983151248"/>
    <nd ref="983151246"/>
    <nd ref="983151251"/>
    <nd ref="983151244"/>
    <nd ref="983151248"/>
    <tag k="addr:city" v="Зеленоград"/>
    <tag k="addr:housenumber" v="1Ас2"/>
    <tag k="addr:street" v="1-й Западный проезд"/>
    <tag k="building" v="yes"/>
    <tag k="is_in" v="Russia"/>
  </way>
  <way id="84631657" version="3" timestamp="2011-02-03T13:25:29Z" uid="115477" user="wowik" changeset="7173991">
    <nd ref="983151248"/>
    <nd ref="983151246"/>
    <nd ref="983151251"/>
    <nd ref="983151244"/>
    <nd ref="983151248"/>
    <tag k="addr:city" v="Зеленоград"/>
    <tag k="addr:housenumber" v="1А с2"/>
    <tag k="addr:street" v="4-й Западный проезд"/>
    <tag k="building" v="yes"/>
    <tag k="is_in" v="Russia"/>
  </way>
</osm>
