<?xml version='1.0' encoding='UTF-8'?>
<osm version="0.6" generator="libosmium/2.20.0">
  <way id="84655474" version="1" timestamp="2010-11-09T14:32:36Z" uid="115477" user="wowik" changeset="6327211">
    <nd ref="983405174"/>
    <nd ref="983405142"/>
    <nd ref="983405202"/>
    <nd ref="983405256"/>
    <nd ref="983405174"/>
    <tag k="addr:city" v="Зеленоград"/>
    <tag k="addr:housenumber" v="8с2"/>
    <tag k="addr:street" v="1-й Западный проезд"/>
    <tag k="building" v="yes"/>
    <tag k="is_in" v="Russia"/>
  </way>
  <way id="84655475" version="1" timestamp="2010-11-09T14:32:36Z" uid="115477" user="wowik" changeset="6327211">
    <nd ref="983405300"/>
    <nd ref="983405268"/>
    <nd ref="983405168"/>
    <nd ref="983405138"/>
    <nd ref="983405300"/>
    <tag k="addr:city" v="Зеленоград"/>
    <tag k="amenity" v="commercial"/>
    <tag k="building" v="yes"/>
    <tag k="is_in" v="Russia"/>
    <tag k="shop" v="kiosk"/>
  </way>
  <way id="84655478" version="1" timestamp="2010-11-09T14:32:36Z" uid="115477" user="wowik" changeset="6327211">
    <nd ref="983405305"/>
    <nd ref="983405204"/>
    <nd ref="983405257"/>
    <nd ref="983405330"/>
    <nd ref="983405185"/>
    <nd ref="983405245"/>
    <nd ref="983405305"/>
    <tag k="addr:city" v="Зеленоград"/>
    <tag k="addr:housenumber" v="10с2"/>
    <tag k="addr:street" v="1-й Западный проезд"/>
    <tag k="building" v="yes"/>
    <tag k="is_in" v="Russia"/>
  </way>
  <way id="84655480" version="1" timestamp="2010-11-09T14:32:36Z" uid="115477" user="wowik" changeset="6327211">
    <nd ref="983405250"/>
    <nd ref="983405149"/>
    <nd ref="983405227"/>
    <nd ref="983405283"/>
    <nd ref="983405153"/>
    <nd ref="983405250"/>
    <tag k="addr:city" v="Зеленоград"/>
    <tag k="addr:street" v="1-й Западный проезд"/>
    <tag k="building" v="yes"/>
    <tag k="is_in" v="Russia"/>
  </way>
  <way id="84655480" version="2" timestamp="2011-02-09T16:15:19Z" uid="115477" user="wowik" changeset="7237446">
    <nd ref="983405250"/>
    <nd ref="983405149"/>
    <nd ref="983405227"/>
    <nd ref="983405283"/>
    <nd ref="983405153"/>
    <nd ref="983405250"/>
    <tag k="addr:city" v="Зеленоград"/>
    <tag k="addr:housenumber" v="10 с1"/>
    <tag k="addr:street" v="1-й Западный проезд"/>
    <tag k="building" v="yes"/>
    <tag k="is_in" v="Russia"/>
  </way>
  <way id="84655481" version="1" timestamp="2010-11-09T14:32:36Z" uid="115477" user="wowik" changeset="6327211">
    <nd ref="983405315"/>
    <nd ref="983405280"/>
    <nd ref="983405150"/>
    <nd ref="983405228"/>
    <nd ref="983405315"/>
    <tag k="addr:city" v="Зеленоград"/>
    <tag k="addr:housenumber" v="1с2"/>
    <tag k="addr:street" v="1-й Западный проезд"/>
    <tag k="amenity" v="commercial"/>
    <tag k="building" v="yes"/>
    <tag k="is_in" v="Russia"/>
  </way>
  <way id="84655482" version="1" timestamp="2010-11-09T14:32:37Z" uid="115477" user="wowik" changeset="6327211">
    <nd ref="983405193"/>
    <nd ref="983405281"/>
    <nd ref="983405252"/>
    <nd ref="983405151"/>
    <nd ref="983405193"/>
    <tag k="addr:city" v="Зеленоград"/>
    <tag k="amenity" v="commercial"/>
    <tag k="building" v="yes"/>
    <tag k="is_in" v="Russia"/>
    <tag k="shop" v="kiosk"/>
  </way>
  <way id="84655483" version="1" timestamp="2010-11-09T14:32:37Z" uid="115477" user="wowik" changeset="6327211">
    <nd ref="983405194"/>
    <nd ref="983405301"/>
    <nd ref="983405169"/>
    <nd ref="983405229"/>
    <nd ref="983405284"/>
    <nd ref="983405154"/>
    <nd ref="983405208"/>
    <nd ref="983405267"/>
    <nd ref="983405194"/>
    <tag k="addr:city" v="Зеленоград"/>
    <tag k="addr:housenumber" v="7А"/>
    <tag k="addr:street" v="1-й Западный проезд"/>
    <tag k="building" v="yes"/>
    <tag k="is_in" v="Russia"/>
  </way>
  <way id="84655484" version="1" timestamp="2010-11-09T14:32:37Z" uid="115477" user="wowik" changeset="6327211">
    <nd ref="983405318"/>
    <nd ref="983405282"/>
    <nd ref="983405199"/>
    <nd ref="983405171"/>
    <nd ref="983405318"/>
    <tag k="addr:city" v="Зеленоград"/>
    <tag k="amenity" v="commercial"/>
    <tag k="building" v="yes"/>
    <tag k="is_in" v="Russia"/>
    <tag k="shop" v="kiosk"/>
  </way>
  <way id="84655486" version="1" timestamp="2010-11-09T14:32:37Z" uid="115477" user="wowik" changeset="6327211">
    <nd ref="983405201"/>
    <nd ref="983405172"/>
    <nd ref="983405236"/>
    <nd ref="983405289"/>
    <nd ref="983405201"/>
    <tag k="addr:city" v="Зеленоград"/>
    <tag k="addr:street" v="1-й Западный проезд"/>
    <tag k="building" v="yes"/>
    <tag k="is_in" v="Russia"/>
  </way>
  <way id="84655487" version="1" timestamp="2010-11-09T14:32:37Z" uid="115477" user="wowik" changeset="6327211">
    <nd ref="983405262"/>
    <nd ref="983405237"/>
    <nd ref="983405291"/>
    <nd ref="983405179"/>
    <nd ref="983405262"/>
    <tag k="addr:city" v="Зеленоград"/>
    <tag k="addr:street" v="1-й Западный проезд"/>
    <tag k="building" v="yes"/>
    <tag k="is_in" v="Russia"/>
  </way>
  <way id="84655488" version="1" timestamp="2010-11-09T14:32:38Z" uid="115477" user="wowik" changeset="6327211">
    <nd ref="983405294"/>
    <nd ref="983405264"/>
    <nd ref="983405334"/>
    <nd ref="983405187"/>
    <nd ref="983405294"/>
    <tag k="addr:city" v="Зеленоград"/>
    <tag k="addr:street" v="1-й Западный проезд"/>
    <tag k="amenity" v="commercial"/>
    <tag k="building" v="yes"/>
    <tag k="is_in" v="Russia"/>
  </way>
  <way id="84655489" version="1" timestamp="2010-11-09T14:32:38Z" uid="115477" user="wowik" changeset="6327211">
    <nd ref="983405279"/>
    <nd ref="983405132"/>
    <nd ref="983405266"/>
    <nd ref="983405176"/>
    <nd ref="983405238"/>
    <nd ref="983405317"/>
    <nd ref="983405181"/>
    <nd ref="983405242"/>
    <nd ref="983405279"/>
    <tag k="barrier" v="wall"/>
  </way>
  <way id="84655490" version="1" timestamp="2010-11-09T14:32:38Z" uid="115477" user="wowik" changeset="6327211">
    <nd ref="983405133"/>
    <nd ref="983405297"/>
    <nd ref="983405166"/>
    <nd ref="983405226"/>
    <nd ref="983405133"/>
    <tag k="addr:city" v="Зеленоград"/>
    <tag k="addr:housenumber" v="2с1"/>
    <tag k="addr:street" v="1-й Западный проезд"/>
    <tag k="amenity" v="commercial"/>
    <tag k="building" v="yes"/>
    <tag k="is_in" v="Russia"/>
  </way>
  <way id="84655492" version="1" timestamp="2010-11-09T14:32:38Z" uid="115477" user="wowik" changeset="6327211">
    <nd ref="983405276"/>
    <nd ref="983405246"/>
    <nd ref="983405306"/>
    <nd ref="983405175"/>
    <nd ref="983405276"/>
    <tag k="addr:city" v="Зеленоград"/>
    <tag k="addr:street" v="1-й Западный проезд"/>
    <tag k="building" v="yes"/>
    <tag k="is_in" v="Russia"/>
  </way>
  <way id="84655492" version="2" timestamp="2011-02-09T16:15:18Z" uid="115477" user="wowik" changeset="7237446">
    <nd ref="983405276"/>
    <nd ref="983405246"/>
    <nd ref="983405306"/>
    <nd ref="983405175"/>
    <nd ref="983405276"/>
    <tag k="addr:city" v="Зеленоград"/>
    <tag k="addr:street" v="1-й Западный проезд"/>
    <tag k="building" v="yes"/>
    <tag k="is_in" v="Russia"/>
  </way>
  <way id="84655494" version="1" timestamp="2010-11-09T14:32:39Z" uid="115477" user="wowik" changeset="6327211">
    <nd ref="983405292"/>
    <nd ref="983405186"/>
    <nd ref="983405247"/>
    <nd ref="983405308"/>
    <nd ref="983405292"/>
    <tag k="addr:city" v="Зеленоград"/>
    <tag k="addr:street" v="1-й Западный проезд"/>
    <tag k="building" v="yes"/>
    <tag k="is_in" v="Russia"/>
  </way>
  <way id="84655496" version="1" timestamp="2010-11-09T14:32:39Z" uid="115477" user="wowik" changeset="6327211">
    <nd ref="983405232"/>
    <nd ref="983405322"/>
    <nd ref="983405184"/>
    <nd ref="983405260"/>
    <nd ref="983405232"/>
    <tag k="addr:city" v="Зеленоград"/>
    <tag k="addr:street" v="1-й Западный проезд"/>
    <tag k="building" v="yes"/>
    <tag k="is_in" v="Russia"/>
  </way>
  <way id="84655497" version="1" timestamp="2010-11-09T14:32:39Z" uid="115477" user="wowik" changeset="6327211">
    <nd ref="700730846"/>
    <nd ref="983405205"/>
    <nd ref="983405145"/>
    <nd ref="983405275"/>
    <nd ref="983405216"/>
    <nd ref="983405159"/>
    <nd ref="983405270"/>
    <nd ref="983405209"/>
    <nd ref="983405156"/>
    <nd ref="983405290"/>
    <nd ref="983405225"/>
    <tag k="barrier" v="wall"/>
  </way>
  <way id="84655497" version="3" timestamp="2011-01-31T11:33:17Z" uid="115477" user="wowik" changeset="7144093">
    <nd ref="700730846"/>
    <nd ref="983405205"/>
    <nd ref="983405145"/>
    <nd ref="983405275"/>
    <nd ref="983405216"/>
    <nd ref="983405159"/>
    <nd ref="1028193999"/>
    <nd ref="983405270"/>
    <nd ref="983405209"/>
    <nd ref="983405156"/>
    <nd ref="983405290"/>
    <nd ref="983405225"/>
    <tag k="barrier" v="wall"/>
  </way>
  <way id="84655498" version="1" timestamp="2010-11-09T14:32:39Z" uid="115477" user="wowik" changeset="6327211">
    <nd ref="983405233"/>
    <nd ref="983405197"/>
    <nd ref="983405254"/>
    <nd ref="983405325"/>
    <nd ref="983405233"/>
    <tag k="addr:city" v="Зеленоград"/>
    <tag k="addr:street" v="1-й Западный проезд"/>
    <tag k="building" v="yes"/>
    <tag k="is_in" v="Russia"/>
  </way>
  <way id="84655498" version="2" timestamp="2011-02-09T16:15:19Z" uid="115477" user="wowik" changeset="7237446">
    <nd ref="983405233"/>
    <nd ref="983405197"/>
    <nd ref="983405254"/>
    <nd ref="983405325"/>
    <nd ref="983405233"/>
    <tag k="addr:city" v="Зеленоград"/>
    <tag k="addr:housenumber" v="10А"/>
    <tag k="addr:street" v="1-й Западный проезд"/>
    <tag k="building" v="yes"/>
    <tag k="is_in" v="Russia"/>
  </way>
  <way id="84655500" version="1" timestamp="2010-11-09T14:32:39Z" uid="115477" user="wowik" changeset="6327211">
    <nd ref="983405258"/>
    <nd ref="983405157"/>
    <nd ref="983405333"/>
    <nd ref="983405211"/>
    <nd ref="983405258"/>
    <tag k="addr:city" v="Зеленоград"/>
    <tag k="amenity" v="commercial"/>
    <tag k="building" v="yes"/>
    <tag k="is_in" v="Russia"/>
    <tag k="shop" v="kiosk"/>
  </way>
  <way id="84655895" version="1" timestamp="2010-11-09T14:36:42Z" uid="115477" user="wowik" changeset="6327211">
    <nd ref="983406374"/>
    <nd ref="983406386"/>
    <nd ref="983406376"/>
    <nd ref="983406381"/>
    <nd ref="983406374"/>
    <tag k="addr:city" v="Зеленоград"/>
    <tag k="addr:housenumber" v="16с1"/>
    <tag k="addr:street" v="Панфиловский проспект"/>
    <tag k="building" v="yes"/>
    <tag k="is_in" v="Russia"/>
  </way>
  <way id="84655896" version="1" timestamp="2010-11-09T14:36:43Z" uid="115477" user="wowik" changeset="6327211">
    <nd ref="983406379"/>
    <nd ref="983406385"/>
    <nd ref="983406382"/>
    <nd ref="983406375"/>
    <nd ref="983406379"/>
    <tag k="addr:city" v="Зеленоград"/>
    <tag k="addr:street" v="Панфиловский проспект"/>
    <tag k="building" v="yes"/>
    <tag k="is_in" v="Russia"/>
  </way>
</osm>
