<?xml version='1.0' encoding='UTF-8'?>
<osm version="0.6" generator="libosmium/2.20.0">
  <way id="84823237" version="1" timestamp="2010-11-10T23:55:53Z" uid="20587" user="balrog-kun" changeset="6340644">
    <nd ref="27166955"/>
    <nd ref="300412323"/>
    <nd ref="255600485"/>
    <nd ref="27166951"/>
    <nd ref="251881964"/>
    <nd ref="27166949"/>
    <nd ref="27166946"/>
    <nd ref="301612981"/>
    <nd ref="27166944"/>
    <nd ref="345510359"/>
    <nd ref="131642946"/>
    <nd ref="255594006"/>
    <nd ref="27166942"/>
    <nd ref="286835749"/>
    <nd ref="286835754"/>
    <nd ref="27166940"/>
    <nd ref="27166938"/>
    <nd ref="286835737"/>
    <nd ref="27166928"/>
    <nd ref="27166926"/>
    <nd ref="27166924"/>
    <nd ref="27166922"/>
    <tag k="highway" v="primary"/>
    <tag k="int_ref" v="E 30"/>
    <tag k="lanes" v="3"/>
    <tag k="name" v="Ostrobramska"/>
    <tag k="oneway" v="yes"/>
    <tag k="ref" v="2"/>
    <tag k="wikipedia" v="pl:Ulica Ostrobramska w Warszawie"/>
  </way>
  <way id="84823240" version="1" timestamp="2010-11-10T23:55:54Z" uid="20587" user="balrog-kun" changeset="6340644">
    <nd ref="302711766"/>
    <nd ref="316892428"/>
    <nd ref="302711588"/>
    <tag k="highway" v="living_street"/>
    <tag k="maxheight" v="2.8"/>
    <tag k="maxspeed" v="5"/>
    <tag k="maxweight" v="10"/>
  </way>
  <way id="84823241" version="1" timestamp="2010-11-10T23:55:55Z" uid="20587" user="balrog-kun" changeset="6340644">
    <nd ref="33130195"/>
    <nd ref="32920671"/>
    <nd ref="251880578"/>
    <nd ref="251880579"/>
    <nd ref="32920670"/>
    <nd ref="251880580"/>
    <nd ref="251880620"/>
    <nd ref="111534755"/>
    <tag k="highway" v="trunk"/>
    <tag k="int_ref" v="E 30"/>
    <tag k="maxspeed" v="60"/>
    <tag k="name" v="Aleja Stanów Zjednoczonych"/>
    <tag k="note" v="WAZNE: Trasa ma więcej węzłów niż skrzyżowań stąd klasa trunk"/>
    <tag k="oneway" v="yes"/>
    <tag k="ref" v="2"/>
    <tag k="wikipedia" v="pl:Aleja Stanów Zjednoczonych w Warszawie"/>
  </way>
  <way id="84823816" version="2" timestamp="2010-12-31T08:54:52Z" uid="19626" user="Swamp" changeset="6817239">
    <nd ref="639589185"/>
    <nd ref="639589685"/>
    <nd ref="639589529"/>
    <nd ref="639589241"/>
    <nd ref="639589187"/>
    <nd ref="639589188"/>
    <nd ref="639589191"/>
    <nd ref="639589282"/>
    <nd ref="639589192"/>
    <tag k="highway" v="service"/>
    <tag k="maxspeed" v="20"/>
    <tag k="source" v="nearmap"/>
  </way>
  <way id="84823820" version="2" timestamp="2010-12-29T10:33:12Z" uid="18775" user="drlizau" changeset="6796852">
    <nd ref="639588830"/>
    <nd ref="984900905"/>
    <nd ref="984900664"/>
    <nd ref="984900979"/>
    <nd ref="984900742"/>
    <nd ref="984900801"/>
    <nd ref="347291988"/>
    <nd ref="347291989"/>
    <nd ref="347291919"/>
    <nd ref="639595932"/>
    <nd ref="347291990"/>
    <nd ref="347291991"/>
    <tag k="highway" v="tertiary"/>
    <tag k="maxspeed" v="50"/>
    <tag k="name" v="Gulai Road"/>
  </way>
</osm>
