<?xml version='1.0' encoding='UTF-8'?>
<osm version="0.6" generator="libosmium/2.20.0">
  <way id="84832579" version="1" timestamp="2010-11-11T06:27:29Z" uid="115477" user="wowik" changeset="6341308">
    <nd ref="890216920"/>
    <nd ref="890216952"/>
    <nd ref="891692050"/>
    <nd ref="890205559"/>
    <nd ref="914216549"/>
    <nd ref="890224668"/>
    <nd ref="890205583"/>
    <tag k="highway" v="secondary"/>
    <tag k="lanes" v="2"/>
    <tag k="layer" v="0"/>
    <tag k="name" v="Новокрюковская улица"/>
    <tag k="omkum:code" v="21954"/>
    <tag k="omkum:old_name" v="Проектируемый проезд N 623"/>
    <tag k="oneway" v="yes"/>
    <tag k="sorting_name" v="Новокрюковская  улица"/>
  </way>
  <way id="84832579" version="4" timestamp="2011-01-24T13:18:27Z" uid="115477" user="wowik" changeset="7072902">
    <nd ref="890216920"/>
    <nd ref="890216952"/>
    <nd ref="891692050"/>
    <nd ref="890205559"/>
    <nd ref="1050231548"/>
    <nd ref="1046118745"/>
    <nd ref="914216549"/>
    <nd ref="1050231555"/>
    <nd ref="1118673127"/>
    <nd ref="890224668"/>
    <nd ref="1050231561"/>
    <nd ref="1118673129"/>
    <nd ref="890205583"/>
    <tag k="highway" v="secondary"/>
    <tag k="lanes" v="2"/>
    <tag k="layer" v="0"/>
    <tag k="name" v="Новокрюковская улица"/>
    <tag k="omkum:code" v="21954"/>
    <tag k="omkum:old_name" v="Проектируемый проезд N 623"/>
    <tag k="oneway" v="yes"/>
    <tag k="sorting_name" v="Новокрюковская  улица"/>
  </way>
  <way id="84832580" version="1" timestamp="2010-11-11T06:27:29Z" uid="115477" user="wowik" changeset="6341308">
    <nd ref="984970629"/>
    <nd ref="432432360"/>
    <nd ref="305052664"/>
    <nd ref="892833826"/>
    <nd ref="877214051"/>
    <nd ref="892667608"/>
    <nd ref="305052665"/>
    <tag k="highway" v="secondary"/>
    <tag k="lanes" v="2"/>
    <tag k="layer" v="0"/>
    <tag k="name" v="улица Ленина"/>
    <tag k="oneway" v="yes"/>
  </way>
  <way id="84832581" version="1" timestamp="2010-11-11T06:27:29Z" uid="115477" user="wowik" changeset="6341308">
    <nd ref="451737650"/>
    <nd ref="890216909"/>
    <tag k="highway" v="secondary"/>
    <tag k="lanes" v="2"/>
    <tag k="layer" v="0"/>
    <tag k="name" v="Заводская улица"/>
    <tag k="omkum:code" v="07547"/>
    <tag k="oneway" v="yes"/>
    <tag k="sorting_name" v="Заводская  улица"/>
  </way>
  <way id="84832582" version="1" timestamp="2010-11-11T06:27:29Z" uid="115477" user="wowik" changeset="6341308">
    <nd ref="891845119"/>
    <nd ref="890216934"/>
    <nd ref="892783518"/>
    <nd ref="890216940"/>
    <tag k="highway" v="secondary"/>
    <tag k="lanes" v="2"/>
    <tag k="name" v="улица Ленина"/>
    <tag k="oneway" v="yes"/>
  </way>
  <way id="84832652" version="1" timestamp="2010-11-11T06:35:15Z" uid="115477" user="wowik" changeset="6341387">
    <nd ref="984973800"/>
    <nd ref="984973804"/>
    <nd ref="984973798"/>
    <nd ref="984973789"/>
    <nd ref="984973788"/>
    <nd ref="984973806"/>
    <nd ref="984973801"/>
    <nd ref="984973791"/>
    <nd ref="984973803"/>
    <nd ref="984973796"/>
    <nd ref="984973800"/>
    <tag k="leisure" v="pitch"/>
  </way>
  <way id="84832974" version="1" timestamp="2010-11-11T06:51:58Z" uid="115477" user="wowik" changeset="6341405">
    <nd ref="984980000"/>
    <nd ref="984980008"/>
    <nd ref="984980012"/>
    <nd ref="984980005"/>
    <nd ref="984980000"/>
    <tag k="addr:city" v="Зеленоград"/>
    <tag k="addr:housenumber" v="838c1"/>
    <tag k="addr:street" v="8-й Микрорайон"/>
    <tag k="building" v="yes"/>
    <tag k="is_in" v="Russia"/>
  </way>
</osm>
