<?xml version='1.0' encoding='UTF-8'?>
<osm version="0.6" generator="libosmium/2.20.0">
  <way id="84866140" version="1" timestamp="2010-11-11T12:27:51Z" uid="115477" user="wowik" changeset="6343054">
    <nd ref="985235924"/>
    <nd ref="985235923"/>
    <nd ref="985235925"/>
    <nd ref="985235915"/>
    <nd ref="985235924"/>
    <tag k="addr:city" v="Зеленоград"/>
    <tag k="addr:housenumber" v="с3"/>
    <tag k="addr:street" v="площадь Юности"/>
    <tag k="amenity" v="toilets"/>
    <tag k="building" v="yes"/>
    <tag k="cladr:code" v="77000002000319700"/>
    <tag k="description" v="подземный туалет"/>
    <tag k="is_in" v="Russia"/>
    <tag k="name" v="Стационарный общественный туалет"/>
  </way>
  <way id="84866140" version="2" timestamp="2011-01-12T14:20:10Z" uid="115477" user="wowik" changeset="6947600">
    <nd ref="985235924"/>
    <nd ref="985235923"/>
    <nd ref="985235925"/>
    <nd ref="985235915"/>
    <nd ref="985235924"/>
    <tag k="addr:city" v="Зеленоград"/>
    <tag k="addr:housenumber" v="2с3"/>
    <tag k="addr:street" v="площадь Юности"/>
    <tag k="amenity" v="toilets"/>
    <tag k="building" v="yes"/>
    <tag k="cladr:code" v="77000002000319700"/>
    <tag k="description" v="подземный туалет"/>
    <tag k="is_in" v="Russia"/>
    <tag k="name" v="Стационарный общественный туалет"/>
  </way>
</osm>
