<?xml version='1.0' encoding='UTF-8'?>
<osm version="0.6" generator="libosmium/2.20.0">
  <way id="84865150" version="1" timestamp="2010-11-11T12:02:23Z" uid="115477" user="wowik" changeset="6343054">
    <nd ref="985227548"/>
    <nd ref="985227596"/>
    <nd ref="985227539"/>
    <nd ref="985227591"/>
    <nd ref="985227548"/>
    <tag k="addr:city" v="Зеленоград"/>
    <tag k="addr:housenumber" v="1с1"/>
    <tag k="addr:street" v="Привокзальная площадь"/>
    <tag k="building" v="yes"/>
  </way>
  <way id="84865152" version="1" timestamp="2010-11-11T12:02:23Z" uid="115477" user="wowik" changeset="6343054">
    <nd ref="985227571"/>
    <nd ref="985227552"/>
    <nd ref="985227589"/>
    <nd ref="985227549"/>
    <nd ref="985227582"/>
    <nd ref="985227584"/>
    <nd ref="985227540"/>
    <nd ref="985227573"/>
    <nd ref="985227566"/>
    <nd ref="985227600"/>
    <nd ref="985227571"/>
    <tag k="addr:city" v="Зеленоград"/>
    <tag k="building" v="yes"/>
    <tag k="is_in" v="Russia"/>
  </way>
  <way id="84865152" version="2" timestamp="2011-01-18T13:03:25Z" uid="115477" user="wowik" changeset="7010197">
    <nd ref="985227571"/>
    <nd ref="985227552"/>
    <nd ref="985227589"/>
    <nd ref="985227549"/>
    <nd ref="985227582"/>
    <nd ref="985227584"/>
    <nd ref="985227540"/>
    <nd ref="985227573"/>
    <nd ref="985227566"/>
    <nd ref="985227600"/>
    <nd ref="985227571"/>
    <tag k="addr:city" v="Зеленоград"/>
    <tag k="building" v="yes"/>
    <tag k="is_in" v="Russia"/>
    <tag k="shop" v="yes"/>
  </way>
  <way id="84865154" version="1" timestamp="2010-11-11T12:02:23Z" uid="115477" user="wowik" changeset="6343054">
    <nd ref="985227595"/>
    <nd ref="985227572"/>
    <nd ref="985227537"/>
    <nd ref="985227564"/>
    <nd ref="985227599"/>
    <nd ref="985227555"/>
    <nd ref="985227595"/>
    <tag k="addr:city" v="Зеленоград"/>
    <tag k="addr:housenumber" v="1с2"/>
    <tag k="addr:street" v="Привокзальная площадь"/>
    <tag k="building" v="yes"/>
  </way>
  <way id="84865648" version="2" timestamp="2011-05-05T10:23:51Z" uid="7617" user="Franc" changeset="8056167">
    <nd ref="985231863"/>
    <nd ref="985231864"/>
    <nd ref="985231865"/>
    <nd ref="1272939600"/>
    <nd ref="985231866"/>
    <nd ref="985231867"/>
    <nd ref="1272939680"/>
    <nd ref="985231868"/>
    <nd ref="1272939729"/>
    <nd ref="985231869"/>
    <nd ref="1272939707"/>
    <nd ref="1272939644"/>
    <nd ref="985231870"/>
    <nd ref="985231871"/>
    <nd ref="1272939758"/>
    <nd ref="985231872"/>
    <tag k="highway" v="residential"/>
    <tag k="maxspeed" v="50"/>
    <tag k="source" v="survey"/>
    <tag k="surface" v="asphalt"/>
  </way>
  <way id="84865651" version="2" timestamp="2011-05-05T11:25:47Z" uid="7617" user="Franc" changeset="8056634">
    <nd ref="985231931"/>
    <nd ref="985231932"/>
    <nd ref="1272970508"/>
    <nd ref="985231933"/>
    <nd ref="1272970624"/>
    <nd ref="985231934"/>
    <nd ref="1272970586"/>
    <nd ref="1272970675"/>
    <nd ref="985231935"/>
    <nd ref="1272970620"/>
    <nd ref="985231937"/>
    <nd ref="1272970547"/>
    <nd ref="985231938"/>
    <nd ref="1272970637"/>
    <nd ref="1272970582"/>
    <nd ref="985231939"/>
    <nd ref="1272970668"/>
    <nd ref="985231940"/>
    <tag k="highway" v="residential"/>
    <tag k="name" v="Mariners Way"/>
    <tag k="source" v="survey"/>
    <tag k="surface" v="asphalt"/>
  </way>
  <way id="84865652" version="2" timestamp="2011-05-05T10:35:04Z" uid="7617" user="Franc" changeset="8056237">
    <nd ref="985231928"/>
    <nd ref="985231946"/>
    <nd ref="1272942651"/>
    <nd ref="985231948"/>
    <nd ref="1272942632"/>
    <nd ref="985231949"/>
    <nd ref="985231950"/>
    <nd ref="985231951"/>
    <nd ref="1272942631"/>
    <nd ref="985231952"/>
    <nd ref="985231953"/>
    <nd ref="17025008"/>
    <tag k="highway" v="residential"/>
    <tag k="name" v="Boonamin Road"/>
    <tag k="source" v="survey"/>
    <tag k="surface" v="asphalt"/>
  </way>
  <way id="84865652" version="3" timestamp="2011-05-06T12:34:14Z" uid="7617" user="Franc" changeset="8064954">
    <nd ref="985231928"/>
    <nd ref="985231946"/>
    <nd ref="1272942651"/>
    <nd ref="985231948"/>
    <nd ref="1274268442"/>
    <nd ref="1272942632"/>
    <nd ref="985231949"/>
    <nd ref="985231950"/>
    <nd ref="985231951"/>
    <nd ref="1272942631"/>
    <nd ref="985231952"/>
    <nd ref="985231953"/>
    <nd ref="17025008"/>
    <tag k="highway" v="residential"/>
    <tag k="name" v="Boonamin Road"/>
    <tag k="source" v="survey"/>
    <tag k="surface" v="asphalt"/>
  </way>
  <way id="84865654" version="2" timestamp="2011-05-05T11:39:33Z" uid="7617" user="Franc" changeset="8056720">
    <nd ref="985232006"/>
    <nd ref="985232008"/>
    <nd ref="1272978894"/>
    <nd ref="985232009"/>
    <nd ref="1272978884"/>
    <nd ref="985232010"/>
    <nd ref="1272978889"/>
    <nd ref="985232011"/>
    <nd ref="985231994"/>
    <tag k="highway" v="residential"/>
    <tag k="name" v="Anglesea Terrace"/>
    <tag k="source" v="survey"/>
    <tag k="surface" v="asphalt"/>
  </way>
  <way id="84865664" version="2" timestamp="2011-04-25T12:57:20Z" uid="7617" user="Franc" changeset="7963200">
    <nd ref="985232131"/>
    <nd ref="1259498394"/>
    <tag k="highway" v="residential"/>
    <tag k="name" v="Hillcrest Avenue"/>
    <tag k="source" v="survey"/>
    <tag k="surface" v="asphalt"/>
  </way>
  <way id="84865666" version="2" timestamp="2011-04-25T12:57:25Z" uid="7617" user="Franc" changeset="7963200">
    <nd ref="17078577"/>
    <nd ref="1259497921"/>
    <nd ref="1259498177"/>
    <nd ref="985232136"/>
    <tag k="highway" v="residential"/>
    <tag k="name" v="Palmview Place"/>
    <tag k="source" v="survey"/>
    <tag k="surface" v="asphalt"/>
  </way>
  <way id="84865669" version="2" timestamp="2011-04-25T12:57:22Z" uid="7617" user="Franc" changeset="7963200">
    <nd ref="985232151"/>
    <nd ref="985232153"/>
    <nd ref="985232154"/>
    <nd ref="985232155"/>
    <nd ref="985232157"/>
    <nd ref="17025265"/>
    <tag k="highway" v="residential"/>
    <tag k="name" v="Boambee Street"/>
    <tag k="source" v="survey"/>
    <tag k="surface" v="asphalt"/>
  </way>
  <way id="84865679" version="2" timestamp="2011-04-25T22:42:49Z" uid="7617" user="Franc" changeset="7969771">
    <nd ref="985232249"/>
    <nd ref="1260309773"/>
    <nd ref="985232263"/>
    <tag k="highway" v="residential"/>
    <tag k="name" v="Windmill Street"/>
    <tag k="source" v="survey"/>
    <tag k="surface" v="asphalt"/>
  </way>
  <way id="84865709" version="2" timestamp="2011-04-25T13:27:46Z" uid="7617" user="Franc" changeset="7963489">
    <nd ref="985233083"/>
    <nd ref="1259517982"/>
    <nd ref="1259517926"/>
    <nd ref="985233084"/>
    <tag k="highway" v="residential"/>
    <tag k="maxspeed" v="50"/>
    <tag k="name" v="Byabarra Place"/>
    <tag k="source" v="survey"/>
    <tag k="surface" v="asphalt"/>
  </way>
  <way id="84865713" version="2" timestamp="2011-04-25T13:27:40Z" uid="7617" user="Franc" changeset="7963489">
    <nd ref="985233105"/>
    <nd ref="1259517949"/>
    <nd ref="985233106"/>
    <nd ref="1259517931"/>
    <nd ref="985233107"/>
    <nd ref="1259517984"/>
    <nd ref="985233108"/>
    <nd ref="17078939"/>
    <tag k="highway" v="residential"/>
    <tag k="maxspeed" v="50"/>
    <tag k="name" v="Arawa Close"/>
    <tag k="source" v="survey"/>
    <tag k="surface" v="asphalt"/>
  </way>
  <way id="84865726" version="2" timestamp="2011-04-25T13:27:39Z" uid="7617" user="Franc" changeset="7963489">
    <nd ref="860224430"/>
    <nd ref="1259517962"/>
    <nd ref="985233083"/>
    <nd ref="1259517932"/>
    <nd ref="1259517950"/>
    <nd ref="985233148"/>
    <nd ref="985233132"/>
    <nd ref="985233128"/>
    <nd ref="1259517914"/>
    <nd ref="1259517947"/>
    <nd ref="1259517928"/>
    <nd ref="1259517976"/>
    <nd ref="984222379"/>
    <nd ref="985233170"/>
    <nd ref="985233172"/>
    <nd ref="985233173"/>
    <tag k="highway" v="residential"/>
    <tag k="maxspeed" v="50"/>
    <tag k="name" v="Pappinbarra Parade"/>
    <tag k="source" v="survey"/>
    <tag k="surface" v="asphalt"/>
  </way>
  <way id="84865727" version="2" timestamp="2011-04-25T13:27:47Z" uid="7617" user="Franc" changeset="7963489">
    <nd ref="985233170"/>
    <nd ref="1259517945"/>
    <nd ref="985233175"/>
    <tag k="highway" v="residential"/>
    <tag k="maxspeed" v="50"/>
    <tag k="name" v="June Street"/>
    <tag k="source" v="survey"/>
    <tag k="surface" v="asphalt"/>
  </way>
  <way id="84865731" version="2" timestamp="2011-04-25T12:57:22Z" uid="7617" user="Franc" changeset="7963200">
    <nd ref="985233207"/>
    <nd ref="985233209"/>
    <nd ref="1259498346"/>
    <nd ref="1259498720"/>
    <nd ref="985233210"/>
    <nd ref="1259498086"/>
    <nd ref="985233211"/>
    <tag k="highway" v="residential"/>
    <tag k="maxspeed" v="50"/>
    <tag k="name" v="Chisholm Crescent"/>
    <tag k="source" v="survey"/>
    <tag k="surface" v="asphalt"/>
  </way>
  <way id="84865733" version="2" timestamp="2011-04-25T12:57:26Z" uid="7617" user="Franc" changeset="7963200">
    <nd ref="985233219"/>
    <nd ref="1259498525"/>
    <nd ref="985233221"/>
    <nd ref="985233223"/>
    <nd ref="1259498257"/>
    <nd ref="1259498453"/>
    <nd ref="1259498554"/>
    <nd ref="985233224"/>
    <nd ref="1259497932"/>
    <nd ref="985233225"/>
    <nd ref="985233226"/>
    <tag k="highway" v="residential"/>
    <tag k="maxspeed" v="50"/>
    <tag k="name" v="Parkwood Court"/>
    <tag k="source" v="survey"/>
    <tag k="surface" v="asphalt"/>
  </way>
  <way id="84865735" version="2" timestamp="2011-04-25T12:57:30Z" uid="7617" user="Franc" changeset="7963200">
    <nd ref="985233221"/>
    <nd ref="985233248"/>
    <nd ref="1259498639"/>
    <nd ref="985233249"/>
    <nd ref="1259498006"/>
    <nd ref="985233250"/>
    <tag k="highway" v="residential"/>
    <tag k="maxspeed" v="50"/>
    <tag k="name" v="Timbarra Close"/>
    <tag k="source" v="survey"/>
    <tag k="surface" v="asphalt"/>
  </way>
  <way id="84865738" version="1" timestamp="2010-11-11T12:16:36Z" uid="115477" user="wowik" changeset="6343054">
    <nd ref="985233318"/>
    <nd ref="985233315"/>
    <nd ref="985233297"/>
    <nd ref="985233304"/>
    <nd ref="985233300"/>
    <nd ref="985233320"/>
    <nd ref="985233318"/>
    <tag k="building" v="yes"/>
  </way>
  <way id="84865738" version="2" timestamp="2010-11-11T12:24:26Z" uid="115477" user="wowik" changeset="6343054">
    <nd ref="985233318"/>
    <nd ref="985233315"/>
    <nd ref="985233297"/>
    <nd ref="985233304"/>
    <nd ref="985233300"/>
    <nd ref="985233320"/>
    <nd ref="985233318"/>
    <tag k="addr:city" v="Зеленоград"/>
    <tag k="addr:housenumber" v="с3"/>
    <tag k="addr:street" v="Привокзальная площадь"/>
    <tag k="building" v="yes"/>
    <tag k="is_in" v="Russia"/>
  </way>
  <way id="84865742" version="2" timestamp="2011-04-25T13:18:32Z" uid="7617" user="Franc" changeset="7963407">
    <nd ref="985233346"/>
    <nd ref="1259511787"/>
    <nd ref="985233348"/>
    <nd ref="985233350"/>
    <nd ref="1259511720"/>
    <nd ref="985233351"/>
    <tag k="highway" v="residential"/>
    <tag k="maxspeed" v="50"/>
    <tag k="name" v="Bowden Road"/>
    <tag k="source" v="survey"/>
    <tag k="surface" v="asphalt"/>
  </way>
  <way id="84865745" version="2" timestamp="2011-04-25T13:18:31Z" uid="7617" user="Franc" changeset="7963407">
    <nd ref="985233348"/>
    <nd ref="985233354"/>
    <nd ref="1259511651"/>
    <nd ref="985233357"/>
    <nd ref="985233359"/>
    <nd ref="1259511692"/>
    <nd ref="985233361"/>
    <nd ref="985233363"/>
    <nd ref="1259511630"/>
    <nd ref="985233367"/>
    <nd ref="1259511767"/>
    <nd ref="985233370"/>
    <nd ref="985233351"/>
    <nd ref="985233372"/>
    <nd ref="1259511700"/>
    <nd ref="1259511668"/>
    <nd ref="985233374"/>
    <nd ref="985233377"/>
    <nd ref="985233381"/>
    <tag k="highway" v="residential"/>
    <tag k="maxspeed" v="50"/>
    <tag k="name" v="Cattle Brook Road"/>
    <tag k="source" v="survey"/>
    <tag k="surface" v="asphalt"/>
  </way>
  <way id="84865745" version="3" timestamp="2011-04-25T13:27:38Z" uid="7617" user="Franc" changeset="7963489">
    <nd ref="985233348"/>
    <nd ref="985233354"/>
    <nd ref="1259511651"/>
    <nd ref="1259517912"/>
    <nd ref="985233357"/>
    <nd ref="985233359"/>
    <nd ref="1259511692"/>
    <nd ref="985233361"/>
    <nd ref="985233363"/>
    <nd ref="1259511630"/>
    <nd ref="985233367"/>
    <nd ref="1259511767"/>
    <nd ref="985233370"/>
    <nd ref="985233351"/>
    <nd ref="985233372"/>
    <nd ref="1259511700"/>
    <nd ref="1259511668"/>
    <nd ref="985233374"/>
    <nd ref="985233377"/>
    <nd ref="985233381"/>
    <tag k="highway" v="residential"/>
    <tag k="maxspeed" v="50"/>
    <tag k="name" v="Cattle Brook Road"/>
    <tag k="source" v="survey"/>
    <tag k="surface" v="asphalt"/>
  </way>
  <way id="84865748" version="2" timestamp="2011-04-25T13:18:33Z" uid="7617" user="Franc" changeset="7963407">
    <nd ref="17028000"/>
    <nd ref="985233424"/>
    <nd ref="985233425"/>
    <nd ref="985233426"/>
    <nd ref="985233334"/>
    <nd ref="985233427"/>
    <nd ref="985233429"/>
    <nd ref="985233430"/>
    <nd ref="985233431"/>
    <nd ref="985233432"/>
    <nd ref="985233433"/>
    <nd ref="985233434"/>
    <nd ref="985233435"/>
    <nd ref="985233338"/>
    <nd ref="1259511741"/>
    <nd ref="985233436"/>
    <nd ref="1259511760"/>
    <nd ref="985233346"/>
    <nd ref="985233437"/>
    <nd ref="1259511733"/>
    <nd ref="985233439"/>
    <nd ref="1259511683"/>
    <nd ref="985233440"/>
    <nd ref="985233442"/>
    <nd ref="985233443"/>
    <nd ref="985233444"/>
    <nd ref="985233229"/>
    <nd ref="985233445"/>
    <tag k="highway" v="residential"/>
    <tag k="maxspeed" v="50"/>
    <tag k="name" v="Hamlyn Drive"/>
    <tag k="source" v="survey"/>
    <tag k="surface" v="asphalt"/>
  </way>
  <way id="84865758" version="2" timestamp="2011-04-25T13:27:36Z" uid="7617" user="Franc" changeset="7963489">
    <nd ref="984222423"/>
    <nd ref="985233466"/>
    <nd ref="985233207"/>
    <nd ref="985233283"/>
    <nd ref="985233215"/>
    <nd ref="985233211"/>
    <nd ref="985233204"/>
    <nd ref="985233381"/>
    <nd ref="985233445"/>
    <nd ref="985233467"/>
    <nd ref="985233468"/>
    <nd ref="1259517944"/>
    <nd ref="985233469"/>
    <nd ref="985233470"/>
    <nd ref="1259517959"/>
    <nd ref="985233471"/>
    <nd ref="985233472"/>
    <nd ref="1259517965"/>
    <nd ref="985233473"/>
    <nd ref="985233474"/>
    <tag k="highway" v="residential"/>
    <tag k="maxspeed" v="50"/>
    <tag k="name" v="McLaren Drive"/>
    <tag k="source" v="survey"/>
    <tag k="surface" v="asphalt"/>
  </way>
</osm>
