<?xml version='1.0' encoding='UTF-8'?>
<osm version="0.6" generator="libosmium/2.20.0">
  <way id="84893967" version="2" timestamp="2010-11-12T00:06:51Z" uid="30632" user="antblant" changeset="6348047">
    <nd ref="258134949"/>
    <nd ref="258135065"/>
    <nd ref="258135078"/>
    <nd ref="258134934"/>
    <tag k="highway" v="tertiary"/>
    <tag k="junction" v="roundabout"/>
    <tag k="name" v="Kuklińskiego"/>
    <tag k="source" v="UMP-PL, ./UMP-Koszalin/src/SLUPSK.ulice.txt"/>
  </way>
  <way id="84893967" version="4" timestamp="2011-03-13T21:49:10Z" uid="30632" user="antblant" changeset="7550942">
    <nd ref="258134949"/>
    <nd ref="258135065"/>
    <nd ref="258135078"/>
    <nd ref="258134934"/>
    <tag k="highway" v="tertiary"/>
    <tag k="junction" v="roundabout"/>
    <tag k="maxspeed" v="50"/>
    <tag k="name" v="Kuklińskiego"/>
    <tag k="source" v="UMP-PL, ./UMP-Koszalin/src/SLUPSK.ulice.txt"/>
  </way>
  <way id="84893969" version="2" timestamp="2010-11-12T00:06:58Z" uid="30632" user="antblant" changeset="6348047">
    <nd ref="258135086"/>
    <nd ref="258134949"/>
    <tag k="highway" v="tertiary"/>
    <tag k="junction" v="roundabout"/>
    <tag k="name" v="Kuklińskiego"/>
    <tag k="source" v="UMP-PL, ./UMP-Koszalin/src/SLUPSK.ulice.txt"/>
  </way>
  <way id="84893969" version="4" timestamp="2011-03-13T21:49:11Z" uid="30632" user="antblant" changeset="7550942">
    <nd ref="258135086"/>
    <nd ref="258134949"/>
    <tag k="highway" v="tertiary"/>
    <tag k="junction" v="roundabout"/>
    <tag k="maxspeed" v="50"/>
    <tag k="name" v="Kuklińskiego"/>
    <tag k="source" v="UMP-PL, ./UMP-Koszalin/src/SLUPSK.ulice.txt"/>
  </way>
</osm>
