<?xml version='1.0' encoding='UTF-8'?>
<osm version="0.6" generator="libosmium/2.20.0">
  <way id="84960057" version="1" timestamp="2010-11-11T22:10:07Z" uid="30632" user="antblant" changeset="6347466">
    <nd ref="781539425"/>
    <nd ref="132676075"/>
    <nd ref="132676076"/>
    <nd ref="132676078"/>
    <nd ref="132676082"/>
    <nd ref="132676083"/>
    <nd ref="132676085"/>
    <nd ref="132676087"/>
    <nd ref="132676088"/>
    <nd ref="132676089"/>
    <nd ref="132676090"/>
    <tag k="highway" v="primary"/>
    <tag k="history" v="Retrieved from v2"/>
    <tag k="name" v="Towarowa"/>
    <tag k="ref" v="16"/>
  </way>
  <way id="84960576" version="1" timestamp="2010-11-11T22:16:07Z" uid="30632" user="antblant" changeset="6347466">
    <nd ref="729620526"/>
    <nd ref="729622915"/>
    <nd ref="729617335"/>
    <nd ref="729619391"/>
    <tag k="highway" v="primary"/>
    <tag k="name" v="Kajki"/>
    <tag k="oneway" v="1"/>
    <tag k="ref" v="16;65"/>
    <tag k="source" v="http://ump.waw.pl/ retrieved 16:02:22 01/18/10 (UMP-Suwalki/src/ELK.ulice.txt)"/>
  </way>
  <way id="84960576" version="2" timestamp="2010-11-16T07:24:19Z" uid="30632" user="antblant" changeset="6382958">
    <nd ref="729620526"/>
    <nd ref="729622915"/>
    <nd ref="729617335"/>
    <tag k="highway" v="primary"/>
    <tag k="name" v="Kajki"/>
    <tag k="oneway" v="1"/>
    <tag k="ref" v="16;65"/>
    <tag k="source" v="http://ump.waw.pl/ retrieved 16:02:22 01/18/10 (UMP-Suwalki/src/ELK.ulice.txt)"/>
  </way>
</osm>
