<?xml version='1.0' encoding='UTF-8'?>
<osm version="0.6" generator="libosmium/2.20.0">
  <way id="84962898" version="1" timestamp="2010-11-11T22:51:36Z" uid="30632" user="antblant" changeset="6347712">
    <nd ref="450165422"/>
    <nd ref="448158589"/>
    <nd ref="448158590"/>
    <nd ref="448158593"/>
    <nd ref="448158594"/>
    <nd ref="448158595"/>
    <nd ref="448158596"/>
    <nd ref="448158597"/>
    <tag k="highway" v="primary"/>
    <tag k="ref" v="55"/>
    <tag k="source" v="UMP-PL, ./UMP-Gdansk/src/inne.ulice.txt"/>
  </way>
  <way id="84962899" version="1" timestamp="2010-11-11T22:51:36Z" uid="30632" user="antblant" changeset="6347712">
    <nd ref="349564041"/>
    <nd ref="775333394"/>
    <tag k="highway" v="primary"/>
    <tag k="ref" v="22;55"/>
  </way>
  <way id="84962900" version="1" timestamp="2010-11-11T22:51:36Z" uid="30632" user="antblant" changeset="6347712">
    <nd ref="127571285"/>
    <nd ref="256765887"/>
    <nd ref="256766469"/>
    <nd ref="256765878"/>
    <nd ref="256765874"/>
    <nd ref="256765872"/>
    <nd ref="382435557"/>
    <nd ref="256765868"/>
    <nd ref="256765866"/>
    <nd ref="729110023"/>
    <nd ref="256765864"/>
    <nd ref="817322189"/>
    <nd ref="256765862"/>
    <nd ref="382435370"/>
    <nd ref="382435376"/>
    <nd ref="817322179"/>
    <nd ref="817322216"/>
    <nd ref="256765860"/>
    <tag k="highway" v="primary"/>
    <tag k="name" v="Aleja Rodła"/>
    <tag k="ref" v="22"/>
  </way>
  <way id="84962901" version="1" timestamp="2010-11-11T22:51:36Z" uid="30632" user="antblant" changeset="6347712">
    <nd ref="448158597"/>
    <nd ref="127571595"/>
    <tag k="highway" v="primary"/>
    <tag k="ref" v="55"/>
    <tag k="source" v="UMP-PL, ./UMP-Gdansk/src/inne.ulice.txt"/>
  </way>
  <way id="84962902" version="1" timestamp="2010-11-11T22:51:37Z" uid="30632" user="antblant" changeset="6347712">
    <nd ref="382436006"/>
    <nd ref="382436003"/>
    <nd ref="382436004"/>
    <tag k="highway" v="primary"/>
    <tag k="name" v="Aleja Rodła"/>
    <tag k="oneway" v="yes"/>
    <tag k="ref" v="22;55"/>
  </way>
</osm>
