<?xml version='1.0' encoding='UTF-8'?>
<osm version="0.6" generator="libosmium/2.20.0">
  <way id="85039955" version="1" timestamp="2010-11-12T17:48:01Z" uid="115477" user="wowik" changeset="6352227">
    <nd ref="986817548"/>
    <nd ref="986817577"/>
    <nd ref="986817533"/>
    <nd ref="986817570"/>
    <nd ref="986817548"/>
    <tag k="addr:city" v="Зеленоград"/>
    <tag k="building" v="yes"/>
  </way>
  <way id="85039958" version="1" timestamp="2010-11-12T17:48:01Z" uid="115477" user="wowik" changeset="6352227">
    <nd ref="986817583"/>
    <nd ref="517697641"/>
    <tag k="highway" v="service"/>
  </way>
  <way id="85039958" version="2" timestamp="2010-11-12T17:48:38Z" uid="115477" user="wowik" changeset="6352227">
    <nd ref="986817583"/>
    <nd ref="517697641"/>
    <tag k="highway" v="track"/>
  </way>
  <way id="85039959" version="1" timestamp="2010-11-12T17:48:01Z" uid="115477" user="wowik" changeset="6352227">
    <nd ref="986817555"/>
    <nd ref="986817545"/>
    <nd ref="986817564"/>
    <nd ref="986817581"/>
    <nd ref="986817537"/>
    <nd ref="986817557"/>
    <nd ref="986817555"/>
    <tag k="abandoned" v="yes"/>
    <tag k="addr:city" v="Зеленоград"/>
    <tag k="building" v="yes"/>
  </way>
  <way id="85039959" version="2" timestamp="2011-01-13T17:42:28Z" uid="115477" user="wowik" changeset="6959469">
    <nd ref="986817555"/>
    <nd ref="986817545"/>
    <nd ref="986817564"/>
    <nd ref="986817581"/>
    <nd ref="986817537"/>
    <nd ref="986817557"/>
    <nd ref="986817555"/>
    <tag k="abandoned" v="yes"/>
    <tag k="addr:city" v="Зеленоград"/>
    <tag k="addr:housenumber" v="14"/>
    <tag k="addr:street" v="Школьная улица"/>
    <tag k="addr:suburb" v="Малино"/>
    <tag k="building" v="yes"/>
  </way>
  <way id="85039960" version="1" timestamp="2010-11-12T17:48:01Z" uid="115477" user="wowik" changeset="6352227">
    <nd ref="986817535"/>
    <nd ref="986817589"/>
    <nd ref="986817546"/>
    <nd ref="986817567"/>
    <nd ref="986817535"/>
    <tag k="addr:city" v="Зеленоград"/>
    <tag k="building" v="yes"/>
  </way>
  <way id="85039964" version="1" timestamp="2010-11-12T17:48:02Z" uid="115477" user="wowik" changeset="6352227">
    <nd ref="986817568"/>
    <nd ref="986817556"/>
    <nd ref="986817592"/>
    <nd ref="986817536"/>
    <nd ref="986817568"/>
    <tag k="addr:city" v="Зеленоград"/>
    <tag k="addr:housenumber" v="15"/>
    <tag k="addr:street" v="Малинская  улица"/>
    <tag k="building" v="yes"/>
  </way>
  <way id="85039964" version="3" timestamp="2011-01-13T16:25:21Z" uid="115477" user="wowik" changeset="6958660">
    <nd ref="986817568"/>
    <nd ref="986817556"/>
    <nd ref="986817592"/>
    <nd ref="986817536"/>
    <nd ref="986817568"/>
    <tag k="addr:city" v="Зеленоград"/>
    <tag k="addr:housenumber" v="15"/>
    <tag k="addr:street" v="Малинская улица"/>
    <tag k="building" v="yes"/>
    <tag k="building:use" v="residential"/>
  </way>
  <way id="85039966" version="1" timestamp="2010-11-12T17:48:02Z" uid="115477" user="wowik" changeset="6352227">
    <nd ref="986817562"/>
    <nd ref="986817591"/>
    <nd ref="986817561"/>
    <nd ref="986817580"/>
    <nd ref="986817562"/>
    <tag k="addr:city" v="Зеленоград"/>
    <tag k="building" v="yes"/>
  </way>
  <way id="85039967" version="1" timestamp="2010-11-12T17:48:02Z" uid="115477" user="wowik" changeset="6352227">
    <nd ref="986817550"/>
    <nd ref="986817539"/>
    <nd ref="986817558"/>
    <nd ref="986817578"/>
    <nd ref="986817550"/>
    <tag k="addr:city" v="Зеленоград"/>
    <tag k="building" v="yes"/>
  </way>
  <way id="85039969" version="1" timestamp="2010-11-12T17:48:02Z" uid="115477" user="wowik" changeset="6352227">
    <nd ref="517698677"/>
    <nd ref="986817585"/>
    <tag k="highway" v="service"/>
  </way>
  <way id="85039969" version="2" timestamp="2010-11-12T17:48:38Z" uid="115477" user="wowik" changeset="6352227">
    <nd ref="517698677"/>
    <nd ref="986817585"/>
    <tag k="highway" v="track"/>
  </way>
  <way id="85039971" version="1" timestamp="2010-11-12T17:48:02Z" uid="115477" user="wowik" changeset="6352227">
    <nd ref="986817534"/>
    <nd ref="986817565"/>
    <nd ref="986817587"/>
    <nd ref="986817540"/>
    <nd ref="986817534"/>
    <tag k="addr:city" v="Зеленоград"/>
    <tag k="building" v="yes"/>
  </way>
  <way id="85039973" version="1" timestamp="2010-11-12T17:48:02Z" uid="115477" user="wowik" changeset="6352227">
    <nd ref="986817574"/>
    <nd ref="986817532"/>
    <nd ref="986817553"/>
    <nd ref="986817575"/>
    <nd ref="986817574"/>
    <tag k="addr:city" v="Зеленоград"/>
    <tag k="building" v="yes"/>
  </way>
</osm>
