<?xml version='1.0' encoding='UTF-8'?>
<osm version="0.6" generator="libosmium/2.20.0">
  <way id="8621357" version="4" timestamp="2010-02-14T15:43:51Z" uid="74617" user="JohnSmith" changeset="3874884">
    <nd ref="61389961"/>
    <nd ref="61413531"/>
    <nd ref="125123292"/>
    <nd ref="125123268"/>
    <tag k="highway" v="residential"/>
    <tag k="maxspeed" v="50"/>
    <tag k="name" v="Laurel Avenue"/>
  </way>
  <way id="8621385" version="4" timestamp="2010-02-14T15:43:32Z" uid="74617" user="JohnSmith" changeset="3874884">
    <nd ref="61413942"/>
    <nd ref="633154943"/>
    <nd ref="61414037"/>
    <tag k="highway" v="residential"/>
    <tag k="maxspeed" v="50"/>
    <tag k="name" v="Munna Street"/>
  </way>
  <way id="8621402" version="4" timestamp="2010-02-14T15:42:17Z" uid="74617" user="JohnSmith" changeset="3874884">
    <nd ref="61389964"/>
    <nd ref="61414479"/>
    <nd ref="61414480"/>
    <nd ref="61394190"/>
    <nd ref="61414482"/>
    <tag k="highway" v="residential"/>
    <tag k="maxspeed" v="50"/>
    <tag k="name" v="Murray Street"/>
  </way>
  <way id="8621426" version="3" timestamp="2010-02-14T15:44:43Z" uid="74617" user="JohnSmith" changeset="3874884">
    <nd ref="61414479"/>
    <nd ref="61415008"/>
    <nd ref="61415009"/>
    <tag k="highway" v="residential"/>
    <tag k="maxspeed" v="50"/>
    <tag k="name" v="Cramond Street"/>
  </way>
  <way id="8621429" version="3" timestamp="2010-02-14T15:44:37Z" uid="74617" user="JohnSmith" changeset="3874884">
    <nd ref="61414480"/>
    <nd ref="61415129"/>
    <nd ref="61415130"/>
    <tag k="highway" v="residential"/>
    <tag k="maxspeed" v="50"/>
    <tag k="name" v="Clifton Street"/>
  </way>
  <way id="8621441" version="5" timestamp="2010-02-14T15:44:38Z" uid="74617" user="JohnSmith" changeset="3874884">
    <nd ref="61389965"/>
    <nd ref="61415008"/>
    <nd ref="61415129"/>
    <nd ref="61415765"/>
    <nd ref="61415931"/>
    <nd ref="61415766"/>
    <nd ref="61415768"/>
    <nd ref="61415769"/>
    <tag k="highway" v="residential"/>
    <tag k="maxspeed" v="50"/>
    <tag k="name" v="Vardon Street"/>
  </way>
  <way id="8621450" version="3" timestamp="2010-02-14T15:44:41Z" uid="74617" user="JohnSmith" changeset="3874884">
    <nd ref="61415931"/>
    <nd ref="61415995"/>
    <nd ref="61415996"/>
    <tag k="highway" v="residential"/>
    <tag k="maxspeed" v="50"/>
    <tag k="name" v="Langley Avenue"/>
  </way>
  <way id="8621510" version="7" timestamp="2010-02-14T15:44:38Z" uid="74617" user="JohnSmith" changeset="3874884">
    <nd ref="61389966"/>
    <nd ref="61415009"/>
    <nd ref="61415130"/>
    <nd ref="61417214"/>
    <nd ref="61417215"/>
    <nd ref="566889743"/>
    <nd ref="61419589"/>
    <tag k="highway" v="residential"/>
    <tag k="maxspeed" v="50"/>
    <tag k="name" v="Granville Street"/>
  </way>
  <way id="8621520" version="3" timestamp="2010-02-14T15:44:41Z" uid="74617" user="JohnSmith" changeset="3874884">
    <nd ref="61418328"/>
    <nd ref="61417214"/>
    <nd ref="61415766"/>
    <tag k="highway" v="residential"/>
    <tag k="maxspeed" v="50"/>
    <tag k="name" v="Ralston Street"/>
  </way>
  <way id="8621531" version="3" timestamp="2010-02-14T15:44:41Z" uid="74617" user="JohnSmith" changeset="3874884">
    <nd ref="61417215"/>
    <nd ref="61415768"/>
    <tag k="highway" v="residential"/>
    <tag k="maxspeed" v="50"/>
    <tag k="name" v="Laughland Street"/>
  </way>
  <way id="8621545" version="10" timestamp="2010-02-14T15:44:37Z" uid="74617" user="JohnSmith" changeset="3874884">
    <nd ref="61389967"/>
    <nd ref="61418328"/>
    <nd ref="125123259"/>
    <nd ref="61419673"/>
    <tag k="highway" v="residential"/>
    <tag k="maxspeed" v="50"/>
    <tag k="name" v="Noble Street"/>
    <tag k="rcn" v="yes"/>
  </way>
  <way id="8621737" version="9" timestamp="2010-02-14T15:44:37Z" uid="74617" user="JohnSmith" changeset="3874884">
    <nd ref="61389968"/>
    <nd ref="279073977"/>
    <nd ref="61422125"/>
    <nd ref="61422126"/>
    <nd ref="61422127"/>
    <nd ref="125122601"/>
    <nd ref="61422128"/>
    <nd ref="61422129"/>
    <nd ref="61422130"/>
    <nd ref="61425558"/>
    <tag k="highway" v="tertiary"/>
    <tag k="name" v="Green Terrace"/>
  </way>
  <way id="8621802" version="4" timestamp="2010-02-14T17:17:32Z" uid="74617" user="JohnSmith" changeset="3875836">
    <nd ref="61422132"/>
    <nd ref="61425359"/>
    <nd ref="61425360"/>
    <tag k="highway" v="unclassified"/>
    <tag k="maxspeed" v="50"/>
    <tag k="name" v="Allom Street"/>
  </way>
  <way id="8621819" version="6" timestamp="2010-02-14T17:17:32Z" uid="74617" user="JohnSmith" changeset="3875836">
    <nd ref="61425558"/>
    <nd ref="125122249"/>
    <nd ref="297893954"/>
    <nd ref="61425361"/>
    <tag k="highway" v="unclassified"/>
    <tag k="maxspeed" v="50"/>
    <tag k="name" v="Green Terrace"/>
  </way>
  <way id="8621848" version="6" timestamp="2010-02-14T17:17:32Z" uid="74617" user="JohnSmith" changeset="3875836">
    <nd ref="61425359"/>
    <nd ref="61021456"/>
    <tag k="highway" v="unclassified"/>
    <tag k="maxspeed" v="50"/>
    <tag k="name" v="Edgar Street"/>
  </way>
  <way id="8621859" version="5" timestamp="2010-02-14T17:13:27Z" uid="74617" user="JohnSmith" changeset="3875836">
    <nd ref="61426352"/>
    <nd ref="61426663"/>
    <tag k="highway" v="unclassified"/>
    <tag k="maxspeed" v="50"/>
    <tag k="name" v="Edmund Street"/>
  </way>
  <way id="8621868" version="6" timestamp="2010-02-14T15:44:36Z" uid="74617" user="JohnSmith" changeset="3874884">
    <nd ref="61422131"/>
    <nd ref="61427251"/>
    <nd ref="61428938"/>
    <nd ref="61427252"/>
    <nd ref="61427253"/>
    <nd ref="61427254"/>
    <nd ref="61389969"/>
    <tag k="highway" v="residential"/>
    <tag k="maxspeed" v="50"/>
    <tag k="name" v="Swan Terrace"/>
  </way>
  <way id="8621874" version="4" timestamp="2008-06-28T07:41:13Z" uid="30201" user="rrankin" changeset="323262">
    <nd ref="61427342"/>
    <nd ref="61427343"/>
    <nd ref="274225364"/>
    <nd ref="61430626"/>
    <tag k="created_by" v="Potlatch alpha"/>
    <tag k="highway" v="residential"/>
    <tag k="name" v="Parkes Street"/>
  </way>
  <way id="8621874" version="7" timestamp="2008-12-14T11:40:57Z" uid="7617" user="Franc" changeset="375809">
    <nd ref="61430626"/>
    <nd ref="274225364"/>
    <nd ref="61427342"/>
    <tag k="created_by" v="Potlatch 0.10b"/>
    <tag k="highway" v="residential"/>
    <tag k="name" v="Parkes Street"/>
    <tag k="oneway" v="yes"/>
  </way>
  <way id="8621874" version="8" timestamp="2010-03-31T10:13:32Z" uid="74617" user="JohnSmith" changeset="4283972">
    <nd ref="61430626"/>
    <nd ref="274225364"/>
    <nd ref="61427342"/>
    <tag k="highway" v="residential"/>
    <tag k="name" v="Parkes Street"/>
    <tag k="oneway" v="yes"/>
  </way>
  <way id="8621874" version="9" timestamp="2010-07-08T00:58:38Z" uid="74617" user="JohnSmith" changeset="5162525">
    <nd ref="61430626"/>
    <nd ref="274225364"/>
    <nd ref="61427342"/>
    <tag k="highway" v="residential"/>
    <tag k="maxspeed" v="50"/>
    <tag k="maxspeed:source" v="default residential speed limit in Australia"/>
    <tag k="name" v="Parkes Street"/>
    <tag k="oneway" v="yes"/>
  </way>
  <way id="8621882" version="3" timestamp="2010-02-14T15:44:36Z" uid="74617" user="JohnSmith" changeset="3874884">
    <nd ref="61427251"/>
    <nd ref="61426356"/>
    <tag k="highway" v="residential"/>
    <tag k="maxspeed" v="50"/>
    <tag k="name" v="Cullen Street"/>
  </way>
  <way id="8621890" version="5" timestamp="2010-02-14T15:44:36Z" uid="74617" user="JohnSmith" changeset="3874884">
    <nd ref="61427252"/>
    <nd ref="61426358"/>
    <nd ref="369931244"/>
    <nd ref="61424418"/>
    <tag k="highway" v="residential"/>
    <tag k="maxspeed" v="50"/>
    <tag k="name" v="Nicholas Street"/>
  </way>
  <way id="8621890" version="6" timestamp="2011-02-11T15:58:38Z" uid="4467" user="Rosscoe" changeset="7256478">
    <nd ref="61427252"/>
    <nd ref="61426358"/>
    <nd ref="61424418"/>
    <tag k="highway" v="residential"/>
    <tag k="maxspeed" v="50"/>
    <tag k="name" v="Nicholas Street"/>
  </way>
  <way id="8621895" version="5" timestamp="2010-02-14T15:44:36Z" uid="74617" user="JohnSmith" changeset="3874884">
    <nd ref="61427253"/>
    <nd ref="61426359"/>
    <nd ref="75203276"/>
    <tag k="highway" v="residential"/>
    <tag k="maxspeed" v="50"/>
    <tag k="name" v="Taylor Street"/>
  </way>
  <way id="8621901" version="5" timestamp="2010-07-07T08:57:24Z" uid="74617" user="JohnSmith" changeset="5156250">
    <nd ref="61427841"/>
    <nd ref="61427842"/>
    <nd ref="61427844"/>
    <nd ref="61427846"/>
    <nd ref="60982527"/>
    <tag k="highway" v="residential"/>
    <tag k="maxspeed" v="50"/>
    <tag k="maxspeed:source" v="default residential speed limit in Australia"/>
    <tag k="name" v="Astelia Place"/>
  </way>
  <way id="8621902" version="3" timestamp="2010-02-14T15:44:36Z" uid="74617" user="JohnSmith" changeset="3874884">
    <nd ref="61427254"/>
    <nd ref="61426360"/>
    <tag k="highway" v="residential"/>
    <tag k="maxspeed" v="50"/>
    <tag k="name" v="Walker Street"/>
  </way>
  <way id="8621924" version="10" timestamp="2010-07-07T08:59:44Z" uid="74617" user="JohnSmith" changeset="5156250">
    <nd ref="61429358"/>
    <nd ref="61428348"/>
    <nd ref="61428349"/>
    <nd ref="61428350"/>
    <nd ref="665037667"/>
    <nd ref="61428351"/>
    <nd ref="665037668"/>
    <nd ref="61428352"/>
    <nd ref="61429814"/>
    <nd ref="61428354"/>
    <nd ref="61430435"/>
    <nd ref="61430445"/>
    <nd ref="61428355"/>
    <nd ref="61428356"/>
    <nd ref="61428358"/>
    <nd ref="665035909"/>
    <nd ref="61429359"/>
    <tag k="highway" v="residential"/>
    <tag k="maxspeed" v="50"/>
    <tag k="maxspeed:source" v="default residential speed limit in Australia"/>
    <tag k="name" v="Gungurra Crescent"/>
  </way>
  <way id="8621953" version="5" timestamp="2007-12-16T05:14:29Z" uid="7617" user="Franc" changeset="320421">
    <nd ref="61428918"/>
    <nd ref="61428919"/>
    <nd ref="61428920"/>
    <nd ref="61435011"/>
    <nd ref="61428921"/>
    <nd ref="61428922"/>
    <nd ref="61428923"/>
    <nd ref="61428925"/>
    <nd ref="61428926"/>
    <nd ref="61430626"/>
    <nd ref="61431305"/>
    <nd ref="61426413"/>
    <tag k="created_by" v="Potlatch alpha"/>
    <tag k="highway" v="unclassified"/>
  </way>
  <way id="8621953" version="10" timestamp="2009-01-28T08:56:03Z" uid="7617" user="Franc" changeset="848235">
    <nd ref="244483761"/>
    <nd ref="338532403"/>
    <nd ref="338532402"/>
    <nd ref="61428918"/>
    <nd ref="338532401"/>
    <nd ref="61428919"/>
    <nd ref="61428920"/>
    <nd ref="61435003"/>
    <nd ref="61428921"/>
    <nd ref="61428922"/>
    <nd ref="61428923"/>
    <nd ref="61428925"/>
    <nd ref="61428926"/>
    <nd ref="61430626"/>
    <nd ref="61431305"/>
    <nd ref="61426413"/>
    <tag k="created_by" v="Potlatch 0.7b"/>
    <tag k="highway" v="secondary"/>
    <tag k="name" v="Blaxland Road"/>
  </way>
  <way id="8621953" version="11" timestamp="2009-02-08T13:36:08Z" uid="7617" user="Franc" changeset="273652">
    <nd ref="244485779"/>
    <nd ref="338532402"/>
    <nd ref="338532403"/>
    <nd ref="244483761"/>
    <tag k="created_by" v="Potlatch 0.7b"/>
    <tag k="highway" v="secondary"/>
    <tag k="name" v="Blaxland Road"/>
    <tag k="oneway" v="yes"/>
  </way>
  <way id="8621953" version="12" timestamp="2010-01-23T04:56:19Z" uid="7617" user="Franc" changeset="3689085"/>
  <way id="8621954" version="3" timestamp="2010-02-14T15:44:40Z" uid="74617" user="JohnSmith" changeset="3874884">
    <nd ref="61422127"/>
    <nd ref="61428938"/>
    <tag k="highway" v="residential"/>
    <tag k="maxspeed" v="50"/>
    <tag k="name" v="Nicholas Street"/>
    <tag k="oneway" v="yes"/>
  </way>
  <way id="8621968" version="15" timestamp="2010-07-07T09:02:14Z" uid="74617" user="JohnSmith" changeset="5156250">
    <nd ref="60796042"/>
    <nd ref="61429287"/>
    <nd ref="61429358"/>
    <nd ref="61429288"/>
    <nd ref="61431153"/>
    <nd ref="61429289"/>
    <nd ref="665035904"/>
    <nd ref="61429359"/>
    <nd ref="665036093"/>
    <nd ref="61429290"/>
    <nd ref="61429292"/>
    <nd ref="61430860"/>
    <nd ref="61429294"/>
    <nd ref="61429295"/>
    <nd ref="61429296"/>
    <nd ref="61441444"/>
    <nd ref="61429300"/>
    <tag k="highway" v="residential"/>
    <tag k="maxspeed" v="50"/>
    <tag k="maxspeed:source" v="default residential speed limit in Australia"/>
    <tag k="name" v="Carbeen Street"/>
  </way>
  <way id="8621984" version="5" timestamp="2010-07-07T09:03:15Z" uid="74617" user="JohnSmith" changeset="5156250">
    <nd ref="61429811"/>
    <nd ref="61429812"/>
    <nd ref="61429813"/>
    <nd ref="61429814"/>
    <tag k="highway" v="residential"/>
    <tag k="maxspeed" v="50"/>
    <tag k="maxspeed:source" v="default residential speed limit in Australia"/>
    <tag k="name" v="Cedrela Place"/>
  </way>
</osm>
