<?xml version='1.0' encoding='UTF-8'?>
<osm version="0.6" generator="libosmium/2.20.0">
  <way id="8645497" version="12" timestamp="2010-07-09T02:57:52Z" uid="74617" user="JohnSmith" changeset="5170739">
    <nd ref="61662872"/>
    <nd ref="61663067"/>
    <nd ref="61661848"/>
    <nd ref="61662643"/>
    <tag k="highway" v="residential"/>
    <tag k="maxspeed" v="50"/>
    <tag k="maxspeed:source" v="default residential speed limit in Australia"/>
    <tag k="name" v="Leslie Road"/>
  </way>
  <way id="8645497" version="14" timestamp="2010-10-31T07:35:03Z" uid="4467" user="Rosscoe" changeset="6235526">
    <nd ref="61662872"/>
    <nd ref="61668428"/>
    <nd ref="61663067"/>
    <nd ref="971750451"/>
    <nd ref="61661848"/>
    <nd ref="61662643"/>
    <tag k="highway" v="residential"/>
    <tag k="maxspeed" v="50"/>
    <tag k="maxspeed:source" v="default residential speed limit in Australia"/>
    <tag k="name" v="Leslie Road"/>
  </way>
  <way id="8645535" version="9" timestamp="2010-02-14T15:43:47Z" uid="74617" user="JohnSmith" changeset="3874884">
    <nd ref="60072475"/>
    <nd ref="60072474"/>
    <nd ref="332817115"/>
    <nd ref="294407530"/>
    <tag k="highway" v="secondary"/>
    <tag k="maxspeed" v="60"/>
    <tag k="name" v="Ashgrove Avenue"/>
  </way>
  <way id="8645682" version="5" timestamp="2010-07-09T02:53:31Z" uid="74617" user="JohnSmith" changeset="5170739">
    <nd ref="61663066"/>
    <nd ref="444593042"/>
    <nd ref="61663067"/>
    <tag k="highway" v="residential"/>
    <tag k="maxspeed" v="50"/>
    <tag k="maxspeed:source" v="default residential speed limit in Australia"/>
    <tag k="name" v="Riverview Road"/>
  </way>
</osm>
