<?xml version='1.0' encoding='UTF-8'?>
<osm version="0.6" generator="libosmium/2.20.0">
  <way id="86452235" version="2" timestamp="2011-03-30T10:26:04Z" uid="4467" user="Rosscoe" changeset="7714633">
    <nd ref="360500604"/>
    <nd ref="360500621"/>
    <nd ref="360500622"/>
    <nd ref="360500624"/>
    <nd ref="797944579"/>
    <tag k="highway" v="residential"/>
    <tag k="maxspeed" v="50"/>
    <tag k="name" v="OGrady Avenue"/>
    <tag k="source:maxspeed" v="default residential speed limit in Australia"/>
  </way>
  <way id="86452326" version="4" timestamp="2011-03-30T10:24:39Z" uid="4467" user="Rosscoe" changeset="7714633">
    <nd ref="30151325"/>
    <nd ref="113197574"/>
    <nd ref="113197575"/>
    <nd ref="113197577"/>
    <nd ref="113197578"/>
    <nd ref="113197579"/>
    <tag k="highway" v="primary"/>
    <tag k="maxspeed" v="60"/>
    <tag k="name" v="Fletcher Road Extension"/>
    <tag k="oneway" v="yes"/>
    <tag k="source" v="nearmap"/>
  </way>
  <way id="86452451" version="4" timestamp="2011-03-30T10:25:52Z" uid="4467" user="Rosscoe" changeset="7714633">
    <nd ref="113197581"/>
    <nd ref="1032226019"/>
    <nd ref="113197583"/>
    <nd ref="113197585"/>
    <nd ref="113197587"/>
    <nd ref="113197588"/>
    <nd ref="30151324"/>
    <tag k="highway" v="primary"/>
    <tag k="maxspeed" v="60"/>
    <tag k="name" v="Fletcher Road Extension"/>
    <tag k="oneway" v="yes"/>
    <tag k="source" v="nearmap"/>
  </way>
  <way id="86452697" version="3" timestamp="2011-03-30T10:25:56Z" uid="4467" user="Rosscoe" changeset="7714633">
    <nd ref="113462755"/>
    <nd ref="364670702"/>
    <nd ref="604282151"/>
    <nd ref="604281365"/>
    <nd ref="113462756"/>
    <nd ref="113462758"/>
    <nd ref="623046497"/>
    <nd ref="604272037"/>
    <tag k="highway" v="residential"/>
    <tag k="maxspeed" v="40"/>
    <tag k="name" v="Beach Street"/>
    <tag k="source:maxspeed" v="default residential speed limit in Australia"/>
  </way>
</osm>
