<?xml version='1.0' encoding='UTF-8'?>
<osm version="0.6" generator="libosmium/2.20.0">
  <way id="8649092" version="3" timestamp="2010-07-09T02:59:04Z" uid="74617" user="JohnSmith" changeset="5170739">
    <nd ref="61668480"/>
    <nd ref="61668479"/>
    <nd ref="61668478"/>
    <nd ref="61668477"/>
    <tag k="highway" v="residential"/>
    <tag k="maxspeed" v="50"/>
    <tag k="maxspeed:source" v="default residential speed limit in Australia"/>
    <tag k="name" v="Sherbourne Street"/>
    <tag k="oneway" v="yes"/>
    <tag k="source" v="yahoo"/>
    <tag k="source:name" v="survey"/>
  </way>
  <way id="8649092" version="5" timestamp="2010-10-31T07:35:13Z" uid="4467" user="Rosscoe" changeset="6235526">
    <nd ref="61668480"/>
    <nd ref="61668479"/>
    <nd ref="61668478"/>
    <nd ref="971750487"/>
    <nd ref="971750468"/>
    <tag k="highway" v="residential"/>
    <tag k="maxspeed" v="50"/>
    <tag k="maxspeed:source" v="default residential speed limit in Australia"/>
    <tag k="name" v="Sherbourne Street"/>
    <tag k="source" v="yahoo"/>
    <tag k="source:name" v="survey"/>
  </way>
  <way id="8649295" version="9" timestamp="2010-02-14T17:06:46Z" uid="74617" user="JohnSmith" changeset="3875836">
    <nd ref="61668516"/>
    <nd ref="295879813"/>
    <nd ref="178046308"/>
    <nd ref="61668525"/>
    <tag k="highway" v="residential"/>
    <tag k="maxspeed" v="50"/>
    <tag k="name" v="McCook Street"/>
  </way>
  <way id="8649377" version="5" timestamp="2010-02-14T17:06:49Z" uid="74617" user="JohnSmith" changeset="3875836">
    <nd ref="61668512"/>
    <nd ref="60023264"/>
    <tag k="highway" v="residential"/>
    <tag k="maxspeed" v="50"/>
    <tag k="name" v="Haughton Street"/>
  </way>
  <way id="8649377" version="6" timestamp="2010-05-27T07:13:37Z" uid="74617" user="JohnSmith" changeset="4819577">
    <nd ref="61668512"/>
    <nd ref="750481388"/>
    <tag k="highway" v="residential"/>
    <tag k="maxspeed" v="50"/>
    <tag k="name" v="Haughton Street"/>
  </way>
  <way id="8649411" version="4" timestamp="2010-07-09T02:54:11Z" uid="74617" user="JohnSmith" changeset="5170739">
    <nd ref="61668590"/>
    <nd ref="61668593"/>
    <tag k="highway" v="residential"/>
    <tag k="maxspeed" v="50"/>
    <tag k="maxspeed:source" v="default residential speed limit in Australia"/>
    <tag k="name" v="Grace Street"/>
    <tag k="source" v="yahoo"/>
    <tag k="source:name" v="survey"/>
  </way>
  <way id="8649463" version="4" timestamp="2010-07-09T03:01:14Z" uid="74617" user="JohnSmith" changeset="5170739">
    <nd ref="61668533"/>
    <nd ref="61669270"/>
    <nd ref="61668648"/>
    <tag k="highway" v="residential"/>
    <tag k="maxspeed" v="50"/>
    <tag k="maxspeed:source" v="default residential speed limit in Australia"/>
    <tag k="name" v="Mantell Street"/>
    <tag k="source" v="yahoo"/>
    <tag k="source:name" v="survey"/>
  </way>
  <way id="8649463" version="5" timestamp="2010-10-31T06:40:33Z" uid="4467" user="Rosscoe" changeset="6235254">
    <nd ref="61668533"/>
    <nd ref="61669270"/>
    <nd ref="61668648"/>
    <tag k="highway" v="residential"/>
    <tag k="maxspeed" v="50"/>
    <tag k="maxspeed:source" v="default residential speed limit in Australia"/>
    <tag k="name" v="Mantell Street"/>
    <tag k="oneway" v="yes"/>
    <tag k="source" v="yahoo"/>
    <tag k="source:name" v="survey"/>
  </way>
  <way id="8649493" version="5" timestamp="2010-02-14T17:06:57Z" uid="74617" user="JohnSmith" changeset="3875836">
    <nd ref="60023265"/>
    <nd ref="61668678"/>
    <tag k="highway" v="residential"/>
    <tag k="maxspeed" v="50"/>
    <tag k="name" v="Thorn Street"/>
  </way>
  <way id="8649493" version="6" timestamp="2010-05-27T07:13:28Z" uid="74617" user="JohnSmith" changeset="4819577">
    <nd ref="750481393"/>
    <nd ref="61668678"/>
    <tag k="highway" v="residential"/>
    <tag k="maxspeed" v="50"/>
    <tag k="name" v="Thorn Street"/>
  </way>
  <way id="8649540" version="5" timestamp="2010-02-14T17:06:57Z" uid="74617" user="JohnSmith" changeset="3875836">
    <nd ref="60023284"/>
    <nd ref="61668723"/>
    <tag k="highway" v="residential"/>
    <tag k="maxspeed" v="50"/>
    <tag k="name" v="Bathurst Street"/>
  </way>
  <way id="8649540" version="6" timestamp="2010-05-27T07:05:57Z" uid="74617" user="JohnSmith" changeset="4819577">
    <nd ref="750479473"/>
    <nd ref="61668723"/>
    <tag k="highway" v="residential"/>
    <tag k="maxspeed" v="50"/>
    <tag k="name" v="Bathurst Street"/>
  </way>
</osm>
