<?xml version='1.0' encoding='UTF-8'?>
<osm version="0.6" generator="libosmium/2.20.0">
  <way id="86751664" version="1" timestamp="2010-11-27T22:30:13Z" uid="20587" user="balrog-kun" changeset="6474036">
    <nd ref="549651028"/>
    <nd ref="179870554"/>
    <tag k="maxspeed:backward" v="30"/>
    <tag k="name" v="10 - 14 - 35"/>
    <tag k="railway" v="tram"/>
  </way>
  <way id="86751664" version="2" timestamp="2011-05-05T00:14:10Z" uid="20587" user="balrog-kun" changeset="8053712">
    <nd ref="549651028"/>
    <nd ref="179870554"/>
    <tag k="construction" v="tram"/>
    <tag k="maxspeed:backward" v="30"/>
    <tag k="name" v="10 - 14 - 35"/>
    <tag k="railway" v="construction"/>
  </way>
  <way id="86751664" version="3" timestamp="2011-06-18T06:05:23Z" uid="20587" user="balrog-kun" changeset="8470341">
    <nd ref="549651028"/>
    <nd ref="179870554"/>
    <tag k="maxspeed:backward" v="30"/>
    <tag k="name" v="10 - 14 - 35"/>
    <tag k="railway" v="tram"/>
  </way>
</osm>
