<?xml version='1.0' encoding='UTF-8'?>
<osm version="0.6" generator="libosmium/2.20.0">
  <way id="8687784" version="14" timestamp="2009-10-20T14:24:13Z" uid="36809" user="pfoten_weg_!_" changeset="2903434">
    <nd ref="21273616"/>
    <nd ref="270957871"/>
    <nd ref="273419182"/>
    <nd ref="21273586"/>
    <nd ref="21273553"/>
    <nd ref="62071623"/>
    <nd ref="271153227"/>
    <nd ref="62071624"/>
    <nd ref="21273510"/>
    <tag k="highway" v="tertiary"/>
    <tag k="maxspeed" v="30"/>
    <tag k="name" v="Hauptstraße"/>
    <tag k="osmarender:renderRef" v="no"/>
    <tag k="ref" v="St 2073"/>
    <tag k="source" v="survey"/>
  </way>
  <way id="8687784" version="15" timestamp="2009-11-06T11:22:02Z" uid="36809" user="pfoten_weg_!_" changeset="3047170">
    <nd ref="21273616"/>
    <nd ref="270957871"/>
    <nd ref="273419182"/>
    <nd ref="21273586"/>
    <nd ref="21273553"/>
    <nd ref="62071623"/>
    <nd ref="271153227"/>
    <nd ref="62071624"/>
    <nd ref="21273510"/>
    <tag k="highway" v="tertiary"/>
    <tag k="maxspeed" v="30"/>
    <tag k="name" v="Hauptstraße"/>
    <tag k="osmarender:renderRef" v="no"/>
    <tag k="ref" v="St 2073"/>
  </way>
  <way id="8687785" version="10" timestamp="2009-10-20T14:24:14Z" uid="36809" user="pfoten_weg_!_" changeset="2903434">
    <nd ref="21273510"/>
    <nd ref="272444731"/>
    <nd ref="21273614"/>
    <nd ref="21273636"/>
    <tag k="highway" v="tertiary"/>
    <tag k="name" v="Hauptstraße"/>
    <tag k="osmarender:renderRef" v="no"/>
    <tag k="ref" v="St 2073"/>
  </way>
</osm>
