<?xml version='1.0' encoding='UTF-8'?>
<osm version="0.6" generator="libosmium/2.20.0">
  <way id="8733225" version="10" timestamp="2008-09-01T17:10:19Z" uid="64432" user="teletexta" changeset="493916">
    <nd ref="247409947"/>
    <nd ref="92480660"/>
    <nd ref="62608714"/>
    <nd ref="292918178"/>
    <nd ref="224589694"/>
    <tag k="created_by" v="Potlatch 0.10b"/>
    <tag k="foot" v="yes"/>
    <tag k="highway" v="cycleway"/>
    <tag k="name" v="Franklinstraße"/>
  </way>
  <way id="8733225" version="11" timestamp="2008-09-01T17:13:50Z" uid="64432" user="teletexta" changeset="493916">
    <nd ref="247409947"/>
    <nd ref="92480660"/>
    <nd ref="292918178"/>
    <nd ref="224589694"/>
    <tag k="created_by" v="Potlatch 0.10b"/>
    <tag k="foot" v="yes"/>
    <tag k="highway" v="cycleway"/>
    <tag k="name" v="Franklinstraße"/>
  </way>
  <way id="8733235" version="14" timestamp="2008-12-20T12:01:30Z" uid="58091" user="Andreas M" changeset="504586">
    <nd ref="59951122"/>
    <nd ref="62608817"/>
    <nd ref="92480374"/>
    <tag k="created_by" v="Potlatch 0.10f"/>
    <tag k="highway" v="residential"/>
    <tag k="maxspeed" v="30"/>
    <tag k="name" v="Scheffelstraße"/>
    <tag k="oneway" v="yes"/>
  </way>
  <way id="8733405" version="19" timestamp="2010-05-14T14:39:52Z" uid="58091" user="Andreas M" changeset="4696698">
    <nd ref="321804200"/>
    <nd ref="62611088"/>
    <nd ref="734068771"/>
    <tag k="highway" v="residential"/>
    <tag k="is_in" v="Europe,Austria,Wien,Vienna,Floridsdorf"/>
    <tag k="maxspeed" v="30"/>
    <tag k="name" v="Oskar-Grissemann-Straße"/>
  </way>
  <way id="8733939" version="13" timestamp="2010-01-23T14:12:33Z" uid="58091" user="Andreas M" changeset="3691964">
    <nd ref="248749720"/>
    <nd ref="321844407"/>
    <nd ref="62616386"/>
    <nd ref="321845186"/>
    <nd ref="298405672"/>
    <nd ref="618683710"/>
    <nd ref="321845189"/>
    <nd ref="322286592"/>
    <tag k="highway" v="residential"/>
    <tag k="name" v="Kleine-Bucht-Straße"/>
  </way>
</osm>
