<?xml version='1.0' encoding='UTF-8'?>
<osm version="0.6" generator="libosmium/2.20.0">
  <way id="87512281" version="1" timestamp="2010-12-03T11:54:03Z" uid="6269" user="Mueck" changeset="6525102">
    <nd ref="1018043048"/>
    <nd ref="969170685"/>
    <nd ref="1018043050"/>
    <tag k="electrified" v="contact_line"/>
    <tag k="frequency" v="16.7"/>
    <tag k="name" v="Rastatt-Karlsruhe"/>
    <tag k="railway" v="rail"/>
    <tag k="voltage" v="15000"/>
  </way>
  <way id="87512284" version="1" timestamp="2010-12-03T11:54:04Z" uid="6269" user="Mueck" changeset="6525102">
    <nd ref="1018043077"/>
    <nd ref="1018043048"/>
    <tag k="bridge" v="yes"/>
    <tag k="electrified" v="contact_line"/>
    <tag k="frequency" v="16.7"/>
    <tag k="layer" v="1"/>
    <tag k="name" v="Rastatt-Karlsruhe"/>
    <tag k="railway" v="rail"/>
    <tag k="voltage" v="15000"/>
  </way>
  <way id="87512287" version="1" timestamp="2010-12-03T11:54:05Z" uid="6269" user="Mueck" changeset="6525102">
    <nd ref="1018043102"/>
    <nd ref="969170648"/>
    <nd ref="992144784"/>
    <nd ref="969170663"/>
    <nd ref="992144785"/>
    <nd ref="969170665"/>
    <nd ref="992144788"/>
    <nd ref="969170673"/>
    <nd ref="969170631"/>
    <nd ref="969170678"/>
    <nd ref="969170626"/>
    <tag k="electrified" v="contact_line"/>
    <tag k="frequency" v="16.7"/>
    <tag k="name" v="Rastatt-Karlsruhe"/>
    <tag k="railway" v="rail"/>
    <tag k="voltage" v="15000"/>
  </way>
  <way id="87512288" version="1" timestamp="2010-12-03T11:54:06Z" uid="6269" user="Mueck" changeset="6525102">
    <nd ref="1018043050"/>
    <nd ref="1018043102"/>
    <tag k="bridge" v="yes"/>
    <tag k="electrified" v="contact_line"/>
    <tag k="frequency" v="16.7"/>
    <tag k="layer" v="1"/>
    <tag k="name" v="Rastatt-Karlsruhe"/>
    <tag k="railway" v="rail"/>
    <tag k="voltage" v="15000"/>
  </way>
</osm>
