<?xml version='1.0' encoding='UTF-8'?>
<osm version="0.6" generator="libosmium/2.20.0">
  <way id="8882016" version="2" timestamp="2008-09-16T10:14:38Z" uid="1066" user="pavel" changeset="646258">
    <nd ref="33432600"/>
    <nd ref="64809852"/>
    <nd ref="64809855"/>
    <tag k="created_by" v="Potlatch alpha"/>
    <tag k="highway" v="residential"/>
    <tag k="name" v="Na Pankráci"/>
    <tag k="name:source" v="nameit/uir-adr"/>
  </way>
  <way id="8882018" version="5" timestamp="2008-09-16T10:14:24Z" uid="1066" user="pavel" changeset="646258">
    <nd ref="30929597"/>
    <nd ref="277086822"/>
    <nd ref="30929598"/>
    <nd ref="266942418"/>
    <nd ref="30929546"/>
    <tag k="created_by" v="Potlatch 0.9c"/>
    <tag k="highway" v="residential"/>
    <tag k="name" v="Dačického"/>
    <tag k="name:source" v="nameit/uir-adr"/>
  </way>
  <way id="8882021" version="3" timestamp="2008-09-16T10:14:06Z" uid="1066" user="pavel" changeset="646258">
    <nd ref="64809852"/>
    <nd ref="64809898"/>
    <nd ref="64809901"/>
    <tag k="highway" v="residential"/>
    <tag k="name" v="Hradeckých"/>
    <tag k="name:source" v="nameit/uir-adr"/>
  </way>
  <way id="8882023" version="7" timestamp="2008-09-16T10:14:11Z" uid="1066" user="pavel" changeset="646258">
    <nd ref="704118"/>
    <nd ref="245799583"/>
    <nd ref="64809906"/>
    <nd ref="273505896"/>
    <nd ref="64809907"/>
    <nd ref="64809909"/>
    <nd ref="64809912"/>
    <nd ref="64809914"/>
    <tag k="created_by" v="Potlatch 0.9c"/>
    <tag k="highway" v="residential"/>
    <tag k="history" v="Retrieved from v3"/>
    <tag k="name" v="nám. Hrdinů"/>
    <tag k="name:source" v="nameit/uir-adr"/>
  </way>
  <way id="8882024" version="14" timestamp="2008-09-16T10:13:39Z" uid="1066" user="pavel" changeset="646258">
    <nd ref="273505481"/>
    <nd ref="64809925"/>
    <nd ref="64809923"/>
    <nd ref="64809920"/>
    <nd ref="64809919"/>
    <nd ref="273519087"/>
    <nd ref="64809916"/>
    <nd ref="64809902"/>
    <nd ref="245799584"/>
    <nd ref="273505570"/>
    <tag k="created_by" v="Potlatch 0.9c"/>
    <tag k="highway" v="residential"/>
    <tag k="history" v="Retrieved from v3"/>
    <tag k="name" v="nám. Hrdinů"/>
    <tag k="name:source" v="nameit/uir-adr"/>
  </way>
  <way id="8882027" version="5" timestamp="2008-09-16T10:11:01Z" uid="1066" user="pavel" changeset="646258">
    <nd ref="722833"/>
    <nd ref="722834"/>
    <nd ref="64810006"/>
    <nd ref="64810008"/>
    <nd ref="723515"/>
    <nd ref="245798522"/>
    <nd ref="723514"/>
    <nd ref="245798531"/>
    <nd ref="723513"/>
    <nd ref="64810009"/>
    <nd ref="723511"/>
    <nd ref="245798532"/>
    <nd ref="64810011"/>
    <nd ref="245802257"/>
    <nd ref="245802256"/>
    <nd ref="723510"/>
    <tag k="created_by" v="Potlatch alpha"/>
    <tag k="highway" v="residential"/>
    <tag k="name" v="Pod Klaudiánkou"/>
    <tag k="name:source" v="nameit/uir-adr"/>
  </way>
  <way id="8882028" version="6" timestamp="2008-09-16T10:14:08Z" uid="1066" user="pavel" changeset="646258">
    <nd ref="722833"/>
    <nd ref="245798554"/>
    <nd ref="266913412"/>
    <nd ref="245798697"/>
    <nd ref="704113"/>
    <tag k="created_by" v="Potlatch 0.9a"/>
    <tag k="highway" v="residential"/>
    <tag k="name" v="Na Klaudiánce"/>
    <tag k="name:source" v="nameit/uir-adr"/>
  </way>
  <way id="8882035" version="4" timestamp="2008-09-16T10:12:11Z" uid="1066" user="pavel" changeset="646258">
    <nd ref="722833"/>
    <nd ref="29745902"/>
    <tag k="highway" v="residential"/>
    <tag k="name" v="Na Klaudiánce"/>
    <tag k="name:source" v="nameit/uir-adr"/>
  </way>
  <way id="8882036" version="3" timestamp="2008-09-16T10:15:13Z" uid="1066" user="pavel" changeset="646258">
    <nd ref="723507"/>
    <nd ref="64809999"/>
    <nd ref="723506"/>
    <tag k="created_by" v="Potlatch alpha"/>
    <tag k="highway" v="residential"/>
    <tag k="name" v="Sinkulova"/>
    <tag k="name:source" v="nameit/uir-adr"/>
  </way>
  <way id="8882038" version="4" timestamp="2008-09-16T10:10:10Z" uid="1066" user="pavel" changeset="646258">
    <nd ref="64809977"/>
    <nd ref="64809979"/>
    <nd ref="273508553"/>
    <nd ref="64809985"/>
    <tag k="created_by" v="Potlatch 0.9c"/>
    <tag k="highway" v="residential"/>
    <tag k="name" v="Viktorinova"/>
    <tag k="name:source" v="nameit/uir-adr"/>
  </way>
  <way id="8882039" version="3" timestamp="2008-09-16T10:12:00Z" uid="1066" user="pavel" changeset="646258">
    <nd ref="64809980"/>
    <nd ref="64809987"/>
    <tag k="highway" v="residential"/>
    <tag k="name" v="U gymnázia"/>
    <tag k="name:source" v="nameit/uir-adr"/>
  </way>
  <way id="8882041" version="3" timestamp="2008-09-16T10:13:52Z" uid="1066" user="pavel" changeset="646258">
    <nd ref="64809979"/>
    <nd ref="64809980"/>
    <nd ref="64809982"/>
    <nd ref="64809984"/>
    <tag k="highway" v="residential"/>
    <tag k="name" v="Na bitevní pláni"/>
    <tag k="name:source" v="nameit/uir-adr"/>
  </way>
  <way id="8882046" version="3" timestamp="2008-09-16T10:09:44Z" uid="1066" user="pavel" changeset="646258">
    <nd ref="29745901"/>
    <nd ref="29745908"/>
    <nd ref="29745902"/>
    <tag k="created_by" v="Potlatch alpha"/>
    <tag k="highway" v="residential"/>
    <tag k="name" v="Doudova"/>
    <tag k="name:source" v="nameit/uir-adr"/>
  </way>
  <way id="8882047" version="3" timestamp="2008-09-16T10:13:42Z" uid="1066" user="pavel" changeset="646258">
    <nd ref="29745901"/>
    <nd ref="64810004"/>
    <tag k="highway" v="residential"/>
    <tag k="name" v="Na lysině"/>
    <tag k="name:source" v="nameit/uir-adr"/>
  </way>
  <way id="8882048" version="2" timestamp="2008-09-16T10:10:29Z" uid="1066" user="pavel" changeset="646258">
    <nd ref="722832"/>
    <nd ref="64809973"/>
    <nd ref="722833"/>
    <tag k="created_by" v="Potlatch alpha"/>
    <tag k="highway" v="residential"/>
    <tag k="name" v="Na Klaudiánce"/>
    <tag k="name:source" v="nameit/uir-adr"/>
  </way>
  <way id="8882629" version="3" timestamp="2008-09-16T10:10:53Z" uid="1066" user="pavel" changeset="646258">
    <nd ref="26231281"/>
    <nd ref="26231282"/>
    <nd ref="26231283"/>
    <tag k="highway" v="residential"/>
    <tag k="name" v="Nedvědovo nám."/>
    <tag k="name:source" v="nameit/uir-adr"/>
  </way>
  <way id="8882642" version="3" timestamp="2008-09-16T10:10:36Z" uid="1066" user="pavel" changeset="646258">
    <nd ref="26231283"/>
    <nd ref="26231284"/>
    <nd ref="26231285"/>
    <tag k="highway" v="residential"/>
    <tag k="name" v="Nedvědovo nám."/>
    <tag k="name:source" v="nameit/uir-adr"/>
  </way>
  <way id="8882643" version="3" timestamp="2008-09-16T10:11:30Z" uid="1066" user="pavel" changeset="646258">
    <nd ref="64815111"/>
    <nd ref="64815157"/>
    <tag k="highway" v="residential"/>
    <tag k="name" v="Doudova"/>
    <tag k="name:source" v="nameit/uir-adr"/>
  </way>
  <way id="8882644" version="3" timestamp="2008-09-16T10:14:21Z" uid="1066" user="pavel" changeset="646258">
    <nd ref="64815157"/>
    <nd ref="723507"/>
    <tag k="highway" v="residential"/>
    <tag k="name" v="Sinkulova"/>
    <tag k="name:source" v="nameit/uir-adr"/>
  </way>
  <way id="8882647" version="2" timestamp="2008-09-16T10:11:32Z" uid="1066" user="pavel" changeset="646258">
    <nd ref="723510"/>
    <nd ref="723509"/>
    <nd ref="64810001"/>
    <tag k="created_by" v="Potlatch alpha"/>
    <tag k="highway" v="residential"/>
    <tag k="name" v="Na Zlatnici"/>
    <tag k="name:source" v="nameit/uir-adr"/>
  </way>
  <way id="8882648" version="2" timestamp="2008-09-16T10:14:33Z" uid="1066" user="pavel" changeset="646258">
    <nd ref="64810001"/>
    <nd ref="723508"/>
    <nd ref="723507"/>
    <tag k="created_by" v="Potlatch alpha"/>
    <tag k="highway" v="residential"/>
    <tag k="name" v="Na Zlatnici"/>
    <tag k="name:source" v="nameit/uir-adr"/>
  </way>
  <way id="8882650" version="3" timestamp="2008-09-16T10:14:43Z" uid="1066" user="pavel" changeset="646258">
    <nd ref="29745901"/>
    <nd ref="64815160"/>
    <nd ref="64815165"/>
    <nd ref="64810013"/>
    <tag k="highway" v="residential"/>
    <tag k="name" v="Doudova"/>
    <tag k="name:source" v="nameit/uir-adr"/>
  </way>
  <way id="8882651" version="3" timestamp="2008-09-16T10:11:47Z" uid="1066" user="pavel" changeset="646258">
    <nd ref="64815172"/>
    <nd ref="64815160"/>
    <tag k="highway" v="residential"/>
    <tag k="name" v="Voráčovská"/>
    <tag k="name:source" v="nameit/uir-adr"/>
  </way>
  <way id="8882652" version="3" timestamp="2008-09-16T10:15:01Z" uid="1066" user="pavel" changeset="646258">
    <nd ref="64815169"/>
    <nd ref="64815165"/>
    <tag k="highway" v="residential"/>
    <tag k="name" v="Nad spádem"/>
    <tag k="name:source" v="nameit/uir-adr"/>
  </way>
  <way id="8882653" version="3" timestamp="2008-09-16T10:10:03Z" uid="1066" user="pavel" changeset="646258">
    <nd ref="722824"/>
    <nd ref="64815179"/>
    <nd ref="64815182"/>
    <nd ref="64815183"/>
    <nd ref="64815165"/>
    <tag k="highway" v="residential"/>
    <tag k="name" v="Nad spádem"/>
    <tag k="name:source" v="nameit/uir-adr"/>
  </way>
  <way id="8882655" version="3" timestamp="2008-09-16T10:09:43Z" uid="1066" user="pavel" changeset="646258">
    <nd ref="64815182"/>
    <nd ref="64815185"/>
    <nd ref="64815190"/>
    <nd ref="29745900"/>
    <tag k="highway" v="residential"/>
    <tag k="name" v="Na sypčině"/>
    <tag k="name:source" v="nameit/uir-adr"/>
  </way>
  <way id="8882656" version="3" timestamp="2008-09-16T10:12:40Z" uid="1066" user="pavel" changeset="646258">
    <nd ref="64815190"/>
    <nd ref="64815160"/>
    <tag k="highway" v="residential"/>
    <tag k="name" v="Voráčovská"/>
    <tag k="name:source" v="nameit/uir-adr"/>
  </way>
  <way id="8882657" version="4" timestamp="2008-09-16T10:12:44Z" uid="1066" user="pavel" changeset="646258">
    <nd ref="722828"/>
    <nd ref="64815194"/>
    <nd ref="64815199"/>
    <nd ref="64815202"/>
    <nd ref="64815055"/>
    <tag k="highway" v="residential"/>
    <tag k="name" v="Lopatecká"/>
    <tag k="name:source" v="nameit/uir-adr"/>
  </way>
</osm>
