<?xml version='1.0' encoding='UTF-8'?>
<osm version="0.6" generator="libosmium/2.20.0">
  <way id="88833591" version="1" timestamp="2010-12-10T15:24:42Z" uid="115477" user="wowik" changeset="6606391">
    <nd ref="1030957877"/>
    <nd ref="1030957943"/>
    <nd ref="1030957830"/>
    <nd ref="1030957857"/>
    <nd ref="1030957877"/>
    <tag k="addr:city" v="Нижневартовск"/>
    <tag k="addr:housenumber" v="37"/>
    <tag k="addr:street" v="Интернациональная ул."/>
    <tag k="building" v="yes"/>
    <tag k="building:levels" v="9"/>
  </way>
  <way id="88833591" version="2" timestamp="2010-12-10T15:45:07Z" uid="115477" user="wowik" changeset="6606603">
    <nd ref="1030957877"/>
    <nd ref="1030957943"/>
    <nd ref="1030957830"/>
    <nd ref="1030957857"/>
    <nd ref="1030957877"/>
    <tag k="addr:city" v="Нижневартовск"/>
    <tag k="building" v="yes"/>
    <tag k="building:levels" v="9"/>
  </way>
  <way id="88833591" version="3" timestamp="2010-12-10T17:04:53Z" uid="115477" user="wowik" changeset="6607373">
    <nd ref="1030957877"/>
    <nd ref="1030957943"/>
    <nd ref="1030957830"/>
    <nd ref="1030957857"/>
    <nd ref="1030957877"/>
    <tag k="addr:city" v="Нижневартовск"/>
    <tag k="addr:housenumber" v="47"/>
    <tag k="addr:street" v="Интернациональная улица"/>
    <tag k="building" v="yes"/>
    <tag k="building:levels" v="9"/>
  </way>
  <way id="88833592" version="1" timestamp="2010-12-10T15:24:42Z" uid="115477" user="wowik" changeset="6606391">
    <nd ref="1030957868"/>
    <nd ref="1030957849"/>
    <nd ref="1030957986"/>
    <nd ref="1030958024"/>
    <nd ref="1030957908"/>
    <nd ref="1030957903"/>
    <tag k="building" v="yes"/>
  </way>
  <way id="88833592" version="2" timestamp="2010-12-10T17:04:52Z" uid="115477" user="wowik" changeset="6607373">
    <nd ref="1030957903"/>
    <nd ref="1030957868"/>
    <nd ref="1030957849"/>
    <nd ref="1030957986"/>
    <nd ref="1030958024"/>
    <nd ref="1030957908"/>
    <nd ref="1030957903"/>
    <tag k="building" v="yes"/>
    <tag k="building:levels" v="1"/>
  </way>
  <way id="88833593" version="1" timestamp="2010-12-10T15:24:42Z" uid="115477" user="wowik" changeset="6606391">
    <nd ref="1030957844"/>
    <nd ref="1030957889"/>
    <nd ref="1030957983"/>
    <nd ref="1030958023"/>
    <nd ref="1030957844"/>
    <tag k="addr:city" v="Нижневартовск"/>
    <tag k="addr:housenumber" v="35"/>
    <tag k="addr:street" v="Интернациональная ул."/>
    <tag k="building" v="yes"/>
    <tag k="building:levels" v="9"/>
  </way>
  <way id="88833593" version="2" timestamp="2010-12-10T15:26:56Z" uid="115477" user="wowik" changeset="6606411">
    <nd ref="1030957844"/>
    <nd ref="1030957889"/>
    <nd ref="1030957983"/>
    <nd ref="1030958023"/>
    <nd ref="1030957844"/>
    <tag k="addr:city" v="Нижневартовск"/>
    <tag k="addr:housenumber" v="35"/>
    <tag k="addr:street" v="Интернациональная улица"/>
    <tag k="building" v="yes"/>
    <tag k="building:levels" v="9"/>
  </way>
  <way id="88833594" version="1" timestamp="2010-12-10T15:24:42Z" uid="115477" user="wowik" changeset="6606391">
    <nd ref="1030957946"/>
    <nd ref="1030957880"/>
    <nd ref="1030957855"/>
    <nd ref="1030957907"/>
    <nd ref="1030957846"/>
    <nd ref="1030957997"/>
    <tag k="building" v="yes"/>
  </way>
  <way id="88833594" version="2" timestamp="2010-12-10T17:04:54Z" uid="115477" user="wowik" changeset="6607373">
    <nd ref="1030957997"/>
    <nd ref="1030957946"/>
    <nd ref="1030957880"/>
    <nd ref="1030957855"/>
    <nd ref="1030957907"/>
    <nd ref="1030957846"/>
    <nd ref="1030957997"/>
    <tag k="building" v="yes"/>
    <tag k="building:levels" v="1"/>
  </way>
  <way id="88833596" version="1" timestamp="2010-12-10T15:24:43Z" uid="115477" user="wowik" changeset="6606391">
    <nd ref="1030957934"/>
    <nd ref="1030957994"/>
    <nd ref="1030957949"/>
    <nd ref="1030957831"/>
    <nd ref="1030957934"/>
    <tag k="addr:city" v="Нижневартовск"/>
    <tag k="addr:housenumber" v="43"/>
    <tag k="addr:street" v="Интернациональная ул."/>
    <tag k="building" v="yes"/>
    <tag k="building:levels" v="9"/>
  </way>
  <way id="88833596" version="2" timestamp="2010-12-10T15:26:57Z" uid="115477" user="wowik" changeset="6606411">
    <nd ref="1030957934"/>
    <nd ref="1030957994"/>
    <nd ref="1030957949"/>
    <nd ref="1030957831"/>
    <nd ref="1030957934"/>
    <tag k="addr:city" v="Нижневартовск"/>
    <tag k="addr:housenumber" v="43"/>
    <tag k="addr:street" v="Интернациональная улица"/>
    <tag k="building" v="yes"/>
    <tag k="building:levels" v="9"/>
  </way>
  <way id="88833597" version="1" timestamp="2010-12-10T15:24:43Z" uid="115477" user="wowik" changeset="6606391">
    <nd ref="1030957899"/>
    <nd ref="1030957985"/>
    <nd ref="1030957992"/>
    <nd ref="1030957883"/>
    <nd ref="1030957941"/>
    <nd ref="1030957899"/>
    <tag k="addr:city" v="Нижневартовск"/>
    <tag k="addr:street" v="Интернациональная ул."/>
    <tag k="building" v="yes"/>
  </way>
  <way id="88833597" version="2" timestamp="2010-12-10T17:04:53Z" uid="115477" user="wowik" changeset="6607373">
    <nd ref="1030957899"/>
    <nd ref="1030957985"/>
    <nd ref="1030957992"/>
    <nd ref="1030957883"/>
    <nd ref="1030957941"/>
    <nd ref="1030957899"/>
    <tag k="addr:city" v="Нижневартовск"/>
    <tag k="addr:housenumber" v="43А"/>
    <tag k="addr:street" v="Интернациональная улица"/>
    <tag k="building" v="yes"/>
    <tag k="building:levels" v="1"/>
  </way>
  <way id="88833597" version="3" timestamp="2010-12-10T17:13:04Z" uid="115477" user="wowik" changeset="6607452">
    <nd ref="1030957899"/>
    <nd ref="1030957985"/>
    <nd ref="1030957992"/>
    <nd ref="1030957883"/>
    <nd ref="1030957941"/>
    <nd ref="1030957899"/>
    <tag k="addr:city" v="Нижневартовск"/>
    <tag k="addr:housenumber" v="43А"/>
    <tag k="addr:street" v="Интернациональная улица"/>
    <tag k="amenity" v="cafe"/>
    <tag k="building" v="yes"/>
    <tag k="building:levels" v="1"/>
  </way>
  <way id="88833598" version="1" timestamp="2010-12-10T15:24:43Z" uid="115477" user="wowik" changeset="6606391">
    <nd ref="1030957938"/>
    <nd ref="1030957900"/>
    <nd ref="1030957946"/>
    <nd ref="1030957997"/>
    <nd ref="1030957938"/>
    <tag k="addr:city" v="Нижневартовск"/>
    <tag k="addr:housenumber" v="41"/>
    <tag k="addr:street" v="Интернациональная ул."/>
    <tag k="building" v="yes"/>
    <tag k="building:levels" v="9"/>
  </way>
  <way id="88833598" version="2" timestamp="2010-12-10T15:26:55Z" uid="115477" user="wowik" changeset="6606411">
    <nd ref="1030957938"/>
    <nd ref="1030957900"/>
    <nd ref="1030957946"/>
    <nd ref="1030957997"/>
    <nd ref="1030957938"/>
    <tag k="addr:city" v="Нижневартовск"/>
    <tag k="addr:housenumber" v="41"/>
    <tag k="addr:street" v="Интернациональная улица"/>
    <tag k="building" v="yes"/>
    <tag k="building:levels" v="9"/>
  </way>
  <way id="88833599" version="1" timestamp="2010-12-10T15:24:43Z" uid="115477" user="wowik" changeset="6606391">
    <nd ref="1030957854"/>
    <nd ref="1030957904"/>
    <nd ref="1030957870"/>
    <nd ref="1030957852"/>
    <nd ref="1030957989"/>
    <nd ref="1030957940"/>
    <nd ref="1030957854"/>
    <tag k="addr:city" v="Нижневартовск"/>
    <tag k="addr:street" v="Интернациональная ул."/>
    <tag k="building" v="yes"/>
    <tag k="building:levels" v="9"/>
  </way>
  <way id="88833599" version="2" timestamp="2010-12-10T15:26:55Z" uid="115477" user="wowik" changeset="6606411">
    <nd ref="1030957854"/>
    <nd ref="1030957904"/>
    <nd ref="1030957870"/>
    <nd ref="1030957852"/>
    <nd ref="1030957989"/>
    <nd ref="1030957940"/>
    <nd ref="1030957854"/>
    <tag k="addr:city" v="Нижневартовск"/>
    <tag k="addr:street" v="Интернациональная улица"/>
    <tag k="building" v="yes"/>
    <tag k="building:levels" v="9"/>
  </way>
  <way id="88833599" version="3" timestamp="2010-12-10T17:04:52Z" uid="115477" user="wowik" changeset="6607373">
    <nd ref="1030957854"/>
    <nd ref="1030957904"/>
    <nd ref="1030957870"/>
    <nd ref="1030957852"/>
    <nd ref="1030957989"/>
    <nd ref="1030957940"/>
    <nd ref="1030957854"/>
    <tag k="addr:city" v="Нижневартовск"/>
    <tag k="addr:housenumber" v="47А"/>
    <tag k="addr:street" v="Интернациональная улица"/>
    <tag k="building" v="yes"/>
  </way>
  <way id="88833599" version="4" timestamp="2010-12-10T17:13:03Z" uid="115477" user="wowik" changeset="6607452">
    <nd ref="1030957854"/>
    <nd ref="1030957904"/>
    <nd ref="1030957870"/>
    <nd ref="1030957852"/>
    <nd ref="1030957989"/>
    <nd ref="1030957940"/>
    <nd ref="1030957854"/>
    <tag k="addr:city" v="Нижневартовск"/>
    <tag k="addr:housenumber" v="47А"/>
    <tag k="addr:street" v="Интернациональная улица"/>
    <tag k="building" v="yes"/>
    <tag k="building:levels" v="2"/>
    <tag k="shop" v="shoes"/>
  </way>
  <way id="88833602" version="1" timestamp="2010-12-10T15:24:44Z" uid="115477" user="wowik" changeset="6606391">
    <nd ref="1030957833"/>
    <nd ref="1030958019"/>
    <nd ref="1030957851"/>
    <nd ref="1030957902"/>
    <nd ref="1030957833"/>
    <tag k="addr:city" v="Нижневартовск"/>
    <tag k="addr:housenumber" v="45"/>
    <tag k="addr:street" v="Интернациональная ул."/>
    <tag k="building" v="yes"/>
    <tag k="building:levels" v="9"/>
  </way>
  <way id="88833602" version="2" timestamp="2010-12-10T15:26:55Z" uid="115477" user="wowik" changeset="6606411">
    <nd ref="1030957833"/>
    <nd ref="1030958019"/>
    <nd ref="1030957851"/>
    <nd ref="1030957902"/>
    <nd ref="1030957833"/>
    <tag k="addr:city" v="Нижневартовск"/>
    <tag k="addr:housenumber" v="45"/>
    <tag k="addr:street" v="Интернациональная улица"/>
    <tag k="building" v="yes"/>
    <tag k="building:levels" v="9"/>
  </way>
  <way id="88833606" version="1" timestamp="2010-12-10T15:24:44Z" uid="115477" user="wowik" changeset="6606391">
    <nd ref="1030957874"/>
    <nd ref="1030957952"/>
    <nd ref="1030957868"/>
    <nd ref="1030957903"/>
    <nd ref="1030957874"/>
    <tag k="addr:city" v="Нижневартовск"/>
    <tag k="addr:housenumber" v="39"/>
    <tag k="addr:street" v="Интернациональная ул."/>
    <tag k="building" v="yes"/>
    <tag k="building:levels" v="9"/>
    <tag k="name" v="гостиница Венеция"/>
    <tag k="tourism" v="hotel"/>
  </way>
  <way id="88833606" version="2" timestamp="2010-12-10T15:26:57Z" uid="115477" user="wowik" changeset="6606411">
    <nd ref="1030957874"/>
    <nd ref="1030957952"/>
    <nd ref="1030957868"/>
    <nd ref="1030957903"/>
    <nd ref="1030957874"/>
    <tag k="addr:city" v="Нижневартовск"/>
    <tag k="addr:housenumber" v="39"/>
    <tag k="addr:street" v="Интернациональная улица"/>
    <tag k="building" v="yes"/>
    <tag k="building:levels" v="9"/>
    <tag k="name" v="гостиница Венеция"/>
    <tag k="tourism" v="hotel"/>
  </way>
  <way id="88833606" version="3" timestamp="2010-12-16T15:20:14Z" uid="115477" user="wowik" changeset="6677695">
    <nd ref="1030957874"/>
    <nd ref="1030957952"/>
    <nd ref="1041241957"/>
    <nd ref="1030957868"/>
    <nd ref="1030957903"/>
    <nd ref="1030957874"/>
    <tag k="addr:city" v="Нижневартовск"/>
    <tag k="addr:housenumber" v="39"/>
    <tag k="addr:street" v="Интернациональная улица"/>
    <tag k="building" v="yes"/>
    <tag k="building:levels" v="9"/>
    <tag k="name" v="гостиница Венеция"/>
    <tag k="tourism" v="hotel"/>
  </way>
  <way id="88833606" version="4" timestamp="2010-12-16T15:36:58Z" uid="115477" user="wowik" changeset="6677862">
    <nd ref="1030957874"/>
    <nd ref="1030957952"/>
    <nd ref="1041241957"/>
    <nd ref="1030957868"/>
    <nd ref="1030957903"/>
    <nd ref="1030957874"/>
    <tag k="addr:city" v="Нижневартовск"/>
    <tag k="addr:housenumber" v="39"/>
    <tag k="addr:street" v="Интернациональная улица"/>
    <tag k="building" v="yes"/>
    <tag k="building:levels" v="9"/>
  </way>
  <way id="88833607" version="1" timestamp="2010-12-10T15:24:44Z" uid="115477" user="wowik" changeset="6606391">
    <nd ref="1030957834"/>
    <nd ref="1030957885"/>
    <nd ref="1030957981"/>
    <nd ref="1030957832"/>
    <nd ref="1030957834"/>
    <tag k="addr:city" v="Нижневартовск"/>
    <tag k="addr:housenumber" v="37"/>
    <tag k="addr:street" v="Интернациональная ул."/>
    <tag k="building" v="yes"/>
    <tag k="building:levels" v="9"/>
  </way>
  <way id="88833607" version="2" timestamp="2010-12-10T15:26:55Z" uid="115477" user="wowik" changeset="6606411">
    <nd ref="1030957834"/>
    <nd ref="1030957885"/>
    <nd ref="1030957981"/>
    <nd ref="1030957832"/>
    <nd ref="1030957834"/>
    <tag k="addr:city" v="Нижневартовск"/>
    <tag k="addr:housenumber" v="37"/>
    <tag k="addr:street" v="Интернациональная улица"/>
    <tag k="building" v="yes"/>
    <tag k="building:levels" v="9"/>
  </way>
  <way id="88833949" version="2" timestamp="2011-02-17T22:21:54Z" uid="16922" user="amai" changeset="7318197">
    <nd ref="1030972816"/>
    <nd ref="1030972819"/>
    <nd ref="1030972822"/>
    <nd ref="1030972825"/>
    <nd ref="1030972827"/>
    <nd ref="1030972833"/>
    <nd ref="1158182551"/>
    <tag k="highway" v="tertiary"/>
  </way>
</osm>
