<?xml version='1.0' encoding='UTF-8'?>
<osm version="0.6" generator="libosmium/2.20.0">
  <way id="88890209" version="1" timestamp="2010-12-10T20:14:03Z" uid="171838" user="argrath" changeset="6609322">
    <nd ref="267336155"/>
    <nd ref="267336146"/>
    <nd ref="267336133"/>
    <nd ref="267336132"/>
    <nd ref="1031796532"/>
    <nd ref="267335822"/>
    <tag k="name" v="JR阪和線"/>
    <tag k="name:ja" v="JR阪和線"/>
    <tag k="operator" v="西日本旅客鉄道"/>
    <tag k="operator:ja" v="西日本旅客鉄道"/>
    <tag k="railway" v="rail"/>
    <tag k="source" v="Bing"/>
  </way>
  <way id="88890209" version="2" timestamp="2010-12-11T09:36:01Z" uid="171838" user="argrath" changeset="6620319">
    <nd ref="267336155"/>
    <nd ref="267336146"/>
    <nd ref="267336133"/>
    <nd ref="267336132"/>
    <nd ref="1032927949"/>
    <nd ref="1031796532"/>
    <nd ref="1032927893"/>
    <nd ref="267335822"/>
    <tag k="name" v="JR阪和線"/>
    <tag k="name:ja" v="JR阪和線"/>
    <tag k="operator" v="西日本旅客鉄道"/>
    <tag k="operator:ja" v="西日本旅客鉄道"/>
    <tag k="railway" v="rail"/>
    <tag k="source" v="Bing"/>
  </way>
  <way id="88890214" version="1" timestamp="2010-12-10T20:14:04Z" uid="171838" user="argrath" changeset="6609322">
    <nd ref="1031796549"/>
    <nd ref="254530742"/>
    <nd ref="254530743"/>
    <nd ref="254530744"/>
    <nd ref="254530745"/>
    <nd ref="254530746"/>
    <nd ref="254530747"/>
    <tag k="railway" v="rail"/>
    <tag k="source" v="Bing"/>
  </way>
</osm>
