<?xml version='1.0' encoding='UTF-8'?>
<osm version="0.6" generator="libosmium/2.20.0">
  <way id="89240694" version="2" timestamp="2011-05-26T15:55:03Z" uid="115477" user="wowik" changeset="8254704">
    <nd ref="1035678781"/>
    <nd ref="1300826257"/>
    <nd ref="1300826281"/>
    <nd ref="1035678178"/>
    <nd ref="1035678714"/>
    <nd ref="1035678119"/>
    <nd ref="1035678781"/>
    <tag k="addr:housenumber" v="1a"/>
    <tag k="addr:street" v="улица Гоголя"/>
    <tag k="building" v="yes"/>
  </way>
  <way id="89240713" version="2" timestamp="2011-05-26T15:55:06Z" uid="115477" user="wowik" changeset="8254704">
    <nd ref="1035677490"/>
    <nd ref="1035679239"/>
    <nd ref="1035678600"/>
    <nd ref="1035677578"/>
    <nd ref="1300826344"/>
    <nd ref="1300826381"/>
    <nd ref="1035677490"/>
    <tag k="addr:housenumber" v="3"/>
    <tag k="addr:street" v="улица Гоголя"/>
    <tag k="building" v="yes"/>
  </way>
  <way id="89240714" version="2" timestamp="2011-05-26T15:55:02Z" uid="115477" user="wowik" changeset="8254704">
    <nd ref="1035677992"/>
    <nd ref="1035677783"/>
    <nd ref="1035679160"/>
    <nd ref="1035678125"/>
    <nd ref="1035677992"/>
    <tag k="addr:housenumber" v="11"/>
    <tag k="addr:street" v="улица Гоголя"/>
    <tag k="building" v="yes"/>
    <tag k="building:levels" v="1"/>
    <tag k="building:use" v="residential"/>
    <tag k="source" v="bing"/>
  </way>
  <way id="89240720" version="2" timestamp="2011-05-26T15:55:02Z" uid="115477" user="wowik" changeset="8254704">
    <nd ref="1035678609"/>
    <nd ref="1035678037"/>
    <nd ref="1035678965"/>
    <nd ref="1035678347"/>
    <nd ref="1035678609"/>
    <tag k="building" v="yes"/>
    <tag k="building:levels" v="1"/>
    <tag k="building:use" v="residential"/>
    <tag k="source" v="bing"/>
  </way>
</osm>
