<?xml version='1.0' encoding='UTF-8'?>
<osm version="0.6" generator="libosmium/2.20.0">
  <way id="89411347" version="1" timestamp="2010-12-13T11:06:57Z" uid="49111" user="Markus B" changeset="6646307">
    <nd ref="1037069704"/>
    <nd ref="1037069716"/>
    <nd ref="1037069705"/>
    <nd ref="1037069699"/>
    <nd ref="1037069704"/>
    <tag k="addr:city" v="Simmelsdorf-Großengsee"/>
    <tag k="addr:country" v="DE"/>
    <tag k="addr:housenumber" v="4"/>
    <tag k="addr:postcode" v="91245"/>
    <tag k="addr:street" v="Am Kreuzfelsen"/>
    <tag k="building" v="yes"/>
    <tag k="name" v="Naturfreundehaus Am Kreuzfelsen"/>
    <tag k="operator" v="NaturFreunde Deutschland"/>
    <tag k="ref" v="N 100"/>
    <tag k="source" v="Datenspende der NaturFreunde Deutschland"/>
    <tag k="tourism" v="guest_house"/>
  </way>
  <way id="89411348" version="1" timestamp="2010-12-13T11:06:57Z" uid="49111" user="Markus B" changeset="6646307">
    <nd ref="1037069715"/>
    <nd ref="1037069702"/>
    <tag k="highway" v="living_street"/>
    <tag k="name" v="Kirchenbühl"/>
    <tag k="note" v="Retrieved from v3"/>
  </way>
  <way id="89411349" version="1" timestamp="2010-12-13T11:06:58Z" uid="49111" user="Markus B" changeset="6646307">
    <nd ref="1037069693"/>
    <nd ref="1037069717"/>
    <nd ref="1037069713"/>
    <tag k="highway" v="service"/>
  </way>
  <way id="89411435" version="1" timestamp="2010-12-13T11:07:30Z" uid="171838" user="argrath" changeset="6646312">
    <nd ref="810273818"/>
    <nd ref="1037070108"/>
    <nd ref="1037070109"/>
    <nd ref="1037070110"/>
    <nd ref="1037070111"/>
    <nd ref="1037070112"/>
    <nd ref="1037070113"/>
    <nd ref="1037070114"/>
    <nd ref="1037070115"/>
    <nd ref="1037070116"/>
    <nd ref="1037070117"/>
    <nd ref="1037070118"/>
    <nd ref="1037070119"/>
    <nd ref="1037070120"/>
    <nd ref="1037070121"/>
    <nd ref="1037070122"/>
    <nd ref="1037070123"/>
    <nd ref="1037070124"/>
    <tag k="highway" v="tertiary"/>
    <tag k="source" v="Bing"/>
  </way>
  <way id="89411437" version="1" timestamp="2010-12-13T11:07:30Z" uid="171838" user="argrath" changeset="6646312">
    <nd ref="1037070124"/>
    <nd ref="1037070125"/>
    <tag k="bridge" v="yes"/>
    <tag k="highway" v="tertiary"/>
    <tag k="source" v="Bing"/>
  </way>
  <way id="89411442" version="1" timestamp="2010-12-13T11:07:31Z" uid="171838" user="argrath" changeset="6646312">
    <nd ref="1037070125"/>
    <nd ref="1037070126"/>
    <nd ref="1037070127"/>
    <nd ref="1037070128"/>
    <nd ref="1037070129"/>
    <nd ref="1037070130"/>
    <nd ref="1037070131"/>
    <nd ref="869834160"/>
    <tag k="highway" v="tertiary"/>
    <tag k="source" v="Bing"/>
  </way>
</osm>
