<?xml version='1.0' encoding='UTF-8'?>
<osm version="0.6" generator="libosmium/2.20.0">
  <way id="89658362" version="1" timestamp="2010-12-15T10:50:32Z" uid="4467" user="Rosscoe" changeset="6666393">
    <nd ref="1039076331"/>
    <nd ref="1039076267"/>
    <nd ref="1039076330"/>
    <tag k="name" v="Pilbara Iron Railway"/>
    <tag k="owner" v="Rio Tinto Limited"/>
    <tag k="railway" v="rail"/>
    <tag k="source" v="landsat"/>
  </way>
  <way id="89658363" version="1" timestamp="2010-12-15T10:50:32Z" uid="4467" user="Rosscoe" changeset="6666393">
    <nd ref="1039076286"/>
    <nd ref="1039076301"/>
    <nd ref="1039076269"/>
    <nd ref="1039076295"/>
    <nd ref="1039076290"/>
    <nd ref="1039076274"/>
    <nd ref="1039076303"/>
    <nd ref="1039076252"/>
    <nd ref="1039076253"/>
    <nd ref="1039076333"/>
    <tag k="name" v="Pilbara Iron Railway"/>
    <tag k="owner" v="Rio Tinto Limited"/>
    <tag k="railway" v="rail"/>
    <tag k="source" v="landsat"/>
  </way>
  <way id="89658364" version="1" timestamp="2010-12-15T10:50:33Z" uid="4467" user="Rosscoe" changeset="6666393">
    <nd ref="1039076284"/>
    <nd ref="1039076272"/>
    <nd ref="1039076313"/>
    <tag k="name" v="Pilbara Iron Railway"/>
    <tag k="owner" v="Rio Tinto Limited"/>
    <tag k="railway" v="rail"/>
    <tag k="source" v="landsat"/>
  </way>
  <way id="89658365" version="1" timestamp="2010-12-15T10:50:33Z" uid="4467" user="Rosscoe" changeset="6666393">
    <nd ref="191994430"/>
    <nd ref="1039076293"/>
    <tag k="bridge" v="yes"/>
    <tag k="layer" v="1"/>
    <tag k="name" v="Pilbara Iron Railway"/>
    <tag k="owner" v="Rio Tinto Limited"/>
    <tag k="railway" v="rail"/>
    <tag k="source" v="Bing"/>
  </way>
  <way id="89658366" version="1" timestamp="2010-12-15T10:50:34Z" uid="4467" user="Rosscoe" changeset="6666393">
    <nd ref="1039076253"/>
    <nd ref="1039076278"/>
    <nd ref="1039076342"/>
    <nd ref="1039076281"/>
    <nd ref="1039076240"/>
    <nd ref="1039076298"/>
    <nd ref="1039076327"/>
    <nd ref="1039076331"/>
    <nd ref="1039076313"/>
    <tag k="name" v="Pilbara Iron Railway"/>
    <tag k="owner" v="Rio Tinto Limited"/>
    <tag k="railway" v="rail"/>
    <tag k="source" v="landsat"/>
  </way>
  <way id="89658367" version="1" timestamp="2010-12-15T10:50:35Z" uid="4467" user="Rosscoe" changeset="6666393">
    <nd ref="1039076293"/>
    <nd ref="1039076333"/>
    <nd ref="191994431"/>
    <nd ref="191994433"/>
    <nd ref="1039076325"/>
    <nd ref="1039076341"/>
    <nd ref="1039076251"/>
    <nd ref="1039076328"/>
    <nd ref="1039076243"/>
    <nd ref="1039076326"/>
    <nd ref="1039076265"/>
    <nd ref="1039076300"/>
    <nd ref="1039076286"/>
    <nd ref="1039076284"/>
    <nd ref="1039076248"/>
    <nd ref="1039076250"/>
    <nd ref="1039076263"/>
    <tag k="name" v="Pilbara Iron Railway"/>
    <tag k="owner" v="Rio Tinto Limited"/>
    <tag k="railway" v="rail"/>
    <tag k="source" v="landsat"/>
  </way>
</osm>
