<?xml version='1.0' encoding='UTF-8'?>
<osm version="0.6" generator="libosmium/2.20.0">
  <way id="9006553" version="2" timestamp="2008-07-15T01:50:18Z" uid="6975" user="ulfl" changeset="496348">
    <nd ref="65928658"/>
    <nd ref="65982702"/>
    <nd ref="66000926"/>
    <nd ref="65933842"/>
    <nd ref="66016774"/>
    <nd ref="66080203"/>
    <nd ref="66022462"/>
    <nd ref="65973734"/>
    <nd ref="65985484"/>
    <tag k="attribution" v="Office of Geographic and Environmental Information (MassGIS)"/>
    <tag k="condition" v="good"/>
    <tag k="highway" v="primary"/>
    <tag k="lanes" v="2"/>
    <tag k="massgis:way_id" v="138508"/>
    <tag k="maxspeed" v="96"/>
    <tag k="name" v="Pilgrim Highway"/>
    <tag k="ref" v="SR 3"/>
    <tag k="route" v="truck"/>
    <tag k="source" v="massgis_import_v0.1_20071009090651"/>
    <tag k="width" v="30.2"/>
  </way>
  <way id="9006554" version="2" timestamp="2008-07-15T01:50:22Z" uid="6975" user="ulfl" changeset="496348">
    <nd ref="65953268"/>
    <nd ref="66062855"/>
    <nd ref="65939109"/>
    <nd ref="65973705"/>
    <nd ref="65983646"/>
    <nd ref="65940641"/>
    <nd ref="66015476"/>
    <nd ref="65925894"/>
    <nd ref="65998685"/>
    <nd ref="66070921"/>
    <nd ref="66035244"/>
    <nd ref="66000008"/>
    <tag k="attribution" v="Office of Geographic and Environmental Information (MassGIS)"/>
    <tag k="condition" v="good"/>
    <tag k="highway" v="primary"/>
    <tag k="lanes" v="2"/>
    <tag k="massgis:way_id" v="138508"/>
    <tag k="maxspeed" v="96"/>
    <tag k="name" v="Pilgrim Highway"/>
    <tag k="ref" v="SR 3"/>
    <tag k="route" v="truck"/>
    <tag k="source" v="massgis_import_v0.1_20071009090651"/>
    <tag k="width" v="30.2"/>
  </way>
</osm>
