<?xml version='1.0' encoding='UTF-8'?>
<osm version="0.6" generator="libosmium/2.20.0">
  <way id="90094479" version="1" timestamp="2010-12-18T05:11:05Z" uid="7617" user="Franc" changeset="6692920">
    <nd ref="1044332708"/>
    <nd ref="610758165"/>
    <tag k="highway" v="residential"/>
    <tag k="maxspeed" v="50"/>
    <tag k="maxspeed:source" v="default residential speed limit in Australia"/>
    <tag k="name" v="Banksia Road"/>
  </way>
  <way id="90094480" version="1" timestamp="2010-12-18T05:11:06Z" uid="7617" user="Franc" changeset="6692920">
    <nd ref="256013598"/>
    <nd ref="597621148"/>
    <nd ref="256011839"/>
    <nd ref="256013468"/>
    <nd ref="256011840"/>
    <nd ref="1044332707"/>
    <nd ref="256013666"/>
    <nd ref="256011841"/>
    <tag k="highway" v="secondary"/>
    <tag k="name" v="Chapel Road"/>
    <tag k="restriction" v="school_zone"/>
  </way>
  <way id="90094481" version="1" timestamp="2010-12-18T05:11:07Z" uid="7617" user="Franc" changeset="6692920">
    <nd ref="1044332706"/>
    <nd ref="256013667"/>
    <nd ref="610745804"/>
    <tag k="highway" v="residential"/>
    <tag k="maxspeed" v="50"/>
    <tag k="maxspeed:source" v="default residential speed limit in Australia"/>
    <tag k="name" v="Heath Street"/>
  </way>
</osm>
