<?xml version='1.0' encoding='UTF-8'?>
<osm version="0.6" generator="libosmium/2.20.0">
  <way id="90622899" version="1" timestamp="2010-12-20T14:28:07Z" uid="115477" user="wowik" changeset="6716494">
    <nd ref="982642961"/>
    <nd ref="428146723"/>
    <nd ref="428146570"/>
    <nd ref="982632427"/>
    <nd ref="1051688908"/>
    <nd ref="982642961"/>
    <tag k="addr:city" v="Зеленоград"/>
    <tag k="addr:country" v="RU"/>
    <tag k="addr:housenumber" v="406"/>
    <tag k="addr:region" v="Москва"/>
    <tag k="addr:street" v="4-й Микрорайон"/>
    <tag k="building" v="yes"/>
    <tag k="building:levels" v="17"/>
    <tag k="is_in" v="Russia"/>
  </way>
  <way id="90622899" version="2" timestamp="2011-01-12T10:24:44Z" uid="115477" user="wowik" changeset="6945653">
    <nd ref="982642961"/>
    <nd ref="428146723"/>
    <nd ref="428146570"/>
    <nd ref="982632427"/>
    <nd ref="1051688908"/>
    <nd ref="982642961"/>
    <tag k="addr:city" v="Зеленоград"/>
    <tag k="addr:country" v="RU"/>
    <tag k="addr:housenumber" v="406"/>
    <tag k="addr:region" v="Москва"/>
    <tag k="addr:street" v="4-й Микрорайон"/>
    <tag k="building" v="yes"/>
    <tag k="building:levels" v="17"/>
    <tag k="building:use" v="residential"/>
    <tag k="is_in" v="Russia"/>
  </way>
  <way id="90622900" version="1" timestamp="2010-12-20T14:28:08Z" uid="115477" user="wowik" changeset="6716494">
    <nd ref="428146600"/>
    <nd ref="428146399"/>
    <nd ref="982632144"/>
    <nd ref="982632499"/>
    <nd ref="428146600"/>
    <tag k="addr:city" v="Зеленоград"/>
    <tag k="addr:country" v="RU"/>
    <tag k="addr:housenumber" v="406"/>
    <tag k="addr:region" v="Москва"/>
    <tag k="addr:street" v="4-й Микрорайон"/>
    <tag k="building" v="yes"/>
    <tag k="building:levels" v="2"/>
    <tag k="is_in" v="Russia"/>
    <tag k="landuse" v="service"/>
  </way>
  <way id="90622900" version="2" timestamp="2010-12-20T14:30:41Z" uid="115477" user="wowik" changeset="6716494">
    <nd ref="428146600"/>
    <nd ref="428146399"/>
    <nd ref="982632144"/>
    <nd ref="982632499"/>
    <nd ref="428146600"/>
    <tag k="building" v="yes"/>
    <tag k="building:levels" v="2"/>
    <tag k="landuse" v="service"/>
  </way>
  <way id="90622901" version="1" timestamp="2010-12-20T14:28:08Z" uid="115477" user="wowik" changeset="6716494">
    <nd ref="1051688884"/>
    <nd ref="428146600"/>
    <nd ref="982632499"/>
    <nd ref="982632330"/>
    <nd ref="982632160"/>
    <nd ref="454609857"/>
    <nd ref="1051688891"/>
    <nd ref="1051688887"/>
    <nd ref="1051688884"/>
    <tag k="addr:city" v="Зеленоград"/>
    <tag k="addr:country" v="RU"/>
    <tag k="addr:housenumber" v="406"/>
    <tag k="addr:region" v="Москва"/>
    <tag k="addr:street" v="4-й Микрорайон"/>
    <tag k="building" v="yes"/>
    <tag k="building:levels" v="3"/>
    <tag k="is_in" v="Russia"/>
    <tag k="landuse" v="service"/>
  </way>
  <way id="90622901" version="2" timestamp="2010-12-20T14:30:43Z" uid="115477" user="wowik" changeset="6716494">
    <nd ref="1051688884"/>
    <nd ref="428146600"/>
    <nd ref="982632499"/>
    <nd ref="982632330"/>
    <nd ref="982632160"/>
    <nd ref="454609857"/>
    <nd ref="1051688891"/>
    <nd ref="1051688887"/>
    <nd ref="1051688884"/>
    <tag k="building" v="yes"/>
    <tag k="building:levels" v="3"/>
    <tag k="landuse" v="service"/>
  </way>
  <way id="90622901" version="3" timestamp="2011-01-12T14:20:20Z" uid="115477" user="wowik" changeset="6947600">
    <nd ref="1051688884"/>
    <nd ref="428146600"/>
    <nd ref="982632499"/>
    <nd ref="982632330"/>
    <nd ref="982632160"/>
    <nd ref="454609857"/>
    <nd ref="1051688891"/>
    <nd ref="1051688887"/>
    <nd ref="1099946254"/>
    <nd ref="1099946480"/>
    <nd ref="1099946649"/>
    <nd ref="1099946401"/>
    <nd ref="1051688884"/>
    <tag k="building" v="yes"/>
    <tag k="building:levels" v="3"/>
    <tag k="landuse" v="service"/>
  </way>
  <way id="90622901" version="4" timestamp="2011-01-28T15:00:22Z" uid="115477" user="wowik" changeset="7113705">
    <nd ref="1051688884"/>
    <nd ref="428146600"/>
    <nd ref="982632499"/>
    <nd ref="982632330"/>
    <nd ref="982632160"/>
    <nd ref="454609857"/>
    <nd ref="1051688891"/>
    <nd ref="1099946254"/>
    <nd ref="1099946480"/>
    <nd ref="1099946649"/>
    <nd ref="1099946401"/>
    <nd ref="1051688884"/>
    <tag k="building" v="yes"/>
    <tag k="building:levels" v="3"/>
    <tag k="landuse" v="service"/>
  </way>
</osm>
