<?xml version='1.0' encoding='UTF-8'?>
<osm version="0.6" generator="libosmium/2.20.0">
  <way id="90626267" version="2" timestamp="2010-12-21T08:58:08Z" uid="43863" user="Rundling" changeset="6723112">
    <nd ref="1051731948"/>
    <nd ref="1051739214"/>
    <nd ref="180331627"/>
    <nd ref="1051679701"/>
    <nd ref="1051669188"/>
    <nd ref="1051731688"/>
    <nd ref="1051732590"/>
    <nd ref="1051731948"/>
    <tag k="landuse" v="forest"/>
  </way>
  <way id="90626270" version="2" timestamp="2010-12-21T08:58:09Z" uid="43863" user="Rundling" changeset="6723112">
    <nd ref="289440225"/>
    <nd ref="289440222"/>
    <nd ref="1051162109"/>
    <nd ref="289439940"/>
    <nd ref="289440370"/>
    <nd ref="289440369"/>
    <nd ref="1051731673"/>
    <nd ref="1053758033"/>
    <nd ref="1051162487"/>
    <nd ref="1051162851"/>
    <nd ref="1051162694"/>
    <nd ref="1051162232"/>
    <nd ref="1051162250"/>
    <nd ref="1051162513"/>
    <nd ref="1051162387"/>
    <nd ref="289440360"/>
    <nd ref="289440228"/>
    <nd ref="289440227"/>
    <nd ref="289440443"/>
    <nd ref="289440352"/>
    <nd ref="289440225"/>
    <tag k="landuse" v="farmland"/>
  </way>
  <way id="90626271" version="2" timestamp="2010-12-21T08:58:07Z" uid="43863" user="Rundling" changeset="6723112">
    <nd ref="1051732590"/>
    <nd ref="1051731688"/>
    <nd ref="1051669188"/>
    <nd ref="1051679701"/>
    <nd ref="180331610"/>
    <nd ref="1051617652"/>
    <nd ref="1051618557"/>
    <nd ref="1051616489"/>
    <nd ref="1051618027"/>
    <nd ref="1051617127"/>
    <nd ref="1051616004"/>
    <nd ref="1051617586"/>
    <nd ref="1051616652"/>
    <nd ref="1051616161"/>
    <nd ref="299948074"/>
    <nd ref="299948076"/>
    <nd ref="1051739648"/>
    <nd ref="1051738797"/>
    <nd ref="299948079"/>
    <nd ref="299948084"/>
    <nd ref="299948083"/>
    <nd ref="299948082"/>
    <nd ref="1051731948"/>
    <nd ref="1051732590"/>
    <tag k="landuse" v="farmland"/>
  </way>
  <way id="90626278" version="2" timestamp="2010-12-21T08:58:12Z" uid="43863" user="Rundling" changeset="6723112"/>
  <way id="90626279" version="1" timestamp="2010-12-20T14:58:02Z" uid="115477" user="wowik" changeset="6716627">
    <nd ref="984020355"/>
    <nd ref="984020373"/>
    <nd ref="984020369"/>
    <nd ref="428589884"/>
    <nd ref="428589891"/>
    <nd ref="984020409"/>
    <nd ref="984020355"/>
    <tag k="addr:city" v="Зеленоград"/>
    <tag k="addr:housenumber" v="301А"/>
    <tag k="addr:street" v="3-й Микрорайон"/>
    <tag k="building" v="yes"/>
    <tag k="building:levels" v="9"/>
    <tag k="is_in" v="Russia"/>
  </way>
  <way id="90626279" version="2" timestamp="2011-01-12T10:25:29Z" uid="115477" user="wowik" changeset="6945653">
    <nd ref="984020355"/>
    <nd ref="984020373"/>
    <nd ref="984020369"/>
    <nd ref="428589884"/>
    <nd ref="428589891"/>
    <nd ref="984020409"/>
    <nd ref="984020355"/>
    <tag k="addr:city" v="Зеленоград"/>
    <tag k="addr:housenumber" v="301А"/>
    <tag k="addr:street" v="3-й Микрорайон"/>
    <tag k="building" v="yes"/>
    <tag k="building:levels" v="9"/>
    <tag k="building:use" v="residential"/>
    <tag k="is_in" v="Russia"/>
  </way>
  <way id="90626279" version="3" timestamp="2011-01-12T16:45:16Z" uid="115477" user="wowik" changeset="6948926">
    <nd ref="984020355"/>
    <nd ref="984020373"/>
    <nd ref="984020369"/>
    <nd ref="428589884"/>
    <nd ref="428589891"/>
    <nd ref="984020409"/>
    <nd ref="984020355"/>
    <tag k="addr:city" v="Зеленоград"/>
    <tag k="addr:housenumber" v="301А"/>
    <tag k="addr:postcode" v="124482"/>
    <tag k="addr:street" v="3-й Микрорайон"/>
    <tag k="building" v="yes"/>
    <tag k="building:levels" v="9"/>
    <tag k="building:use" v="residential"/>
    <tag k="is_in" v="Russia"/>
  </way>
  <way id="90626280" version="1" timestamp="2010-12-20T14:58:02Z" uid="115477" user="wowik" changeset="6716627">
    <nd ref="984020394"/>
    <nd ref="984020390"/>
    <nd ref="428590289"/>
    <nd ref="428589934"/>
    <nd ref="984020362"/>
    <nd ref="984020404"/>
    <nd ref="984020394"/>
    <tag k="addr:city" v="Зеленоград"/>
    <tag k="addr:housenumber" v="301Б"/>
    <tag k="addr:street" v="3-й Микрорайон"/>
    <tag k="building" v="yes"/>
    <tag k="building:levels" v="9"/>
    <tag k="is_in" v="Russia"/>
  </way>
  <way id="90626280" version="2" timestamp="2011-01-12T10:24:41Z" uid="115477" user="wowik" changeset="6945653">
    <nd ref="984020394"/>
    <nd ref="984020390"/>
    <nd ref="428590289"/>
    <nd ref="428589934"/>
    <nd ref="984020362"/>
    <nd ref="984020404"/>
    <nd ref="984020394"/>
    <tag k="addr:city" v="Зеленоград"/>
    <tag k="addr:housenumber" v="301Б"/>
    <tag k="addr:street" v="3-й Микрорайон"/>
    <tag k="building" v="yes"/>
    <tag k="building:levels" v="9"/>
    <tag k="building:use" v="residential"/>
    <tag k="is_in" v="Russia"/>
  </way>
  <way id="90626280" version="3" timestamp="2011-01-12T16:44:50Z" uid="115477" user="wowik" changeset="6948926">
    <nd ref="984020394"/>
    <nd ref="984020390"/>
    <nd ref="428590289"/>
    <nd ref="428589934"/>
    <nd ref="984020362"/>
    <nd ref="984020404"/>
    <nd ref="984020394"/>
    <tag k="addr:city" v="Зеленоград"/>
    <tag k="addr:housenumber" v="301Б"/>
    <tag k="addr:postcode" v="124482"/>
    <tag k="addr:street" v="3-й Микрорайон"/>
    <tag k="building" v="yes"/>
    <tag k="building:levels" v="9"/>
    <tag k="building:use" v="residential"/>
    <tag k="is_in" v="Russia"/>
  </way>
  <way id="90626468" version="2" timestamp="2010-12-21T08:58:10Z" uid="43863" user="Rundling" changeset="6723112">
    <nd ref="1051738995"/>
    <nd ref="1051731865"/>
    <nd ref="1051675826"/>
    <nd ref="1051738831"/>
    <nd ref="1051738995"/>
    <tag k="landuse" v="forest"/>
  </way>
  <way id="90626470" version="2" timestamp="2010-12-21T08:58:07Z" uid="43863" user="Rundling" changeset="6723112">
    <nd ref="1051617779"/>
    <nd ref="1051683258"/>
    <nd ref="1051739279"/>
    <nd ref="180331634"/>
    <nd ref="1051739214"/>
    <nd ref="1051731948"/>
    <nd ref="299948082"/>
    <nd ref="1051676784"/>
    <nd ref="1051688898"/>
    <nd ref="1051732715"/>
    <nd ref="1051731811"/>
    <nd ref="1051616888"/>
    <nd ref="1051617779"/>
    <tag k="landuse" v="farmland"/>
  </way>
  <way id="90626480" version="2" timestamp="2010-12-21T09:43:48Z" uid="43863" user="Rundling" changeset="6723401">
    <nd ref="1051434531"/>
    <nd ref="280002763"/>
    <nd ref="280002765"/>
    <nd ref="280002767"/>
    <nd ref="1051617456"/>
    <nd ref="1051618463"/>
    <nd ref="1051617535"/>
    <nd ref="1051617052"/>
    <nd ref="1051618582"/>
    <nd ref="1051618301"/>
    <nd ref="352704142"/>
    <nd ref="299948086"/>
    <nd ref="1051617218"/>
    <nd ref="299948081"/>
    <nd ref="299948128"/>
    <nd ref="299948127"/>
    <nd ref="395341220"/>
    <nd ref="353265302"/>
    <nd ref="352680148"/>
    <nd ref="1051618208"/>
    <nd ref="1051617958"/>
    <nd ref="352680144"/>
    <nd ref="1051435050"/>
    <nd ref="1051434437"/>
    <nd ref="1051434707"/>
    <nd ref="1051434937"/>
    <nd ref="1051435077"/>
    <nd ref="1051434652"/>
    <nd ref="1051434926"/>
    <nd ref="1051434531"/>
    <tag k="landuse" v="farmland"/>
  </way>
  <way id="90626827" version="1" timestamp="2010-12-20T15:04:15Z" uid="6269" user="Mueck" changeset="6716052">
    <nd ref="1051747848"/>
    <nd ref="1027427921"/>
    <nd ref="245947143"/>
    <nd ref="245947139"/>
    <tag k="bridge" v="yes"/>
    <tag k="highway" v="tertiary"/>
    <tag k="layer" v="1"/>
    <tag k="maxspeed" v="50"/>
    <tag k="name" v="Vieländer Weg"/>
    <tag k="surface" v="paved"/>
  </way>
  <way id="90626829" version="1" timestamp="2010-12-20T15:04:16Z" uid="6269" user="Mueck" changeset="6716052">
    <nd ref="1051747849"/>
    <nd ref="259774305"/>
    <tag k="embankment" v="yes"/>
    <tag k="highway" v="residential"/>
    <tag k="name" v="Daimlerstraße"/>
  </way>
</osm>
