<?xml version='1.0' encoding='UTF-8'?>
<osm version="0.6" generator="libosmium/2.20.0">
  <way id="9078557" version="5" timestamp="2008-11-26T19:04:34Z" uid="6975" user="ulfl" changeset="797054">
    <nd ref="67003530"/>
    <nd ref="67004063"/>
    <tag k="highway" v="road"/>
    <tag k="name" v="Erzherzog Rainergasse"/>
  </way>
  <way id="9078569" version="5" timestamp="2009-08-26T09:32:11Z" uid="36809" user="pfoten_weg_!_" changeset="2265170">
    <nd ref="67004411"/>
    <nd ref="67004407"/>
    <tag k="bicycle" v="designated"/>
    <tag k="bridge" v="yes"/>
    <tag k="foot" v="designated"/>
    <tag k="highway" v="path"/>
    <tag k="layer" v="1"/>
  </way>
  <way id="9078570" version="5" timestamp="2009-08-26T09:32:39Z" uid="36809" user="pfoten_weg_!_" changeset="2265170">
    <nd ref="75769573"/>
    <nd ref="75769564"/>
    <nd ref="67004414"/>
    <nd ref="75769579"/>
    <nd ref="75769582"/>
    <nd ref="67004411"/>
    <tag k="bicycle" v="designated"/>
    <tag k="foot" v="designated"/>
    <tag k="highway" v="path"/>
  </way>
  <way id="9078859" version="4" timestamp="2008-09-16T10:37:40Z" uid="1066" user="pavel" changeset="646258">
    <nd ref="67012600"/>
    <nd ref="67012674"/>
    <nd ref="67012676"/>
    <tag k="highway" v="residential"/>
    <tag k="name" v="Plojharova"/>
    <tag k="name:source" v="nameit/uir-adr"/>
  </way>
</osm>
