<?xml version='1.0' encoding='UTF-8'?>
<osm version="0.6" generator="libosmium/2.20.0">
  <way id="9137031" version="10" timestamp="2010-07-09T03:02:30Z" uid="74617" user="JohnSmith" changeset="5170739">
    <nd ref="67763463"/>
    <nd ref="67763464"/>
    <nd ref="67770324"/>
    <nd ref="67770512"/>
    <nd ref="67755450"/>
    <nd ref="67771202"/>
    <nd ref="67771019"/>
    <tag k="highway" v="residential"/>
    <tag k="maxspeed" v="50"/>
    <tag k="maxspeed:source" v="default residential speed limit in Australia"/>
    <tag k="name" v="Wight Street"/>
    <tag k="source" v="Yahoo"/>
    <tag k="source:name" v="photo"/>
  </way>
  <way id="9137031" version="11" timestamp="2010-10-26T03:11:24Z" uid="4467" user="Rosscoe" changeset="6178825">
    <nd ref="67763463"/>
    <nd ref="67763464"/>
    <nd ref="67770324"/>
    <nd ref="67770512"/>
    <nd ref="67755450"/>
    <nd ref="67771202"/>
    <nd ref="67771019"/>
    <tag k="highway" v="residential"/>
    <tag k="maxspeed" v="50"/>
    <tag k="name" v="Wight Street"/>
    <tag k="source" v="Yahoo"/>
    <tag k="source:maxspeed" v="default residential speed limit in Australia"/>
    <tag k="source:name" v="photo"/>
  </way>
  <way id="9137089" version="8" timestamp="2010-07-09T02:55:22Z" uid="74617" user="JohnSmith" changeset="5170739">
    <nd ref="67804744"/>
    <nd ref="67804739"/>
    <nd ref="67761590"/>
    <nd ref="444597350"/>
    <nd ref="67761566"/>
    <nd ref="67761568"/>
    <tag k="highway" v="residential"/>
    <tag k="maxspeed" v="50"/>
    <tag k="maxspeed:source" v="default residential speed limit in Australia"/>
    <tag k="name" v="Coote Street"/>
    <tag k="source" v="Yahoo"/>
    <tag k="source:name" v="photo"/>
  </way>
  <way id="9137131" version="6" timestamp="2010-07-09T02:58:54Z" uid="74617" user="JohnSmith" changeset="5170739">
    <nd ref="67762950"/>
    <nd ref="279249538"/>
    <nd ref="279249537"/>
    <nd ref="67762945"/>
    <nd ref="67762934"/>
    <tag k="highway" v="residential"/>
    <tag k="maxspeed" v="50"/>
    <tag k="maxspeed:source" v="default residential speed limit in Australia"/>
    <tag k="name" v="New Street"/>
    <tag k="source" v="Yahoo"/>
    <tag k="source:name" v="photo"/>
  </way>
  <way id="9137136" version="3" timestamp="2008-09-16T10:36:25Z" uid="1066" user="pavel" changeset="646258">
    <nd ref="67719754"/>
    <nd ref="67760548"/>
    <nd ref="67760552"/>
    <nd ref="67760558"/>
    <nd ref="67760562"/>
    <nd ref="67760569"/>
    <nd ref="67760575"/>
    <nd ref="67760662"/>
    <nd ref="67760666"/>
    <nd ref="67760765"/>
    <nd ref="67760769"/>
    <nd ref="67760774"/>
    <nd ref="67760779"/>
    <nd ref="67760782"/>
    <tag k="highway" v="residential"/>
    <tag k="name" v="Součkova"/>
    <tag k="name:source" v="nameit/uir-adr"/>
  </way>
  <way id="9137563" version="5" timestamp="2010-10-15T06:06:28Z" uid="4467" user="Rosscoe" changeset="6046373">
    <nd ref="67763747"/>
    <nd ref="949451596"/>
    <nd ref="67770838"/>
    <tag k="highway" v="service"/>
  </way>
  <way id="9137649" version="3" timestamp="2008-09-16T10:35:26Z" uid="1066" user="pavel" changeset="646258">
    <nd ref="67719851"/>
    <nd ref="67768575"/>
    <nd ref="67768580"/>
    <nd ref="67768586"/>
    <nd ref="67768596"/>
    <nd ref="67768601"/>
    <nd ref="67768649"/>
    <nd ref="67760782"/>
    <nd ref="67768656"/>
    <tag k="highway" v="residential"/>
    <tag k="name" v="K trninám"/>
    <tag k="name:source" v="nameit/uir-adr"/>
  </way>
  <way id="9137650" version="3" timestamp="2008-09-16T10:39:21Z" uid="1066" user="pavel" changeset="646258">
    <nd ref="67768601"/>
    <nd ref="67768662"/>
    <tag k="highway" v="residential"/>
    <tag k="name" v="Brunnerova"/>
    <tag k="name:source" v="nameit/uir-adr"/>
  </way>
  <way id="9137651" version="3" timestamp="2008-09-16T10:36:17Z" uid="1066" user="pavel" changeset="646258">
    <nd ref="67768580"/>
    <nd ref="67768670"/>
    <nd ref="67768675"/>
    <nd ref="67768677"/>
    <nd ref="67768684"/>
    <nd ref="67768688"/>
    <nd ref="67768692"/>
    <nd ref="67768698"/>
    <nd ref="67768702"/>
    <nd ref="67768706"/>
    <nd ref="67757636"/>
    <tag k="highway" v="residential"/>
    <tag k="name" v="Laudova"/>
    <tag k="name:source" v="nameit/uir-adr"/>
  </way>
  <way id="9137695" version="6" timestamp="2010-10-15T07:26:33Z" uid="4467" user="Rosscoe" changeset="6046725">
    <nd ref="67804767"/>
    <nd ref="444597350"/>
    <nd ref="279249331"/>
    <nd ref="67769450"/>
    <tag k="highway" v="service"/>
  </way>
</osm>
