<?xml version='1.0' encoding='UTF-8'?>
<osm version="0.6" generator="libosmium/2.20.0">
  <way id="9140373" version="3" timestamp="2010-03-14T14:08:07Z" uid="9719" user="dvaey" changeset="4123615">
    <nd ref="67803425"/>
    <nd ref="67803669"/>
    <tag k="highway" v="residential"/>
  </way>
  <way id="9140373" version="4" timestamp="2010-03-14T14:09:50Z" uid="9719" user="dvaey" changeset="4123615">
    <nd ref="67803425"/>
    <nd ref="67803669"/>
    <tag k="highway" v="service"/>
  </way>
  <way id="9140511" version="4" timestamp="2010-07-09T02:59:19Z" uid="74617" user="JohnSmith" changeset="5170739">
    <nd ref="67804615"/>
    <nd ref="67803831"/>
    <nd ref="67804116"/>
    <nd ref="67803833"/>
    <nd ref="67804617"/>
    <nd ref="67804618"/>
    <tag k="highway" v="residential"/>
    <tag k="maxspeed" v="50"/>
    <tag k="maxspeed:source" v="default residential speed limit in Australia"/>
    <tag k="name" v="Gordon Crescent"/>
    <tag k="source" v="Yahoo"/>
    <tag k="source:name" v="photo"/>
  </way>
  <way id="9140525" version="5" timestamp="2010-10-15T06:06:38Z" uid="4467" user="Rosscoe" changeset="6046373">
    <nd ref="67804691"/>
    <nd ref="949451638"/>
    <nd ref="67804706"/>
    <tag k="highway" v="service"/>
  </way>
  <way id="9140529" version="6" timestamp="2010-07-09T03:01:55Z" uid="74617" user="JohnSmith" changeset="5170739">
    <nd ref="67804706"/>
    <nd ref="67804763"/>
    <tag k="highway" v="residential"/>
    <tag k="maxspeed" v="50"/>
    <tag k="maxspeed:source" v="default residential speed limit in Australia"/>
    <tag k="name" v="Percy Street"/>
  </way>
  <way id="9140530" version="4" timestamp="2010-07-09T02:53:48Z" uid="74617" user="JohnSmith" changeset="5170739">
    <nd ref="67804754"/>
    <nd ref="67804716"/>
    <nd ref="67804717"/>
    <nd ref="67804719"/>
    <nd ref="67804721"/>
    <tag k="highway" v="residential"/>
    <tag k="maxspeed" v="50"/>
    <tag k="maxspeed:source" v="default residential speed limit in Australia"/>
    <tag k="name" v="Harper Street"/>
    <tag k="source" v="Yahoo"/>
    <tag k="source:name" v="photo"/>
  </way>
  <way id="9140531" version="5" timestamp="2010-07-09T02:56:07Z" uid="74617" user="JohnSmith" changeset="5170739">
    <nd ref="67804723"/>
    <nd ref="67804724"/>
    <nd ref="67804725"/>
    <nd ref="67804726"/>
    <nd ref="67804727"/>
    <nd ref="67804728"/>
    <nd ref="67804730"/>
    <nd ref="67804721"/>
    <nd ref="67804779"/>
    <tag k="highway" v="residential"/>
    <tag k="maxspeed" v="50"/>
    <tag k="maxspeed:source" v="default residential speed limit in Australia"/>
    <tag k="name" v="Hopetoun Street"/>
    <tag k="source" v="yahoo"/>
    <tag k="source:name" v="survey"/>
  </way>
  <way id="9140588" version="2" timestamp="2010-03-27T12:59:05Z" uid="20587" user="balrog-kun" changeset="4245390">
    <nd ref="67805498"/>
    <nd ref="67805032"/>
    <tag k="bridge" v="yes"/>
    <tag k="created_by" v="JOSM"/>
    <tag k="highway" v="primary"/>
    <tag k="layer" v="1"/>
    <tag k="name" v="Avalon Boulevard"/>
  </way>
  <way id="9140591" version="4" timestamp="2010-03-27T12:59:06Z" uid="20587" user="balrog-kun" changeset="4245390">
    <nd ref="67805032"/>
    <nd ref="67805021"/>
    <nd ref="67805014"/>
    <nd ref="67805008"/>
    <nd ref="67805001"/>
    <nd ref="67804997"/>
    <nd ref="67804982"/>
    <nd ref="67804975"/>
    <nd ref="67804962"/>
    <tag k="created_by" v="Potlatch 0.10f"/>
    <tag k="highway" v="primary"/>
    <tag k="name" v="Avalon Boulevard"/>
  </way>
  <way id="9140655" version="9" timestamp="2010-07-09T02:56:29Z" uid="74617" user="JohnSmith" changeset="5170739">
    <nd ref="67755820"/>
    <nd ref="67808593"/>
    <nd ref="67808121"/>
    <nd ref="67809158"/>
    <tag k="highway" v="residential"/>
    <tag k="maxspeed" v="50"/>
    <tag k="maxspeed:source" v="default residential speed limit in Australia"/>
    <tag k="name" v="Deveney Street"/>
  </way>
  <way id="9140655" version="10" timestamp="2010-10-14T07:41:22Z" uid="4467" user="Rosscoe" changeset="6037516">
    <nd ref="67755820"/>
    <nd ref="947948629"/>
    <nd ref="67808593"/>
    <nd ref="67808121"/>
    <nd ref="67809158"/>
    <tag k="highway" v="residential"/>
    <tag k="maxspeed" v="50"/>
    <tag k="maxspeed:source" v="default residential speed limit in Australia"/>
    <tag k="name" v="Deveney Street"/>
  </way>
  <way id="9140655" version="11" timestamp="2010-10-15T06:06:31Z" uid="4467" user="Rosscoe" changeset="6046373">
    <nd ref="67755820"/>
    <nd ref="947948629"/>
    <nd ref="949451553"/>
    <nd ref="67808593"/>
    <nd ref="67808121"/>
    <nd ref="949451583"/>
    <nd ref="67809158"/>
    <tag k="highway" v="residential"/>
    <tag k="maxspeed" v="50"/>
    <tag k="maxspeed:source" v="default residential speed limit in Australia"/>
    <tag k="name" v="Deveney Street"/>
  </way>
  <way id="9140655" version="12" timestamp="2010-10-26T01:56:53Z" uid="4467" user="Rosscoe" changeset="6178718">
    <nd ref="67755820"/>
    <nd ref="947948629"/>
    <nd ref="949451553"/>
    <nd ref="67808593"/>
    <nd ref="67808121"/>
    <nd ref="949451583"/>
    <nd ref="67809158"/>
    <tag k="highway" v="residential"/>
    <tag k="maxspeed" v="50"/>
    <tag k="name" v="Deveney Street"/>
    <tag k="source:maxspeed" v="default residential speed limit in Australia"/>
  </way>
  <way id="9140799" version="4" timestamp="2008-09-30T21:04:11Z" uid="1066" user="pavel" changeset="721761">
    <nd ref="67804157"/>
    <nd ref="67804162"/>
    <nd ref="67804165"/>
    <nd ref="67804232"/>
    <nd ref="279018035"/>
    <nd ref="279018037"/>
    <nd ref="279018038"/>
    <nd ref="279018039"/>
    <tag k="created_by" v="Potlatch 0.9c"/>
    <tag k="highway" v="residential"/>
    <tag k="name" v="Türkova"/>
    <tag k="name:source" v="nameit/uir-adr"/>
  </way>
  <way id="9140800" version="3" timestamp="2008-09-30T21:06:05Z" uid="1066" user="pavel" changeset="721761">
    <nd ref="67794874"/>
    <nd ref="67809374"/>
    <nd ref="67809377"/>
    <tag k="highway" v="residential"/>
    <tag k="name" v="Blažimská"/>
    <tag k="name:source" v="nameit/uir-adr"/>
  </way>
</osm>
