<?xml version='1.0' encoding='UTF-8'?>
<osm version="0.6" generator="libosmium/2.20.0">
  <way id="92170600" version="1" timestamp="2010-12-29T00:57:13Z" uid="4467" user="Rosscoe" changeset="6794191">
    <nd ref="1070038098"/>
    <nd ref="1070038096"/>
    <tag k="highway" v="unclassified"/>
    <tag k="name" v="Murray Street"/>
    <tag k="source" v="survey"/>
  </way>
  <way id="92170601" version="1" timestamp="2010-12-29T00:57:13Z" uid="4467" user="Rosscoe" changeset="6794191">
    <nd ref="1070038090"/>
    <nd ref="1070038094"/>
    <nd ref="1070038104"/>
    <tag k="highway" v="unclassified"/>
    <tag k="name" v="Lovatt Street"/>
    <tag k="source" v="survey"/>
  </way>
  <way id="92170602" version="1" timestamp="2010-12-29T00:57:14Z" uid="4467" user="Rosscoe" changeset="6794191">
    <nd ref="1070038088"/>
    <nd ref="1070038096"/>
    <nd ref="1070038101"/>
    <tag k="highway" v="unclassified"/>
    <tag k="source" v="survey"/>
  </way>
  <way id="92170602" version="2" timestamp="2011-03-27T09:42:05Z" uid="4467" user="Rosscoe" changeset="7683895">
    <nd ref="1070038088"/>
    <nd ref="1070038096"/>
    <nd ref="1070038101"/>
    <tag k="highway" v="unclassified"/>
    <tag k="name" v="Karasec Way"/>
    <tag k="source" v="survey"/>
  </way>
  <way id="92170603" version="1" timestamp="2010-12-29T00:57:14Z" uid="4467" user="Rosscoe" changeset="6794191">
    <nd ref="1070038092"/>
    <nd ref="1070038103"/>
    <tag k="highway" v="unclassified"/>
    <tag k="name" v="Cook Close"/>
    <tag k="source" v="survey"/>
  </way>
</osm>
