<?xml version='1.0' encoding='UTF-8'?>
<osm version="0.6" generator="libosmium/2.20.0">
  <way id="9230207" version="2" timestamp="2008-07-08T23:34:21Z" uid="6975" user="ulfl" changeset="443284">
    <nd ref="69031703"/>
    <nd ref="69031765"/>
    <nd ref="69031713"/>
    <nd ref="69031817"/>
    <tag k="access" v="unknown"/>
    <tag k="highway" v="residential"/>
    <tag k="name" v="Kurt-Carl-Doberer-StraÃŸe"/>
  </way>
  <way id="9230345" version="3" timestamp="2008-08-06T14:25:46Z" uid="43863" user="Rundling" changeset="97652">
    <nd ref="285068950"/>
    <nd ref="69034081"/>
    <nd ref="69034084"/>
    <nd ref="69034088"/>
    <nd ref="69033639"/>
    <tag k="created_by" v="Potlatch 0.10b"/>
    <tag k="highway" v="primary"/>
    <tag k="maxspeed" v="50"/>
    <tag k="ref" v="B248"/>
  </way>
  <way id="9230345" version="4" timestamp="2008-08-06T14:26:52Z" uid="43863" user="Rundling" changeset="97652"/>
  <way id="9230728" version="6" timestamp="2010-07-09T18:19:09Z" uid="74617" user="JohnSmith" changeset="5175333">
    <nd ref="69037859"/>
    <nd ref="69037845"/>
    <nd ref="69037876"/>
    <nd ref="69037898"/>
    <nd ref="422510293"/>
    <tag k="highway" v="residential"/>
    <tag k="maxspeed" v="50"/>
    <tag k="maxspeed:source" v="default residential speed limit in Australia"/>
    <tag k="name" v="Somerset Street"/>
  </way>
  <way id="9230730" version="7" timestamp="2010-05-31T02:17:40Z" uid="4467" user="Rosscoe" changeset="4859110">
    <nd ref="31204158"/>
    <nd ref="31204159"/>
    <nd ref="31204160"/>
    <nd ref="31204163"/>
    <nd ref="563691637"/>
    <nd ref="31204164"/>
    <nd ref="31204167"/>
    <nd ref="563691631"/>
    <nd ref="563691632"/>
    <nd ref="31280186"/>
    <nd ref="563693102"/>
    <nd ref="31204168"/>
    <nd ref="31204170"/>
    <nd ref="31204171"/>
    <nd ref="31204172"/>
    <nd ref="31204173"/>
    <nd ref="31204174"/>
    <nd ref="760153702"/>
    <nd ref="31204185"/>
    <nd ref="31204186"/>
    <tag k="highway" v="trunk"/>
    <tag k="name" v="Riverside Drive"/>
    <tag k="oneway" v="yes"/>
    <tag k="ref" v="S5"/>
  </way>
  <way id="9230730" version="9" timestamp="2011-02-04T14:02:44Z" uid="4467" user="Rosscoe" changeset="7183514">
    <nd ref="31204158"/>
    <nd ref="31204159"/>
    <nd ref="31204160"/>
    <nd ref="31204163"/>
    <nd ref="563691637"/>
    <nd ref="31204164"/>
    <nd ref="31204167"/>
    <nd ref="563691631"/>
    <nd ref="563691632"/>
    <nd ref="949151720"/>
    <nd ref="31280186"/>
    <nd ref="563693102"/>
    <nd ref="31204168"/>
    <nd ref="31204170"/>
    <nd ref="31204171"/>
    <nd ref="949151663"/>
    <nd ref="31204172"/>
    <nd ref="31204174"/>
    <nd ref="949151667"/>
    <nd ref="949151640"/>
    <nd ref="760153702"/>
    <nd ref="31204185"/>
    <nd ref="31204186"/>
    <tag k="highway" v="trunk"/>
    <tag k="name" v="Riverside Drive"/>
    <tag k="oneway" v="yes"/>
    <tag k="ref" v="S5"/>
  </way>
  <way id="9230739" version="2" timestamp="2010-07-09T18:17:21Z" uid="74617" user="JohnSmith" changeset="5175333">
    <nd ref="69037970"/>
    <nd ref="69038090"/>
    <nd ref="69038112"/>
    <nd ref="59750336"/>
    <nd ref="69038129"/>
    <nd ref="69038149"/>
    <nd ref="69038163"/>
    <nd ref="69038170"/>
    <nd ref="69038181"/>
    <nd ref="69037876"/>
    <tag k="highway" v="residential"/>
    <tag k="maxspeed" v="50"/>
    <tag k="maxspeed:source" v="default residential speed limit in Australia"/>
    <tag k="name" v="Carnarvon Street"/>
  </way>
  <way id="9230743" version="3" timestamp="2010-07-09T18:16:11Z" uid="74617" user="JohnSmith" changeset="5175333">
    <nd ref="69038193"/>
    <nd ref="69037833"/>
    <nd ref="69038163"/>
    <nd ref="69038214"/>
    <nd ref="69038243"/>
    <nd ref="569953698"/>
    <nd ref="69038264"/>
    <nd ref="569954027"/>
    <nd ref="69038280"/>
    <tag k="highway" v="residential"/>
    <tag k="maxspeed" v="50"/>
    <tag k="maxspeed:source" v="default residential speed limit in Australia"/>
    <tag k="name" v="Dane Street"/>
  </way>
  <way id="9230744" version="2" timestamp="2010-07-09T18:14:17Z" uid="74617" user="JohnSmith" changeset="5175333">
    <nd ref="69038297"/>
    <nd ref="69038305"/>
    <nd ref="69038319"/>
    <nd ref="69038344"/>
    <nd ref="69038373"/>
    <nd ref="69038404"/>
    <nd ref="69037859"/>
    <nd ref="69038428"/>
    <nd ref="69038462"/>
    <nd ref="69038487"/>
    <nd ref="69038193"/>
    <nd ref="69038501"/>
    <tag k="highway" v="residential"/>
    <tag k="maxspeed" v="50"/>
    <tag k="maxspeed:source" v="default residential speed limit in Australia"/>
    <tag k="name" v="Bank Street"/>
  </way>
  <way id="9230745" version="4" timestamp="2010-07-09T18:16:31Z" uid="74617" user="JohnSmith" changeset="5175333">
    <nd ref="69038001"/>
    <nd ref="59750337"/>
    <nd ref="69038243"/>
    <nd ref="69038522"/>
    <nd ref="69038540"/>
    <tag k="highway" v="residential"/>
    <tag k="maxspeed" v="50"/>
    <tag k="maxspeed:source" v="default residential speed limit in Australia"/>
    <tag k="name" v="Swansea Street"/>
  </way>
  <way id="9230749" version="3" timestamp="2010-07-09T18:14:51Z" uid="74617" user="JohnSmith" changeset="5175333">
    <nd ref="69038058"/>
    <nd ref="59750338"/>
    <nd ref="569953850"/>
    <nd ref="569953925"/>
    <nd ref="69038264"/>
    <nd ref="69038615"/>
    <nd ref="69038626"/>
    <nd ref="69037929"/>
    <tag k="highway" v="residential"/>
    <tag k="maxspeed" v="50"/>
    <tag k="maxspeed:source" v="default residential speed limit in Australia"/>
    <tag k="name" v="Hubert Street"/>
  </way>
  <way id="9230753" version="2" timestamp="2010-07-09T18:20:01Z" uid="74617" user="JohnSmith" changeset="5175333">
    <nd ref="69038642"/>
    <nd ref="69038657"/>
    <nd ref="69038679"/>
    <nd ref="69038686"/>
    <nd ref="69038700"/>
    <tag k="highway" v="residential"/>
    <tag k="maxspeed" v="50"/>
    <tag k="maxspeed:source" v="default residential speed limit in Australia"/>
    <tag k="name" v="Planet Street"/>
  </way>
  <way id="9230756" version="3" timestamp="2010-07-09T18:17:38Z" uid="74617" user="JohnSmith" changeset="5175333">
    <nd ref="69038727"/>
    <nd ref="69038737"/>
    <nd ref="69038744"/>
    <nd ref="69038766"/>
    <nd ref="69038679"/>
    <nd ref="69038789"/>
    <nd ref="69038805"/>
    <nd ref="69038840"/>
    <nd ref="69038874"/>
    <tag k="highway" v="residential"/>
    <tag k="maxspeed" v="50"/>
    <tag k="maxspeed:source" v="default residential speed limit in Australia"/>
    <tag k="name" v="Lion Street"/>
  </way>
  <way id="9230760" version="7" timestamp="2010-07-09T18:20:33Z" uid="74617" user="JohnSmith" changeset="5175333">
    <nd ref="267649132"/>
    <nd ref="267649131"/>
    <tag k="highway" v="residential"/>
    <tag k="maxspeed" v="50"/>
    <tag k="maxspeed:source" v="default residential speed limit in Australia"/>
    <tag k="name" v="O&apos;Dea Street"/>
  </way>
  <way id="9230771" version="2" timestamp="2010-07-09T18:18:47Z" uid="74617" user="JohnSmith" changeset="5175333">
    <nd ref="69039008"/>
    <nd ref="69039307"/>
    <tag k="highway" v="residential"/>
    <tag k="maxspeed" v="50"/>
    <tag k="maxspeed:source" v="default residential speed limit in Australia"/>
    <tag k="name" v="Wakefield Street"/>
  </way>
  <way id="9230772" version="2" timestamp="2010-07-09T18:20:09Z" uid="74617" user="JohnSmith" changeset="5175333">
    <nd ref="69039029"/>
    <nd ref="69039320"/>
    <tag k="highway" v="residential"/>
    <tag k="maxspeed" v="50"/>
    <tag k="maxspeed:source" v="default residential speed limit in Australia"/>
    <tag k="name" v="Venus Street"/>
  </way>
  <way id="9230777" version="2" timestamp="2010-07-09T18:17:59Z" uid="74617" user="JohnSmith" changeset="5175333">
    <nd ref="69038737"/>
    <nd ref="69039336"/>
    <nd ref="69039345"/>
    <nd ref="69039353"/>
    <tag k="highway" v="residential"/>
    <tag k="maxspeed" v="50"/>
    <tag k="maxspeed:source" v="default residential speed limit in Australia"/>
    <tag k="name" v="Jupiter Street"/>
  </way>
  <way id="9230783" version="2" timestamp="2010-04-19T12:06:43Z" uid="4467" user="Rosscoe" changeset="4467241">
    <nd ref="69039161"/>
    <nd ref="69039364"/>
    <nd ref="69039336"/>
    <nd ref="69039374"/>
    <nd ref="701825060"/>
    <tag k="highway" v="residential"/>
    <tag k="name" v="Mercury Street"/>
  </way>
  <way id="9230783" version="3" timestamp="2010-07-09T18:19:48Z" uid="74617" user="JohnSmith" changeset="5175333">
    <nd ref="69039161"/>
    <nd ref="69039364"/>
    <nd ref="69039336"/>
    <nd ref="69039374"/>
    <nd ref="701825060"/>
    <tag k="highway" v="residential"/>
    <tag k="maxspeed" v="50"/>
    <tag k="maxspeed:source" v="default residential speed limit in Australia"/>
    <tag k="name" v="Mercury Street"/>
  </way>
  <way id="9230789" version="2" timestamp="2010-07-09T18:13:23Z" uid="74617" user="JohnSmith" changeset="5175333">
    <nd ref="69039588"/>
    <nd ref="69039599"/>
    <nd ref="69038789"/>
    <nd ref="69039409"/>
    <nd ref="69039611"/>
    <nd ref="69039621"/>
    <tag k="highway" v="residential"/>
    <tag k="maxspeed" v="50"/>
    <tag k="maxspeed:source" v="default residential speed limit in Australia"/>
    <tag k="name" v="Mars Street"/>
  </way>
</osm>
