<?xml version='1.0' encoding='UTF-8'?>
<osm version="0.6" generator="libosmium/2.20.0">
  <way id="9284054" version="2" timestamp="2010-07-08T01:58:59Z" uid="74617" user="JohnSmith" changeset="5162525">
    <nd ref="69758603"/>
    <nd ref="69747259"/>
    <tag k="highway" v="residential"/>
    <tag k="maxspeed" v="50"/>
    <tag k="maxspeed:source" v="default residential speed limit in Australia"/>
    <tag k="name" v="Scarfe Street"/>
    <tag k="source" v="survey"/>
  </way>
  <way id="9284070" version="5" timestamp="2009-12-05T22:46:34Z" uid="7617" user="Franc" changeset="3299164">
    <nd ref="69758721"/>
    <nd ref="582214537"/>
    <nd ref="582214540"/>
    <nd ref="69737358"/>
    <nd ref="36535827"/>
    <nd ref="36425970"/>
    <tag k="highway" v="tertiary"/>
    <tag k="name" v="Thorney Road"/>
  </way>
  <way id="9284078" version="3" timestamp="2008-11-14T23:58:06Z" uid="7617" user="Franc" changeset="749573">
    <nd ref="69758824"/>
    <nd ref="312086143"/>
    <nd ref="312086142"/>
    <nd ref="312086197"/>
    <nd ref="69758790"/>
    <nd ref="69758721"/>
    <nd ref="69758759"/>
    <nd ref="69758640"/>
    <tag k="created_by" v="Potlatch alpha"/>
    <tag k="highway" v="tertiary"/>
    <tag k="name" v="Maud Street"/>
  </way>
  <way id="9284078" version="4" timestamp="2008-11-15T06:43:39Z" uid="7617" user="Franc" changeset="749870">
    <nd ref="69758824"/>
    <nd ref="312086143"/>
    <nd ref="312086142"/>
    <nd ref="312086197"/>
    <nd ref="312111261"/>
    <nd ref="69758790"/>
    <nd ref="69758721"/>
    <nd ref="69758759"/>
    <nd ref="69758640"/>
    <tag k="created_by" v="Potlatch alpha"/>
    <tag k="highway" v="tertiary"/>
    <tag k="name" v="Maud Street"/>
  </way>
  <way id="9284078" version="5" timestamp="2009-12-05T22:46:35Z" uid="7617" user="Franc" changeset="3299164">
    <nd ref="69758824"/>
    <nd ref="312086142"/>
    <nd ref="312086197"/>
    <nd ref="582214611"/>
    <nd ref="312111261"/>
    <nd ref="69758790"/>
    <nd ref="69758721"/>
    <nd ref="69758759"/>
    <nd ref="69758640"/>
    <tag k="highway" v="tertiary"/>
    <tag k="name" v="Maud Street"/>
  </way>
  <way id="9284167" version="11" timestamp="2009-07-07T15:30:08Z" uid="58091" user="Andreas M" changeset="1763420">
    <nd ref="69759896"/>
    <nd ref="69759897"/>
    <tag k="bridge" v="yes"/>
    <tag k="highway" v="secondary"/>
    <tag k="layer" v="1"/>
    <tag k="maxspeed" v="50"/>
    <tag k="name" v="Aspernbrücke"/>
  </way>
  <way id="9284180" version="7" timestamp="2009-07-07T15:30:08Z" uid="58091" user="Andreas M" changeset="1763420">
    <nd ref="69759897"/>
    <nd ref="302853465"/>
    <nd ref="685048"/>
    <tag k="highway" v="secondary"/>
    <tag k="name" v="Aspernbrücke"/>
  </way>
  <way id="9284344" version="8" timestamp="2010-07-09T03:14:14Z" uid="74617" user="JohnSmith" changeset="5170739">
    <nd ref="69789927"/>
    <nd ref="69791882"/>
    <nd ref="287799625"/>
    <nd ref="69793034"/>
    <nd ref="69793035"/>
    <tag k="highway" v="residential"/>
    <tag k="maxspeed" v="50"/>
    <tag k="maxspeed:source" v="default residential speed limit in Australia"/>
    <tag k="name" v="Marks Street"/>
    <tag k="source" v="yahoo"/>
    <tag k="source:name" v="survey"/>
  </way>
</osm>
