<?xml version='1.0' encoding='UTF-8'?>
<osm version="0.6" generator="libosmium/2.20.0">
  <way id="93014442" version="1" timestamp="2011-01-02T06:50:16Z" uid="19626" user="Swamp" changeset="6835355">
    <nd ref="1078235017"/>
    <nd ref="1078235000"/>
    <nd ref="1078235007"/>
    <nd ref="1078235018"/>
    <nd ref="1078235003"/>
    <nd ref="1078235001"/>
    <nd ref="1078234991"/>
    <tag k="highway" v="residential"/>
    <tag k="maxspeed" v="50"/>
    <tag k="name" v="Murlong Street"/>
    <tag k="source" v="survey"/>
  </way>
  <way id="93014442" version="2" timestamp="2011-01-02T07:51:42Z" uid="19626" user="Swamp" changeset="6835635">
    <nd ref="1078235017"/>
    <nd ref="1078337369"/>
    <nd ref="1078235000"/>
    <nd ref="1078235007"/>
    <nd ref="1078235018"/>
    <nd ref="1078235003"/>
    <nd ref="1078235001"/>
    <nd ref="1078234991"/>
    <tag k="highway" v="residential"/>
    <tag k="maxspeed" v="50"/>
    <tag k="name" v="Murlong Street"/>
    <tag k="source" v="survey"/>
  </way>
  <way id="93014442" version="3" timestamp="2011-01-02T08:31:50Z" uid="19626" user="Swamp" changeset="6835880">
    <nd ref="1078235017"/>
    <nd ref="1078337369"/>
    <nd ref="1078235000"/>
    <nd ref="1078235007"/>
    <nd ref="1078235018"/>
    <nd ref="1078235003"/>
    <nd ref="1078235015"/>
    <nd ref="1078235001"/>
    <nd ref="1078234991"/>
    <tag k="highway" v="residential"/>
    <tag k="maxspeed" v="50"/>
    <tag k="name" v="Murlong Street"/>
    <tag k="source" v="survey"/>
  </way>
  <way id="93014442" version="4" timestamp="2011-01-02T09:32:05Z" uid="19626" user="Swamp" changeset="6836266">
    <nd ref="1078235017"/>
    <nd ref="1078441078"/>
    <nd ref="1078441061"/>
    <nd ref="1078441080"/>
    <nd ref="1078441056"/>
    <nd ref="1078337369"/>
    <nd ref="1078235000"/>
    <nd ref="1078235007"/>
    <nd ref="1078235018"/>
    <nd ref="1078235003"/>
    <nd ref="1078235015"/>
    <nd ref="1078235001"/>
    <nd ref="1078234991"/>
    <tag k="highway" v="residential"/>
    <tag k="maxspeed" v="50"/>
    <tag k="name" v="Murlong Street"/>
    <tag k="source" v="survey"/>
  </way>
  <way id="93014442" version="5" timestamp="2011-01-02T10:46:09Z" uid="19626" user="Swamp" changeset="6836929">
    <nd ref="1078235017"/>
    <nd ref="1078441078"/>
    <nd ref="1078441061"/>
    <nd ref="1078441080"/>
    <nd ref="1078441056"/>
    <nd ref="1078337369"/>
    <nd ref="1078235000"/>
    <nd ref="1078235007"/>
    <nd ref="1078543181"/>
    <nd ref="1078235018"/>
    <nd ref="1078235003"/>
    <nd ref="1078235015"/>
    <nd ref="1078235001"/>
    <nd ref="1078234991"/>
    <tag k="highway" v="residential"/>
    <tag k="maxspeed" v="50"/>
    <tag k="name" v="Murlong Street"/>
    <tag k="source" v="survey"/>
  </way>
  <way id="93014443" version="1" timestamp="2011-01-02T06:50:16Z" uid="19626" user="Swamp" changeset="6835355">
    <nd ref="1078235008"/>
    <nd ref="1078234998"/>
    <tag k="highway" v="residential"/>
    <tag k="name" v="Douglas Avenue"/>
  </way>
  <way id="93014443" version="2" timestamp="2011-01-02T07:51:40Z" uid="19626" user="Swamp" changeset="6835635">
    <nd ref="1078235008"/>
    <nd ref="1078337392"/>
    <nd ref="1078337374"/>
    <nd ref="1078337365"/>
    <nd ref="1078234998"/>
    <tag k="highway" v="residential"/>
    <tag k="name" v="Douglas Avenue"/>
  </way>
  <way id="93014444" version="1" timestamp="2011-01-02T06:50:16Z" uid="19626" user="Swamp" changeset="6835355">
    <nd ref="1078234996"/>
    <nd ref="1078235003"/>
    <tag k="highway" v="residential"/>
    <tag k="maxspeed" v="50"/>
    <tag k="name" v="McAdam Court"/>
    <tag k="source" v="survey"/>
  </way>
  <way id="93014445" version="1" timestamp="2011-01-02T06:50:16Z" uid="19626" user="Swamp" changeset="6835355">
    <nd ref="1078234978"/>
    <nd ref="1078234999"/>
    <nd ref="1078235008"/>
    <nd ref="1078235015"/>
  </way>
  <way id="93014446" version="1" timestamp="2011-01-02T06:50:16Z" uid="19626" user="Swamp" changeset="6835355">
    <nd ref="1078234982"/>
    <nd ref="1078235010"/>
    <nd ref="1078235013"/>
    <tag k="highway" v="residential"/>
    <tag k="maxspeed" v="50"/>
    <tag k="name" v="Murlong Street"/>
    <tag k="source" v="survey"/>
  </way>
  <way id="93014447" version="1" timestamp="2011-01-02T06:50:17Z" uid="19626" user="Swamp" changeset="6835355">
    <nd ref="1078234980"/>
    <nd ref="1078234995"/>
    <nd ref="1078234999"/>
    <tag k="highway" v="residential"/>
    <tag k="maxspeed" v="50"/>
    <tag k="name" v="Holloway Grove"/>
    <tag k="source" v="survey"/>
  </way>
  <way id="93014448" version="1" timestamp="2011-01-02T06:50:17Z" uid="19626" user="Swamp" changeset="6835355">
    <nd ref="1078235014"/>
    <nd ref="1078234977"/>
    <tag k="highway" v="residential"/>
    <tag k="name" v="Gerrand Street"/>
  </way>
  <way id="93014449" version="1" timestamp="2011-01-02T06:50:17Z" uid="19626" user="Swamp" changeset="6835355">
    <nd ref="1078235002"/>
    <nd ref="1078234983"/>
    <nd ref="1078234992"/>
    <nd ref="1078235016"/>
    <nd ref="1078235019"/>
    <nd ref="1078235005"/>
    <nd ref="1078235011"/>
    <nd ref="1078234994"/>
    <nd ref="1078234997"/>
    <tag k="highway" v="residential"/>
    <tag k="maxspeed" v="50"/>
    <tag k="name" v="Mellor Grove"/>
    <tag k="source" v="survey"/>
  </way>
  <way id="93014450" version="1" timestamp="2011-01-02T06:50:17Z" uid="19626" user="Swamp" changeset="6835355">
    <nd ref="1078235006"/>
    <nd ref="1078234980"/>
    <nd ref="1078234997"/>
    <nd ref="1078235002"/>
    <nd ref="1078235014"/>
    <nd ref="1078234982"/>
    <nd ref="1078234991"/>
    <nd ref="1078235012"/>
    <tag k="highway" v="residential"/>
    <tag k="maxspeed" v="50"/>
    <tag k="name" v="Chapman Street"/>
    <tag k="source" v="survey"/>
  </way>
  <way id="93014450" version="2" timestamp="2011-01-02T10:46:08Z" uid="19626" user="Swamp" changeset="6836929">
    <nd ref="1078235006"/>
    <nd ref="1078234980"/>
    <nd ref="1078234997"/>
    <nd ref="1078235002"/>
    <nd ref="1078235014"/>
    <nd ref="1078234982"/>
    <nd ref="1078234991"/>
    <nd ref="1078543183"/>
    <nd ref="1078235012"/>
    <tag k="highway" v="residential"/>
    <tag k="maxspeed" v="50"/>
    <tag k="name" v="Chapman Street"/>
    <tag k="source" v="survey"/>
  </way>
</osm>
