<?xml version='1.0' encoding='UTF-8'?>
<osm version="0.6" generator="libosmium/2.20.0">
  <way id="93018022" version="3" timestamp="2011-06-11T19:47:26Z" uid="8619" user="cetest" changeset="8409297">
    <nd ref="1075651429"/>
    <nd ref="1078348148"/>
    <nd ref="1078348232"/>
    <nd ref="1320693746"/>
    <nd ref="1078348234"/>
    <nd ref="1078348240"/>
    <nd ref="1320693761"/>
    <nd ref="1078348242"/>
    <tag k="highway" v="cycleway"/>
    <tag k="name" v="Molendijk"/>
  </way>
  <way id="93018022" version="4" timestamp="2011-06-12T09:50:51Z" uid="8619" user="cetest" changeset="8413432">
    <nd ref="1075651429"/>
    <nd ref="1078348148"/>
    <nd ref="1078348232"/>
    <tag k="highway" v="cycleway"/>
    <tag k="name" v="Molendijk"/>
  </way>
  <way id="93018026" version="3" timestamp="2011-06-11T19:47:14Z" uid="8619" user="cetest" changeset="8409297">
    <nd ref="1075651429"/>
    <nd ref="1075651445"/>
    <nd ref="1075651449"/>
    <nd ref="1075651454"/>
    <nd ref="1075651456"/>
    <nd ref="1075651459"/>
    <nd ref="1075659453"/>
    <nd ref="1320693826"/>
    <nd ref="44197854"/>
    <nd ref="44197307"/>
    <tag k="AND:importance_level" v="5"/>
    <tag k="AND_nosr_r" v="15035009;15035014"/>
    <tag k="foot" v="yes"/>
    <tag k="hgv" v="no"/>
    <tag k="highway" v="cycleway"/>
    <tag k="motorcar" v="no"/>
    <tag k="motorcycle" v="no"/>
    <tag k="name" v="Molendijk"/>
  </way>
</osm>
