<?xml version='1.0' encoding='UTF-8'?>
<osm version="0.6" generator="libosmium/2.20.0">
  <way id="9313591" version="2" timestamp="2010-07-09T18:20:27Z" uid="74617" user="JohnSmith" changeset="5175333">
    <nd ref="70188857"/>
    <nd ref="68870435"/>
    <nd ref="25609036"/>
    <nd ref="25609035"/>
    <nd ref="25609034"/>
    <tag k="highway" v="residential"/>
    <tag k="maxspeed" v="50"/>
    <tag k="maxspeed:source" v="default residential speed limit in Australia"/>
    <tag k="name" v="Rose Avenue"/>
  </way>
  <way id="9313595" version="2" timestamp="2010-07-09T18:16:58Z" uid="74617" user="JohnSmith" changeset="5175333">
    <nd ref="70188857"/>
    <nd ref="70188864"/>
    <tag k="highway" v="residential"/>
    <tag k="maxspeed" v="50"/>
    <tag k="maxspeed:source" v="default residential speed limit in Australia"/>
    <tag k="name" v="Garden Street"/>
  </way>
  <way id="9313599" version="3" timestamp="2010-04-19T12:06:41Z" uid="4467" user="Rosscoe" changeset="4467241">
    <nd ref="25609072"/>
    <nd ref="25609069"/>
    <nd ref="25609070"/>
    <nd ref="25609021"/>
    <nd ref="25609022"/>
    <nd ref="25609023"/>
    <nd ref="25609024"/>
    <nd ref="25609027"/>
    <nd ref="70188873"/>
    <nd ref="70188881"/>
    <nd ref="70188891"/>
    <nd ref="70188906"/>
    <nd ref="701825025"/>
    <tag k="highway" v="secondary"/>
    <tag k="name" v="Angelo Street"/>
  </way>
  <way id="9313603" version="3" timestamp="2010-07-09T18:20:56Z" uid="74617" user="JohnSmith" changeset="5175333">
    <nd ref="70188949"/>
    <nd ref="70188975"/>
    <nd ref="70189075"/>
    <nd ref="70189090"/>
    <nd ref="70189116"/>
    <tag k="highway" v="residential"/>
    <tag k="maxspeed" v="50"/>
    <tag k="maxspeed:source" v="default residential speed limit in Australia"/>
    <tag k="name" v="Lawler Street"/>
  </way>
  <way id="9313616" version="2" timestamp="2010-07-09T18:19:31Z" uid="74617" user="JohnSmith" changeset="5175333">
    <nd ref="70189180"/>
    <nd ref="25608989"/>
    <nd ref="25608990"/>
    <nd ref="33116605"/>
    <tag k="highway" v="residential"/>
    <tag k="maxspeed" v="50"/>
    <tag k="maxspeed:source" v="default residential speed limit in Australia"/>
    <tag k="name" v="Hazel Street"/>
  </way>
  <way id="9313619" version="3" timestamp="2010-07-09T18:17:08Z" uid="74617" user="JohnSmith" changeset="5175333">
    <nd ref="25608830"/>
    <nd ref="25608831"/>
    <nd ref="25608832"/>
    <nd ref="25608986"/>
    <nd ref="70189180"/>
    <nd ref="367722461"/>
    <tag k="highway" v="residential"/>
    <tag k="maxspeed" v="50"/>
    <tag k="maxspeed:source" v="default residential speed limit in Australia"/>
    <tag k="name" v="Eric Street"/>
  </way>
</osm>
