<?xml version='1.0' encoding='UTF-8'?>
<osm version="0.6" generator="libosmium/2.20.0">
  <way id="93216609" version="1" timestamp="2011-01-03T15:24:12Z" uid="4467" user="Rosscoe" changeset="6850871">
    <nd ref="1036697594"/>
    <nd ref="1080584656"/>
    <nd ref="1080584660"/>
    <nd ref="1080584651"/>
    <nd ref="1036697577"/>
    <tag k="highway" v="tertiary"/>
    <tag k="name" v="Leakes Road"/>
    <tag k="oneway" v="yes"/>
  </way>
  <way id="93216610" version="1" timestamp="2011-01-03T15:24:13Z" uid="4467" user="Rosscoe" changeset="6850871">
    <nd ref="1036697577"/>
    <nd ref="1036697653"/>
    <nd ref="1036697593"/>
    <nd ref="1036697639"/>
    <nd ref="1036697612"/>
    <nd ref="1036697594"/>
    <tag k="highway" v="tertiary"/>
    <tag k="name" v="Leakes Road"/>
    <tag k="oneway" v="yes"/>
  </way>
  <way id="93216611" version="1" timestamp="2011-01-03T15:24:13Z" uid="4467" user="Rosscoe" changeset="6850871">
    <nd ref="1036697594"/>
    <nd ref="281940304"/>
    <nd ref="687505080"/>
    <tag k="highway" v="tertiary"/>
    <tag k="name" v="Leakes Road"/>
  </way>
  <way id="93216877" version="2" timestamp="2011-03-12T23:48:01Z" uid="30632" user="antblant" changeset="7539687">
    <nd ref="1080590101"/>
    <nd ref="1080588076"/>
    <nd ref="1080590103"/>
    <nd ref="1080588082"/>
    <nd ref="1080590101"/>
    <tag k="addr:city" v="Gdańsk"/>
    <tag k="addr:country" v="PL"/>
    <tag k="addr:housenumber" v="8"/>
    <tag k="addr:street" v="Saperów"/>
    <tag k="building" v="yes"/>
    <tag k="source" v="Bing"/>
  </way>
  <way id="93216880" version="2" timestamp="2011-03-12T23:48:09Z" uid="30632" user="antblant" changeset="7539687">
    <nd ref="1080588109"/>
    <nd ref="1080590112"/>
    <nd ref="1080588076"/>
    <nd ref="1080590101"/>
    <nd ref="1080588109"/>
    <tag k="addr:city" v="Gdańsk"/>
    <tag k="addr:country" v="PL"/>
    <tag k="addr:housenumber" v="7"/>
    <tag k="addr:street" v="Saperów"/>
    <tag k="building" v="yes"/>
    <tag k="source" v="Bing"/>
  </way>
  <way id="93216889" version="2" timestamp="2011-03-12T23:48:13Z" uid="30632" user="antblant" changeset="7539687">
    <nd ref="1080590116"/>
    <nd ref="1080590118"/>
    <nd ref="1080590122"/>
    <nd ref="1080588157"/>
    <nd ref="1080590126"/>
    <nd ref="1080588177"/>
    <nd ref="1080590116"/>
    <tag k="addr:city" v="Gdańsk"/>
    <tag k="addr:country" v="PL"/>
    <tag k="addr:housenumber" v="6"/>
    <tag k="addr:street" v="Saperów"/>
    <tag k="building" v="yes"/>
    <tag k="source" v="Bing"/>
  </way>
  <way id="93216893" version="2" timestamp="2011-03-12T23:48:19Z" uid="30632" user="antblant" changeset="7539687">
    <nd ref="1080590134"/>
    <nd ref="1080590136"/>
    <nd ref="1080590137"/>
    <nd ref="1080588212"/>
    <nd ref="1080590134"/>
    <tag k="addr:city" v="Gdańsk"/>
    <tag k="addr:country" v="PL"/>
    <tag k="addr:housenumber" v="5"/>
    <tag k="addr:street" v="Saperów"/>
    <tag k="building" v="yes"/>
    <tag k="source" v="Bing"/>
  </way>
  <way id="93216896" version="2" timestamp="2011-03-12T23:48:00Z" uid="30632" user="antblant" changeset="7539687">
    <nd ref="1080590146"/>
    <nd ref="1080590148"/>
    <nd ref="1080590149"/>
    <nd ref="1080588250"/>
    <nd ref="1080590146"/>
    <tag k="addr:city" v="Gdańsk"/>
    <tag k="addr:country" v="PL"/>
    <tag k="addr:housenumber" v="4"/>
    <tag k="addr:street" v="Saperów"/>
    <tag k="building" v="yes"/>
    <tag k="source" v="Bing"/>
  </way>
  <way id="93216904" version="2" timestamp="2011-03-12T23:48:14Z" uid="30632" user="antblant" changeset="7539687">
    <nd ref="1080590158"/>
    <nd ref="1080590159"/>
    <nd ref="1080590160"/>
    <nd ref="1080590161"/>
    <nd ref="1080590158"/>
    <tag k="addr:city" v="Gdańsk"/>
    <tag k="addr:country" v="PL"/>
    <tag k="addr:housenumber" v="2"/>
    <tag k="addr:street" v="Saperów"/>
    <tag k="building" v="yes"/>
    <tag k="source" v="Bing"/>
  </way>
  <way id="93216909" version="2" timestamp="2011-03-12T23:48:12Z" uid="30632" user="antblant" changeset="7539687">
    <nd ref="1080590170"/>
    <nd ref="1080590171"/>
    <nd ref="1080590160"/>
    <nd ref="1080590161"/>
    <nd ref="1080590170"/>
    <tag k="addr:city" v="Gdańsk"/>
    <tag k="addr:country" v="PL"/>
    <tag k="addr:housenumber" v="3"/>
    <tag k="addr:street" v="Saperów"/>
    <tag k="building" v="yes"/>
    <tag k="source" v="Bing"/>
  </way>
  <way id="93216917" version="2" timestamp="2011-03-12T23:48:16Z" uid="30632" user="antblant" changeset="7539687">
    <nd ref="1043554709"/>
    <nd ref="1080588331"/>
    <nd ref="1080590181"/>
    <nd ref="1043554790"/>
    <nd ref="1043554709"/>
    <tag k="addr:city" v="Gdańsk"/>
    <tag k="addr:country" v="PL"/>
    <tag k="addr:housenumber" v="18"/>
    <tag k="addr:street" v="Saperów"/>
    <tag k="building" v="yes"/>
    <tag k="source" v="Bing"/>
  </way>
  <way id="93216924" version="2" timestamp="2011-03-12T23:47:52Z" uid="30632" user="antblant" changeset="7539687">
    <nd ref="1080588363"/>
    <nd ref="1080590193"/>
    <nd ref="1043554753"/>
    <nd ref="1043554673"/>
    <nd ref="1080588363"/>
    <tag k="addr:city" v="Gdańsk"/>
    <tag k="addr:country" v="PL"/>
    <tag k="addr:housenumber" v="17"/>
    <tag k="addr:street" v="Saperów"/>
    <tag k="building" v="yes"/>
    <tag k="source" v="Bing"/>
  </way>
  <way id="93216930" version="2" timestamp="2011-03-12T23:47:49Z" uid="30632" user="antblant" changeset="7539687">
    <nd ref="1080588387"/>
    <nd ref="1080590205"/>
    <nd ref="1043554493"/>
    <nd ref="1043554752"/>
    <nd ref="1080588387"/>
    <tag k="addr:city" v="Gdańsk"/>
    <tag k="addr:country" v="PL"/>
    <tag k="addr:housenumber" v="14"/>
    <tag k="addr:street" v="Saperów"/>
    <tag k="building" v="yes"/>
    <tag k="source" v="Bing"/>
  </way>
  <way id="93216935" version="2" timestamp="2011-03-12T23:47:46Z" uid="30632" user="antblant" changeset="7539687">
    <nd ref="1080590213"/>
    <nd ref="1080588423"/>
    <nd ref="1040423358"/>
    <nd ref="1040423220"/>
    <nd ref="1080590213"/>
    <tag k="addr:city" v="Gdańsk"/>
    <tag k="addr:country" v="PL"/>
    <tag k="addr:housenumber" v="9A"/>
    <tag k="addr:street" v="Saperów"/>
    <tag k="building" v="yes"/>
    <tag k="source" v="Bing"/>
  </way>
  <way id="93216940" version="2" timestamp="2011-03-12T23:47:44Z" uid="30632" user="antblant" changeset="7539687">
    <nd ref="1080588449"/>
    <nd ref="1080590223"/>
    <nd ref="1080590224"/>
    <nd ref="1080590226"/>
    <nd ref="1080588449"/>
    <tag k="addr:city" v="Gdańsk"/>
    <tag k="addr:country" v="PL"/>
    <tag k="addr:housenumber" v="9"/>
    <tag k="addr:street" v="Saperów"/>
    <tag k="building" v="yes"/>
    <tag k="source" v="Bing"/>
  </way>
  <way id="93216944" version="2" timestamp="2011-03-12T23:47:40Z" uid="30632" user="antblant" changeset="7539687">
    <nd ref="1080590233"/>
    <nd ref="1080590234"/>
    <nd ref="1080588496"/>
    <nd ref="1080590236"/>
    <nd ref="1080590233"/>
    <tag k="addr:city" v="Gdańsk"/>
    <tag k="addr:country" v="PL"/>
    <tag k="addr:housenumber" v="10"/>
    <tag k="addr:street" v="Saperów"/>
    <tag k="building" v="yes"/>
    <tag k="source" v="Bing"/>
  </way>
  <way id="93216950" version="2" timestamp="2011-03-12T23:48:16Z" uid="30632" user="antblant" changeset="7539687">
    <nd ref="1080588536"/>
    <nd ref="1080590244"/>
    <nd ref="1080590245"/>
    <nd ref="1080588543"/>
    <nd ref="1080588536"/>
    <tag k="addr:city" v="Gdańsk"/>
    <tag k="addr:country" v="PL"/>
    <tag k="addr:housenumber" v="11"/>
    <tag k="addr:street" v="Saperów"/>
    <tag k="building" v="yes"/>
    <tag k="source" v="Bing"/>
  </way>
  <way id="93216966" version="2" timestamp="2011-03-12T23:48:10Z" uid="30632" user="antblant" changeset="7539687">
    <nd ref="1080590256"/>
    <nd ref="1080590257"/>
    <nd ref="1080588597"/>
    <nd ref="1080590259"/>
    <nd ref="1080590256"/>
    <tag k="addr:city" v="Gdańsk"/>
    <tag k="addr:country" v="PL"/>
    <tag k="addr:housenumber" v="13"/>
    <tag k="addr:street" v="Saperów"/>
    <tag k="building" v="yes"/>
    <tag k="source" v="Bing"/>
  </way>
</osm>
