<?xml version='1.0' encoding='UTF-8'?>
<osm version="0.6" generator="libosmium/2.20.0">
  <way id="9325521" version="11" timestamp="2010-02-14T17:04:54Z" uid="74617" user="JohnSmith" changeset="3875836">
    <nd ref="60511617"/>
    <nd ref="327100072"/>
    <tag k="highway" v="unclassified"/>
    <tag k="maxspeed" v="50"/>
    <tag k="name" v="Little Cribb Street"/>
  </way>
  <way id="9325532" version="4" timestamp="2010-02-14T17:04:31Z" uid="74617" user="JohnSmith" changeset="3875836">
    <nd ref="60848913"/>
    <nd ref="60848914"/>
    <nd ref="60848915"/>
    <nd ref="60114164"/>
    <tag k="highway" v="residential"/>
    <tag k="maxspeed" v="50"/>
    <tag k="name" v="Gordon Street"/>
  </way>
  <way id="9325544" version="10" timestamp="2010-02-14T17:04:13Z" uid="74617" user="JohnSmith" changeset="3875836">
    <nd ref="70352202"/>
    <nd ref="70352069"/>
    <nd ref="70352211"/>
    <nd ref="70352219"/>
    <nd ref="70352122"/>
    <nd ref="610748069"/>
    <nd ref="612018155"/>
    <nd ref="70352228"/>
    <nd ref="610749322"/>
    <nd ref="70352239"/>
    <nd ref="330426068"/>
    <nd ref="610749515"/>
    <nd ref="70352278"/>
    <nd ref="70352150"/>
    <nd ref="610749517"/>
    <nd ref="70352176"/>
    <nd ref="610749475"/>
    <nd ref="70352202"/>
    <tag k="highway" v="unclassified"/>
    <tag k="junction" v="roundabout"/>
    <tag k="maxspeed" v="50"/>
    <tag k="name" v="Dixon Street"/>
  </way>
  <way id="9325547" version="6" timestamp="2010-02-14T17:04:11Z" uid="74617" user="JohnSmith" changeset="3875836">
    <nd ref="330426068"/>
    <nd ref="610749307"/>
    <nd ref="610749309"/>
    <nd ref="610749568"/>
    <nd ref="610749569"/>
    <nd ref="70352381"/>
    <nd ref="610749571"/>
    <nd ref="605172827"/>
    <nd ref="70352358"/>
    <nd ref="21616711"/>
    <tag k="highway" v="residential"/>
    <tag k="maxspeed" v="50"/>
    <tag k="name" v="Patrick Lane"/>
  </way>
  <way id="9325550" version="7" timestamp="2010-02-14T17:04:12Z" uid="74617" user="JohnSmith" changeset="3875836">
    <nd ref="21616711"/>
    <nd ref="297651814"/>
    <nd ref="610749611"/>
    <nd ref="610749613"/>
    <nd ref="610749589"/>
    <nd ref="70352306"/>
    <tag k="highway" v="residential"/>
    <tag k="maxspeed" v="50"/>
    <tag k="name" v="Patrick Lane"/>
    <tag k="oneway" v="yes"/>
  </way>
  <way id="9325963" version="2" timestamp="2008-03-21T22:03:59Z" uid="16922" user="amai" changeset="366030">
    <nd ref="2442763"/>
    <nd ref="70356356"/>
    <nd ref="70356362"/>
    <tag k="created_by" v="Potlatch 0.7b"/>
    <tag k="highway" v="residential"/>
    <tag k="name" v="Südwestring"/>
  </way>
  <way id="9325963" version="3" timestamp="2008-03-21T22:04:05Z" uid="16922" user="amai" changeset="366030">
    <nd ref="2442763"/>
    <nd ref="70356356"/>
    <tag k="created_by" v="Potlatch 0.7b"/>
    <tag k="highway" v="residential"/>
    <tag k="name" v="Südwestring"/>
  </way>
</osm>
