<?xml version='1.0' encoding='UTF-8'?>
<osm version="0.6" generator="libosmium/2.20.0">
  <way id="9333169" version="3" timestamp="2010-02-14T17:04:35Z" uid="74617" user="JohnSmith" changeset="3875836">
    <nd ref="70484289"/>
    <nd ref="70484666"/>
    <nd ref="70484667"/>
    <tag k="highway" v="residential"/>
    <tag k="maxspeed" v="50"/>
    <tag k="name" v="Challinor Street"/>
  </way>
  <way id="9333191" version="3" timestamp="2010-02-14T17:04:36Z" uid="74617" user="JohnSmith" changeset="3875836">
    <nd ref="70484666"/>
    <nd ref="70484974"/>
    <tag k="highway" v="residential"/>
    <tag k="maxspeed" v="50"/>
    <tag k="name" v="Huxham Terrace"/>
  </way>
  <way id="9333227" version="3" timestamp="2010-02-14T17:04:36Z" uid="74617" user="JohnSmith" changeset="3875836">
    <nd ref="70485216"/>
    <nd ref="70485516"/>
    <tag k="highway" v="residential"/>
    <tag k="maxspeed" v="50"/>
    <tag k="name" v="Hobbs Street"/>
  </way>
  <way id="9333253" version="4" timestamp="2010-02-14T17:04:32Z" uid="74617" user="JohnSmith" changeset="3875836">
    <nd ref="70485619"/>
    <nd ref="70485745"/>
    <tag k="highway" v="residential"/>
    <tag k="maxspeed" v="50"/>
    <tag k="name" v="Aldridge Street"/>
  </way>
  <way id="9333300" version="5" timestamp="2010-02-14T17:03:57Z" uid="74617" user="JohnSmith" changeset="3875836">
    <nd ref="154679643"/>
    <nd ref="21590180"/>
    <tag k="highway" v="residential"/>
    <tag k="maxspeed" v="50"/>
    <tag k="name" v="Wienholt Street"/>
  </way>
  <way id="9333335" version="3" timestamp="2010-02-15T05:07:06Z" uid="74617" user="JohnSmith" changeset="3880242">
    <nd ref="70487253"/>
    <nd ref="70486874"/>
    <tag k="highway" v="residential"/>
    <tag k="maxspeed" v="50"/>
    <tag k="name" v="Dowling Street"/>
  </way>
  <way id="9333372" version="4" timestamp="2010-02-14T17:03:57Z" uid="74617" user="JohnSmith" changeset="3875836">
    <nd ref="70487253"/>
    <nd ref="70472932"/>
    <nd ref="70487254"/>
    <tag k="highway" v="residential"/>
    <tag k="maxspeed" v="50"/>
    <tag k="name" v="Harriett Street"/>
  </way>
  <way id="9333421" version="3" timestamp="2010-02-14T17:04:35Z" uid="74617" user="JohnSmith" changeset="3875836">
    <nd ref="70478916"/>
    <nd ref="70487931"/>
    <tag k="highway" v="unclassified"/>
    <tag k="maxspeed" v="50"/>
    <tag k="name" v="Camford Street"/>
  </way>
</osm>
