<?xml version='1.0' encoding='UTF-8'?>
<osm version="0.6" generator="libosmium/2.20.0">
  <way id="9340283" version="5" timestamp="2008-05-09T18:03:56Z" uid="36809" user="pfoten_weg_!_" changeset="372189">
    <nd ref="70580778"/>
    <nd ref="263012050"/>
    <nd ref="564878"/>
    <nd ref="263012051"/>
    <nd ref="263012052"/>
    <nd ref="564877"/>
    <nd ref="70590379"/>
    <nd ref="564876"/>
    <nd ref="564875"/>
    <nd ref="255033498"/>
    <nd ref="564874"/>
    <nd ref="325281"/>
    <tag k="created_by" v="Potlatch 0.9"/>
    <tag k="highway" v="motorway_link"/>
    <tag k="oneway" v="true"/>
  </way>
  <way id="9340283" version="6" timestamp="2008-05-09T18:04:18Z" uid="36809" user="pfoten_weg_!_" changeset="372189">
    <nd ref="70580778"/>
    <nd ref="263012050"/>
    <nd ref="564878"/>
    <nd ref="263012051"/>
    <nd ref="263012052"/>
    <nd ref="564877"/>
    <nd ref="70590379"/>
    <nd ref="564876"/>
    <nd ref="564875"/>
    <nd ref="255033498"/>
    <nd ref="564874"/>
    <nd ref="325281"/>
    <tag k="created_by" v="Potlatch 0.9"/>
    <tag k="highway" v="motorway_link"/>
    <tag k="oneway" v="true"/>
  </way>
  <way id="9340283" version="7" timestamp="2008-05-09T18:04:33Z" uid="36809" user="pfoten_weg_!_" changeset="372189">
    <nd ref="70580778"/>
    <nd ref="263012050"/>
    <nd ref="564878"/>
    <nd ref="263012051"/>
    <nd ref="263012052"/>
    <nd ref="564877"/>
    <nd ref="70590379"/>
    <nd ref="564876"/>
    <nd ref="564875"/>
    <nd ref="255033498"/>
    <nd ref="564874"/>
    <nd ref="325281"/>
    <tag k="created_by" v="Potlatch 0.9"/>
    <tag k="highway" v="motorway_link"/>
    <tag k="oneway" v="true"/>
  </way>
  <way id="9340283" version="8" timestamp="2008-05-09T18:05:08Z" uid="36809" user="pfoten_weg_!_" changeset="372189">
    <nd ref="70580778"/>
    <nd ref="263012050"/>
    <nd ref="564878"/>
    <nd ref="263012051"/>
    <nd ref="263012052"/>
    <nd ref="564877"/>
    <nd ref="70590379"/>
    <tag k="created_by" v="Potlatch 0.9"/>
    <tag k="highway" v="motorway_link"/>
    <tag k="oneway" v="true"/>
  </way>
  <way id="9340283" version="9" timestamp="2008-05-09T18:05:12Z" uid="36809" user="pfoten_weg_!_" changeset="372189">
    <nd ref="70580778"/>
    <nd ref="263012050"/>
    <nd ref="564878"/>
    <nd ref="263012051"/>
    <nd ref="263012052"/>
    <tag k="created_by" v="Potlatch 0.9"/>
    <tag k="highway" v="motorway_link"/>
    <tag k="oneway" v="true"/>
  </way>
  <way id="9340283" version="12" timestamp="2008-09-22T01:29:36Z" uid="36809" user="pfoten_weg_!_" changeset="678890">
    <nd ref="70580778"/>
    <nd ref="263012050"/>
    <nd ref="564878"/>
    <nd ref="263012051"/>
    <nd ref="263012052"/>
    <tag k="created_by" v="Potlatch 0.10"/>
    <tag k="highway" v="motorway_link"/>
    <tag k="oneway" v="true"/>
  </way>
  <way id="9340283" version="13" timestamp="2008-10-01T02:04:28Z" uid="36809" user="pfoten_weg_!_" changeset="5644">
    <nd ref="70580778"/>
    <nd ref="263012050"/>
    <nd ref="564878"/>
    <nd ref="263012051"/>
    <nd ref="263012052"/>
    <tag k="created_by" v="RambaZamba"/>
    <tag k="highway" v="motorway_link"/>
    <tag k="oneway" v="true"/>
  </way>
  <way id="9340283" version="14" timestamp="2008-10-22T00:02:48Z" uid="36809" user="pfoten_weg_!_" changeset="498765">
    <nd ref="70580778"/>
    <nd ref="263012050"/>
    <nd ref="564878"/>
    <nd ref="263012051"/>
    <nd ref="263012052"/>
    <tag k="created_by" v="RambaZamba"/>
    <tag k="highway" v="motorway_link"/>
    <tag k="oneway" v="yes"/>
  </way>
  <way id="9340283" version="15" timestamp="2008-11-18T16:19:47Z" uid="36809" user="pfoten_weg_!_" changeset="764761">
    <nd ref="70580778"/>
    <nd ref="263012050"/>
    <nd ref="564878"/>
    <nd ref="263012051"/>
    <nd ref="263012052"/>
    <tag k="created_by" v="RambaZamba"/>
    <tag k="highway" v="motorway_link"/>
    <tag k="oneway" v="yes"/>
    <tag k="source" v="survey"/>
  </way>
  <way id="9340283" version="17" timestamp="2009-09-01T10:37:57Z" uid="36809" user="pfoten_weg_!_" changeset="2335754">
    <nd ref="70580778"/>
    <nd ref="263012050"/>
    <nd ref="564878"/>
    <nd ref="263012051"/>
    <nd ref="263012052"/>
    <tag k="highway" v="motorway_link"/>
    <tag k="oneway" v="yes"/>
    <tag k="source" v="survey"/>
  </way>
  <way id="9340283" version="18" timestamp="2009-10-02T18:04:13Z" uid="86259" user="hasse_osm_korinthenkacker" changeset="2715119">
    <nd ref="70580778"/>
    <nd ref="263012050"/>
    <nd ref="564878"/>
    <nd ref="263012051"/>
    <nd ref="263012052"/>
    <tag k="highway" v="motorway_link"/>
    <tag k="oneway" v="yes"/>
  </way>
  <way id="9340284" version="2" timestamp="2008-05-09T18:03:40Z" uid="36809" user="pfoten_weg_!_" changeset="372189">
    <nd ref="564879"/>
    <nd ref="70580778"/>
    <tag k="bridge" v="yes"/>
    <tag k="created_by" v="Potlatch 0.9"/>
    <tag k="highway" v="motorway_link"/>
    <tag k="layer" v="1"/>
    <tag k="oneway" v="true"/>
  </way>
  <way id="9340284" version="3" timestamp="2008-05-14T19:47:13Z" uid="36809" user="pfoten_weg_!_" changeset="449749">
    <nd ref="564879"/>
    <nd ref="70580778"/>
    <tag k="bridge" v="yes"/>
    <tag k="created_by" v="Potlatch 0.9a"/>
    <tag k="highway" v="motorway_link"/>
    <tag k="layer" v="1"/>
    <tag k="oneway" v="true"/>
  </way>
  <way id="9340284" version="4" timestamp="2008-06-05T22:12:29Z" uid="36809" user="pfoten_weg_!_" changeset="71211">
    <nd ref="564879"/>
    <nd ref="564879"/>
    <nd ref="564879"/>
    <nd ref="70580778"/>
    <tag k="bridge" v="yes"/>
    <tag k="created_by" v="Potlatch 0.9c"/>
    <tag k="highway" v="motorway_link"/>
    <tag k="layer" v="1"/>
    <tag k="oneway" v="true"/>
  </way>
  <way id="9340401" version="9" timestamp="2010-07-09T05:12:53Z" uid="74617" user="JohnSmith" changeset="5170986">
    <nd ref="30949434"/>
    <nd ref="70583190"/>
    <tag k="highway" v="residential"/>
    <tag k="lanes" v="2"/>
    <tag k="maxspeed" v="50"/>
    <tag k="maxspeed:source" v="default residential speed limit in Australia"/>
    <tag k="name" v="Riversdale Road"/>
    <tag k="surface" v="paved"/>
  </way>
  <way id="9340463" version="2" timestamp="2011-04-21T23:00:46Z" uid="7617" user="Franc" changeset="7930043">
    <nd ref="35428986"/>
    <nd ref="70584038"/>
    <nd ref="70584050"/>
    <nd ref="70584064"/>
    <nd ref="1254688014"/>
    <nd ref="70584070"/>
    <nd ref="1254688032"/>
    <nd ref="70584078"/>
    <nd ref="70584086"/>
    <nd ref="70584094"/>
    <tag k="highway" v="residential"/>
  </way>
  <way id="9340463" version="3" timestamp="2011-04-23T12:55:03Z" uid="7617" user="Franc" changeset="7943317">
    <nd ref="35428986"/>
    <nd ref="1256657491"/>
    <nd ref="70584038"/>
    <nd ref="70584050"/>
    <nd ref="70584064"/>
    <nd ref="1254688014"/>
    <nd ref="70584070"/>
    <nd ref="1254688032"/>
    <nd ref="70584078"/>
    <nd ref="70584086"/>
    <nd ref="70584094"/>
    <tag k="fixme:sign:no" v="2011-04-23"/>
    <tag k="highway" v="service"/>
    <tag k="source" v="nearmap"/>
  </way>
  <way id="9340580" version="6" timestamp="2008-10-01T02:14:13Z" uid="36809" user="pfoten_weg_!_" changeset="5644">
    <nd ref="70584786"/>
    <nd ref="70593912"/>
    <tag k="created_by" v="RambaZamba"/>
    <tag k="highway" v="motorway"/>
    <tag k="maxspeed" v="80"/>
    <tag k="name" v="Olympiastraße"/>
    <tag k="oneway" v="true"/>
    <tag k="ref" v="A 95"/>
  </way>
  <way id="9340580" version="7" timestamp="2008-10-22T00:16:32Z" uid="36809" user="pfoten_weg_!_" changeset="498765">
    <nd ref="70584786"/>
    <nd ref="70593912"/>
    <tag k="created_by" v="RambaZamba"/>
    <tag k="highway" v="motorway"/>
    <tag k="maxspeed" v="80"/>
    <tag k="name" v="Olympiastraße"/>
    <tag k="oneway" v="true"/>
    <tag k="osmarender:renderName" v="no"/>
    <tag k="ref" v="A 95"/>
  </way>
  <way id="9340580" version="8" timestamp="2008-11-18T16:19:40Z" uid="36809" user="pfoten_weg_!_" changeset="764761">
    <nd ref="70584786"/>
    <nd ref="70593912"/>
    <tag k="created_by" v="RambaZamba"/>
    <tag k="highway" v="motorway"/>
    <tag k="maxspeed" v="80"/>
    <tag k="name" v="Olympiastraße"/>
    <tag k="oneway" v="true"/>
    <tag k="osmarender:renderName" v="no"/>
    <tag k="ref" v="A 95"/>
    <tag k="source" v="survey"/>
  </way>
  <way id="9340580" version="11" timestamp="2009-09-01T10:56:36Z" uid="36809" user="pfoten_weg_!_" changeset="2335754">
    <nd ref="70584786"/>
    <nd ref="70593912"/>
    <tag k="highway" v="motorway"/>
    <tag k="lanes" v="2"/>
    <tag k="maxspeed" v="80"/>
    <tag k="name" v="Olympiastraße"/>
    <tag k="oneway" v="yes"/>
    <tag k="osmarender:renderName" v="no"/>
    <tag k="ref" v="A 95"/>
    <tag k="source" v="survey"/>
  </way>
  <way id="9340580" version="13" timestamp="2009-10-02T17:01:35Z" uid="86259" user="hasse_osm_korinthenkacker" changeset="2714981">
    <nd ref="70584786"/>
    <nd ref="70593912"/>
    <tag k="highway" v="motorway"/>
    <tag k="int_ref" v="E 533"/>
    <tag k="lanes" v="2"/>
    <tag k="maxspeed" v="80"/>
    <tag k="name" v="Olympiastraße"/>
    <tag k="oneway" v="yes"/>
    <tag k="ref" v="A 95"/>
    <tag k="source" v="survey"/>
  </way>
  <way id="9340580" version="14" timestamp="2009-10-02T18:09:57Z" uid="86259" user="hasse_osm_korinthenkacker" changeset="2715119">
    <nd ref="70584786"/>
    <nd ref="70593912"/>
    <tag k="highway" v="motorway"/>
    <tag k="int_ref" v="E 533"/>
    <tag k="lanes" v="2"/>
    <tag k="maxspeed" v="80"/>
    <tag k="name" v="Olympiastraße"/>
    <tag k="oneway" v="yes"/>
    <tag k="ref" v="A 95"/>
  </way>
  <way id="9340582" version="5" timestamp="2008-10-01T02:14:14Z" uid="36809" user="pfoten_weg_!_" changeset="5644">
    <nd ref="70584767"/>
    <nd ref="70584786"/>
    <tag k="bridge" v="yes"/>
    <tag k="created_by" v="RambaZamba"/>
    <tag k="highway" v="motorway"/>
    <tag k="layer" v="1"/>
    <tag k="maxspeed" v="80"/>
    <tag k="name" v="Olympiastraße"/>
    <tag k="oneway" v="true"/>
    <tag k="ref" v="A 95"/>
  </way>
  <way id="9340582" version="6" timestamp="2008-10-22T00:16:36Z" uid="36809" user="pfoten_weg_!_" changeset="498765">
    <nd ref="70584767"/>
    <nd ref="70584786"/>
    <tag k="bridge" v="yes"/>
    <tag k="created_by" v="RambaZamba"/>
    <tag k="highway" v="motorway"/>
    <tag k="layer" v="1"/>
    <tag k="maxspeed" v="80"/>
    <tag k="name" v="Olympiastraße"/>
    <tag k="oneway" v="true"/>
    <tag k="osmarender:renderName" v="no"/>
    <tag k="ref" v="A 95"/>
  </way>
  <way id="9340582" version="7" timestamp="2008-11-18T16:19:40Z" uid="36809" user="pfoten_weg_!_" changeset="764761">
    <nd ref="70584767"/>
    <nd ref="70584786"/>
    <tag k="bridge" v="yes"/>
    <tag k="created_by" v="RambaZamba"/>
    <tag k="highway" v="motorway"/>
    <tag k="layer" v="1"/>
    <tag k="maxspeed" v="80"/>
    <tag k="name" v="Olympiastraße"/>
    <tag k="oneway" v="true"/>
    <tag k="osmarender:renderName" v="no"/>
    <tag k="ref" v="A 95"/>
    <tag k="source" v="survey"/>
  </way>
  <way id="9340582" version="10" timestamp="2009-09-01T10:38:34Z" uid="36809" user="pfoten_weg_!_" changeset="2335754">
    <nd ref="70584767"/>
    <nd ref="70584786"/>
    <tag k="bridge" v="yes"/>
    <tag k="highway" v="motorway"/>
    <tag k="lanes" v="2"/>
    <tag k="layer" v="1"/>
    <tag k="maxspeed" v="80"/>
    <tag k="name" v="Olympiastraße"/>
    <tag k="oneway" v="yes"/>
    <tag k="osmarender:renderName" v="no"/>
    <tag k="ref" v="A 95"/>
    <tag k="source" v="survey"/>
  </way>
  <way id="9340582" version="12" timestamp="2009-10-02T17:01:38Z" uid="86259" user="hasse_osm_korinthenkacker" changeset="2714981">
    <nd ref="70584767"/>
    <nd ref="70584786"/>
    <tag k="bridge" v="yes"/>
    <tag k="highway" v="motorway"/>
    <tag k="int_ref" v="E 533"/>
    <tag k="lanes" v="2"/>
    <tag k="layer" v="1"/>
    <tag k="maxspeed" v="80"/>
    <tag k="name" v="Olympiastraße"/>
    <tag k="oneway" v="yes"/>
    <tag k="ref" v="A 95"/>
    <tag k="source" v="survey"/>
  </way>
  <way id="9340582" version="13" timestamp="2009-10-02T18:10:00Z" uid="86259" user="hasse_osm_korinthenkacker" changeset="2715119">
    <nd ref="70584767"/>
    <nd ref="70584786"/>
    <tag k="bridge" v="yes"/>
    <tag k="highway" v="motorway"/>
    <tag k="int_ref" v="E 533"/>
    <tag k="lanes" v="2"/>
    <tag k="layer" v="1"/>
    <tag k="maxspeed" v="80"/>
    <tag k="name" v="Olympiastraße"/>
    <tag k="oneway" v="yes"/>
    <tag k="ref" v="A 95"/>
  </way>
  <way id="9340583" version="7" timestamp="2008-10-01T02:14:15Z" uid="36809" user="pfoten_weg_!_" changeset="5644">
    <nd ref="70584775"/>
    <nd ref="70584761"/>
    <tag k="bridge" v="yes"/>
    <tag k="created_by" v="RambaZamba"/>
    <tag k="highway" v="motorway"/>
    <tag k="lanes" v="2"/>
    <tag k="layer" v="1"/>
    <tag k="maxspeed" v="80"/>
    <tag k="name" v="Olympiastraße"/>
    <tag k="oneway" v="true"/>
    <tag k="ref" v="A 95"/>
  </way>
  <way id="9340583" version="8" timestamp="2008-10-22T00:16:39Z" uid="36809" user="pfoten_weg_!_" changeset="498765">
    <nd ref="70584775"/>
    <nd ref="70584761"/>
    <tag k="bridge" v="yes"/>
    <tag k="created_by" v="RambaZamba"/>
    <tag k="highway" v="motorway"/>
    <tag k="lanes" v="2"/>
    <tag k="layer" v="1"/>
    <tag k="maxspeed" v="80"/>
    <tag k="name" v="Olympiastraße"/>
    <tag k="oneway" v="true"/>
    <tag k="osmarender:renderName" v="no"/>
    <tag k="ref" v="A 95"/>
  </way>
  <way id="9340583" version="9" timestamp="2008-11-18T16:19:41Z" uid="36809" user="pfoten_weg_!_" changeset="764761">
    <nd ref="70584775"/>
    <nd ref="70584761"/>
    <tag k="bridge" v="yes"/>
    <tag k="created_by" v="RambaZamba"/>
    <tag k="highway" v="motorway"/>
    <tag k="lanes" v="2"/>
    <tag k="layer" v="1"/>
    <tag k="maxspeed" v="80"/>
    <tag k="name" v="Olympiastraße"/>
    <tag k="oneway" v="true"/>
    <tag k="osmarender:renderName" v="no"/>
    <tag k="ref" v="A 95"/>
    <tag k="source" v="survey"/>
  </way>
  <way id="9340583" version="12" timestamp="2009-09-01T11:06:06Z" uid="36809" user="pfoten_weg_!_" changeset="2335754">
    <nd ref="70584775"/>
    <nd ref="70584761"/>
    <tag k="bridge" v="yes"/>
    <tag k="highway" v="motorway"/>
    <tag k="lanes" v="2"/>
    <tag k="layer" v="1"/>
    <tag k="maxspeed" v="80"/>
    <tag k="name" v="Olympiastraße"/>
    <tag k="oneway" v="yes"/>
    <tag k="osmarender:renderName" v="no"/>
    <tag k="ref" v="A 95"/>
    <tag k="source" v="survey"/>
  </way>
  <way id="9340583" version="14" timestamp="2009-10-02T17:01:38Z" uid="86259" user="hasse_osm_korinthenkacker" changeset="2714981">
    <nd ref="70584775"/>
    <nd ref="70584761"/>
    <tag k="bridge" v="yes"/>
    <tag k="highway" v="motorway"/>
    <tag k="int_ref" v="E 533"/>
    <tag k="lanes" v="2"/>
    <tag k="layer" v="1"/>
    <tag k="maxspeed" v="80"/>
    <tag k="name" v="Olympiastraße"/>
    <tag k="oneway" v="yes"/>
    <tag k="ref" v="A 95"/>
    <tag k="source" v="survey"/>
  </way>
  <way id="9340583" version="15" timestamp="2009-10-02T18:10:00Z" uid="86259" user="hasse_osm_korinthenkacker" changeset="2715119">
    <nd ref="70584775"/>
    <nd ref="70584761"/>
    <tag k="bridge" v="yes"/>
    <tag k="highway" v="motorway"/>
    <tag k="int_ref" v="E 533"/>
    <tag k="lanes" v="2"/>
    <tag k="layer" v="1"/>
    <tag k="maxspeed" v="80"/>
    <tag k="name" v="Olympiastraße"/>
    <tag k="oneway" v="yes"/>
    <tag k="ref" v="A 95"/>
  </way>
  <way id="9340586" version="11" timestamp="2008-05-03T19:41:17Z" uid="36809" user="pfoten_weg_!_" changeset="323953">
    <nd ref="70584761"/>
    <nd ref="325286"/>
    <nd ref="246423"/>
    <nd ref="246424"/>
    <nd ref="246433"/>
    <nd ref="246426"/>
    <nd ref="246427"/>
    <nd ref="246428"/>
    <nd ref="21583776"/>
    <nd ref="246429"/>
    <nd ref="257671471"/>
    <nd ref="246430"/>
    <nd ref="246431"/>
    <nd ref="246434"/>
    <nd ref="246435"/>
    <nd ref="246436"/>
    <nd ref="185692589"/>
    <tag k="created_by" v="Potlatch 0.8c"/>
    <tag k="highway" v="motorway"/>
    <tag k="oneway" v="true"/>
    <tag k="ref" v="A95"/>
  </way>
  <way id="9340586" version="12" timestamp="2008-05-03T19:45:41Z" uid="36809" user="pfoten_weg_!_" changeset="323953">
    <nd ref="70584761"/>
    <nd ref="325286"/>
    <nd ref="246423"/>
    <nd ref="246424"/>
    <nd ref="246433"/>
    <nd ref="246426"/>
    <nd ref="246427"/>
    <nd ref="246428"/>
    <nd ref="21583776"/>
    <nd ref="246429"/>
    <nd ref="257671471"/>
    <nd ref="246430"/>
    <nd ref="246431"/>
    <nd ref="246434"/>
    <nd ref="246435"/>
    <nd ref="246436"/>
    <nd ref="185692529"/>
    <nd ref="246437"/>
    <nd ref="246438"/>
    <nd ref="246439"/>
    <nd ref="246440"/>
    <nd ref="246441"/>
    <nd ref="246442"/>
    <nd ref="246443"/>
    <nd ref="246444"/>
    <nd ref="185603999"/>
    <tag k="created_by" v="Potlatch 0.8c"/>
    <tag k="highway" v="motorway"/>
    <tag k="oneway" v="true"/>
    <tag k="ref" v="A95"/>
  </way>
  <way id="9340586" version="13" timestamp="2008-05-03T19:45:53Z" uid="36809" user="pfoten_weg_!_" changeset="323953">
    <nd ref="70584761"/>
    <nd ref="325286"/>
    <nd ref="246423"/>
    <nd ref="246424"/>
    <nd ref="246433"/>
    <nd ref="246426"/>
    <nd ref="246427"/>
    <nd ref="246428"/>
    <nd ref="21583776"/>
    <nd ref="246429"/>
    <nd ref="257671471"/>
    <nd ref="246430"/>
    <nd ref="246431"/>
    <nd ref="246434"/>
    <nd ref="246435"/>
    <nd ref="246436"/>
    <nd ref="185692529"/>
    <nd ref="246437"/>
    <nd ref="246438"/>
    <nd ref="246439"/>
    <nd ref="246440"/>
    <nd ref="246441"/>
    <nd ref="246442"/>
    <nd ref="246443"/>
    <nd ref="246444"/>
    <nd ref="185603999"/>
    <tag k="created_by" v="Potlatch 0.8c"/>
    <tag k="highway" v="motorway"/>
    <tag k="oneway" v="true"/>
    <tag k="ref" v="A95"/>
  </way>
  <way id="9340586" version="14" timestamp="2008-05-03T19:46:12Z" uid="36809" user="pfoten_weg_!_" changeset="323953">
    <nd ref="70584761"/>
    <nd ref="325286"/>
    <nd ref="246423"/>
    <nd ref="246424"/>
    <nd ref="246433"/>
    <nd ref="246426"/>
    <nd ref="246427"/>
    <nd ref="246428"/>
    <nd ref="21583776"/>
    <nd ref="246429"/>
    <nd ref="257671471"/>
    <nd ref="246430"/>
    <nd ref="246431"/>
    <nd ref="246434"/>
    <nd ref="246435"/>
    <nd ref="246436"/>
    <nd ref="185692529"/>
    <nd ref="246437"/>
    <nd ref="246438"/>
    <nd ref="246439"/>
    <nd ref="246440"/>
    <nd ref="246441"/>
    <nd ref="246442"/>
    <nd ref="246443"/>
    <nd ref="246444"/>
    <nd ref="185603999"/>
    <tag k="created_by" v="Potlatch 0.8c"/>
    <tag k="highway" v="motorway"/>
    <tag k="oneway" v="true"/>
    <tag k="ref" v="A95"/>
  </way>
  <way id="9340586" version="15" timestamp="2008-05-04T02:51:39Z" uid="36809" user="pfoten_weg_!_" changeset="326538">
    <nd ref="70584761"/>
    <nd ref="325286"/>
    <nd ref="246423"/>
    <nd ref="246424"/>
    <nd ref="246433"/>
    <nd ref="246426"/>
    <nd ref="246427"/>
    <nd ref="246428"/>
    <nd ref="21583776"/>
    <nd ref="246429"/>
    <nd ref="257671471"/>
    <nd ref="246430"/>
    <nd ref="246431"/>
    <nd ref="246434"/>
    <nd ref="246435"/>
    <nd ref="246436"/>
    <nd ref="185692529"/>
    <tag k="created_by" v="Potlatch 0.8c"/>
    <tag k="highway" v="motorway"/>
    <tag k="oneway" v="true"/>
    <tag k="ref" v="A95"/>
  </way>
  <way id="9340586" version="16" timestamp="2008-05-04T02:52:05Z" uid="36809" user="pfoten_weg_!_" changeset="326538">
    <nd ref="70584761"/>
    <nd ref="325286"/>
    <nd ref="246423"/>
    <nd ref="246424"/>
    <nd ref="246433"/>
    <nd ref="246426"/>
    <nd ref="246427"/>
    <nd ref="246428"/>
    <nd ref="21583776"/>
    <nd ref="246429"/>
    <nd ref="257671471"/>
    <nd ref="246430"/>
    <nd ref="246431"/>
    <nd ref="246434"/>
    <nd ref="246435"/>
    <nd ref="246436"/>
    <nd ref="185692529"/>
    <tag k="bridge" v="yes"/>
    <tag k="created_by" v="Potlatch 0.8c"/>
    <tag k="highway" v="motorway"/>
    <tag k="oneway" v="true"/>
    <tag k="ref" v="A95"/>
  </way>
  <way id="9340586" version="17" timestamp="2008-05-04T02:52:21Z" uid="36809" user="pfoten_weg_!_" changeset="326538">
    <nd ref="70584761"/>
    <nd ref="325286"/>
    <nd ref="246423"/>
    <nd ref="246424"/>
    <nd ref="246433"/>
    <nd ref="246426"/>
    <nd ref="246427"/>
    <nd ref="246428"/>
    <nd ref="21583776"/>
    <nd ref="246429"/>
    <nd ref="257671471"/>
    <nd ref="246430"/>
    <nd ref="246431"/>
    <nd ref="246434"/>
    <nd ref="246435"/>
    <nd ref="246436"/>
    <nd ref="262076002"/>
    <nd ref="185692529"/>
    <tag k="bridge" v="yes"/>
    <tag k="created_by" v="Potlatch 0.8c"/>
    <tag k="highway" v="motorway"/>
    <tag k="oneway" v="true"/>
    <tag k="ref" v="A95"/>
  </way>
  <way id="9340586" version="18" timestamp="2008-05-04T02:52:28Z" uid="36809" user="pfoten_weg_!_" changeset="326538">
    <nd ref="70584761"/>
    <nd ref="325286"/>
    <nd ref="246423"/>
    <nd ref="246424"/>
    <nd ref="246433"/>
    <nd ref="246426"/>
    <nd ref="246427"/>
    <nd ref="246428"/>
    <nd ref="21583776"/>
    <nd ref="246429"/>
    <nd ref="257671471"/>
    <nd ref="246430"/>
    <nd ref="246431"/>
    <nd ref="246434"/>
    <nd ref="246435"/>
    <nd ref="246436"/>
    <nd ref="262076002"/>
    <tag k="bridge" v="yes"/>
    <tag k="created_by" v="Potlatch 0.8c"/>
    <tag k="highway" v="motorway"/>
    <tag k="oneway" v="true"/>
    <tag k="ref" v="A95"/>
  </way>
  <way id="9340586" version="19" timestamp="2008-05-04T02:52:40Z" uid="36809" user="pfoten_weg_!_" changeset="326538">
    <nd ref="70584761"/>
    <nd ref="325286"/>
    <nd ref="246423"/>
    <nd ref="246424"/>
    <nd ref="246433"/>
    <nd ref="246426"/>
    <nd ref="246427"/>
    <nd ref="246428"/>
    <nd ref="21583776"/>
    <nd ref="246429"/>
    <nd ref="257671471"/>
    <nd ref="246430"/>
    <nd ref="246431"/>
    <nd ref="246434"/>
    <nd ref="246435"/>
    <nd ref="246436"/>
    <nd ref="262076002"/>
    <tag k="created_by" v="Potlatch 0.8c"/>
    <tag k="highway" v="motorway"/>
    <tag k="oneway" v="true"/>
    <tag k="ref" v="A95"/>
  </way>
  <way id="9340586" version="20" timestamp="2008-05-05T12:49:56Z" uid="36809" user="pfoten_weg_!_" changeset="339708">
    <nd ref="70584761"/>
    <nd ref="325286"/>
    <nd ref="246423"/>
    <nd ref="246424"/>
    <nd ref="246433"/>
    <nd ref="246426"/>
    <nd ref="246427"/>
    <nd ref="246428"/>
    <nd ref="21583776"/>
    <nd ref="246429"/>
    <nd ref="257671471"/>
    <nd ref="246430"/>
    <nd ref="246431"/>
    <nd ref="246434"/>
    <nd ref="246435"/>
    <nd ref="246436"/>
    <nd ref="262076002"/>
    <tag k="created_by" v="Potlatch 0.8c"/>
    <tag k="highway" v="motorway"/>
    <tag k="oneway" v="true"/>
    <tag k="ref" v="A95"/>
  </way>
  <way id="9340586" version="21" timestamp="2008-05-05T12:50:13Z" uid="36809" user="pfoten_weg_!_" changeset="339708">
    <nd ref="70584761"/>
    <nd ref="325286"/>
    <nd ref="246423"/>
    <nd ref="246424"/>
    <nd ref="246433"/>
    <nd ref="246426"/>
    <nd ref="246427"/>
    <nd ref="246428"/>
    <nd ref="21583776"/>
    <nd ref="246429"/>
    <nd ref="257671471"/>
    <nd ref="246430"/>
    <nd ref="246431"/>
    <nd ref="246434"/>
    <nd ref="246435"/>
    <nd ref="246436"/>
    <nd ref="262076002"/>
    <tag k="created_by" v="Potlatch 0.8c"/>
    <tag k="highway" v="motorway"/>
    <tag k="oneway" v="true"/>
    <tag k="ref" v="A95"/>
  </way>
  <way id="9340586" version="22" timestamp="2008-05-05T12:50:31Z" uid="36809" user="pfoten_weg_!_" changeset="339708">
    <nd ref="70584761"/>
    <nd ref="325286"/>
    <nd ref="246423"/>
    <nd ref="246424"/>
    <nd ref="246433"/>
    <nd ref="246426"/>
    <nd ref="246427"/>
    <nd ref="246428"/>
    <nd ref="21583776"/>
    <nd ref="246429"/>
    <nd ref="262314944"/>
    <nd ref="257671471"/>
    <nd ref="246430"/>
    <nd ref="246431"/>
    <nd ref="246434"/>
    <nd ref="246435"/>
    <nd ref="246436"/>
    <nd ref="262076002"/>
    <tag k="created_by" v="Potlatch 0.8c"/>
    <tag k="highway" v="motorway"/>
    <tag k="oneway" v="true"/>
    <tag k="ref" v="A95"/>
  </way>
  <way id="9340586" version="23" timestamp="2008-05-06T02:11:17Z" uid="36809" user="pfoten_weg_!_" changeset="347369">
    <nd ref="70584761"/>
    <nd ref="325286"/>
    <nd ref="246423"/>
    <nd ref="246424"/>
    <nd ref="246433"/>
    <nd ref="246426"/>
    <nd ref="246427"/>
    <nd ref="246428"/>
    <nd ref="21583776"/>
    <nd ref="262429764"/>
    <nd ref="262429765"/>
    <nd ref="246429"/>
    <nd ref="262314944"/>
    <nd ref="257671471"/>
    <nd ref="246430"/>
    <nd ref="246431"/>
    <nd ref="246434"/>
    <nd ref="246435"/>
    <nd ref="246436"/>
    <nd ref="262076002"/>
    <tag k="created_by" v="Potlatch 0.8c"/>
    <tag k="highway" v="motorway"/>
    <tag k="oneway" v="true"/>
    <tag k="ref" v="A95"/>
  </way>
  <way id="9340586" version="24" timestamp="2008-05-06T02:12:02Z" uid="36809" user="pfoten_weg_!_" changeset="347369">
    <nd ref="70584761"/>
    <nd ref="325286"/>
    <nd ref="246423"/>
    <nd ref="246424"/>
    <nd ref="246433"/>
    <nd ref="246426"/>
    <nd ref="246427"/>
    <nd ref="246428"/>
    <nd ref="21583776"/>
    <nd ref="262429764"/>
    <tag k="created_by" v="Potlatch 0.8c"/>
    <tag k="highway" v="motorway"/>
    <tag k="oneway" v="true"/>
    <tag k="ref" v="A95"/>
  </way>
  <way id="9340586" version="25" timestamp="2008-05-09T18:16:43Z" uid="36809" user="pfoten_weg_!_" changeset="372189">
    <nd ref="70584761"/>
    <nd ref="325286"/>
    <nd ref="246423"/>
    <nd ref="246424"/>
    <nd ref="246433"/>
    <nd ref="246426"/>
    <nd ref="263013773"/>
    <nd ref="246427"/>
    <nd ref="263013774"/>
    <nd ref="246428"/>
    <nd ref="21583776"/>
    <nd ref="262429764"/>
    <tag k="created_by" v="Potlatch 0.9"/>
    <tag k="highway" v="motorway"/>
    <tag k="oneway" v="true"/>
    <tag k="ref" v="A95"/>
  </way>
  <way id="9340586" version="26" timestamp="2008-05-09T22:21:47Z" uid="36809" user="pfoten_weg_!_" changeset="380779">
    <nd ref="70584761"/>
    <nd ref="325286"/>
    <nd ref="246423"/>
    <nd ref="246424"/>
    <nd ref="263055833"/>
    <nd ref="246433"/>
    <nd ref="263055834"/>
    <nd ref="246426"/>
    <nd ref="263013773"/>
    <nd ref="246427"/>
    <nd ref="263013774"/>
    <nd ref="246428"/>
    <nd ref="21583776"/>
    <nd ref="262429764"/>
    <tag k="created_by" v="Potlatch 0.9"/>
    <tag k="highway" v="motorway"/>
    <tag k="oneway" v="true"/>
    <tag k="ref" v="A95"/>
  </way>
  <way id="9340586" version="27" timestamp="2008-05-09T22:22:01Z" uid="36809" user="pfoten_weg_!_" changeset="380779">
    <nd ref="70584761"/>
    <nd ref="325286"/>
    <nd ref="246423"/>
    <nd ref="246424"/>
    <nd ref="263055833"/>
    <nd ref="246433"/>
    <nd ref="263055834"/>
    <nd ref="246426"/>
    <nd ref="263013773"/>
    <nd ref="246427"/>
    <nd ref="263013774"/>
    <nd ref="246428"/>
    <nd ref="21583776"/>
    <nd ref="262429764"/>
    <tag k="created_by" v="Potlatch 0.9"/>
    <tag k="highway" v="motorway"/>
    <tag k="oneway" v="true"/>
    <tag k="ref" v="A95"/>
  </way>
  <way id="9340586" version="28" timestamp="2008-05-09T22:22:17Z" uid="36809" user="pfoten_weg_!_" changeset="380779">
    <nd ref="70584761"/>
    <nd ref="325286"/>
    <nd ref="246423"/>
    <nd ref="246424"/>
    <nd ref="263055833"/>
    <nd ref="246433"/>
    <nd ref="263055958"/>
    <nd ref="263055834"/>
    <nd ref="246426"/>
    <nd ref="263055959"/>
    <nd ref="263013773"/>
    <nd ref="246427"/>
    <nd ref="263013774"/>
    <nd ref="246428"/>
    <nd ref="21583776"/>
    <nd ref="262429764"/>
    <tag k="created_by" v="Potlatch 0.9"/>
    <tag k="highway" v="motorway"/>
    <tag k="oneway" v="true"/>
    <tag k="ref" v="A95"/>
  </way>
  <way id="9340586" version="31" timestamp="2008-07-05T18:50:03Z" uid="36809" user="pfoten_weg_!_" changeset="401798">
    <nd ref="70584761"/>
    <nd ref="325286"/>
    <nd ref="246423"/>
    <nd ref="246424"/>
    <nd ref="263055833"/>
    <nd ref="246433"/>
    <nd ref="263055958"/>
    <nd ref="263055834"/>
    <nd ref="246426"/>
    <nd ref="263055959"/>
    <nd ref="263013773"/>
    <nd ref="246427"/>
    <nd ref="263013774"/>
    <nd ref="246428"/>
    <nd ref="21583776"/>
    <nd ref="262429764"/>
    <tag k="created_by" v="Potlatch 0.9c"/>
    <tag k="highway" v="motorway"/>
    <tag k="maxspeed" v="80"/>
    <tag k="name" v="Olympiastraße"/>
    <tag k="oneway" v="true"/>
    <tag k="ref" v="A95"/>
  </way>
  <way id="9340586" version="32" timestamp="2008-07-07T17:41:19Z" uid="36809" user="pfoten_weg_!_" changeset="419531">
    <nd ref="70584761"/>
    <nd ref="325286"/>
    <nd ref="246423"/>
    <nd ref="246424"/>
    <nd ref="263055833"/>
    <nd ref="246433"/>
    <nd ref="263055958"/>
    <nd ref="263055834"/>
    <nd ref="246426"/>
    <nd ref="263055959"/>
    <nd ref="263013773"/>
    <nd ref="246427"/>
    <nd ref="263013774"/>
    <nd ref="246428"/>
    <nd ref="21583776"/>
    <nd ref="262429764"/>
    <tag k="created_by" v="Potlatch 0.9c"/>
    <tag k="highway" v="motorway"/>
    <tag k="maxspeed" v="80"/>
    <tag k="name" v="Olympiastraße"/>
    <tag k="oneway" v="true"/>
    <tag k="ref" v="A95"/>
  </way>
  <way id="9340586" version="34" timestamp="2008-07-16T23:17:09Z" uid="36809" user="pfoten_weg_!_" changeset="511277">
    <nd ref="70584761"/>
    <nd ref="325286"/>
    <nd ref="246423"/>
    <nd ref="246424"/>
    <nd ref="263055833"/>
    <nd ref="246433"/>
    <nd ref="263055958"/>
    <nd ref="263055834"/>
    <nd ref="246426"/>
    <nd ref="263055959"/>
    <nd ref="263013773"/>
    <nd ref="246427"/>
    <nd ref="263013774"/>
    <nd ref="246428"/>
    <nd ref="21583776"/>
    <nd ref="262429764"/>
    <tag k="created_by" v="Potlatch 0.9c"/>
    <tag k="highway" v="motorway"/>
    <tag k="maxspeed" v="80"/>
    <tag k="name" v="Olympiastraße"/>
    <tag k="oneway" v="true"/>
    <tag k="ref" v="A 95"/>
  </way>
  <way id="9340586" version="37" timestamp="2008-09-22T01:29:11Z" uid="36809" user="pfoten_weg_!_" changeset="678890">
    <nd ref="70584761"/>
    <nd ref="325286"/>
    <tag k="created_by" v="Potlatch 0.10b"/>
    <tag k="highway" v="motorway"/>
    <tag k="lanes" v="2"/>
    <tag k="maxspeed" v="80"/>
    <tag k="name" v="Olympiastraße"/>
    <tag k="oneway" v="true"/>
    <tag k="ref" v="A 95"/>
  </way>
  <way id="9340586" version="38" timestamp="2008-10-01T02:14:06Z" uid="36809" user="pfoten_weg_!_" changeset="5644">
    <nd ref="70584761"/>
    <nd ref="325286"/>
    <tag k="created_by" v="RambaZamba"/>
    <tag k="highway" v="motorway"/>
    <tag k="lanes" v="2"/>
    <tag k="maxspeed" v="80"/>
    <tag k="name" v="Olympiastraße"/>
    <tag k="oneway" v="true"/>
    <tag k="ref" v="A 95"/>
  </way>
  <way id="9340586" version="39" timestamp="2008-11-18T16:19:38Z" uid="36809" user="pfoten_weg_!_" changeset="764761">
    <nd ref="70584761"/>
    <nd ref="325286"/>
    <tag k="created_by" v="RambaZamba"/>
    <tag k="highway" v="motorway"/>
    <tag k="lanes" v="2"/>
    <tag k="maxspeed" v="80"/>
    <tag k="name" v="Olympiastraße"/>
    <tag k="oneway" v="true"/>
    <tag k="ref" v="A 95"/>
    <tag k="source" v="survey"/>
  </way>
  <way id="9340586" version="42" timestamp="2009-09-01T10:51:50Z" uid="36809" user="pfoten_weg_!_" changeset="2335754">
    <nd ref="70584761"/>
    <nd ref="325286"/>
    <tag k="highway" v="motorway"/>
    <tag k="lanes" v="2"/>
    <tag k="maxspeed" v="80"/>
    <tag k="name" v="Olympiastraße"/>
    <tag k="oneway" v="yes"/>
    <tag k="ref" v="A 95"/>
    <tag k="source" v="survey"/>
  </way>
  <way id="9340586" version="44" timestamp="2009-10-02T17:01:35Z" uid="86259" user="hasse_osm_korinthenkacker" changeset="2714981">
    <nd ref="70584761"/>
    <nd ref="325286"/>
    <tag k="highway" v="motorway"/>
    <tag k="int_ref" v="E 533"/>
    <tag k="lanes" v="2"/>
    <tag k="maxspeed" v="80"/>
    <tag k="name" v="Olympiastraße"/>
    <tag k="oneway" v="yes"/>
    <tag k="ref" v="A 95"/>
    <tag k="source" v="survey"/>
  </way>
  <way id="9340586" version="45" timestamp="2009-10-02T18:09:50Z" uid="86259" user="hasse_osm_korinthenkacker" changeset="2715119">
    <nd ref="70584761"/>
    <nd ref="325286"/>
    <tag k="highway" v="motorway"/>
    <tag k="int_ref" v="E 533"/>
    <tag k="lanes" v="2"/>
    <tag k="maxspeed" v="80"/>
    <tag k="name" v="Olympiastraße"/>
    <tag k="oneway" v="yes"/>
    <tag k="ref" v="A 95"/>
  </way>
</osm>
