<?xml version='1.0' encoding='UTF-8'?>
<osm version="0.6" generator="libosmium/2.20.0">
  <way id="93463988" version="6" timestamp="2011-04-09T23:02:18Z" uid="136042" user="gent" changeset="7818264">
    <nd ref="1083506475"/>
    <nd ref="1083506478"/>
    <nd ref="1083506489"/>
    <nd ref="1083506492"/>
    <nd ref="1083506475"/>
    <tag k="addr:housenumber" v="5A"/>
    <tag k="addr:postcode" v="10000"/>
    <tag k="addr:street" v="Rexhep Mala"/>
    <tag k="amenity" v="office"/>
    <tag k="building" v="yes"/>
    <tag k="int_name" v="UNICEF Innovations Lab Kosovo"/>
    <tag k="name" v="UNICEF Innovations Lab Kosovo"/>
    <tag k="note" v="Laboratory"/>
    <tag k="website" v="http://facebook.com/kosovoinnovations"/>
  </way>
  <way id="93463989" version="1" timestamp="2011-01-05T13:51:36Z" uid="9581" user="Lobelt" changeset="6871859">
    <nd ref="1083506722"/>
    <nd ref="1083506567"/>
    <nd ref="1083505891"/>
    <nd ref="1083506357"/>
    <nd ref="1083505220"/>
    <nd ref="1083506722"/>
    <tag k="building" v="yes"/>
  </way>
  <way id="93463990" version="1" timestamp="2011-01-05T13:51:36Z" uid="9581" user="Lobelt" changeset="6871859">
    <nd ref="1083506499"/>
    <nd ref="1083506157"/>
    <nd ref="1083505477"/>
    <nd ref="1083505617"/>
    <nd ref="1083506499"/>
    <tag k="addr:city" v="Kahla"/>
    <tag k="addr:housenumber" v="9"/>
    <tag k="addr:postcode" v="07768"/>
    <tag k="addr:street" v="Rollestraße"/>
    <tag k="building" v="yes"/>
  </way>
  <way id="93463991" version="1" timestamp="2011-01-05T13:51:36Z" uid="9581" user="Lobelt" changeset="6871859">
    <nd ref="1083506772"/>
    <nd ref="1083505095"/>
    <nd ref="1083505792"/>
    <nd ref="1083504951"/>
    <nd ref="1083506330"/>
    <nd ref="1083505260"/>
    <nd ref="1083506772"/>
    <tag k="building" v="yes"/>
  </way>
  <way id="93463992" version="1" timestamp="2011-01-05T13:51:36Z" uid="9581" user="Lobelt" changeset="6871859">
    <nd ref="1083506949"/>
    <nd ref="1083506097"/>
    <nd ref="1083505456"/>
    <nd ref="1083505693"/>
    <nd ref="1083507142"/>
    <nd ref="1083506949"/>
    <tag k="building" v="yes"/>
  </way>
  <way id="93463993" version="1" timestamp="2011-01-05T13:51:36Z" uid="9581" user="Lobelt" changeset="6871859">
    <nd ref="1083507083"/>
    <nd ref="1083505497"/>
    <nd ref="1083507144"/>
    <nd ref="1083506828"/>
    <nd ref="1083506006"/>
    <nd ref="1083505171"/>
    <nd ref="1083506699"/>
    <nd ref="1083507083"/>
    <tag k="addr:city" v="Kahla"/>
    <tag k="addr:housenumber" v="6a"/>
    <tag k="addr:postcode" v="07768"/>
    <tag k="addr:street" v="Oststraße"/>
    <tag k="building" v="yes"/>
  </way>
  <way id="93463994" version="1" timestamp="2011-01-05T13:51:36Z" uid="9581" user="Lobelt" changeset="6871859">
    <nd ref="1083505889"/>
    <nd ref="1083506564"/>
    <nd ref="1083505932"/>
    <nd ref="1083505087"/>
    <nd ref="1083506447"/>
    <nd ref="1083505559"/>
    <nd ref="1083504940"/>
    <nd ref="1083506319"/>
    <nd ref="1083505434"/>
    <nd ref="1083506753"/>
    <nd ref="1083506187"/>
    <nd ref="1083505289"/>
    <nd ref="1083506638"/>
    <nd ref="1083505889"/>
    <tag k="building" v="yes"/>
  </way>
  <way id="93463995" version="1" timestamp="2011-01-05T13:51:37Z" uid="9581" user="Lobelt" changeset="6871859">
    <nd ref="1083505288"/>
    <nd ref="1083505631"/>
    <nd ref="1083507022"/>
    <nd ref="1083506184"/>
    <nd ref="1083506003"/>
    <nd ref="1083505164"/>
    <nd ref="1083505493"/>
    <nd ref="1083506637"/>
    <nd ref="1083505288"/>
    <tag k="addr:city" v="Kahla"/>
    <tag k="addr:housenumber" v="6"/>
    <tag k="addr:postcode" v="07768"/>
    <tag k="addr:street" v="Am Kreuz"/>
    <tag k="building" v="yes"/>
  </way>
  <way id="93463996" version="1" timestamp="2011-01-05T13:51:37Z" uid="9581" user="Lobelt" changeset="6871859">
    <nd ref="1083504923"/>
    <nd ref="1083505579"/>
    <nd ref="1083504954"/>
    <nd ref="1083505142"/>
    <nd ref="1083506338"/>
    <nd ref="1083504923"/>
    <tag k="addr:city" v="Kahla"/>
    <tag k="addr:housenumber" v="16"/>
    <tag k="addr:postcode" v="07768"/>
    <tag k="addr:street" v="Bachstraße"/>
    <tag k="building" v="yes"/>
  </way>
  <way id="93463997" version="1" timestamp="2011-01-05T13:51:37Z" uid="9581" user="Lobelt" changeset="6871859">
    <nd ref="1083504964"/>
    <nd ref="1083504925"/>
    <nd ref="1083507002"/>
    <nd ref="1083506341"/>
    <nd ref="1083505620"/>
    <nd ref="1083504964"/>
    <tag k="addr:city" v="Kahla"/>
    <tag k="addr:housenumber" v="14"/>
    <tag k="addr:postcode" v="07768"/>
    <tag k="addr:street" v="Am Kreuz"/>
    <tag k="building" v="yes"/>
  </way>
  <way id="93463998" version="1" timestamp="2011-01-05T13:51:37Z" uid="9581" user="Lobelt" changeset="6871859">
    <nd ref="1083505370"/>
    <nd ref="1083505573"/>
    <nd ref="1083506937"/>
    <nd ref="1083506031"/>
    <nd ref="1083505370"/>
    <tag k="addr:city" v="Kahla"/>
    <tag k="addr:housenumber" v="27"/>
    <tag k="addr:postcode" v="07768"/>
    <tag k="addr:street" v="Schulstraße"/>
    <tag k="building" v="yes"/>
  </way>
  <way id="93463999" version="1" timestamp="2011-01-05T13:51:38Z" uid="9581" user="Lobelt" changeset="6871859">
    <nd ref="1083506307"/>
    <nd ref="1083505271"/>
    <nd ref="1083506810"/>
    <nd ref="1083505455"/>
    <nd ref="1083506307"/>
    <tag k="building" v="yes"/>
  </way>
</osm>
