<?xml version='1.0' encoding='UTF-8'?>
<osm version="0.6" generator="libosmium/2.20.0">
  <way id="9354024" version="2" timestamp="2010-07-07T09:39:38Z" uid="74617" user="JohnSmith" changeset="5156250">
    <nd ref="46252683"/>
    <nd ref="70779889"/>
    <nd ref="70779914"/>
    <nd ref="70779940"/>
    <nd ref="70779956"/>
    <nd ref="70779979"/>
    <nd ref="70781880"/>
    <nd ref="70780002"/>
    <nd ref="70781887"/>
    <nd ref="70780025"/>
    <nd ref="70780050"/>
    <nd ref="70780065"/>
    <nd ref="70780083"/>
    <nd ref="70780104"/>
    <tag k="highway" v="residential"/>
    <tag k="maxspeed" v="50"/>
    <tag k="maxspeed:source" v="default residential speed limit in Australia"/>
    <tag k="name" v="Kalang Place"/>
  </way>
  <way id="9354029" version="2" timestamp="2010-07-07T09:38:19Z" uid="74617" user="JohnSmith" changeset="5156250">
    <nd ref="70780192"/>
    <nd ref="70780681"/>
    <nd ref="70780702"/>
    <nd ref="70780711"/>
    <nd ref="70780726"/>
    <nd ref="70780746"/>
    <nd ref="70780773"/>
    <nd ref="70780795"/>
    <nd ref="70780820"/>
    <nd ref="70780851"/>
    <nd ref="70780874"/>
    <nd ref="70780896"/>
    <nd ref="70780924"/>
    <nd ref="70780950"/>
    <nd ref="70780959"/>
    <nd ref="70780989"/>
    <nd ref="70781018"/>
    <nd ref="70781043"/>
    <nd ref="70781085"/>
    <nd ref="70781111"/>
    <nd ref="70781138"/>
    <nd ref="70781180"/>
    <nd ref="70781207"/>
    <nd ref="70781225"/>
    <nd ref="70781245"/>
    <nd ref="46265563"/>
    <tag k="highway" v="residential"/>
    <tag k="maxspeed" v="50"/>
    <tag k="maxspeed:source" v="default residential speed limit in Australia"/>
    <tag k="name" v="Dora Street"/>
  </way>
  <way id="9354031" version="3" timestamp="2010-07-07T09:19:28Z" uid="74617" user="JohnSmith" changeset="5156250">
    <nd ref="70781859"/>
    <nd ref="70781974"/>
    <nd ref="312121288"/>
    <nd ref="312121289"/>
    <nd ref="312121291"/>
    <nd ref="312121292"/>
    <nd ref="312121294"/>
    <nd ref="312121296"/>
    <nd ref="312121297"/>
    <nd ref="312121299"/>
    <nd ref="312121301"/>
    <nd ref="312121302"/>
    <nd ref="312121304"/>
    <nd ref="304874793"/>
    <nd ref="304874795"/>
    <tag k="highway" v="residential"/>
    <tag k="maxspeed" v="50"/>
    <tag k="maxspeed:source" v="default residential speed limit in Australia"/>
    <tag k="name" v="Florence Fuller Crescent"/>
  </way>
  <way id="9354032" version="2" timestamp="2010-07-07T09:38:42Z" uid="74617" user="JohnSmith" changeset="5156250">
    <nd ref="70780746"/>
    <nd ref="70781374"/>
    <nd ref="70781351"/>
    <nd ref="70781329"/>
    <nd ref="70781311"/>
    <nd ref="70781289"/>
    <nd ref="70781275"/>
    <nd ref="70781261"/>
    <nd ref="70781043"/>
    <tag k="highway" v="residential"/>
    <tag k="maxspeed" v="50"/>
    <tag k="maxspeed:source" v="default residential speed limit in Australia"/>
    <tag k="name" v="Morley Way"/>
  </way>
  <way id="9354034" version="3" timestamp="2010-07-07T09:39:38Z" uid="74617" user="JohnSmith" changeset="5156250">
    <nd ref="46265524"/>
    <nd ref="70781393"/>
    <nd ref="70781412"/>
    <tag k="highway" v="residential"/>
    <tag k="maxspeed" v="50"/>
    <tag k="maxspeed:source" v="default residential speed limit in Australia"/>
    <tag k="name" v="Nyora Place"/>
  </way>
  <way id="9354037" version="3" timestamp="2010-07-07T09:37:21Z" uid="74617" user="JohnSmith" changeset="5156250">
    <nd ref="46265546"/>
    <nd ref="70781494"/>
    <nd ref="70781511"/>
    <nd ref="70781529"/>
    <nd ref="70781697"/>
    <nd ref="70781716"/>
    <nd ref="70781735"/>
    <nd ref="70781753"/>
    <nd ref="70781769"/>
    <tag k="highway" v="residential"/>
    <tag k="maxspeed" v="50"/>
    <tag k="maxspeed:source" v="default residential speed limit in Australia"/>
    <tag k="name" v="Euroka Place"/>
  </way>
  <way id="9354039" version="3" timestamp="2010-07-07T09:38:15Z" uid="74617" user="JohnSmith" changeset="5156250">
    <nd ref="70781529"/>
    <nd ref="70781553"/>
    <nd ref="70781570"/>
    <nd ref="70781581"/>
    <nd ref="70781598"/>
    <nd ref="70781622"/>
    <tag k="highway" v="residential"/>
    <tag k="maxspeed" v="50"/>
    <tag k="maxspeed:source" v="default residential speed limit in Australia"/>
    <tag k="name" v="Birubi Place"/>
  </way>
  <way id="9354053" version="4" timestamp="2010-07-07T09:17:42Z" uid="74617" user="JohnSmith" changeset="5156250">
    <nd ref="70782110"/>
    <nd ref="70782212"/>
    <nd ref="312121307"/>
    <nd ref="312121308"/>
    <nd ref="312121310"/>
    <tag k="highway" v="residential"/>
    <tag k="maxspeed" v="50"/>
    <tag k="maxspeed:source" v="default residential speed limit in Australia"/>
    <tag k="name" v="Freeman Street"/>
  </way>
  <way id="9354064" version="3" timestamp="2010-07-07T09:17:13Z" uid="74617" user="JohnSmith" changeset="5156250">
    <nd ref="70782385"/>
    <nd ref="70782700"/>
    <nd ref="70782701"/>
    <nd ref="70782702"/>
    <tag k="highway" v="residential"/>
    <tag k="maxspeed" v="50"/>
    <tag k="maxspeed:source" v="default residential speed limit in Australia"/>
    <tag k="name" v="Oddie Place"/>
  </way>
  <way id="9354107" version="3" timestamp="2008-07-04T07:37:32Z" uid="6975" user="ulfl" changeset="389415">
    <nd ref="68647412"/>
    <nd ref="70783306"/>
    <nd ref="70783298"/>
    <nd ref="70783325"/>
    <nd ref="70783316"/>
    <nd ref="70783272"/>
    <nd ref="70783266"/>
    <nd ref="70783290"/>
    <nd ref="70783280"/>
    <nd ref="70783380"/>
    <nd ref="70783387"/>
    <nd ref="70783368"/>
    <nd ref="70783375"/>
    <nd ref="70783351"/>
    <nd ref="70783360"/>
    <nd ref="70783331"/>
    <nd ref="70783339"/>
    <nd ref="70783441"/>
    <nd ref="70783452"/>
    <nd ref="70783424"/>
    <nd ref="68647639"/>
    <nd ref="70783410"/>
    <nd ref="70783397"/>
    <nd ref="70783417"/>
    <nd ref="70783404"/>
    <nd ref="70783458"/>
    <tag k="highway" v="tertiary"/>
  </way>
  <way id="9354114" version="3" timestamp="2010-07-07T09:14:18Z" uid="74617" user="JohnSmith" changeset="5156250">
    <nd ref="70782752"/>
    <nd ref="70783685"/>
    <tag k="highway" v="residential"/>
    <tag k="maxspeed" v="50"/>
    <tag k="maxspeed:source" v="default residential speed limit in Australia"/>
    <tag k="name" v="Van Raalte Place"/>
  </way>
  <way id="9354160" version="5" timestamp="2010-07-07T09:10:06Z" uid="74617" user="JohnSmith" changeset="5156250">
    <nd ref="70783782"/>
    <nd ref="70784983"/>
    <nd ref="70786769"/>
    <nd ref="70784984"/>
    <nd ref="70784986"/>
    <nd ref="70784988"/>
    <nd ref="70784989"/>
    <nd ref="70784990"/>
    <nd ref="70784991"/>
    <nd ref="70784992"/>
    <nd ref="70784993"/>
    <nd ref="70786369"/>
    <nd ref="70784995"/>
    <nd ref="70784998"/>
    <nd ref="70784999"/>
    <nd ref="70785000"/>
    <nd ref="70785001"/>
    <nd ref="70785002"/>
    <nd ref="70784983"/>
    <tag k="highway" v="residential"/>
    <tag k="maxspeed" v="50"/>
    <tag k="maxspeed:source" v="default residential speed limit in Australia"/>
    <tag k="name" v="Richardson Circuit"/>
  </way>
  <way id="9354175" version="3" timestamp="2010-07-07T09:19:49Z" uid="74617" user="JohnSmith" changeset="5156250">
    <nd ref="70784988"/>
    <nd ref="70785502"/>
    <nd ref="70785503"/>
    <tag k="highway" v="residential"/>
    <tag k="maxspeed" v="50"/>
    <tag k="maxspeed:source" v="default residential speed limit in Australia"/>
    <tag k="name" v="Curlew Place"/>
  </way>
  <way id="9354180" version="1" timestamp="2007-10-14T12:54:20Z" uid="6454" user="B10xxx" changeset="158289">
    <nd ref="25733095"/>
    <nd ref="12456115"/>
    <tag k="created_by" v="JOSM"/>
    <tag k="highway" v="secondary"/>
    <tag k="ref" v="improve_me"/>
  </way>
  <way id="9354185" version="3" timestamp="2010-07-07T09:10:55Z" uid="74617" user="JohnSmith" changeset="5156250">
    <nd ref="70784999"/>
    <nd ref="70785743"/>
    <tag k="highway" v="residential"/>
    <tag k="maxspeed" v="50"/>
    <tag k="maxspeed:source" v="default residential speed limit in Australia"/>
    <tag k="name" v="Gilks Place"/>
  </way>
  <way id="9354201" version="3" timestamp="2010-07-07T09:13:22Z" uid="74617" user="JohnSmith" changeset="5156250">
    <nd ref="70785000"/>
    <nd ref="70786017"/>
    <nd ref="70786018"/>
    <tag k="highway" v="residential"/>
    <tag k="maxspeed" v="50"/>
    <tag k="maxspeed:source" v="default residential speed limit in Australia"/>
    <tag k="name" v="Lake Place"/>
  </way>
  <way id="9354213" version="4" timestamp="2010-07-07T09:09:39Z" uid="74617" user="JohnSmith" changeset="5156250">
    <nd ref="70786369"/>
    <nd ref="70786683"/>
    <nd ref="70786684"/>
    <nd ref="70786685"/>
    <nd ref="70786687"/>
    <nd ref="70786690"/>
    <tag k="highway" v="residential"/>
    <tag k="maxspeed" v="50"/>
    <tag k="maxspeed:source" v="default residential speed limit in Australia"/>
    <tag k="name" v="Muskett Place"/>
  </way>
  <way id="9354219" version="4" timestamp="2010-07-07T09:19:37Z" uid="74617" user="JohnSmith" changeset="5156250">
    <nd ref="70786769"/>
    <nd ref="70787258"/>
    <nd ref="70787259"/>
    <nd ref="70787260"/>
    <nd ref="70787261"/>
    <nd ref="70787262"/>
    <nd ref="70787263"/>
    <nd ref="70787265"/>
    <nd ref="70787267"/>
    <nd ref="70787269"/>
    <nd ref="70787271"/>
    <nd ref="70787272"/>
    <nd ref="70787273"/>
    <nd ref="70787274"/>
    <nd ref="70787275"/>
    <nd ref="70787803"/>
    <nd ref="70787276"/>
    <tag k="highway" v="residential"/>
    <tag k="maxspeed" v="50"/>
    <tag k="maxspeed:source" v="default residential speed limit in Australia"/>
    <tag k="name" v="Loureiro Street"/>
  </way>
  <way id="9354221" version="3" timestamp="2010-07-07T09:13:36Z" uid="74617" user="JohnSmith" changeset="5156250">
    <nd ref="70787265"/>
    <nd ref="70787422"/>
    <nd ref="70787423"/>
    <nd ref="70787424"/>
    <tag k="highway" v="residential"/>
    <tag k="maxspeed" v="50"/>
    <tag k="maxspeed:source" v="default residential speed limit in Australia"/>
    <tag k="name" v="Coogee Place"/>
  </way>
  <way id="9354223" version="4" timestamp="2010-07-07T09:16:24Z" uid="74617" user="JohnSmith" changeset="5156250">
    <nd ref="70787260"/>
    <nd ref="70787568"/>
    <nd ref="70787569"/>
    <tag k="highway" v="residential"/>
    <tag k="maxspeed" v="50"/>
    <tag k="maxspeed:source" v="default residential speed limit in Australia"/>
    <tag k="name" v="Veal Place"/>
  </way>
  <way id="9354226" version="4" timestamp="2010-07-07T09:10:38Z" uid="74617" user="JohnSmith" changeset="5156250">
    <nd ref="70787262"/>
    <nd ref="70787769"/>
    <nd ref="70787770"/>
    <nd ref="70787771"/>
    <tag k="highway" v="residential"/>
    <tag k="maxspeed" v="50"/>
    <tag k="maxspeed:source" v="default residential speed limit in Australia"/>
    <tag k="name" v="Pinschof Place"/>
  </way>
  <way id="9354229" version="3" timestamp="2010-07-07T09:11:46Z" uid="74617" user="JohnSmith" changeset="5156250">
    <nd ref="70787803"/>
    <nd ref="70788044"/>
    <nd ref="70788045"/>
    <nd ref="70788046"/>
    <nd ref="70788047"/>
    <nd ref="70788048"/>
    <tag k="highway" v="residential"/>
    <tag k="maxspeed" v="50"/>
    <tag k="maxspeed:source" v="default residential speed limit in Australia"/>
    <tag k="name" v="Roughsey Place"/>
  </way>
  <way id="9354278" version="15" timestamp="2010-04-22T08:28:34Z" uid="4467" user="Rosscoe" changeset="4493432">
    <nd ref="70788860"/>
    <nd ref="70790262"/>
    <nd ref="70794230"/>
    <nd ref="70794698"/>
    <nd ref="70790263"/>
    <nd ref="70790264"/>
    <nd ref="70790265"/>
    <nd ref="70790267"/>
    <nd ref="663924725"/>
    <nd ref="70790269"/>
    <nd ref="663924744"/>
    <nd ref="70790272"/>
    <nd ref="663924745"/>
    <nd ref="703597435"/>
    <tag k="highway" v="residential"/>
    <tag k="name" v="James Smith Circuit"/>
  </way>
  <way id="9354278" version="16" timestamp="2010-07-07T09:10:04Z" uid="74617" user="JohnSmith" changeset="5156250">
    <nd ref="70788860"/>
    <nd ref="70790262"/>
    <nd ref="70794230"/>
    <nd ref="70794698"/>
    <nd ref="70790263"/>
    <nd ref="70790264"/>
    <nd ref="70790265"/>
    <nd ref="70790267"/>
    <nd ref="663924725"/>
    <nd ref="70790269"/>
    <nd ref="663924744"/>
    <nd ref="70790272"/>
    <nd ref="663924745"/>
    <nd ref="703597435"/>
    <tag k="highway" v="residential"/>
    <tag k="maxspeed" v="50"/>
    <tag k="maxspeed:source" v="default residential speed limit in Australia"/>
    <tag k="name" v="James Smith Circuit"/>
  </way>
  <way id="9354336" version="3" timestamp="2010-04-22T08:28:34Z" uid="4467" user="Rosscoe" changeset="4493432">
    <nd ref="703597436"/>
    <nd ref="70791938"/>
    <nd ref="70791939"/>
    <nd ref="70791941"/>
    <nd ref="70791942"/>
    <nd ref="70791943"/>
    <nd ref="70791945"/>
    <nd ref="70791947"/>
    <nd ref="70791950"/>
    <tag k="highway" v="residential"/>
    <tag k="name" v="Whiteley Street"/>
  </way>
  <way id="9354336" version="4" timestamp="2010-07-07T09:10:38Z" uid="74617" user="JohnSmith" changeset="5156250">
    <nd ref="703597436"/>
    <nd ref="70791938"/>
    <nd ref="70791939"/>
    <nd ref="70791941"/>
    <nd ref="70791942"/>
    <nd ref="70791943"/>
    <nd ref="70791945"/>
    <nd ref="70791947"/>
    <nd ref="70791950"/>
    <tag k="highway" v="residential"/>
    <tag k="maxspeed" v="50"/>
    <tag k="maxspeed:source" v="default residential speed limit in Australia"/>
    <tag k="name" v="Whiteley Street"/>
  </way>
  <way id="9354352" version="5" timestamp="2010-07-07T09:13:03Z" uid="74617" user="JohnSmith" changeset="5156250">
    <nd ref="70792219"/>
    <nd ref="70792220"/>
    <nd ref="70792221"/>
    <nd ref="70792222"/>
    <nd ref="305097015"/>
    <nd ref="305097016"/>
    <nd ref="305097017"/>
    <nd ref="70793022"/>
    <tag k="highway" v="residential"/>
    <tag k="maxspeed" v="50"/>
    <tag k="maxspeed:source" v="default residential speed limit in Australia"/>
    <tag k="name" v="Dent Place"/>
  </way>
  <way id="9354378" version="4" timestamp="2010-07-07T09:09:40Z" uid="74617" user="JohnSmith" changeset="5156250">
    <nd ref="70792262"/>
    <nd ref="70792454"/>
    <nd ref="70792455"/>
    <tag k="highway" v="residential"/>
    <tag k="maxspeed" v="50"/>
    <tag k="maxspeed:source" v="default residential speed limit in Australia"/>
    <tag k="name" v="Allcot Place"/>
  </way>
  <way id="9354414" version="6" timestamp="2010-07-07T09:11:56Z" uid="74617" user="JohnSmith" changeset="5156250">
    <nd ref="305097070"/>
    <nd ref="70792729"/>
    <nd ref="70792730"/>
    <tag k="highway" v="residential"/>
    <tag k="maxspeed" v="50"/>
    <tag k="maxspeed:source" v="default residential speed limit in Australia"/>
    <tag k="name" v="Plante Place"/>
  </way>
  <way id="9354444" version="6" timestamp="2010-07-07T09:14:34Z" uid="74617" user="JohnSmith" changeset="5156250">
    <nd ref="70792807"/>
    <nd ref="70793020"/>
    <nd ref="70793021"/>
    <nd ref="70793022"/>
    <nd ref="305097018"/>
    <tag k="highway" v="residential"/>
    <tag k="maxspeed" v="50"/>
    <tag k="maxspeed:source" v="default residential speed limit in Australia"/>
    <tag k="name" v="Midwood Court"/>
  </way>
  <way id="9354511" version="3" timestamp="2010-07-07T09:10:19Z" uid="74617" user="JohnSmith" changeset="5156250">
    <nd ref="70793322"/>
    <nd ref="70793539"/>
    <nd ref="70793541"/>
    <nd ref="70793542"/>
    <nd ref="70793543"/>
    <tag k="highway" v="residential"/>
    <tag k="maxspeed" v="50"/>
    <tag k="maxspeed:source" v="default residential speed limit in Australia"/>
    <tag k="name" v="Whitford Place"/>
  </way>
  <way id="9354542" version="4" timestamp="2010-04-22T08:28:35Z" uid="4467" user="Rosscoe" changeset="4493432">
    <nd ref="703597432"/>
    <nd ref="70793836"/>
    <nd ref="70793838"/>
    <nd ref="70793840"/>
    <tag k="highway" v="residential"/>
    <tag k="name" v="Tindall Place"/>
  </way>
  <way id="9354542" version="5" timestamp="2010-07-07T09:10:02Z" uid="74617" user="JohnSmith" changeset="5156250">
    <nd ref="703597432"/>
    <nd ref="70793836"/>
    <nd ref="70793838"/>
    <nd ref="70793840"/>
    <tag k="highway" v="residential"/>
    <tag k="maxspeed" v="50"/>
    <tag k="maxspeed:source" v="default residential speed limit in Australia"/>
    <tag k="name" v="Tindall Place"/>
  </way>
  <way id="9354592" version="4" timestamp="2010-07-07T09:18:13Z" uid="74617" user="JohnSmith" changeset="5156250">
    <nd ref="70790264"/>
    <nd ref="663924736"/>
    <nd ref="70794190"/>
    <nd ref="70794191"/>
    <nd ref="70794193"/>
    <tag k="highway" v="residential"/>
    <tag k="maxspeed" v="50"/>
    <tag k="maxspeed:source" v="default residential speed limit in Australia"/>
    <tag k="name" v="Pryor Place"/>
  </way>
  <way id="9354621" version="4" timestamp="2010-07-07T09:17:09Z" uid="74617" user="JohnSmith" changeset="5156250">
    <nd ref="70794230"/>
    <nd ref="70794568"/>
    <nd ref="70794569"/>
    <nd ref="70794570"/>
    <tag k="highway" v="residential"/>
    <tag k="maxspeed" v="50"/>
    <tag k="maxspeed:source" v="default residential speed limit in Australia"/>
    <tag k="name" v="Ingham Place"/>
  </way>
  <way id="9354629" version="4" timestamp="2010-02-14T15:49:50Z" uid="74617" user="JohnSmith" changeset="3874884">
    <nd ref="70793852"/>
    <nd ref="70793880"/>
    <tag k="highway" v="residential"/>
    <tag k="maxspeed" v="50"/>
    <tag k="name" v="Aberdeen Terrace"/>
  </way>
  <way id="9354637" version="5" timestamp="2010-02-14T15:49:48Z" uid="74617" user="JohnSmith" changeset="3874884">
    <nd ref="70794106"/>
    <nd ref="70793999"/>
    <nd ref="33719931"/>
    <tag k="highway" v="residential"/>
    <tag k="maxspeed" v="50"/>
    <tag k="name" v="Khartoum Street"/>
  </way>
  <way id="9354650" version="9" timestamp="2010-02-14T02:03:20Z" uid="74617" user="JohnSmith" changeset="3870130"/>
  <way id="9354692" version="4" timestamp="2010-02-14T15:49:59Z" uid="74617" user="JohnSmith" changeset="3874884">
    <nd ref="26338183"/>
    <nd ref="70794485"/>
    <nd ref="70794508"/>
    <nd ref="26338185"/>
    <tag k="highway" v="residential"/>
    <tag k="maxspeed" v="50"/>
    <tag k="name" v="Lamington Avenue"/>
    <tag k="oneway" v="yes"/>
  </way>
  <way id="9354708" version="5" timestamp="2010-02-14T15:50:01Z" uid="74617" user="JohnSmith" changeset="3874884">
    <nd ref="26338168"/>
    <nd ref="70794413"/>
    <nd ref="158170310"/>
    <nd ref="70794444"/>
    <nd ref="26338186"/>
    <nd ref="26338185"/>
    <tag k="highway" v="residential"/>
    <tag k="maxspeed" v="50"/>
    <tag k="name" v="Thistle Street"/>
    <tag k="oneway" v="yes"/>
  </way>
  <way id="9354714" version="3" timestamp="2010-02-14T15:49:59Z" uid="74617" user="JohnSmith" changeset="3874884">
    <nd ref="26338185"/>
    <nd ref="70794558"/>
    <nd ref="70794590"/>
    <nd ref="26338183"/>
    <tag k="highway" v="residential"/>
    <tag k="maxspeed" v="50"/>
    <tag k="name" v="Lamington Avenue"/>
    <tag k="oneway" v="yes"/>
  </way>
  <way id="9354760" version="3" timestamp="2010-07-07T09:19:25Z" uid="74617" user="JohnSmith" changeset="5156250">
    <nd ref="70794698"/>
    <nd ref="70795790"/>
    <nd ref="70795791"/>
    <nd ref="70795792"/>
    <nd ref="70795794"/>
    <nd ref="70795795"/>
    <nd ref="70795796"/>
    <nd ref="70795798"/>
    <nd ref="70795800"/>
    <nd ref="70795801"/>
    <nd ref="70795802"/>
    <tag k="highway" v="residential"/>
    <tag k="maxspeed" v="50"/>
    <tag k="maxspeed:source" v="default residential speed limit in Australia"/>
    <tag k="name" v="Montgomery Place"/>
  </way>
  <way id="9354929" version="8" timestamp="2010-07-07T09:17:10Z" uid="74617" user="JohnSmith" changeset="5156250">
    <nd ref="70797176"/>
    <nd ref="663923527"/>
    <nd ref="70797993"/>
    <nd ref="70805953"/>
    <nd ref="70802967"/>
    <nd ref="70797997"/>
    <nd ref="70798419"/>
    <nd ref="70797998"/>
    <nd ref="70798000"/>
    <nd ref="70799027"/>
    <nd ref="70798002"/>
    <nd ref="70798003"/>
    <nd ref="70798004"/>
    <nd ref="70798006"/>
    <nd ref="70798007"/>
    <tag k="highway" v="residential"/>
    <tag k="maxspeed" v="50"/>
    <tag k="maxspeed:source" v="default residential speed limit in Australia"/>
    <tag k="name" v="Feint Street"/>
  </way>
  <way id="9354953" version="2" timestamp="2010-07-07T09:37:53Z" uid="74617" user="JohnSmith" changeset="5156250">
    <nd ref="70798445"/>
    <nd ref="70798803"/>
    <nd ref="70798816"/>
    <nd ref="70798464"/>
    <tag k="highway" v="residential"/>
    <tag k="maxspeed" v="50"/>
    <tag k="maxspeed:source" v="default residential speed limit in Australia"/>
    <tag k="name" v="Kowa Place"/>
  </way>
  <way id="9354955" version="2" timestamp="2010-07-07T09:38:49Z" uid="74617" user="JohnSmith" changeset="5156250">
    <nd ref="70798704"/>
    <nd ref="70798736"/>
    <nd ref="70798747"/>
    <nd ref="70798763"/>
    <nd ref="70798775"/>
    <nd ref="70798790"/>
    <tag k="highway" v="residential"/>
    <tag k="maxspeed" v="50"/>
    <tag k="maxspeed:source" v="default residential speed limit in Australia"/>
    <tag k="name" v="Lerra Street"/>
  </way>
  <way id="9354964" version="4" timestamp="2010-07-07T09:10:15Z" uid="74617" user="JohnSmith" changeset="5156250">
    <nd ref="70798419"/>
    <nd ref="70799002"/>
    <nd ref="70799003"/>
    <nd ref="70799005"/>
    <nd ref="70799006"/>
    <nd ref="70799007"/>
    <nd ref="663923539"/>
    <nd ref="70799008"/>
    <nd ref="70798007"/>
    <nd ref="70799009"/>
    <tag k="highway" v="residential"/>
    <tag k="maxspeed" v="50"/>
    <tag k="maxspeed:source" v="default residential speed limit in Australia"/>
    <tag k="name" v="Sturgeon Street"/>
  </way>
  <way id="9354983" version="4" timestamp="2010-07-07T09:10:44Z" uid="74617" user="JohnSmith" changeset="5156250">
    <nd ref="70799027"/>
    <nd ref="70799390"/>
    <nd ref="70799391"/>
    <tag k="highway" v="residential"/>
    <tag k="maxspeed" v="50"/>
    <tag k="maxspeed:source" v="default residential speed limit in Australia"/>
    <tag k="name" v="Sommers Street"/>
  </way>
</osm>
