<?xml version='1.0' encoding='UTF-8'?>
<osm version="0.6" generator="libosmium/2.20.0">
  <way id="9356034" version="3" timestamp="2010-07-07T09:37:11Z" uid="74617" user="JohnSmith" changeset="5156250">
    <nd ref="46265722"/>
    <nd ref="70822799"/>
    <nd ref="70822822"/>
    <nd ref="70822841"/>
    <nd ref="70822859"/>
    <tag k="highway" v="residential"/>
    <tag k="maxspeed" v="50"/>
    <tag k="maxspeed:source" v="default residential speed limit in Australia"/>
    <tag k="name" v="Minda Place"/>
  </way>
  <way id="9356036" version="3" timestamp="2010-07-07T09:37:28Z" uid="74617" user="JohnSmith" changeset="5156250">
    <nd ref="46265748"/>
    <nd ref="70823777"/>
    <nd ref="70823796"/>
    <nd ref="70823814"/>
    <nd ref="70823837"/>
    <nd ref="70823859"/>
    <nd ref="70823878"/>
    <nd ref="70823894"/>
    <tag k="highway" v="residential"/>
    <tag k="maxspeed" v="50"/>
    <tag k="maxspeed:source" v="default residential speed limit in Australia"/>
    <tag k="name" v="Toolagal Place"/>
  </way>
  <way id="9356038" version="3" timestamp="2010-07-07T09:38:21Z" uid="74617" user="JohnSmith" changeset="5156250">
    <nd ref="46271768"/>
    <nd ref="70822964"/>
    <nd ref="70822983"/>
    <nd ref="70823003"/>
    <nd ref="70823025"/>
    <nd ref="70823254"/>
    <nd ref="70823271"/>
    <nd ref="70823298"/>
    <nd ref="70823318"/>
    <tag k="highway" v="residential"/>
    <tag k="maxspeed" v="50"/>
    <tag k="maxspeed:source" v="default residential speed limit in Australia"/>
    <tag k="name" v="Umina Place"/>
  </way>
  <way id="9356039" version="3" timestamp="2010-07-07T09:38:49Z" uid="74617" user="JohnSmith" changeset="5156250">
    <nd ref="70823025"/>
    <nd ref="70823050"/>
    <nd ref="70823080"/>
    <nd ref="70823109"/>
    <nd ref="70823133"/>
    <nd ref="70823147"/>
    <tag k="highway" v="residential"/>
    <tag k="maxspeed" v="50"/>
    <tag k="maxspeed:source" v="default residential speed limit in Australia"/>
    <tag k="name" v="Uangarra Place"/>
  </way>
  <way id="9356041" version="3" timestamp="2010-07-07T09:39:06Z" uid="74617" user="JohnSmith" changeset="5156250">
    <nd ref="46271789"/>
    <nd ref="70823419"/>
    <nd ref="70823446"/>
    <nd ref="70823471"/>
    <nd ref="70823501"/>
    <nd ref="70823530"/>
    <nd ref="70823544"/>
    <nd ref="70823561"/>
    <nd ref="70823584"/>
    <tag k="highway" v="residential"/>
    <tag k="maxspeed" v="50"/>
    <tag k="maxspeed:source" v="default residential speed limit in Australia"/>
    <tag k="name" v="Goolara Place"/>
  </way>
  <way id="9356043" version="3" timestamp="2010-07-07T09:39:53Z" uid="74617" user="JohnSmith" changeset="5156250">
    <nd ref="70824003"/>
    <nd ref="70823671"/>
    <tag k="highway" v="residential"/>
    <tag k="maxspeed" v="50"/>
    <tag k="maxspeed:source" v="default residential speed limit in Australia"/>
    <tag k="name" v="Elaroo Place"/>
  </way>
  <way id="9356185" version="3" timestamp="2008-07-03T23:11:37Z" uid="6975" user="ulfl" changeset="386611">
    <nd ref="70825599"/>
    <nd ref="70825649"/>
    <nd ref="70825639"/>
    <nd ref="70825636"/>
    <nd ref="70825629"/>
    <nd ref="70825628"/>
    <nd ref="70825623"/>
    <nd ref="70825617"/>
    <nd ref="70825607"/>
    <nd ref="70825603"/>
    <nd ref="70825599"/>
    <tag k="amenity" v="school"/>
    <tag k="building" v="yes"/>
    <tag k="name" v="Lycée Technique de Bonnevoie"/>
  </way>
  <way id="9356199" version="32" timestamp="2011-01-03T01:22:42Z" uid="49111" user="Markus B" changeset="6845646">
    <nd ref="70825565"/>
    <nd ref="1080002132"/>
    <nd ref="70826909"/>
    <nd ref="73630559"/>
    <nd ref="70826911"/>
    <nd ref="83328526"/>
    <nd ref="83329240"/>
    <nd ref="73654087"/>
    <nd ref="70829722"/>
    <tag k="highway" v="residential"/>
    <tag k="maxspeed" v="50"/>
    <tag k="name" v="Kalchbühlstrasse"/>
  </way>
  <way id="9356805" version="3" timestamp="2010-07-07T09:37:42Z" uid="74617" user="JohnSmith" changeset="5156250">
    <nd ref="46271838"/>
    <nd ref="70838198"/>
    <nd ref="70838213"/>
    <nd ref="70838220"/>
    <nd ref="70838228"/>
    <nd ref="70838246"/>
    <nd ref="70838253"/>
    <nd ref="70838262"/>
    <nd ref="70838272"/>
    <nd ref="70838290"/>
    <nd ref="70838316"/>
    <tag k="highway" v="residential"/>
    <tag k="maxspeed" v="50"/>
    <tag k="maxspeed:source" v="default residential speed limit in Australia"/>
    <tag k="name" v="Allambee Street"/>
  </way>
  <way id="9356806" version="2" timestamp="2010-07-07T09:38:08Z" uid="74617" user="JohnSmith" changeset="5156250">
    <nd ref="70838246"/>
    <nd ref="70838406"/>
    <tag k="highway" v="residential"/>
    <tag k="maxspeed" v="50"/>
    <tag k="maxspeed:source" v="default residential speed limit in Australia"/>
    <tag k="name" v="Gurrana Street"/>
  </way>
</osm>
