<?xml version='1.0' encoding='UTF-8'?>
<osm version="0.6" generator="libosmium/2.20.0">
  <way id="93579144" version="1" timestamp="2011-01-06T11:28:50Z" uid="6269" user="Mueck" changeset="6881020">
    <nd ref="1085425127"/>
    <nd ref="318021060"/>
    <nd ref="1027965124"/>
    <nd ref="27200983"/>
    <tag k="highway" v="tertiary"/>
    <tag k="maxspeed" v="50"/>
    <tag k="name" v="Hoebelstraße"/>
    <tag k="surface" v="paved"/>
  </way>
  <way id="93579145" version="1" timestamp="2011-01-06T11:28:50Z" uid="6269" user="Mueck" changeset="6881020">
    <nd ref="1085425141"/>
    <nd ref="318094208"/>
    <nd ref="1085425084"/>
    <nd ref="1085425080"/>
    <nd ref="29759779"/>
    <nd ref="1085425155"/>
    <nd ref="1050126312"/>
    <nd ref="27200981"/>
    <tag k="cycleway" v="lane"/>
    <tag k="embankment" v="yes"/>
    <tag k="highway" v="primary"/>
    <tag k="layer" v="1"/>
    <tag k="maxspeed" v="50"/>
    <tag k="name" v="Georgstraße"/>
    <tag k="note" v="s. Brhv im OSM-Wiki"/>
    <tag k="oneway" v="yes"/>
    <tag k="ref" v="B 6"/>
  </way>
  <way id="93579146" version="1" timestamp="2011-01-06T11:28:50Z" uid="6269" user="Mueck" changeset="6881020">
    <nd ref="1085425070"/>
    <nd ref="987950073"/>
    <tag k="bridge" v="yes"/>
    <tag k="cycleway" v="lane"/>
    <tag k="highway" v="primary"/>
    <tag k="layer" v="1"/>
    <tag k="maxspeed" v="50"/>
    <tag k="name" v="Georgstraße"/>
    <tag k="note" v="s. Brhv im OSM-Wiki"/>
    <tag k="oneway" v="yes"/>
    <tag k="ref" v="B 6"/>
  </way>
  <way id="93579147" version="1" timestamp="2011-01-06T11:28:51Z" uid="6269" user="Mueck" changeset="6881020">
    <nd ref="1085425131"/>
    <nd ref="1085425141"/>
    <tag k="bridge" v="yes"/>
    <tag k="cycleway" v="lane"/>
    <tag k="highway" v="primary"/>
    <tag k="layer" v="1"/>
    <tag k="maxspeed" v="50"/>
    <tag k="name" v="Georgstraße"/>
    <tag k="note" v="s. Brhv im OSM-Wiki"/>
    <tag k="oneway" v="yes"/>
    <tag k="ref" v="B 6"/>
  </way>
  <way id="93579148" version="1" timestamp="2011-01-06T11:28:51Z" uid="6269" user="Mueck" changeset="6881020">
    <nd ref="1085425066"/>
    <nd ref="1085425071"/>
    <nd ref="1085425080"/>
    <nd ref="1085425110"/>
    <nd ref="1085425064"/>
    <tag k="embankment" v="yes"/>
    <tag k="highway" v="tertiary"/>
    <tag k="maxspeed" v="50"/>
    <tag k="name" v="Ostrampe"/>
    <tag k="oneway" v="yes"/>
  </way>
  <way id="93579149" version="1" timestamp="2011-01-06T11:28:51Z" uid="6269" user="Mueck" changeset="6881020">
    <nd ref="1085425141"/>
    <nd ref="1085425091"/>
    <nd ref="1085425119"/>
    <nd ref="1085425043"/>
    <tag k="embankment" v="yes"/>
    <tag k="highway" v="tertiary"/>
    <tag k="maxspeed" v="50"/>
    <tag k="name" v="Ostrampe"/>
    <tag k="oneway" v="yes"/>
  </way>
  <way id="93579150" version="1" timestamp="2011-01-06T11:28:51Z" uid="6269" user="Mueck" changeset="6881020">
    <nd ref="1085425062"/>
    <nd ref="318094179"/>
    <nd ref="841988731"/>
    <tag k="highway" v="tertiary"/>
    <tag k="maxspeed" v="50"/>
    <tag k="name" v="Ostrampe"/>
    <tag k="source" v="GPS-Track"/>
  </way>
  <way id="93579151" version="1" timestamp="2011-01-06T11:28:52Z" uid="6269" user="Mueck" changeset="6881020">
    <nd ref="1085425068"/>
    <nd ref="1085425151"/>
    <nd ref="1085425093"/>
    <nd ref="1085425094"/>
    <nd ref="1085425104"/>
    <nd ref="1085425143"/>
    <nd ref="1085425124"/>
    <tag k="highway" v="steps"/>
  </way>
</osm>
