<?xml version='1.0' encoding='UTF-8'?>
<osm version="0.6" generator="libosmium/2.20.0">
  <way id="94575201" version="2" timestamp="2011-03-12T23:47:55Z" uid="30632" user="antblant" changeset="7539687">
    <nd ref="1098423011"/>
    <nd ref="1098423013"/>
    <nd ref="1098422983"/>
    <nd ref="1098424645"/>
    <nd ref="1098423011"/>
    <tag k="addr:city" v="Gdańsk"/>
    <tag k="addr:country" v="PL"/>
    <tag k="addr:housenumber" v="7"/>
    <tag k="addr:street" v="Konwalii"/>
    <tag k="building" v="yes"/>
    <tag k="source" v="Bing"/>
  </way>
  <way id="94575207" version="2" timestamp="2011-03-12T23:47:42Z" uid="30632" user="antblant" changeset="7539687">
    <nd ref="1098424662"/>
    <nd ref="1098423011"/>
    <nd ref="1098424645"/>
    <nd ref="1098422999"/>
    <nd ref="1098424662"/>
    <tag k="addr:city" v="Gdańsk"/>
    <tag k="addr:country" v="PL"/>
    <tag k="addr:housenumber" v="9"/>
    <tag k="addr:street" v="Konwalii"/>
    <tag k="building" v="yes"/>
    <tag k="source" v="Bing"/>
  </way>
  <way id="94575211" version="2" timestamp="2011-03-12T23:47:49Z" uid="30632" user="antblant" changeset="7539687">
    <nd ref="1098424653"/>
    <nd ref="1098424662"/>
    <nd ref="1098422999"/>
    <nd ref="1098423002"/>
    <nd ref="1098424653"/>
    <tag k="addr:city" v="Gdańsk"/>
    <tag k="addr:country" v="PL"/>
    <tag k="addr:housenumber" v="11"/>
    <tag k="addr:street" v="Konwalii"/>
    <tag k="building" v="yes"/>
    <tag k="source" v="Bing"/>
  </way>
  <way id="94575217" version="2" timestamp="2011-03-12T23:48:14Z" uid="30632" user="antblant" changeset="7539687">
    <nd ref="1098423070"/>
    <nd ref="1098423072"/>
    <nd ref="1098423074"/>
    <nd ref="1098424749"/>
    <nd ref="1098423070"/>
    <tag k="building" v="yes"/>
    <tag k="source" v="Bing"/>
  </way>
  <way id="94575220" version="3" timestamp="2011-03-12T23:47:43Z" uid="30632" user="antblant" changeset="7539687">
    <nd ref="1098424766"/>
    <nd ref="1098424767"/>
    <nd ref="1098423088"/>
    <nd ref="1098424773"/>
    <nd ref="1098424766"/>
    <tag k="addr:city" v="Gdańsk"/>
    <tag k="addr:country" v="PL"/>
    <tag k="addr:housenumber" v="104"/>
    <tag k="addr:street" v="Sebastiana Fabiana Klonowicza"/>
    <tag k="building" v="yes"/>
    <tag k="source" v="Bing"/>
  </way>
  <way id="94575223" version="2" timestamp="2011-03-12T23:48:02Z" uid="30632" user="antblant" changeset="7539687">
    <nd ref="1098424780"/>
    <nd ref="1098423102"/>
    <nd ref="1098424791"/>
    <nd ref="1098423106"/>
    <nd ref="1098424780"/>
    <tag k="building" v="yes"/>
    <tag k="source" v="Bing"/>
  </way>
  <way id="94575225" version="2" timestamp="2011-03-12T23:47:39Z" uid="30632" user="antblant" changeset="7539687">
    <nd ref="1098424795"/>
    <nd ref="1098424806"/>
    <nd ref="1098423119"/>
    <nd ref="1098424808"/>
    <nd ref="1098424811"/>
    <nd ref="1098423123"/>
    <nd ref="1098424795"/>
    <tag k="building" v="yes"/>
    <tag k="source" v="Bing"/>
  </way>
  <way id="94575228" version="3" timestamp="2011-03-12T23:48:00Z" uid="30632" user="antblant" changeset="7539687">
    <nd ref="1098423136"/>
    <nd ref="1098423137"/>
    <nd ref="1098423138"/>
    <nd ref="1098424832"/>
    <nd ref="1098423136"/>
    <tag k="addr:city" v="Gdańsk"/>
    <tag k="addr:country" v="PL"/>
    <tag k="addr:housenumber" v="55"/>
    <tag k="addr:street" v="Żniwna"/>
    <tag k="building" v="yes"/>
    <tag k="source" v="Bing"/>
  </way>
  <way id="94575229" version="3" timestamp="2011-03-12T23:47:47Z" uid="30632" user="antblant" changeset="7539687">
    <nd ref="1098424849"/>
    <nd ref="1098424851"/>
    <nd ref="1098423154"/>
    <nd ref="1098423155"/>
    <nd ref="1098424849"/>
    <tag k="addr:city" v="Gdańsk"/>
    <tag k="addr:country" v="PL"/>
    <tag k="addr:housenumber" v="57"/>
    <tag k="addr:street" v="Żniwna"/>
    <tag k="building" v="yes"/>
    <tag k="source" v="Bing"/>
  </way>
  <way id="94575232" version="2" timestamp="2011-03-12T23:48:17Z" uid="30632" user="antblant" changeset="7539687">
    <nd ref="1098423154"/>
    <nd ref="1098424883"/>
    <nd ref="1098423158"/>
    <nd ref="1098423155"/>
    <nd ref="1098423154"/>
    <tag k="building" v="yes"/>
    <tag k="source" v="Bing"/>
  </way>
  <way id="94575234" version="2" timestamp="2011-03-12T23:47:57Z" uid="30632" user="antblant" changeset="7539687">
    <nd ref="1098423169"/>
    <nd ref="1098424899"/>
    <nd ref="1098423171"/>
    <nd ref="1098423172"/>
    <nd ref="1098423169"/>
    <tag k="building" v="yes"/>
    <tag k="source" v="Bing"/>
  </way>
  <way id="94575236" version="3" timestamp="2011-03-12T23:48:22Z" uid="30632" user="antblant" changeset="7539687">
    <nd ref="1098424935"/>
    <nd ref="1098423185"/>
    <nd ref="1098423188"/>
    <nd ref="1098423190"/>
    <nd ref="1098424935"/>
    <tag k="addr:city" v="Gdańsk"/>
    <tag k="addr:country" v="PL"/>
    <tag k="addr:housenumber" v="65"/>
    <tag k="addr:street" v="Żniwna"/>
    <tag k="building" v="yes"/>
    <tag k="source" v="Bing"/>
  </way>
  <way id="94575239" version="2" timestamp="2011-03-12T23:47:54Z" uid="30632" user="antblant" changeset="7539687">
    <nd ref="1098424963"/>
    <nd ref="1098424966"/>
    <nd ref="1098424967"/>
    <nd ref="1098424983"/>
    <nd ref="1098424963"/>
    <tag k="building" v="yes"/>
    <tag k="source" v="Bing"/>
  </way>
  <way id="94575240" version="2" timestamp="2011-03-12T23:47:43Z" uid="30632" user="antblant" changeset="7539687">
    <nd ref="1098424984"/>
    <nd ref="1098424987"/>
    <nd ref="1098423228"/>
    <nd ref="1098423230"/>
    <nd ref="1098424984"/>
    <tag k="building" v="yes"/>
    <tag k="source" v="Bing"/>
  </way>
  <way id="94575243" version="2" timestamp="2011-03-12T23:48:01Z" uid="30632" user="antblant" changeset="7539687">
    <nd ref="1098425026"/>
    <nd ref="1098425027"/>
    <nd ref="1098425029"/>
    <nd ref="1098423251"/>
    <nd ref="1098425026"/>
    <tag k="building" v="yes"/>
    <tag k="source" v="Bing"/>
  </way>
  <way id="94575244" version="2" timestamp="2011-03-12T23:47:50Z" uid="30632" user="antblant" changeset="7539687">
    <nd ref="1098425029"/>
    <nd ref="1098423259"/>
    <nd ref="1098425060"/>
    <nd ref="1098423251"/>
    <nd ref="1098425029"/>
    <tag k="building" v="yes"/>
    <tag k="source" v="Bing"/>
  </way>
  <way id="94575250" version="2" timestamp="2011-03-12T23:48:15Z" uid="30632" user="antblant" changeset="7539687">
    <nd ref="1098423282"/>
    <nd ref="1098425107"/>
    <nd ref="1098425112"/>
    <nd ref="1098425115"/>
    <nd ref="1098423282"/>
    <tag k="building" v="yes"/>
    <tag k="source" v="Bing"/>
  </way>
  <way id="94575251" version="2" timestamp="2011-03-12T23:48:06Z" uid="30632" user="antblant" changeset="7539687">
    <nd ref="1098423302"/>
    <nd ref="1098425138"/>
    <nd ref="1098425139"/>
    <nd ref="1098425140"/>
    <nd ref="1098423302"/>
    <tag k="building" v="yes"/>
    <tag k="source" v="Bing"/>
  </way>
  <way id="94575253" version="2" timestamp="2011-03-12T23:47:44Z" uid="30632" user="antblant" changeset="7539687">
    <nd ref="1098423322"/>
    <nd ref="1098425163"/>
    <nd ref="1098425164"/>
    <nd ref="1098425166"/>
    <nd ref="1098423322"/>
    <tag k="building" v="yes"/>
    <tag k="source" v="Bing"/>
  </way>
  <way id="94575256" version="2" timestamp="2011-03-12T23:48:02Z" uid="30632" user="antblant" changeset="7539687">
    <nd ref="1098425164"/>
    <nd ref="1098425192"/>
    <nd ref="1098423347"/>
    <nd ref="1098425166"/>
    <nd ref="1098425164"/>
    <tag k="building" v="yes"/>
    <tag k="source" v="Bing"/>
  </way>
  <way id="94575257" version="2" timestamp="2011-03-12T23:47:51Z" uid="30632" user="antblant" changeset="7539687">
    <nd ref="1098425205"/>
    <nd ref="1098423349"/>
    <nd ref="1098423358"/>
    <nd ref="1098423360"/>
    <nd ref="1098425205"/>
    <tag k="building" v="yes"/>
    <tag k="source" v="Bing"/>
  </way>
  <way id="94575260" version="2" timestamp="2011-03-12T23:48:10Z" uid="30632" user="antblant" changeset="7539687">
    <nd ref="1098423364"/>
    <nd ref="1098423365"/>
    <nd ref="1098425229"/>
    <nd ref="1098423379"/>
    <nd ref="1098423364"/>
    <tag k="building" v="yes"/>
    <tag k="source" v="Bing"/>
  </way>
  <way id="94575263" version="2" timestamp="2011-03-12T23:48:24Z" uid="30632" user="antblant" changeset="7539687">
    <nd ref="1098425239"/>
    <nd ref="1098425242"/>
    <nd ref="1098423390"/>
    <nd ref="1098423395"/>
    <nd ref="1098425239"/>
    <tag k="building" v="yes"/>
    <tag k="source" v="Bing"/>
  </way>
  <way id="94575264" version="2" timestamp="2011-03-12T23:48:24Z" uid="30632" user="antblant" changeset="7539687">
    <nd ref="1098423400"/>
    <nd ref="1098423404"/>
    <nd ref="1098425263"/>
    <nd ref="1098425268"/>
    <nd ref="1098423400"/>
    <tag k="building" v="yes"/>
    <tag k="source" v="Bing"/>
  </way>
  <way id="94575266" version="2" timestamp="2011-03-12T23:48:09Z" uid="30632" user="antblant" changeset="7539687">
    <nd ref="1098425263"/>
    <nd ref="1098425279"/>
    <nd ref="1098425281"/>
    <nd ref="1098425268"/>
    <nd ref="1098425263"/>
    <tag k="building" v="yes"/>
    <tag k="source" v="Bing"/>
  </way>
  <way id="94575269" version="2" timestamp="2011-03-12T23:48:22Z" uid="30632" user="antblant" changeset="7539687">
    <nd ref="1098425298"/>
    <nd ref="1098425300"/>
    <nd ref="1098423435"/>
    <nd ref="1098423438"/>
    <nd ref="1098425298"/>
    <tag k="building" v="yes"/>
    <tag k="source" v="Bing"/>
  </way>
  <way id="94575270" version="3" timestamp="2011-03-12T23:48:15Z" uid="30632" user="antblant" changeset="7539687">
    <nd ref="1098425322"/>
    <nd ref="1098423454"/>
    <nd ref="1098423455"/>
    <nd ref="1098425326"/>
    <nd ref="1098425327"/>
    <nd ref="1098423459"/>
    <nd ref="1098425322"/>
    <tag k="addr:city" v="Gdańsk"/>
    <tag k="addr:country" v="PL"/>
    <tag k="addr:housenumber" v="37"/>
    <tag k="addr:street" v="Żniwna"/>
    <tag k="building" v="yes"/>
    <tag k="source" v="Bing"/>
  </way>
  <way id="94575272" version="3" timestamp="2011-03-12T23:47:54Z" uid="30632" user="antblant" changeset="7539687">
    <nd ref="1098423476"/>
    <nd ref="1098423479"/>
    <nd ref="1098425352"/>
    <nd ref="1098425354"/>
    <nd ref="1098423476"/>
    <tag k="addr:city" v="Gdańsk"/>
    <tag k="addr:country" v="PL"/>
    <tag k="addr:housenumber" v="33"/>
    <tag k="addr:street" v="Żniwna"/>
    <tag k="building" v="yes"/>
    <tag k="source" v="Bing"/>
  </way>
  <way id="94575273" version="2" timestamp="2011-03-12T23:47:44Z" uid="30632" user="antblant" changeset="7539687">
    <nd ref="1098423479"/>
    <nd ref="1098423496"/>
    <nd ref="1098423497"/>
    <nd ref="1098425352"/>
    <nd ref="1098423479"/>
    <tag k="building" v="yes"/>
    <tag k="source" v="Bing"/>
  </way>
  <way id="94575274" version="2" timestamp="2011-03-12T23:48:19Z" uid="30632" user="antblant" changeset="7539687">
    <nd ref="1098425385"/>
    <nd ref="1098425390"/>
    <nd ref="1098425394"/>
    <nd ref="1098423517"/>
    <nd ref="1098425385"/>
    <tag k="building" v="yes"/>
    <tag k="source" v="Bing"/>
  </way>
  <way id="94575275" version="2" timestamp="2011-03-12T23:48:13Z" uid="30632" user="antblant" changeset="7539687">
    <nd ref="1098425418"/>
    <nd ref="1098423527"/>
    <nd ref="1098425422"/>
    <nd ref="1098423542"/>
    <nd ref="1098425427"/>
    <nd ref="1098425428"/>
    <nd ref="1098425418"/>
    <tag k="building" v="yes"/>
    <tag k="source" v="Bing"/>
  </way>
  <way id="94575278" version="2" timestamp="2011-03-12T23:47:40Z" uid="30632" user="antblant" changeset="7539687">
    <nd ref="1098423554"/>
    <nd ref="1098425446"/>
    <nd ref="1098425447"/>
    <nd ref="1098423574"/>
    <nd ref="1098423554"/>
    <tag k="building" v="yes"/>
    <tag k="source" v="Bing"/>
  </way>
  <way id="94575281" version="3" timestamp="2011-03-12T23:47:47Z" uid="30632" user="antblant" changeset="7539687">
    <nd ref="1098423576"/>
    <nd ref="1098425474"/>
    <nd ref="1098425477"/>
    <nd ref="1098423595"/>
    <nd ref="1098423576"/>
    <tag k="addr:city" v="Gdańsk"/>
    <tag k="addr:country" v="PL"/>
    <tag k="addr:housenumber" v="11"/>
    <tag k="addr:street" v="Żniwna"/>
    <tag k="building" v="yes"/>
    <tag k="source" v="Bing"/>
  </way>
  <way id="94575284" version="3" timestamp="2011-03-12T23:48:07Z" uid="30632" user="antblant" changeset="7539687">
    <nd ref="1098423598"/>
    <nd ref="1098423599"/>
    <nd ref="1098425501"/>
    <nd ref="1098425505"/>
    <nd ref="1098423598"/>
    <tag k="addr:city" v="Gdańsk"/>
    <tag k="addr:country" v="PL"/>
    <tag k="addr:housenumber" v="13"/>
    <tag k="addr:street" v="Żniwna"/>
    <tag k="building" v="yes"/>
    <tag k="source" v="Bing"/>
  </way>
  <way id="94575308" version="2" timestamp="2011-03-12T23:48:30Z" uid="30632" user="antblant" changeset="7539687"/>
  <way id="94575312" version="2" timestamp="2011-03-12T23:48:29Z" uid="30632" user="antblant" changeset="7539687"/>
  <way id="94575314" version="2" timestamp="2011-03-12T23:48:26Z" uid="30632" user="antblant" changeset="7539687"/>
  <way id="94575317" version="2" timestamp="2011-03-12T23:48:29Z" uid="30632" user="antblant" changeset="7539687"/>
  <way id="94575320" version="2" timestamp="2011-03-12T23:48:32Z" uid="30632" user="antblant" changeset="7539687"/>
  <way id="94575322" version="2" timestamp="2011-03-12T23:48:28Z" uid="30632" user="antblant" changeset="7539687"/>
  <way id="94575328" version="3" timestamp="2011-03-12T23:48:01Z" uid="30632" user="antblant" changeset="7539687">
    <nd ref="1098423070"/>
    <nd ref="1098423072"/>
    <nd ref="1098423074"/>
    <nd ref="1098424749"/>
    <nd ref="1098423070"/>
    <tag k="addr:city" v="Gdańsk"/>
    <tag k="addr:country" v="PL"/>
    <tag k="addr:housenumber" v="106"/>
    <tag k="addr:street" v="Sebastiana Fabiana Klonowicza"/>
    <tag k="building" v="yes"/>
    <tag k="source" v="Bing"/>
  </way>
  <way id="94575329" version="2" timestamp="2011-03-12T23:47:50Z" uid="30632" user="antblant" changeset="7539687">
    <nd ref="1098424766"/>
    <nd ref="1098424767"/>
    <nd ref="1098423088"/>
    <nd ref="1098424773"/>
    <nd ref="1098424766"/>
    <tag k="building" v="yes"/>
    <tag k="source" v="Bing"/>
  </way>
  <way id="94575331" version="3" timestamp="2011-03-12T23:48:18Z" uid="30632" user="antblant" changeset="7539687">
    <nd ref="1098424780"/>
    <nd ref="1098423102"/>
    <nd ref="1098424791"/>
    <nd ref="1098423106"/>
    <nd ref="1098424780"/>
    <tag k="addr:city" v="Gdańsk"/>
    <tag k="addr:country" v="PL"/>
    <tag k="addr:housenumber" v="102"/>
    <tag k="addr:street" v="Sebastiana Fabiana Klonowicza"/>
    <tag k="building" v="yes"/>
    <tag k="source" v="Bing"/>
  </way>
  <way id="94575332" version="3" timestamp="2011-03-12T23:48:10Z" uid="30632" user="antblant" changeset="7539687">
    <nd ref="1098424795"/>
    <nd ref="1098424806"/>
    <nd ref="1098423119"/>
    <nd ref="1098424808"/>
    <nd ref="1098424811"/>
    <nd ref="1098423123"/>
    <nd ref="1098424795"/>
    <tag k="addr:city" v="Gdańsk"/>
    <tag k="addr:country" v="PL"/>
    <tag k="addr:housenumber" v="2"/>
    <tag k="addr:street" v="Konwalii"/>
    <tag k="building" v="yes"/>
    <tag k="source" v="Bing"/>
  </way>
  <way id="94575333" version="2" timestamp="2011-03-12T23:47:59Z" uid="30632" user="antblant" changeset="7539687">
    <nd ref="1098423136"/>
    <nd ref="1098423137"/>
    <nd ref="1098423138"/>
    <nd ref="1098424832"/>
    <nd ref="1098423136"/>
    <tag k="building" v="yes"/>
    <tag k="source" v="Bing"/>
  </way>
  <way id="94575334" version="2" timestamp="2011-03-12T23:47:47Z" uid="30632" user="antblant" changeset="7539687">
    <nd ref="1098424849"/>
    <nd ref="1098424851"/>
    <nd ref="1098423154"/>
    <nd ref="1098423155"/>
    <nd ref="1098424849"/>
    <tag k="building" v="yes"/>
    <tag k="source" v="Bing"/>
  </way>
  <way id="94575335" version="3" timestamp="2011-03-12T23:48:23Z" uid="30632" user="antblant" changeset="7539687">
    <nd ref="1098423154"/>
    <nd ref="1098424883"/>
    <nd ref="1098423158"/>
    <nd ref="1098423155"/>
    <nd ref="1098423154"/>
    <tag k="addr:city" v="Gdańsk"/>
    <tag k="addr:country" v="PL"/>
    <tag k="addr:housenumber" v="59"/>
    <tag k="addr:street" v="Żniwna"/>
    <tag k="building" v="yes"/>
    <tag k="source" v="Bing"/>
  </way>
  <way id="94575336" version="3" timestamp="2011-03-12T23:48:16Z" uid="30632" user="antblant" changeset="7539687">
    <nd ref="1098423169"/>
    <nd ref="1098424899"/>
    <nd ref="1098423171"/>
    <nd ref="1098423172"/>
    <nd ref="1098423169"/>
    <tag k="addr:city" v="Gdańsk"/>
    <tag k="addr:country" v="PL"/>
    <tag k="addr:housenumber" v="61"/>
    <tag k="addr:street" v="Żniwna"/>
    <tag k="building" v="yes"/>
    <tag k="source" v="Bing"/>
  </way>
  <way id="94575337" version="3" timestamp="2011-03-12T23:48:07Z" uid="30632" user="antblant" changeset="7539687">
    <nd ref="1098424935"/>
    <nd ref="1098423185"/>
    <nd ref="1098423188"/>
    <nd ref="1098828776"/>
    <nd ref="1098423190"/>
    <nd ref="1098424935"/>
    <tag k="building" v="yes"/>
    <tag k="source" v="Bing"/>
  </way>
  <way id="94575340" version="3" timestamp="2011-03-12T23:48:21Z" uid="30632" user="antblant" changeset="7539687">
    <nd ref="1098424984"/>
    <nd ref="1098424987"/>
    <nd ref="1098423228"/>
    <nd ref="1098423230"/>
    <nd ref="1098424984"/>
    <tag k="addr:city" v="Gdańsk"/>
    <tag k="addr:country" v="PL"/>
    <tag k="addr:housenumber" v="58"/>
    <tag k="addr:street" v="Żniwna"/>
    <tag k="building" v="yes"/>
    <tag k="source" v="Bing"/>
  </way>
  <way id="94575341" version="3" timestamp="2011-03-12T23:48:13Z" uid="30632" user="antblant" changeset="7539687">
    <nd ref="1098425026"/>
    <nd ref="1098425027"/>
    <nd ref="1098425029"/>
    <nd ref="1098423251"/>
    <nd ref="1098425026"/>
    <tag k="addr:city" v="Gdańsk"/>
    <tag k="addr:country" v="PL"/>
    <tag k="addr:housenumber" v="62"/>
    <tag k="addr:street" v="Żniwna"/>
    <tag k="building" v="yes"/>
    <tag k="source" v="Bing"/>
  </way>
  <way id="94575342" version="3" timestamp="2011-03-12T23:48:04Z" uid="30632" user="antblant" changeset="7539687">
    <nd ref="1098425029"/>
    <nd ref="1098423259"/>
    <nd ref="1098425060"/>
    <nd ref="1098423251"/>
    <nd ref="1098425029"/>
    <tag k="addr:city" v="Gdańsk"/>
    <tag k="addr:country" v="PL"/>
    <tag k="addr:housenumber" v="64"/>
    <tag k="addr:street" v="Żniwna"/>
    <tag k="building" v="yes"/>
    <tag k="source" v="Bing"/>
  </way>
  <way id="94575345" version="2" timestamp="2011-03-12T23:48:11Z" uid="30632" user="antblant" changeset="7539687">
    <nd ref="1098423263"/>
    <nd ref="1098423265"/>
    <nd ref="1098423267"/>
    <nd ref="1098423279"/>
    <nd ref="1098423263"/>
    <tag k="building" v="yes"/>
    <tag k="source" v="Bing"/>
  </way>
  <way id="94575350" version="3" timestamp="2011-03-12T23:48:08Z" uid="30632" user="antblant" changeset="7539687">
    <nd ref="1098423282"/>
    <nd ref="1098425107"/>
    <nd ref="1098425112"/>
    <nd ref="1098425115"/>
    <nd ref="1098423282"/>
    <tag k="addr:city" v="Gdańsk"/>
    <tag k="addr:country" v="PL"/>
    <tag k="addr:housenumber" v="68"/>
    <tag k="addr:street" v="Żniwna"/>
    <tag k="building" v="yes"/>
    <tag k="source" v="Bing"/>
  </way>
  <way id="94575355" version="3" timestamp="2011-03-12T23:48:05Z" uid="30632" user="antblant" changeset="7539687">
    <nd ref="1098423302"/>
    <nd ref="1098425138"/>
    <nd ref="1098425139"/>
    <nd ref="1098425140"/>
    <nd ref="1098423302"/>
    <tag k="addr:city" v="Gdańsk"/>
    <tag k="addr:country" v="PL"/>
    <tag k="addr:housenumber" v="39"/>
    <tag k="addr:street" v="Zaścianek"/>
    <tag k="building" v="yes"/>
    <tag k="source" v="Bing"/>
  </way>
  <way id="94575359" version="3" timestamp="2011-03-12T23:48:12Z" uid="30632" user="antblant" changeset="7539687">
    <nd ref="1098423322"/>
    <nd ref="1098425163"/>
    <nd ref="1098425164"/>
    <nd ref="1098425166"/>
    <nd ref="1098423322"/>
    <tag k="addr:city" v="Gdańsk"/>
    <tag k="addr:country" v="PL"/>
    <tag k="addr:housenumber" v="35"/>
    <tag k="addr:street" v="Zaścianek"/>
    <tag k="building" v="yes"/>
    <tag k="source" v="Bing"/>
  </way>
  <way id="94575362" version="3" timestamp="2011-03-12T23:48:12Z" uid="30632" user="antblant" changeset="7539687">
    <nd ref="1098425164"/>
    <nd ref="1098425192"/>
    <nd ref="1098423347"/>
    <nd ref="1098425166"/>
    <nd ref="1098425164"/>
    <tag k="addr:city" v="Gdańsk"/>
    <tag k="addr:country" v="PL"/>
    <tag k="addr:housenumber" v="37"/>
    <tag k="addr:street" v="Zaścianek"/>
    <tag k="building" v="yes"/>
    <tag k="source" v="Bing"/>
  </way>
  <way id="94575364" version="3" timestamp="2011-03-12T23:47:49Z" uid="30632" user="antblant" changeset="7539687">
    <nd ref="1098425205"/>
    <nd ref="1098423349"/>
    <nd ref="1098423358"/>
    <nd ref="1098423360"/>
    <nd ref="1098425205"/>
    <tag k="addr:city" v="Gdańsk"/>
    <tag k="addr:country" v="PL"/>
    <tag k="addr:housenumber" v="33"/>
    <tag k="addr:street" v="Zaścianek"/>
    <tag k="building" v="yes"/>
    <tag k="source" v="Bing"/>
  </way>
  <way id="94575368" version="3" timestamp="2011-03-12T23:47:58Z" uid="30632" user="antblant" changeset="7539687">
    <nd ref="1098423364"/>
    <nd ref="1098423365"/>
    <nd ref="1098425229"/>
    <nd ref="1098423379"/>
    <nd ref="1098423364"/>
    <tag k="addr:city" v="Gdańsk"/>
    <tag k="addr:country" v="PL"/>
    <tag k="addr:housenumber" v="29"/>
    <tag k="addr:street" v="Zaścianek"/>
    <tag k="building" v="yes"/>
    <tag k="source" v="Bing"/>
  </way>
  <way id="94575372" version="3" timestamp="2011-03-12T23:48:06Z" uid="30632" user="antblant" changeset="7539687">
    <nd ref="1098425239"/>
    <nd ref="1098425242"/>
    <nd ref="1098423390"/>
    <nd ref="1098423395"/>
    <nd ref="1098425239"/>
    <tag k="addr:city" v="Gdańsk"/>
    <tag k="addr:country" v="PL"/>
    <tag k="addr:housenumber" v="25"/>
    <tag k="addr:street" v="Zaścianek"/>
    <tag k="building" v="yes"/>
    <tag k="source" v="Bing"/>
  </way>
  <way id="94575375" version="3" timestamp="2011-03-12T23:48:20Z" uid="30632" user="antblant" changeset="7539687">
    <nd ref="1098423400"/>
    <nd ref="1098423404"/>
    <nd ref="1098425263"/>
    <nd ref="1098425268"/>
    <nd ref="1098423400"/>
    <tag k="addr:city" v="Gdańsk"/>
    <tag k="addr:country" v="PL"/>
    <tag k="addr:housenumber" v="43"/>
    <tag k="addr:street" v="Żniwna"/>
    <tag k="building" v="yes"/>
    <tag k="source" v="Bing"/>
  </way>
  <way id="94575381" version="3" timestamp="2011-03-12T23:48:00Z" uid="30632" user="antblant" changeset="7539687">
    <nd ref="1098425298"/>
    <nd ref="1098425300"/>
    <nd ref="1098423435"/>
    <nd ref="1098423438"/>
    <nd ref="1098425298"/>
    <tag k="addr:city" v="Gdańsk"/>
    <tag k="addr:country" v="PL"/>
    <tag k="addr:housenumber" v="39"/>
    <tag k="addr:street" v="Żniwna"/>
    <tag k="building" v="yes"/>
    <tag k="source" v="Bing"/>
  </way>
  <way id="94575383" version="2" timestamp="2011-03-12T23:48:24Z" uid="30632" user="antblant" changeset="7539687">
    <nd ref="1098425322"/>
    <nd ref="1098423454"/>
    <nd ref="1098423455"/>
    <nd ref="1098425326"/>
    <nd ref="1098425327"/>
    <nd ref="1098423459"/>
    <nd ref="1098425322"/>
    <tag k="building" v="yes"/>
    <tag k="source" v="Bing"/>
  </way>
  <way id="94575384" version="3" timestamp="2011-03-12T23:48:16Z" uid="30632" user="antblant" changeset="7539687">
    <nd ref="1098423476"/>
    <nd ref="1098423479"/>
    <nd ref="1098425352"/>
    <nd ref="1098425354"/>
    <nd ref="1098423476"/>
    <tag k="addr:city" v="Gdańsk"/>
    <tag k="addr:country" v="PL"/>
    <tag k="addr:housenumber" v="0"/>
    <tag k="addr:street" v="Żniwna"/>
    <tag k="building" v="yes"/>
    <tag k="source" v="Bing"/>
  </way>
  <way id="94575385" version="3" timestamp="2011-03-12T23:48:07Z" uid="30632" user="antblant" changeset="7539687">
    <nd ref="1098423479"/>
    <nd ref="1098423496"/>
    <nd ref="1098423497"/>
    <nd ref="1098425352"/>
    <nd ref="1098423479"/>
    <tag k="addr:city" v="Gdańsk"/>
    <tag k="addr:country" v="PL"/>
    <tag k="addr:housenumber" v="35"/>
    <tag k="addr:street" v="Żniwna"/>
    <tag k="building" v="yes"/>
    <tag k="source" v="Bing"/>
  </way>
  <way id="94575386" version="3" timestamp="2011-03-12T23:47:56Z" uid="30632" user="antblant" changeset="7539687">
    <nd ref="1098425385"/>
    <nd ref="1098425390"/>
    <nd ref="1098425394"/>
    <nd ref="1098423517"/>
    <nd ref="1098425385"/>
    <tag k="addr:city" v="Gdańsk"/>
    <tag k="addr:country" v="PL"/>
    <tag k="addr:housenumber" v="31"/>
    <tag k="addr:street" v="Żniwna"/>
    <tag k="building" v="yes"/>
    <tag k="source" v="Bing"/>
  </way>
  <way id="94575387" version="3" timestamp="2011-03-12T23:47:45Z" uid="30632" user="antblant" changeset="7539687">
    <nd ref="1098425418"/>
    <nd ref="1098423527"/>
    <nd ref="1098425422"/>
    <nd ref="1098423542"/>
    <nd ref="1098425427"/>
    <nd ref="1098425428"/>
    <nd ref="1098425418"/>
    <tag k="addr:city" v="Gdańsk"/>
    <tag k="addr:country" v="PL"/>
    <tag k="addr:housenumber" v="29"/>
    <tag k="addr:street" v="Żniwna"/>
    <tag k="building" v="yes"/>
    <tag k="source" v="Bing"/>
  </way>
  <way id="94575388" version="3" timestamp="2011-03-12T23:48:22Z" uid="30632" user="antblant" changeset="7539687">
    <nd ref="1098423554"/>
    <nd ref="1098425446"/>
    <nd ref="1098425447"/>
    <nd ref="1098423574"/>
    <nd ref="1098423554"/>
    <tag k="addr:city" v="Gdańsk"/>
    <tag k="addr:country" v="PL"/>
    <tag k="addr:housenumber" v="27"/>
    <tag k="addr:street" v="Żniwna"/>
    <tag k="building" v="yes"/>
    <tag k="source" v="Bing"/>
  </way>
  <way id="94575389" version="2" timestamp="2011-03-12T23:48:14Z" uid="30632" user="antblant" changeset="7539687">
    <nd ref="1098423576"/>
    <nd ref="1098425474"/>
    <nd ref="1098425477"/>
    <nd ref="1098423595"/>
    <nd ref="1098423576"/>
    <tag k="building" v="yes"/>
    <tag k="source" v="Bing"/>
  </way>
  <way id="94575390" version="2" timestamp="2011-03-12T23:48:05Z" uid="30632" user="antblant" changeset="7539687">
    <nd ref="1098423598"/>
    <nd ref="1098423599"/>
    <nd ref="1098425501"/>
    <nd ref="1098425505"/>
    <nd ref="1098423598"/>
    <tag k="building" v="yes"/>
    <tag k="source" v="Bing"/>
  </way>
</osm>
