<?xml version='1.0' encoding='UTF-8'?>
<osm version="0.6" generator="libosmium/2.20.0">
  <way id="94586329" version="3" timestamp="2011-03-04T21:21:26Z" uid="9581" user="Lobelt" changeset="7458182">
    <nd ref="298996666"/>
    <nd ref="298996681"/>
    <nd ref="1081099493"/>
    <nd ref="20978182"/>
    <nd ref="20978191"/>
    <nd ref="297885312"/>
    <nd ref="297885317"/>
    <tag k="highway" v="primary"/>
    <tag k="lanes" v="2"/>
    <tag k="maxspeed" v="70"/>
    <tag k="motorroad" v="yes"/>
    <tag k="name" v="Wilhelm-Varnholt-Allee"/>
    <tag k="oneway" v="yes"/>
    <tag k="ref" v="B 37"/>
    <tag k="source:maxspeed" v="sign"/>
  </way>
  <way id="94586334" version="3" timestamp="2011-03-04T21:21:32Z" uid="9581" user="Lobelt" changeset="7458182">
    <nd ref="298996653"/>
    <nd ref="298996666"/>
    <tag k="highway" v="primary"/>
    <tag k="lanes" v="2"/>
    <tag k="maxspeed" v="70"/>
    <tag k="motorroad" v="yes"/>
    <tag k="name" v="Wilhelm-Varnholt-Allee"/>
    <tag k="oneway" v="yes"/>
    <tag k="ref" v="B 37"/>
    <tag k="source:maxspeed" v="sign"/>
  </way>
</osm>
