<?xml version='1.0' encoding='UTF-8'?>
<osm version="0.6" generator="libosmium/2.20.0">
  <way id="94692972" version="1" timestamp="2011-01-12T08:35:11Z" uid="115477" user="wowik" changeset="6944949">
    <nd ref="428589872"/>
    <nd ref="428589872"/>
    <nd ref="1099388618"/>
    <nd ref="428590203"/>
    <nd ref="428589902"/>
    <nd ref="428590088"/>
    <nd ref="1099388621"/>
    <nd ref="428589872"/>
    <tag k="amenity" v="school"/>
    <tag k="building" v="yes"/>
    <tag k="building:levels" v="2"/>
  </way>
  <way id="94692972" version="2" timestamp="2011-01-12T16:45:22Z" uid="115477" user="wowik" changeset="6948926">
    <nd ref="1099388618"/>
    <nd ref="428590203"/>
    <nd ref="428589902"/>
    <nd ref="428590088"/>
    <nd ref="1100210824"/>
    <nd ref="1099388618"/>
    <tag k="addr:postcode" v="124482"/>
    <tag k="amenity" v="school"/>
    <tag k="building" v="yes"/>
    <tag k="building:levels" v="2"/>
  </way>
  <way id="94692973" version="1" timestamp="2011-01-12T08:35:12Z" uid="115477" user="wowik" changeset="6944949">
    <nd ref="428589872"/>
    <nd ref="428589906"/>
    <nd ref="428590205"/>
    <nd ref="428590285"/>
    <nd ref="428589879"/>
    <nd ref="428590206"/>
    <nd ref="428589960"/>
    <nd ref="428590327"/>
    <nd ref="428590313"/>
    <nd ref="428590130"/>
    <nd ref="428590300"/>
    <nd ref="428589907"/>
    <nd ref="1099388633"/>
    <nd ref="1099388618"/>
    <nd ref="428589872"/>
    <tag k="addr:city" v="Зеленоград"/>
    <tag k="addr:housenumber" v="314А"/>
    <tag k="addr:street" v="3-й Микрорайон"/>
    <tag k="amenity" v="school"/>
    <tag k="building" v="yes"/>
    <tag k="building:levels" v="3"/>
    <tag k="is_in" v="Russia"/>
    <tag k="name" v="Школа №609"/>
    <tag k="website" v="http://s609.zouo.ru"/>
  </way>
  <way id="94692973" version="2" timestamp="2011-01-12T16:44:55Z" uid="115477" user="wowik" changeset="6948926">
    <nd ref="1099388618"/>
    <nd ref="1100210824"/>
    <nd ref="428589906"/>
    <nd ref="428590205"/>
    <nd ref="428590285"/>
    <nd ref="428589879"/>
    <nd ref="428590206"/>
    <nd ref="428589960"/>
    <nd ref="428590327"/>
    <nd ref="428590313"/>
    <nd ref="428590130"/>
    <nd ref="428590300"/>
    <nd ref="428589907"/>
    <nd ref="1099388633"/>
    <nd ref="1099388618"/>
    <tag k="addr:city" v="Зеленоград"/>
    <tag k="addr:housenumber" v="314А"/>
    <tag k="addr:postcode" v="124482"/>
    <tag k="addr:street" v="3-й Микрорайон"/>
    <tag k="amenity" v="school"/>
    <tag k="building" v="yes"/>
    <tag k="building:levels" v="3"/>
    <tag k="is_in" v="Russia"/>
    <tag k="name" v="Школа №609"/>
    <tag k="website" v="http://s609.zouo.ru"/>
  </way>
  <way id="94692973" version="3" timestamp="2011-01-25T18:14:21Z" uid="115477" user="wowik" changeset="7086130">
    <nd ref="1099388618"/>
    <nd ref="1100210824"/>
    <nd ref="428589906"/>
    <nd ref="428590205"/>
    <nd ref="428590285"/>
    <nd ref="428589879"/>
    <nd ref="428590206"/>
    <nd ref="428589960"/>
    <nd ref="428590327"/>
    <nd ref="428590313"/>
    <nd ref="428590130"/>
    <nd ref="428590300"/>
    <nd ref="428589907"/>
    <nd ref="1099388633"/>
    <nd ref="1099388618"/>
    <tag k="addr:city" v="Зеленоград"/>
    <tag k="addr:housenumber" v="314"/>
    <tag k="addr:postcode" v="124482"/>
    <tag k="addr:street" v="3-й Микрорайон"/>
    <tag k="amenity" v="school"/>
    <tag k="building" v="yes"/>
    <tag k="building:levels" v="3"/>
    <tag k="is_in" v="Russia"/>
    <tag k="name" v="Школа №609"/>
    <tag k="website" v="http://s609.zouo.ru"/>
  </way>
  <way id="94692974" version="1" timestamp="2011-01-12T08:35:13Z" uid="115477" user="wowik" changeset="6944949">
    <nd ref="982648082"/>
    <nd ref="1099388654"/>
    <nd ref="1099388656"/>
    <nd ref="428590132"/>
    <nd ref="428589982"/>
    <nd ref="428590000"/>
    <nd ref="982648082"/>
    <tag k="amenity" v="school"/>
    <tag k="building" v="yes"/>
    <tag k="building:levels" v="2"/>
  </way>
  <way id="94692974" version="2" timestamp="2011-01-12T16:45:31Z" uid="115477" user="wowik" changeset="6948926">
    <nd ref="982648082"/>
    <nd ref="1099388654"/>
    <nd ref="1099388656"/>
    <nd ref="428590132"/>
    <nd ref="428589982"/>
    <nd ref="428590000"/>
    <nd ref="982648082"/>
    <tag k="addr:postcode" v="124482"/>
    <tag k="amenity" v="school"/>
    <tag k="building" v="yes"/>
    <tag k="building:levels" v="2"/>
  </way>
  <way id="94692975" version="1" timestamp="2011-01-12T08:35:14Z" uid="115477" user="wowik" changeset="6944949">
    <nd ref="1099388633"/>
    <nd ref="1099388654"/>
    <nd ref="1099388656"/>
    <nd ref="428589907"/>
    <nd ref="1099388633"/>
    <tag k="amenity" v="school"/>
    <tag k="building" v="yes"/>
    <tag k="building:levels" v="1"/>
  </way>
  <way id="94692975" version="2" timestamp="2011-01-12T16:45:04Z" uid="115477" user="wowik" changeset="6948926">
    <nd ref="1099388633"/>
    <nd ref="1099388654"/>
    <nd ref="1099388656"/>
    <nd ref="428589907"/>
    <nd ref="1099388633"/>
    <tag k="addr:postcode" v="124482"/>
    <tag k="amenity" v="school"/>
    <tag k="building" v="yes"/>
    <tag k="building:levels" v="1"/>
  </way>
</osm>
