<?xml version='1.0' encoding='UTF-8'?>
<osm version="0.6" generator="libosmium/2.20.0">
  <way id="9480956" version="3" timestamp="2010-03-27T12:59:26Z" uid="20587" user="balrog-kun" changeset="4245390">
    <nd ref="72791860"/>
    <nd ref="72791851"/>
    <tag k="bridge" v="yes"/>
    <tag k="bridge_name" v="7th St Viaduct"/>
    <tag k="description" v="Built on top of trolley brodge, originally built in 1910"/>
    <tag k="highway" v="secondary"/>
    <tag k="historic" v="bridge"/>
    <tag k="layer" v="1"/>
    <tag k="name" v="7th Street"/>
    <tag k="start_date" v="1927"/>
    <tag k="url" v="http://eng.lacity.org/projects/bridge/historical_gallery/Images/historical_15.pdf"/>
  </way>
  <way id="9480959" version="5" timestamp="2010-03-27T12:59:26Z" uid="20587" user="balrog-kun" changeset="4245390">
    <nd ref="72791851"/>
    <nd ref="122886786"/>
    <nd ref="122536940"/>
    <nd ref="122886790"/>
    <nd ref="122886792"/>
    <nd ref="317648602"/>
    <nd ref="317648428"/>
    <nd ref="317648427"/>
    <nd ref="317648426"/>
    <nd ref="72744555"/>
    <tag k="created_by" v="Potlatch 0.10f"/>
    <tag k="highway" v="secondary"/>
    <tag k="name" v="7th Street"/>
  </way>
  <way id="9480966" version="4" timestamp="2010-03-27T12:59:27Z" uid="20587" user="balrog-kun" changeset="4245390">
    <nd ref="123250167"/>
    <nd ref="72791983"/>
    <nd ref="123111600"/>
    <nd ref="72791992"/>
    <nd ref="71987008"/>
    <tag k="highway" v="tertiary"/>
    <tag k="name" v="8th Street"/>
    <tag k="oneway" v="yes"/>
  </way>
  <way id="9480968" version="5" timestamp="2010-03-27T12:59:27Z" uid="20587" user="balrog-kun" changeset="4245390">
    <nd ref="24043551"/>
    <nd ref="122854390"/>
    <nd ref="122586419"/>
    <nd ref="72791974"/>
    <nd ref="123176309"/>
    <nd ref="123250192"/>
    <nd ref="69216907"/>
    <nd ref="72792006"/>
    <nd ref="72792010"/>
    <tag k="highway" v="unclassified"/>
    <tag k="name" v="8th Street"/>
  </way>
</osm>
