<?xml version='1.0' encoding='UTF-8'?>
<osm version="0.6" generator="libosmium/2.20.0">
  <way id="95134036" version="1" timestamp="2011-01-14T18:48:28Z" uid="171838" user="argrath" changeset="6970012">
    <nd ref="267457808"/>
    <nd ref="267457809"/>
    <nd ref="267457810"/>
    <nd ref="267457799"/>
    <nd ref="267457800"/>
    <nd ref="267457801"/>
    <nd ref="267457802"/>
    <nd ref="267457687"/>
    <tag k="KSJ2:INT" v="2"/>
    <tag k="KSJ2:INT_label" v="JR在来線"/>
    <tag k="KSJ2:LIN" v="JR東西線"/>
    <tag k="KSJ2:OPC" v="西日本旅客鉄道"/>
    <tag k="KSJ2:RAC" v="11"/>
    <tag k="KSJ2:RAC_label" v="普通鉄道JR"/>
    <tag k="name" v="JR東西線"/>
    <tag k="name:ja" v="JR東西線"/>
    <tag k="note" v="National-Land Numerical Information (Railway) 2007, MLIT Japan"/>
    <tag k="note:ja" v="国土数値情報（鉄道データ）平成19年　国土交通省"/>
    <tag k="operator" v="西日本旅客鉄道"/>
    <tag k="operator:ja" v="西日本旅客鉄道"/>
    <tag k="railway" v="rail"/>
    <tag k="source" v="KSJ2"/>
    <tag k="source_ref" v="http://nlftp.mlit.go.jp/ksj/jpgis/datalist/KsjTmplt-N02-v1_1.html"/>
  </way>
</osm>
