<?xml version='1.0' encoding='UTF-8'?>
<osm version="0.6" generator="libosmium/2.20.0">
  <way id="95498099" version="3" timestamp="2011-04-15T11:37:00Z" uid="18775" user="drlizau" changeset="7868894">
    <nd ref="1107404492"/>
    <nd ref="1107405314"/>
    <nd ref="1107405120"/>
    <nd ref="1107404737"/>
    <nd ref="1107404323"/>
    <nd ref="1107404436"/>
    <nd ref="1107405379"/>
    <nd ref="1107405093"/>
    <nd ref="1107404871"/>
    <tag k="highway" v="secondary_link"/>
  </way>
  <way id="95498141" version="1" timestamp="2011-01-17T10:10:42Z" uid="115477" user="wowik" changeset="6997647">
    <nd ref="1107407751"/>
    <nd ref="1107407770"/>
    <nd ref="1107407741"/>
    <nd ref="1107407780"/>
    <nd ref="1107407751"/>
    <tag k="leisure" v="pitch"/>
  </way>
  <way id="95498142" version="1" timestamp="2011-01-17T10:10:42Z" uid="115477" user="wowik" changeset="6997647">
    <nd ref="1107407769"/>
    <nd ref="1107407709"/>
    <nd ref="1107407719"/>
    <nd ref="1107407766"/>
    <nd ref="1107407740"/>
    <nd ref="1107407778"/>
    <nd ref="1107407686"/>
    <nd ref="1107407732"/>
    <nd ref="1107407703"/>
    <nd ref="1107407754"/>
    <nd ref="1107407765"/>
    <nd ref="1107407701"/>
    <nd ref="945857387"/>
    <nd ref="945857388"/>
    <nd ref="1107407769"/>
    <tag k="building" v="yes"/>
    <tag k="building:levels" v="1"/>
  </way>
  <way id="95498143" version="1" timestamp="2011-01-17T10:10:43Z" uid="115477" user="wowik" changeset="6997647">
    <nd ref="612179672"/>
    <nd ref="450653043"/>
    <nd ref="450653045"/>
    <nd ref="450653047"/>
    <nd ref="450653048"/>
    <nd ref="612179674"/>
    <nd ref="1107407679"/>
    <nd ref="1107407698"/>
    <nd ref="1107407742"/>
    <nd ref="1107407673"/>
    <nd ref="1107407779"/>
    <nd ref="1107407713"/>
    <nd ref="1107407763"/>
    <nd ref="1107407772"/>
    <nd ref="612179672"/>
    <tag k="addr:city" v="Зеленоград"/>
    <tag k="addr:housenumber" v="4"/>
    <tag k="addr:street" v="Каштановая аллея"/>
    <tag k="amenity" v="college"/>
    <tag k="building" v="yes"/>
    <tag k="building:levels" v="3"/>
    <tag k="cladr:code" v="77000002000454500"/>
    <tag k="is_in" v="Russia"/>
    <tag k="name" v="Медицинский колледж № 8"/>
  </way>
  <way id="95498144" version="1" timestamp="2011-01-17T10:10:43Z" uid="115477" user="wowik" changeset="6997647">
    <nd ref="1107407672"/>
    <nd ref="1107407729"/>
    <nd ref="1107407782"/>
    <nd ref="1107407728"/>
    <nd ref="612137849"/>
    <nd ref="612137850"/>
    <nd ref="1107407672"/>
    <tag k="amenity" v="kindergarten"/>
    <tag k="building" v="yes"/>
    <tag k="building:levels" v="2"/>
  </way>
  <way id="95498145" version="1" timestamp="2011-01-17T10:10:44Z" uid="115477" user="wowik" changeset="6997647">
    <nd ref="1107407745"/>
    <nd ref="1107407673"/>
    <nd ref="1107407779"/>
    <nd ref="1107407711"/>
    <nd ref="1107407745"/>
    <tag k="amenity" v="college"/>
    <tag k="building" v="yes"/>
    <tag k="building:levels" v="1"/>
  </way>
  <way id="95498146" version="1" timestamp="2011-01-17T10:10:44Z" uid="115477" user="wowik" changeset="6997647">
    <nd ref="1107407723"/>
    <nd ref="1107407743"/>
    <nd ref="1107407761"/>
    <nd ref="1107407696"/>
    <nd ref="1107407723"/>
    <tag k="addr:city" v="Зеленоград"/>
    <tag k="addr:housenumber" v="4с1"/>
    <tag k="addr:street" v="Каштановая аллея"/>
    <tag k="building" v="yes"/>
    <tag k="building:levels" v="1"/>
    <tag k="is_in" v="Russia"/>
  </way>
  <way id="95498147" version="1" timestamp="2011-01-17T10:10:44Z" uid="115477" user="wowik" changeset="6997647">
    <nd ref="1107407683"/>
    <nd ref="1107407700"/>
    <nd ref="1107407744"/>
    <nd ref="1107407714"/>
    <nd ref="612137847"/>
    <nd ref="612137844"/>
    <nd ref="1107407683"/>
    <tag k="amenity" v="kindergarten"/>
    <tag k="building" v="yes"/>
    <tag k="building:levels" v="2"/>
  </way>
  <way id="95498148" version="1" timestamp="2011-01-17T10:10:44Z" uid="115477" user="wowik" changeset="6997647">
    <nd ref="1107407737"/>
    <nd ref="1107407760"/>
    <nd ref="1107407705"/>
    <nd ref="1107407726"/>
    <nd ref="1107407737"/>
    <tag k="addr:city" v="Зеленоград"/>
    <tag k="addr:housenumber" v="2с?"/>
    <tag k="addr:street" v="Каштановая аллея"/>
    <tag k="building" v="yes"/>
    <tag k="building:levels" v="1"/>
    <tag k="is_in" v="Russia"/>
  </way>
</osm>
