<?xml version='1.0' encoding='UTF-8'?>
<osm version="0.6" generator="libosmium/2.20.0">
  <way id="95501424" version="1" timestamp="2011-01-17T10:48:22Z" uid="115477" user="wowik" changeset="6997945">
    <nd ref="1107443457"/>
    <nd ref="1107443486"/>
    <nd ref="1107443506"/>
    <nd ref="1107443495"/>
    <nd ref="1107443457"/>
    <tag k="building" v="yes"/>
  </way>
  <way id="95501426" version="1" timestamp="2011-01-17T10:48:22Z" uid="115477" user="wowik" changeset="6997945">
    <nd ref="1107443488"/>
    <nd ref="1107443518"/>
    <nd ref="1107443549"/>
    <nd ref="1107443445"/>
    <nd ref="1107443488"/>
    <tag k="addr:city" v="Зеленоград"/>
    <tag k="addr:housenumber" v="2с?"/>
    <tag k="addr:street" v="Каштановая аллея"/>
    <tag k="building" v="yes"/>
    <tag k="is_in" v="Russia"/>
  </way>
  <way id="95501426" version="2" timestamp="2011-01-27T19:32:52Z" uid="115477" user="wowik" changeset="7106777">
    <nd ref="1107443488"/>
    <nd ref="1107443518"/>
    <nd ref="1107443549"/>
    <nd ref="1107443445"/>
    <nd ref="1107443488"/>
    <tag k="addr:city" v="Зеленоград"/>
    <tag k="addr:housenumber" v="2с15"/>
    <tag k="addr:street" v="Каштановая аллея"/>
    <tag k="building" v="yes"/>
    <tag k="is_in" v="Russia"/>
    <tag k="note" v="addr:housemunber неточен"/>
  </way>
  <way id="95501426" version="3" timestamp="2011-02-10T09:47:13Z" uid="115477" user="wowik" changeset="7243711">
    <nd ref="1107443488"/>
    <nd ref="1107443518"/>
    <nd ref="1107443549"/>
    <nd ref="1107443445"/>
    <nd ref="1107443488"/>
    <tag k="addr:city" v="Зеленоград"/>
    <tag k="addr:housenumber" v="2 с15"/>
    <tag k="addr:street" v="Каштановая аллея"/>
    <tag k="building" v="yes"/>
    <tag k="is_in" v="Russia"/>
    <tag k="note" v="addr:housemunber неточен"/>
  </way>
  <way id="95501428" version="1" timestamp="2011-01-17T10:48:22Z" uid="115477" user="wowik" changeset="6997945">
    <nd ref="1107443522"/>
    <nd ref="1107443560"/>
    <nd ref="1107443547"/>
    <nd ref="1107443491"/>
    <nd ref="1107443522"/>
    <tag k="amenity" v="hospital"/>
    <tag k="building" v="yes"/>
  </way>
  <way id="95501430" version="1" timestamp="2011-01-17T10:48:22Z" uid="115477" user="wowik" changeset="6997945">
    <nd ref="1107443583"/>
    <nd ref="1107443501"/>
    <nd ref="1107443458"/>
    <nd ref="1107443496"/>
    <nd ref="1107443583"/>
    <tag k="amenity" v="hospital"/>
    <tag k="building" v="yes"/>
  </way>
  <way id="95501431" version="1" timestamp="2011-01-17T10:48:22Z" uid="115477" user="wowik" changeset="6997945">
    <nd ref="1107443498"/>
    <nd ref="1107443531"/>
    <nd ref="1107443574"/>
    <nd ref="1107443455"/>
    <nd ref="1107443498"/>
    <tag k="addr:city" v="Зеленоград"/>
    <tag k="addr:housenumber" v="8с?"/>
    <tag k="addr:street" v="Каштановая аллея"/>
    <tag k="building" v="yes"/>
    <tag k="cladr:code" v="77000002000454500"/>
    <tag k="is_in" v="Russia"/>
  </way>
  <way id="95501434" version="1" timestamp="2011-01-17T10:48:23Z" uid="115477" user="wowik" changeset="6997945">
    <nd ref="1107443513"/>
    <nd ref="1107443454"/>
    <nd ref="1107443480"/>
    <nd ref="1107443503"/>
    <nd ref="1107443513"/>
    <tag k="addr:city" v="Зеленоград"/>
    <tag k="addr:housenumber" v="2с?"/>
    <tag k="addr:street" v="Каштановая аллея"/>
    <tag k="building" v="yes"/>
    <tag k="cladr:code" v="77000002000454500"/>
    <tag k="is_in" v="Russia"/>
  </way>
  <way id="95501434" version="2" timestamp="2011-01-27T19:32:50Z" uid="115477" user="wowik" changeset="7106777">
    <nd ref="1107443513"/>
    <nd ref="1107443454"/>
    <nd ref="1107443480"/>
    <nd ref="1107443503"/>
    <nd ref="1107443513"/>
    <tag k="addr:city" v="Зеленоград"/>
    <tag k="addr:housenumber" v="2с14"/>
    <tag k="addr:street" v="Каштановая аллея"/>
    <tag k="building" v="yes"/>
    <tag k="cladr:code" v="77000002000454500"/>
    <tag k="is_in" v="Russia"/>
    <tag k="note" v="addr:housemunber неточен"/>
  </way>
  <way id="95501434" version="3" timestamp="2011-02-10T09:47:13Z" uid="115477" user="wowik" changeset="7243711">
    <nd ref="1107443513"/>
    <nd ref="1107443454"/>
    <nd ref="1107443480"/>
    <nd ref="1107443503"/>
    <nd ref="1107443513"/>
    <tag k="addr:city" v="Зеленоград"/>
    <tag k="addr:housenumber" v="2 с14"/>
    <tag k="addr:street" v="Каштановая аллея"/>
    <tag k="building" v="yes"/>
    <tag k="cladr:code" v="77000002000454500"/>
    <tag k="is_in" v="Russia"/>
    <tag k="note" v="addr:housemunber неточен"/>
  </way>
  <way id="95501438" version="1" timestamp="2011-01-17T10:48:23Z" uid="115477" user="wowik" changeset="6997945">
    <nd ref="1107443534"/>
    <nd ref="1107443476"/>
    <nd ref="1107443497"/>
    <nd ref="1107443530"/>
    <nd ref="1107443534"/>
    <tag k="addr:city" v="Зеленоград"/>
    <tag k="addr:housenumber" v="2с9"/>
    <tag k="addr:street" v="Каштановая аллея"/>
    <tag k="building" v="yes"/>
    <tag k="cladr:code" v="77000002000454500"/>
    <tag k="is_in" v="Russia"/>
  </way>
</osm>
