<?xml version='1.0' encoding='UTF-8'?>
<osm version="0.6" generator="libosmium/2.20.0">
  <way id="95511296" version="1" timestamp="2011-01-17T12:51:02Z" uid="115477" user="wowik" changeset="6999083">
    <nd ref="1107514171"/>
    <nd ref="1107514214"/>
    <nd ref="1107514236"/>
    <nd ref="1107514120"/>
    <nd ref="1107514269"/>
    <nd ref="1107514153"/>
    <nd ref="1107514175"/>
    <nd ref="1107514171"/>
    <tag k="natural" v="water"/>
  </way>
  <way id="95511297" version="1" timestamp="2011-01-17T12:51:02Z" uid="115477" user="wowik" changeset="6999083">
    <nd ref="1107514320"/>
    <nd ref="1107514194"/>
    <tag k="highway" v="service"/>
    <tag k="living_street" v="yes"/>
  </way>
  <way id="95511298" version="1" timestamp="2011-01-17T12:51:02Z" uid="115477" user="wowik" changeset="6999083">
    <nd ref="1107514298"/>
    <nd ref="1107514134"/>
    <nd ref="1107514235"/>
    <nd ref="1107514283"/>
    <nd ref="1107514298"/>
    <tag k="addr:housenumber" v="2с3"/>
    <tag k="addr:street" v="Проезд N 5253"/>
    <tag k="building" v="yes"/>
    <tag k="building:levels" v="1"/>
  </way>
  <way id="95511298" version="2" timestamp="2011-01-18T13:03:12Z" uid="115477" user="wowik" changeset="7010197">
    <nd ref="1107514298"/>
    <nd ref="1107514134"/>
    <nd ref="1107514235"/>
    <nd ref="1107514283"/>
    <nd ref="1107514298"/>
    <tag k="addr:housenumber" v="2с2"/>
    <tag k="addr:street" v="Проезд N 5253"/>
    <tag k="building" v="yes"/>
    <tag k="building:levels" v="1"/>
  </way>
  <way id="95511299" version="1" timestamp="2011-01-17T12:51:02Z" uid="115477" user="wowik" changeset="6999083">
    <nd ref="1107514173"/>
    <nd ref="1107514260"/>
    <nd ref="1107514127"/>
    <nd ref="1107514328"/>
    <nd ref="1107514173"/>
    <tag k="amenity" v="school"/>
    <tag k="building" v="yes"/>
  </way>
  <way id="95511300" version="1" timestamp="2011-01-17T12:51:03Z" uid="115477" user="wowik" changeset="6999083">
    <nd ref="473803669"/>
    <nd ref="1107514237"/>
    <nd ref="1107514123"/>
    <nd ref="1107514150"/>
    <nd ref="1107514231"/>
    <nd ref="473803700"/>
    <nd ref="473803669"/>
    <tag k="amenity" v="kindergarten"/>
    <tag k="building" v="yes"/>
    <tag k="building:levels" v="2"/>
  </way>
  <way id="95511300" version="2" timestamp="2011-02-02T14:11:25Z" uid="115477" user="wowik" changeset="7165087">
    <nd ref="1107514157"/>
    <nd ref="1107514231"/>
    <nd ref="1107514150"/>
    <nd ref="1107514123"/>
    <nd ref="1107514237"/>
    <nd ref="473803669"/>
    <nd ref="473803706"/>
    <nd ref="1107514314"/>
    <nd ref="1107514128"/>
    <nd ref="1107514211"/>
    <nd ref="1107514157"/>
    <tag k="addr:city" v="Зеленоград"/>
    <tag k="addr:housenumber" v="507"/>
    <tag k="addr:street" v="5-й Микрорайон"/>
    <tag k="amenity" v="kindergarten"/>
    <tag k="building" v="yes"/>
    <tag k="building:levels" v="3"/>
    <tag k="comment" v="Учебно-воспитательный комплекс №1890"/>
    <tag k="is_in" v="Russia"/>
    <tag k="name" v="УВК №1889"/>
  </way>
  <way id="95511301" version="1" timestamp="2011-01-17T12:51:03Z" uid="115477" user="wowik" changeset="6999083">
    <nd ref="473803651"/>
    <nd ref="1107514312"/>
    <nd ref="1107514173"/>
    <nd ref="1107514328"/>
    <nd ref="1107514284"/>
    <nd ref="473803729"/>
    <nd ref="473803740"/>
    <nd ref="473803732"/>
    <nd ref="473803757"/>
    <nd ref="473803699"/>
    <nd ref="473803651"/>
    <tag k="amenity" v="school"/>
    <tag k="building" v="yes"/>
    <tag k="building:levels" v="3"/>
  </way>
  <way id="95511302" version="1" timestamp="2011-01-17T12:51:03Z" uid="115477" user="wowik" changeset="6999083">
    <nd ref="1107514297"/>
    <nd ref="1107514272"/>
    <nd ref="1107514326"/>
    <nd ref="1107514156"/>
    <nd ref="1107514297"/>
    <tag k="addr:housenumber" v="3с1"/>
    <tag k="addr:street" v="Проезд N 5253"/>
    <tag k="building" v="yes"/>
    <tag k="building:levels" v="1"/>
  </way>
  <way id="95511303" version="1" timestamp="2011-01-17T12:51:03Z" uid="115477" user="wowik" changeset="6999083">
    <nd ref="1107514158"/>
    <nd ref="1107514181"/>
    <nd ref="1107514268"/>
    <nd ref="1107514213"/>
    <nd ref="473803709"/>
    <nd ref="473803647"/>
    <nd ref="1107514158"/>
    <tag k="amenity" v="kindergarten"/>
    <tag k="building" v="yes"/>
    <tag k="building:levels" v="2"/>
  </way>
  <way id="95511304" version="1" timestamp="2011-01-17T12:51:03Z" uid="115477" user="wowik" changeset="6999083">
    <nd ref="1107514131"/>
    <nd ref="1107514324"/>
    <nd ref="1107514155"/>
    <nd ref="1107514197"/>
    <nd ref="1107514131"/>
    <tag k="addr:city" v="Зеленоград"/>
    <tag k="addr:housenumber" v="518с2"/>
    <tag k="addr:street" v="5-й Микрорайон"/>
    <tag k="building" v="yes"/>
    <tag k="building:levels" v="1"/>
    <tag k="is_in" v="Russia"/>
  </way>
  <way id="95511305" version="1" timestamp="2011-01-17T12:51:04Z" uid="115477" user="wowik" changeset="6999083">
    <nd ref="1107514148"/>
    <nd ref="1107514187"/>
    <nd ref="1107514229"/>
    <nd ref="1107514275"/>
    <nd ref="1107514148"/>
    <tag k="addr:housenumber" v="3с4"/>
    <tag k="addr:street" v="Проезд N 5253"/>
    <tag k="building" v="yes"/>
    <tag k="building:levels" v="1"/>
  </way>
  <way id="95511306" version="1" timestamp="2011-01-17T12:51:04Z" uid="115477" user="wowik" changeset="6999083">
    <nd ref="1107514274"/>
    <nd ref="1107514327"/>
    <nd ref="1107514259"/>
    <nd ref="1107514144"/>
    <nd ref="1107514274"/>
    <tag k="leisure" v="pitch"/>
  </way>
  <way id="95511307" version="1" timestamp="2011-01-17T12:51:04Z" uid="115477" user="wowik" changeset="6999083">
    <nd ref="1107514248"/>
    <nd ref="1107514301"/>
    <nd ref="1107514222"/>
    <nd ref="1107514321"/>
    <nd ref="1107514257"/>
    <nd ref="1107514142"/>
    <nd ref="1107514163"/>
    <nd ref="1107514248"/>
    <tag k="natural" v="water"/>
  </way>
  <way id="95511308" version="1" timestamp="2011-01-17T12:51:04Z" uid="115477" user="wowik" changeset="6999083">
    <nd ref="1107514308"/>
    <nd ref="1107514201"/>
    <nd ref="1107514292"/>
    <nd ref="473803742"/>
    <nd ref="473803731"/>
    <nd ref="1107514234"/>
    <nd ref="1107514308"/>
    <tag k="amenity" v="kindergarten"/>
    <tag k="building" v="yes"/>
    <tag k="building:levels" v="2"/>
  </way>
  <way id="95511309" version="1" timestamp="2011-01-17T12:51:04Z" uid="115477" user="wowik" changeset="6999083">
    <nd ref="1107514270"/>
    <nd ref="1107514322"/>
    <nd ref="1107514215"/>
    <nd ref="1107514258"/>
    <nd ref="1107514270"/>
    <tag k="addr:city" v="Зеленоград"/>
    <tag k="addr:housenumber" v="514с4"/>
    <tag k="addr:street" v="5-й Микрорайон"/>
    <tag k="building" v="yes"/>
    <tag k="building:levels" v="1"/>
    <tag k="is_in" v="Russia"/>
  </way>
  <way id="95511310" version="1" timestamp="2011-01-17T12:51:05Z" uid="115477" user="wowik" changeset="6999083">
    <nd ref="1107514160"/>
    <nd ref="1107514203"/>
    <nd ref="1107514191"/>
    <nd ref="1107514279"/>
    <nd ref="1107514245"/>
    <nd ref="1107514295"/>
    <nd ref="1107514160"/>
    <tag k="building" v="yes"/>
    <tag k="building:levels" v="1"/>
    <tag k="landuse" v="garages"/>
  </way>
  <way id="95511311" version="1" timestamp="2011-01-17T12:51:05Z" uid="115477" user="wowik" changeset="6999083">
    <nd ref="1107514256"/>
    <nd ref="1107514241"/>
    <nd ref="1107514294"/>
    <nd ref="1107514267"/>
    <nd ref="1107514256"/>
    <tag k="building" v="yes"/>
    <tag k="building:levels" v="1"/>
    <tag k="landuse" v="garages"/>
  </way>
  <way id="95511312" version="1" timestamp="2011-01-17T12:51:05Z" uid="115477" user="wowik" changeset="6999083">
    <nd ref="450809408"/>
    <nd ref="1107514168"/>
    <nd ref="1107514304"/>
    <nd ref="1107514239"/>
    <nd ref="450809408"/>
    <tag k="addr:city" v="Зеленоград"/>
    <tag k="addr:housenumber" v="514с2"/>
    <tag k="addr:street" v="5-й Микрорайон"/>
    <tag k="amenity" v="shop"/>
    <tag k="building" v="yes"/>
    <tag k="is_in" v="Russia"/>
    <tag k="name" v="5-й ТЦ"/>
    <tag k="shop" v="mall"/>
  </way>
  <way id="95511312" version="2" timestamp="2011-01-17T13:34:01Z" uid="115477" user="wowik" changeset="6999508">
    <nd ref="450809408"/>
    <nd ref="1107514168"/>
    <nd ref="1107548404"/>
    <nd ref="1107548453"/>
    <nd ref="1107514304"/>
    <nd ref="1107514239"/>
    <nd ref="450809408"/>
    <tag k="addr:city" v="Зеленоград"/>
    <tag k="addr:housenumber" v="514с2"/>
    <tag k="addr:street" v="5-й Микрорайон"/>
    <tag k="amenity" v="shop"/>
    <tag k="building" v="yes"/>
    <tag k="is_in" v="Russia"/>
    <tag k="name" v="5-й ТЦ"/>
    <tag k="shop" v="mall"/>
  </way>
  <way id="95511313" version="1" timestamp="2011-01-17T12:51:05Z" uid="115477" user="wowik" changeset="6999083">
    <nd ref="1107514253"/>
    <nd ref="1107514306"/>
    <nd ref="1107514139"/>
    <nd ref="1107514179"/>
    <nd ref="1107514253"/>
    <tag k="building" v="yes"/>
    <tag k="building:levels" v="1"/>
  </way>
  <way id="95511314" version="1" timestamp="2011-01-17T12:51:05Z" uid="115477" user="wowik" changeset="6999083">
    <nd ref="1107514266"/>
    <nd ref="1107514318"/>
    <nd ref="1107514152"/>
    <nd ref="1107514133"/>
    <nd ref="1107514266"/>
    <tag k="building" v="yes"/>
    <tag k="building:levels" v="1"/>
  </way>
  <way id="95511315" version="1" timestamp="2011-01-17T12:51:05Z" uid="115477" user="wowik" changeset="6999083">
    <nd ref="1107514286"/>
    <nd ref="1107514121"/>
    <nd ref="1107514166"/>
    <nd ref="1107514206"/>
    <nd ref="1107514286"/>
    <tag k="addr:city" v="Зеленоград"/>
    <tag k="addr:housenumber" v="518с2"/>
    <tag k="addr:street" v="5-й Микрорайон"/>
    <tag k="building" v="yes"/>
    <tag k="building:levels" v="1"/>
    <tag k="is_in" v="Russia"/>
  </way>
  <way id="95511315" version="2" timestamp="2011-01-17T13:34:21Z" uid="115477" user="wowik" changeset="6999508">
    <nd ref="1107514286"/>
    <nd ref="1107514121"/>
    <nd ref="1107514166"/>
    <nd ref="1107514206"/>
    <nd ref="1107514286"/>
    <tag k="addr:city" v="Зеленоград"/>
    <tag k="addr:housenumber" v="518А"/>
    <tag k="addr:street" v="5-й Микрорайон"/>
    <tag k="building" v="yes"/>
    <tag k="building:levels" v="1"/>
    <tag k="is_in" v="Russia"/>
  </way>
  <way id="95511316" version="1" timestamp="2011-01-17T12:51:06Z" uid="115477" user="wowik" changeset="6999083">
    <nd ref="1107514240"/>
    <nd ref="1107514146"/>
    <nd ref="1107514226"/>
    <nd ref="1107514251"/>
    <nd ref="1107514240"/>
    <tag k="leisure" v="pitch"/>
  </way>
  <way id="95511317" version="1" timestamp="2011-01-17T12:51:06Z" uid="115477" user="wowik" changeset="6999083">
    <nd ref="1107514238"/>
    <nd ref="1107514288"/>
    <nd ref="1107514219"/>
    <nd ref="1107514243"/>
    <nd ref="1107514263"/>
    <nd ref="1107514315"/>
    <nd ref="1107514137"/>
    <nd ref="1107514188"/>
    <nd ref="1107514238"/>
    <tag k="addr:housenumber" v="3"/>
    <tag k="addr:street" v="Проезд N 5253"/>
    <tag k="building" v="yes"/>
  </way>
  <way id="95511318" version="1" timestamp="2011-01-17T12:51:06Z" uid="115477" user="wowik" changeset="6999083">
    <nd ref="1107514246"/>
    <nd ref="1107514151"/>
    <nd ref="1107514311"/>
    <nd ref="1107514281"/>
    <nd ref="1107514192"/>
    <nd ref="1107514233"/>
    <nd ref="1107514184"/>
    <nd ref="1107514130"/>
    <nd ref="1107514246"/>
    <tag k="addr:city" v="Зеленоград"/>
    <tag k="addr:housenumber" v="504с1"/>
    <tag k="addr:street" v="5-й Микрорайон"/>
    <tag k="building" v="yes"/>
    <tag k="is_in" v="Russia"/>
    <tag k="landuse" v="service"/>
  </way>
  <way id="95511319" version="1" timestamp="2011-01-17T12:51:06Z" uid="115477" user="wowik" changeset="6999083">
    <nd ref="1107514289"/>
    <nd ref="1107514126"/>
    <nd ref="1107514208"/>
    <nd ref="1107514122"/>
    <nd ref="1107514289"/>
    <tag k="addr:housenumber" v="1с3"/>
    <tag k="addr:street" v="Проезд N 5253"/>
    <tag k="building" v="yes"/>
    <tag k="building:levels" v="1"/>
  </way>
  <way id="95511320" version="1" timestamp="2011-01-17T12:51:06Z" uid="115477" user="wowik" changeset="6999083">
    <nd ref="1107514276"/>
    <nd ref="1107514176"/>
    <nd ref="1107514218"/>
    <nd ref="1107514262"/>
    <nd ref="1107514276"/>
    <tag k="addr:street" v="Проезд N 5253"/>
    <tag k="building" v="yes"/>
    <tag k="building:levels" v="1"/>
  </way>
  <way id="95511321" version="1" timestamp="2011-01-17T12:51:06Z" uid="115477" user="wowik" changeset="6999083">
    <nd ref="1107514210"/>
    <nd ref="1107514254"/>
    <nd ref="1107514307"/>
    <nd ref="1107514282"/>
    <nd ref="1107514210"/>
    <tag k="addr:housenumber" v="2с6"/>
    <tag k="addr:street" v="Проезд N 5253"/>
    <tag k="building" v="yes"/>
    <tag k="building:levels" v="1"/>
  </way>
  <way id="95511322" version="1" timestamp="2011-01-17T12:51:07Z" uid="115477" user="wowik" changeset="6999083">
    <nd ref="425869715"/>
    <nd ref="450797932"/>
    <nd ref="1107514125"/>
    <tag k="highway" v="path"/>
    <tag k="surface" v="paved"/>
  </way>
  <way id="95511323" version="1" timestamp="2011-01-17T12:51:07Z" uid="115477" user="wowik" changeset="6999083">
    <nd ref="1107514302"/>
    <nd ref="1107514136"/>
    <nd ref="450809418"/>
    <nd ref="1107514167"/>
    <nd ref="1107514302"/>
    <tag k="addr:city" v="Зеленоград"/>
    <tag k="addr:housenumber" v="514с3"/>
    <tag k="addr:street" v="5-й Микрорайон"/>
    <tag k="amenity" v="shop"/>
    <tag k="building" v="yes"/>
    <tag k="is_in" v="Russia"/>
    <tag k="name" v="5-й ТЦ"/>
    <tag k="shop" v="mall"/>
  </way>
  <way id="95511323" version="2" timestamp="2011-01-17T13:34:12Z" uid="115477" user="wowik" changeset="6999508">
    <nd ref="1107514302"/>
    <nd ref="1107548482"/>
    <nd ref="1107548379"/>
    <nd ref="1107514136"/>
    <nd ref="450809418"/>
    <nd ref="1107514167"/>
    <nd ref="1107514302"/>
    <tag k="addr:city" v="Зеленоград"/>
    <tag k="addr:housenumber" v="514с3"/>
    <tag k="addr:street" v="5-й Микрорайон"/>
    <tag k="amenity" v="shop"/>
    <tag k="building" v="yes"/>
    <tag k="is_in" v="Russia"/>
    <tag k="name" v="5-й ТЦ"/>
    <tag k="shop" v="mall"/>
  </way>
  <way id="95511324" version="1" timestamp="2011-01-17T12:51:07Z" uid="115477" user="wowik" changeset="6999083">
    <nd ref="1107514169"/>
    <nd ref="1107514207"/>
    <nd ref="1107514190"/>
    <nd ref="1107514232"/>
    <nd ref="1107514169"/>
    <tag k="addr:housenumber" v="2с1"/>
    <tag k="addr:street" v="Проезд N 5253"/>
    <tag k="building" v="yes"/>
    <tag k="building:levels" v="1"/>
  </way>
  <way id="95511325" version="1" timestamp="2011-01-17T12:51:07Z" uid="115477" user="wowik" changeset="6999083">
    <nd ref="1107514264"/>
    <nd ref="1107514317"/>
    <nd ref="1107514296"/>
    <nd ref="1107514132"/>
    <nd ref="1107514264"/>
    <tag k="addr:city" v="Зеленоград"/>
    <tag k="building" v="yes"/>
    <tag k="building:levels" v="1"/>
  </way>
  <way id="95511325" version="2" timestamp="2011-02-03T18:43:06Z" uid="115477" user="wowik" changeset="7176513">
    <nd ref="1107514264"/>
    <nd ref="1107514317"/>
    <nd ref="1107514296"/>
    <nd ref="1107514132"/>
    <nd ref="1107514264"/>
    <tag k="addr:city" v="Зеленоград"/>
    <tag k="building" v="yes"/>
    <tag k="building:levels" v="1"/>
    <tag k="landuse" v="service"/>
  </way>
  <way id="95511326" version="1" timestamp="2011-01-17T12:51:07Z" uid="115477" user="wowik" changeset="6999083">
    <nd ref="1107514271"/>
    <nd ref="1107514323"/>
    <nd ref="1107514154"/>
    <nd ref="1107514196"/>
    <nd ref="1107514271"/>
    <tag k="addr:housenumber" v="3с3"/>
    <tag k="addr:street" v="Проезд N 5253"/>
    <tag k="building" v="yes"/>
    <tag k="building:levels" v="1"/>
  </way>
  <way id="95511327" version="1" timestamp="2011-01-17T12:51:07Z" uid="115477" user="wowik" changeset="6999083">
    <nd ref="1107514309"/>
    <nd ref="1107514141"/>
    <nd ref="1107514180"/>
    <nd ref="1107514221"/>
    <nd ref="1107514309"/>
    <tag k="addr:housenumber" v="1с2"/>
    <tag k="addr:street" v="Проезд N 5253"/>
    <tag k="building" v="yes"/>
    <tag k="building:levels" v="1"/>
  </way>
  <way id="95511328" version="1" timestamp="2011-01-17T12:51:08Z" uid="115477" user="wowik" changeset="6999083">
    <nd ref="473803706"/>
    <nd ref="1107514314"/>
    <nd ref="1107514128"/>
    <nd ref="1107514211"/>
    <nd ref="1107514157"/>
    <nd ref="473803637"/>
    <nd ref="473803706"/>
    <tag k="amenity" v="kindergarten"/>
    <tag k="building" v="yes"/>
    <tag k="building:levels" v="2"/>
  </way>
  <way id="95511328" version="2" timestamp="2011-02-02T14:11:26Z" uid="115477" user="wowik" changeset="7165087"/>
  <way id="95511329" version="1" timestamp="2011-01-17T12:51:08Z" uid="115477" user="wowik" changeset="6999083">
    <nd ref="1107514118"/>
    <nd ref="1107514161"/>
    <nd ref="1107514247"/>
    <nd ref="1107514159"/>
    <nd ref="1107514244"/>
    <nd ref="1107514189"/>
    <nd ref="1107514277"/>
    <nd ref="1107514310"/>
    <nd ref="1107514118"/>
    <tag k="building" v="yes"/>
  </way>
  <way id="95511330" version="1" timestamp="2011-01-17T12:51:08Z" uid="115477" user="wowik" changeset="6999083">
    <nd ref="450809408"/>
    <nd ref="1107514228"/>
    <nd ref="450809410"/>
    <nd ref="450809418"/>
    <nd ref="1107514136"/>
    <nd ref="1107514168"/>
    <nd ref="450809408"/>
    <tag k="addr:city" v="Зеленоград"/>
    <tag k="addr:housenumber" v="514с1"/>
    <tag k="addr:street" v="5-й Микрорайон"/>
    <tag k="amenity" v="shop"/>
    <tag k="building" v="yes"/>
    <tag k="is_in" v="Russia"/>
    <tag k="name" v="5-й ТЦ"/>
    <tag k="shop" v="mall"/>
  </way>
  <way id="95511330" version="2" timestamp="2011-01-17T13:34:02Z" uid="115477" user="wowik" changeset="6999508">
    <nd ref="450809408"/>
    <nd ref="1107514228"/>
    <nd ref="450809410"/>
    <nd ref="450809418"/>
    <nd ref="1107514136"/>
    <nd ref="1107548354"/>
    <nd ref="1107548459"/>
    <nd ref="1107514168"/>
    <nd ref="450809408"/>
    <tag k="addr:city" v="Зеленоград"/>
    <tag k="addr:housenumber" v="514с1"/>
    <tag k="addr:street" v="5-й Микрорайон"/>
    <tag k="amenity" v="shop"/>
    <tag k="building" v="yes"/>
    <tag k="is_in" v="Russia"/>
    <tag k="name" v="5-й ТЦ"/>
    <tag k="shop" v="mall"/>
  </way>
  <way id="95511331" version="1" timestamp="2011-01-17T12:51:08Z" uid="115477" user="wowik" changeset="6999083">
    <nd ref="1107514182"/>
    <nd ref="1107514223"/>
    <nd ref="1107514129"/>
    <nd ref="1107514172"/>
    <nd ref="1107514182"/>
    <tag k="addr:housenumber" v="3с2"/>
    <tag k="addr:street" v="Проезд N 5253"/>
    <tag k="building" v="yes"/>
    <tag k="building:levels" v="1"/>
  </way>
</osm>
