<?xml version='1.0' encoding='UTF-8'?>
<osm version="0.6" generator="libosmium/2.20.0">
  <way id="95531487" version="1" timestamp="2011-01-17T16:47:45Z" uid="33382" user="de_muur" changeset="7001280">
    <nd ref="1107759823"/>
    <nd ref="1107759821"/>
    <tag k="bridge" v="yes"/>
    <tag k="electrified" v="no"/>
    <tag k="layer" v="1"/>
    <tag k="name" v="Amerikalinie"/>
    <tag k="railway" v="rail"/>
  </way>
  <way id="95531491" version="1" timestamp="2011-01-17T16:47:46Z" uid="33382" user="de_muur" changeset="7001280">
    <nd ref="48162243"/>
    <nd ref="365504463"/>
    <nd ref="48162275"/>
    <nd ref="365504466"/>
    <nd ref="311051913"/>
    <tag k="highway" v="tertiary"/>
    <tag k="note" v="bis Flugplatz als K 28"/>
    <tag k="ref" v="K 28"/>
    <tag k="surface" v="paved"/>
  </way>
  <way id="95531493" version="1" timestamp="2011-01-17T16:47:46Z" uid="33382" user="de_muur" changeset="7001280">
    <nd ref="1107759821"/>
    <nd ref="95579003"/>
    <nd ref="95579007"/>
    <nd ref="95579011"/>
    <nd ref="320954777"/>
    <nd ref="1107651433"/>
    <tag k="electrified" v="no"/>
    <tag k="name" v="Amerikalinie"/>
    <tag k="railway" v="rail"/>
    <tag k="source" v="yahoo, local knowledge"/>
  </way>
  <way id="95531697" version="1" timestamp="2011-01-17T16:51:23Z" uid="115477" user="wowik" changeset="7001307">
    <nd ref="1107763618"/>
    <nd ref="1107762746"/>
    <nd ref="1107763391"/>
    <nd ref="1107763583"/>
    <nd ref="1107763618"/>
    <tag k="addr:city" v="Зеленоград"/>
    <tag k="addr:country" v="RU"/>
    <tag k="addr:street" v="Крюковская площадь"/>
    <tag k="amenity" v="market"/>
    <tag k="landuse" v="commercial"/>
    <tag k="shop" v="yes"/>
  </way>
  <way id="95531697" version="2" timestamp="2011-01-17T17:39:04Z" uid="115477" user="wowik" changeset="7001640">
    <nd ref="1107763618"/>
    <nd ref="1107762746"/>
    <nd ref="1107763391"/>
    <nd ref="1107763583"/>
    <nd ref="1107763618"/>
    <tag k="addr:city" v="Зеленоград"/>
    <tag k="addr:country" v="RU"/>
    <tag k="addr:street" v="Крюковская площадь"/>
    <tag k="amenity" v="market"/>
    <tag k="building:levels" v="1"/>
    <tag k="landuse" v="commercial"/>
    <tag k="shop" v="yes"/>
  </way>
  <way id="95531699" version="1" timestamp="2011-01-17T16:51:23Z" uid="115477" user="wowik" changeset="7001307">
    <nd ref="1107763182"/>
    <nd ref="1107763477"/>
    <nd ref="1107763334"/>
    <nd ref="1107763555"/>
    <nd ref="1107763182"/>
    <tag k="addr:city" v="Зеленоград"/>
    <tag k="addr:housenumber" v="1145с2"/>
    <tag k="addr:street" v="11-й микрорайон"/>
    <tag k="is_in" v="Russia"/>
  </way>
  <way id="95531699" version="3" timestamp="2011-03-14T11:07:03Z" uid="115477" user="wowik" changeset="7555126">
    <nd ref="1107763182"/>
    <nd ref="1107763477"/>
    <nd ref="1107763334"/>
    <nd ref="1107763555"/>
    <nd ref="1107763182"/>
    <tag k="addr:city" v="Зеленоград"/>
    <tag k="addr:housenumber" v="1145 с2"/>
    <tag k="addr:street" v="11-й Микрорайон"/>
    <tag k="is_in" v="Russia"/>
  </way>
  <way id="95531700" version="1" timestamp="2011-01-17T16:51:24Z" uid="115477" user="wowik" changeset="7001307">
    <nd ref="1107762715"/>
    <nd ref="1107762879"/>
    <nd ref="1107763402"/>
    <nd ref="1107763050"/>
    <nd ref="461009320"/>
    <nd ref="984980003"/>
    <nd ref="1107762715"/>
    <tag k="amenity" v="school"/>
    <tag k="building" v="yes"/>
    <tag k="building:levels" v="2"/>
  </way>
  <way id="95531701" version="1" timestamp="2011-01-17T16:51:24Z" uid="115477" user="wowik" changeset="7001307">
    <nd ref="1107763522"/>
    <nd ref="1107763439"/>
    <nd ref="1107762711"/>
    <nd ref="1107763565"/>
    <nd ref="1107763522"/>
  </way>
  <way id="95531701" version="2" timestamp="2011-04-01T18:16:51Z" uid="115477" user="wowik" changeset="7737524">
    <nd ref="1107763522"/>
    <nd ref="1107763439"/>
    <nd ref="1107762711"/>
    <nd ref="1107763565"/>
    <nd ref="1107763522"/>
    <tag k="leisure" v="pitch"/>
  </way>
  <way id="95531702" version="1" timestamp="2011-01-17T16:51:24Z" uid="115477" user="wowik" changeset="7001307">
    <nd ref="1107763077"/>
    <nd ref="1107763365"/>
    <nd ref="1107763243"/>
    <nd ref="1107763503"/>
    <nd ref="1107763077"/>
  </way>
  <way id="95531702" version="2" timestamp="2011-04-01T18:16:48Z" uid="115477" user="wowik" changeset="7737524">
    <nd ref="1107763077"/>
    <nd ref="1107763365"/>
    <nd ref="1107763243"/>
    <nd ref="1107763503"/>
    <nd ref="1107763077"/>
    <tag k="leisure" v="pitch"/>
  </way>
  <way id="95531703" version="1" timestamp="2011-01-17T16:51:24Z" uid="115477" user="wowik" changeset="7001307">
    <nd ref="1107763228"/>
    <nd ref="1107763499"/>
    <nd ref="1107762797"/>
    <nd ref="1107763610"/>
    <nd ref="1107763228"/>
    <tag k="leisure" v="pitch"/>
  </way>
  <way id="95531706" version="1" timestamp="2011-01-17T16:51:25Z" uid="115477" user="wowik" changeset="7001307">
    <nd ref="1107763171"/>
    <nd ref="1107763715"/>
    <nd ref="1107763384"/>
    <nd ref="1107763720"/>
    <nd ref="1107763367"/>
    <nd ref="1107763469"/>
    <nd ref="1107763616"/>
    <nd ref="1107763096"/>
    <nd ref="1107763171"/>
    <tag k="addr:city" v="Зеленоград"/>
    <tag k="building" v="yes"/>
    <tag k="building:levels" v="1"/>
    <tag k="is_in" v="Russia"/>
  </way>
  <way id="95531707" version="1" timestamp="2011-01-17T16:51:25Z" uid="115477" user="wowik" changeset="7001307">
    <nd ref="1107762717"/>
    <nd ref="1107763697"/>
    <nd ref="1107762882"/>
    <nd ref="1107763118"/>
    <nd ref="1107762717"/>
    <tag k="addr:city" v="Зеленоград"/>
    <tag k="addr:housenumber" v="1106с1?"/>
    <tag k="addr:street" v="11-й Микрорайон"/>
    <tag k="building" v="yes"/>
    <tag k="is_in" v="Russia"/>
    <tag k="shop" v="yes"/>
  </way>
  <way id="95531708" version="1" timestamp="2011-01-17T16:51:25Z" uid="115477" user="wowik" changeset="7001307">
    <nd ref="461008531"/>
    <nd ref="1107762752"/>
    <nd ref="1107763278"/>
    <nd ref="1107762946"/>
    <nd ref="1107763482"/>
    <nd ref="984980011"/>
    <nd ref="461008531"/>
    <tag k="amenity" v="school"/>
    <tag k="building" v="yes"/>
    <tag k="building:levels" v="2"/>
  </way>
  <way id="95531709" version="1" timestamp="2011-01-17T16:51:25Z" uid="115477" user="wowik" changeset="7001307">
    <nd ref="1107763126"/>
    <nd ref="1107763428"/>
    <nd ref="1107763299"/>
    <nd ref="1107763529"/>
    <nd ref="1107763126"/>
    <tag k="addr:city" v="Зеленоград"/>
    <tag k="addr:country" v="RU"/>
    <tag k="addr:street" v="Крюковская площадь"/>
    <tag k="amenity" v="market"/>
    <tag k="landuse" v="commercial"/>
    <tag k="shop" v="yes"/>
  </way>
  <way id="95531709" version="2" timestamp="2011-01-17T17:38:45Z" uid="115477" user="wowik" changeset="7001640">
    <nd ref="1107763126"/>
    <nd ref="1107763428"/>
    <nd ref="1107763299"/>
    <nd ref="1107763529"/>
    <nd ref="1107763126"/>
    <tag k="addr:city" v="Зеленоград"/>
    <tag k="addr:country" v="RU"/>
    <tag k="addr:street" v="Крюковская площадь"/>
    <tag k="amenity" v="market"/>
    <tag k="building:levels" v="1"/>
    <tag k="landuse" v="commercial"/>
    <tag k="shop" v="yes"/>
  </way>
  <way id="95531711" version="1" timestamp="2011-01-17T16:51:26Z" uid="115477" user="wowik" changeset="7001307">
    <nd ref="1107763110"/>
    <nd ref="1107763652"/>
    <nd ref="1107762804"/>
    <nd ref="1107763625"/>
    <nd ref="1107763110"/>
    <tag k="addr:city" v="Зеленоград"/>
    <tag k="building" v="yes"/>
    <tag k="building:levels" v="1"/>
    <tag k="is_in" v="Russia"/>
  </way>
  <way id="95531712" version="1" timestamp="2011-01-17T16:51:26Z" uid="115477" user="wowik" changeset="7001307">
    <nd ref="1107763509"/>
    <nd ref="1107763409"/>
    <nd ref="1107763594"/>
    <nd ref="1107762665"/>
    <nd ref="1107763509"/>
    <tag k="addr:city" v="Зеленоград"/>
    <tag k="addr:country" v="RU"/>
    <tag k="addr:street" v="Крюковская площадь"/>
    <tag k="amenity" v="market"/>
    <tag k="landuse" v="commercial"/>
    <tag k="shop" v="yes"/>
  </way>
  <way id="95531712" version="2" timestamp="2011-01-17T17:37:46Z" uid="115477" user="wowik" changeset="7001640">
    <nd ref="1107763509"/>
    <nd ref="1107763409"/>
    <nd ref="1107763594"/>
    <nd ref="1107762665"/>
    <nd ref="1107763509"/>
    <tag k="addr:city" v="Зеленоград"/>
    <tag k="addr:country" v="RU"/>
    <tag k="addr:street" v="Крюковская площадь"/>
    <tag k="amenity" v="market"/>
    <tag k="building:levels" v="1"/>
    <tag k="landuse" v="commercial"/>
    <tag k="shop" v="yes"/>
  </way>
  <way id="95531713" version="1" timestamp="2011-01-17T16:51:26Z" uid="115477" user="wowik" changeset="7001307">
    <nd ref="1107763104"/>
    <nd ref="1107763435"/>
    <nd ref="1107763058"/>
    <nd ref="1107762909"/>
    <nd ref="1107763326"/>
    <nd ref="1107763648"/>
    <nd ref="1107762803"/>
    <nd ref="1107763035"/>
    <nd ref="1107763104"/>
    <tag k="addr:city" v="Зеленоград"/>
    <tag k="building" v="yes"/>
    <tag k="building:levels" v="1"/>
    <tag k="is_in" v="Russia"/>
  </way>
  <way id="95531714" version="1" timestamp="2011-01-17T16:51:27Z" uid="115477" user="wowik" changeset="7001307">
    <nd ref="1107763588"/>
    <nd ref="1107762652"/>
    <nd ref="1107763151"/>
    <nd ref="1107763323"/>
    <nd ref="1107762825"/>
    <nd ref="1107763354"/>
    <nd ref="1107763694"/>
    <nd ref="1107763501"/>
    <nd ref="1107763588"/>
  </way>
  <way id="95531714" version="2" timestamp="2011-04-01T18:16:58Z" uid="115477" user="wowik" changeset="7737524">
    <nd ref="1107763588"/>
    <nd ref="1107762652"/>
    <nd ref="1107763151"/>
    <nd ref="1107763323"/>
    <nd ref="1107762825"/>
    <nd ref="1107763354"/>
    <nd ref="1107763694"/>
    <nd ref="1107763501"/>
    <nd ref="1107763588"/>
    <tag k="leisure" v="pitch"/>
  </way>
  <way id="95531715" version="1" timestamp="2011-01-17T16:51:27Z" uid="115477" user="wowik" changeset="7001307">
    <nd ref="1107762931"/>
    <nd ref="1107763531"/>
    <nd ref="1107763692"/>
    <nd ref="1107762843"/>
    <nd ref="1107762931"/>
    <tag k="addr:city" v="Зеленоград"/>
    <tag k="addr:street" v="11-й микрорайон"/>
    <tag k="is_in" v="Russia"/>
  </way>
  <way id="95531715" version="2" timestamp="2011-03-14T11:07:03Z" uid="115477" user="wowik" changeset="7555126">
    <nd ref="1107762931"/>
    <nd ref="1107763531"/>
    <nd ref="1107763692"/>
    <nd ref="1107762843"/>
    <nd ref="1107762931"/>
    <tag k="addr:city" v="Зеленоград"/>
    <tag k="addr:street" v="11-й Микрорайон"/>
    <tag k="is_in" v="Russia"/>
  </way>
  <way id="95531716" version="1" timestamp="2011-01-17T16:51:27Z" uid="115477" user="wowik" changeset="7001307">
    <nd ref="1107762867"/>
    <nd ref="1107763106"/>
    <nd ref="1107763394"/>
    <nd ref="1107763270"/>
    <nd ref="1107762867"/>
    <tag k="addr:city" v="Зеленоград"/>
    <tag k="addr:housenumber" v="1106с2"/>
    <tag k="addr:street" v="11-й Микрорайон"/>
    <tag k="building" v="yes"/>
    <tag k="is_in" v="Russia"/>
    <tag k="shop" v="yes"/>
  </way>
  <way id="95531717" version="1" timestamp="2011-01-17T16:51:27Z" uid="115477" user="wowik" changeset="7001307">
    <nd ref="1107763074"/>
    <nd ref="1107763361"/>
    <nd ref="1107763570"/>
    <nd ref="1107763190"/>
    <nd ref="1107763074"/>
    <tag k="addr:city" v="Зеленоград"/>
    <tag k="addr:country" v="RU"/>
    <tag k="addr:street" v="Крюковская площадь"/>
    <tag k="amenity" v="market"/>
    <tag k="landuse" v="commercial"/>
    <tag k="shop" v="yes"/>
  </way>
  <way id="95531717" version="2" timestamp="2011-01-17T17:38:36Z" uid="115477" user="wowik" changeset="7001640">
    <nd ref="1107763074"/>
    <nd ref="1107763361"/>
    <nd ref="1107763570"/>
    <nd ref="1107763190"/>
    <nd ref="1107763074"/>
    <tag k="addr:city" v="Зеленоград"/>
    <tag k="addr:country" v="RU"/>
    <tag k="addr:street" v="Крюковская площадь"/>
    <tag k="amenity" v="market"/>
    <tag k="building:levels" v="1"/>
    <tag k="landuse" v="commercial"/>
    <tag k="shop" v="yes"/>
  </way>
  <way id="95531718" version="1" timestamp="2011-01-17T16:51:28Z" uid="115477" user="wowik" changeset="7001307">
    <nd ref="902597775"/>
    <nd ref="902597784"/>
    <nd ref="902597786"/>
    <nd ref="902597787"/>
    <nd ref="902597789"/>
    <nd ref="902597790"/>
    <nd ref="902597792"/>
    <nd ref="902597793"/>
    <nd ref="902597773"/>
    <nd ref="902597795"/>
    <nd ref="902597796"/>
    <nd ref="902597798"/>
    <nd ref="902597799"/>
    <nd ref="1107763239"/>
    <nd ref="902597801"/>
    <nd ref="902597803"/>
    <nd ref="902597804"/>
    <nd ref="902597806"/>
    <tag k="bicycle" v="yes"/>
    <tag k="foot" v="yes"/>
    <tag k="highway" v="footway"/>
    <tag k="motorcar" v="no"/>
    <tag k="surface" v="paved"/>
  </way>
  <way id="95531718" version="2" timestamp="2011-01-17T18:09:12Z" uid="115477" user="wowik" changeset="7002184">
    <nd ref="902597775"/>
    <nd ref="902597784"/>
    <nd ref="902597786"/>
    <nd ref="902597787"/>
    <nd ref="902597789"/>
    <nd ref="902597790"/>
    <nd ref="902597792"/>
    <nd ref="902597793"/>
    <nd ref="1107864609"/>
    <nd ref="902597773"/>
    <nd ref="902597795"/>
    <nd ref="902597796"/>
    <nd ref="902597798"/>
    <nd ref="902597799"/>
    <nd ref="1107763239"/>
    <nd ref="902597801"/>
    <nd ref="902597803"/>
    <nd ref="902597804"/>
    <nd ref="902597806"/>
    <tag k="bicycle" v="yes"/>
    <tag k="foot" v="yes"/>
    <tag k="highway" v="footway"/>
    <tag k="motorcar" v="no"/>
    <tag k="surface" v="paved"/>
  </way>
  <way id="95531718" version="3" timestamp="2011-02-06T14:44:57Z" uid="115477" user="wowik" changeset="7204196">
    <nd ref="902597775"/>
    <nd ref="902597784"/>
    <nd ref="1139203217"/>
    <nd ref="1139203216"/>
    <nd ref="902597786"/>
    <nd ref="902597787"/>
    <nd ref="902597789"/>
    <nd ref="902597790"/>
    <nd ref="902597792"/>
    <nd ref="902597793"/>
    <nd ref="1107864609"/>
    <nd ref="902597773"/>
    <nd ref="902597795"/>
    <nd ref="902597796"/>
    <nd ref="902597798"/>
    <nd ref="902597799"/>
    <nd ref="1107763239"/>
    <nd ref="902597801"/>
    <nd ref="902597803"/>
    <nd ref="902597804"/>
    <nd ref="902597806"/>
    <tag k="bicycle" v="yes"/>
    <tag k="foot" v="yes"/>
    <tag k="highway" v="footway"/>
    <tag k="motorcar" v="no"/>
    <tag k="surface" v="paved"/>
  </way>
  <way id="95531719" version="1" timestamp="2011-01-17T16:51:28Z" uid="115477" user="wowik" changeset="7001307">
    <nd ref="1107763524"/>
    <nd ref="1107763678"/>
    <nd ref="1107762838"/>
    <nd ref="1107763631"/>
    <nd ref="1107763022"/>
    <nd ref="1107763071"/>
    <nd ref="1107763524"/>
    <tag k="addr:city" v="Зеленоград"/>
    <tag k="addr:housenumber" v="1102с1"/>
    <tag k="addr:street" v="11-й микрорайон"/>
    <tag k="is_in" v="Russia"/>
  </way>
  <way id="95531719" version="3" timestamp="2011-03-14T11:07:01Z" uid="115477" user="wowik" changeset="7555126">
    <nd ref="1107763524"/>
    <nd ref="1107763678"/>
    <nd ref="1107762838"/>
    <nd ref="1107763631"/>
    <nd ref="1107763022"/>
    <nd ref="1107763071"/>
    <nd ref="1107763524"/>
    <tag k="addr:city" v="Зеленоград"/>
    <tag k="addr:housenumber" v="1102 с1"/>
    <tag k="addr:street" v="11-й Микрорайон"/>
    <tag k="is_in" v="Russia"/>
  </way>
  <way id="95531720" version="1" timestamp="2011-01-17T16:51:28Z" uid="115477" user="wowik" changeset="7001307">
    <nd ref="1107762852"/>
    <nd ref="1107763093"/>
    <nd ref="1107763684"/>
    <nd ref="1107763075"/>
    <nd ref="1107762787"/>
    <nd ref="1107763297"/>
    <nd ref="1107763458"/>
    <nd ref="1107763507"/>
    <nd ref="1107763710"/>
    <nd ref="1107762852"/>
    <tag k="natural" v="wood"/>
  </way>
  <way id="95531721" version="1" timestamp="2011-01-17T16:51:28Z" uid="115477" user="wowik" changeset="7001307">
    <nd ref="1107763709"/>
    <nd ref="1107762922"/>
    <nd ref="1107763153"/>
    <nd ref="1107763456"/>
    <nd ref="1107763709"/>
    <tag k="addr:city" v="Зеленоград"/>
    <tag k="addr:country" v="RU"/>
    <tag k="addr:street" v="Крюковская площадь"/>
    <tag k="amenity" v="market"/>
    <tag k="landuse" v="commercial"/>
    <tag k="shop" v="yes"/>
  </way>
  <way id="95531721" version="2" timestamp="2011-01-17T17:37:25Z" uid="115477" user="wowik" changeset="7001640">
    <nd ref="1107763709"/>
    <nd ref="1107762922"/>
    <nd ref="1107763153"/>
    <nd ref="1107763456"/>
    <nd ref="1107763709"/>
    <tag k="addr:city" v="Зеленоград"/>
    <tag k="addr:country" v="RU"/>
    <tag k="addr:street" v="Крюковская площадь"/>
    <tag k="amenity" v="market"/>
    <tag k="building:levels" v="1"/>
    <tag k="landuse" v="commercial"/>
    <tag k="shop" v="yes"/>
  </way>
  <way id="95531722" version="1" timestamp="2011-01-17T16:51:29Z" uid="115477" user="wowik" changeset="7001307">
    <nd ref="939957277"/>
    <nd ref="1107763329"/>
    <nd ref="1107763696"/>
    <nd ref="1107762775"/>
    <tag k="highway" v="service"/>
    <tag k="living_street" v="yes"/>
  </way>
  <way id="95531724" version="1" timestamp="2011-01-17T16:51:29Z" uid="115477" user="wowik" changeset="7001307">
    <nd ref="1107763670"/>
    <nd ref="1107762814"/>
    <nd ref="1107763056"/>
    <nd ref="1107763497"/>
    <nd ref="1107763670"/>
    <tag k="addr:city" v="Зеленоград"/>
    <tag k="addr:housenumber" v="1103А"/>
    <tag k="addr:street" v="11-й микрорайон"/>
    <tag k="is_in" v="Russia"/>
  </way>
  <way id="95531724" version="2" timestamp="2011-03-14T11:07:03Z" uid="115477" user="wowik" changeset="7555126">
    <nd ref="1107763670"/>
    <nd ref="1107762814"/>
    <nd ref="1107763056"/>
    <nd ref="1107763497"/>
    <nd ref="1107763670"/>
    <tag k="addr:city" v="Зеленоград"/>
    <tag k="addr:housenumber" v="1103А"/>
    <tag k="addr:street" v="11-й Микрорайон"/>
    <tag k="is_in" v="Russia"/>
  </way>
  <way id="95531725" version="1" timestamp="2011-01-17T16:51:29Z" uid="115477" user="wowik" changeset="7001307">
    <nd ref="1107762748"/>
    <nd ref="1107763007"/>
    <nd ref="1107763272"/>
    <nd ref="1107763515"/>
    <nd ref="1107762748"/>
    <tag k="addr:city" v="Зеленоград"/>
    <tag k="addr:country" v="RU"/>
    <tag k="addr:housenumber" v="с4"/>
    <tag k="addr:street" v="Крюковская площадь"/>
    <tag k="amenity" v="market"/>
    <tag k="building" v="yes"/>
    <tag k="is_in" v="Russia"/>
    <tag k="landuse" v="commercial"/>
    <tag k="name" v="кассы пригородных поездов"/>
    <tag k="shop" v="yes"/>
  </way>
  <way id="95531725" version="2" timestamp="2011-01-17T17:37:55Z" uid="115477" user="wowik" changeset="7001640">
    <nd ref="1107762748"/>
    <nd ref="1107763007"/>
    <nd ref="1107763272"/>
    <nd ref="1107763515"/>
    <nd ref="1107762748"/>
    <tag k="addr:city" v="Зеленоград"/>
    <tag k="addr:country" v="RU"/>
    <tag k="addr:housenumber" v="с4"/>
    <tag k="addr:street" v="Крюковская площадь"/>
    <tag k="amenity" v="market"/>
    <tag k="building" v="yes"/>
    <tag k="building:levels" v="1"/>
    <tag k="is_in" v="Russia"/>
    <tag k="landuse" v="commercial"/>
    <tag k="name" v="кассы пригородных поездов"/>
    <tag k="shop" v="yes"/>
  </way>
  <way id="95531726" version="1" timestamp="2011-01-17T16:51:29Z" uid="115477" user="wowik" changeset="7001307">
    <nd ref="1107762683"/>
    <nd ref="1107763641"/>
    <nd ref="1107763686"/>
    <nd ref="1107763024"/>
    <nd ref="1107763629"/>
    <nd ref="1107762964"/>
    <nd ref="1107763203"/>
    <nd ref="1107763704"/>
    <nd ref="1107762683"/>
    <tag k="addr:city" v="Зеленоград"/>
    <tag k="addr:country" v="RU"/>
    <tag k="addr:street" v="Крюковская площадь"/>
    <tag k="amenity" v="market"/>
    <tag k="landuse" v="commercial"/>
    <tag k="shop" v="yes"/>
  </way>
  <way id="95531726" version="2" timestamp="2011-01-17T17:38:23Z" uid="115477" user="wowik" changeset="7001640">
    <nd ref="1107762683"/>
    <nd ref="1107763641"/>
    <nd ref="1107763686"/>
    <nd ref="1107763024"/>
    <nd ref="1107763629"/>
    <nd ref="1107762964"/>
    <nd ref="1107763203"/>
    <nd ref="1107763704"/>
    <nd ref="1107762683"/>
    <tag k="addr:city" v="Зеленоград"/>
    <tag k="addr:country" v="RU"/>
    <tag k="addr:street" v="Крюковская площадь"/>
    <tag k="amenity" v="market"/>
    <tag k="building:levels" v="1"/>
    <tag k="landuse" v="commercial"/>
    <tag k="shop" v="yes"/>
  </way>
  <way id="95531728" version="1" timestamp="2011-01-17T16:51:30Z" uid="115477" user="wowik" changeset="7001307">
    <nd ref="1107762951"/>
    <nd ref="1107762712"/>
    <nd ref="1107763229"/>
    <nd ref="1107763197"/>
    <nd ref="1107763066"/>
    <nd ref="1107763357"/>
    <nd ref="1107762951"/>
    <tag k="addr:city" v="Зеленоград"/>
    <tag k="addr:country" v="RU"/>
    <tag k="addr:street" v="Крюковская площадь"/>
    <tag k="amenity" v="market"/>
    <tag k="landuse" v="commercial"/>
    <tag k="shop" v="yes"/>
  </way>
  <way id="95531728" version="2" timestamp="2011-01-17T17:39:06Z" uid="115477" user="wowik" changeset="7001640">
    <nd ref="1107762951"/>
    <nd ref="1107762712"/>
    <nd ref="1107763229"/>
    <nd ref="1107763197"/>
    <nd ref="1107763066"/>
    <nd ref="1107763357"/>
    <nd ref="1107762951"/>
    <tag k="addr:city" v="Зеленоград"/>
    <tag k="addr:country" v="RU"/>
    <tag k="addr:street" v="Крюковская площадь"/>
    <tag k="amenity" v="market"/>
    <tag k="building:levels" v="1"/>
    <tag k="landuse" v="commercial"/>
    <tag k="shop" v="yes"/>
  </way>
  <way id="95531729" version="1" timestamp="2011-01-17T16:51:31Z" uid="115477" user="wowik" changeset="7001307">
    <nd ref="1107762688"/>
    <nd ref="1107763380"/>
    <nd ref="1107763541"/>
    <nd ref="1107763577"/>
    <nd ref="1107762688"/>
    <tag k="addr:city" v="Зеленоград"/>
    <tag k="addr:housenumber" v="22с1"/>
    <tag k="addr:street" v="Панфиловский проспект"/>
    <tag k="building" v="yes"/>
    <tag k="is_in" v="Russia"/>
  </way>
  <way id="95531729" version="3" timestamp="2011-01-26T18:24:55Z" uid="115477" user="wowik" changeset="7096167">
    <nd ref="1107762688"/>
    <nd ref="1107763380"/>
    <nd ref="1107763541"/>
    <nd ref="1107763577"/>
    <nd ref="1107762688"/>
    <tag k="addr:city" v="Зеленоград"/>
    <tag k="addr:housenumber" v="23"/>
    <tag k="addr:street" v="Панфиловский проспект"/>
    <tag k="building" v="yes"/>
    <tag k="building:levels" v="1"/>
    <tag k="is_in" v="Russia"/>
    <tag k="note" v="addr:housemunber неточен"/>
  </way>
  <way id="95531729" version="4" timestamp="2011-01-29T16:08:17Z" uid="115477" user="wowik" changeset="7123769">
    <nd ref="1107762688"/>
    <nd ref="1107763380"/>
    <nd ref="1107763541"/>
    <nd ref="1107763577"/>
    <nd ref="1107762688"/>
    <tag k="addr:city" v="Зеленоград"/>
    <tag k="addr:housenumber" v="23?"/>
    <tag k="addr:street" v="Панфиловский проспект"/>
    <tag k="building" v="yes"/>
    <tag k="building:levels" v="1"/>
    <tag k="is_in" v="Russia"/>
    <tag k="note" v="addr:housemunber неточен"/>
  </way>
  <way id="95531729" version="5" timestamp="2011-02-02T17:44:06Z" uid="115477" user="wowik" changeset="7166738">
    <nd ref="1107762688"/>
    <nd ref="1107763380"/>
    <nd ref="1107763541"/>
    <nd ref="1107763577"/>
    <nd ref="1107762688"/>
    <tag k="addr:city" v="Зеленоград"/>
    <tag k="addr:housenumber" v="23?"/>
    <tag k="addr:street" v="Панфиловский проспект"/>
    <tag k="building" v="yes"/>
    <tag k="building:levels" v="1"/>
    <tag k="is_in" v="Russia"/>
    <tag k="note" v="addr:housenumber нeточен"/>
  </way>
  <way id="95531729" version="6" timestamp="2011-02-04T10:33:26Z" uid="115477" user="wowik" changeset="7181742">
    <nd ref="1107762688"/>
    <nd ref="1107763380"/>
    <nd ref="1107763541"/>
    <nd ref="1107763577"/>
    <nd ref="1107762688"/>
    <tag k="addr:city" v="Зеленоград"/>
    <tag k="addr:housenumber" v="22 с1?"/>
    <tag k="addr:street" v="Панфиловский проспект"/>
    <tag k="building" v="yes"/>
    <tag k="building:levels" v="1"/>
    <tag k="is_in" v="Russia"/>
    <tag k="note" v="addr:housenumber нeточен"/>
  </way>
  <way id="95531731" version="1" timestamp="2011-01-17T16:51:31Z" uid="115477" user="wowik" changeset="7001307">
    <nd ref="1107762973"/>
    <nd ref="1107763241"/>
    <nd ref="1107763109"/>
    <nd ref="1107763400"/>
    <nd ref="1107762973"/>
    <tag k="addr:city" v="Зеленоград"/>
    <tag k="building" v="yes"/>
    <tag k="building:levels" v="1"/>
    <tag k="is_in" v="Russia"/>
  </way>
  <way id="95531732" version="1" timestamp="2011-01-17T16:51:32Z" uid="115477" user="wowik" changeset="7001307">
    <nd ref="1107763682"/>
    <nd ref="1107763201"/>
    <nd ref="1107763485"/>
    <nd ref="1107763634"/>
    <nd ref="1107763682"/>
    <tag k="addr:city" v="Зеленоград"/>
    <tag k="addr:country" v="RU"/>
    <tag k="addr:street" v="Крюковская площадь"/>
    <tag k="amenity" v="market"/>
    <tag k="landuse" v="commercial"/>
    <tag k="shop" v="yes"/>
  </way>
  <way id="95531732" version="2" timestamp="2011-01-17T17:36:41Z" uid="115477" user="wowik" changeset="7001640">
    <nd ref="1107763682"/>
    <nd ref="1107763201"/>
    <nd ref="1107763485"/>
    <nd ref="1107763634"/>
    <nd ref="1107763682"/>
    <tag k="addr:city" v="Зеленоград"/>
    <tag k="addr:country" v="RU"/>
    <tag k="addr:street" v="Крюковская площадь"/>
    <tag k="amenity" v="market"/>
    <tag k="building:levels" v="1"/>
    <tag k="landuse" v="commercial"/>
    <tag k="shop" v="yes"/>
  </way>
  <way id="95531733" version="1" timestamp="2011-01-17T16:51:32Z" uid="115477" user="wowik" changeset="7001307">
    <nd ref="1107762692"/>
    <nd ref="1107762968"/>
    <nd ref="1107763227"/>
    <nd ref="1107763707"/>
    <nd ref="1107762692"/>
    <tag k="addr:city" v="Зеленоград"/>
    <tag k="addr:country" v="RU"/>
    <tag k="addr:housenumber" v="с4"/>
    <tag k="addr:street" v="Крюковская площадь"/>
  </way>
  <way id="95531733" version="2" timestamp="2011-01-17T17:37:42Z" uid="115477" user="wowik" changeset="7001640">
    <nd ref="1107762692"/>
    <nd ref="1107762968"/>
    <nd ref="1107763227"/>
    <nd ref="1107763707"/>
    <nd ref="1107762692"/>
    <tag k="addr:city" v="Зеленоград"/>
    <tag k="addr:country" v="RU"/>
    <tag k="addr:housenumber" v="с4"/>
    <tag k="addr:street" v="Крюковская площадь"/>
    <tag k="building:levels" v="1"/>
  </way>
  <way id="95531734" version="1" timestamp="2011-01-17T16:51:32Z" uid="115477" user="wowik" changeset="7001307">
    <nd ref="1107763706"/>
    <nd ref="1107762914"/>
    <nd ref="1107763226"/>
    <nd ref="1107763064"/>
    <nd ref="1107763516"/>
    <nd ref="1107763672"/>
    <nd ref="1107763706"/>
    <tag k="addr:city" v="Зеленоград"/>
    <tag k="addr:housenumber" v="1011с1"/>
    <tag k="addr:street" v="10-й Микрорайон"/>
    <tag k="building" v="yes"/>
    <tag k="is_in" v="Russia"/>
  </way>
  <way id="95531734" version="3" timestamp="2011-01-21T19:49:02Z" uid="115477" user="wowik" changeset="7043826">
    <nd ref="1107763706"/>
    <nd ref="1107762914"/>
    <nd ref="1107763226"/>
    <nd ref="1107763064"/>
    <nd ref="1107763516"/>
    <nd ref="1107763672"/>
    <nd ref="1107763706"/>
    <tag k="addr:city" v="Зеленоград"/>
    <tag k="addr:housenumber" v="1011 с1"/>
    <tag k="addr:street" v="10-й Микрорайон"/>
    <tag k="building" v="yes"/>
    <tag k="building:levels" v="1"/>
    <tag k="is_in" v="Russia"/>
  </way>
  <way id="95531736" version="1" timestamp="2011-01-17T16:51:32Z" uid="115477" user="wowik" changeset="7001307">
    <nd ref="1107762994"/>
    <nd ref="1107763266"/>
    <nd ref="1107763511"/>
    <nd ref="1107763664"/>
    <nd ref="1107762994"/>
    <tag k="addr:city" v="Зеленоград"/>
    <tag k="addr:country" v="RU"/>
    <tag k="addr:street" v="Крюковская площадь"/>
    <tag k="amenity" v="market"/>
    <tag k="landuse" v="commercial"/>
    <tag k="shop" v="yes"/>
  </way>
  <way id="95531736" version="2" timestamp="2011-01-17T17:38:27Z" uid="115477" user="wowik" changeset="7001640">
    <nd ref="1107762994"/>
    <nd ref="1107763266"/>
    <nd ref="1107763511"/>
    <nd ref="1107763664"/>
    <nd ref="1107762994"/>
    <tag k="addr:city" v="Зеленоград"/>
    <tag k="addr:country" v="RU"/>
    <tag k="addr:street" v="Крюковская площадь"/>
    <tag k="amenity" v="market"/>
    <tag k="building:levels" v="1"/>
    <tag k="landuse" v="commercial"/>
    <tag k="shop" v="yes"/>
  </way>
  <way id="95531738" version="1" timestamp="2011-01-17T16:51:33Z" uid="115477" user="wowik" changeset="7001307">
    <nd ref="1107762980"/>
    <nd ref="1107763250"/>
    <nd ref="1107763650"/>
    <nd ref="1107763460"/>
    <nd ref="1107763717"/>
    <nd ref="1107762934"/>
    <nd ref="1107762980"/>
    <tag k="addr:city" v="Зеленоград"/>
    <tag k="addr:housenumber" v="1118с1"/>
    <tag k="addr:street" v="11-й Микрорайон"/>
    <tag k="building" v="yes"/>
    <tag k="is_in" v="Russia"/>
    <tag k="shop" v="yes"/>
  </way>
  <way id="95531741" version="1" timestamp="2011-01-17T16:51:33Z" uid="115477" user="wowik" changeset="7001307">
    <nd ref="1107762977"/>
    <nd ref="1107763246"/>
    <nd ref="1107763505"/>
    <nd ref="1107763654"/>
    <nd ref="1107762977"/>
    <tag k="addr:city" v="Зеленоград"/>
    <tag k="addr:street" v="11-й микрорайон"/>
    <tag k="is_in" v="Russia"/>
  </way>
  <way id="95531741" version="2" timestamp="2011-03-14T11:07:02Z" uid="115477" user="wowik" changeset="7555126">
    <nd ref="1107762977"/>
    <nd ref="1107763246"/>
    <nd ref="1107763505"/>
    <nd ref="1107763654"/>
    <nd ref="1107762977"/>
    <tag k="addr:city" v="Зеленоград"/>
    <tag k="addr:street" v="11-й Микрорайон"/>
    <tag k="is_in" v="Russia"/>
  </way>
  <way id="95531742" version="1" timestamp="2011-01-17T16:51:33Z" uid="115477" user="wowik" changeset="7001307">
    <nd ref="1107763713"/>
    <nd ref="1107762925"/>
    <nd ref="1107763155"/>
    <nd ref="1107763687"/>
    <nd ref="1107763713"/>
    <tag k="addr:city" v="Зеленоград"/>
    <tag k="addr:housenumber" v="828с1?"/>
    <tag k="addr:street" v="8-й Микрорайон"/>
    <tag k="building" v="yes"/>
    <tag k="is_in" v="Russia"/>
  </way>
  <way id="95531742" version="2" timestamp="2011-01-17T17:37:18Z" uid="115477" user="wowik" changeset="7001640">
    <nd ref="1107763713"/>
    <nd ref="1107762925"/>
    <nd ref="1107763155"/>
    <nd ref="1107763687"/>
    <nd ref="1107763713"/>
    <tag k="addr:city" v="Зеленоград"/>
    <tag k="addr:housenumber" v="828с1"/>
    <tag k="addr:street" v="8-й Микрорайон"/>
    <tag k="building" v="yes"/>
    <tag k="building:levels" v="1"/>
    <tag k="is_in" v="Russia"/>
  </way>
</osm>
