<?xml version='1.0' encoding='UTF-8'?>
<osm version="0.6" generator="libosmium/2.20.0">
  <way id="95569771" version="1" timestamp="2011-01-17T21:26:36Z" uid="9581" user="Lobelt" changeset="7004608">
    <nd ref="1108200380"/>
    <nd ref="1108200716"/>
    <nd ref="1108200137"/>
    <nd ref="1108200416"/>
    <nd ref="1108200380"/>
    <tag k="addr:city" v="Mannheim"/>
    <tag k="addr:housenumber" v="3"/>
    <tag k="addr:postcode" v="68167"/>
    <tag k="addr:street" v="Gallenbergweg"/>
    <tag k="building" v="yes"/>
  </way>
  <way id="95569772" version="1" timestamp="2011-01-17T21:26:36Z" uid="9581" user="Lobelt" changeset="7004608">
    <nd ref="1108200000"/>
    <nd ref="1108200428"/>
    <nd ref="1108201140"/>
    <nd ref="1108201207"/>
    <nd ref="1108200640"/>
    <nd ref="1108200890"/>
    <nd ref="1108200375"/>
    <nd ref="1108201008"/>
    <nd ref="1108200475"/>
    <nd ref="1108200680"/>
    <nd ref="1108200098"/>
    <nd ref="1108200205"/>
    <nd ref="1108200000"/>
    <tag k="addr:city" v="Mannheim"/>
    <tag k="addr:housenumber" v="21"/>
    <tag k="addr:postcode" v="68169"/>
    <tag k="addr:street" v="An der Radrennbahn"/>
    <tag k="building" v="yes"/>
  </way>
  <way id="95569773" version="1" timestamp="2011-01-17T21:26:36Z" uid="9581" user="Lobelt" changeset="7004608">
    <nd ref="1108200214"/>
    <nd ref="1108200352"/>
    <nd ref="1108201202"/>
    <nd ref="1108199921"/>
    <nd ref="1108200214"/>
    <tag k="building" v="yes"/>
  </way>
  <way id="95569774" version="1" timestamp="2011-01-17T21:26:36Z" uid="9581" user="Lobelt" changeset="7004608">
    <nd ref="1108201069"/>
    <nd ref="1108200509"/>
    <nd ref="1108200866"/>
    <nd ref="1108200348"/>
    <nd ref="1108201069"/>
    <tag k="addr:city" v="Mannheim"/>
    <tag k="addr:housenumber" v="16"/>
    <tag k="addr:postcode" v="68167"/>
    <tag k="addr:street" v="Gallenbergweg"/>
    <tag k="building" v="yes"/>
  </way>
  <way id="95569775" version="1" timestamp="2011-01-17T21:26:37Z" uid="9581" user="Lobelt" changeset="7004608">
    <nd ref="1108200139"/>
    <nd ref="1108201056"/>
    <nd ref="1108199892"/>
    <nd ref="1108200845"/>
    <nd ref="1108201104"/>
    <nd ref="1108200520"/>
    <nd ref="1108200609"/>
    <nd ref="1108199989"/>
    <nd ref="1108200324"/>
    <nd ref="1108201181"/>
    <nd ref="1108200046"/>
    <nd ref="1108200995"/>
    <nd ref="1108200139"/>
    <tag k="addr:city" v="Mannheim"/>
    <tag k="addr:housenumber" v="25"/>
    <tag k="addr:postcode" v="68169"/>
    <tag k="addr:street" v="An der Radrennbahn"/>
    <tag k="building" v="yes"/>
  </way>
  <way id="95569777" version="1" timestamp="2011-01-17T21:26:38Z" uid="9581" user="Lobelt" changeset="7004608">
    <nd ref="1108200634"/>
    <nd ref="1108201365"/>
    <tag k="highway" v="proposed"/>
    <tag k="name" v="Wilhelm-Neumann-Straße"/>
    <tag k="proposed" v="residential"/>
  </way>
  <way id="95569778" version="1" timestamp="2011-01-17T21:26:38Z" uid="9581" user="Lobelt" changeset="7004608">
    <nd ref="1108200940"/>
    <nd ref="1108201096"/>
    <nd ref="1108200478"/>
    <tag k="highway" v="proposed"/>
    <tag k="proposed" v="cycleway"/>
    <tag k="source" v="Bebauungsplan"/>
  </way>
  <way id="95569779" version="1" timestamp="2011-01-17T21:26:38Z" uid="9581" user="Lobelt" changeset="7004608">
    <nd ref="1108199925"/>
    <nd ref="1108200888"/>
    <nd ref="1108201138"/>
    <nd ref="1108200546"/>
    <nd ref="1108199925"/>
    <tag k="addr:city" v="Mannheim"/>
    <tag k="addr:housenumber" v="7"/>
    <tag k="addr:postcode" v="68167"/>
    <tag k="addr:street" v="Gallenbergweg"/>
    <tag k="building" v="yes"/>
  </way>
  <way id="95569781" version="1" timestamp="2011-01-17T21:26:39Z" uid="9581" user="Lobelt" changeset="7004608">
    <nd ref="1108200502"/>
    <nd ref="1108201070"/>
    <nd ref="1108200147"/>
    <nd ref="1108200278"/>
    <nd ref="1108200502"/>
    <tag k="addr:city" v="Mannheim"/>
    <tag k="addr:housenumber" v="27"/>
    <tag k="addr:postcode" v="68167"/>
    <tag k="addr:street" v="Johann-Weiß-Straße"/>
    <tag k="building" v="yes"/>
  </way>
  <way id="95569782" version="1" timestamp="2011-01-17T21:26:39Z" uid="9581" user="Lobelt" changeset="7004608">
    <nd ref="1108200483"/>
    <nd ref="1108201280"/>
    <tag k="highway" v="proposed"/>
    <tag k="proposed" v="cycleway"/>
    <tag k="source" v="Bebauungsplan"/>
  </way>
  <way id="95569783" version="1" timestamp="2011-01-17T21:26:40Z" uid="9581" user="Lobelt" changeset="7004608">
    <nd ref="1108200550"/>
    <nd ref="1108201397"/>
    <nd ref="1108201142"/>
    <nd ref="1108200953"/>
    <nd ref="1108200550"/>
    <tag k="addr:city" v="Mannheim"/>
    <tag k="addr:housenumber" v="55"/>
    <tag k="addr:postcode" v="68167"/>
    <tag k="addr:street" v="Johann-Weiß-Straße"/>
    <tag k="building" v="yes"/>
  </way>
  <way id="95569784" version="1" timestamp="2011-01-17T21:26:40Z" uid="9581" user="Lobelt" changeset="7004608">
    <nd ref="1108200004"/>
    <nd ref="1108200549"/>
    <tag k="highway" v="service"/>
  </way>
  <way id="95569785" version="1" timestamp="2011-01-17T21:26:40Z" uid="9581" user="Lobelt" changeset="7004608">
    <nd ref="1108201171"/>
    <nd ref="1108200281"/>
    <nd ref="1108201257"/>
    <nd ref="1108200676"/>
    <nd ref="1108201171"/>
    <tag k="addr:city" v="Mannheim"/>
    <tag k="addr:housenumber" v="19"/>
    <tag k="addr:postcode" v="68167"/>
    <tag k="addr:street" v="Johann-Weiß-Straße"/>
    <tag k="building" v="yes"/>
  </way>
  <way id="95569786" version="1" timestamp="2011-01-17T21:26:40Z" uid="9581" user="Lobelt" changeset="7004608">
    <nd ref="1108200959"/>
    <nd ref="1108200433"/>
    <nd ref="1108200194"/>
    <nd ref="1108201361"/>
    <nd ref="1108200861"/>
    <nd ref="1108200536"/>
    <nd ref="1108200646"/>
    <nd ref="1108200385"/>
    <nd ref="1108201345"/>
    <nd ref="1108200988"/>
    <nd ref="1108200807"/>
    <nd ref="1108200494"/>
    <nd ref="1108199949"/>
    <nd ref="1108200959"/>
    <tag k="landuse" v="construction"/>
  </way>
  <way id="95569787" version="1" timestamp="2011-01-17T21:26:41Z" uid="9581" user="Lobelt" changeset="7004608">
    <nd ref="1108200970"/>
    <nd ref="1108201210"/>
    <nd ref="1108200764"/>
    <nd ref="1108200437"/>
    <nd ref="1108200539"/>
    <nd ref="1108200208"/>
    <nd ref="1108200970"/>
    <tag k="addr:city" v="Mannheim"/>
    <tag k="addr:housenumber" v="1"/>
    <tag k="addr:postcode" v="68167"/>
    <tag k="addr:street" v="Johann-Weiß-Straße"/>
    <tag k="building" v="yes"/>
  </way>
  <way id="95569788" version="1" timestamp="2011-01-17T21:26:41Z" uid="9581" user="Lobelt" changeset="7004608">
    <nd ref="1108201275"/>
    <nd ref="1108200679"/>
    <nd ref="1108201070"/>
    <nd ref="1108200502"/>
    <nd ref="1108201275"/>
    <tag k="bridge" v="29"/>
    <tag k="building" v="yes"/>
  </way>
  <way id="95569789" version="1" timestamp="2011-01-17T21:26:42Z" uid="9581" user="Lobelt" changeset="7004608">
    <nd ref="1108199901"/>
    <nd ref="1108200184"/>
    <nd ref="1108201118"/>
    <nd ref="1108201200"/>
    <nd ref="1108199901"/>
    <tag k="addr:city" v="Mannheim"/>
    <tag k="addr:housenumber" v="44"/>
    <tag k="addr:postcode" v="68167"/>
    <tag k="addr:street" v="Johann-Weiß-Straße"/>
    <tag k="building" v="yes"/>
  </way>
  <way id="95569790" version="1" timestamp="2011-01-17T21:26:42Z" uid="9581" user="Lobelt" changeset="7004608">
    <nd ref="1108201185"/>
    <nd ref="1108200611"/>
    <nd ref="1108200141"/>
    <nd ref="1108201318"/>
    <nd ref="1108201111"/>
    <nd ref="1108200776"/>
    <nd ref="1108200327"/>
    <nd ref="1108199898"/>
    <nd ref="1108200932"/>
    <nd ref="1108200938"/>
    <nd ref="1108200576"/>
    <nd ref="1108200122"/>
    <nd ref="1108201282"/>
    <nd ref="1108200574"/>
    <nd ref="1108201071"/>
    <nd ref="1108200761"/>
    <nd ref="1108200288"/>
    <nd ref="1108199876"/>
    <nd ref="1108200093"/>
    <nd ref="1108201205"/>
    <nd ref="1108200884"/>
    <nd ref="1108200436"/>
    <nd ref="1108200012"/>
    <nd ref="1108201185"/>
    <tag k="building" v="yes"/>
  </way>
  <way id="95569791" version="1" timestamp="2011-01-17T21:26:43Z" uid="9581" user="Lobelt" changeset="7004608">
    <nd ref="1108200965"/>
    <nd ref="998730551"/>
    <tag k="highway" v="proposed"/>
    <tag k="name" v="Wilhelm-Neumann-Straße"/>
    <tag k="proposed" v="residential"/>
  </way>
  <way id="95569792" version="1" timestamp="2011-01-17T21:26:43Z" uid="9581" user="Lobelt" changeset="7004608">
    <nd ref="1108200954"/>
    <nd ref="1108200284"/>
    <nd ref="1108200966"/>
    <tag k="highway" v="proposed"/>
    <tag k="proposed" v="cycleway"/>
    <tag k="source" v="Bebauungsplan"/>
  </way>
  <way id="95569793" version="1" timestamp="2011-01-17T21:26:44Z" uid="9581" user="Lobelt" changeset="7004608">
    <nd ref="1108201002"/>
    <nd ref="1108201057"/>
    <nd ref="1108200174"/>
    <tag k="highway" v="service"/>
  </way>
  <way id="95569794" version="1" timestamp="2011-01-17T21:26:44Z" uid="9581" user="Lobelt" changeset="7004608">
    <nd ref="304159117"/>
    <nd ref="1108200133"/>
    <nd ref="535582348"/>
    <nd ref="1108200003"/>
    <nd ref="535539963"/>
    <nd ref="304159120"/>
    <tag k="bicycle" v="designated"/>
    <tag k="foot" v="designated"/>
    <tag k="highway" v="path"/>
    <tag k="segregated" v="no"/>
  </way>
  <way id="95569796" version="1" timestamp="2011-01-17T21:26:44Z" uid="9581" user="Lobelt" changeset="7004608">
    <nd ref="1108200756"/>
    <nd ref="1108200167"/>
    <nd ref="1108201339"/>
    <nd ref="1108200217"/>
    <nd ref="1108200756"/>
    <tag k="addr:city" v="Mannheim"/>
    <tag k="addr:housenumber" v="49"/>
    <tag k="addr:postcode" v="68167"/>
    <tag k="addr:street" v="Johann-Weiß-Straße"/>
    <tag k="building" v="yes"/>
  </way>
  <way id="95569797" version="1" timestamp="2011-01-17T21:26:45Z" uid="9581" user="Lobelt" changeset="7004608">
    <nd ref="1108199975"/>
    <nd ref="1108200440"/>
    <nd ref="1108201343"/>
    <nd ref="1108200032"/>
    <nd ref="1108199975"/>
    <tag k="addr:city" v="Mannheim"/>
    <tag k="addr:housenumber" v="6"/>
    <tag k="addr:postcode" v="68167"/>
    <tag k="addr:street" v="Gallenbergweg"/>
    <tag k="building" v="yes"/>
  </way>
  <way id="95569798" version="1" timestamp="2011-01-17T21:26:45Z" uid="9581" user="Lobelt" changeset="7004608">
    <nd ref="1108200482"/>
    <nd ref="1108201009"/>
    <nd ref="1108200542"/>
    <nd ref="1108199919"/>
    <nd ref="1108200482"/>
    <tag k="addr:city" v="Mannheim"/>
    <tag k="addr:housenumber" v="23"/>
    <tag k="addr:postcode" v="68167"/>
    <tag k="addr:street" v="Johann-Weiß-Straße"/>
    <tag k="building" v="yes"/>
  </way>
  <way id="95569799" version="1" timestamp="2011-01-17T21:26:45Z" uid="9581" user="Lobelt" changeset="7004608">
    <nd ref="1108200965"/>
    <nd ref="1108200445"/>
    <nd ref="1108200294"/>
    <tag k="highway" v="proposed"/>
    <tag k="proposed" v="cycleway"/>
    <tag k="source" v="Bebauungsplan"/>
  </way>
  <way id="95569800" version="1" timestamp="2011-01-17T21:26:46Z" uid="9581" user="Lobelt" changeset="7004608">
    <nd ref="1108200834"/>
    <nd ref="1108200935"/>
    <nd ref="1108200408"/>
    <nd ref="1108200516"/>
    <nd ref="1108200834"/>
    <tag k="addr:city" v="Mannheim"/>
    <tag k="addr:housenumber" v="48"/>
    <tag k="addr:postcode" v="68167"/>
    <tag k="addr:street" v="Johann-Weiß-Straße"/>
    <tag k="building" v="yes"/>
  </way>
  <way id="95569801" version="1" timestamp="2011-01-17T21:26:46Z" uid="9581" user="Lobelt" changeset="7004608">
    <nd ref="1108200617"/>
    <nd ref="1108200339"/>
    <nd ref="1108200793"/>
    <nd ref="1108200668"/>
    <nd ref="1108200859"/>
    <nd ref="1108200617"/>
    <tag k="addr:city" v="Mannheim"/>
    <tag k="addr:housenumber" v="40"/>
    <tag k="addr:postcode" v="68167"/>
    <tag k="addr:street" v="Johann-Weiß-Straße"/>
    <tag k="building" v="yes"/>
  </way>
  <way id="95569802" version="1" timestamp="2011-01-17T21:26:47Z" uid="9581" user="Lobelt" changeset="7004608">
    <nd ref="305057600"/>
    <nd ref="304159119"/>
    <tag k="highway" v="residential"/>
    <tag k="maxspeed" v="30"/>
    <tag k="name" v="Johann-Weiß-Straße"/>
  </way>
  <way id="95569803" version="1" timestamp="2011-01-17T21:26:47Z" uid="9581" user="Lobelt" changeset="7004608">
    <nd ref="1108200294"/>
    <nd ref="1108201067"/>
    <tag k="highway" v="proposed"/>
    <tag k="name" v="Anberlering"/>
    <tag k="proposed" v="residential"/>
    <tag k="source" v="Bebauungsplan"/>
  </way>
  <way id="95569803" version="2" timestamp="2011-01-18T08:07:51Z" uid="9581" user="Lobelt" changeset="7007775">
    <nd ref="1108200294"/>
    <nd ref="1108201067"/>
    <tag k="highway" v="proposed"/>
    <tag k="name" v="Aberlering"/>
    <tag k="proposed" v="residential"/>
    <tag k="source" v="Bebauungsplan"/>
  </way>
  <way id="95569804" version="1" timestamp="2011-01-17T21:26:47Z" uid="9581" user="Lobelt" changeset="7004608">
    <nd ref="1108200124"/>
    <nd ref="1108201049"/>
    <nd ref="1108201291"/>
    <nd ref="1108200709"/>
    <nd ref="1108200124"/>
    <tag k="addr:city" v="Mannheim"/>
    <tag k="addr:housenumber" v="11"/>
    <tag k="addr:postcode" v="68167"/>
    <tag k="addr:street" v="Gallenbergweg"/>
    <tag k="building" v="yes"/>
  </way>
  <way id="95569805" version="1" timestamp="2011-01-17T21:26:48Z" uid="9581" user="Lobelt" changeset="7004608">
    <nd ref="1108200829"/>
    <nd ref="1108200418"/>
    <tag k="highway" v="footway"/>
  </way>
  <way id="95569806" version="1" timestamp="2011-01-17T21:26:48Z" uid="9581" user="Lobelt" changeset="7004608">
    <nd ref="1108200590"/>
    <nd ref="1108199880"/>
    <nd ref="1108201174"/>
    <nd ref="1108200825"/>
    <nd ref="1108201066"/>
    <nd ref="1108200590"/>
    <tag k="addr:city" v="Mannheim"/>
    <tag k="addr:housenumber" v="41"/>
    <tag k="addr:postcode" v="68167"/>
    <tag k="addr:street" v="Johann-Weiß-Straße"/>
    <tag k="building" v="yes"/>
  </way>
  <way id="95569807" version="1" timestamp="2011-01-17T21:26:48Z" uid="9581" user="Lobelt" changeset="7004608">
    <nd ref="1108200343"/>
    <nd ref="1108199917"/>
    <nd ref="1108200965"/>
    <nd ref="1108200634"/>
    <nd ref="1108200478"/>
    <nd ref="1108200111"/>
    <tag k="highway" v="proposed"/>
    <tag k="name" v="Wilhelm-Neumann-Straße"/>
    <tag k="proposed" v="residential"/>
    <tag k="source" v="Bebauungsplan"/>
  </way>
  <way id="95569808" version="1" timestamp="2011-01-17T21:26:48Z" uid="9581" user="Lobelt" changeset="7004608">
    <nd ref="1108200825"/>
    <nd ref="1108200054"/>
    <nd ref="1108201433"/>
    <nd ref="1108201066"/>
    <nd ref="1108200825"/>
    <tag k="building" v="yes"/>
  </way>
  <way id="95569809" version="1" timestamp="2011-01-17T21:26:49Z" uid="9581" user="Lobelt" changeset="7004608">
    <nd ref="1108199980"/>
    <nd ref="1108200415"/>
    <nd ref="1108200600"/>
    <nd ref="1108200135"/>
    <nd ref="1108199980"/>
    <tag k="addr:city" v="Mannheim"/>
    <tag k="addr:housenumber" v="51"/>
    <tag k="addr:postcode" v="68167"/>
    <tag k="addr:street" v="Johann-Weiß-Straße"/>
    <tag k="building" v="yes"/>
  </way>
  <way id="95569810" version="1" timestamp="2011-01-17T21:26:49Z" uid="9581" user="Lobelt" changeset="7004608">
    <nd ref="1108201334"/>
    <nd ref="1108200434"/>
    <nd ref="1108199873"/>
    <nd ref="1108200821"/>
    <nd ref="1108201334"/>
    <tag k="addr:city" v="Mannheim"/>
    <tag k="addr:housenumber" v="15"/>
    <tag k="addr:postcode" v="68167"/>
    <tag k="addr:street" v="Johann-Weiß-Straße"/>
    <tag k="building" v="yes"/>
  </way>
  <way id="95569811" version="1" timestamp="2011-01-17T21:26:49Z" uid="9581" user="Lobelt" changeset="7004608">
    <nd ref="1108200902"/>
    <nd ref="1108200962"/>
    <nd ref="1108200986"/>
    <nd ref="1108200630"/>
    <nd ref="1108200902"/>
    <tag k="bridge" v="52"/>
    <tag k="building" v="yes"/>
  </way>
  <way id="95569812" version="1" timestamp="2011-01-17T21:26:50Z" uid="9581" user="Lobelt" changeset="7004608">
    <nd ref="1108200593"/>
    <nd ref="1108201058"/>
    <nd ref="1108200854"/>
    <nd ref="1108200532"/>
    <nd ref="1108199997"/>
    <nd ref="1108201188"/>
    <tag k="highway" v="proposed"/>
    <tag k="name" v="Leoniweg"/>
    <tag k="proposed" v="residential"/>
    <tag k="source" v="Bebauungsplan"/>
  </way>
  <way id="95569813" version="1" timestamp="2011-01-17T21:26:50Z" uid="9581" user="Lobelt" changeset="7004608">
    <nd ref="1108201165"/>
    <nd ref="1108200330"/>
    <nd ref="1108200003"/>
    <tag k="highway" v="footway"/>
  </way>
  <way id="95569815" version="1" timestamp="2011-01-17T21:26:50Z" uid="9581" user="Lobelt" changeset="7004608">
    <nd ref="1108200962"/>
    <nd ref="1108200834"/>
    <nd ref="1108200516"/>
    <nd ref="1108200986"/>
    <nd ref="1108200962"/>
    <tag k="addr:city" v="Mannheim"/>
    <tag k="addr:housenumber" v="50"/>
    <tag k="addr:postcode" v="68167"/>
    <tag k="addr:street" v="Johann-Weiß-Straße"/>
    <tag k="building" v="yes"/>
  </way>
  <way id="95569816" version="1" timestamp="2011-01-17T21:26:51Z" uid="9581" user="Lobelt" changeset="7004608">
    <nd ref="1108201057"/>
    <nd ref="1108201298"/>
    <nd ref="1108200954"/>
    <tag k="highway" v="service"/>
  </way>
  <way id="95569817" version="1" timestamp="2011-01-17T21:26:51Z" uid="9581" user="Lobelt" changeset="7004608">
    <nd ref="1108200634"/>
    <nd ref="1108200038"/>
    <nd ref="1108199882"/>
    <tag k="highway" v="proposed"/>
    <tag k="proposed" v="cycleway"/>
    <tag k="source" v="Bebauungsplan"/>
  </way>
  <way id="95569818" version="1" timestamp="2011-01-17T21:26:51Z" uid="9581" user="Lobelt" changeset="7004608">
    <nd ref="1108200339"/>
    <nd ref="1108200063"/>
    <nd ref="1108201253"/>
    <nd ref="1108200793"/>
    <nd ref="1108200339"/>
    <tag k="building" v="yes"/>
  </way>
  <way id="95569819" version="1" timestamp="2011-01-17T21:26:51Z" uid="9581" user="Lobelt" changeset="7004608">
    <nd ref="1108200883"/>
    <nd ref="1108200292"/>
    <nd ref="1108201244"/>
    <nd ref="1108200929"/>
    <nd ref="1108200883"/>
    <tag k="building" v="yes"/>
  </way>
  <way id="95569820" version="1" timestamp="2011-01-17T21:26:52Z" uid="9581" user="Lobelt" changeset="7004608">
    <nd ref="1108200800"/>
    <nd ref="1108201134"/>
    <nd ref="1108201391"/>
    <nd ref="1108200883"/>
    <nd ref="1108200929"/>
    <nd ref="1108200800"/>
    <tag k="addr:city" v="Mannheim"/>
    <tag k="addr:housenumber" v="45"/>
    <tag k="addr:postcode" v="68167"/>
    <tag k="addr:street" v="Johann-Weiß-Straße"/>
    <tag k="building" v="yes"/>
  </way>
  <way id="95569821" version="1" timestamp="2011-01-17T21:26:52Z" uid="9581" user="Lobelt" changeset="7004608">
    <nd ref="304159116"/>
    <nd ref="1108201057"/>
    <nd ref="1108201231"/>
    <nd ref="1108200029"/>
    <nd ref="304159117"/>
    <nd ref="304159118"/>
    <nd ref="535539965"/>
    <nd ref="1108201201"/>
    <nd ref="305057600"/>
    <tag k="highway" v="living_street"/>
    <tag k="name" v="Johann-Weiß-Straße"/>
  </way>
  <way id="95569822" version="1" timestamp="2011-01-17T21:26:52Z" uid="9581" user="Lobelt" changeset="7004608">
    <nd ref="1108201145"/>
    <nd ref="1108201226"/>
    <nd ref="1108200644"/>
    <nd ref="1108200897"/>
    <nd ref="1108201145"/>
    <tag k="addr:city" v="Mannheim"/>
    <tag k="addr:housenumber" v="1"/>
    <tag k="addr:postcode" v="68167"/>
    <tag k="addr:street" v="Gallenbergweg"/>
    <tag k="building" v="yes"/>
  </way>
  <way id="95569823" version="1" timestamp="2011-01-17T21:26:52Z" uid="9581" user="Lobelt" changeset="7004608">
    <nd ref="1108200402"/>
    <nd ref="1108200568"/>
    <nd ref="1108199959"/>
    <nd ref="1108200712"/>
    <nd ref="1108200402"/>
    <tag k="building" v="yes"/>
  </way>
  <way id="95569824" version="1" timestamp="2011-01-17T21:26:53Z" uid="9581" user="Lobelt" changeset="7004608">
    <nd ref="1108199928"/>
    <nd ref="1108200379"/>
    <tag k="highway" v="footway"/>
  </way>
  <way id="95569825" version="1" timestamp="2011-01-17T21:26:53Z" uid="9581" user="Lobelt" changeset="7004608">
    <nd ref="1108200573"/>
    <nd ref="1108199967"/>
    <nd ref="1108200281"/>
    <nd ref="1108201171"/>
    <nd ref="1108200573"/>
    <tag k="addr:city" v="Mannheim"/>
    <tag k="addr:housenumber" v="21"/>
    <tag k="addr:postcode" v="68167"/>
    <tag k="addr:street" v="Johann-Weiß-Straße"/>
    <tag k="building" v="yes"/>
  </way>
  <way id="95569826" version="1" timestamp="2011-01-17T21:26:53Z" uid="9581" user="Lobelt" changeset="7004608">
    <nd ref="1108200857"/>
    <nd ref="1108201115"/>
    <nd ref="1108200535"/>
    <nd ref="1108200613"/>
    <nd ref="1108200857"/>
    <tag k="building" v="yes"/>
  </way>
  <way id="95569827" version="1" timestamp="2011-01-17T21:26:54Z" uid="9581" user="Lobelt" changeset="7004608">
    <nd ref="1108201293"/>
    <nd ref="1108200609"/>
    <nd ref="1108200520"/>
    <nd ref="1108201104"/>
    <nd ref="1108200845"/>
    <nd ref="1108199892"/>
    <nd ref="1108201056"/>
    <nd ref="1108201360"/>
    <nd ref="1108200469"/>
    <nd ref="1108200181"/>
    <nd ref="1108200774"/>
    <nd ref="1108200652"/>
    <nd ref="1108200863"/>
    <nd ref="1108200803"/>
    <nd ref="1108200413"/>
    <nd ref="1108201293"/>
    <tag k="building" v="yes"/>
  </way>
  <way id="95569828" version="1" timestamp="2011-01-17T21:26:54Z" uid="9581" user="Lobelt" changeset="7004608">
    <nd ref="1108200605"/>
    <nd ref="1108200991"/>
    <nd ref="1108200463"/>
    <nd ref="1108200648"/>
    <nd ref="1108200041"/>
    <nd ref="1108200178"/>
    <nd ref="1108201101"/>
    <nd ref="1108201359"/>
    <nd ref="1108200770"/>
    <nd ref="1108201166"/>
    <nd ref="1108200566"/>
    <nd ref="1108200815"/>
    <nd ref="1108200228"/>
    <nd ref="1108200387"/>
    <nd ref="1108201234"/>
    <nd ref="1108199953"/>
    <nd ref="1108200907"/>
    <nd ref="1108201325"/>
    <nd ref="1108200719"/>
    <nd ref="1108200958"/>
    <nd ref="1108200430"/>
    <nd ref="1108200496"/>
    <nd ref="1108201412"/>
    <nd ref="1108200605"/>
    <tag k="building" v="yes"/>
  </way>
  <way id="95569829" version="1" timestamp="2011-01-17T21:26:55Z" uid="9581" user="Lobelt" changeset="7004608">
    <nd ref="1108200029"/>
    <nd ref="1108201400"/>
    <tag k="highway" v="service"/>
  </way>
  <way id="95569830" version="1" timestamp="2011-01-17T21:26:55Z" uid="9581" user="Lobelt" changeset="7004608">
    <nd ref="1108200571"/>
    <nd ref="1108200665"/>
    <nd ref="1108200052"/>
    <nd ref="1108200407"/>
    <nd ref="1108200571"/>
    <tag k="addr:city" v="Mannheim"/>
    <tag k="addr:housenumber" v="10"/>
    <tag k="addr:postcode" v="68167"/>
    <tag k="addr:street" v="Gallenbergweg"/>
    <tag k="building" v="yes"/>
  </way>
  <way id="95569831" version="1" timestamp="2011-01-17T21:26:55Z" uid="9581" user="Lobelt" changeset="7004608">
    <nd ref="1108201302"/>
    <nd ref="1108201249"/>
    <nd ref="1108201403"/>
    <nd ref="1108200805"/>
    <nd ref="1108201054"/>
    <nd ref="1108201302"/>
    <tag k="addr:city" v="Mannheim"/>
    <tag k="addr:housenumber" v="5"/>
    <tag k="addr:postcode" v="68167"/>
    <tag k="addr:street" v="Gallenbergweg"/>
    <tag k="building" v="yes"/>
  </way>
  <way id="95569833" version="1" timestamp="2011-01-17T21:26:56Z" uid="9581" user="Lobelt" changeset="7004608">
    <nd ref="1108201397"/>
    <nd ref="1108199927"/>
    <nd ref="1108200893"/>
    <nd ref="1108201142"/>
    <nd ref="1108201397"/>
    <tag k="addr:city" v="Mannheim"/>
    <tag k="addr:housenumber" v="57"/>
    <tag k="addr:postcode" v="68167"/>
    <tag k="addr:street" v="Johann-Weiß-Straße"/>
    <tag k="building" v="yes"/>
  </way>
  <way id="95569836" version="1" timestamp="2011-01-17T21:26:56Z" uid="9581" user="Lobelt" changeset="7004608">
    <nd ref="1108200831"/>
    <nd ref="1108200950"/>
    <nd ref="1108200412"/>
    <nd ref="1108200597"/>
    <nd ref="1108200831"/>
    <tag k="addr:city" v="Mannheim"/>
    <tag k="addr:housenumber" v="4"/>
    <tag k="addr:postcode" v="68167"/>
    <tag k="addr:street" v="Gallenbergweg"/>
    <tag k="building" v="yes"/>
  </way>
  <way id="95569838" version="1" timestamp="2011-01-17T21:26:57Z" uid="9581" user="Lobelt" changeset="7004608">
    <nd ref="1108201369"/>
    <nd ref="1108200795"/>
    <nd ref="1108201009"/>
    <nd ref="1108200482"/>
    <nd ref="1108201369"/>
    <tag k="addr:city" v="Mannheim"/>
    <tag k="addr:housenumber" v="25"/>
    <tag k="addr:postcode" v="68167"/>
    <tag k="addr:street" v="Johann-Weiß-Straße"/>
    <tag k="building" v="yes"/>
  </way>
  <way id="95569839" version="1" timestamp="2011-01-17T21:26:57Z" uid="9581" user="Lobelt" changeset="7004608">
    <nd ref="1108199882"/>
    <nd ref="1108201329"/>
    <tag k="highway" v="proposed"/>
    <tag k="name" v="Anberlering"/>
    <tag k="proposed" v="residential"/>
    <tag k="source" v="Bebauungsplan"/>
  </way>
  <way id="95569839" version="2" timestamp="2011-01-18T08:07:51Z" uid="9581" user="Lobelt" changeset="7007775">
    <nd ref="1108199882"/>
    <nd ref="1108201329"/>
    <tag k="highway" v="proposed"/>
    <tag k="name" v="Aberlering"/>
    <tag k="proposed" v="residential"/>
    <tag k="source" v="Bebauungsplan"/>
  </way>
  <way id="95569840" version="1" timestamp="2011-01-17T21:26:57Z" uid="9581" user="Lobelt" changeset="7004608">
    <nd ref="1108201240"/>
    <nd ref="1108200652"/>
    <nd ref="1108200774"/>
    <nd ref="1108200181"/>
    <nd ref="1108200469"/>
    <nd ref="1108201360"/>
    <nd ref="1108201056"/>
    <nd ref="1108200139"/>
    <nd ref="1108200274"/>
    <nd ref="1108201168"/>
    <nd ref="1108201414"/>
    <nd ref="1108200818"/>
    <nd ref="1108201240"/>
    <tag k="addr:city" v="Mannheim"/>
    <tag k="addr:housenumber" v="27"/>
    <tag k="addr:postcode" v="68169"/>
    <tag k="addr:street" v="An der Radrennbahn"/>
    <tag k="building" v="yes"/>
  </way>
  <way id="95569841" version="1" timestamp="2011-01-17T21:26:58Z" uid="9581" user="Lobelt" changeset="7004608">
    <nd ref="305057600"/>
    <nd ref="309445008"/>
    <nd ref="304159125"/>
    <nd ref="1108200343"/>
    <nd ref="304159128"/>
    <nd ref="998730551"/>
    <nd ref="1108201365"/>
    <nd ref="309445012"/>
    <nd ref="1108200111"/>
    <nd ref="304159130"/>
    <nd ref="304159132"/>
    <nd ref="304159123"/>
    <tag k="highway" v="residential"/>
    <tag k="maxspeed" v="30"/>
    <tag k="name" v="Friedrich-Traumann-Straße"/>
  </way>
  <way id="95569842" version="1" timestamp="2011-01-17T21:26:58Z" uid="9581" user="Lobelt" changeset="7004608">
    <nd ref="1108200413"/>
    <nd ref="1108201293"/>
    <nd ref="1108201394"/>
    <nd ref="1108200803"/>
    <nd ref="1108200413"/>
    <tag k="building" v="yes"/>
  </way>
  <way id="95569843" version="1" timestamp="2011-01-17T21:26:58Z" uid="9581" user="Lobelt" changeset="7004608">
    <nd ref="1108200801"/>
    <nd ref="1108201109"/>
    <nd ref="1108200483"/>
    <nd ref="1108200294"/>
    <nd ref="1108199882"/>
    <nd ref="1108200940"/>
    <nd ref="1108200593"/>
    <nd ref="1108200723"/>
    <tag k="highway" v="proposed"/>
    <tag k="name" v="Anberlering"/>
    <tag k="proposed" v="residential"/>
    <tag k="source" v="Bebauungsplan"/>
  </way>
  <way id="95569843" version="2" timestamp="2011-01-18T08:07:51Z" uid="9581" user="Lobelt" changeset="7007775">
    <nd ref="1108200801"/>
    <nd ref="1108201109"/>
    <nd ref="1108200483"/>
    <nd ref="1108200294"/>
    <nd ref="1108199882"/>
    <nd ref="1108200940"/>
    <nd ref="1108200593"/>
    <nd ref="1108200723"/>
    <tag k="highway" v="proposed"/>
    <tag k="name" v="Aberlering"/>
    <tag k="proposed" v="residential"/>
    <tag k="source" v="Bebauungsplan"/>
  </way>
  <way id="95569844" version="1" timestamp="2011-01-17T21:26:59Z" uid="9581" user="Lobelt" changeset="7004608">
    <nd ref="1108200379"/>
    <nd ref="1108201147"/>
    <nd ref="1108200829"/>
    <tag k="highway" v="service"/>
  </way>
  <way id="95569845" version="1" timestamp="2011-01-17T21:26:59Z" uid="9581" user="Lobelt" changeset="7004608">
    <nd ref="1108200480"/>
    <nd ref="1108200684"/>
    <nd ref="1108200117"/>
    <nd ref="1108200210"/>
    <nd ref="1108200480"/>
    <tag k="addr:city" v="Mannheim"/>
    <tag k="addr:housenumber" v="14"/>
    <tag k="addr:postcode" v="68167"/>
    <tag k="addr:street" v="Gallenbergweg"/>
    <tag k="building" v="yes"/>
  </way>
  <way id="95569846" version="1" timestamp="2011-01-17T21:26:59Z" uid="9581" user="Lobelt" changeset="7004608">
    <nd ref="1108200636"/>
    <nd ref="1108200006"/>
    <nd ref="1108200373"/>
    <nd ref="1108201204"/>
    <nd ref="1108200636"/>
    <tag k="addr:city" v="Mannheim"/>
    <tag k="addr:housenumber" v="9"/>
    <tag k="addr:postcode" v="68167"/>
    <tag k="addr:street" v="Gallenbergweg"/>
    <tag k="building" v="yes"/>
  </way>
  <way id="95569847" version="1" timestamp="2011-01-17T21:26:59Z" uid="9581" user="Lobelt" changeset="7004608">
    <nd ref="1108200937"/>
    <nd ref="1108199917"/>
    <tag k="highway" v="proposed"/>
    <tag k="proposed" v="cycleway"/>
    <tag k="source" v="Bebauungsplan"/>
  </way>
  <way id="95569848" version="1" timestamp="2011-01-17T21:27:00Z" uid="9581" user="Lobelt" changeset="7004608">
    <nd ref="1108201286"/>
    <nd ref="1108200689"/>
    <nd ref="1108200411"/>
    <nd ref="1108201376"/>
    <nd ref="1108201044"/>
    <nd ref="1108200823"/>
    <nd ref="1108200511"/>
    <nd ref="1108199972"/>
    <nd ref="1108201286"/>
    <tag k="addr:city" v="Mannheim"/>
    <tag k="addr:housenumber" v="3"/>
    <tag k="addr:postcode" v="68167"/>
    <tag k="addr:street" v="Johann-Weiß-Straße"/>
    <tag k="building" v="yes"/>
  </way>
  <way id="95569849" version="1" timestamp="2011-01-17T21:27:00Z" uid="9581" user="Lobelt" changeset="7004608">
    <nd ref="1108200415"/>
    <nd ref="1108200550"/>
    <nd ref="1108200953"/>
    <nd ref="1108200600"/>
    <nd ref="1108200415"/>
    <tag k="addr:city" v="Mannheim"/>
    <tag k="addr:housenumber" v="53"/>
    <tag k="addr:postcode" v="68167"/>
    <tag k="addr:street" v="Johann-Weiß-Straße"/>
    <tag k="building" v="yes"/>
  </way>
  <way id="95569852" version="1" timestamp="2011-01-17T21:27:00Z" uid="9581" user="Lobelt" changeset="7004608">
    <nd ref="1108200725"/>
    <nd ref="1108200145"/>
    <nd ref="1108200434"/>
    <nd ref="1108201334"/>
    <nd ref="1108200725"/>
    <tag k="addr:city" v="Mannheim"/>
    <tag k="addr:housenumber" v="17"/>
    <tag k="addr:postcode" v="68167"/>
    <tag k="addr:street" v="Johann-Weiß-Straße"/>
    <tag k="building" v="yes"/>
  </way>
  <way id="95569854" version="1" timestamp="2011-01-17T21:27:01Z" uid="9581" user="Lobelt" changeset="7004608">
    <nd ref="1108200718"/>
    <nd ref="1108200402"/>
    <nd ref="1108200568"/>
    <nd ref="1108199959"/>
    <nd ref="1108200471"/>
    <nd ref="1108200375"/>
    <nd ref="1108200890"/>
    <nd ref="1108200640"/>
    <nd ref="1108201207"/>
    <nd ref="1108201140"/>
    <nd ref="1108200428"/>
    <nd ref="1108200850"/>
    <nd ref="1108201199"/>
    <nd ref="1108201407"/>
    <nd ref="1108200221"/>
    <nd ref="1108200718"/>
    <tag k="building" v="yes"/>
  </way>
  <way id="95569855" version="1" timestamp="2011-01-17T21:27:01Z" uid="9581" user="Lobelt" changeset="7004608">
    <nd ref="1108200174"/>
    <nd ref="1108201109"/>
    <tag k="bicycle" v="designated"/>
    <tag k="foot" v="designated"/>
    <tag k="highway" v="path"/>
    <tag k="segregated" v="no"/>
  </way>
  <way id="95569857" version="1" timestamp="2011-01-17T21:27:01Z" uid="9581" user="Lobelt" changeset="7004608">
    <nd ref="1108201302"/>
    <nd ref="1108200333"/>
    <nd ref="1108200059"/>
    <nd ref="1108201249"/>
    <nd ref="1108201302"/>
    <tag k="building" v="yes"/>
  </way>
  <way id="95569858" version="1" timestamp="2011-01-17T21:27:02Z" uid="9581" user="Lobelt" changeset="7004608">
    <nd ref="1108200184"/>
    <nd ref="1108200617"/>
    <nd ref="1108200859"/>
    <nd ref="1108201118"/>
    <nd ref="1108200184"/>
    <tag k="addr:city" v="Mannheim"/>
    <tag k="addr:housenumber" v="42"/>
    <tag k="addr:postcode" v="68167"/>
    <tag k="addr:street" v="Johann-Weiß-Straße"/>
    <tag k="building" v="yes"/>
  </way>
  <way id="95569859" version="1" timestamp="2011-01-17T21:27:02Z" uid="9581" user="Lobelt" changeset="7004608">
    <nd ref="1108199994"/>
    <nd ref="1108201002"/>
    <tag k="bicycle" v="designated"/>
    <tag k="foot" v="designated"/>
    <tag k="highway" v="path"/>
    <tag k="segregated" v="no"/>
  </way>
  <way id="95569861" version="1" timestamp="2011-01-17T21:27:02Z" uid="9581" user="Lobelt" changeset="7004608">
    <nd ref="1108199917"/>
    <nd ref="1108200966"/>
    <nd ref="535539965"/>
    <tag k="highway" v="proposed"/>
    <tag k="proposed" v="service"/>
    <tag k="source" v="Bebauungsplan"/>
  </way>
  <way id="95569862" version="1" timestamp="2011-01-17T21:27:02Z" uid="9581" user="Lobelt" changeset="7004608">
    <nd ref="1108199880"/>
    <nd ref="1108200170"/>
    <nd ref="1108201072"/>
    <nd ref="1108201174"/>
    <nd ref="1108199880"/>
    <tag k="addr:city" v="Mannheim"/>
    <tag k="addr:housenumber" v="43"/>
    <tag k="addr:postcode" v="68167"/>
    <tag k="addr:street" v="Johann-Weiß-Straße"/>
    <tag k="building" v="yes"/>
  </way>
  <way id="95569863" version="1" timestamp="2011-01-17T21:27:02Z" uid="9581" user="Lobelt" changeset="7004608">
    <nd ref="1108200935"/>
    <nd ref="1108201362"/>
    <nd ref="1108200103"/>
    <nd ref="1108200408"/>
    <nd ref="1108200935"/>
    <tag k="addr:city" v="Mannheim"/>
    <tag k="addr:housenumber" v="46"/>
    <tag k="addr:postcode" v="68167"/>
    <tag k="addr:street" v="Johann-Weiß-Straße"/>
    <tag k="building" v="yes"/>
  </way>
  <way id="95569864" version="1" timestamp="2011-01-17T21:27:03Z" uid="9581" user="Lobelt" changeset="7004608">
    <nd ref="1108201322"/>
    <nd ref="1108200718"/>
    <nd ref="1108200221"/>
    <nd ref="1108201407"/>
    <nd ref="1108201199"/>
    <nd ref="1108200850"/>
    <nd ref="1108200428"/>
    <nd ref="1108200000"/>
    <nd ref="1108201041"/>
    <nd ref="1108200686"/>
    <nd ref="1108200211"/>
    <nd ref="1108201373"/>
    <nd ref="1108201322"/>
    <tag k="addr:city" v="Mannheim"/>
    <tag k="addr:housenumber" v="23"/>
    <tag k="addr:postcode" v="68169"/>
    <tag k="addr:street" v="An der Radrennbahn"/>
    <tag k="building" v="yes"/>
  </way>
  <way id="95569866" version="1" timestamp="2011-01-17T21:27:03Z" uid="9581" user="Lobelt" changeset="7004608">
    <nd ref="1108200142"/>
    <nd ref="1108201064"/>
    <nd ref="1108201122"/>
    <nd ref="1108200545"/>
    <nd ref="1108200142"/>
    <tag k="building" v="yes"/>
  </way>
  <way id="95569867" version="1" timestamp="2011-01-17T21:27:03Z" uid="9581" user="Lobelt" changeset="7004608">
    <nd ref="1108201372"/>
    <nd ref="1108200798"/>
    <nd ref="1108199963"/>
    <nd ref="1108200910"/>
    <nd ref="1108201372"/>
    <tag k="addr:city" v="Mannheim"/>
    <tag k="addr:housenumber" v="12"/>
    <tag k="addr:postcode" v="68167"/>
    <tag k="addr:street" v="Gallenbergweg"/>
    <tag k="building" v="yes"/>
  </way>
  <way id="95569869" version="1" timestamp="2011-01-17T21:27:04Z" uid="9581" user="Lobelt" changeset="7004608">
    <nd ref="1108201134"/>
    <nd ref="1108200756"/>
    <nd ref="1108200217"/>
    <nd ref="1108201391"/>
    <nd ref="1108201134"/>
    <tag k="addr:city" v="Mannheim"/>
    <tag k="addr:housenumber" v="47"/>
    <tag k="addr:postcode" v="68167"/>
    <tag k="addr:street" v="Johann-Weiß-Straße"/>
    <tag k="building" v="yes"/>
  </way>
  <way id="95569870" version="1" timestamp="2011-01-17T21:27:04Z" uid="9581" user="Lobelt" changeset="7004608">
    <nd ref="1108200981"/>
    <nd ref="1108201075"/>
    <nd ref="1108200514"/>
    <nd ref="1108200767"/>
    <nd ref="1108200981"/>
    <tag k="addr:city" v="Mannheim"/>
    <tag k="addr:housenumber" v="8"/>
    <tag k="addr:postcode" v="68167"/>
    <tag k="addr:street" v="Gallenbergweg"/>
    <tag k="building" v="yes"/>
  </way>
  <way id="95569871" version="1" timestamp="2011-01-17T21:27:05Z" uid="9581" user="Lobelt" changeset="7004608">
    <nd ref="1108201400"/>
    <nd ref="1108201052"/>
    <tag k="highway" v="footway"/>
  </way>
  <way id="95569872" version="1" timestamp="2011-01-17T21:27:05Z" uid="9581" user="Lobelt" changeset="7004608">
    <nd ref="1108200133"/>
    <nd ref="1108200277"/>
    <tag k="highway" v="service"/>
  </way>
  <way id="95569873" version="1" timestamp="2011-01-17T21:27:05Z" uid="9581" user="Lobelt" changeset="7004608">
    <nd ref="1108200191"/>
    <nd ref="1108200317"/>
    <nd ref="1108201178"/>
    <nd ref="1108199886"/>
    <nd ref="1108200191"/>
    <tag k="addr:city" v="Mannheim"/>
    <tag k="addr:housenumber" v="2"/>
    <tag k="addr:postcode" v="68167"/>
    <tag k="addr:street" v="Gallenbergweg"/>
    <tag k="building" v="yes"/>
  </way>
</osm>
