<?xml version='1.0' encoding='UTF-8'?>
<osm version="0.6" generator="libosmium/2.20.0">
  <way id="95945687" version="1" timestamp="2011-01-20T14:50:41Z" uid="115477" user="wowik" changeset="7031231">
    <nd ref="1111692938"/>
    <nd ref="1111692641"/>
    <nd ref="1111693103"/>
    <nd ref="1111692687"/>
    <nd ref="1111692938"/>
    <tag k="amenity" v="parking"/>
    <tag k="building" v="yes"/>
  </way>
  <way id="95945687" version="2" timestamp="2011-01-20T19:13:55Z" uid="115477" user="wowik" changeset="7033529">
    <nd ref="1111692938"/>
    <nd ref="1111692641"/>
    <nd ref="1111693103"/>
    <nd ref="1111692687"/>
    <nd ref="1111692938"/>
    <tag k="addr:city" v="Зеленоград"/>
    <tag k="addr:street" v="20-й Микрорайон"/>
    <tag k="amenity" v="parking"/>
    <tag k="building" v="yes"/>
    <tag k="is_in" v="Russia"/>
    <tag k="name" v="гараж"/>
    <tag k="note" v="addr:housenumber не точен"/>
  </way>
  <way id="95945688" version="1" timestamp="2011-01-20T14:50:41Z" uid="115477" user="wowik" changeset="7031231">
    <nd ref="1111693081"/>
    <nd ref="922743244"/>
    <nd ref="1111692901"/>
    <nd ref="1111692987"/>
    <nd ref="922743243"/>
    <tag k="highway" v="service"/>
    <tag k="living_street" v="yes"/>
  </way>
  <way id="95945689" version="1" timestamp="2011-01-20T14:50:42Z" uid="115477" user="wowik" changeset="7031231">
    <nd ref="1111693053"/>
    <nd ref="1111692771"/>
    <nd ref="1111692625"/>
    <nd ref="1111692841"/>
    <nd ref="1111693053"/>
    <tag k="addr:city" v="Зеленоград"/>
    <tag k="addr:housenumber" v="2043 с3"/>
    <tag k="addr:street" v="20-й Микрорайон"/>
    <tag k="building" v="yes"/>
    <tag k="building:levels" v="1"/>
    <tag k="is_in" v="Russia"/>
  </way>
  <way id="95945690" version="1" timestamp="2011-01-20T14:50:42Z" uid="115477" user="wowik" changeset="7031231">
    <nd ref="1111693056"/>
    <nd ref="1111692773"/>
    <nd ref="1111693017"/>
    <nd ref="1111692729"/>
    <nd ref="1111693086"/>
    <nd ref="1111692684"/>
    <nd ref="1111693056"/>
    <tag k="addr:city" v="Зеленоград"/>
    <tag k="addr:housenumber" v="2024 с3"/>
    <tag k="addr:street" v="20-й Микрорайон"/>
    <tag k="building" v="yes"/>
    <tag k="building:levels" v="1"/>
    <tag k="is_in" v="Russia"/>
  </way>
  <way id="95945691" version="1" timestamp="2011-01-20T14:50:42Z" uid="115477" user="wowik" changeset="7031231">
    <nd ref="1111692762"/>
    <nd ref="1111692969"/>
    <nd ref="1111692831"/>
    <nd ref="1111693046"/>
    <nd ref="1111692762"/>
    <tag k="addr:city" v="Зеленоград"/>
    <tag k="addr:housenumber" v="2019 с2"/>
    <tag k="addr:street" v="20-й Микрорайон"/>
    <tag k="building" v="yes"/>
    <tag k="building:levels" v="1"/>
    <tag k="is_in" v="Russia"/>
    <tag k="note" v="addr:housenumber не точен"/>
  </way>
  <way id="95945692" version="1" timestamp="2011-01-20T14:50:42Z" uid="115477" user="wowik" changeset="7031231">
    <nd ref="1111692712"/>
    <nd ref="1111692916"/>
    <nd ref="1111692670"/>
    <nd ref="1111692875"/>
    <nd ref="1111692712"/>
    <tag k="addr:city" v="Зеленоград"/>
    <tag k="addr:housenumber" v="2034 с1"/>
    <tag k="addr:street" v="20-й Микрорайон"/>
    <tag k="building" v="yes"/>
    <tag k="building:levels" v="1"/>
    <tag k="is_in" v="Russia"/>
  </way>
  <way id="95945693" version="1" timestamp="2011-01-20T14:50:43Z" uid="115477" user="wowik" changeset="7031231">
    <nd ref="1111692921"/>
    <nd ref="1111692793"/>
    <nd ref="1111692994"/>
    <nd ref="1111692855"/>
    <nd ref="1111692921"/>
    <tag k="addr:city" v="Зеленоград"/>
    <tag k="addr:housenumber" v="2005 с1"/>
    <tag k="addr:street" v="20-й Микрорайон"/>
    <tag k="building" v="yes"/>
    <tag k="building:levels" v="1"/>
    <tag k="is_in" v="Russia"/>
  </way>
  <way id="95945694" version="1" timestamp="2011-01-20T14:50:43Z" uid="115477" user="wowik" changeset="7031231">
    <nd ref="1111692756"/>
    <nd ref="1111692999"/>
    <nd ref="1111692714"/>
    <nd ref="1111693079"/>
    <nd ref="1111692756"/>
    <tag k="addr:city" v="Зеленоград"/>
    <tag k="addr:housenumber" v="2003 с1"/>
    <tag k="addr:street" v="20-й Микрорайон"/>
    <tag k="building" v="yes"/>
    <tag k="building:levels" v="1"/>
    <tag k="is_in" v="Russia"/>
  </way>
  <way id="95945695" version="1" timestamp="2011-01-20T14:50:43Z" uid="115477" user="wowik" changeset="7031231">
    <nd ref="1111692823"/>
    <nd ref="1111693033"/>
    <nd ref="1111692891"/>
    <nd ref="1111693109"/>
    <nd ref="1111692853"/>
    <nd ref="1111692946"/>
    <nd ref="1111692823"/>
    <tag k="addr:city" v="Зеленоград"/>
    <tag k="addr:housenumber" v="2043 с2"/>
    <tag k="addr:street" v="20-й Микрорайон"/>
    <tag k="building" v="yes"/>
    <tag k="building:levels" v="1"/>
    <tag k="is_in" v="Russia"/>
  </way>
  <way id="95945696" version="1" timestamp="2011-01-20T14:50:43Z" uid="115477" user="wowik" changeset="7031231">
    <nd ref="1111692665"/>
    <nd ref="1111692900"/>
    <nd ref="1111692604"/>
    <nd ref="1111692985"/>
    <nd ref="1111692665"/>
    <tag k="addr:city" v="Зеленоград"/>
    <tag k="addr:housenumber" v="2010 с1"/>
    <tag k="addr:street" v="20-й Микрорайон"/>
    <tag k="building" v="yes"/>
    <tag k="building:levels" v="1"/>
    <tag k="is_in" v="Russia"/>
  </way>
  <way id="95945697" version="1" timestamp="2011-01-20T14:50:44Z" uid="115477" user="wowik" changeset="7031231">
    <nd ref="1111693036"/>
    <nd ref="1111692748"/>
    <nd ref="1111692598"/>
    <nd ref="1111692824"/>
    <nd ref="1111693036"/>
    <tag k="addr:city" v="Зеленоград"/>
    <tag k="addr:housenumber" v="2016 с1"/>
    <tag k="addr:street" v="20-й Микрорайон"/>
    <tag k="building" v="yes"/>
    <tag k="building:levels" v="1"/>
    <tag k="is_in" v="Russia"/>
  </way>
  <way id="95945698" version="1" timestamp="2011-01-20T14:50:44Z" uid="115477" user="wowik" changeset="7031231">
    <nd ref="1111692697"/>
    <nd ref="1111692947"/>
    <nd ref="1111692659"/>
    <nd ref="1111693016"/>
    <nd ref="1111692697"/>
    <tag k="addr:city" v="Зеленоград"/>
    <tag k="addr:housenumber" v="2033 с1"/>
    <tag k="addr:street" v="20-й Микрорайон"/>
    <tag k="building" v="yes"/>
    <tag k="building:levels" v="1"/>
    <tag k="is_in" v="Russia"/>
    <tag k="note" v="addr:housenumber не точен"/>
  </way>
  <way id="95945699" version="1" timestamp="2011-01-20T14:50:45Z" uid="115477" user="wowik" changeset="7031231">
    <nd ref="1111693021"/>
    <nd ref="1111692782"/>
    <nd ref="1111692852"/>
    <nd ref="1111692945"/>
    <nd ref="1111693021"/>
    <tag k="leisure" v="pitch"/>
  </way>
  <way id="95945700" version="1" timestamp="2011-01-20T14:50:45Z" uid="115477" user="wowik" changeset="7031231">
    <nd ref="1111693104"/>
    <nd ref="1111692816"/>
    <tag k="highway" v="service"/>
    <tag k="living_street" v="yes"/>
  </way>
  <way id="95945701" version="1" timestamp="2011-01-20T14:50:45Z" uid="115477" user="wowik" changeset="7031231">
    <nd ref="1111692676"/>
    <nd ref="1111692882"/>
    <nd ref="1111692631"/>
    <nd ref="1111692843"/>
    <nd ref="1111692676"/>
    <tag k="addr:city" v="Зеленоград"/>
    <tag k="addr:housenumber" v="2028 с2"/>
    <tag k="addr:street" v="20-й Микрорайон"/>
    <tag k="building" v="yes"/>
    <tag k="building:levels" v="1"/>
    <tag k="is_in" v="Russia"/>
    <tag k="note" v="addr:housenumber не точен"/>
  </way>
  <way id="95945702" version="1" timestamp="2011-01-20T14:50:45Z" uid="115477" user="wowik" changeset="7031231">
    <nd ref="1111692977"/>
    <nd ref="1111693048"/>
    <tag k="highway" v="service"/>
  </way>
  <way id="95945703" version="1" timestamp="2011-01-20T14:50:45Z" uid="115477" user="wowik" changeset="7031231">
    <nd ref="1111693107"/>
    <nd ref="1111692820"/>
    <nd ref="1111693060"/>
    <nd ref="1111692786"/>
    <nd ref="1111693107"/>
    <tag k="addr:city" v="Зеленоград"/>
    <tag k="addr:housenumber" v="2024 с2"/>
    <tag k="addr:street" v="20-й Микрорайон"/>
    <tag k="building" v="yes"/>
    <tag k="building:levels" v="1"/>
    <tag k="is_in" v="Russia"/>
  </way>
  <way id="95945704" version="1" timestamp="2011-01-20T14:50:46Z" uid="115477" user="wowik" changeset="7031231">
    <nd ref="1111692715"/>
    <nd ref="1111692925"/>
    <nd ref="1111692795"/>
    <nd ref="1111693002"/>
    <nd ref="1111692715"/>
    <tag k="addr:city" v="Зеленоград"/>
    <tag k="addr:housenumber" v="2024 с1"/>
    <tag k="addr:street" v="20-й Микрорайон"/>
    <tag k="building" v="yes"/>
    <tag k="building:levels" v="1"/>
    <tag k="is_in" v="Russia"/>
  </way>
  <way id="95945705" version="1" timestamp="2011-01-20T14:50:46Z" uid="115477" user="wowik" changeset="7031231">
    <nd ref="1111692864"/>
    <nd ref="1111693061"/>
    <nd ref="1111692826"/>
    <nd ref="1111693038"/>
    <nd ref="1111692864"/>
    <tag k="addr:city" v="Зеленоград"/>
    <tag k="addr:housenumber" v="2028 с1"/>
    <tag k="addr:street" v="20-й Микрорайон"/>
    <tag k="building" v="yes"/>
    <tag k="building:levels" v="1"/>
    <tag k="is_in" v="Russia"/>
  </way>
  <way id="95945706" version="1" timestamp="2011-01-20T14:50:46Z" uid="115477" user="wowik" changeset="7031231">
    <nd ref="1111693007"/>
    <nd ref="1111692770"/>
    <tag k="highway" v="service"/>
    <tag k="living_street" v="yes"/>
  </way>
  <way id="95945707" version="1" timestamp="2011-01-20T14:50:46Z" uid="115477" user="wowik" changeset="7031231">
    <nd ref="1111692681"/>
    <nd ref="1111692883"/>
    <nd ref="1111692923"/>
    <nd ref="1111692998"/>
    <nd ref="1111692752"/>
    <nd ref="1111692963"/>
    <nd ref="1111692681"/>
    <tag k="addr:city" v="Зеленоград"/>
    <tag k="addr:housenumber" v="2008 с1"/>
    <tag k="addr:street" v="20-й Микрорайон"/>
    <tag k="building" v="yes"/>
    <tag k="building:levels" v="1"/>
    <tag k="is_in" v="Russia"/>
  </way>
  <way id="95945708" version="1" timestamp="2011-01-20T14:50:47Z" uid="115477" user="wowik" changeset="7031231">
    <nd ref="1111692787"/>
    <nd ref="1111692992"/>
    <nd ref="1111692746"/>
    <nd ref="1111692961"/>
    <nd ref="1111692787"/>
    <tag k="addr:city" v="Зеленоград"/>
    <tag k="addr:housenumber" v="2043 с1"/>
    <tag k="addr:street" v="20-й Микрорайон"/>
    <tag k="building" v="yes"/>
    <tag k="building:levels" v="1"/>
    <tag k="is_in" v="Russia"/>
  </way>
  <way id="95945709" version="1" timestamp="2011-01-20T14:50:47Z" uid="115477" user="wowik" changeset="7031231">
    <nd ref="1111692815"/>
    <nd ref="1111693058"/>
    <nd ref="1111692785"/>
    <nd ref="1111692644"/>
    <nd ref="1111692815"/>
    <tag k="addr:city" v="Зеленоград"/>
    <tag k="addr:housenumber" v="2013 с1"/>
    <tag k="addr:street" v="20-й Микрорайон"/>
    <tag k="building" v="yes"/>
    <tag k="building:levels" v="1"/>
    <tag k="is_in" v="Russia"/>
    <tag k="note" v="addr:housenumber не точен"/>
  </way>
  <way id="95945710" version="1" timestamp="2011-01-20T14:50:47Z" uid="115477" user="wowik" changeset="7031231">
    <nd ref="1111693037"/>
    <nd ref="1111692898"/>
    <nd ref="1111692601"/>
    <nd ref="1111692982"/>
    <nd ref="1111693037"/>
    <tag k="addr:city" v="Зеленоград"/>
    <tag k="addr:housenumber" v="2005 с2"/>
    <tag k="addr:street" v="20-й Микрорайон"/>
    <tag k="building" v="yes"/>
    <tag k="building:levels" v="1"/>
    <tag k="is_in" v="Russia"/>
  </way>
  <way id="95945711" version="1" timestamp="2011-01-20T14:50:47Z" uid="115477" user="wowik" changeset="7031231">
    <nd ref="1111692643"/>
    <nd ref="1111692847"/>
    <nd ref="1111692717"/>
    <nd ref="1111692942"/>
    <nd ref="1111692643"/>
    <tag k="addr:city" v="Зеленоград"/>
    <tag k="addr:housenumber" v="2019 с1"/>
    <tag k="addr:street" v="20-й Микрорайон"/>
    <tag k="building" v="yes"/>
    <tag k="building:levels" v="1"/>
    <tag k="is_in" v="Russia"/>
  </way>
  <way id="95945712" version="1" timestamp="2011-01-20T14:50:48Z" uid="115477" user="wowik" changeset="7031231">
    <nd ref="1111693050"/>
    <nd ref="1111692917"/>
    <nd ref="1111692621"/>
    <nd ref="1111692990"/>
    <nd ref="1111693050"/>
    <tag k="addr:city" v="Зеленоград"/>
    <tag k="addr:housenumber" v="2014 с2"/>
    <tag k="addr:street" v="20-й Микрорайон"/>
    <tag k="building" v="yes"/>
    <tag k="building:levels" v="1"/>
    <tag k="is_in" v="Russia"/>
    <tag k="note" v="addr:housenumber не точен"/>
  </way>
  <way id="95945713" version="1" timestamp="2011-01-20T14:50:48Z" uid="115477" user="wowik" changeset="7031231">
    <nd ref="1111692805"/>
    <nd ref="1111693014"/>
    <nd ref="1111692700"/>
    <nd ref="1111692880"/>
    <nd ref="1111692805"/>
    <tag k="addr:city" v="Зеленоград"/>
    <tag k="addr:housenumber" v="2001 с1"/>
    <tag k="addr:street" v="20-й Микрорайон"/>
    <tag k="building" v="yes"/>
    <tag k="building:levels" v="1"/>
    <tag k="is_in" v="Russia"/>
  </way>
  <way id="95945714" version="1" timestamp="2011-01-20T14:50:48Z" uid="115477" user="wowik" changeset="7031231">
    <nd ref="1111692866"/>
    <nd ref="1111692727"/>
    <nd ref="1111692949"/>
    <nd ref="1111692703"/>
    <nd ref="1111692866"/>
    <tag k="addr:city" v="Зеленоград"/>
    <tag k="addr:housenumber" v="2003 с2"/>
    <tag k="addr:street" v="20-й Микрорайон"/>
    <tag k="building" v="yes"/>
    <tag k="building:levels" v="1"/>
    <tag k="is_in" v="Russia"/>
  </way>
  <way id="95945715" version="1" timestamp="2011-01-20T14:50:48Z" uid="115477" user="wowik" changeset="7031231">
    <nd ref="1111692668"/>
    <nd ref="1111692869"/>
    <tag k="highway" v="service"/>
  </way>
  <way id="95945716" version="1" timestamp="2011-01-20T14:50:49Z" uid="115477" user="wowik" changeset="7031231">
    <nd ref="1111692966"/>
    <nd ref="1111693005"/>
    <nd ref="1111693083"/>
    <nd ref="1111692829"/>
    <nd ref="1111693042"/>
    <nd ref="1111692802"/>
    <nd ref="1111692966"/>
    <tag k="addr:city" v="Зеленоград"/>
    <tag k="addr:housenumber" v="2014 с1"/>
    <tag k="addr:street" v="20-й Микрорайон"/>
    <tag k="building" v="yes"/>
    <tag k="building:levels" v="1"/>
    <tag k="is_in" v="Russia"/>
    <tag k="note" v="addr:housenumber не точен"/>
  </way>
  <way id="95945717" version="1" timestamp="2011-01-20T14:50:49Z" uid="115477" user="wowik" changeset="7031231">
    <nd ref="1111693054"/>
    <nd ref="1111692920"/>
    <nd ref="1111692628"/>
    <nd ref="1111692993"/>
    <nd ref="1111693054"/>
    <tag k="addr:city" v="Зеленоград"/>
    <tag k="addr:housenumber" v="2018 с1"/>
    <tag k="addr:street" v="20-й Микрорайон"/>
    <tag k="building" v="yes"/>
    <tag k="building:levels" v="1"/>
    <tag k="is_in" v="Russia"/>
    <tag k="note" v="addr:housenumber не точен"/>
  </way>
  <way id="95945719" version="1" timestamp="2011-01-20T14:50:49Z" uid="115477" user="wowik" changeset="7031231">
    <nd ref="1111692980"/>
    <nd ref="1111692725"/>
    <nd ref="1111692948"/>
    <nd ref="1111692807"/>
    <nd ref="1111692980"/>
    <tag k="addr:city" v="Зеленоград"/>
    <tag k="addr:housenumber" v="2016 с2"/>
    <tag k="addr:street" v="20-й Микрорайон"/>
    <tag k="building" v="yes"/>
    <tag k="building:levels" v="1"/>
    <tag k="is_in" v="Russia"/>
  </way>
  <way id="95945721" version="1" timestamp="2011-01-20T14:50:50Z" uid="115477" user="wowik" changeset="7031231">
    <nd ref="1111692962"/>
    <nd ref="1111692679"/>
    <nd ref="1111692996"/>
    <nd ref="1111692603"/>
    <nd ref="1111692663"/>
    <nd ref="1111692922"/>
    <nd ref="1111693062"/>
    <nd ref="1111692634"/>
    <nd ref="1111692962"/>
    <tag k="addr:city" v="Зеленоград"/>
    <tag k="addr:street" v="20-й Микрорайон"/>
    <tag k="building" v="yes"/>
    <tag k="building:levels" v="1"/>
    <tag k="is_in" v="Russia"/>
  </way>
</osm>
