<?xml version='1.0' encoding='UTF-8'?>
<osm version="0.6" generator="libosmium/2.20.0">
  <way id="95974329" version="1" timestamp="2011-01-20T19:11:52Z" uid="115477" user="wowik" changeset="7033529">
    <nd ref="1111971723"/>
    <nd ref="1111970598"/>
    <nd ref="1111970415"/>
    <nd ref="1111970834"/>
    <nd ref="1111971723"/>
    <tag k="leisure" v="pitch"/>
  </way>
  <way id="95974330" version="1" timestamp="2011-01-20T19:11:52Z" uid="115477" user="wowik" changeset="7033529">
    <nd ref="853173162"/>
    <nd ref="1111970049"/>
    <nd ref="1111969348"/>
    <nd ref="853173144"/>
    <nd ref="853173145"/>
    <nd ref="1111971260"/>
    <nd ref="853173146"/>
    <nd ref="853173147"/>
    <nd ref="853173148"/>
    <nd ref="853173155"/>
    <nd ref="853173160"/>
    <nd ref="853173162"/>
    <tag k="addr:city" v="Зеленоград"/>
    <tag k="addr:country" v="RU"/>
    <tag k="addr:housenumber" v="8 с1"/>
    <tag k="addr:street" v="улица Александровка"/>
    <tag k="amenity" v="hospital"/>
    <tag k="building" v="yes"/>
    <tag k="is_in" v="Russia"/>
    <tag k="name" v="Родильный дом"/>
  </way>
  <way id="95974331" version="1" timestamp="2011-01-20T19:11:52Z" uid="115477" user="wowik" changeset="7033529">
    <nd ref="1111970126"/>
    <nd ref="1111970105"/>
    <tag k="highway" v="steps"/>
  </way>
  <way id="95974332" version="1" timestamp="2011-01-20T19:11:52Z" uid="115477" user="wowik" changeset="7033529">
    <nd ref="1111970405"/>
    <nd ref="1111969450"/>
    <nd ref="1111972480"/>
    <nd ref="1111971993"/>
    <nd ref="1111970405"/>
    <tag k="leisure" v="pitch"/>
  </way>
  <way id="95974333" version="1" timestamp="2011-01-20T19:11:52Z" uid="115477" user="wowik" changeset="7033529">
    <nd ref="1111970303"/>
    <nd ref="1111969256"/>
    <nd ref="1111970695"/>
    <nd ref="1111970001"/>
    <nd ref="1111970303"/>
    <tag k="leisure" v="pitch"/>
  </way>
  <way id="95974334" version="1" timestamp="2011-01-20T19:11:52Z" uid="115477" user="wowik" changeset="7033529">
    <nd ref="1111970051"/>
    <nd ref="1111970567"/>
    <nd ref="1111971087"/>
    <nd ref="1111970774"/>
    <nd ref="1111971462"/>
    <nd ref="1111972434"/>
    <nd ref="1111968662"/>
    <nd ref="1111968293"/>
    <nd ref="1111969177"/>
    <nd ref="474971776"/>
    <nd ref="1111970051"/>
    <tag k="building" v="yes"/>
    <tag k="shop" v="yes"/>
  </way>
  <way id="95974336" version="1" timestamp="2011-01-20T19:11:53Z" uid="115477" user="wowik" changeset="7033529">
    <nd ref="1111970212"/>
    <nd ref="1111971752"/>
    <nd ref="1111970613"/>
    <nd ref="1111968158"/>
    <nd ref="1111970212"/>
    <tag k="leisure" v="pitch"/>
  </way>
  <way id="95974338" version="1" timestamp="2011-01-20T19:11:53Z" uid="115477" user="wowik" changeset="7033529">
    <nd ref="1111968738"/>
    <nd ref="1111970703"/>
    <nd ref="1111968361"/>
    <nd ref="1111971344"/>
    <nd ref="1111968738"/>
    <tag k="addr:city" v="Зеленоград"/>
    <tag k="addr:housenumber" v="4 с10"/>
    <tag k="addr:postcode" v="124617"/>
    <tag k="addr:street" v="Проезд N 623"/>
    <tag k="building" v="yes"/>
    <tag k="building:levels" v="1"/>
    <tag k="is_in" v="Russia"/>
  </way>
  <way id="95974338" version="2" timestamp="2011-02-07T11:07:36Z" uid="115477" user="wowik" changeset="7214763">
    <nd ref="1111968738"/>
    <nd ref="1111970703"/>
    <nd ref="1111968361"/>
    <nd ref="1111971344"/>
    <nd ref="1111968738"/>
    <tag k="addr:city" v="Зеленоград"/>
    <tag k="addr:housenumber" v="4 с10"/>
    <tag k="addr:postcode" v="124617"/>
    <tag k="addr:street" v="Новокрюковская улица"/>
    <tag k="building" v="yes"/>
    <tag k="building:levels" v="1"/>
    <tag k="is_in" v="Russia"/>
  </way>
  <way id="95974339" version="1" timestamp="2011-01-20T19:11:53Z" uid="115477" user="wowik" changeset="7033529">
    <nd ref="1111971250"/>
    <nd ref="1111972103"/>
    <nd ref="1111968418"/>
    <nd ref="474971761"/>
    <nd ref="1111971019"/>
    <nd ref="474971762"/>
    <nd ref="1111971326"/>
    <nd ref="1111970983"/>
    <nd ref="1111971727"/>
    <nd ref="1111969842"/>
    <nd ref="1111970088"/>
    <nd ref="474971764"/>
    <nd ref="1111971250"/>
    <tag k="building" v="yes"/>
    <tag k="shop" v="yes"/>
  </way>
  <way id="95974342" version="1" timestamp="2011-01-20T19:11:53Z" uid="115477" user="wowik" changeset="7033529">
    <nd ref="1111972097"/>
    <nd ref="1111969929"/>
    <nd ref="1111968840"/>
    <nd ref="1111968083"/>
    <nd ref="1111971654"/>
    <nd ref="1111969603"/>
    <nd ref="1111972097"/>
    <tag k="addr:city" v="Зеленоград"/>
    <tag k="addr:country" v="RU"/>
    <tag k="addr:housenumber" v="8 с5"/>
    <tag k="addr:street" v="улица Александровка"/>
    <tag k="building" v="yes"/>
    <tag k="building:levels" v="1"/>
    <tag k="is_in" v="Russia"/>
  </way>
  <way id="95974343" version="1" timestamp="2011-01-20T19:11:54Z" uid="115477" user="wowik" changeset="7033529">
    <nd ref="1111971988"/>
    <nd ref="1111969852"/>
    <nd ref="1111968338"/>
    <nd ref="1111970304"/>
    <nd ref="1111971988"/>
    <tag k="building" v="yes"/>
  </way>
  <way id="95974343" version="2" timestamp="2011-01-21T09:51:34Z" uid="115477" user="wowik" changeset="7038507">
    <nd ref="1111971988"/>
    <nd ref="1111969852"/>
    <nd ref="1111968338"/>
    <nd ref="1111970304"/>
    <nd ref="1111971988"/>
    <tag k="addr:city" v="Зеленоград"/>
    <tag k="addr:housenumber" v="1 с2"/>
    <tag k="addr:postcode" v="124617"/>
    <tag k="addr:street" v="Проезд N 623"/>
    <tag k="building" v="yes"/>
    <tag k="is_in" v="Russia"/>
  </way>
  <way id="95974343" version="3" timestamp="2011-02-07T11:07:35Z" uid="115477" user="wowik" changeset="7214763">
    <nd ref="1111971988"/>
    <nd ref="1111969852"/>
    <nd ref="1111968338"/>
    <nd ref="1111970304"/>
    <nd ref="1111971988"/>
    <tag k="addr:city" v="Зеленоград"/>
    <tag k="addr:housenumber" v="1 с2"/>
    <tag k="addr:postcode" v="124617"/>
    <tag k="addr:street" v="Новокрюковская улица"/>
    <tag k="building" v="yes"/>
    <tag k="is_in" v="Russia"/>
  </way>
  <way id="95974343" version="4" timestamp="2011-02-20T11:47:36Z" uid="115477" user="wowik" changeset="7341266">
    <nd ref="1111971988"/>
    <nd ref="1111969852"/>
    <nd ref="1111968338"/>
    <nd ref="1111970304"/>
    <nd ref="1111971988"/>
    <tag k="addr:city" v="Зеленоград"/>
    <tag k="addr:housenumber" v="1 с2"/>
    <tag k="addr:postcode" v="124617"/>
    <tag k="addr:street" v="улица Александровка"/>
    <tag k="building" v="yes"/>
    <tag k="is_in" v="Russia"/>
  </way>
  <way id="95974345" version="1" timestamp="2011-01-20T19:11:54Z" uid="115477" user="wowik" changeset="7033529">
    <nd ref="1111971348"/>
    <nd ref="1111970105"/>
    <tag k="highway" v="steps"/>
  </way>
  <way id="95974347" version="1" timestamp="2011-01-20T19:11:54Z" uid="115477" user="wowik" changeset="7033529">
    <nd ref="1111970890"/>
    <nd ref="1111972437"/>
    <nd ref="1111968248"/>
    <nd ref="1024094546"/>
    <nd ref="1024094545"/>
    <nd ref="1024094544"/>
    <nd ref="1024094543"/>
    <nd ref="1111972111"/>
    <nd ref="1111968423"/>
    <nd ref="1024094531"/>
    <nd ref="1111970651"/>
    <nd ref="1111970890"/>
    <tag k="foot" v="permissive"/>
    <tag k="highway" v="footway"/>
  </way>
  <way id="95974349" version="1" timestamp="2011-01-20T19:11:54Z" uid="115477" user="wowik" changeset="7033529">
    <nd ref="474971715"/>
    <nd ref="1111970804"/>
    <nd ref="474971713"/>
    <nd ref="474971714"/>
    <nd ref="474971715"/>
  </way>
  <way id="95974351" version="1" timestamp="2011-01-20T19:11:54Z" uid="115477" user="wowik" changeset="7033529">
    <nd ref="1111971432"/>
    <nd ref="1111970451"/>
    <nd ref="1111972385"/>
    <nd ref="1111970895"/>
    <nd ref="1111971432"/>
    <tag k="addr:city" v="Зеленоград"/>
    <tag k="addr:housenumber" v="3 с1"/>
    <tag k="addr:postcode" v="124617"/>
    <tag k="addr:street" v="Проезд N 623"/>
    <tag k="building" v="yes"/>
    <tag k="is_in" v="Russia"/>
  </way>
  <way id="95974351" version="2" timestamp="2011-02-07T11:07:36Z" uid="115477" user="wowik" changeset="7214763">
    <nd ref="1111971432"/>
    <nd ref="1111970451"/>
    <nd ref="1111972385"/>
    <nd ref="1111970895"/>
    <nd ref="1111971432"/>
    <tag k="addr:city" v="Зеленоград"/>
    <tag k="addr:housenumber" v="3 с1"/>
    <tag k="addr:postcode" v="124617"/>
    <tag k="addr:street" v="Новокрюковская улица"/>
    <tag k="building" v="yes"/>
    <tag k="is_in" v="Russia"/>
  </way>
  <way id="95974353" version="1" timestamp="2011-01-20T19:11:55Z" uid="115477" user="wowik" changeset="7033529">
    <nd ref="474971749"/>
    <nd ref="1111971689"/>
    <nd ref="1111968459"/>
    <nd ref="1111972150"/>
    <nd ref="1111971292"/>
    <nd ref="1111972084"/>
    <nd ref="1111970961"/>
    <nd ref="1111971693"/>
    <nd ref="703698083"/>
    <nd ref="1111969132"/>
    <nd ref="1111969583"/>
    <nd ref="1111969815"/>
    <nd ref="1111970667"/>
    <nd ref="1111970491"/>
    <nd ref="1111970283"/>
    <nd ref="1111969079"/>
    <nd ref="1111970155"/>
    <nd ref="1111969909"/>
    <nd ref="1111970352"/>
    <nd ref="474971759"/>
    <nd ref="474971748"/>
    <nd ref="1111971056"/>
    <nd ref="1111972405"/>
    <nd ref="1111971435"/>
    <nd ref="1111971836"/>
    <nd ref="1111970548"/>
    <nd ref="1111971310"/>
    <nd ref="1111968469"/>
    <nd ref="1111969401"/>
    <nd ref="1111968928"/>
    <nd ref="1111972164"/>
    <nd ref="703698082"/>
    <nd ref="1111970300"/>
    <nd ref="1111970687"/>
    <nd ref="1111971642"/>
    <nd ref="1111968900"/>
    <nd ref="474971749"/>
    <tag k="addr:city" v="Зеленоград"/>
    <tag k="addr:housenumber" v="1462"/>
    <tag k="addr:street" v="14-й Микрорайон"/>
    <tag k="building" v="yes"/>
  </way>
  <way id="95974353" version="2" timestamp="2011-01-21T10:21:32Z" uid="115477" user="wowik" changeset="7038755">
    <nd ref="474971749"/>
    <nd ref="1111971689"/>
    <nd ref="1111968459"/>
    <nd ref="1111972150"/>
    <nd ref="1111971292"/>
    <nd ref="1111972084"/>
    <nd ref="1111970961"/>
    <nd ref="1111971693"/>
    <nd ref="703698083"/>
    <nd ref="1111969132"/>
    <nd ref="1111969583"/>
    <nd ref="1111969815"/>
    <nd ref="1111970667"/>
    <nd ref="1111970491"/>
    <nd ref="1111970283"/>
    <nd ref="1111969079"/>
    <nd ref="1111970155"/>
    <nd ref="1111969909"/>
    <nd ref="1111970352"/>
    <nd ref="474971759"/>
    <nd ref="474971748"/>
    <nd ref="1111971056"/>
    <nd ref="1111972405"/>
    <nd ref="1111971435"/>
    <nd ref="1111971836"/>
    <nd ref="1111970548"/>
    <nd ref="1111971310"/>
    <nd ref="1111968469"/>
    <nd ref="1111969401"/>
    <nd ref="1111968928"/>
    <nd ref="1111972164"/>
    <nd ref="703698082"/>
    <nd ref="1111970300"/>
    <nd ref="1111970687"/>
    <nd ref="1111971642"/>
    <nd ref="1111968900"/>
    <nd ref="474971749"/>
    <tag k="addr:city" v="Зеленоград"/>
    <tag k="addr:housenumber" v="1462"/>
    <tag k="addr:street" v="14-й Микрорайон"/>
    <tag k="building" v="yes"/>
    <tag k="building:use" v="residential"/>
  </way>
  <way id="95974357" version="1" timestamp="2011-01-20T19:11:55Z" uid="115477" user="wowik" changeset="7033529">
    <nd ref="1111970071"/>
    <nd ref="1111971456"/>
    <nd ref="1111970467"/>
    <nd ref="1111972426"/>
    <nd ref="1111970071"/>
    <tag k="addr:city" v="Зеленоград"/>
    <tag k="addr:country" v="RU"/>
    <tag k="addr:housenumber" v="8 с4"/>
    <tag k="addr:street" v="улица Александровка"/>
    <tag k="building" v="yes"/>
    <tag k="building:levels" v="1"/>
    <tag k="is_in" v="Russia"/>
  </way>
  <way id="95974359" version="1" timestamp="2011-01-20T19:11:56Z" uid="115477" user="wowik" changeset="7033529">
    <nd ref="1111971216"/>
    <nd ref="1111969569"/>
    <nd ref="1111970146"/>
    <nd ref="1111970540"/>
    <nd ref="1111971216"/>
    <tag k="leisure" v="pitch"/>
  </way>
  <way id="95974361" version="1" timestamp="2011-01-20T19:11:56Z" uid="115477" user="wowik" changeset="7033529">
    <nd ref="1085303136"/>
    <nd ref="1024098931"/>
    <nd ref="1024098932"/>
    <nd ref="1024098933"/>
    <nd ref="1024098934"/>
    <nd ref="1024098935"/>
    <nd ref="1024098936"/>
    <nd ref="1024098937"/>
    <nd ref="1024098938"/>
    <nd ref="1024098939"/>
    <nd ref="1024098940"/>
    <nd ref="1024098941"/>
    <nd ref="1024098942"/>
    <nd ref="1024098943"/>
    <nd ref="1038224007"/>
    <nd ref="1024098944"/>
    <nd ref="1024098945"/>
    <nd ref="1024098946"/>
    <tag k="foot" v="permissive"/>
    <tag k="highway" v="path"/>
  </way>
  <way id="95974363" version="1" timestamp="2011-01-20T19:11:56Z" uid="115477" user="wowik" changeset="7033529">
    <nd ref="1111968618"/>
    <nd ref="1111971616"/>
    <nd ref="1111972403"/>
    <nd ref="1111970267"/>
    <nd ref="1111968618"/>
    <tag k="addr:city" v="Зеленоград"/>
    <tag k="addr:housenumber" v="1461"/>
    <tag k="addr:street" v="14-й Микрорайон"/>
    <tag k="building" v="yes"/>
    <tag k="building:levels" v="1"/>
  </way>
  <way id="95974365" version="1" timestamp="2011-01-20T19:11:56Z" uid="115477" user="wowik" changeset="7033529">
    <nd ref="1111970635"/>
    <nd ref="1111968598"/>
    <nd ref="1111970447"/>
    <nd ref="1111969567"/>
    <nd ref="1111970635"/>
    <tag k="addr:city" v="Зеленоград"/>
    <tag k="addr:street" v="14-й Микрорайон"/>
    <tag k="building" v="yes"/>
    <tag k="building:levels" v="1"/>
  </way>
  <way id="95974366" version="1" timestamp="2011-01-20T19:11:56Z" uid="115477" user="wowik" changeset="7033529">
    <nd ref="1111970489"/>
    <nd ref="1111970959"/>
    <nd ref="1111970685"/>
    <nd ref="1111971329"/>
    <nd ref="1111972197"/>
    <nd ref="1111968493"/>
    <nd ref="1111968155"/>
    <nd ref="1111968990"/>
    <nd ref="1111969847"/>
    <nd ref="1111970298"/>
    <nd ref="1111970115"/>
    <nd ref="1111970511"/>
    <nd ref="1111970990"/>
    <nd ref="1111971749"/>
    <nd ref="1111971363"/>
    <nd ref="1111972270"/>
    <nd ref="1111968541"/>
    <nd ref="1111969485"/>
    <nd ref="1111969047"/>
    <nd ref="1111969884"/>
    <nd ref="1111970330"/>
    <nd ref="1111970717"/>
    <nd ref="474971856"/>
    <nd ref="1111970489"/>
    <tag k="addr:city" v="Зеленоград"/>
    <tag k="addr:housenumber" v="1425"/>
    <tag k="addr:street" v="14-й Микрорайон"/>
    <tag k="building" v="yes"/>
  </way>
  <way id="95974366" version="2" timestamp="2011-01-21T10:21:37Z" uid="115477" user="wowik" changeset="7038755">
    <nd ref="1111970489"/>
    <nd ref="1111970959"/>
    <nd ref="1111970685"/>
    <nd ref="1111971329"/>
    <nd ref="1111972197"/>
    <nd ref="1111968493"/>
    <nd ref="1111968155"/>
    <nd ref="1111968990"/>
    <nd ref="1111969847"/>
    <nd ref="1111970298"/>
    <nd ref="1111970115"/>
    <nd ref="1111970511"/>
    <nd ref="1111970990"/>
    <nd ref="1111971749"/>
    <nd ref="1111971363"/>
    <nd ref="1111972270"/>
    <nd ref="1111968541"/>
    <nd ref="1111969485"/>
    <nd ref="1111969047"/>
    <nd ref="1111969884"/>
    <nd ref="1111970330"/>
    <nd ref="1111970717"/>
    <nd ref="474971856"/>
    <nd ref="1111970489"/>
    <tag k="addr:city" v="Зеленоград"/>
    <tag k="addr:housenumber" v="1425"/>
    <tag k="addr:street" v="14-й Микрорайон"/>
    <tag k="building" v="yes"/>
    <tag k="building:use" v="residential"/>
  </way>
  <way id="95974370" version="1" timestamp="2011-01-20T19:11:57Z" uid="115477" user="wowik" changeset="7033529">
    <nd ref="1111971897"/>
    <nd ref="1111969784"/>
    <nd ref="1111968264"/>
    <nd ref="1111970269"/>
    <nd ref="1111971897"/>
    <tag k="addr:city" v="Зеленоград"/>
    <tag k="addr:street" v="14-й Микрорайон"/>
    <tag k="building" v="yes"/>
    <tag k="building:levels" v="1"/>
  </way>
  <way id="95974372" version="1" timestamp="2011-01-20T19:11:57Z" uid="115477" user="wowik" changeset="7033529">
    <nd ref="1111969960"/>
    <nd ref="1111971309"/>
    <nd ref="1111972161"/>
    <nd ref="1111971692"/>
    <nd ref="1111968122"/>
    <nd ref="1111968910"/>
    <nd ref="1111969960"/>
    <tag k="leisure" v="playground"/>
  </way>
  <way id="95974373" version="1" timestamp="2011-01-20T19:11:58Z" uid="115477" user="wowik" changeset="7033529">
    <nd ref="1111970833"/>
    <nd ref="1111970102"/>
    <nd ref="1111971540"/>
    <nd ref="1111970501"/>
    <nd ref="1111970833"/>
    <tag k="addr:city" v="Зеленоград"/>
    <tag k="addr:housenumber" v="4 с9"/>
    <tag k="addr:postcode" v="124617"/>
    <tag k="addr:street" v="Проезд N 623"/>
    <tag k="building" v="yes"/>
    <tag k="building:levels" v="1"/>
    <tag k="is_in" v="Russia"/>
  </way>
  <way id="95974373" version="2" timestamp="2011-02-07T11:07:33Z" uid="115477" user="wowik" changeset="7214763">
    <nd ref="1111970833"/>
    <nd ref="1111970102"/>
    <nd ref="1111971540"/>
    <nd ref="1111970501"/>
    <nd ref="1111970833"/>
    <tag k="addr:city" v="Зеленоград"/>
    <tag k="addr:housenumber" v="4 с9"/>
    <tag k="addr:postcode" v="124617"/>
    <tag k="addr:street" v="Новокрюковская улица"/>
    <tag k="building" v="yes"/>
    <tag k="building:levels" v="1"/>
    <tag k="is_in" v="Russia"/>
  </way>
  <way id="95974376" version="1" timestamp="2011-01-20T19:11:58Z" uid="115477" user="wowik" changeset="7033529">
    <nd ref="1111970142"/>
    <nd ref="1111971605"/>
    <nd ref="1111970537"/>
    <nd ref="1111972561"/>
    <nd ref="1111970142"/>
    <tag k="addr:city" v="Зеленоград"/>
    <tag k="addr:street" v="14-й Микрорайон"/>
    <tag k="building" v="yes"/>
    <tag k="building:levels" v="1"/>
  </way>
  <way id="95974377" version="1" timestamp="2011-01-20T19:11:58Z" uid="115477" user="wowik" changeset="7033529">
    <nd ref="1111971950"/>
    <nd ref="1111970100"/>
    <nd ref="1111971525"/>
    <nd ref="1111970498"/>
    <nd ref="1111971950"/>
    <tag k="addr:city" v="Зеленоград"/>
    <tag k="addr:housenumber" v="1459 с1"/>
    <tag k="addr:street" v="14-й Микрорайон"/>
    <tag k="building" v="yes"/>
    <tag k="building:levels" v="1"/>
  </way>
  <way id="95974378" version="1" timestamp="2011-01-20T19:11:58Z" uid="115477" user="wowik" changeset="7033529">
    <nd ref="1111972555"/>
    <nd ref="1111969342"/>
    <nd ref="1111968406"/>
    <nd ref="1111972099"/>
    <nd ref="474971574"/>
    <nd ref="1111970882"/>
    <nd ref="1111970445"/>
    <nd ref="474971575"/>
    <nd ref="987517833"/>
    <nd ref="1111968805"/>
    <nd ref="1111969303"/>
    <nd ref="1111969728"/>
    <nd ref="1111970237"/>
    <nd ref="1111970632"/>
    <nd ref="474971569"/>
    <nd ref="1111971593"/>
    <nd ref="1111970138"/>
    <nd ref="1111969927"/>
    <nd ref="1111970365"/>
    <nd ref="1111970741"/>
    <nd ref="1111971410"/>
    <nd ref="1111971074"/>
    <nd ref="1111971855"/>
    <nd ref="1111968235"/>
    <nd ref="1111969105"/>
    <nd ref="1111968651"/>
    <nd ref="1111969599"/>
    <nd ref="1111970332"/>
    <nd ref="1111971633"/>
    <nd ref="1111972588"/>
    <nd ref="1111972139"/>
    <nd ref="1111968452"/>
    <nd ref="1111969385"/>
    <nd ref="1111970065"/>
    <nd ref="1111969802"/>
    <nd ref="1111972555"/>
    <tag k="addr:city" v="Зеленоград"/>
    <tag k="addr:housenumber" v="1471"/>
    <tag k="addr:street" v="14-й Микрорайон"/>
    <tag k="building" v="yes"/>
    <tag k="is_in" v="Russia"/>
  </way>
  <way id="95974378" version="2" timestamp="2011-01-21T10:21:33Z" uid="115477" user="wowik" changeset="7038755">
    <nd ref="1111972555"/>
    <nd ref="1111969342"/>
    <nd ref="1111968406"/>
    <nd ref="1111972099"/>
    <nd ref="474971574"/>
    <nd ref="1111970882"/>
    <nd ref="1111970445"/>
    <nd ref="474971575"/>
    <nd ref="987517833"/>
    <nd ref="1111968805"/>
    <nd ref="1111969303"/>
    <nd ref="1111969728"/>
    <nd ref="1111970237"/>
    <nd ref="1111970632"/>
    <nd ref="474971569"/>
    <nd ref="1111971593"/>
    <nd ref="1111970138"/>
    <nd ref="1111969927"/>
    <nd ref="1111970365"/>
    <nd ref="1111970741"/>
    <nd ref="1111971410"/>
    <nd ref="1111971074"/>
    <nd ref="1111971855"/>
    <nd ref="1111968235"/>
    <nd ref="1111969105"/>
    <nd ref="1111968651"/>
    <nd ref="1111969599"/>
    <nd ref="1111970332"/>
    <nd ref="1111971633"/>
    <nd ref="1111972588"/>
    <nd ref="1111972139"/>
    <nd ref="1111968452"/>
    <nd ref="1111969385"/>
    <nd ref="1111970065"/>
    <nd ref="1111969802"/>
    <nd ref="1111972555"/>
    <tag k="addr:city" v="Зеленоград"/>
    <tag k="addr:housenumber" v="1471"/>
    <tag k="addr:street" v="14-й Микрорайон"/>
    <tag k="building" v="yes"/>
    <tag k="building:use" v="residential"/>
    <tag k="is_in" v="Russia"/>
  </way>
  <way id="95974382" version="1" timestamp="2011-01-20T19:11:59Z" uid="115477" user="wowik" changeset="7033529">
    <nd ref="1111970964"/>
    <nd ref="1111969242"/>
    <nd ref="1111970691"/>
    <nd ref="1111969997"/>
    <nd ref="1111970964"/>
    <tag k="addr:city" v="Зеленоград"/>
    <tag k="addr:street" v="14-й Микрорайон"/>
    <tag k="building" v="yes"/>
    <tag k="building:levels" v="1"/>
    <tag k="shop" v="kiosk"/>
  </way>
  <way id="95974383" version="1" timestamp="2011-01-20T19:11:59Z" uid="115477" user="wowik" changeset="7033529">
    <nd ref="1111971244"/>
    <nd ref="1111969166"/>
    <nd ref="1111969602"/>
    <nd ref="1111968654"/>
    <nd ref="1111972415"/>
    <nd ref="474971749"/>
    <nd ref="1111970443"/>
    <nd ref="1111970647"/>
    <nd ref="1111970256"/>
    <nd ref="1111972554"/>
    <nd ref="1111968405"/>
    <nd ref="1111970048"/>
    <nd ref="1111969338"/>
    <nd ref="1111968798"/>
    <nd ref="474971750"/>
    <nd ref="474971751"/>
    <nd ref="474971752"/>
    <nd ref="1111972216"/>
    <nd ref="1111968497"/>
    <nd ref="474971753"/>
    <nd ref="474971754"/>
    <nd ref="474971755"/>
    <nd ref="1111970874"/>
    <nd ref="1111971589"/>
    <nd ref="474971756"/>
    <nd ref="474971757"/>
    <nd ref="1111971244"/>
    <tag k="addr:city" v="Зеленоград"/>
    <tag k="addr:housenumber" v="1462"/>
    <tag k="addr:street" v="14-й Микрорайон"/>
    <tag k="building" v="yes"/>
  </way>
  <way id="95974383" version="2" timestamp="2011-01-21T10:21:27Z" uid="115477" user="wowik" changeset="7038755">
    <nd ref="1111971244"/>
    <nd ref="1111969166"/>
    <nd ref="1111969602"/>
    <nd ref="1111968654"/>
    <nd ref="1111972415"/>
    <nd ref="474971749"/>
    <nd ref="1111970443"/>
    <nd ref="1111970647"/>
    <nd ref="1111970256"/>
    <nd ref="1111972554"/>
    <nd ref="1111968405"/>
    <nd ref="1111970048"/>
    <nd ref="1111969338"/>
    <nd ref="1111968798"/>
    <nd ref="474971750"/>
    <nd ref="474971751"/>
    <nd ref="474971752"/>
    <nd ref="1111972216"/>
    <nd ref="1111968497"/>
    <nd ref="474971753"/>
    <nd ref="474971754"/>
    <nd ref="474971755"/>
    <nd ref="1111970874"/>
    <nd ref="1111971589"/>
    <nd ref="474971756"/>
    <nd ref="474971757"/>
    <nd ref="1111971244"/>
    <tag k="addr:city" v="Зеленоград"/>
    <tag k="addr:housenumber" v="1462"/>
    <tag k="addr:street" v="14-й Микрорайон"/>
    <tag k="building" v="yes"/>
    <tag k="building:use" v="residential"/>
  </way>
  <way id="95974385" version="1" timestamp="2011-01-20T19:12:00Z" uid="115477" user="wowik" changeset="7033529">
    <nd ref="1111971387"/>
    <nd ref="1111970428"/>
    <nd ref="1111972312"/>
    <nd ref="1111970245"/>
    <nd ref="1111971387"/>
    <tag k="building" v="yes"/>
  </way>
  <way id="95974387" version="1" timestamp="2011-01-20T19:12:00Z" uid="115477" user="wowik" changeset="7033529">
    <nd ref="1111971933"/>
    <nd ref="1111970662"/>
    <nd ref="1111968285"/>
    <nd ref="1111971308"/>
    <nd ref="1111969173"/>
    <nd ref="1111972158"/>
    <nd ref="1111971933"/>
    <tag k="addr:city" v="Зеленоград"/>
    <tag k="addr:street" v="14-й Микрорайон"/>
    <tag k="building" v="yes"/>
    <tag k="building:levels" v="1"/>
    <tag k="landuse" v="garages"/>
  </way>
  <way id="95974389" version="1" timestamp="2011-01-20T19:12:00Z" uid="115477" user="wowik" changeset="7033529">
    <nd ref="1111972329"/>
    <nd ref="1111969477"/>
    <tag k="highway" v="steps"/>
  </way>
  <way id="95974392" version="1" timestamp="2011-01-20T19:12:01Z" uid="115477" user="wowik" changeset="7033529">
    <nd ref="1111971298"/>
    <nd ref="1111969168"/>
    <nd ref="1111972156"/>
    <nd ref="1111969959"/>
    <nd ref="1111971298"/>
    <tag k="addr:city" v="Зеленоград"/>
    <tag k="addr:country" v="RU"/>
    <tag k="addr:street" v="улица Александровка"/>
    <tag k="building" v="yes"/>
    <tag k="building:levels" v="1"/>
    <tag k="is_in" v="Russia"/>
  </way>
  <way id="95974394" version="1" timestamp="2011-01-20T19:12:01Z" uid="115477" user="wowik" changeset="7033529">
    <nd ref="1111971517"/>
    <nd ref="1111969866"/>
    <nd ref="1111970307"/>
    <nd ref="1111971996"/>
    <nd ref="1111970697"/>
    <nd ref="1111968346"/>
    <nd ref="1111971517"/>
    <tag k="addr:city" v="Зеленоград"/>
    <tag k="addr:housenumber" v="3 с5"/>
    <tag k="addr:postcode" v="124617"/>
    <tag k="addr:street" v="Проезд N 623"/>
    <tag k="building" v="yes"/>
    <tag k="is_in" v="Russia"/>
  </way>
  <way id="95974394" version="2" timestamp="2011-02-07T11:07:35Z" uid="115477" user="wowik" changeset="7214763">
    <nd ref="1111971517"/>
    <nd ref="1111969866"/>
    <nd ref="1111970307"/>
    <nd ref="1111971996"/>
    <nd ref="1111970697"/>
    <nd ref="1111968346"/>
    <nd ref="1111971517"/>
    <tag k="addr:city" v="Зеленоград"/>
    <tag k="addr:housenumber" v="3 с5"/>
    <tag k="addr:postcode" v="124617"/>
    <tag k="addr:street" v="Новокрюковская улица"/>
    <tag k="building" v="yes"/>
    <tag k="is_in" v="Russia"/>
  </way>
  <way id="95974397" version="1" timestamp="2011-01-20T19:12:01Z" uid="115477" user="wowik" changeset="7033529">
    <nd ref="1111970003"/>
    <nd ref="1111968508"/>
    <nd ref="1111970402"/>
    <nd ref="1111969446"/>
    <nd ref="1111970003"/>
    <tag k="addr:city" v="Зеленоград"/>
    <tag k="addr:housenumber" v="1430 с1"/>
    <tag k="addr:street" v="14-й Микрорайон"/>
    <tag k="building" v="yes"/>
    <tag k="building:levels" v="1"/>
  </way>
  <way id="95974401" version="1" timestamp="2011-01-20T19:12:01Z" uid="115477" user="wowik" changeset="7033529">
    <nd ref="1111969505"/>
    <nd ref="1111972513"/>
    <nd ref="1111970236"/>
    <nd ref="1111971815"/>
    <nd ref="1111969505"/>
    <tag k="addr:city" v="Зеленоград"/>
    <tag k="addr:country" v="RU"/>
    <tag k="addr:housenumber" v="8 с7"/>
    <tag k="addr:street" v="улица Александровка"/>
    <tag k="building" v="yes"/>
    <tag k="building:levels" v="1"/>
    <tag k="is_in" v="Russia"/>
  </way>
  <way id="95974403" version="1" timestamp="2011-01-20T19:12:02Z" uid="115477" user="wowik" changeset="7033529">
    <nd ref="1111969413"/>
    <nd ref="1111972439"/>
    <nd ref="1111970076"/>
    <nd ref="1111968663"/>
    <nd ref="1111969413"/>
    <tag k="addr:city" v="Зеленоград"/>
    <tag k="addr:housenumber" v="2 с1"/>
    <tag k="addr:postcode" v="124617"/>
    <tag k="addr:street" v="Проезд N 623"/>
    <tag k="building" v="yes"/>
    <tag k="is_in" v="Russia"/>
  </way>
  <way id="95974403" version="2" timestamp="2011-02-07T11:07:30Z" uid="115477" user="wowik" changeset="7214763">
    <nd ref="1111969413"/>
    <nd ref="1111972439"/>
    <nd ref="1111970076"/>
    <nd ref="1111968663"/>
    <nd ref="1111969413"/>
    <tag k="addr:city" v="Зеленоград"/>
    <tag k="addr:housenumber" v="2 с1"/>
    <tag k="addr:postcode" v="124617"/>
    <tag k="addr:street" v="Новокрюковская улица"/>
    <tag k="building" v="yes"/>
    <tag k="is_in" v="Russia"/>
  </way>
  <way id="95974407" version="1" timestamp="2011-01-20T19:12:02Z" uid="115477" user="wowik" changeset="7033529">
    <nd ref="1111970696"/>
    <nd ref="1111968768"/>
    <nd ref="1111970513"/>
    <nd ref="1111969691"/>
    <nd ref="1111970696"/>
    <tag k="building" v="yes"/>
  </way>
  <way id="95974407" version="2" timestamp="2011-01-21T09:51:32Z" uid="115477" user="wowik" changeset="7038507">
    <nd ref="1111970696"/>
    <nd ref="1111968768"/>
    <nd ref="1111970513"/>
    <nd ref="1111969691"/>
    <nd ref="1111970696"/>
    <tag k="addr:city" v="Зеленоград"/>
    <tag k="addr:housenumber" v="1 с1"/>
    <tag k="addr:postcode" v="124617"/>
    <tag k="addr:street" v="Проезд N 623"/>
    <tag k="building" v="yes"/>
    <tag k="is_in" v="Russia"/>
  </way>
  <way id="95974407" version="3" timestamp="2011-02-07T11:07:34Z" uid="115477" user="wowik" changeset="7214763">
    <nd ref="1111970696"/>
    <nd ref="1111968768"/>
    <nd ref="1111970513"/>
    <nd ref="1111969691"/>
    <nd ref="1111970696"/>
    <tag k="addr:city" v="Зеленоград"/>
    <tag k="addr:housenumber" v="1 с1"/>
    <tag k="addr:postcode" v="124617"/>
    <tag k="addr:street" v="Новокрюковская улица"/>
    <tag k="building" v="yes"/>
    <tag k="is_in" v="Russia"/>
  </way>
  <way id="95974407" version="4" timestamp="2011-02-20T11:47:35Z" uid="115477" user="wowik" changeset="7341266">
    <nd ref="1111970696"/>
    <nd ref="1111968768"/>
    <nd ref="1111970513"/>
    <nd ref="1111969691"/>
    <nd ref="1111970696"/>
    <tag k="addr:city" v="Зеленоград"/>
    <tag k="addr:housenumber" v="1 с1"/>
    <tag k="addr:postcode" v="124617"/>
    <tag k="addr:street" v="улица Александровка"/>
    <tag k="building" v="yes"/>
    <tag k="is_in" v="Russia"/>
  </way>
  <way id="95974408" version="1" timestamp="2011-01-20T19:12:02Z" uid="115477" user="wowik" changeset="7033529">
    <nd ref="1111969054"/>
    <nd ref="1111972043"/>
    <nd ref="1111969893"/>
    <nd ref="1111968376"/>
    <nd ref="1111969054"/>
    <tag k="addr:city" v="Зеленоград"/>
    <tag k="addr:housenumber" v="1466 с1"/>
    <tag k="addr:street" v="14-й Микрорайон"/>
    <tag k="building" v="yes"/>
    <tag k="building:levels" v="1"/>
  </way>
  <way id="95974411" version="1" timestamp="2011-01-20T19:12:03Z" uid="115477" user="wowik" changeset="7033529">
    <nd ref="1111970176"/>
    <nd ref="1111968874"/>
    <nd ref="1111970572"/>
    <nd ref="1111968478"/>
    <nd ref="1111970176"/>
    <tag k="addr:city" v="Зеленоград"/>
    <tag k="addr:housenumber" v="4 с6"/>
    <tag k="addr:postcode" v="124617"/>
    <tag k="addr:street" v="Проезд N 623"/>
    <tag k="building" v="yes"/>
    <tag k="building:levels" v="1"/>
    <tag k="is_in" v="Russia"/>
  </way>
  <way id="95974411" version="2" timestamp="2011-02-07T11:07:31Z" uid="115477" user="wowik" changeset="7214763">
    <nd ref="1111970176"/>
    <nd ref="1111968874"/>
    <nd ref="1111970572"/>
    <nd ref="1111968478"/>
    <nd ref="1111970176"/>
    <tag k="addr:city" v="Зеленоград"/>
    <tag k="addr:housenumber" v="4 с6"/>
    <tag k="addr:postcode" v="124617"/>
    <tag k="addr:street" v="Новокрюковская улица"/>
    <tag k="building" v="yes"/>
    <tag k="building:levels" v="1"/>
    <tag k="is_in" v="Russia"/>
  </way>
  <way id="95974413" version="1" timestamp="2011-01-20T19:12:03Z" uid="115477" user="wowik" changeset="7033529">
    <nd ref="1111968996"/>
    <nd ref="1111971987"/>
    <nd ref="1111969850"/>
    <nd ref="1111968337"/>
    <nd ref="1111968996"/>
    <tag k="addr:city" v="Зеленоград"/>
    <tag k="addr:street" v="14-й Микрорайон"/>
    <tag k="building" v="yes"/>
    <tag k="building:levels" v="1"/>
    <tag k="shop" v="kiosk"/>
  </way>
  <way id="95974414" version="1" timestamp="2011-01-20T19:12:03Z" uid="115477" user="wowik" changeset="7033529">
    <nd ref="1111970144"/>
    <nd ref="1111971609"/>
    <nd ref="1111970538"/>
    <nd ref="1111972566"/>
    <nd ref="1111970144"/>
    <tag k="building" v="yes"/>
  </way>
  <way id="95974415" version="1" timestamp="2011-01-20T19:12:03Z" uid="115477" user="wowik" changeset="7033529">
    <nd ref="1111969573"/>
    <nd ref="1111972572"/>
    <nd ref="1111970153"/>
    <nd ref="1111968820"/>
    <nd ref="1111969573"/>
    <tag k="building" v="yes"/>
  </way>
  <way id="95974418" version="1" timestamp="2011-01-20T19:12:04Z" uid="115477" user="wowik" changeset="7033529">
    <nd ref="1111970250"/>
    <nd ref="1111971842"/>
    <nd ref="1111970064"/>
    <nd ref="1111971444"/>
    <nd ref="1111970250"/>
    <tag k="addr:city" v="Зеленоград"/>
    <tag k="addr:housenumber" v="1462 с1"/>
    <tag k="addr:street" v="14-й Микрорайон"/>
    <tag k="building" v="yes"/>
    <tag k="building:levels" v="1"/>
  </way>
  <way id="95974420" version="1" timestamp="2011-01-20T19:12:04Z" uid="115477" user="wowik" changeset="7033529">
    <nd ref="1111970196"/>
    <nd ref="1111968970"/>
    <nd ref="1111970591"/>
    <nd ref="1111969823"/>
    <nd ref="1111970196"/>
    <tag k="addr:city" v="Зеленоград"/>
    <tag k="addr:housenumber" v="1460 с2"/>
    <tag k="addr:street" v="14-й Микрорайон"/>
    <tag k="building" v="yes"/>
    <tag k="building:levels" v="1"/>
  </way>
  <way id="95974422" version="1" timestamp="2011-01-20T19:12:04Z" uid="115477" user="wowik" changeset="7033529">
    <nd ref="1111968425"/>
    <nd ref="1111971418"/>
    <nd ref="1111969355"/>
    <nd ref="1111972380"/>
    <nd ref="1111968425"/>
    <tag k="addr:city" v="Зеленоград"/>
    <tag k="building" v="yes"/>
    <tag k="is_in" v="Russia"/>
  </way>
  <way id="95974423" version="1" timestamp="2011-01-20T19:12:04Z" uid="115477" user="wowik" changeset="7033529">
    <nd ref="1111970653"/>
    <nd ref="1111968435"/>
    <nd ref="1111972128"/>
    <nd ref="1111968257"/>
    <nd ref="1111971265"/>
    <nd ref="1111969128"/>
    <nd ref="1111970653"/>
    <tag k="addr:city" v="Зеленоград"/>
    <tag k="addr:housenumber" v="3 с4"/>
    <tag k="addr:postcode" v="124617"/>
    <tag k="addr:street" v="Проезд N 623"/>
    <tag k="building" v="yes"/>
    <tag k="is_in" v="Russia"/>
  </way>
  <way id="95974423" version="2" timestamp="2011-02-07T11:07:31Z" uid="115477" user="wowik" changeset="7214763">
    <nd ref="1111970653"/>
    <nd ref="1111968435"/>
    <nd ref="1111972128"/>
    <nd ref="1111968257"/>
    <nd ref="1111971265"/>
    <nd ref="1111969128"/>
    <nd ref="1111970653"/>
    <tag k="addr:city" v="Зеленоград"/>
    <tag k="addr:housenumber" v="3 с4"/>
    <tag k="addr:postcode" v="124617"/>
    <tag k="addr:street" v="Новокрюковская улица"/>
    <tag k="building" v="yes"/>
    <tag k="is_in" v="Russia"/>
  </way>
  <way id="95974426" version="1" timestamp="2011-01-20T19:12:05Z" uid="115477" user="wowik" changeset="7033529">
    <nd ref="1111969043"/>
    <nd ref="1111969540"/>
    <nd ref="1111969881"/>
    <nd ref="1111970128"/>
    <nd ref="1111970525"/>
    <nd ref="474971761"/>
    <nd ref="1111971019"/>
    <nd ref="474971762"/>
    <nd ref="1111971326"/>
    <nd ref="1111970983"/>
    <nd ref="1111971727"/>
    <nd ref="1111969842"/>
    <nd ref="1111970088"/>
    <nd ref="474971764"/>
    <nd ref="1111971250"/>
    <nd ref="474971765"/>
    <nd ref="1111970295"/>
    <nd ref="1111970682"/>
    <nd ref="474971766"/>
    <nd ref="474971745"/>
    <nd ref="474971746"/>
    <nd ref="1111970505"/>
    <nd ref="1111970106"/>
    <nd ref="1111968979"/>
    <nd ref="1111969480"/>
    <nd ref="1111968539"/>
    <nd ref="1111968150"/>
    <nd ref="1111970712"/>
    <nd ref="1111972259"/>
    <nd ref="1111971349"/>
    <nd ref="1111970319"/>
    <nd ref="1111971788"/>
    <nd ref="1111968182"/>
    <nd ref="474971747"/>
    <nd ref="1111969043"/>
    <tag k="building" v="yes"/>
  </way>
  <way id="95974426" version="2" timestamp="2011-01-21T10:21:17Z" uid="115477" user="wowik" changeset="7038755">
    <nd ref="1111969043"/>
    <nd ref="1111969540"/>
    <nd ref="1111969881"/>
    <nd ref="1111970128"/>
    <nd ref="1111970525"/>
    <nd ref="474971761"/>
    <nd ref="1111971019"/>
    <nd ref="474971762"/>
    <nd ref="1111971326"/>
    <nd ref="1111970983"/>
    <nd ref="1111971727"/>
    <nd ref="1111969842"/>
    <nd ref="1111970088"/>
    <nd ref="474971764"/>
    <nd ref="1111971250"/>
    <nd ref="474971765"/>
    <nd ref="1111970295"/>
    <nd ref="1111970682"/>
    <nd ref="474971766"/>
    <nd ref="474971745"/>
    <nd ref="474971746"/>
    <nd ref="1111970505"/>
    <nd ref="1111970106"/>
    <nd ref="1111968979"/>
    <nd ref="1111969480"/>
    <nd ref="1111968539"/>
    <nd ref="1111968150"/>
    <nd ref="1111970712"/>
    <nd ref="1111972259"/>
    <nd ref="1111971349"/>
    <nd ref="1111970319"/>
    <nd ref="1111971788"/>
    <nd ref="1111968182"/>
    <nd ref="474971747"/>
    <nd ref="1111969043"/>
    <tag k="building" v="yes"/>
    <tag k="building:use" v="residential"/>
  </way>
  <way id="95974429" version="1" timestamp="2011-01-20T19:12:05Z" uid="115477" user="wowik" changeset="7033529">
    <nd ref="1111968673"/>
    <nd ref="1111969204"/>
    <nd ref="1111971665"/>
    <nd ref="1111969967"/>
    <nd ref="1111969622"/>
    <nd ref="1111971314"/>
    <nd ref="1111968673"/>
    <tag k="addr:city" v="Зеленоград"/>
    <tag k="addr:housenumber" v="1401 с1"/>
    <tag k="addr:street" v="14-й Микрорайон"/>
    <tag k="building" v="yes"/>
    <tag k="building:levels" v="1"/>
  </way>
  <way id="95974432" version="1" timestamp="2011-01-20T19:12:06Z" uid="115477" user="wowik" changeset="7033529">
    <nd ref="1111970393"/>
    <nd ref="1111972201"/>
    <nd ref="474971755"/>
    <nd ref="1111970874"/>
    <nd ref="1111971589"/>
    <nd ref="474971756"/>
    <nd ref="474971757"/>
    <nd ref="1111970393"/>
    <tag k="building" v="yes"/>
    <tag k="shop" v="yes"/>
  </way>
  <way id="95974433" version="1" timestamp="2011-01-20T19:12:06Z" uid="115477" user="wowik" changeset="7033529">
    <nd ref="1111968431"/>
    <nd ref="1111971419"/>
    <nd ref="1111972381"/>
    <nd ref="1111968602"/>
    <nd ref="1111968254"/>
    <nd ref="1007194692"/>
    <nd ref="1007194686"/>
    <nd ref="1111971264"/>
    <nd ref="1111972116"/>
    <nd ref="1111968431"/>
    <tag k="building" v="yes"/>
  </way>
  <way id="95974434" version="1" timestamp="2011-01-20T19:12:06Z" uid="115477" user="wowik" changeset="7033529">
    <nd ref="1111970689"/>
    <nd ref="1111968331"/>
    <nd ref="1111971331"/>
    <nd ref="1111969234"/>
    <nd ref="1111970689"/>
    <tag k="addr:city" v="Зеленоград"/>
    <tag k="addr:street" v="14-й Микрорайон"/>
    <tag k="building" v="yes"/>
    <tag k="building:levels" v="1"/>
    <tag k="landuse" v="garages"/>
  </way>
  <way id="95974435" version="1" timestamp="2011-01-20T19:12:07Z" uid="115477" user="wowik" changeset="7033529">
    <nd ref="1111970311"/>
    <nd ref="1111972014"/>
    <nd ref="1111970700"/>
    <nd ref="1111968351"/>
    <nd ref="1111970311"/>
    <tag k="addr:city" v="Зеленоград"/>
    <tag k="building" v="yes"/>
    <tag k="building:levels" v="1"/>
    <tag k="shop" v="yes"/>
  </way>
  <way id="95974436" version="1" timestamp="2011-01-20T19:12:07Z" uid="115477" user="wowik" changeset="7033529">
    <nd ref="1111971260"/>
    <nd ref="1111972106"/>
    <nd ref="853173148"/>
    <nd ref="853173147"/>
    <nd ref="853173146"/>
    <nd ref="1111971260"/>
    <tag k="building" v="yes"/>
  </way>
  <way id="95974439" version="1" timestamp="2011-01-20T19:12:07Z" uid="115477" user="wowik" changeset="7033529">
    <nd ref="1111970091"/>
    <nd ref="1111971983"/>
    <nd ref="1111969848"/>
    <nd ref="1111968328"/>
    <nd ref="1111970091"/>
    <tag k="addr:city" v="Зеленоград"/>
    <tag k="addr:street" v="14-й Микрорайон"/>
    <tag k="building" v="yes"/>
    <tag k="building:levels" v="1"/>
  </way>
  <way id="95974441" version="1" timestamp="2011-01-20T19:12:07Z" uid="115477" user="wowik" changeset="7033529">
    <nd ref="1111970081"/>
    <nd ref="1111971484"/>
    <nd ref="1111970481"/>
    <nd ref="1111972452"/>
    <nd ref="1111970081"/>
    <tag k="addr:city" v="Зеленоград"/>
    <tag k="addr:housenumber" v="4 с7"/>
    <tag k="addr:postcode" v="124617"/>
    <tag k="addr:street" v="Проезд N 623"/>
    <tag k="building" v="yes"/>
    <tag k="building:levels" v="1"/>
    <tag k="is_in" v="Russia"/>
  </way>
  <way id="95974441" version="2" timestamp="2011-02-07T11:07:30Z" uid="115477" user="wowik" changeset="7214763">
    <nd ref="1111970081"/>
    <nd ref="1111971484"/>
    <nd ref="1111970481"/>
    <nd ref="1111972452"/>
    <nd ref="1111970081"/>
    <tag k="addr:city" v="Зеленоград"/>
    <tag k="addr:housenumber" v="4 с7"/>
    <tag k="addr:postcode" v="124617"/>
    <tag k="addr:street" v="Новокрюковская улица"/>
    <tag k="building" v="yes"/>
    <tag k="building:levels" v="1"/>
    <tag k="is_in" v="Russia"/>
  </way>
  <way id="95974442" version="1" timestamp="2011-01-20T19:12:08Z" uid="115477" user="wowik" changeset="7033529">
    <nd ref="853173179"/>
    <nd ref="1111970028"/>
    <nd ref="853173183"/>
    <nd ref="853173186"/>
    <nd ref="853173188"/>
    <nd ref="853173190"/>
    <nd ref="1111970285"/>
    <nd ref="1111970094"/>
    <nd ref="1111970492"/>
    <nd ref="1111969816"/>
    <nd ref="853173191"/>
    <nd ref="853173134"/>
    <nd ref="853173135"/>
    <nd ref="853173136"/>
    <nd ref="853173138"/>
    <nd ref="1111968124"/>
    <nd ref="1111968933"/>
    <nd ref="853173141"/>
    <nd ref="1111968471"/>
    <nd ref="1111972169"/>
    <nd ref="853173143"/>
    <nd ref="1111972558"/>
    <nd ref="1111968808"/>
    <nd ref="1111970140"/>
    <nd ref="853173179"/>
    <tag k="addr:city" v="Зеленоград"/>
    <tag k="addr:country" v="RU"/>
    <tag k="addr:housenumber" v="8 с2"/>
    <tag k="addr:street" v="улица Александровка"/>
    <tag k="amenity" v="hospital"/>
    <tag k="building" v="yes"/>
    <tag k="is_in" v="Russia"/>
  </way>
  <way id="95974443" version="1" timestamp="2011-01-20T19:12:08Z" uid="115477" user="wowik" changeset="7033529">
    <nd ref="1111968396"/>
    <nd ref="1111969477"/>
    <tag k="highway" v="steps"/>
  </way>
  <way id="95974445" version="1" timestamp="2011-01-20T19:12:08Z" uid="115477" user="wowik" changeset="7033529">
    <nd ref="1111970755"/>
    <nd ref="1111968444"/>
    <nd ref="1111970571"/>
    <nd ref="1111968101"/>
    <nd ref="1111970755"/>
    <tag k="addr:city" v="Зеленоград"/>
    <tag k="addr:street" v="14-й Микрорайон"/>
    <tag k="building" v="yes"/>
    <tag k="building:levels" v="1"/>
  </way>
  <way id="95974446" version="1" timestamp="2011-01-20T19:12:08Z" uid="115477" user="wowik" changeset="7033529">
    <nd ref="1111968503"/>
    <nd ref="1111971510"/>
    <nd ref="1111969441"/>
    <nd ref="1111971171"/>
    <nd ref="1111968503"/>
    <tag k="building" v="yes"/>
  </way>
  <way id="95974447" version="1" timestamp="2011-01-20T19:12:09Z" uid="115477" user="wowik" changeset="7033529">
    <nd ref="1111970759"/>
    <nd ref="1111970059"/>
    <nd ref="1111971440"/>
    <nd ref="1111969792"/>
    <nd ref="1111970759"/>
    <tag k="addr:city" v="Зеленоград"/>
    <tag k="addr:housenumber" v="4 с5"/>
    <tag k="addr:postcode" v="124617"/>
    <tag k="addr:street" v="Проезд N 623"/>
    <tag k="building" v="yes"/>
    <tag k="building:levels" v="1"/>
    <tag k="is_in" v="Russia"/>
  </way>
  <way id="95974447" version="2" timestamp="2011-02-07T11:07:29Z" uid="115477" user="wowik" changeset="7214763">
    <nd ref="1111970759"/>
    <nd ref="1111970059"/>
    <nd ref="1111971440"/>
    <nd ref="1111969792"/>
    <nd ref="1111970759"/>
    <tag k="addr:city" v="Зеленоград"/>
    <tag k="addr:housenumber" v="4 с5"/>
    <tag k="addr:postcode" v="124617"/>
    <tag k="addr:street" v="Новокрюковская улица"/>
    <tag k="building" v="yes"/>
    <tag k="building:levels" v="1"/>
    <tag k="is_in" v="Russia"/>
  </way>
  <way id="95974449" version="1" timestamp="2011-01-20T19:12:09Z" uid="115477" user="wowik" changeset="7033529">
    <nd ref="1111971411"/>
    <nd ref="1111970169"/>
    <nd ref="1111969758"/>
    <nd ref="1111971077"/>
    <nd ref="1111970562"/>
    <nd ref="1111970259"/>
    <nd ref="1111971411"/>
    <tag k="addr:city" v="Зеленоград"/>
    <tag k="addr:street" v="14-й Микрорайон"/>
    <tag k="building" v="yes"/>
    <tag k="building:levels" v="1"/>
    <tag k="landuse" v="garages"/>
  </way>
  <way id="95974451" version="1" timestamp="2011-01-20T19:12:09Z" uid="115477" user="wowik" changeset="7033529">
    <nd ref="1111969707"/>
    <nd ref="1111971018"/>
    <nd ref="1111971785"/>
    <nd ref="1111968179"/>
    <nd ref="1111969707"/>
    <tag k="leisure" v="pitch"/>
  </way>
  <way id="95974453" version="1" timestamp="2011-01-20T19:12:09Z" uid="115477" user="wowik" changeset="7033529">
    <nd ref="1111968341"/>
    <nd ref="1111970514"/>
    <nd ref="1111972519"/>
    <nd ref="1111970998"/>
    <nd ref="1111968547"/>
    <nd ref="1111972288"/>
    <nd ref="1111968341"/>
    <tag k="addr:city" v="Зеленоград"/>
    <tag k="addr:housenumber" v="1432 с1"/>
    <tag k="addr:street" v="14-й Микрорайон"/>
    <tag k="building" v="yes"/>
    <tag k="building:levels" v="1"/>
  </way>
  <way id="95974456" version="1" timestamp="2011-01-20T19:12:10Z" uid="115477" user="wowik" changeset="7033529">
    <nd ref="1111970249"/>
    <nd ref="1111971840"/>
    <nd ref="1111970644"/>
    <nd ref="1111968217"/>
    <nd ref="1111970249"/>
    <tag k="addr:city" v="Зеленоград"/>
    <tag k="addr:street" v="14-й Микрорайон"/>
    <tag k="building" v="yes"/>
    <tag k="building:levels" v="1"/>
  </way>
  <way id="95974458" version="1" timestamp="2011-01-20T19:12:10Z" uid="115477" user="wowik" changeset="7033529">
    <nd ref="1111969743"/>
    <nd ref="1111971051"/>
    <nd ref="1111969360"/>
    <nd ref="1111970748"/>
    <nd ref="1111969743"/>
    <tag k="building" v="yes"/>
  </way>
  <way id="95974462" version="1" timestamp="2011-01-20T19:12:10Z" uid="115477" user="wowik" changeset="7033529">
    <nd ref="1100166362"/>
    <nd ref="1111970474"/>
    <nd ref="1111970934"/>
    <nd ref="1100166323"/>
    <nd ref="1100166362"/>
    <tag k="addr:city" v="Зеленоград"/>
    <tag k="addr:housenumber" v="3 с3"/>
    <tag k="addr:postcode" v="124617"/>
    <tag k="addr:street" v="Проезд N 623"/>
    <tag k="building" v="yes"/>
    <tag k="is_in" v="Russia"/>
  </way>
  <way id="95974462" version="2" timestamp="2011-02-07T11:07:32Z" uid="115477" user="wowik" changeset="7214763">
    <nd ref="1100166362"/>
    <nd ref="1111970474"/>
    <nd ref="1111970934"/>
    <nd ref="1100166323"/>
    <nd ref="1100166362"/>
    <tag k="addr:city" v="Зеленоград"/>
    <tag k="addr:housenumber" v="3 с3"/>
    <tag k="addr:postcode" v="124617"/>
    <tag k="addr:street" v="Новокрюковская улица"/>
    <tag k="building" v="yes"/>
    <tag k="is_in" v="Russia"/>
  </way>
  <way id="95974463" version="1" timestamp="2011-01-20T19:12:10Z" uid="115477" user="wowik" changeset="7033529">
    <nd ref="1111968679"/>
    <nd ref="1111970480"/>
    <nd ref="1111969624"/>
    <nd ref="1111970940"/>
    <nd ref="1111968679"/>
    <tag k="addr:city" v="Зеленоград"/>
    <tag k="addr:housenumber" v="1446 с8"/>
    <tag k="addr:street" v="14-й Микрорайон"/>
    <tag k="building" v="bunker"/>
    <tag k="building:levels" v="1"/>
  </way>
  <way id="95974467" version="1" timestamp="2011-01-20T19:12:11Z" uid="115477" user="wowik" changeset="7033529">
    <nd ref="1111972413"/>
    <nd ref="1111970282"/>
    <nd ref="1111971917"/>
    <nd ref="1111970661"/>
    <nd ref="1111972413"/>
    <tag k="addr:city" v="Зеленоград"/>
    <tag k="addr:street" v="14-й Микрорайон"/>
    <tag k="building" v="yes"/>
    <tag k="building:levels" v="1"/>
  </way>
  <way id="95974471" version="1" timestamp="2011-01-20T19:12:11Z" uid="115477" user="wowik" changeset="7033529">
    <nd ref="1024094531"/>
    <nd ref="1024094533"/>
    <nd ref="1024094534"/>
    <nd ref="1036421479"/>
    <tag k="foot" v="permissive"/>
    <tag k="highway" v="footway"/>
  </way>
  <way id="95974475" version="1" timestamp="2011-01-20T19:12:12Z" uid="115477" user="wowik" changeset="7033529">
    <nd ref="1111972213"/>
    <nd ref="1111970807"/>
    <nd ref="1111968495"/>
    <nd ref="1111971506"/>
    <nd ref="1111972213"/>
    <tag k="addr:city" v="Зеленоград"/>
    <tag k="addr:street" v="14-й Микрорайон"/>
    <tag k="building" v="yes"/>
    <tag k="building:levels" v="1"/>
  </way>
  <way id="95974477" version="1" timestamp="2011-01-20T19:12:12Z" uid="115477" user="wowik" changeset="7033529">
    <nd ref="1111968732"/>
    <nd ref="1111971716"/>
    <nd ref="1111969659"/>
    <nd ref="1111971338"/>
    <nd ref="1111968732"/>
    <tag k="addr:city" v="Зеленоград"/>
    <tag k="addr:housenumber" v="1454 с1?"/>
    <tag k="addr:street" v="14-й Микрорайон"/>
    <tag k="building" v="yes"/>
    <tag k="building:levels" v="1"/>
  </way>
  <way id="95974480" version="1" timestamp="2011-01-20T19:12:12Z" uid="115477" user="wowik" changeset="7033529">
    <nd ref="1111972477"/>
    <nd ref="1111970092"/>
    <nd ref="1111968719"/>
    <nd ref="1111970490"/>
    <nd ref="1111969239"/>
    <nd ref="1111969992"/>
    <nd ref="1111972477"/>
    <tag k="addr:city" v="Зеленоград"/>
    <tag k="addr:housenumber" v="1461"/>
    <tag k="addr:street" v="14-й Микрорайон"/>
    <tag k="building" v="yes"/>
    <tag k="building:levels" v="1"/>
  </way>
  <way id="95974481" version="1" timestamp="2011-01-20T19:12:12Z" uid="115477" user="wowik" changeset="7033529">
    <nd ref="1111969649"/>
    <nd ref="1111968120"/>
    <nd ref="1111970190"/>
    <nd ref="1111968907"/>
    <nd ref="1111969649"/>
    <tag k="addr:city" v="Зеленоград"/>
    <tag k="addr:street" v="14-й Микрорайон"/>
    <tag k="building" v="yes"/>
    <tag k="building:levels" v="1"/>
    <tag k="landuse" v="garages"/>
  </way>
  <way id="95974486" version="1" timestamp="2011-01-20T19:12:13Z" uid="115477" user="wowik" changeset="7033529">
    <nd ref="1111970782"/>
    <nd ref="1111968953"/>
    <nd ref="1111970590"/>
    <nd ref="1111969820"/>
    <nd ref="1111971133"/>
    <nd ref="1111971949"/>
    <nd ref="1111970782"/>
    <tag k="addr:city" v="Зеленоград"/>
    <tag k="addr:housenumber" v="1407 с1"/>
    <tag k="addr:street" v="14-й Микрорайон"/>
    <tag k="building" v="yes"/>
    <tag k="building:levels" v="1"/>
  </way>
  <way id="95974491" version="1" timestamp="2011-01-20T19:12:13Z" uid="115477" user="wowik" changeset="7033529">
    <nd ref="474971572"/>
    <nd ref="1111970020"/>
    <nd ref="656302409"/>
    <nd ref="1111970840"/>
    <nd ref="1111971195"/>
    <nd ref="1111970625"/>
    <nd ref="1111968758"/>
    <nd ref="1111969684"/>
    <nd ref="1111969725"/>
    <nd ref="1111970045"/>
    <nd ref="1111970231"/>
    <nd ref="1111970440"/>
    <nd ref="1111969294"/>
    <nd ref="656302410"/>
    <nd ref="1111971542"/>
    <nd ref="1111972499"/>
    <nd ref="656302411"/>
    <nd ref="656302412"/>
    <nd ref="656302401"/>
    <nd ref="656302402"/>
    <nd ref="656302403"/>
    <nd ref="1111968364"/>
    <nd ref="1111968796"/>
    <nd ref="1111972549"/>
    <nd ref="1111972037"/>
    <nd ref="474971572"/>
    <tag k="addr:city" v="Зеленоград"/>
    <tag k="addr:housenumber" v="1471"/>
    <tag k="addr:street" v="14-й Микрорайон"/>
    <tag k="building" v="yes"/>
    <tag k="is_in" v="Russia"/>
  </way>
  <way id="95974491" version="2" timestamp="2011-01-21T10:21:25Z" uid="115477" user="wowik" changeset="7038755">
    <nd ref="474971572"/>
    <nd ref="1111970020"/>
    <nd ref="656302409"/>
    <nd ref="1111970840"/>
    <nd ref="1111971195"/>
    <nd ref="1111970625"/>
    <nd ref="1111968758"/>
    <nd ref="1111969684"/>
    <nd ref="1111969725"/>
    <nd ref="1111970045"/>
    <nd ref="1111970231"/>
    <nd ref="1111970440"/>
    <nd ref="1111969294"/>
    <nd ref="656302410"/>
    <nd ref="1111971542"/>
    <nd ref="1111972499"/>
    <nd ref="656302411"/>
    <nd ref="656302412"/>
    <nd ref="656302401"/>
    <nd ref="656302402"/>
    <nd ref="656302403"/>
    <nd ref="1111968364"/>
    <nd ref="1111968796"/>
    <nd ref="1111972549"/>
    <nd ref="1111972037"/>
    <nd ref="474971572"/>
    <tag k="addr:city" v="Зеленоград"/>
    <tag k="addr:housenumber" v="1471"/>
    <tag k="addr:street" v="14-й Микрорайон"/>
    <tag k="building" v="yes"/>
    <tag k="building:use" v="residential"/>
    <tag k="is_in" v="Russia"/>
  </way>
  <way id="95974497" version="1" timestamp="2011-01-20T19:12:14Z" uid="115477" user="wowik" changeset="7033529">
    <nd ref="1111970201"/>
    <nd ref="1111968972"/>
    <nd ref="1111970597"/>
    <nd ref="1111969838"/>
    <nd ref="1111970201"/>
    <tag k="addr:city" v="Зеленоград"/>
    <tag k="addr:housenumber" v="4 с8"/>
    <tag k="addr:postcode" v="124617"/>
    <tag k="addr:street" v="Проезд N 623"/>
    <tag k="building" v="yes"/>
    <tag k="building:levels" v="1"/>
    <tag k="is_in" v="Russia"/>
  </way>
  <way id="95974497" version="2" timestamp="2011-02-07T11:07:30Z" uid="115477" user="wowik" changeset="7214763">
    <nd ref="1111970201"/>
    <nd ref="1111968972"/>
    <nd ref="1111970597"/>
    <nd ref="1111969838"/>
    <nd ref="1111970201"/>
    <tag k="addr:city" v="Зеленоград"/>
    <tag k="addr:housenumber" v="4 с8"/>
    <tag k="addr:postcode" v="124617"/>
    <tag k="addr:street" v="Новокрюковская улица"/>
    <tag k="building" v="yes"/>
    <tag k="building:levels" v="1"/>
    <tag k="is_in" v="Russia"/>
  </way>
  <way id="95974499" version="1" timestamp="2011-01-20T19:12:14Z" uid="115477" user="wowik" changeset="7033529">
    <nd ref="1111968309"/>
    <nd ref="1111970289"/>
    <nd ref="1111970677"/>
    <nd ref="1111970504"/>
    <nd ref="1111968309"/>
    <tag k="leisure" v="pitch"/>
  </way>
  <way id="95974506" version="1" timestamp="2011-01-20T19:12:14Z" uid="115477" user="wowik" changeset="7033529">
    <nd ref="1024098860"/>
    <nd ref="1024098861"/>
    <nd ref="1024098862"/>
    <nd ref="1026618320"/>
    <nd ref="1024098863"/>
    <nd ref="1024098864"/>
    <nd ref="1024098866"/>
    <nd ref="1024098867"/>
    <nd ref="1024098869"/>
    <nd ref="1026619673"/>
    <nd ref="1024098870"/>
    <nd ref="1024098871"/>
    <nd ref="1024098860"/>
    <tag k="foot" v="permissive"/>
    <tag k="highway" v="footway"/>
  </way>
  <way id="95974510" version="1" timestamp="2011-01-20T19:12:14Z" uid="115477" user="wowik" changeset="7033529">
    <nd ref="1111970634"/>
    <nd ref="1111968197"/>
    <nd ref="1111971200"/>
    <nd ref="1111969070"/>
    <nd ref="1111970634"/>
    <tag k="addr:city" v="Зеленоград"/>
    <tag k="addr:housenumber" v="4 с1"/>
    <tag k="addr:postcode" v="124617"/>
    <tag k="addr:street" v="Проезд N 623"/>
    <tag k="building" v="yes"/>
    <tag k="building:levels" v="1"/>
    <tag k="is_in" v="Russia"/>
  </way>
  <way id="95974510" version="2" timestamp="2011-02-07T11:07:29Z" uid="115477" user="wowik" changeset="7214763">
    <nd ref="1111970634"/>
    <nd ref="1111968197"/>
    <nd ref="1111971200"/>
    <nd ref="1111969070"/>
    <nd ref="1111970634"/>
    <tag k="addr:city" v="Зеленоград"/>
    <tag k="addr:housenumber" v="4 с1"/>
    <tag k="addr:postcode" v="124617"/>
    <tag k="addr:street" v="Новокрюковская улица"/>
    <tag k="building" v="yes"/>
    <tag k="building:levels" v="1"/>
    <tag k="is_in" v="Russia"/>
  </way>
  <way id="95974511" version="1" timestamp="2011-01-20T19:12:15Z" uid="115477" user="wowik" changeset="7033529">
    <nd ref="1111970614"/>
    <nd ref="1111969864"/>
    <nd ref="1111971174"/>
    <nd ref="1111970306"/>
    <nd ref="1111968160"/>
    <nd ref="1111971757"/>
    <nd ref="1111970614"/>
    <tag k="addr:city" v="Зеленоград"/>
    <tag k="addr:housenumber" v="1437 с1"/>
    <tag k="addr:street" v="14-й Микрорайон"/>
    <tag k="building" v="yes"/>
    <tag k="building:levels" v="1"/>
  </way>
  <way id="95974514" version="1" timestamp="2011-01-20T19:12:15Z" uid="115477" user="wowik" changeset="7033529">
    <nd ref="1111970992"/>
    <nd ref="1111970211"/>
    <nd ref="1111970027"/>
    <nd ref="1111970420"/>
    <nd ref="1111970992"/>
    <tag k="leisure" v="pitch"/>
  </way>
  <way id="95974515" version="1" timestamp="2011-01-20T19:12:15Z" uid="115477" user="wowik" changeset="7033529">
    <nd ref="1111971866"/>
    <nd ref="1111970649"/>
    <nd ref="1111968237"/>
    <nd ref="1111971247"/>
    <nd ref="1111971866"/>
    <tag k="addr:city" v="Зеленоград"/>
    <tag k="addr:country" v="RU"/>
    <tag k="addr:housenumber" v="8 с6"/>
    <tag k="addr:street" v="улица Александровка"/>
    <tag k="building" v="yes"/>
    <tag k="building:levels" v="1"/>
    <tag k="is_in" v="Russia"/>
  </way>
  <way id="95974517" version="1" timestamp="2011-01-20T19:12:16Z" uid="115477" user="wowik" changeset="7033529">
    <nd ref="1111968843"/>
    <nd ref="1111971869"/>
    <nd ref="1111968238"/>
    <nd ref="1111972430"/>
    <nd ref="1111968843"/>
    <tag k="leisure" v="pitch"/>
  </way>
  <way id="95974519" version="1" timestamp="2011-01-20T19:12:16Z" uid="115477" user="wowik" changeset="7033529">
    <nd ref="1111968571"/>
    <nd ref="1111971571"/>
    <nd ref="1111972531"/>
    <nd ref="1111968790"/>
    <nd ref="1111968571"/>
    <tag k="leisure" v="pitch"/>
  </way>
  <way id="95974521" version="1" timestamp="2011-01-20T19:12:16Z" uid="115477" user="wowik" changeset="7033529">
    <nd ref="1111970182"/>
    <nd ref="1111968569"/>
    <nd ref="1111972325"/>
    <nd ref="474971748"/>
    <nd ref="1111968386"/>
    <nd ref="1111968788"/>
    <nd ref="1111972528"/>
    <nd ref="1111971486"/>
    <nd ref="1111971956"/>
    <nd ref="1111968307"/>
    <nd ref="1111971150"/>
    <nd ref="1111968887"/>
    <nd ref="1111969798"/>
    <nd ref="1111970272"/>
    <nd ref="1111969915"/>
    <nd ref="1111970353"/>
    <nd ref="1111968629"/>
    <nd ref="474971980"/>
    <nd ref="1111970462"/>
    <nd ref="1111970158"/>
    <nd ref="1111970729"/>
    <nd ref="1111970857"/>
    <nd ref="1111971570"/>
    <nd ref="1111971191"/>
    <nd ref="1111971393"/>
    <nd ref="1111968584"/>
    <nd ref="1111972344"/>
    <nd ref="474971747"/>
    <nd ref="1111969706"/>
    <nd ref="1111970225"/>
    <nd ref="1111970621"/>
    <nd ref="1111970017"/>
    <nd ref="1111969083"/>
    <nd ref="1111969379"/>
    <nd ref="474971979"/>
    <nd ref="1111969142"/>
    <nd ref="1111968223"/>
    <nd ref="1111970486"/>
    <nd ref="1111971682"/>
    <nd ref="1111970953"/>
    <nd ref="1111970658"/>
    <nd ref="1111969983"/>
    <nd ref="1111970793"/>
    <nd ref="1111970386"/>
    <nd ref="1111970182"/>
    <tag k="addr:city" v="Зеленоград"/>
    <tag k="addr:housenumber" v="1462"/>
    <tag k="addr:street" v="14-й Микрорайон"/>
    <tag k="building" v="yes"/>
  </way>
  <way id="95974521" version="2" timestamp="2011-01-21T10:21:16Z" uid="115477" user="wowik" changeset="7038755">
    <nd ref="1111970182"/>
    <nd ref="1111968569"/>
    <nd ref="1111972325"/>
    <nd ref="474971748"/>
    <nd ref="1111968386"/>
    <nd ref="1111968788"/>
    <nd ref="1111972528"/>
    <nd ref="1111971486"/>
    <nd ref="1111971956"/>
    <nd ref="1111968307"/>
    <nd ref="1111971150"/>
    <nd ref="1111968887"/>
    <nd ref="1111969798"/>
    <nd ref="1111970272"/>
    <nd ref="1111969915"/>
    <nd ref="1111970353"/>
    <nd ref="1111968629"/>
    <nd ref="474971980"/>
    <nd ref="1111970462"/>
    <nd ref="1111970158"/>
    <nd ref="1111970729"/>
    <nd ref="1111970857"/>
    <nd ref="1111971570"/>
    <nd ref="1111971191"/>
    <nd ref="1111971393"/>
    <nd ref="1111968584"/>
    <nd ref="1111972344"/>
    <nd ref="474971747"/>
    <nd ref="1111969706"/>
    <nd ref="1111970225"/>
    <nd ref="1111970621"/>
    <nd ref="1111970017"/>
    <nd ref="1111969083"/>
    <nd ref="1111969379"/>
    <nd ref="474971979"/>
    <nd ref="1111969142"/>
    <nd ref="1111968223"/>
    <nd ref="1111970486"/>
    <nd ref="1111971682"/>
    <nd ref="1111970953"/>
    <nd ref="1111970658"/>
    <nd ref="1111969983"/>
    <nd ref="1111970793"/>
    <nd ref="1111970386"/>
    <nd ref="1111970182"/>
    <tag k="addr:city" v="Зеленоград"/>
    <tag k="addr:housenumber" v="1462"/>
    <tag k="addr:street" v="14-й Микрорайон"/>
    <tag k="building" v="yes"/>
    <tag k="building:use" v="residential"/>
  </way>
  <way id="95974525" version="1" timestamp="2011-01-20T19:12:17Z" uid="115477" user="wowik" changeset="7033529">
    <nd ref="1111970593"/>
    <nd ref="1111968139"/>
    <nd ref="1111972235"/>
    <nd ref="1111968522"/>
    <nd ref="1111970593"/>
    <tag k="building" v="yes"/>
  </way>
  <way id="95974526" version="1" timestamp="2011-01-20T19:12:17Z" uid="115477" user="wowik" changeset="7033529">
    <nd ref="1111970907"/>
    <nd ref="1111968626"/>
    <nd ref="1111968446"/>
    <nd ref="1111972134"/>
    <nd ref="1111971627"/>
    <nd ref="1111972579"/>
    <nd ref="1111969588"/>
    <nd ref="1111970907"/>
    <tag k="addr:city" v="Зеленоград"/>
    <tag k="addr:housenumber" v="8 с1"/>
    <tag k="addr:postcode" v="124617"/>
    <tag k="addr:street" v="Проезд N 623"/>
    <tag k="building" v="yes"/>
    <tag k="building:levels" v="1"/>
    <tag k="is_in" v="Russia"/>
  </way>
  <way id="95974526" version="2" timestamp="2011-02-07T11:07:32Z" uid="115477" user="wowik" changeset="7214763">
    <nd ref="1111970907"/>
    <nd ref="1111968626"/>
    <nd ref="1111968446"/>
    <nd ref="1111972134"/>
    <nd ref="1111971627"/>
    <nd ref="1111972579"/>
    <nd ref="1111969588"/>
    <nd ref="1111970907"/>
    <tag k="addr:city" v="Зеленоград"/>
    <tag k="addr:housenumber" v="8 с1"/>
    <tag k="addr:postcode" v="124617"/>
    <tag k="addr:street" v="Новокрюковская улица"/>
    <tag k="building" v="yes"/>
    <tag k="building:levels" v="1"/>
    <tag k="is_in" v="Russia"/>
  </way>
  <way id="95974528" version="1" timestamp="2011-01-20T19:12:18Z" uid="115477" user="wowik" changeset="7033529">
    <nd ref="1111970812"/>
    <nd ref="1111968500"/>
    <nd ref="1111970612"/>
    <nd ref="1111968157"/>
    <nd ref="1111970812"/>
    <tag k="addr:city" v="Зеленоград"/>
    <tag k="addr:street" v="14-й Микрорайон"/>
    <tag k="building" v="yes"/>
    <tag k="building:levels" v="1"/>
    <tag k="shop" v="kiosk"/>
  </way>
  <way id="95974529" version="1" timestamp="2011-01-20T19:12:18Z" uid="115477" user="wowik" changeset="7033529">
    <nd ref="1111970104"/>
    <nd ref="1111972026"/>
    <nd ref="1111968362"/>
    <nd ref="1111969281"/>
    <nd ref="1111970104"/>
    <tag k="leisure" v="pitch"/>
  </way>
  <way id="95974531" version="1" timestamp="2011-01-20T19:12:18Z" uid="115477" user="wowik" changeset="7033529">
    <nd ref="1111970073"/>
    <nd ref="1111968656"/>
    <nd ref="1111970468"/>
    <nd ref="1111968287"/>
    <nd ref="1111970073"/>
    <tag k="addr:city" v="Зеленоград"/>
    <tag k="addr:street" v="14-й Микрорайон"/>
    <tag k="building" v="yes"/>
    <tag k="building:levels" v="1"/>
    <tag k="shop" v="kiosk"/>
  </way>
  <way id="95974533" version="1" timestamp="2011-01-20T19:12:18Z" uid="115477" user="wowik" changeset="7033529">
    <nd ref="1111968518"/>
    <nd ref="1111970408"/>
    <nd ref="1111969466"/>
    <nd ref="1111970828"/>
    <nd ref="1111968518"/>
    <tag k="addr:city" v="Зеленоград"/>
    <tag k="building" v="yes"/>
    <tag k="building:levels" v="1"/>
    <tag k="shop" v="kiosk"/>
  </way>
  <way id="95974534" version="1" timestamp="2011-01-20T19:12:19Z" uid="115477" user="wowik" changeset="7033529">
    <nd ref="1111971089"/>
    <nd ref="1111968845"/>
    <nd ref="1111971874"/>
    <nd ref="1111969769"/>
    <nd ref="1111971089"/>
    <tag k="addr:city" v="Зеленоград"/>
    <tag k="building" v="yes"/>
    <tag k="is_in" v="Russia"/>
  </way>
  <way id="95974536" version="1" timestamp="2011-01-20T19:12:19Z" uid="115477" user="wowik" changeset="7033529">
    <nd ref="1111971464"/>
    <nd ref="1111969410"/>
    <nd ref="1111968942"/>
    <nd ref="1111969817"/>
    <nd ref="1111971464"/>
    <tag k="leisure" v="pitch"/>
  </way>
</osm>
