<?xml version='1.0' encoding='UTF-8'?>
<osm version="0.6" generator="libosmium/2.20.0">
  <way id="96051577" version="1" timestamp="2011-01-21T10:45:17Z" uid="115477" user="wowik" changeset="7038966">
    <nd ref="605272698"/>
    <nd ref="1112883001"/>
    <nd ref="605272699"/>
    <nd ref="1112883397"/>
    <nd ref="1112883273"/>
    <nd ref="1112883359"/>
    <nd ref="1112883495"/>
    <nd ref="1112883531"/>
    <nd ref="1112883448"/>
    <nd ref="1112883532"/>
    <nd ref="1112883054"/>
    <nd ref="1112883307"/>
    <nd ref="1112883499"/>
    <nd ref="1112883014"/>
    <nd ref="1112883013"/>
    <nd ref="1112883396"/>
    <nd ref="1112883099"/>
    <nd ref="1112883186"/>
    <nd ref="1112883493"/>
    <nd ref="605272689"/>
    <nd ref="1112883446"/>
    <nd ref="605272690"/>
    <nd ref="1112883530"/>
    <nd ref="605272692"/>
    <nd ref="1112883490"/>
    <nd ref="1112883395"/>
    <nd ref="605272691"/>
    <nd ref="1112883053"/>
    <nd ref="1112883136"/>
    <nd ref="605272695"/>
    <nd ref="1112883179"/>
    <nd ref="1112883095"/>
    <nd ref="1112883356"/>
    <nd ref="1112883263"/>
    <nd ref="605272697"/>
    <nd ref="1112883180"/>
    <nd ref="1112883224"/>
    <nd ref="1112883149"/>
    <nd ref="1112883220"/>
    <nd ref="1112883137"/>
    <nd ref="1112883309"/>
    <nd ref="1112883221"/>
    <nd ref="1112883357"/>
    <nd ref="1112883264"/>
    <nd ref="1112883145"/>
    <nd ref="1112883055"/>
    <nd ref="1112883447"/>
    <nd ref="605272698"/>
    <tag k="addr:city" v="Зеленоград"/>
    <tag k="addr:housenumber" v="1504"/>
    <tag k="addr:street" v="15-й Микрорайон"/>
    <tag k="building" v="yes"/>
    <tag k="building:use" v="residential"/>
    <tag k="is_in" v="Russia"/>
  </way>
  <way id="96051578" version="1" timestamp="2011-01-21T10:45:18Z" uid="115477" user="wowik" changeset="7038966">
    <nd ref="1112883488"/>
    <nd ref="1112883154"/>
    <nd ref="1112883051"/>
    <nd ref="1112883529"/>
    <nd ref="1112883444"/>
    <nd ref="1112883117"/>
    <nd ref="1112883488"/>
    <tag k="addr:city" v="Зеленоград"/>
    <tag k="addr:housenumber" v="1504 с1"/>
    <tag k="addr:street" v="15-й Микрорайон"/>
    <tag k="building" v="yes"/>
    <tag k="building:levels" v="1"/>
    <tag k="is_in" v="Russia"/>
    <tag k="shop" v="yes"/>
  </way>
  <way id="96051579" version="1" timestamp="2011-01-21T10:45:18Z" uid="115477" user="wowik" changeset="7038966">
    <nd ref="1112883439"/>
    <nd ref="1112883275"/>
    <nd ref="1112883177"/>
    <nd ref="1112883322"/>
    <nd ref="1112883439"/>
    <tag k="addr:city" v="Зеленоград"/>
    <tag k="addr:housenumber" v="1512 с2"/>
    <tag k="addr:street" v="15-й Микрорайон"/>
    <tag k="building" v="yes"/>
    <tag k="building:levels" v="1"/>
    <tag k="is_in" v="Russia"/>
    <tag k="shop" v="yes"/>
  </way>
  <way id="96051579" version="2" timestamp="2011-04-08T13:58:12Z" uid="115477" user="wowik" changeset="7804359">
    <nd ref="1112883439"/>
    <nd ref="1112883275"/>
    <nd ref="1112883177"/>
    <nd ref="1112883322"/>
    <nd ref="1112883439"/>
    <tag k="addr:city" v="Зеленоград"/>
    <tag k="addr:housenumber" v="1512 с2"/>
    <tag k="addr:street" v="15-й Микрорайон"/>
    <tag k="building" v="yes"/>
    <tag k="building:levels" v="1"/>
    <tag k="is_in" v="Russia"/>
    <tag k="name" v="24 часа"/>
    <tag k="shop" v="alcohol"/>
  </way>
  <way id="96051580" version="1" timestamp="2011-01-21T10:45:19Z" uid="115477" user="wowik" changeset="7038966">
    <nd ref="1112883047"/>
    <nd ref="1112883277"/>
    <nd ref="1112883232"/>
    <nd ref="1112883327"/>
    <nd ref="1112883047"/>
    <tag k="building" v="yes"/>
    <tag k="building:levels" v="1"/>
  </way>
  <way id="96051581" version="1" timestamp="2011-01-21T10:45:19Z" uid="115477" user="wowik" changeset="7038966">
    <nd ref="1112883258"/>
    <nd ref="1112883097"/>
    <nd ref="1112883003"/>
    <nd ref="1112883147"/>
    <nd ref="1112883258"/>
    <tag k="addr:city" v="Зеленоград"/>
    <tag k="addr:housenumber" v="1502 с1"/>
    <tag k="addr:street" v="15-й Микрорайон"/>
    <tag k="building" v="yes"/>
    <tag k="building:levels" v="1"/>
    <tag k="is_in" v="Russia"/>
  </way>
  <way id="96051639" version="4" timestamp="2011-04-20T07:24:16Z" uid="9581" user="Lobelt" changeset="7913486">
    <nd ref="1123676794"/>
    <nd ref="1123676793"/>
    <nd ref="1123676801"/>
    <nd ref="1144018074"/>
    <nd ref="1123676796"/>
    <nd ref="1112885854"/>
    <nd ref="1112885862"/>
    <nd ref="1112885856"/>
    <nd ref="1112885866"/>
    <nd ref="1112885869"/>
    <tag k="waterway" v="ditch"/>
  </way>
</osm>
