<?xml version='1.0' encoding='UTF-8'?>
<osm version="0.6" generator="libosmium/2.20.0">
  <way id="96164995" version="2" timestamp="2011-04-11T12:32:13Z" uid="7617" user="Franc" changeset="7832593">
    <nd ref="61094966"/>
    <nd ref="1240879357"/>
    <nd ref="138951497"/>
    <nd ref="136462779"/>
    <tag k="highway" v="tertiary"/>
    <tag k="maxspeed" v="50"/>
    <tag k="name" v="Lanhams Road"/>
  </way>
  <way id="96164996" version="2" timestamp="2011-04-11T12:32:15Z" uid="7617" user="Franc" changeset="7832593">
    <nd ref="1114424203"/>
    <nd ref="61094944"/>
    <nd ref="138962086"/>
    <nd ref="1114424223"/>
    <nd ref="1240879427"/>
    <nd ref="61094945"/>
    <nd ref="61094946"/>
    <nd ref="136472400"/>
    <tag k="highway" v="tertiary"/>
    <tag k="lcn" v="yes"/>
    <tag k="maxspeed" v="50"/>
    <tag k="name" v="Oakes Road"/>
    <tag k="source" v="Bing"/>
  </way>
  <way id="96164997" version="2" timestamp="2011-02-12T17:04:27Z" uid="7617" user="Franc" changeset="7266873">
    <nd ref="61094938"/>
    <nd ref="61094939"/>
    <nd ref="1114424188"/>
    <tag k="cycleway" v="lane"/>
    <tag k="highway" v="tertiary"/>
    <tag k="lcn" v="yes"/>
    <tag k="maxspeed" v="50"/>
    <tag k="name" v="Oakes Road"/>
    <tag k="source" v="Bing"/>
  </way>
  <way id="96164999" version="2" timestamp="2011-04-11T12:31:59Z" uid="7617" user="Franc" changeset="7832593">
    <nd ref="136472400"/>
    <nd ref="1240879854"/>
    <nd ref="136462779"/>
    <tag k="highway" v="tertiary"/>
    <tag k="maxspeed" v="50"/>
    <tag k="name" v="Oakes Road"/>
    <tag k="source" v="Bing"/>
  </way>
</osm>
