<?xml version='1.0' encoding='UTF-8'?>
<osm version="0.6" generator="libosmium/2.20.0">
  <way id="96584634" version="1" timestamp="2011-01-24T14:51:05Z" uid="20587" user="balrog-kun" changeset="7073235">
    <nd ref="31158809"/>
    <nd ref="1118741660"/>
    <nd ref="1118741721"/>
    <nd ref="1118741785"/>
    <nd ref="1118741761"/>
    <tag k="highway" v="living_street"/>
  </way>
  <way id="96584636" version="1" timestamp="2011-01-24T14:51:05Z" uid="20587" user="balrog-kun" changeset="7073235">
    <nd ref="1118741700"/>
    <nd ref="1118741811"/>
    <nd ref="1118741783"/>
    <nd ref="1118741760"/>
    <nd ref="1118741707"/>
    <tag k="highway" v="secondary_link"/>
    <tag k="oneway" v="yes"/>
  </way>
  <way id="96584637" version="1" timestamp="2011-01-24T14:51:05Z" uid="20587" user="balrog-kun" changeset="7073235">
    <nd ref="1118741778"/>
    <nd ref="1118741666"/>
    <nd ref="1118741792"/>
    <nd ref="1118741765"/>
    <nd ref="1118741744"/>
    <nd ref="1118741686"/>
    <nd ref="1118741803"/>
    <nd ref="1118741781"/>
    <nd ref="1118741759"/>
    <nd ref="1118741705"/>
    <nd ref="1118741663"/>
    <nd ref="1118741788"/>
    <nd ref="1118741763"/>
    <nd ref="1118741728"/>
    <nd ref="1118741682"/>
    <nd ref="1118741801"/>
    <nd ref="1118741758"/>
    <nd ref="1118741778"/>
    <tag k="addr:housenumber" v="58"/>
    <tag k="addr:street" v="Ogrodowa"/>
    <tag k="building" v="office"/>
  </way>
  <way id="96584639" version="1" timestamp="2011-01-24T14:51:05Z" uid="20587" user="balrog-kun" changeset="7073235">
    <nd ref="1118741721"/>
    <nd ref="1118741668"/>
    <tag k="highway" v="living_street"/>
  </way>
  <way id="96584640" version="1" timestamp="2011-01-24T14:51:05Z" uid="20587" user="balrog-kun" changeset="7073235">
    <nd ref="1118741782"/>
    <nd ref="1118741675"/>
    <nd ref="1118741796"/>
    <nd ref="1118741775"/>
    <nd ref="1118741746"/>
    <nd ref="1118741701"/>
    <nd ref="1118741815"/>
    <nd ref="1118741780"/>
    <nd ref="1118741750"/>
    <nd ref="1118741704"/>
    <nd ref="1118741661"/>
    <nd ref="1118741786"/>
    <nd ref="1118741762"/>
    <nd ref="1118741723"/>
    <nd ref="1118741782"/>
    <tag k="leisure" v="common"/>
  </way>
  <way id="96584643" version="1" timestamp="2011-01-24T14:51:06Z" uid="20587" user="balrog-kun" changeset="7073235">
    <nd ref="1118741813"/>
    <nd ref="1118741726"/>
    <nd ref="1118741679"/>
    <nd ref="1118741799"/>
    <nd ref="1118741777"/>
    <nd ref="1118741748"/>
    <nd ref="1118741703"/>
    <nd ref="1118741813"/>
    <tag k="leisure" v="common"/>
  </way>
  <way id="96584645" version="1" timestamp="2011-01-24T14:51:06Z" uid="20587" user="balrog-kun" changeset="7073235">
    <nd ref="1118741797"/>
    <nd ref="1118741706"/>
    <nd ref="1118741665"/>
    <nd ref="1118741790"/>
    <nd ref="1118741764"/>
    <nd ref="1118741729"/>
    <nd ref="1118741684"/>
    <nd ref="1118741802"/>
    <nd ref="1118741797"/>
    <tag k="landuse" v="grass"/>
  </way>
  <way id="96584647" version="1" timestamp="2011-01-24T14:51:06Z" uid="20587" user="balrog-kun" changeset="7073235">
    <nd ref="32913108"/>
    <nd ref="1118741730"/>
    <nd ref="1118741727"/>
    <nd ref="1118741680"/>
    <nd ref="1118741800"/>
    <nd ref="1118741779"/>
    <nd ref="1118741749"/>
    <tag k="highway" v="service"/>
    <tag k="oneway" v="yes"/>
  </way>
  <way id="96584836" version="1" timestamp="2011-01-24T14:54:48Z" uid="20587" user="balrog-kun" changeset="7073235">
    <nd ref="32912944"/>
    <nd ref="611918527"/>
    <nd ref="994187890"/>
    <nd ref="611918532"/>
    <nd ref="32598967"/>
    <tag k="highway" v="secondary"/>
    <tag k="lanes" v="2"/>
    <tag k="name" v="Okopowa"/>
    <tag k="oneway" v="yes"/>
    <tag k="ref" v="634"/>
    <tag k="source" v="image"/>
    <tag k="wikipedia" v="pl:Ulica Żytnia w Warszawie"/>
  </way>
  <way id="96584838" version="1" timestamp="2011-01-24T14:54:48Z" uid="20587" user="balrog-kun" changeset="7073235">
    <nd ref="1118730363"/>
    <nd ref="1118730054"/>
    <nd ref="32912938"/>
    <nd ref="1118730400"/>
    <nd ref="411330729"/>
    <nd ref="411330730"/>
    <nd ref="34815711"/>
    <nd ref="411330728"/>
    <nd ref="411330727"/>
    <nd ref="411102256"/>
    <nd ref="205420004"/>
    <tag k="highway" v="secondary"/>
    <tag k="maxspeed" v="50"/>
    <tag k="name" v="Aleja Solidarności"/>
    <tag k="oneway" v="yes"/>
    <tag k="ref" v="629"/>
    <tag k="wikipedia" v="pl:Aleja &quot;Solidarności&quot; w Warszawie"/>
  </way>
  <way id="96584844" version="1" timestamp="2011-01-24T14:54:50Z" uid="20587" user="balrog-kun" changeset="7073235">
    <nd ref="1118730216"/>
    <nd ref="1118730145"/>
    <nd ref="190467928"/>
    <nd ref="32598963"/>
    <nd ref="1118730321"/>
    <nd ref="1118730422"/>
    <nd ref="32598961"/>
    <nd ref="1118730136"/>
    <nd ref="1118730336"/>
    <nd ref="32598959"/>
    <nd ref="1118730296"/>
    <nd ref="86970182"/>
    <nd ref="1118730388"/>
    <nd ref="32598957"/>
    <nd ref="32598955"/>
    <nd ref="303205568"/>
    <nd ref="303205567"/>
    <nd ref="303205582"/>
    <nd ref="303205566"/>
    <tag k="highway" v="secondary"/>
    <tag k="lanes" v="2"/>
    <tag k="name" v="Towarowa"/>
    <tag k="oneway" v="yes"/>
    <tag k="ref" v="634"/>
  </way>
  <way id="96584848" version="1" timestamp="2011-01-24T14:54:51Z" uid="20587" user="balrog-kun" changeset="7073235">
    <nd ref="1118741700"/>
    <nd ref="1118741749"/>
    <nd ref="32913106"/>
    <nd ref="32913105"/>
    <nd ref="613500880"/>
    <nd ref="90337055"/>
    <nd ref="613500881"/>
    <nd ref="1102696493"/>
    <nd ref="1102696303"/>
    <nd ref="1102696697"/>
    <nd ref="613500898"/>
    <nd ref="280796970"/>
    <nd ref="31158788"/>
    <nd ref="254518071"/>
    <nd ref="31158787"/>
    <nd ref="613500911"/>
    <nd ref="32599712"/>
    <nd ref="32599710"/>
    <nd ref="32597785"/>
    <nd ref="330403388"/>
    <nd ref="31158727"/>
    <nd ref="34520362"/>
    <nd ref="254518066"/>
    <nd ref="32597787"/>
    <nd ref="32597790"/>
    <nd ref="255152545"/>
    <nd ref="1118690394"/>
    <nd ref="212894117"/>
    <nd ref="1118690303"/>
    <nd ref="32610172"/>
    <nd ref="251851557"/>
    <nd ref="1102696548"/>
    <nd ref="1102696477"/>
    <nd ref="1102696615"/>
    <nd ref="32610175"/>
    <nd ref="1102696312"/>
    <nd ref="280796961"/>
    <nd ref="251851490"/>
    <nd ref="32610173"/>
    <tag k="agricultural" v="no"/>
    <tag k="highway" v="secondary"/>
    <tag k="loc_name" v="Trasa W-Z"/>
    <tag k="name" v="Aleja Solidarności"/>
    <tag k="oneway" v="-1"/>
    <tag k="wikipedia" v="pl:Aleja &quot;Solidarności&quot; w Warszawie"/>
    <tag k="wikipedia:pl" v="Aleja &quot;Solidarności&quot; w Warszawie"/>
  </way>
  <way id="96584850" version="1" timestamp="2011-01-24T14:54:53Z" uid="20587" user="balrog-kun" changeset="7073235">
    <nd ref="32912951"/>
    <nd ref="1118730185"/>
    <nd ref="1118741707"/>
    <tag k="highway" v="secondary"/>
    <tag k="lanes" v="2"/>
    <tag k="name" v="Okopowa"/>
    <tag k="oneway" v="yes"/>
    <tag k="ref" v="634"/>
    <tag k="source" v="image"/>
    <tag k="wikipedia" v="pl:Ulica Żytnia w Warszawie"/>
  </way>
  <way id="96584852" version="1" timestamp="2011-01-24T14:54:53Z" uid="20587" user="balrog-kun" changeset="7073235">
    <nd ref="1118730295"/>
    <nd ref="1118730154"/>
    <nd ref="32598967"/>
    <tag k="highway" v="secondary"/>
    <tag k="name" v="Aleja Solidarności"/>
    <tag k="oneway" v="yes"/>
    <tag k="ref" v="629"/>
    <tag k="wikipedia" v="pl:Aleja &quot;Solidarności&quot; w Warszawie"/>
  </way>
  <way id="96584856" version="1" timestamp="2011-01-24T14:54:54Z" uid="20587" user="balrog-kun" changeset="7073235">
    <nd ref="1118741707"/>
    <nd ref="1118730425"/>
    <nd ref="31158807"/>
    <nd ref="1118730248"/>
    <nd ref="1118730119"/>
    <nd ref="99408492"/>
    <nd ref="428246873"/>
    <nd ref="253963586"/>
    <nd ref="32909568"/>
    <nd ref="190476530"/>
    <nd ref="32909724"/>
    <nd ref="88085392"/>
    <nd ref="32909725"/>
    <nd ref="278836048"/>
    <nd ref="1069822818"/>
    <nd ref="88085396"/>
    <nd ref="1069823324"/>
    <nd ref="32909726"/>
    <nd ref="1069822923"/>
    <nd ref="278836054"/>
    <tag k="highway" v="secondary"/>
    <tag k="lanes" v="2"/>
    <tag k="name" v="Okopowa"/>
    <tag k="oneway" v="yes"/>
    <tag k="ref" v="634"/>
    <tag k="source" v="image"/>
    <tag k="wikipedia" v="pl:Ulica Żytnia w Warszawie"/>
  </way>
  <way id="96584858" version="1" timestamp="2011-01-24T14:54:56Z" uid="20587" user="balrog-kun" changeset="7073235">
    <nd ref="739503181"/>
    <nd ref="1118730355"/>
    <nd ref="207628344"/>
    <tag k="highway" v="residential"/>
    <tag k="maxspeed" v="30"/>
    <tag k="name" v="Ogrodowa"/>
    <tag k="noexit" v="yes"/>
    <tag k="source" v="survey"/>
  </way>
  <way id="96584859" version="1" timestamp="2011-01-24T14:54:56Z" uid="20587" user="balrog-kun" changeset="7073235">
    <nd ref="1118730317"/>
    <nd ref="1118730404"/>
    <nd ref="32912944"/>
    <tag k="highway" v="secondary"/>
    <tag k="lanes" v="2"/>
    <tag k="name" v="Okopowa"/>
    <tag k="oneway" v="yes"/>
    <tag k="ref" v="634"/>
    <tag k="source" v="image"/>
    <tag k="wikipedia" v="pl:Ulica Żytnia w Warszawie"/>
  </way>
</osm>
