<?xml version='1.0' encoding='UTF-8'?>
<osm version="0.6" generator="libosmium/2.20.0">
  <way id="9670102" version="9" timestamp="2010-02-14T17:17:20Z" uid="74617" user="JohnSmith" changeset="3875836">
    <nd ref="200803126"/>
    <nd ref="200803611"/>
    <nd ref="26336576"/>
    <tag k="highway" v="unclassified"/>
    <tag k="maxspeed" v="50"/>
    <tag k="name" v="Longland Street"/>
    <tag k="oneway" v="yes"/>
  </way>
  <way id="9670113" version="3" timestamp="2010-02-14T17:17:15Z" uid="74617" user="JohnSmith" changeset="3875836">
    <nd ref="200638146"/>
    <nd ref="200638151"/>
    <nd ref="200638152"/>
    <nd ref="200638153"/>
    <nd ref="26336583"/>
    <nd ref="26336584"/>
    <nd ref="200638155"/>
    <nd ref="26336585"/>
    <tag k="highway" v="residential"/>
    <tag k="maxspeed" v="50"/>
    <tag k="name" v="Wyandra Street"/>
  </way>
  <way id="9670118" version="8" timestamp="2010-02-14T17:17:15Z" uid="74617" user="JohnSmith" changeset="3875836">
    <nd ref="26336585"/>
    <nd ref="200640747"/>
    <nd ref="26336586"/>
    <nd ref="200663489"/>
    <tag k="highway" v="unclassified"/>
    <tag k="maxspeed" v="50"/>
    <tag k="name" v="Skyring Terrace"/>
  </way>
  <way id="9670914" version="7" timestamp="2010-02-14T17:16:27Z" uid="74617" user="JohnSmith" changeset="3875836">
    <nd ref="75900427"/>
    <nd ref="255792533"/>
    <nd ref="255793149"/>
    <nd ref="255793150"/>
    <nd ref="26335100"/>
    <nd ref="75900433"/>
    <tag k="highway" v="primary"/>
    <tag k="name" v="Brunswick Street"/>
    <tag k="oneway" v="yes"/>
    <tag k="ref" v="S15"/>
  </way>
  <way id="9670914" version="8" timestamp="2010-03-20T16:39:32Z" uid="74617" user="JohnSmith" changeset="4181787">
    <nd ref="75900427"/>
    <nd ref="255792533"/>
    <nd ref="255793149"/>
    <nd ref="255793150"/>
    <nd ref="26335100"/>
    <nd ref="75900433"/>
    <tag k="highway" v="primary"/>
    <tag k="name" v="Brunswick Street"/>
    <tag k="oneway" v="yes"/>
  </way>
  <way id="9670915" version="5" timestamp="2010-02-14T17:13:28Z" uid="74617" user="JohnSmith" changeset="3875836">
    <nd ref="75900433"/>
    <nd ref="26334604"/>
    <tag k="highway" v="primary"/>
    <tag k="name" v="Brunswick Street"/>
    <tag k="ref" v="S15"/>
  </way>
  <way id="9670915" version="6" timestamp="2010-03-20T16:39:28Z" uid="74617" user="JohnSmith" changeset="4181787">
    <nd ref="75900433"/>
    <nd ref="26334604"/>
    <tag k="highway" v="primary"/>
    <tag k="name" v="Brunswick Street"/>
  </way>
</osm>
