<?xml version='1.0' encoding='UTF-8'?>
<osm version="0.6" generator="libosmium/2.20.0">
  <way id="96725548" version="1" timestamp="2011-01-25T18:31:33Z" uid="115477" user="wowik" changeset="7086323">
    <nd ref="1120141015"/>
    <nd ref="1120141103"/>
    <nd ref="1120141039"/>
    <nd ref="1120141055"/>
    <nd ref="1120141015"/>
    <tag k="addr:city" v="Зеленоград"/>
    <tag k="addr:housenumber" v="317А с3?"/>
    <tag k="addr:postcode" v="124482"/>
    <tag k="addr:street" v="3-й Микрорайон"/>
    <tag k="building" v="yes"/>
    <tag k="building:levels" v="1"/>
    <tag k="is_in" v="Russia"/>
  </way>
  <way id="96725552" version="1" timestamp="2011-01-25T18:31:33Z" uid="115477" user="wowik" changeset="7086323">
    <nd ref="1120141058"/>
    <nd ref="620531988"/>
    <nd ref="1120141039"/>
    <tag k="barrier" v="wall"/>
  </way>
  <way id="96725555" version="1" timestamp="2011-01-25T18:31:33Z" uid="115477" user="wowik" changeset="7086323">
    <nd ref="428589402"/>
    <nd ref="1120141058"/>
    <nd ref="1120141044"/>
    <nd ref="1120141009"/>
    <nd ref="1120141061"/>
    <nd ref="428589408"/>
    <nd ref="428589402"/>
    <tag k="addr:city" v="Зеленоград"/>
    <tag k="addr:housenumber" v="317А с2"/>
    <tag k="addr:postcode" v="124482"/>
    <tag k="addr:street" v="3-й Микрорайон"/>
    <tag k="building" v="yes"/>
    <tag k="building:levels" v="1"/>
    <tag k="is_in" v="Russia"/>
  </way>
  <way id="96725558" version="1" timestamp="2011-01-25T18:31:33Z" uid="115477" user="wowik" changeset="7086323">
    <nd ref="428589406"/>
    <nd ref="1120141015"/>
    <tag k="barrier" v="wall"/>
  </way>
  <way id="96725559" version="1" timestamp="2011-01-25T18:31:33Z" uid="115477" user="wowik" changeset="7086323">
    <nd ref="1120141100"/>
    <nd ref="1120141050"/>
    <nd ref="982632170"/>
    <nd ref="1120141041"/>
    <nd ref="1120141046"/>
    <nd ref="1120141095"/>
    <nd ref="1120141013"/>
    <nd ref="1120141052"/>
    <nd ref="1120141100"/>
    <tag k="building" v="yes"/>
    <tag k="building:levels" v="1"/>
  </way>
  <way id="96725560" version="1" timestamp="2011-01-25T18:31:34Z" uid="115477" user="wowik" changeset="7086323">
    <nd ref="1120141054"/>
    <nd ref="982632280"/>
    <nd ref="982632216"/>
    <nd ref="1120141057"/>
    <nd ref="1120141054"/>
    <tag k="building" v="yes"/>
    <tag k="building:levels" v="1"/>
  </way>
  <way id="96725562" version="1" timestamp="2011-01-25T18:31:34Z" uid="115477" user="wowik" changeset="7086323">
    <nd ref="1120141105"/>
    <nd ref="1120141053"/>
    <nd ref="982632454"/>
    <nd ref="982632440"/>
    <nd ref="1120141105"/>
    <tag k="building" v="yes"/>
    <tag k="building:levels" v="1"/>
  </way>
  <way id="96725563" version="1" timestamp="2011-01-25T18:31:34Z" uid="115477" user="wowik" changeset="7086323">
    <nd ref="1120141061"/>
    <nd ref="428589404"/>
    <tag k="barrier" v="wall"/>
  </way>
</osm>
