<?xml version='1.0' encoding='UTF-8'?>
<osm version="0.6" generator="libosmium/2.20.0">
  <way id="9676189" version="3" timestamp="2007-11-04T20:07:24Z" uid="8328" user="benpre" changeset="405847">
    <nd ref="75995123"/>
    <nd ref="75996289"/>
    <nd ref="75992841"/>
    <tag k="created_by" v="Potlatch alpha"/>
    <tag k="highway" v="residential"/>
    <tag k="name" v="Álfabakki"/>
  </way>
  <way id="9676861" version="2" timestamp="2007-12-25T22:35:20Z" uid="1066" user="pavel" changeset="421816">
    <nd ref="32667430"/>
    <nd ref="75735033"/>
    <nd ref="7908718"/>
    <tag k="created_by" v="JOSM"/>
    <tag k="highway" v="residential"/>
  </way>
  <way id="9676863" version="2" timestamp="2007-12-25T22:35:17Z" uid="1066" user="pavel" changeset="421816">
    <nd ref="30233399"/>
    <nd ref="6935836"/>
    <nd ref="76007288"/>
    <tag k="created_by" v="JOSM"/>
    <tag k="highway" v="residential"/>
  </way>
  <way id="9676863" version="3" timestamp="2008-09-05T10:54:13Z" uid="1066" user="pavel" changeset="539695">
    <nd ref="30233399"/>
    <nd ref="6935836"/>
    <nd ref="76007288"/>
    <tag k="created_by" v="JOSM"/>
    <tag k="highway" v="residential"/>
    <tag k="name" v="Lukavecká"/>
    <tag k="name:source" v="nameit/uir-adr"/>
  </way>
  <way id="9676873" version="2" timestamp="2007-12-25T22:35:40Z" uid="1066" user="pavel" changeset="421816">
    <nd ref="30233404"/>
    <nd ref="76007209"/>
    <tag k="created_by" v="JOSM"/>
    <tag k="highway" v="residential"/>
  </way>
  <way id="9676873" version="4" timestamp="2008-09-05T10:55:13Z" uid="1066" user="pavel" changeset="539695">
    <nd ref="281192975"/>
    <nd ref="76007209"/>
    <tag k="created_by" v="JOSM"/>
    <tag k="highway" v="residential"/>
    <tag k="name" v="Otovická"/>
    <tag k="name:source" v="nameit/uir-adr"/>
  </way>
  <way id="9676874" version="2" timestamp="2007-12-25T22:35:25Z" uid="1066" user="pavel" changeset="421816">
    <nd ref="76007209"/>
    <nd ref="76007213"/>
    <tag k="created_by" v="JOSM"/>
    <tag k="highway" v="residential"/>
  </way>
  <way id="9676874" version="3" timestamp="2008-09-05T10:54:32Z" uid="1066" user="pavel" changeset="539695">
    <nd ref="76007209"/>
    <nd ref="76007213"/>
    <tag k="created_by" v="JOSM"/>
    <tag k="highway" v="residential"/>
    <tag k="name" v="Dobšická"/>
    <tag k="name:source" v="nameit/uir-adr"/>
  </way>
  <way id="9676876" version="3" timestamp="2007-12-25T22:34:13Z" uid="1066" user="pavel" changeset="421816">
    <nd ref="76007213"/>
    <nd ref="76007216"/>
    <nd ref="76012844"/>
    <nd ref="76007218"/>
    <nd ref="76007275"/>
    <nd ref="76007278"/>
    <tag k="created_by" v="JOSM"/>
    <tag k="highway" v="residential"/>
  </way>
  <way id="9676876" version="4" timestamp="2008-09-05T10:53:17Z" uid="1066" user="pavel" changeset="539695">
    <nd ref="76007213"/>
    <nd ref="76007216"/>
    <nd ref="76012844"/>
    <nd ref="76007218"/>
    <nd ref="76007275"/>
    <nd ref="76007278"/>
    <tag k="created_by" v="JOSM"/>
    <tag k="highway" v="residential"/>
    <tag k="name" v="Dobšická"/>
    <tag k="name:source" v="nameit/uir-adr"/>
  </way>
  <way id="9676877" version="3" timestamp="2007-12-25T22:35:37Z" uid="1066" user="pavel" changeset="421816">
    <nd ref="7908697"/>
    <nd ref="76012876"/>
    <nd ref="76012872"/>
    <nd ref="75734848"/>
    <nd ref="75734874"/>
    <nd ref="30233366"/>
    <tag k="created_by" v="JOSM"/>
    <tag k="highway" v="residential"/>
  </way>
  <way id="9676878" version="3" timestamp="2007-12-25T22:35:26Z" uid="1066" user="pavel" changeset="421816">
    <nd ref="30233367"/>
    <nd ref="76012847"/>
    <nd ref="76007289"/>
    <tag k="created_by" v="JOSM"/>
    <tag k="highway" v="residential"/>
  </way>
  <way id="9676878" version="4" timestamp="2008-09-05T10:54:34Z" uid="1066" user="pavel" changeset="539695">
    <nd ref="30233367"/>
    <nd ref="76012847"/>
    <nd ref="76007289"/>
    <tag k="created_by" v="JOSM"/>
    <tag k="highway" v="residential"/>
    <tag k="name" v="Komárovská"/>
    <tag k="name:source" v="nameit/uir-adr"/>
  </way>
  <way id="9676879" version="2" timestamp="2007-12-25T22:35:08Z" uid="1066" user="pavel" changeset="421816">
    <nd ref="76007275"/>
    <nd ref="75734840"/>
    <tag k="created_by" v="JOSM"/>
    <tag k="highway" v="residential"/>
  </way>
  <way id="9676879" version="3" timestamp="2008-09-05T10:53:44Z" uid="1066" user="pavel" changeset="539695">
    <nd ref="76007275"/>
    <nd ref="75734840"/>
    <tag k="created_by" v="JOSM"/>
    <tag k="highway" v="residential"/>
    <tag k="name" v="Běchorská"/>
    <tag k="name:source" v="nameit/uir-adr"/>
  </way>
</osm>
