<?xml version='1.0' encoding='UTF-8'?>
<osm version="0.6" generator="libosmium/2.20.0">
  <way id="96856045" version="1" timestamp="2011-01-26T20:11:15Z" uid="115477" user="wowik" changeset="7097374">
    <nd ref="1122329351"/>
    <nd ref="1122329379"/>
    <nd ref="1122329361"/>
    <nd ref="1122329385"/>
    <nd ref="1122329351"/>
    <tag k="addr:city" v="Зеленоград"/>
    <tag k="addr:housenumber" v="1 с3"/>
    <tag k="addr:street" v="Проезд N 4921"/>
    <tag k="building" v="yes"/>
    <tag k="is_in" v="Russia"/>
  </way>
  <way id="96856045" version="2" timestamp="2011-01-27T12:56:33Z" uid="115477" user="wowik" changeset="7103328">
    <nd ref="1122329351"/>
    <nd ref="1122329379"/>
    <nd ref="1122329361"/>
    <nd ref="1122329385"/>
    <nd ref="1122329351"/>
    <tag k="addr:city" v="Зеленоград"/>
    <tag k="addr:housenumber" v="1 с3"/>
    <tag k="addr:street" v="Проезд N 4921"/>
    <tag k="building" v="yes"/>
    <tag k="building:levels" v="1"/>
    <tag k="is_in" v="Russia"/>
  </way>
  <way id="96856046" version="1" timestamp="2011-01-26T20:11:15Z" uid="115477" user="wowik" changeset="7097374">
    <nd ref="1122329354"/>
    <nd ref="1122329368"/>
    <nd ref="1122329347"/>
    <nd ref="1122329376"/>
    <nd ref="1122329354"/>
    <tag k="addr:city" v="Зеленоград"/>
    <tag k="addr:housenumber" v="1 с1"/>
    <tag k="addr:street" v="Проезд N 4921"/>
    <tag k="building" v="yes"/>
    <tag k="is_in" v="Russia"/>
  </way>
  <way id="96856047" version="1" timestamp="2011-01-26T20:11:15Z" uid="115477" user="wowik" changeset="7097374">
    <nd ref="1122329367"/>
    <nd ref="1122329344"/>
    <nd ref="1122329365"/>
    <nd ref="1122329388"/>
    <nd ref="1122329367"/>
    <tag k="addr:city" v="Зеленоград"/>
    <tag k="addr:housenumber" v="2 с2"/>
    <tag k="addr:street" v="Проезд N 4921"/>
    <tag k="building" v="yes"/>
    <tag k="is_in" v="Russia"/>
  </way>
  <way id="96856048" version="1" timestamp="2011-01-26T20:11:15Z" uid="115477" user="wowik" changeset="7097374">
    <nd ref="1122329363"/>
    <nd ref="1122329380"/>
    <nd ref="1122329360"/>
    <nd ref="1122329345"/>
    <nd ref="1122329386"/>
    <nd ref="1122329352"/>
    <nd ref="1122329362"/>
    <nd ref="1122329387"/>
    <nd ref="1122329377"/>
    <nd ref="1122329382"/>
    <nd ref="1122329371"/>
    <nd ref="1122329349"/>
    <nd ref="1122329363"/>
    <tag k="addr:city" v="Зеленоград"/>
    <tag k="addr:housenumber" v="2 с1"/>
    <tag k="addr:street" v="Проезд N 4921"/>
    <tag k="building" v="yes"/>
    <tag k="is_in" v="Russia"/>
  </way>
  <way id="96856049" version="1" timestamp="2011-01-26T20:11:16Z" uid="115477" user="wowik" changeset="7097374">
    <nd ref="910694786"/>
    <nd ref="1122329372"/>
    <nd ref="1122329366"/>
    <nd ref="910694782"/>
    <nd ref="910694786"/>
    <tag k="addr:city" v="Зеленоград"/>
    <tag k="addr:housenumber" v="3 с1"/>
    <tag k="addr:street" v="Проезд N 4807"/>
    <tag k="building" v="yes"/>
  </way>
  <way id="96856049" version="2" timestamp="2011-01-27T12:56:34Z" uid="115477" user="wowik" changeset="7103328">
    <nd ref="910694786"/>
    <nd ref="1122329372"/>
    <nd ref="1122329366"/>
    <nd ref="910694782"/>
    <nd ref="910694786"/>
    <tag k="addr:city" v="Зеленоград"/>
    <tag k="addr:housenumber" v="3 с1"/>
    <tag k="addr:street" v="Проезд N 4807"/>
    <tag k="building" v="yes"/>
    <tag k="building:levels" v="1"/>
  </way>
  <way id="96856091" version="1" timestamp="2011-01-26T20:11:54Z" uid="164966" user="linuss1" changeset="7097388">
    <nd ref="1122330358"/>
    <nd ref="1122330361"/>
    <nd ref="1122330363"/>
    <tag k="highway" v="residential"/>
  </way>
  <way id="96856092" version="1" timestamp="2011-01-26T20:11:54Z" uid="164966" user="linuss1" changeset="7097388">
    <nd ref="1122330354"/>
    <nd ref="1122330358"/>
    <nd ref="1122330356"/>
    <tag k="highway" v="residential"/>
    <tag k="source" v="bing"/>
  </way>
</osm>
