<?xml version='1.0' encoding='UTF-8'?>
<osm version="0.6" generator="libosmium/2.20.0">
  <way id="96853073" version="1" timestamp="2011-01-26T19:45:05Z" uid="115477" user="wowik" changeset="7097032">
    <nd ref="1122291506"/>
    <nd ref="1122292932"/>
    <nd ref="1122292723"/>
    <nd ref="1122293249"/>
    <nd ref="1122291506"/>
    <tag k="addr:city" v="Зеленоград"/>
    <tag k="addr:country" v="RU"/>
    <tag k="addr:housenumber" v="6 с19"/>
    <tag k="addr:street" v="Сосновая аллея"/>
    <tag k="building" v="yes"/>
  </way>
  <way id="96853073" version="2" timestamp="2011-01-27T12:14:00Z" uid="115477" user="wowik" changeset="7102995">
    <nd ref="1122291506"/>
    <nd ref="1122292932"/>
    <nd ref="1122292723"/>
    <nd ref="1122293249"/>
    <nd ref="1122291506"/>
    <tag k="addr:city" v="Зеленоград"/>
    <tag k="addr:country" v="RU"/>
    <tag k="addr:housenumber" v="6 с19"/>
    <tag k="addr:street" v="Сосновая аллея"/>
    <tag k="building" v="yes"/>
    <tag k="building:levels" v="1"/>
  </way>
  <way id="96853076" version="1" timestamp="2011-01-26T19:45:06Z" uid="115477" user="wowik" changeset="7097032">
    <nd ref="1122292151"/>
    <nd ref="1122291167"/>
    <nd ref="1122291544"/>
    <nd ref="1122291338"/>
    <nd ref="1122292151"/>
    <tag k="building" v="yes"/>
  </way>
  <way id="96853076" version="2" timestamp="2011-01-27T12:14:02Z" uid="115477" user="wowik" changeset="7102995">
    <nd ref="1122292151"/>
    <nd ref="1122291167"/>
    <nd ref="1122291544"/>
    <nd ref="1122291338"/>
    <nd ref="1122292151"/>
    <tag k="building" v="yes"/>
    <tag k="building:levels" v="1"/>
  </way>
  <way id="96853080" version="1" timestamp="2011-01-26T19:45:07Z" uid="115477" user="wowik" changeset="7097032">
    <nd ref="710672961"/>
    <nd ref="710672951"/>
    <nd ref="710672954"/>
    <nd ref="1122292100"/>
    <nd ref="638073863"/>
    <tag k="highway" v="footway"/>
  </way>
  <way id="96853081" version="1" timestamp="2011-01-26T19:45:07Z" uid="115477" user="wowik" changeset="7097032">
    <nd ref="1122292153"/>
    <nd ref="1122291180"/>
    <nd ref="1122291557"/>
    <nd ref="1122291902"/>
    <nd ref="1122292153"/>
    <tag k="addr:city" v="Зеленоград"/>
    <tag k="addr:country" v="RU"/>
    <tag k="addr:street" v="Сосновая аллея"/>
    <tag k="building" v="yes"/>
  </way>
  <way id="96853082" version="1" timestamp="2011-01-26T19:45:07Z" uid="115477" user="wowik" changeset="7097032">
    <nd ref="1122292643"/>
    <nd ref="1122291102"/>
    <nd ref="1122291479"/>
    <nd ref="1122291828"/>
    <nd ref="1122292167"/>
    <nd ref="1122292014"/>
    <nd ref="1122292375"/>
    <nd ref="1122292833"/>
    <nd ref="1122292643"/>
    <tag k="addr:city" v="Зеленоград"/>
    <tag k="building" v="yes"/>
    <tag k="building:use" v="residential"/>
  </way>
  <way id="96853087" version="1" timestamp="2011-01-26T19:45:08Z" uid="115477" user="wowik" changeset="7097032">
    <nd ref="1122293298"/>
    <nd ref="1122291595"/>
    <nd ref="1122291952"/>
    <nd ref="1122292289"/>
    <nd ref="1122292690"/>
    <nd ref="1122292480"/>
    <nd ref="1122293298"/>
    <tag k="addr:city" v="Зеленоград"/>
    <tag k="addr:country" v="RU"/>
    <tag k="building" v="yes"/>
  </way>
  <way id="96853087" version="2" timestamp="2011-01-27T12:13:54Z" uid="115477" user="wowik" changeset="7102995">
    <nd ref="1122293298"/>
    <nd ref="1122291595"/>
    <nd ref="1122291952"/>
    <nd ref="1122292289"/>
    <nd ref="1122292690"/>
    <nd ref="1122292480"/>
    <nd ref="1122293298"/>
    <tag k="addr:city" v="Зеленоград"/>
    <tag k="addr:country" v="RU"/>
    <tag k="addr:housenumber" v="6 с24"/>
    <tag k="addr:street" v="Сосновая аллея"/>
    <tag k="building" v="yes"/>
    <tag k="building:levels" v="1"/>
  </way>
  <way id="96853090" version="1" timestamp="2011-01-26T19:45:09Z" uid="115477" user="wowik" changeset="7097032">
    <nd ref="1122291486"/>
    <nd ref="1122292925"/>
    <nd ref="1122291227"/>
    <nd ref="1122291393"/>
    <nd ref="1122291859"/>
    <nd ref="1122292704"/>
    <nd ref="1122291486"/>
    <tag k="addr:city" v="Зеленоград"/>
    <tag k="addr:country" v="RU"/>
    <tag k="addr:housenumber" v="6 с3"/>
    <tag k="addr:street" v="Сосновая аллея"/>
    <tag k="building" v="yes"/>
  </way>
  <way id="96853090" version="2" timestamp="2011-01-27T12:13:44Z" uid="115477" user="wowik" changeset="7102995">
    <nd ref="1122291486"/>
    <nd ref="1122292925"/>
    <nd ref="1122291227"/>
    <nd ref="1122291393"/>
    <nd ref="1122291859"/>
    <nd ref="1122292704"/>
    <nd ref="1122291486"/>
    <tag k="addr:city" v="Зеленоград"/>
    <tag k="addr:country" v="RU"/>
    <tag k="addr:housenumber" v="6 с3"/>
    <tag k="addr:street" v="Сосновая аллея"/>
    <tag k="building" v="yes"/>
    <tag k="building:levels" v="1"/>
  </way>
  <way id="96853093" version="1" timestamp="2011-01-26T19:45:09Z" uid="115477" user="wowik" changeset="7097032">
    <nd ref="450653136"/>
    <nd ref="1122290924"/>
    <nd ref="1122290618"/>
    <nd ref="450653137"/>
    <nd ref="450653136"/>
    <tag k="building" v="yes"/>
    <tag k="building:levels" v="1"/>
  </way>
  <way id="96853102" version="1" timestamp="2011-01-26T19:45:10Z" uid="115477" user="wowik" changeset="7097032">
    <nd ref="1122291249"/>
    <nd ref="1122292596"/>
    <nd ref="1122293087"/>
    <nd ref="1122290882"/>
    <nd ref="1122291323"/>
    <nd ref="1122291175"/>
    <nd ref="1122291547"/>
    <nd ref="1122291900"/>
    <nd ref="1122292251"/>
    <nd ref="1122292076"/>
    <nd ref="1122291249"/>
    <tag k="addr:city" v="Зеленоград"/>
    <tag k="addr:housenumber" v="48"/>
    <tag k="addr:street" v="деревня Кутузово"/>
    <tag k="building" v="yes"/>
    <tag k="building:use" v="residential"/>
  </way>
  <way id="96853104" version="1" timestamp="2011-01-26T19:45:11Z" uid="115477" user="wowik" changeset="7097032">
    <nd ref="1122291542"/>
    <nd ref="1122292957"/>
    <nd ref="1122291884"/>
    <nd ref="1122290697"/>
    <nd ref="1122291713"/>
    <nd ref="1122293285"/>
    <nd ref="1122292072"/>
    <nd ref="1122291065"/>
    <nd ref="1122292435"/>
    <nd ref="1122291454"/>
    <nd ref="1122291542"/>
    <tag k="addr:city" v="Зеленоград"/>
    <tag k="building" v="yes"/>
    <tag k="building:use" v="residential"/>
  </way>
  <way id="96853108" version="1" timestamp="2011-01-26T19:45:12Z" uid="115477" user="wowik" changeset="7097032">
    <nd ref="450657965"/>
    <nd ref="1122291389"/>
    <nd ref="1122291777"/>
    <nd ref="1122293194"/>
    <nd ref="1122290934"/>
    <nd ref="450657964"/>
    <nd ref="450657965"/>
    <tag k="building" v="yes"/>
    <tag k="building:levels" v="1"/>
  </way>
  <way id="96853112" version="1" timestamp="2011-01-26T19:45:13Z" uid="115477" user="wowik" changeset="7097032">
    <nd ref="1122292878"/>
    <nd ref="1122290561"/>
    <nd ref="1122293133"/>
    <nd ref="1122290899"/>
    <nd ref="1122292878"/>
    <tag k="addr:city" v="Зеленоград"/>
    <tag k="addr:country" v="RU"/>
    <tag k="addr:housenumber" v="3 с10"/>
    <tag k="addr:street" v="Сосновая аллея"/>
    <tag k="building" v="yes"/>
  </way>
  <way id="96853112" version="2" timestamp="2011-01-28T11:21:28Z" uid="115477" user="wowik" changeset="7111979">
    <nd ref="1122292878"/>
    <nd ref="1122290561"/>
    <nd ref="1122293133"/>
    <nd ref="1122290899"/>
    <nd ref="1122292878"/>
    <tag k="addr:city" v="Зеленоград"/>
    <tag k="addr:country" v="RU"/>
    <tag k="addr:housenumber" v="3 с10"/>
    <tag k="addr:postcode" v="124489"/>
    <tag k="addr:street" v="Проезд N 5526"/>
    <tag k="building" v="yes"/>
  </way>
  <way id="96853114" version="1" timestamp="2011-01-26T19:45:13Z" uid="115477" user="wowik" changeset="7097032">
    <nd ref="1122291683"/>
    <nd ref="1122293245"/>
    <nd ref="1122291016"/>
    <nd ref="1122291398"/>
    <nd ref="1122291239"/>
    <nd ref="1122291614"/>
    <nd ref="1122291975"/>
    <nd ref="1122292303"/>
    <nd ref="1122291683"/>
    <tag k="addr:city" v="Зеленоград"/>
    <tag k="building" v="yes"/>
  </way>
  <way id="96853117" version="1" timestamp="2011-01-26T19:45:14Z" uid="115477" user="wowik" changeset="7097032">
    <nd ref="1122292100"/>
    <nd ref="1122292825"/>
    <tag k="highway" v="steps"/>
  </way>
  <way id="96853118" version="1" timestamp="2011-01-26T19:45:14Z" uid="115477" user="wowik" changeset="7097032">
    <nd ref="1122291972"/>
    <nd ref="1122290832"/>
    <nd ref="1122290542"/>
    <nd ref="1122291151"/>
    <nd ref="1122291972"/>
  </way>
  <way id="96853119" version="1" timestamp="2011-01-26T19:45:15Z" uid="115477" user="wowik" changeset="7097032">
    <nd ref="1122291219"/>
    <nd ref="1122292550"/>
    <nd ref="1122293044"/>
    <nd ref="1122292855"/>
    <nd ref="1122290506"/>
    <nd ref="1122291134"/>
    <nd ref="1122291488"/>
    <nd ref="1122291305"/>
    <nd ref="1122291219"/>
    <tag k="addr:city" v="Зеленоград"/>
    <tag k="addr:housenumber" v="28"/>
    <tag k="addr:street" v="деревня Кутузово"/>
    <tag k="building" v="yes"/>
    <tag k="building:use" v="residential"/>
  </way>
  <way id="96853121" version="1" timestamp="2011-01-26T19:45:15Z" uid="115477" user="wowik" changeset="7097032">
    <nd ref="1122290801"/>
    <nd ref="1122291783"/>
    <nd ref="1122290501"/>
    <nd ref="1122292124"/>
    <nd ref="1122290801"/>
    <tag k="addr:city" v="Зеленоград"/>
    <tag k="addr:country" v="RU"/>
    <tag k="addr:housenumber" v="6 с23"/>
    <tag k="addr:street" v="Сосновая аллея"/>
    <tag k="building" v="yes"/>
  </way>
  <way id="96853121" version="2" timestamp="2011-01-27T12:13:46Z" uid="115477" user="wowik" changeset="7102995">
    <nd ref="1122290801"/>
    <nd ref="1122291783"/>
    <nd ref="1122290501"/>
    <nd ref="1122292124"/>
    <nd ref="1122290801"/>
    <tag k="addr:city" v="Зеленоград"/>
    <tag k="addr:country" v="RU"/>
    <tag k="addr:housenumber" v="6 с23"/>
    <tag k="addr:street" v="Сосновая аллея"/>
    <tag k="building" v="yes"/>
    <tag k="building:levels" v="1"/>
  </way>
  <way id="96853124" version="1" timestamp="2011-01-26T19:45:16Z" uid="115477" user="wowik" changeset="7097032">
    <nd ref="450653326"/>
    <nd ref="1122292299"/>
    <nd ref="1122291680"/>
    <nd ref="1122292936"/>
    <nd ref="1122293057"/>
    <nd ref="1122291784"/>
    <nd ref="1122292388"/>
    <nd ref="1122291934"/>
    <nd ref="450653315"/>
    <nd ref="450653318"/>
    <nd ref="450653320"/>
    <nd ref="1122290991"/>
    <nd ref="1122291359"/>
    <nd ref="450653323"/>
    <nd ref="450653326"/>
    <tag k="addr:city" v="Зеленоград"/>
    <tag k="addr:country" v="RU"/>
    <tag k="addr:housenumber" v="4 с1"/>
    <tag k="addr:street" v="Сосновая аллея"/>
    <tag k="building" v="yes"/>
  </way>
  <way id="96853124" version="2" timestamp="2011-01-27T12:13:49Z" uid="115477" user="wowik" changeset="7102995">
    <nd ref="450653326"/>
    <nd ref="1122292299"/>
    <nd ref="1122291680"/>
    <nd ref="1122292936"/>
    <nd ref="1122293057"/>
    <nd ref="1122291784"/>
    <nd ref="1122292388"/>
    <nd ref="1122291934"/>
    <nd ref="450653315"/>
    <nd ref="450653318"/>
    <nd ref="450653320"/>
    <nd ref="1122290991"/>
    <nd ref="1122291359"/>
    <nd ref="450653323"/>
    <nd ref="450653326"/>
    <tag k="addr:city" v="Зеленоград"/>
    <tag k="addr:country" v="RU"/>
    <tag k="addr:housenumber" v="4 с1"/>
    <tag k="addr:street" v="Сосновая аллея"/>
    <tag k="building" v="yes"/>
    <tag k="building:levels" v="2"/>
  </way>
  <way id="96853125" version="1" timestamp="2011-01-26T19:45:17Z" uid="115477" user="wowik" changeset="7097032">
    <nd ref="450657964"/>
    <nd ref="450657965"/>
    <nd ref="450657966"/>
    <nd ref="450657967"/>
    <nd ref="450657968"/>
    <nd ref="450657970"/>
    <nd ref="1122293147"/>
    <nd ref="1122292367"/>
    <nd ref="1122293194"/>
    <nd ref="1122290934"/>
    <nd ref="450657964"/>
    <tag k="addr:city" v="Зеленоград"/>
    <tag k="addr:country" v="RU"/>
    <tag k="building" v="yes"/>
    <tag k="building:levels" v="3"/>
  </way>
  <way id="96853128" version="1" timestamp="2011-01-26T19:45:18Z" uid="115477" user="wowik" changeset="7097032">
    <nd ref="1122292194"/>
    <nd ref="1122291209"/>
    <nd ref="1122291568"/>
    <nd ref="1122291362"/>
    <nd ref="1122291762"/>
    <nd ref="1122292109"/>
    <nd ref="1122292463"/>
    <nd ref="1122292291"/>
    <nd ref="1122292694"/>
    <nd ref="1122293227"/>
    <nd ref="1122292194"/>
    <tag k="addr:city" v="Зеленоград"/>
    <tag k="building" v="yes"/>
  </way>
  <way id="96853130" version="1" timestamp="2011-01-26T19:45:19Z" uid="115477" user="wowik" changeset="7097032">
    <nd ref="1122291187"/>
    <nd ref="1122292503"/>
    <nd ref="1122292990"/>
    <nd ref="1122290752"/>
    <nd ref="1122291187"/>
    <tag k="addr:city" v="Зеленоград"/>
    <tag k="building" v="yes"/>
  </way>
  <way id="96853132" version="1" timestamp="2011-01-26T19:45:19Z" uid="115477" user="wowik" changeset="7097032">
    <nd ref="1122292409"/>
    <nd ref="1122291434"/>
    <nd ref="450657977"/>
    <nd ref="1122292133"/>
    <nd ref="1122292409"/>
    <tag k="building" v="yes"/>
    <tag k="building:levels" v="1"/>
    <tag k="shop" v="car"/>
  </way>
  <way id="96853135" version="1" timestamp="2011-01-26T19:45:19Z" uid="115477" user="wowik" changeset="7097032">
    <nd ref="1122291743"/>
    <nd ref="1122293301"/>
    <nd ref="1122291122"/>
    <nd ref="1122290818"/>
    <nd ref="1122291288"/>
    <nd ref="1122291654"/>
    <nd ref="1122292023"/>
    <nd ref="1122291863"/>
    <nd ref="1122292217"/>
    <nd ref="1122292553"/>
    <nd ref="1122291743"/>
    <tag k="addr:city" v="Зеленоград"/>
    <tag k="building" v="yes"/>
    <tag k="building:use" v="residential"/>
  </way>
  <way id="96853136" version="1" timestamp="2011-01-26T19:45:20Z" uid="115477" user="wowik" changeset="7097032">
    <nd ref="1122292496"/>
    <nd ref="1122291546"/>
    <nd ref="1122292960"/>
    <nd ref="1122291340"/>
    <nd ref="1122292793"/>
    <nd ref="1122291717"/>
    <nd ref="1122293289"/>
    <nd ref="1122292075"/>
    <nd ref="1122291067"/>
    <nd ref="1122292442"/>
    <nd ref="1122292496"/>
    <tag k="addr:city" v="Зеленоград"/>
    <tag k="building" v="yes"/>
    <tag k="building:use" v="residential"/>
  </way>
  <way id="96853138" version="1" timestamp="2011-01-26T19:45:20Z" uid="115477" user="wowik" changeset="7097032">
    <nd ref="1122290797"/>
    <nd ref="1122292284"/>
    <nd ref="1122292674"/>
    <nd ref="1122292468"/>
    <nd ref="1122290797"/>
    <tag k="addr:city" v="Зеленоград"/>
    <tag k="addr:street" v="деревня Кутузово"/>
    <tag k="building" v="yes"/>
    <tag k="building:use" v="residential"/>
  </way>
  <way id="96853140" version="1" timestamp="2011-01-26T19:45:21Z" uid="115477" user="wowik" changeset="7097032">
    <nd ref="1122291205"/>
    <nd ref="1122292518"/>
    <nd ref="1122293011"/>
    <nd ref="1122290788"/>
    <nd ref="1122291205"/>
    <tag k="addr:city" v="Зеленоград"/>
    <tag k="addr:country" v="RU"/>
    <tag k="addr:housenumber" v="6 с15"/>
    <tag k="addr:street" v="Сосновая аллея"/>
    <tag k="building" v="yes"/>
  </way>
  <way id="96853142" version="1" timestamp="2011-01-26T19:45:21Z" uid="115477" user="wowik" changeset="7097032">
    <nd ref="1122291098"/>
    <nd ref="1122292450"/>
    <nd ref="1122292882"/>
    <nd ref="1122292671"/>
    <nd ref="1122291098"/>
    <tag k="addr:city" v="Зеленоград"/>
    <tag k="addr:housenumber" v="59"/>
    <tag k="addr:street" v="деревня Кутузово"/>
    <tag k="building" v="yes"/>
    <tag k="building:use" v="residential"/>
  </way>
  <way id="96853144" version="1" timestamp="2011-01-26T19:45:22Z" uid="115477" user="wowik" changeset="7097032">
    <nd ref="1122291309"/>
    <nd ref="1122292724"/>
    <nd ref="1122293252"/>
    <nd ref="1122291017"/>
    <nd ref="1122291309"/>
    <tag k="addr:city" v="Зеленоград"/>
    <tag k="addr:country" v="RU"/>
    <tag k="addr:housenumber" v="6"/>
    <tag k="addr:street" v="Сосновая аллея"/>
    <tag k="building" v="yes"/>
  </way>
  <way id="96853145" version="1" timestamp="2011-01-26T19:45:22Z" uid="115477" user="wowik" changeset="7097032">
    <nd ref="1122292502"/>
    <nd ref="1122291559"/>
    <nd ref="1122292971"/>
    <nd ref="1122291926"/>
    <nd ref="1122292804"/>
    <nd ref="1122291726"/>
    <nd ref="1122293295"/>
    <nd ref="1122292081"/>
    <nd ref="1122291097"/>
    <nd ref="1122292448"/>
    <nd ref="1122291474"/>
    <nd ref="1122292881"/>
    <nd ref="1122291279"/>
    <nd ref="1122292502"/>
    <tag k="natural" v="water"/>
  </way>
  <way id="96853148" version="1" timestamp="2011-01-26T19:45:22Z" uid="115477" user="wowik" changeset="7097032">
    <nd ref="1122290837"/>
    <nd ref="1122292305"/>
    <nd ref="1122291306"/>
    <nd ref="1122292707"/>
    <nd ref="1122290837"/>
    <tag k="natural" v="water"/>
  </way>
  <way id="96853149" version="1" timestamp="2011-01-26T19:45:22Z" uid="115477" user="wowik" changeset="7097032">
    <nd ref="1122291160"/>
    <nd ref="1122292492"/>
    <nd ref="1122292955"/>
    <nd ref="1122292761"/>
    <nd ref="1122293281"/>
    <nd ref="1122291062"/>
    <nd ref="1122291160"/>
    <tag k="addr:city" v="Зеленоград"/>
    <tag k="addr:street" v="деревня Кутузово"/>
    <tag k="building" v="yes"/>
    <tag k="building:use" v="residential"/>
  </way>
  <way id="96853149" version="2" timestamp="2011-02-09T14:28:59Z" uid="115477" user="wowik" changeset="7236553">
    <nd ref="1122291160"/>
    <nd ref="1122292492"/>
    <nd ref="1122292955"/>
    <nd ref="1122292761"/>
    <nd ref="1122293281"/>
    <nd ref="1122291062"/>
    <nd ref="1122291160"/>
    <tag k="addr:city" v="Зеленоград"/>
    <tag k="addr:housenumber" v="53А"/>
    <tag k="addr:street" v="деревня Кутузово"/>
    <tag k="building" v="yes"/>
    <tag k="building:use" v="residential"/>
  </way>
  <way id="96853151" version="1" timestamp="2011-01-26T19:45:23Z" uid="115477" user="wowik" changeset="7097032">
    <nd ref="1122290513"/>
    <nd ref="1122292128"/>
    <nd ref="1122291973"/>
    <nd ref="1122292301"/>
    <nd ref="1122290513"/>
    <tag k="addr:city" v="Зеленоград"/>
    <tag k="addr:country" v="RU"/>
    <tag k="building" v="yes"/>
  </way>
  <way id="96853151" version="2" timestamp="2011-01-27T12:13:28Z" uid="115477" user="wowik" changeset="7102995">
    <nd ref="1122290513"/>
    <nd ref="1122292128"/>
    <nd ref="1122291973"/>
    <nd ref="1122292301"/>
    <nd ref="1122290513"/>
    <tag k="addr:city" v="Зеленоград"/>
    <tag k="addr:country" v="RU"/>
    <tag k="building" v="yes"/>
    <tag k="building:levels" v="1"/>
  </way>
  <way id="96853152" version="1" timestamp="2011-01-26T19:45:23Z" uid="115477" user="wowik" changeset="7097032">
    <nd ref="1122292079"/>
    <nd ref="1122291092"/>
    <nd ref="1122292445"/>
    <nd ref="1122291457"/>
    <nd ref="1122292079"/>
    <tag k="addr:city" v="Зеленоград"/>
    <tag k="addr:country" v="RU"/>
    <tag k="addr:housenumber" v="6 с13"/>
    <tag k="addr:street" v="Сосновая аллея"/>
    <tag k="building" v="yes"/>
  </way>
  <way id="96853155" version="1" timestamp="2011-01-26T19:45:23Z" uid="115477" user="wowik" changeset="7097032">
    <nd ref="1122291099"/>
    <nd ref="1122292457"/>
    <nd ref="1122292890"/>
    <nd ref="1122290600"/>
    <nd ref="1122291099"/>
    <tag k="addr:city" v="Зеленоград"/>
    <tag k="building" v="yes"/>
  </way>
  <way id="96853156" version="1" timestamp="2011-01-26T19:45:24Z" uid="115477" user="wowik" changeset="7097032">
    <nd ref="1122291826"/>
    <nd ref="1122290581"/>
    <nd ref="1122291183"/>
    <nd ref="1122290945"/>
    <nd ref="1122291826"/>
    <tag k="addr:city" v="Зеленоград"/>
    <tag k="building" v="yes"/>
  </way>
  <way id="96853159" version="1" timestamp="2011-01-26T19:45:24Z" uid="115477" user="wowik" changeset="7097032">
    <nd ref="1122292378"/>
    <nd ref="1122291360"/>
    <nd ref="1122292835"/>
    <nd ref="1122291738"/>
    <nd ref="1122291588"/>
    <nd ref="1122293038"/>
    <nd ref="1122291946"/>
    <nd ref="1122290802"/>
    <nd ref="1122292285"/>
    <nd ref="1122291285"/>
    <nd ref="1122292378"/>
    <tag k="addr:city" v="Зеленоград"/>
    <tag k="building" v="yes"/>
    <tag k="building:use" v="residential"/>
  </way>
  <way id="96853160" version="1" timestamp="2011-01-26T19:45:24Z" uid="115477" user="wowik" changeset="7097032">
    <nd ref="1122291247"/>
    <nd ref="1122292591"/>
    <nd ref="1122291622"/>
    <nd ref="1122293081"/>
    <nd ref="1122291976"/>
    <nd ref="1122290848"/>
    <nd ref="1122292318"/>
    <nd ref="1122290575"/>
    <nd ref="1122292150"/>
    <nd ref="1122291163"/>
    <nd ref="1122291247"/>
    <tag k="addr:city" v="Зеленоград"/>
    <tag k="building" v="yes"/>
    <tag k="building:use" v="residential"/>
  </way>
  <way id="96853161" version="1" timestamp="2011-01-26T19:45:25Z" uid="115477" user="wowik" changeset="7097032">
    <nd ref="1122293189"/>
    <nd ref="1122292013"/>
    <nd ref="1122292365"/>
    <nd ref="1122292830"/>
    <nd ref="1122293189"/>
    <tag k="addr:city" v="Зеленоград"/>
    <tag k="addr:country" v="RU"/>
    <tag k="addr:housenumber" v="12 с3"/>
    <tag k="addr:street" v="Сосновая аллея"/>
    <tag k="building" v="yes"/>
  </way>
  <way id="96853163" version="1" timestamp="2011-01-26T19:45:25Z" uid="115477" user="wowik" changeset="7097032">
    <nd ref="450653318"/>
    <nd ref="1122292226"/>
    <nd ref="1122292568"/>
    <nd ref="1122292416"/>
    <nd ref="1122292861"/>
    <nd ref="1122290541"/>
    <nd ref="1122291140"/>
    <nd ref="450653315"/>
    <nd ref="450653318"/>
    <tag k="building" v="yes"/>
    <tag k="building:levels" v="1"/>
    <tag k="shop" v="car"/>
  </way>
  <way id="96853165" version="1" timestamp="2011-01-26T19:45:25Z" uid="115477" user="wowik" changeset="7097032">
    <nd ref="1122292500"/>
    <nd ref="1122291558"/>
    <nd ref="1122292966"/>
    <nd ref="1122291911"/>
    <nd ref="1122292500"/>
    <tag k="addr:city" v="Зеленоград"/>
    <tag k="addr:housenumber" v="2А с2"/>
    <tag k="addr:street" v="Проезд N 687"/>
    <tag k="building" v="yes"/>
    <tag k="building:levels" v="1"/>
  </way>
  <way id="96853165" version="2" timestamp="2011-02-03T14:47:15Z" uid="115477" user="wowik" changeset="7174554">
    <nd ref="1122292500"/>
    <nd ref="1122291558"/>
    <nd ref="1122292966"/>
    <nd ref="1122291911"/>
    <nd ref="1122292500"/>
    <tag k="addr:city" v="Зеленоград"/>
    <tag k="addr:housenumber" v="2А с2"/>
    <tag k="addr:street" v="Проектируемый проезд N 687"/>
    <tag k="building" v="yes"/>
    <tag k="building:levels" v="1"/>
  </way>
  <way id="96853167" version="1" timestamp="2011-01-26T19:45:26Z" uid="115477" user="wowik" changeset="7097032">
    <nd ref="1122290976"/>
    <nd ref="1122291851"/>
    <nd ref="1122292199"/>
    <nd ref="1122292535"/>
    <nd ref="1122290976"/>
    <tag k="leisure" v="pitch"/>
    <tag k="sport" v="skateboard"/>
  </way>
  <way id="96853168" version="1" timestamp="2011-01-26T19:45:26Z" uid="115477" user="wowik" changeset="7097032">
    <nd ref="1122292044"/>
    <nd ref="1122291011"/>
    <nd ref="1122290687"/>
    <nd ref="1122291230"/>
    <nd ref="1122292044"/>
  </way>
  <way id="96853170" version="1" timestamp="2011-01-26T19:45:27Z" uid="115477" user="wowik" changeset="7097032">
    <nd ref="1122292733"/>
    <nd ref="1122291706"/>
    <nd ref="1122292053"/>
    <nd ref="1122292424"/>
    <nd ref="1122292733"/>
    <tag k="addr:city" v="Зеленоград"/>
    <tag k="addr:country" v="RU"/>
    <tag k="building" v="yes"/>
  </way>
  <way id="96853170" version="2" timestamp="2011-01-27T12:13:48Z" uid="115477" user="wowik" changeset="7102995">
    <nd ref="1122292733"/>
    <nd ref="1122291706"/>
    <nd ref="1122292053"/>
    <nd ref="1122292424"/>
    <nd ref="1122292733"/>
    <tag k="addr:city" v="Зеленоград"/>
    <tag k="addr:country" v="RU"/>
    <tag k="building" v="yes"/>
    <tag k="building:levels" v="1"/>
  </way>
  <way id="96853172" version="1" timestamp="2011-01-26T19:45:27Z" uid="115477" user="wowik" changeset="7097032">
    <nd ref="913345171"/>
    <nd ref="913345172"/>
    <nd ref="913345174"/>
    <nd ref="1122292765"/>
    <nd ref="913345171"/>
    <tag k="addr:city" v="Зеленоград"/>
    <tag k="addr:country" v="RU"/>
    <tag k="addr:housenumber" v="3 с8"/>
    <tag k="addr:street" v="Сосновая аллея"/>
    <tag k="building" v="yes"/>
  </way>
  <way id="96853172" version="2" timestamp="2011-01-28T11:21:26Z" uid="115477" user="wowik" changeset="7111979">
    <nd ref="913345171"/>
    <nd ref="913345172"/>
    <nd ref="913345174"/>
    <nd ref="1122292765"/>
    <nd ref="913345171"/>
    <tag k="addr:city" v="Зеленоград"/>
    <tag k="addr:country" v="RU"/>
    <tag k="addr:housenumber" v="3 с8"/>
    <tag k="addr:postcode" v="124489"/>
    <tag k="addr:street" v="Проезд N 5526"/>
    <tag k="building" v="yes"/>
  </way>
  <way id="96853173" version="1" timestamp="2011-01-26T19:45:27Z" uid="115477" user="wowik" changeset="7097032">
    <nd ref="1122291510"/>
    <nd ref="1122292934"/>
    <nd ref="1122291314"/>
    <nd ref="1122292727"/>
    <nd ref="1122291691"/>
    <nd ref="1122293254"/>
    <nd ref="1122292048"/>
    <nd ref="1122291022"/>
    <nd ref="1122292411"/>
    <nd ref="1122291440"/>
    <nd ref="1122291510"/>
    <tag k="addr:city" v="Зеленоград"/>
    <tag k="building" v="yes"/>
    <tag k="building:use" v="residential"/>
  </way>
  <way id="96853175" version="1" timestamp="2011-01-26T19:45:28Z" uid="115477" user="wowik" changeset="7097032">
    <nd ref="1122291526"/>
    <nd ref="1122292938"/>
    <nd ref="1122291881"/>
    <nd ref="1122290691"/>
    <nd ref="1122291526"/>
    <tag k="addr:city" v="Зеленоград"/>
    <tag k="addr:housenumber" v="2"/>
    <tag k="addr:street" v="Проезд N 687"/>
    <tag k="building" v="yes"/>
    <tag k="building:levels" v="1"/>
  </way>
  <way id="96853175" version="2" timestamp="2011-02-03T14:47:17Z" uid="115477" user="wowik" changeset="7174554">
    <nd ref="1122291526"/>
    <nd ref="1122292938"/>
    <nd ref="1122291881"/>
    <nd ref="1122290691"/>
    <nd ref="1122291526"/>
    <tag k="addr:city" v="Зеленоград"/>
    <tag k="addr:housenumber" v="2"/>
    <tag k="addr:street" v="Проектируемый проезд N 687"/>
    <tag k="building" v="yes"/>
    <tag k="building:levels" v="1"/>
  </way>
  <way id="96853178" version="1" timestamp="2011-01-26T19:45:28Z" uid="115477" user="wowik" changeset="7097032">
    <nd ref="1122292139"/>
    <nd ref="1122291138"/>
    <nd ref="1122292485"/>
    <nd ref="1122291511"/>
    <nd ref="1122292139"/>
    <tag k="addr:city" v="Зеленоград"/>
    <tag k="addr:country" v="RU"/>
    <tag k="addr:street" v="Сосновая аллея"/>
    <tag k="building" v="yes"/>
  </way>
  <way id="96853179" version="1" timestamp="2011-01-26T19:45:28Z" uid="115477" user="wowik" changeset="7097032">
    <nd ref="1122292269"/>
    <nd ref="1122291266"/>
    <nd ref="1122292637"/>
    <nd ref="1122291639"/>
    <nd ref="1122293149"/>
    <nd ref="1122292004"/>
    <nd ref="1122290937"/>
    <nd ref="1122292334"/>
    <nd ref="1122290622"/>
    <nd ref="1122292169"/>
    <nd ref="1122292269"/>
    <tag k="addr:city" v="Зеленоград"/>
    <tag k="building" v="yes"/>
    <tag k="building:use" v="residential"/>
  </way>
  <way id="96853182" version="1" timestamp="2011-01-26T19:45:29Z" uid="115477" user="wowik" changeset="7097032">
    <nd ref="450657967"/>
    <nd ref="1122291302"/>
    <nd ref="1122291857"/>
    <nd ref="450657968"/>
    <nd ref="450657967"/>
    <tag k="building" v="yes"/>
    <tag k="building:levels" v="1"/>
  </way>
  <way id="96853186" version="1" timestamp="2011-01-26T19:45:29Z" uid="115477" user="wowik" changeset="7097032">
    <nd ref="1122292543"/>
    <nd ref="1122291007"/>
    <nd ref="1122291380"/>
    <nd ref="1122291769"/>
    <nd ref="1122292543"/>
    <tag k="addr:city" v="Зеленоград"/>
    <tag k="addr:country" v="RU"/>
    <tag k="addr:housenumber" v="12 с5"/>
    <tag k="addr:street" v="Сосновая аллея"/>
    <tag k="building" v="yes"/>
  </way>
  <way id="96853187" version="1" timestamp="2011-01-26T19:45:30Z" uid="115477" user="wowik" changeset="7097032">
    <nd ref="1122291626"/>
    <nd ref="1122292451"/>
    <nd ref="1122291477"/>
    <nd ref="1122292889"/>
    <nd ref="1122291626"/>
    <tag k="addr:city" v="Зеленоград"/>
    <tag k="addr:country" v="RU"/>
    <tag k="addr:housenumber" v="3 с4"/>
    <tag k="addr:street" v="Сосновая аллея"/>
    <tag k="building" v="yes"/>
  </way>
  <way id="96853187" version="2" timestamp="2011-01-28T11:21:29Z" uid="115477" user="wowik" changeset="7111979">
    <nd ref="1122291626"/>
    <nd ref="1122292451"/>
    <nd ref="1122291477"/>
    <nd ref="1122292889"/>
    <nd ref="1122291626"/>
    <tag k="addr:city" v="Зеленоград"/>
    <tag k="addr:country" v="RU"/>
    <tag k="addr:housenumber" v="3 с9"/>
    <tag k="addr:postcode" v="124489"/>
    <tag k="addr:street" v="Проезд N 5526"/>
    <tag k="building" v="yes"/>
  </way>
  <way id="96853192" version="1" timestamp="2011-01-26T19:45:31Z" uid="115477" user="wowik" changeset="7097032">
    <nd ref="1122291276"/>
    <nd ref="1122292667"/>
    <nd ref="1122293182"/>
    <nd ref="1122290948"/>
    <nd ref="1122291276"/>
    <tag k="addr:city" v="Зеленоград"/>
    <tag k="addr:country" v="RU"/>
    <tag k="addr:housenumber" v="6 с14"/>
    <tag k="addr:street" v="Сосновая аллея"/>
    <tag k="building" v="yes"/>
  </way>
  <way id="96853193" version="1" timestamp="2011-01-26T19:45:31Z" uid="115477" user="wowik" changeset="7097032">
    <nd ref="1122290597"/>
    <nd ref="1122291648"/>
    <nd ref="1122293188"/>
    <nd ref="1122292009"/>
    <nd ref="1122290952"/>
    <nd ref="1122292361"/>
    <nd ref="1122290597"/>
    <tag k="addr:city" v="Зеленоград"/>
    <tag k="addr:country" v="RU"/>
    <tag k="addr:housenumber" v="4 с6"/>
    <tag k="addr:street" v="Проезд N 4807"/>
    <tag k="building" v="yes"/>
  </way>
  <way id="96853196" version="1" timestamp="2011-01-26T19:45:32Z" uid="115477" user="wowik" changeset="7097032">
    <nd ref="1122292070"/>
    <nd ref="1122292434"/>
    <nd ref="1122292266"/>
    <nd ref="1122292624"/>
    <nd ref="1122292070"/>
    <tag k="building" v="yes"/>
    <tag k="building:levels" v="1"/>
  </way>
  <way id="96853198" version="1" timestamp="2011-01-26T19:45:32Z" uid="115477" user="wowik" changeset="7097032">
    <nd ref="1122291265"/>
    <nd ref="1122292620"/>
    <nd ref="1122293137"/>
    <nd ref="1122290905"/>
    <nd ref="1122291265"/>
    <tag k="addr:city" v="Зеленоград"/>
    <tag k="addr:housenumber" v="3А"/>
    <tag k="addr:street" v="деревня Кутузово"/>
    <tag k="building" v="yes"/>
    <tag k="building:use" v="residential"/>
  </way>
  <way id="96853205" version="1" timestamp="2011-01-26T19:45:33Z" uid="115477" user="wowik" changeset="7097032">
    <nd ref="1122292962"/>
    <nd ref="1122291903"/>
    <nd ref="1122292253"/>
    <nd ref="1122292077"/>
    <nd ref="1122292962"/>
    <tag k="addr:city" v="Зеленоград"/>
    <tag k="building" v="yes"/>
  </way>
  <way id="96853206" version="1" timestamp="2011-01-26T19:45:33Z" uid="115477" user="wowik" changeset="7097032">
    <nd ref="1122291807"/>
    <nd ref="1122290569"/>
    <nd ref="1122291159"/>
    <nd ref="1122291539"/>
    <nd ref="1122291882"/>
    <nd ref="1122291712"/>
    <nd ref="1122291807"/>
    <tag k="addr:city" v="Зеленоград"/>
    <tag k="addr:country" v="RU"/>
    <tag k="addr:housenumber" v="6 с3"/>
    <tag k="addr:street" v="Проезд N 4807"/>
    <tag k="building" v="yes"/>
  </way>
  <way id="96853211" version="1" timestamp="2011-01-26T19:45:33Z" uid="115477" user="wowik" changeset="7097032">
    <nd ref="1122291132"/>
    <nd ref="1122291485"/>
    <nd ref="1122291857"/>
    <nd ref="450657968"/>
    <nd ref="450657970"/>
    <nd ref="1122293147"/>
    <nd ref="1122292367"/>
    <nd ref="1122291132"/>
    <tag k="building" v="yes"/>
    <tag k="building:levels" v="1"/>
  </way>
  <way id="96853212" version="1" timestamp="2011-01-26T19:45:33Z" uid="115477" user="wowik" changeset="7097032">
    <nd ref="1122292678"/>
    <nd ref="1122291652"/>
    <nd ref="1122293196"/>
    <nd ref="1122292021"/>
    <nd ref="1122292678"/>
    <tag k="addr:city" v="Зеленоград"/>
    <tag k="addr:country" v="RU"/>
    <tag k="addr:housenumber" v="6 с26"/>
    <tag k="addr:street" v="Сосновая аллея"/>
    <tag k="building" v="yes"/>
  </way>
  <way id="96853212" version="2" timestamp="2011-01-27T12:13:37Z" uid="115477" user="wowik" changeset="7102995">
    <nd ref="1122292678"/>
    <nd ref="1122291652"/>
    <nd ref="1122293196"/>
    <nd ref="1122292021"/>
    <nd ref="1122292678"/>
    <tag k="addr:city" v="Зеленоград"/>
    <tag k="addr:country" v="RU"/>
    <tag k="addr:housenumber" v="6 с26"/>
    <tag k="addr:street" v="Сосновая аллея"/>
    <tag k="building" v="yes"/>
    <tag k="building:levels" v="1"/>
  </way>
  <way id="96853217" version="1" timestamp="2011-01-26T19:45:34Z" uid="115477" user="wowik" changeset="7097032">
    <nd ref="1122292900"/>
    <nd ref="1122291829"/>
    <nd ref="1122292180"/>
    <nd ref="1122292515"/>
    <nd ref="1122292900"/>
    <tag k="addr:city" v="Зеленоград"/>
    <tag k="addr:housenumber" v="24"/>
    <tag k="addr:street" v="деревня Кутузово"/>
    <tag k="building" v="yes"/>
    <tag k="building:use" v="residential"/>
  </way>
  <way id="96853224" version="1" timestamp="2011-01-26T19:45:35Z" uid="115477" user="wowik" changeset="7097032">
    <nd ref="1122291596"/>
    <nd ref="1122292401"/>
    <nd ref="1122292858"/>
    <nd ref="1122290517"/>
    <nd ref="1122291596"/>
    <tag k="addr:city" v="Зеленоград"/>
    <tag k="addr:country" v="RU"/>
    <tag k="addr:housenumber" v="6 с10"/>
    <tag k="addr:street" v="Сосновая аллея"/>
    <tag k="building" v="yes"/>
  </way>
  <way id="96853225" version="1" timestamp="2011-01-26T19:45:35Z" uid="115477" user="wowik" changeset="7097032">
    <nd ref="1122292376"/>
    <nd ref="1122290670"/>
    <nd ref="1122292207"/>
    <nd ref="1122291217"/>
    <nd ref="1122292376"/>
    <tag k="addr:city" v="Зеленоград"/>
    <tag k="addr:country" v="RU"/>
    <tag k="addr:housenumber" v="6 с5"/>
    <tag k="addr:street" v="Сосновая аллея"/>
    <tag k="building" v="yes"/>
  </way>
  <way id="96853225" version="2" timestamp="2011-01-27T12:13:43Z" uid="115477" user="wowik" changeset="7102995">
    <nd ref="1122292376"/>
    <nd ref="1122290670"/>
    <nd ref="1122292207"/>
    <nd ref="1122291217"/>
    <nd ref="1122292376"/>
    <tag k="addr:city" v="Зеленоград"/>
    <tag k="addr:country" v="RU"/>
    <tag k="addr:housenumber" v="6 с5"/>
    <tag k="addr:street" v="Сосновая аллея"/>
    <tag k="building" v="yes"/>
    <tag k="building:levels" v="1"/>
  </way>
  <way id="96853228" version="1" timestamp="2011-01-26T19:45:35Z" uid="115477" user="wowik" changeset="7097032">
    <nd ref="1122292486"/>
    <nd ref="1122290878"/>
    <nd ref="1122292321"/>
    <nd ref="1122291318"/>
    <nd ref="1122292729"/>
    <nd ref="1122291694"/>
    <nd ref="1122293257"/>
    <nd ref="1122292051"/>
    <nd ref="1122291041"/>
    <nd ref="1122291899"/>
    <nd ref="1122292486"/>
    <tag k="addr:city" v="Зеленоград"/>
    <tag k="building" v="yes"/>
    <tag k="building:use" v="residential"/>
  </way>
  <way id="96853229" version="1" timestamp="2011-01-26T19:45:36Z" uid="115477" user="wowik" changeset="7097032">
    <nd ref="1122292838"/>
    <nd ref="1122291741"/>
    <nd ref="1122292107"/>
    <nd ref="1122291949"/>
    <nd ref="1122292287"/>
    <nd ref="1122292680"/>
    <nd ref="1122293224"/>
    <nd ref="1122292929"/>
    <nd ref="1122292838"/>
    <tag k="addr:city" v="Зеленоград"/>
    <tag k="building" v="yes"/>
  </way>
  <way id="96853233" version="1" timestamp="2011-01-26T19:45:36Z" uid="115477" user="wowik" changeset="7097032">
    <nd ref="1122292415"/>
    <nd ref="1122291444"/>
    <nd ref="1122292859"/>
    <nd ref="1122291801"/>
    <nd ref="1122292415"/>
    <tag k="addr:city" v="Зеленоград"/>
    <tag k="addr:country" v="RU"/>
    <tag k="addr:street" v="Сосновая аллея"/>
    <tag k="building" v="yes"/>
  </way>
  <way id="96853234" version="1" timestamp="2011-01-26T19:45:36Z" uid="115477" user="wowik" changeset="7097032">
    <nd ref="1122292795"/>
    <nd ref="1122291724"/>
    <nd ref="1122291561"/>
    <nd ref="1122291927"/>
    <nd ref="1122292795"/>
    <tag k="addr:city" v="Зеленоград"/>
    <tag k="building" v="yes"/>
    <tag k="building:use" v="residential"/>
  </way>
  <way id="96853237" version="1" timestamp="2011-01-26T19:45:37Z" uid="115477" user="wowik" changeset="7097032">
    <nd ref="1122292763"/>
    <nd ref="1122292507"/>
    <nd ref="1122293000"/>
    <nd ref="1122290755"/>
    <nd ref="769080762"/>
    <nd ref="1122292763"/>
    <tag k="addr:city" v="Зеленоград"/>
    <tag k="addr:country" v="RU"/>
    <tag k="addr:housenumber" v="12 с2"/>
    <tag k="addr:street" v="Сосновая аллея"/>
    <tag k="building" v="yes"/>
  </way>
  <way id="96853240" version="1" timestamp="2011-01-26T19:45:37Z" uid="115477" user="wowik" changeset="7097032">
    <nd ref="1122291923"/>
    <nd ref="1122290745"/>
    <nd ref="1122292256"/>
    <nd ref="1122293293"/>
    <nd ref="1122291923"/>
    <tag k="addr:city" v="Зеленоград"/>
    <tag k="addr:country" v="RU"/>
    <tag k="addr:housenumber" v="6 с12"/>
    <tag k="addr:street" v="Сосновая аллея"/>
    <tag k="building" v="yes"/>
  </way>
  <way id="96853241" version="1" timestamp="2011-01-26T19:45:38Z" uid="115477" user="wowik" changeset="7097032">
    <nd ref="1122291810"/>
    <nd ref="1122291270"/>
    <nd ref="1122292647"/>
    <nd ref="1122291646"/>
    <nd ref="1122290941"/>
    <nd ref="1122292352"/>
    <nd ref="1122291341"/>
    <nd ref="1122292175"/>
    <nd ref="1122291566"/>
    <nd ref="1122291195"/>
    <nd ref="1122291810"/>
    <tag k="addr:city" v="Зеленоград"/>
    <tag k="building" v="yes"/>
    <tag k="building:use" v="residential"/>
  </way>
  <way id="96853245" version="1" timestamp="2011-01-26T19:45:38Z" uid="115477" user="wowik" changeset="7097032">
    <nd ref="1122292148"/>
    <nd ref="1122291157"/>
    <nd ref="1122291534"/>
    <nd ref="1122291337"/>
    <nd ref="1122292148"/>
    <tag k="addr:city" v="Зеленоград"/>
    <tag k="addr:housenumber" v="6 с1?"/>
    <tag k="addr:street" v="Проезд N 4807"/>
    <tag k="building" v="yes"/>
  </way>
  <way id="96853245" version="2" timestamp="2011-01-26T20:03:43Z" uid="115477" user="wowik" changeset="7097268">
    <nd ref="1122292148"/>
    <nd ref="1122291157"/>
    <nd ref="1122291534"/>
    <nd ref="1122291337"/>
    <nd ref="1122292148"/>
    <tag k="addr:city" v="Зеленоград"/>
    <tag k="addr:housenumber" v="6 с3"/>
    <tag k="addr:street" v="Проезд N 4807"/>
    <tag k="building" v="yes"/>
  </way>
  <way id="96853246" version="1" timestamp="2011-01-26T19:45:38Z" uid="115477" user="wowik" changeset="7097032">
    <nd ref="1122290729"/>
    <nd ref="1122291715"/>
    <nd ref="1122292074"/>
    <nd ref="1122292443"/>
    <nd ref="1122290729"/>
    <tag k="addr:city" v="Зеленоград"/>
    <tag k="addr:housenumber" v="55"/>
    <tag k="addr:street" v="деревня Кутузово"/>
    <tag k="building" v="yes"/>
    <tag k="building:use" v="residential"/>
  </way>
  <way id="96853249" version="1" timestamp="2011-01-26T19:45:39Z" uid="115477" user="wowik" changeset="7097032">
    <nd ref="1122293008"/>
    <nd ref="1122291929"/>
    <nd ref="1122292270"/>
    <nd ref="1122292663"/>
    <nd ref="1122293008"/>
    <tag k="addr:city" v="Зеленоград"/>
    <tag k="building" v="yes"/>
  </way>
  <way id="96853250" version="1" timestamp="2011-01-26T19:45:39Z" uid="115477" user="wowik" changeset="7097032">
    <nd ref="1122290598"/>
    <nd ref="1122291352"/>
    <nd ref="1122290974"/>
    <nd ref="1122292166"/>
    <nd ref="1122291729"/>
    <nd ref="1122292097"/>
    <nd ref="1122291191"/>
    <nd ref="1122292504"/>
    <nd ref="1122290598"/>
    <tag k="addr:city" v="Зеленоград"/>
    <tag k="addr:country" v="RU"/>
    <tag k="addr:housenumber" v="3 с11"/>
    <tag k="addr:street" v="Сосновая аллея"/>
    <tag k="building" v="yes"/>
  </way>
  <way id="96853250" version="2" timestamp="2011-01-28T11:21:26Z" uid="115477" user="wowik" changeset="7111979">
    <nd ref="1122290598"/>
    <nd ref="1122291352"/>
    <nd ref="1122290974"/>
    <nd ref="1122292166"/>
    <nd ref="1122291729"/>
    <nd ref="1122292097"/>
    <nd ref="1122291191"/>
    <nd ref="1122292504"/>
    <nd ref="1122290598"/>
    <tag k="addr:city" v="Зеленоград"/>
    <tag k="addr:country" v="RU"/>
    <tag k="addr:housenumber" v="3 с11"/>
    <tag k="addr:postcode" v="124489"/>
    <tag k="addr:street" v="Проезд N 5526"/>
    <tag k="building" v="yes"/>
  </way>
  <way id="96853254" version="1" timestamp="2011-01-26T19:45:40Z" uid="115477" user="wowik" changeset="7097032">
    <nd ref="1122291051"/>
    <nd ref="1122292432"/>
    <nd ref="1122290751"/>
    <nd ref="1122292265"/>
    <nd ref="1122291263"/>
    <nd ref="1122292610"/>
    <nd ref="1122291624"/>
    <nd ref="1122293124"/>
    <nd ref="1122291988"/>
    <nd ref="1122290896"/>
    <nd ref="1122291827"/>
    <nd ref="1122290584"/>
    <nd ref="1122292164"/>
    <nd ref="1122291051"/>
    <tag k="natural" v="water"/>
  </way>
  <way id="96853255" version="1" timestamp="2011-01-26T19:45:40Z" uid="115477" user="wowik" changeset="7097032">
    <nd ref="1122292404"/>
    <nd ref="1122291403"/>
    <nd ref="1122291797"/>
    <nd ref="1122292131"/>
    <nd ref="1122292481"/>
    <nd ref="1122292316"/>
    <nd ref="1122292404"/>
    <tag k="addr:city" v="Зеленоград"/>
    <tag k="addr:housenumber" v="48"/>
    <tag k="addr:street" v="деревня Кутузово"/>
    <tag k="building" v="yes"/>
    <tag k="building:use" v="residential"/>
  </way>
  <way id="96853255" version="2" timestamp="2011-01-30T17:35:51Z" uid="115477" user="wowik" changeset="7136999">
    <nd ref="1122292404"/>
    <nd ref="1122291403"/>
    <nd ref="1122291797"/>
    <nd ref="1122292131"/>
    <nd ref="1122292481"/>
    <nd ref="1122292316"/>
    <nd ref="1122292404"/>
    <tag k="addr:city" v="Зеленоград"/>
    <tag k="addr:housenumber" v="1"/>
    <tag k="addr:street" v="деревня Кутузово"/>
    <tag k="building" v="yes"/>
    <tag k="building:use" v="residential"/>
  </way>
  <way id="96853257" version="1" timestamp="2011-01-26T19:45:40Z" uid="115477" user="wowik" changeset="7097032">
    <nd ref="1122291333"/>
    <nd ref="1122292756"/>
    <nd ref="1122293265"/>
    <nd ref="1122292967"/>
    <nd ref="1122290749"/>
    <nd ref="1122291261"/>
    <nd ref="1122290550"/>
    <nd ref="1122292142"/>
    <nd ref="1122291981"/>
    <nd ref="1122292447"/>
    <nd ref="1122291333"/>
    <tag k="addr:city" v="Зеленоград"/>
    <tag k="addr:housenumber" v="1"/>
    <tag k="addr:street" v="Проезд N 687"/>
    <tag k="amenity" v="fuel"/>
    <tag k="building" v="yes"/>
    <tag k="operator" v="Татнефть"/>
  </way>
  <way id="96853257" version="2" timestamp="2011-02-03T14:47:17Z" uid="115477" user="wowik" changeset="7174554">
    <nd ref="1122291333"/>
    <nd ref="1122292756"/>
    <nd ref="1122293265"/>
    <nd ref="1122292967"/>
    <nd ref="1122290749"/>
    <nd ref="1122291261"/>
    <nd ref="1122290550"/>
    <nd ref="1122292142"/>
    <nd ref="1122291981"/>
    <nd ref="1122292447"/>
    <nd ref="1122291333"/>
    <tag k="addr:city" v="Зеленоград"/>
    <tag k="addr:housenumber" v="1"/>
    <tag k="addr:street" v="Проектируемый проезд N 687"/>
    <tag k="amenity" v="fuel"/>
    <tag k="building" v="yes"/>
    <tag k="operator" v="Татнефть"/>
  </way>
  <way id="96853261" version="1" timestamp="2011-01-26T19:45:41Z" uid="115477" user="wowik" changeset="7097032">
    <nd ref="1122291344"/>
    <nd ref="1122292802"/>
    <nd ref="1122292521"/>
    <nd ref="1122293015"/>
    <nd ref="1122291344"/>
    <tag k="addr:city" v="Зеленоград"/>
    <tag k="addr:country" v="RU"/>
    <tag k="addr:street" v="Сосновая аллея"/>
    <tag k="building" v="yes"/>
  </way>
  <way id="96853264" version="1" timestamp="2011-01-26T19:45:41Z" uid="115477" user="wowik" changeset="7097032">
    <nd ref="1122291785"/>
    <nd ref="1122292571"/>
    <nd ref="1122291616"/>
    <nd ref="1122293069"/>
    <nd ref="1122291785"/>
    <tag k="addr:city" v="Зеленоград"/>
    <tag k="addr:housenumber" v="2А с2"/>
    <tag k="addr:street" v="Проезд N 687"/>
    <tag k="building" v="yes"/>
  </way>
  <way id="96853264" version="2" timestamp="2011-02-03T14:47:15Z" uid="115477" user="wowik" changeset="7174554">
    <nd ref="1122291785"/>
    <nd ref="1122292571"/>
    <nd ref="1122291616"/>
    <nd ref="1122293069"/>
    <nd ref="1122291785"/>
    <tag k="addr:city" v="Зеленоград"/>
    <tag k="addr:housenumber" v="2А с2"/>
    <tag k="addr:street" v="Проектируемый проезд N 687"/>
    <tag k="building" v="yes"/>
  </way>
  <way id="96853264" version="3" timestamp="2011-02-04T10:02:31Z" uid="115477" user="wowik" changeset="7181523">
    <nd ref="1122291785"/>
    <nd ref="1122292571"/>
    <nd ref="1122291616"/>
    <nd ref="1122293069"/>
    <nd ref="1122291785"/>
    <tag k="addr:city" v="Зеленоград"/>
    <tag k="addr:housenumber" v="2А с1"/>
    <tag k="addr:street" v="Проектируемый проезд N 687"/>
    <tag k="building" v="yes"/>
  </way>
  <way id="96853267" version="1" timestamp="2011-01-26T19:45:41Z" uid="115477" user="wowik" changeset="7097032">
    <nd ref="1122292879"/>
    <nd ref="1122291824"/>
    <nd ref="1122291631"/>
    <nd ref="1122292005"/>
    <nd ref="1122292879"/>
    <tag k="addr:city" v="Зеленоград"/>
    <tag k="building" v="yes"/>
    <tag k="building:use" v="residential"/>
  </way>
  <way id="96853273" version="1" timestamp="2011-01-26T19:45:42Z" uid="115477" user="wowik" changeset="7097032">
    <nd ref="1122292488"/>
    <nd ref="1122291512"/>
    <nd ref="1122291877"/>
    <nd ref="1122292241"/>
    <nd ref="1122292057"/>
    <nd ref="1122292426"/>
    <nd ref="1122292863"/>
    <nd ref="1122290545"/>
    <nd ref="1122292488"/>
    <tag k="addr:city" v="Зеленоград"/>
    <tag k="building" v="yes"/>
  </way>
  <way id="96853274" version="1" timestamp="2011-01-26T19:45:42Z" uid="115477" user="wowik" changeset="7097032">
    <nd ref="1122290675"/>
    <nd ref="1122292215"/>
    <nd ref="1122292552"/>
    <nd ref="1122292400"/>
    <nd ref="1122290675"/>
    <tag k="addr:city" v="Зеленоград"/>
    <tag k="addr:country" v="RU"/>
    <tag k="building" v="yes"/>
  </way>
  <way id="96853274" version="2" timestamp="2011-01-27T12:13:38Z" uid="115477" user="wowik" changeset="7102995">
    <nd ref="1122290675"/>
    <nd ref="1122292215"/>
    <nd ref="1122292552"/>
    <nd ref="1122292400"/>
    <nd ref="1122290675"/>
    <tag k="addr:city" v="Зеленоград"/>
    <tag k="addr:country" v="RU"/>
    <tag k="building" v="yes"/>
    <tag k="building:levels" v="1"/>
  </way>
  <way id="96853279" version="1" timestamp="2011-01-26T19:45:43Z" uid="115477" user="wowik" changeset="7097032">
    <nd ref="1122291094"/>
    <nd ref="1122291930"/>
    <nd ref="1122292271"/>
    <nd ref="1122292669"/>
    <nd ref="1122293186"/>
    <nd ref="1122292901"/>
    <nd ref="1122291094"/>
    <tag k="addr:city" v="Зеленоград"/>
    <tag k="building" v="yes"/>
  </way>
  <way id="96853283" version="1" timestamp="2011-01-26T19:45:43Z" uid="115477" user="wowik" changeset="7097032">
    <nd ref="1122291875"/>
    <nd ref="1122292730"/>
    <nd ref="1122293259"/>
    <nd ref="1122291045"/>
    <nd ref="1122291875"/>
    <tag k="addr:city" v="Зеленоград"/>
    <tag k="addr:housenumber" v="23"/>
    <tag k="addr:street" v="деревня Кутузово"/>
    <tag k="building" v="yes"/>
    <tag k="building:use" v="residential"/>
  </way>
  <way id="96853289" version="1" timestamp="2011-01-26T19:45:43Z" uid="115477" user="wowik" changeset="7097032">
    <nd ref="1122291255"/>
    <nd ref="1122292602"/>
    <nd ref="1122293098"/>
    <nd ref="1122290884"/>
    <nd ref="1122291255"/>
    <tag k="addr:city" v="Зеленоград"/>
    <tag k="addr:country" v="RU"/>
    <tag k="addr:street" v="Сосновая аллея"/>
    <tag k="building" v="yes"/>
  </way>
  <way id="96853291" version="1" timestamp="2011-01-26T19:45:43Z" uid="115477" user="wowik" changeset="7097032">
    <nd ref="1122292700"/>
    <nd ref="1122291677"/>
    <nd ref="1122292030"/>
    <nd ref="1122291873"/>
    <nd ref="1122292700"/>
    <tag k="addr:city" v="Зеленоград"/>
    <tag k="building" v="yes"/>
  </way>
  <way id="96853297" version="1" timestamp="2011-01-26T19:45:44Z" uid="115477" user="wowik" changeset="7097032">
    <nd ref="1122292196"/>
    <nd ref="1122291210"/>
    <nd ref="1122292525"/>
    <nd ref="1122291570"/>
    <nd ref="1122292196"/>
    <tag k="natural" v="water"/>
  </way>
  <way id="96853299" version="1" timestamp="2011-01-26T19:45:44Z" uid="115477" user="wowik" changeset="7097032">
    <nd ref="1122292566"/>
    <nd ref="1122291601"/>
    <nd ref="1122291408"/>
    <nd ref="1122291798"/>
    <nd ref="1122292132"/>
    <nd ref="1122292482"/>
    <nd ref="1122290593"/>
    <nd ref="1122292725"/>
    <nd ref="1122292566"/>
    <tag k="addr:city" v="Зеленоград"/>
    <tag k="building" v="yes"/>
  </way>
  <way id="96853304" version="1" timestamp="2011-01-26T19:45:44Z" uid="115477" user="wowik" changeset="7097032">
    <nd ref="1122291710"/>
    <nd ref="1122293263"/>
    <nd ref="1122292254"/>
    <nd ref="1122293117"/>
    <nd ref="1122292607"/>
    <nd ref="1122291906"/>
    <nd ref="1122292060"/>
    <nd ref="1122291048"/>
    <nd ref="1122291710"/>
    <tag k="natural" v="water"/>
  </way>
  <way id="96853306" version="1" timestamp="2011-01-26T19:45:45Z" uid="115477" user="wowik" changeset="7097032">
    <nd ref="1122290498"/>
    <nd ref="1122292118"/>
    <nd ref="1122291961"/>
    <nd ref="1122292298"/>
    <nd ref="1122290498"/>
    <tag k="addr:city" v="Зеленоград"/>
    <tag k="addr:housenumber" v="69"/>
    <tag k="addr:street" v="деревня Кутузово"/>
    <tag k="building" v="yes"/>
    <tag k="building:use" v="residential"/>
  </way>
  <way id="96853316" version="1" timestamp="2011-01-26T19:45:45Z" uid="115477" user="wowik" changeset="7097032">
    <nd ref="1122292381"/>
    <nd ref="1122291364"/>
    <nd ref="1122292842"/>
    <nd ref="1122292297"/>
    <nd ref="1122292381"/>
    <tag k="natural" v="water"/>
  </way>
  <way id="96853322" version="1" timestamp="2011-01-26T19:45:46Z" uid="115477" user="wowik" changeset="7097032">
    <nd ref="1122292880"/>
    <nd ref="1122291825"/>
    <nd ref="1122292162"/>
    <nd ref="1122292006"/>
    <nd ref="1122292356"/>
    <nd ref="1122292797"/>
    <nd ref="1122292880"/>
    <tag k="addr:city" v="Зеленоград"/>
    <tag k="building" v="yes"/>
  </way>
  <way id="96853326" version="1" timestamp="2011-01-26T19:45:46Z" uid="115477" user="wowik" changeset="7097032">
    <nd ref="1122293238"/>
    <nd ref="1122291508"/>
    <nd ref="1122291866"/>
    <nd ref="1122292221"/>
    <nd ref="1122293238"/>
    <tag k="addr:city" v="Зеленоград"/>
    <tag k="building" v="yes"/>
  </way>
  <way id="96853335" version="1" timestamp="2011-01-26T19:45:46Z" uid="115477" user="wowik" changeset="7097032">
    <nd ref="1122290780"/>
    <nd ref="1122292268"/>
    <nd ref="1122292103"/>
    <nd ref="1122292458"/>
    <nd ref="1122292893"/>
    <nd ref="1122290619"/>
    <nd ref="1122293192"/>
    <nd ref="1122290989"/>
    <nd ref="1122291357"/>
    <nd ref="1122290780"/>
    <tag k="natural" v="water"/>
  </way>
  <way id="96853338" version="1" timestamp="2011-01-26T19:45:47Z" uid="115477" user="wowik" changeset="7097032">
    <nd ref="1122291129"/>
    <nd ref="1122292470"/>
    <nd ref="1122291482"/>
    <nd ref="1122292905"/>
    <nd ref="1122291292"/>
    <nd ref="1122292696"/>
    <nd ref="1122291674"/>
    <nd ref="1122293241"/>
    <nd ref="1122292027"/>
    <nd ref="1122290995"/>
    <nd ref="1122292386"/>
    <nd ref="1122291385"/>
    <nd ref="1122292222"/>
    <nd ref="1122291222"/>
    <nd ref="1122292563"/>
    <nd ref="1122291599"/>
    <nd ref="1122293053"/>
    <nd ref="1122291964"/>
    <nd ref="1122291129"/>
    <tag k="building" v="yes"/>
  </way>
  <way id="96853348" version="1" timestamp="2011-01-26T19:45:47Z" uid="115477" user="wowik" changeset="7097032">
    <nd ref="1122291245"/>
    <nd ref="1122292584"/>
    <nd ref="1122291620"/>
    <nd ref="1122293071"/>
    <nd ref="1122291245"/>
    <tag k="addr:city" v="Зеленоград"/>
    <tag k="addr:housenumber" v="2 с3"/>
    <tag k="addr:street" v="Проезд N 4807"/>
    <tag k="building" v="yes"/>
  </way>
  <way id="96853348" version="2" timestamp="2011-01-27T12:14:01Z" uid="115477" user="wowik" changeset="7102995">
    <nd ref="1122291245"/>
    <nd ref="1122292584"/>
    <nd ref="1122291620"/>
    <nd ref="1122293071"/>
    <nd ref="1122291245"/>
    <tag k="addr:city" v="Зеленоград"/>
    <tag k="addr:housenumber" v="2 с2"/>
    <tag k="addr:street" v="Проезд N 4807"/>
    <tag k="building" v="yes"/>
    <tag k="building:levels" v="1"/>
  </way>
  <way id="96853357" version="1" timestamp="2011-01-26T19:45:48Z" uid="115477" user="wowik" changeset="7097032">
    <nd ref="1122292045"/>
    <nd ref="1122291013"/>
    <nd ref="1122290689"/>
    <nd ref="1122291233"/>
    <nd ref="1122292045"/>
    <tag k="addr:city" v="Зеленоград"/>
    <tag k="addr:country" v="RU"/>
    <tag k="addr:street" v="Сосновая аллея"/>
    <tag k="building" v="yes"/>
  </way>
  <way id="96853360" version="1" timestamp="2011-01-26T19:45:48Z" uid="115477" user="wowik" changeset="7097032">
    <nd ref="1122290986"/>
    <nd ref="1122292363"/>
    <nd ref="1122292828"/>
    <nd ref="1122292538"/>
    <nd ref="1122290986"/>
    <tag k="addr:city" v="Зеленоград"/>
    <tag k="addr:street" v="деревня Кутузово"/>
    <tag k="building" v="yes"/>
    <tag k="building:use" v="residential"/>
  </way>
  <way id="96853364" version="1" timestamp="2011-01-26T19:45:49Z" uid="115477" user="wowik" changeset="7097032">
    <nd ref="1122293244"/>
    <nd ref="1122292029"/>
    <nd ref="1122291872"/>
    <nd ref="1122292224"/>
    <nd ref="1122292560"/>
    <nd ref="1122293052"/>
    <nd ref="1122293244"/>
    <tag k="addr:city" v="Зеленоград"/>
    <tag k="addr:country" v="RU"/>
    <tag k="addr:housenumber" v="12 с4"/>
    <tag k="addr:street" v="Сосновая аллея"/>
    <tag k="building" v="yes"/>
  </way>
  <way id="96853367" version="1" timestamp="2011-01-26T19:45:49Z" uid="115477" user="wowik" changeset="7097032">
    <nd ref="1122293091"/>
    <nd ref="1122291978"/>
    <nd ref="1122292325"/>
    <nd ref="1122292750"/>
    <nd ref="1122293091"/>
    <tag k="addr:city" v="Зеленоград"/>
    <tag k="building" v="yes"/>
  </way>
  <way id="96853371" version="1" timestamp="2011-01-26T19:45:50Z" uid="115477" user="wowik" changeset="7097032">
    <nd ref="1122290784"/>
    <nd ref="1122291777"/>
    <nd ref="1122293194"/>
    <nd ref="1122292367"/>
    <nd ref="1122291132"/>
    <nd ref="450657972"/>
    <nd ref="1122290784"/>
    <tag k="building" v="yes"/>
    <tag k="building:levels" v="1"/>
  </way>
  <way id="96853372" version="1" timestamp="2011-01-26T19:45:50Z" uid="115477" user="wowik" changeset="7097032">
    <nd ref="1122291213"/>
    <nd ref="1122292529"/>
    <nd ref="1122293032"/>
    <nd ref="1122292847"/>
    <nd ref="1122293304"/>
    <nd ref="1122291124"/>
    <nd ref="1122291480"/>
    <nd ref="1122291290"/>
    <nd ref="1122291672"/>
    <nd ref="1122292024"/>
    <nd ref="1122292383"/>
    <nd ref="1122292220"/>
    <nd ref="1122292558"/>
    <nd ref="1122291213"/>
    <tag k="addr:city" v="Зеленоград"/>
    <tag k="addr:country" v="RU"/>
    <tag k="addr:street" v="Сосновая аллея"/>
    <tag k="building" v="yes"/>
  </way>
  <way id="96853377" version="1" timestamp="2011-01-26T19:45:51Z" uid="115477" user="wowik" changeset="7097032">
    <nd ref="1122290889"/>
    <nd ref="1122292328"/>
    <nd ref="1122292754"/>
    <nd ref="1122292498"/>
    <nd ref="1122292963"/>
    <nd ref="1122290738"/>
    <nd ref="1122291259"/>
    <nd ref="1122291088"/>
    <nd ref="1122290889"/>
    <tag k="addr:city" v="Зеленоград"/>
    <tag k="building" v="yes"/>
  </way>
  <way id="96853380" version="1" timestamp="2011-01-26T19:45:51Z" uid="115477" user="wowik" changeset="7097032">
    <nd ref="1122290683"/>
    <nd ref="1122292218"/>
    <nd ref="1122292555"/>
    <nd ref="1122293049"/>
    <nd ref="1122290827"/>
    <nd ref="1122290522"/>
    <nd ref="1122291135"/>
    <nd ref="1122291504"/>
    <nd ref="1122290683"/>
    <tag k="addr:city" v="Зеленоград"/>
    <tag k="building" v="yes"/>
  </way>
  <way id="96853381" version="1" timestamp="2011-01-26T19:45:51Z" uid="115477" user="wowik" changeset="7097032">
    <nd ref="1122291831"/>
    <nd ref="1122290641"/>
    <nd ref="1122291207"/>
    <nd ref="1122290992"/>
    <nd ref="1122291361"/>
    <nd ref="1122291748"/>
    <nd ref="1122292108"/>
    <nd ref="1122291954"/>
    <nd ref="1122292290"/>
    <nd ref="1122292691"/>
    <nd ref="1122291831"/>
    <tag k="addr:city" v="Зеленоград"/>
    <tag k="addr:country" v="RU"/>
    <tag k="addr:housenumber" v="6 с18"/>
    <tag k="addr:street" v="Сосновая аллея"/>
    <tag k="building" v="yes"/>
  </way>
  <way id="96853385" version="1" timestamp="2011-01-26T19:45:52Z" uid="115477" user="wowik" changeset="7097032">
    <nd ref="1122290664"/>
    <nd ref="1122292201"/>
    <nd ref="1122292026"/>
    <nd ref="1122292385"/>
    <nd ref="1122290664"/>
    <tag k="addr:city" v="Зеленоград"/>
    <tag k="addr:housenumber" v="3"/>
    <tag k="addr:street" v="деревня Кутузово"/>
    <tag k="building" v="yes"/>
    <tag k="building:use" v="residential"/>
  </way>
  <way id="96853389" version="1" timestamp="2011-01-26T19:45:53Z" uid="115477" user="wowik" changeset="7097032">
    <nd ref="1122291448"/>
    <nd ref="1122292877"/>
    <nd ref="1122291802"/>
    <nd ref="1122290556"/>
    <nd ref="1122292145"/>
    <nd ref="1122291154"/>
    <nd ref="1122292491"/>
    <nd ref="1122291528"/>
    <nd ref="1122292331"/>
    <nd ref="1122291335"/>
    <nd ref="1122292759"/>
    <nd ref="1122291711"/>
    <nd ref="1122293267"/>
    <nd ref="1122291448"/>
    <tag k="natural" v="water"/>
  </way>
  <way id="96853392" version="1" timestamp="2011-01-26T19:45:53Z" uid="115477" user="wowik" changeset="7097032">
    <nd ref="1122292923"/>
    <nd ref="1122291853"/>
    <nd ref="1122292204"/>
    <nd ref="1122292546"/>
    <nd ref="1122292923"/>
    <tag k="addr:city" v="Зеленоград"/>
    <tag k="building" v="yes"/>
  </way>
  <way id="96853392" version="2" timestamp="2011-01-30T17:37:25Z" uid="115477" user="wowik" changeset="7136999">
    <nd ref="1122292923"/>
    <nd ref="1122291853"/>
    <nd ref="1122292204"/>
    <nd ref="1122292546"/>
    <nd ref="1122292923"/>
    <tag k="addr:city" v="Зеленоград"/>
    <tag k="addr:housenumber" v="55 с1А"/>
    <tag k="addr:street" v="деревня Кутузово"/>
    <tag k="building" v="yes"/>
    <tag k="building:levels" v="1"/>
  </way>
  <way id="96853393" version="1" timestamp="2011-01-26T19:45:54Z" uid="115477" user="wowik" changeset="7097032">
    <nd ref="1122293030"/>
    <nd ref="1122291931"/>
    <nd ref="1122292279"/>
    <nd ref="1122292114"/>
    <nd ref="1122292466"/>
    <nd ref="1122292903"/>
    <nd ref="1122290644"/>
    <nd ref="1122293232"/>
    <nd ref="1122290993"/>
    <nd ref="1122291376"/>
    <nd ref="1122291765"/>
    <nd ref="1122291597"/>
    <nd ref="1122291956"/>
    <nd ref="1122293030"/>
    <tag k="natural" v="water"/>
  </way>
  <way id="96853395" version="1" timestamp="2011-01-26T19:45:54Z" uid="115477" user="wowik" changeset="7097032">
    <nd ref="1122291019"/>
    <nd ref="1122292407"/>
    <nd ref="1122292246"/>
    <nd ref="1122292589"/>
    <nd ref="1122293077"/>
    <nd ref="1122290844"/>
    <nd ref="1122291019"/>
    <tag k="addr:city" v="Зеленоград"/>
    <tag k="addr:street" v="деревня Кутузово"/>
    <tag k="building" v="yes"/>
  </way>
  <way id="96853397" version="1" timestamp="2011-01-26T19:45:54Z" uid="115477" user="wowik" changeset="7097032">
    <nd ref="1122290841"/>
    <nd ref="1122292307"/>
    <nd ref="1122291307"/>
    <nd ref="1122292709"/>
    <nd ref="1122290841"/>
    <tag k="addr:city" v="Зеленоград"/>
    <tag k="addr:housenumber" v="2 с1"/>
    <tag k="addr:street" v="Проезд N 687"/>
    <tag k="building" v="yes"/>
    <tag k="building:levels" v="1"/>
  </way>
  <way id="96853397" version="2" timestamp="2011-02-03T14:47:15Z" uid="115477" user="wowik" changeset="7174554">
    <nd ref="1122290841"/>
    <nd ref="1122292307"/>
    <nd ref="1122291307"/>
    <nd ref="1122292709"/>
    <nd ref="1122290841"/>
    <tag k="addr:city" v="Зеленоград"/>
    <tag k="addr:housenumber" v="2 с1"/>
    <tag k="addr:street" v="Проектируемый проезд N 687"/>
    <tag k="building" v="yes"/>
    <tag k="building:levels" v="1"/>
  </way>
  <way id="96853399" version="1" timestamp="2011-01-26T19:45:54Z" uid="115477" user="wowik" changeset="7097032">
    <nd ref="1122292854"/>
    <nd ref="1122291773"/>
    <nd ref="1122292122"/>
    <nd ref="1122291967"/>
    <nd ref="1122292854"/>
    <tag k="addr:city" v="Зеленоград"/>
    <tag k="addr:housenumber" v="55А"/>
    <tag k="addr:street" v="деревня Кутузово"/>
    <tag k="building" v="yes"/>
    <tag k="building:use" v="residential"/>
  </way>
  <way id="96853402" version="1" timestamp="2011-01-26T19:45:55Z" uid="115477" user="wowik" changeset="7097032">
    <nd ref="1122292633"/>
    <nd ref="1122291629"/>
    <nd ref="1122292003"/>
    <nd ref="1122292332"/>
    <nd ref="1122292771"/>
    <nd ref="1122292511"/>
    <nd ref="1122292633"/>
    <tag k="addr:city" v="Зеленоград"/>
    <tag k="building" v="yes"/>
    <tag k="building:use" v="residential"/>
  </way>
  <way id="96853404" version="1" timestamp="2011-01-26T19:45:55Z" uid="115477" user="wowik" changeset="7097032">
    <nd ref="1122291193"/>
    <nd ref="1122292505"/>
    <nd ref="1122292997"/>
    <nd ref="1122290754"/>
    <nd ref="1122291193"/>
    <tag k="addr:city" v="Зеленоград"/>
    <tag k="addr:street" v="деревня Кутузово"/>
    <tag k="building" v="yes"/>
  </way>
</osm>
