<?xml version='1.0' encoding='UTF-8'?>
<osm version="0.6" generator="libosmium/2.20.0">
  <way id="96960794" version="1" timestamp="2011-01-27T17:31:02Z" uid="115477" user="wowik" changeset="7105638">
    <nd ref="1123585706"/>
    <nd ref="1123585649"/>
    <nd ref="1123585814"/>
    <nd ref="1123585689"/>
    <nd ref="1123585706"/>
    <tag k="leisure" v="pitch"/>
  </way>
  <way id="96960795" version="1" timestamp="2011-01-27T17:31:02Z" uid="115477" user="wowik" changeset="7105638">
    <nd ref="1123585759"/>
    <nd ref="1123585707"/>
    <nd ref="1123585600"/>
    <nd ref="1123585890"/>
    <nd ref="1123585759"/>
    <tag k="addr:city" v="Зеленоград"/>
    <tag k="addr:street" v="Никольский проезд"/>
    <tag k="building" v="yes"/>
    <tag k="is_in" v="Russia"/>
  </way>
  <way id="96960796" version="1" timestamp="2011-01-27T17:31:03Z" uid="115477" user="wowik" changeset="7105638">
    <nd ref="1123585717"/>
    <nd ref="1123585659"/>
    <nd ref="1123585643"/>
    <nd ref="1123585805"/>
    <nd ref="1123585717"/>
    <tag k="addr:city" v="Зеленоград"/>
    <tag k="addr:housenumber" v="5 с1"/>
    <tag k="addr:street" v="Никольский проезд"/>
    <tag k="building" v="yes"/>
    <tag k="building:levels" v="1"/>
    <tag k="is_in" v="Russia"/>
    <tag k="landuse" v="service"/>
  </way>
  <way id="96960797" version="1" timestamp="2011-01-27T17:31:03Z" uid="115477" user="wowik" changeset="7105638">
    <nd ref="1123585741"/>
    <nd ref="1123585789"/>
    <nd ref="1123585678"/>
    <nd ref="1123585852"/>
    <nd ref="1123585741"/>
    <tag k="leisure" v="pitch"/>
  </way>
  <way id="96960798" version="1" timestamp="2011-01-27T17:31:03Z" uid="115477" user="wowik" changeset="7105638">
    <nd ref="1123585743"/>
    <nd ref="1123585688"/>
    <nd ref="1123585875"/>
    <nd ref="1123585735"/>
    <nd ref="1123585620"/>
    <nd ref="1123585616"/>
    <nd ref="1123585758"/>
    <nd ref="1123585647"/>
    <nd ref="1123585808"/>
    <nd ref="1123585799"/>
    <nd ref="1123585743"/>
    <tag k="building" v="yes"/>
  </way>
  <way id="96960800" version="1" timestamp="2011-01-27T17:31:03Z" uid="115477" user="wowik" changeset="7105638">
    <nd ref="1123585868"/>
    <nd ref="1123585779"/>
    <nd ref="1123585761"/>
    <nd ref="1123585661"/>
    <nd ref="1123585868"/>
    <tag k="building" v="yes"/>
  </way>
  <way id="96960802" version="1" timestamp="2011-01-27T17:31:04Z" uid="115477" user="wowik" changeset="7105638">
    <nd ref="1123585630"/>
    <nd ref="1123585870"/>
    <nd ref="1123585727"/>
    <nd ref="1123585719"/>
    <nd ref="1123585630"/>
    <tag k="addr:city" v="Зеленоград"/>
    <tag k="addr:street" v="Никольский проезд"/>
    <tag k="building" v="yes"/>
    <tag k="is_in" v="Russia"/>
  </way>
  <way id="96960803" version="1" timestamp="2011-01-27T17:31:04Z" uid="115477" user="wowik" changeset="7105638">
    <nd ref="1123585710"/>
    <nd ref="1123585657"/>
    <nd ref="1123585820"/>
    <nd ref="1123585693"/>
    <nd ref="1123585710"/>
    <tag k="addr:city" v="Зеленоград"/>
    <tag k="addr:housenumber" v="3 с1"/>
    <tag k="addr:street" v="Никольский проезд"/>
    <tag k="building" v="yes"/>
    <tag k="building:levels" v="1"/>
    <tag k="is_in" v="Russia"/>
    <tag k="landuse" v="service"/>
  </way>
</osm>
