<?xml version='1.0' encoding='UTF-8'?>
<osm version="0.6" generator="libosmium/2.20.0">
  <way id="97279231" version="1" timestamp="2011-01-29T20:25:09Z" uid="33382" user="de_muur" changeset="7126896">
    <nd ref="1126774500"/>
    <nd ref="33601199"/>
    <nd ref="33601200"/>
    <nd ref="33601202"/>
    <nd ref="33601205"/>
    <nd ref="33601207"/>
    <nd ref="33601209"/>
    <nd ref="33601211"/>
    <nd ref="33601213"/>
    <nd ref="33601215"/>
    <tag k="highway" v="secondary"/>
    <tag k="name" v="Hustedter Straße"/>
    <tag k="ref" v="L 202"/>
    <tag k="surface" v="paved"/>
  </way>
  <way id="97279233" version="1" timestamp="2011-01-29T20:25:09Z" uid="33382" user="de_muur" changeset="7126896">
    <nd ref="1126774497"/>
    <nd ref="97955461"/>
    <tag k="highway" v="secondary"/>
    <tag k="name" v="Holtumer Hauptstraße"/>
    <tag k="ref" v="L 202"/>
    <tag k="surface" v="paved"/>
  </way>
  <way id="97279233" version="2" timestamp="2011-02-03T19:44:24Z" uid="33382" user="de_muur" changeset="7177104">
    <nd ref="1126774497"/>
    <nd ref="97955461"/>
    <tag k="highway" v="secondary"/>
    <tag k="name" v="Hustedter Dorfstraße"/>
    <tag k="ref" v="L 202"/>
    <tag k="surface" v="paved"/>
  </way>
  <way id="97279236" version="1" timestamp="2011-01-29T20:25:10Z" uid="33382" user="de_muur" changeset="7126896">
    <nd ref="107633496"/>
    <nd ref="97955467"/>
    <nd ref="256128429"/>
    <tag k="highway" v="secondary"/>
    <tag k="name" v="Holtumer Hauptstraße"/>
    <tag k="ref" v="L 202"/>
    <tag k="surface" v="paved"/>
  </way>
  <way id="97279237" version="1" timestamp="2011-01-29T20:25:10Z" uid="33382" user="de_muur" changeset="7126896">
    <nd ref="97955461"/>
    <nd ref="107633496"/>
    <tag k="highway" v="secondary"/>
    <tag k="name" v="Holtumer Hauptstraße"/>
    <tag k="ref" v="L 202"/>
    <tag k="surface" v="paved"/>
  </way>
  <way id="97279238" version="1" timestamp="2011-01-29T20:25:10Z" uid="33382" user="de_muur" changeset="7126896">
    <nd ref="256128415"/>
    <nd ref="256128414"/>
    <nd ref="1126774497"/>
    <tag k="highway" v="secondary"/>
    <tag k="maxspeed" v="50"/>
    <tag k="name" v="Holtumer Hauptstraße"/>
    <tag k="ref" v="L 202"/>
    <tag k="surface" v="paved"/>
  </way>
  <way id="97279238" version="2" timestamp="2011-02-03T19:44:25Z" uid="33382" user="de_muur" changeset="7177104">
    <nd ref="256128415"/>
    <nd ref="256128414"/>
    <nd ref="1126774497"/>
    <tag k="highway" v="secondary"/>
    <tag k="maxspeed" v="50"/>
    <tag k="name" v="Hustedter Dorfstraße"/>
    <tag k="ref" v="L 202"/>
    <tag k="surface" v="paved"/>
  </way>
  <way id="97279241" version="1" timestamp="2011-01-29T20:25:11Z" uid="9581" user="Lobelt" changeset="7126894">
    <nd ref="1126774542"/>
    <nd ref="1126774357"/>
    <nd ref="1126774327"/>
    <nd ref="1126774504"/>
    <nd ref="1126774542"/>
    <tag k="landuse" v="residential"/>
  </way>
  <way id="97279242" version="1" timestamp="2011-01-29T20:25:11Z" uid="9581" user="Lobelt" changeset="7126894">
    <nd ref="261615648"/>
    <nd ref="1126774388"/>
    <nd ref="261615658"/>
    <nd ref="261615671"/>
    <nd ref="261615684"/>
    <nd ref="261615695"/>
    <nd ref="322800091"/>
    <nd ref="261615203"/>
    <nd ref="311126784"/>
    <nd ref="261615708"/>
    <tag k="highway" v="tertiary"/>
    <tag k="maxspeed" v="50"/>
    <tag k="name" v="Braunschweiger Allee"/>
  </way>
  <way id="97279244" version="1" timestamp="2011-01-29T20:25:12Z" uid="9581" user="Lobelt" changeset="7126894">
    <nd ref="1126774486"/>
    <nd ref="27427977"/>
    <nd ref="27427978"/>
    <nd ref="265627005"/>
    <nd ref="27427979"/>
    <nd ref="81497925"/>
    <nd ref="27427980"/>
    <nd ref="27427981"/>
    <nd ref="27427982"/>
    <nd ref="249626153"/>
    <nd ref="27427983"/>
    <nd ref="27427984"/>
    <nd ref="27427985"/>
    <nd ref="27427986"/>
    <nd ref="738112659"/>
    <nd ref="27427987"/>
    <nd ref="27427988"/>
    <nd ref="27427989"/>
    <nd ref="27427990"/>
    <nd ref="582138232"/>
    <tag k="highway" v="primary"/>
    <tag k="lanes" v="2"/>
    <tag k="maxspeed" v="50"/>
    <tag k="oneway" v="yes"/>
    <tag k="ref" v="B 44"/>
  </way>
  <way id="97279245" version="1" timestamp="2011-01-29T20:25:12Z" uid="9581" user="Lobelt" changeset="7126894">
    <nd ref="1126774522"/>
    <nd ref="1126774454"/>
    <nd ref="1126774430"/>
    <nd ref="1126774361"/>
    <nd ref="1126774452"/>
    <nd ref="702243885"/>
    <tag k="highway" v="track"/>
    <tag k="tracktype" v="grade2"/>
  </way>
  <way id="97279246" version="1" timestamp="2011-01-29T20:25:13Z" uid="9581" user="Lobelt" changeset="7126894">
    <nd ref="710842227"/>
    <nd ref="1126774525"/>
    <nd ref="1126774391"/>
    <nd ref="1126774459"/>
    <nd ref="1126774401"/>
    <tag k="highway" v="motorway_link"/>
    <tag k="lanes" v="2"/>
    <tag k="oneway" v="yes"/>
  </way>
  <way id="97279247" version="1" timestamp="2011-01-29T20:25:13Z" uid="9581" user="Lobelt" changeset="7126894">
    <nd ref="1126774450"/>
    <nd ref="1126774490"/>
    <nd ref="1126774428"/>
    <nd ref="1126774364"/>
    <nd ref="1126774476"/>
    <nd ref="1126774407"/>
    <nd ref="1126774384"/>
    <nd ref="1126774527"/>
    <nd ref="1126774399"/>
    <nd ref="1126774548"/>
    <nd ref="1126774526"/>
    <nd ref="1126774470"/>
    <nd ref="1126774340"/>
    <nd ref="1126774508"/>
    <nd ref="1126774450"/>
    <tag k="barrier" v="fence"/>
    <tag k="landuse" v="military"/>
  </way>
  <way id="97279249" version="1" timestamp="2011-01-29T20:25:14Z" uid="9581" user="Lobelt" changeset="7126894">
    <nd ref="702818212"/>
    <nd ref="1126774506"/>
    <nd ref="1126774432"/>
    <nd ref="1126774416"/>
    <tag k="railway" v="rail"/>
    <tag k="service" v="siding"/>
  </way>
  <way id="97279251" version="1" timestamp="2011-01-29T20:25:14Z" uid="9581" user="Lobelt" changeset="7126894">
    <nd ref="1126774330"/>
    <nd ref="1126774382"/>
    <nd ref="1126774539"/>
    <nd ref="1126774353"/>
    <nd ref="1126774330"/>
    <tag k="building" v="yes"/>
  </way>
  <way id="97279252" version="1" timestamp="2011-01-29T20:25:15Z" uid="9581" user="Lobelt" changeset="7126894">
    <nd ref="1126774387"/>
    <nd ref="1126774522"/>
    <tag k="highway" v="track"/>
    <tag k="tracktype" v="grade2"/>
  </way>
  <way id="97279254" version="1" timestamp="2011-01-29T20:25:15Z" uid="9581" user="Lobelt" changeset="7126894">
    <nd ref="1126774366"/>
    <nd ref="702243910"/>
    <nd ref="702243912"/>
    <nd ref="702243889"/>
    <nd ref="505174802"/>
    <nd ref="1018912206"/>
    <tag k="highway" v="track"/>
    <tag k="surface" v="gravel"/>
    <tag k="tracktype" v="grade2"/>
  </way>
  <way id="97279256" version="1" timestamp="2011-01-29T20:25:15Z" uid="9581" user="Lobelt" changeset="7126894">
    <nd ref="1126774545"/>
    <nd ref="1126774473"/>
    <nd ref="25283666"/>
    <nd ref="25283667"/>
    <tag k="highway" v="primary"/>
    <tag k="lanes" v="2"/>
    <tag k="maxspeed" v="50"/>
    <tag k="oneway" v="yes"/>
    <tag k="ref" v="B 44"/>
  </way>
  <way id="97279260" version="1" timestamp="2011-01-29T20:25:16Z" uid="9581" user="Lobelt" changeset="7126894">
    <nd ref="1126774328"/>
    <nd ref="1126774515"/>
    <nd ref="1126774453"/>
    <nd ref="1126774544"/>
    <nd ref="1126774478"/>
    <nd ref="1126774457"/>
    <nd ref="1126774389"/>
    <nd ref="1126774477"/>
    <nd ref="1126774410"/>
    <nd ref="1126774386"/>
    <nd ref="1126774530"/>
    <nd ref="1126774429"/>
    <nd ref="1126774350"/>
    <nd ref="1126774321"/>
    <nd ref="1126774501"/>
    <nd ref="1126774344"/>
    <nd ref="1126774514"/>
    <nd ref="1126774489"/>
    <nd ref="1126774427"/>
    <nd ref="1126774524"/>
    <nd ref="1126774456"/>
    <tag k="barrier" v="wall"/>
  </way>
</osm>
