<?xml version='1.0' encoding='UTF-8'?>
<osm version="0.6" generator="libosmium/2.20.0">
  <way id="9788161" version="14" timestamp="2009-07-26T01:12:31Z" uid="4467" user="Rosscoe" changeset="1939873">
    <nd ref="300551018"/>
    <nd ref="322874799"/>
    <tag k="highway" v="residential"/>
    <tag k="lanes" v="1"/>
    <tag k="maxspeed" v="50"/>
    <tag k="name" v="Todd Steet"/>
    <tag k="noname" v="&lt;different&gt;"/>
    <tag k="source" v="survey"/>
    <tag k="surface" v="paved"/>
  </way>
  <way id="9788161" version="15" timestamp="2009-07-26T01:21:32Z" uid="4467" user="Rosscoe" changeset="1939895">
    <nd ref="300551018"/>
    <nd ref="322874799"/>
    <tag k="highway" v="residential"/>
    <tag k="lanes" v="1"/>
    <tag k="maxspeed" v="50"/>
    <tag k="name" v="Todd Steet"/>
    <tag k="source" v="survey"/>
    <tag k="surface" v="paved"/>
  </way>
  <way id="9788161" version="16" timestamp="2010-06-02T13:03:55Z" uid="4467" user="Rosscoe" changeset="4883781">
    <nd ref="300551018"/>
    <nd ref="322874799"/>
    <tag k="highway" v="residential"/>
    <tag k="lanes" v="1"/>
    <tag k="maxspeed" v="50"/>
    <tag k="name" v="Todd Street"/>
    <tag k="source" v="survey"/>
    <tag k="surface" v="paved"/>
  </way>
  <way id="9788247" version="2" timestamp="2010-02-14T17:15:42Z" uid="74617" user="JohnSmith" changeset="3875836">
    <nd ref="77948536"/>
    <nd ref="77948574"/>
    <tag k="highway" v="service"/>
    <tag k="maxspeed" v="50"/>
  </way>
  <way id="9788253" version="3" timestamp="2010-02-14T17:15:42Z" uid="74617" user="JohnSmith" changeset="3875836">
    <nd ref="77948574"/>
    <nd ref="77948616"/>
    <nd ref="77948665"/>
    <nd ref="26335174"/>
    <tag k="highway" v="service"/>
    <tag k="maxspeed" v="50"/>
    <tag k="name" v="Gotha Street"/>
    <tag k="oneway" v="yes"/>
  </way>
  <way id="9788407" version="3" timestamp="2010-02-14T17:13:45Z" uid="74617" user="JohnSmith" changeset="3875836">
    <nd ref="77950656"/>
    <nd ref="26335087"/>
    <nd ref="26335154"/>
    <tag k="highway" v="residential"/>
    <tag k="maxspeed" v="50"/>
    <tag k="name" v="Alfred Street"/>
  </way>
  <way id="9788943" version="5" timestamp="2008-08-30T11:37:38Z" uid="7617" user="Franc" changeset="458332">
    <nd ref="15407235"/>
    <nd ref="15407250"/>
    <nd ref="8588632"/>
    <nd ref="77956752"/>
    <tag k="abutters" v="retail"/>
    <tag k="created_by" v="Potlatch alpha"/>
    <tag k="highway" v="secondary"/>
    <tag k="image" v="80n:dsc03995.jpg"/>
    <tag k="name" v="Druitt Street"/>
    <tag k="oneway" v="yes"/>
  </way>
  <way id="9788943" version="6" timestamp="2008-12-23T19:44:43Z" uid="7617" user="Franc" changeset="571232">
    <nd ref="15407235"/>
    <nd ref="321335154"/>
    <nd ref="15407250"/>
    <nd ref="8588632"/>
    <nd ref="77956752"/>
    <tag k="abutters" v="retail"/>
    <tag k="created_by" v="Potlatch alpha"/>
    <tag k="highway" v="secondary"/>
    <tag k="image" v="80n:dsc03995.jpg"/>
    <tag k="name" v="Druitt Street"/>
    <tag k="oneway" v="yes"/>
  </way>
  <way id="9788943" version="9" timestamp="2010-01-06T00:57:56Z" uid="30201" user="rrankin" changeset="3550442">
    <nd ref="15407235"/>
    <nd ref="321335154"/>
    <nd ref="15407250"/>
    <nd ref="8588632"/>
    <tag k="highway" v="secondary"/>
    <tag k="image" v="80n:dsc03995.jpg"/>
    <tag k="name" v="Druitt Street"/>
    <tag k="oneway" v="yes"/>
  </way>
</osm>
