<?xml version='1.0' encoding='UTF-8'?>
<osm version="0.6" generator="libosmium/2.20.0">
  <way id="97942197" version="1" timestamp="2011-02-03T10:01:23Z" uid="115477" user="wowik" changeset="7172513">
    <nd ref="1133608873"/>
    <nd ref="1133608869"/>
    <nd ref="1133608879"/>
    <nd ref="1133608872"/>
    <nd ref="1133608873"/>
    <tag k="building" v="yes"/>
  </way>
  <way id="97942198" version="1" timestamp="2011-02-03T10:01:23Z" uid="115477" user="wowik" changeset="7172513">
    <nd ref="1132507045"/>
    <nd ref="1133608870"/>
    <nd ref="1133608880"/>
    <nd ref="1132506715"/>
  </way>
  <way id="97942198" version="2" timestamp="2011-04-01T18:16:53Z" uid="115477" user="wowik" changeset="7737524">
    <nd ref="1132507045"/>
    <nd ref="1133608870"/>
    <nd ref="1133608880"/>
    <nd ref="1132506715"/>
    <nd ref="1132507045"/>
    <tag k="building" v="yes"/>
  </way>
  <way id="97942199" version="1" timestamp="2011-02-03T10:01:23Z" uid="115477" user="wowik" changeset="7172513">
    <nd ref="1133608884"/>
    <nd ref="1133608878"/>
    <nd ref="1133608871"/>
    <nd ref="1133608881"/>
    <nd ref="1133608884"/>
    <tag k="addr:city" v="Зеленоград"/>
    <tag k="addr:housenumber" v="7 с2"/>
    <tag k="addr:street" v="3-й Западный проезд"/>
    <tag k="building" v="yes"/>
  </way>
  <way id="97942316" version="1" timestamp="2011-02-03T10:05:31Z" uid="115477" user="wowik" changeset="7172552">
    <nd ref="1133610839"/>
    <nd ref="700728921"/>
    <nd ref="1132652929"/>
    <nd ref="1133610834"/>
    <nd ref="1133610839"/>
    <tag k="addr:city" v="Зеленоград"/>
    <tag k="addr:country" v="RU"/>
    <tag k="addr:housenumber" v="12 с2"/>
    <tag k="addr:street" v="3-й Западный проезд"/>
    <tag k="building" v="yes"/>
    <tag k="note" v="addr:housenumber нeточен"/>
  </way>
  <way id="97942693" version="3" timestamp="2011-03-27T16:16:25Z" uid="9581" user="Lobelt" changeset="7687858">
    <nd ref="886465993"/>
    <nd ref="30422180"/>
    <nd ref="886449327"/>
    <nd ref="29561659"/>
    <nd ref="1221702184"/>
    <tag k="cycleway" v="track"/>
    <tag k="highway" v="secondary"/>
    <tag k="lcn" v="yes"/>
    <tag k="maxspeed" v="50"/>
    <tag k="name" v="Neuschloßstraße"/>
    <tag k="ref" v="L 3110"/>
  </way>
</osm>
