<?xml version='1.0' encoding='UTF-8'?>
<osm version="0.6" generator="libosmium/2.20.0">
  <way id="98364714" version="1" timestamp="2011-02-05T21:15:22Z" uid="9581" user="Lobelt" changeset="7197353">
    <nd ref="304045696"/>
    <nd ref="1118528619"/>
    <nd ref="263440073"/>
    <tag k="highway" v="tertiary"/>
    <tag k="maxspeed" v="50"/>
    <tag k="name" v="Vogesenstraße"/>
  </way>
  <way id="98364716" version="1" timestamp="2011-02-05T21:15:23Z" uid="9581" user="Lobelt" changeset="7197353">
    <nd ref="1138002757"/>
    <nd ref="285961734"/>
    <nd ref="271238333"/>
    <nd ref="285961679"/>
    <nd ref="906512756"/>
    <nd ref="285961718"/>
    <nd ref="286634981"/>
    <nd ref="285961688"/>
    <nd ref="285961681"/>
    <nd ref="906512753"/>
    <nd ref="344872331"/>
    <nd ref="286634971"/>
    <nd ref="286634975"/>
    <nd ref="263440068"/>
    <nd ref="626851034"/>
    <nd ref="1138002749"/>
    <tag k="highway" v="tertiary"/>
    <tag k="name" v="Neckarhauser Straße"/>
    <tag k="ref" v="K 4139"/>
  </way>
  <way id="98364717" version="1" timestamp="2011-02-05T21:15:23Z" uid="9581" user="Lobelt" changeset="7197353">
    <nd ref="1138002749"/>
    <nd ref="304401618"/>
    <nd ref="1138002768"/>
    <tag k="highway" v="tertiary"/>
    <tag k="maxspeed" v="50"/>
    <tag k="name" v="Neckarhauser Straße"/>
    <tag k="ref" v="K 4139"/>
  </way>
  <way id="98364718" version="1" timestamp="2011-02-05T21:15:23Z" uid="9581" user="Lobelt" changeset="7197353">
    <nd ref="658614962"/>
    <nd ref="658614961"/>
    <tag k="bridge" v="yes"/>
    <tag k="layer" v="1"/>
    <tag k="railway" v="rail"/>
  </way>
  <way id="98364719" version="1" timestamp="2011-02-05T21:15:23Z" uid="9581" user="Lobelt" changeset="7197353">
    <nd ref="276518064"/>
    <nd ref="304045696"/>
    <tag k="highway" v="tertiary"/>
    <tag k="maxheight" v="3.9"/>
    <tag k="maxspeed" v="50"/>
    <tag k="name" v="Vogesenstraße"/>
  </way>
  <way id="98364720" version="1" timestamp="2011-02-05T21:15:23Z" uid="9581" user="Lobelt" changeset="7197353">
    <nd ref="1138002768"/>
    <nd ref="263440069"/>
    <tag k="highway" v="tertiary"/>
    <tag k="maxspeed" v="30"/>
    <tag k="name" v="Neckarhauser Straße"/>
    <tag k="ref" v="K 4139"/>
  </way>
  <way id="98364721" version="1" timestamp="2011-02-05T21:15:24Z" uid="9581" user="Lobelt" changeset="7197353">
    <nd ref="344603359"/>
    <nd ref="96655270"/>
    <nd ref="650090567"/>
    <nd ref="301563287"/>
    <nd ref="419978542"/>
    <tag k="highway" v="tertiary"/>
    <tag k="maxspeed" v="50"/>
    <tag k="name" v="Schwabenstraße"/>
    <tag k="ref" v="K 9756"/>
  </way>
  <way id="98364722" version="1" timestamp="2011-02-05T21:15:24Z" uid="9581" user="Lobelt" changeset="7197353">
    <nd ref="1138002799"/>
    <nd ref="378375227"/>
    <tag k="cycleway" v="track"/>
    <tag k="foot" v="yes"/>
    <tag k="highway" v="cycleway"/>
  </way>
  <way id="98364723" version="1" timestamp="2011-02-05T21:15:24Z" uid="9581" user="Lobelt" changeset="7197353">
    <nd ref="1138002763"/>
    <nd ref="1138002799"/>
    <tag k="bridge" v="yes"/>
    <tag k="cycleway" v="track"/>
    <tag k="foot" v="yes"/>
    <tag k="highway" v="cycleway"/>
    <tag k="layer" v="1"/>
  </way>
  <way id="98364724" version="1" timestamp="2011-02-05T21:15:24Z" uid="9581" user="Lobelt" changeset="7197353">
    <nd ref="658614961"/>
    <nd ref="658614974"/>
    <nd ref="658614973"/>
    <nd ref="658614976"/>
    <nd ref="658614978"/>
    <nd ref="658614984"/>
    <tag k="railway" v="rail"/>
  </way>
</osm>
