<?xml version='1.0' encoding='UTF-8'?>
<osm version="0.6" generator="libosmium/2.20.0">
  <way id="98885843" version="1" timestamp="2011-02-09T16:15:16Z" uid="115477" user="wowik" changeset="7237446">
    <nd ref="1143991390"/>
    <nd ref="1143991401"/>
    <nd ref="1143991382"/>
    <nd ref="1143991379"/>
    <nd ref="1143991390"/>
    <tag k="abandoned" v="yes"/>
    <tag k="addr:city" v="Зеленоград"/>
    <tag k="addr:country" v="RU"/>
    <tag k="addr:housenumber" v="8 с18"/>
    <tag k="addr:street" v="3-й Западный проезд"/>
    <tag k="building" v="yes"/>
    <tag k="note" v="снесено"/>
  </way>
  <way id="98885844" version="1" timestamp="2011-02-09T16:15:16Z" uid="115477" user="wowik" changeset="7237446">
    <nd ref="769071150"/>
    <nd ref="769071159"/>
    <nd ref="769071158"/>
    <nd ref="769071157"/>
    <nd ref="769071156"/>
    <nd ref="769071155"/>
    <nd ref="769071152"/>
    <nd ref="769071151"/>
    <nd ref="769071150"/>
    <tag k="addr:city" v="Зеленоград"/>
    <tag k="addr:housenumber" v="1 с4"/>
    <tag k="addr:street" v="4-й Западный проезд"/>
    <tag k="building" v="yes"/>
    <tag k="is_in" v="Russia"/>
  </way>
  <way id="98885845" version="1" timestamp="2011-02-09T16:15:17Z" uid="115477" user="wowik" changeset="7237446">
    <nd ref="1143991389"/>
    <nd ref="1143991394"/>
    <nd ref="1143991387"/>
    <nd ref="1143991397"/>
    <nd ref="1143991389"/>
    <tag k="abandoned" v="yes"/>
    <tag k="addr:city" v="Зеленоград"/>
    <tag k="addr:country" v="RU"/>
    <tag k="addr:housenumber" v="8 с17"/>
    <tag k="addr:street" v="3-й Западный проезд"/>
    <tag k="building" v="yes"/>
    <tag k="note" v="снесено"/>
  </way>
  <way id="98885846" version="1" timestamp="2011-02-09T16:15:17Z" uid="115477" user="wowik" changeset="7237446">
    <nd ref="700730840"/>
    <nd ref="700730841"/>
    <nd ref="700730843"/>
    <nd ref="983405141"/>
    <nd ref="983405272"/>
    <nd ref="983405212"/>
    <nd ref="983405135"/>
    <nd ref="700730844"/>
    <nd ref="983405231"/>
    <nd ref="983405285"/>
    <nd ref="983405170"/>
    <nd ref="983405304"/>
    <nd ref="700730845"/>
    <nd ref="1143991404"/>
    <nd ref="700730840"/>
    <tag k="addr:city" v="Зеленоград"/>
    <tag k="addr:housenumber" v="9"/>
    <tag k="addr:street" v="1-й Западный проезд"/>
    <tag k="amenity" v="police"/>
    <tag k="building" v="yes"/>
    <tag k="is_in" v="Russia"/>
    <tag k="name" v="ОВД района Матушкино-Савелки"/>
  </way>
  <way id="98885846" version="2" timestamp="2011-03-29T17:37:30Z" uid="115477" user="wowik" changeset="7708495">
    <nd ref="700730840"/>
    <nd ref="700730841"/>
    <nd ref="700730843"/>
    <nd ref="983405141"/>
    <nd ref="983405272"/>
    <nd ref="983405212"/>
    <nd ref="983405135"/>
    <nd ref="700730844"/>
    <nd ref="983405231"/>
    <nd ref="983405285"/>
    <nd ref="983405170"/>
    <nd ref="983405304"/>
    <nd ref="700730845"/>
    <nd ref="1143991404"/>
    <nd ref="700730840"/>
    <tag k="addr:city" v="Зеленоград"/>
    <tag k="addr:housenumber" v="9"/>
    <tag k="addr:street" v="1-й Западный проезд"/>
    <tag k="amenity" v="police"/>
    <tag k="building" v="yes"/>
    <tag k="is_in" v="Russia"/>
    <tag k="name" v="ОВД района Матушкино-Савёлки"/>
  </way>
  <way id="98885847" version="1" timestamp="2011-02-09T16:15:17Z" uid="115477" user="wowik" changeset="7237446">
    <nd ref="1143991369"/>
    <nd ref="1143991385"/>
    <nd ref="1143991380"/>
    <nd ref="1143991392"/>
    <nd ref="1143991369"/>
    <tag k="abandoned" v="yes"/>
    <tag k="addr:city" v="Зеленоград"/>
    <tag k="addr:country" v="RU"/>
    <tag k="addr:housenumber" v="8 с16"/>
    <tag k="addr:street" v="3-й Западный проезд"/>
    <tag k="building" v="yes"/>
    <tag k="note" v="снесено"/>
  </way>
</osm>
