<?xml version='1.0' encoding='UTF-8'?>
<osm version="0.6" generator="libosmium/2.20.0">
  <way id="99080507" version="1" timestamp="2011-02-10T22:59:21Z" uid="6269" user="Mueck" changeset="7250518">
    <nd ref="255926438"/>
    <nd ref="802168480"/>
    <nd ref="1146278557"/>
    <tag k="highway" v="primary"/>
    <tag k="name" v="Haid-und-Neu-Straße"/>
    <tag k="note" v="im SHP des NVK: I"/>
    <tag k="oneway" v="yes"/>
    <tag k="ref" v="L 560"/>
  </way>
  <way id="99080507" version="2" timestamp="2011-02-10T22:59:45Z" uid="6269" user="Mueck" changeset="7250518">
    <nd ref="255926438"/>
    <nd ref="802168480"/>
    <nd ref="1146278557"/>
    <tag k="highway" v="secondary"/>
    <tag k="name" v="Haid-und-Neu-Straße"/>
    <tag k="note" v="im SHP des NVK: II"/>
    <tag k="oneway" v="yes"/>
    <tag k="ref" v="L 560"/>
  </way>
  <way id="99080507" version="3" timestamp="2011-02-10T23:02:19Z" uid="6269" user="Mueck" changeset="7250518">
    <nd ref="255926438"/>
    <nd ref="802168480"/>
    <nd ref="1146278557"/>
    <nd ref="1146288169"/>
    <nd ref="1146288172"/>
    <nd ref="1146288176"/>
    <nd ref="360700733"/>
    <tag k="highway" v="secondary"/>
    <tag k="name" v="Haid-und-Neu-Straße"/>
    <tag k="note" v="im SHP des NVK: II"/>
    <tag k="oneway" v="yes"/>
    <tag k="ref" v="L 560"/>
  </way>
  <way id="99080587" version="1" timestamp="2011-02-10T23:00:21Z" uid="6269" user="Mueck" changeset="7250518">
    <nd ref="1146268221"/>
    <nd ref="330014692"/>
    <nd ref="15843201"/>
    <nd ref="27031939"/>
    <nd ref="15843202"/>
    <nd ref="27031930"/>
    <nd ref="15843199"/>
    <nd ref="27031957"/>
    <nd ref="271960795"/>
    <nd ref="15843197"/>
    <nd ref="15843196"/>
    <nd ref="15843194"/>
    <tag k="highway" v="primary"/>
    <tag k="name" v="Haid-und-Neu-Straße"/>
    <tag k="note" v="im SHP des NVK: I"/>
    <tag k="oneway" v="yes"/>
    <tag k="ref" v="L 560"/>
  </way>
  <way id="99080587" version="2" timestamp="2011-02-10T23:05:31Z" uid="6269" user="Mueck" changeset="7250518">
    <nd ref="1146268221"/>
    <nd ref="330014692"/>
    <nd ref="15843201"/>
    <nd ref="1146295429"/>
    <nd ref="27031939"/>
    <nd ref="15843202"/>
    <nd ref="27031930"/>
    <nd ref="15843199"/>
    <nd ref="27031957"/>
    <nd ref="271960795"/>
    <nd ref="15843197"/>
    <nd ref="15843196"/>
    <nd ref="15843194"/>
    <tag k="highway" v="primary"/>
    <tag k="name" v="Haid-und-Neu-Straße"/>
    <tag k="note" v="im SHP des NVK: I"/>
    <tag k="oneway" v="yes"/>
    <tag k="ref" v="L 560"/>
  </way>
  <way id="99080587" version="3" timestamp="2011-02-10T23:06:14Z" uid="6269" user="Mueck" changeset="7250518">
    <nd ref="1146268221"/>
    <nd ref="330014692"/>
    <nd ref="15843201"/>
    <nd ref="1146295429"/>
    <nd ref="1146297046"/>
    <nd ref="27031939"/>
    <nd ref="15843202"/>
    <nd ref="27031930"/>
    <nd ref="15843199"/>
    <nd ref="27031957"/>
    <nd ref="271960795"/>
    <nd ref="15843197"/>
    <nd ref="15843196"/>
    <nd ref="15843194"/>
    <tag k="highway" v="primary"/>
    <tag k="name" v="Haid-und-Neu-Straße"/>
    <tag k="note" v="im SHP des NVK: I"/>
    <tag k="oneway" v="yes"/>
    <tag k="ref" v="L 560"/>
  </way>
  <way id="99080587" version="4" timestamp="2011-02-10T23:08:12Z" uid="6269" user="Mueck" changeset="7250518">
    <nd ref="1146268221"/>
    <nd ref="330014692"/>
    <nd ref="15843201"/>
    <nd ref="1146295429"/>
    <nd ref="1146297046"/>
    <nd ref="27031939"/>
    <nd ref="15843202"/>
    <nd ref="1146303794"/>
    <nd ref="27031930"/>
    <nd ref="15843199"/>
    <nd ref="27031957"/>
    <nd ref="271960795"/>
    <nd ref="15843197"/>
    <nd ref="15843196"/>
    <nd ref="15843194"/>
    <tag k="highway" v="primary"/>
    <tag k="name" v="Haid-und-Neu-Straße"/>
    <tag k="note" v="im SHP des NVK: I"/>
    <tag k="oneway" v="yes"/>
    <tag k="ref" v="L 560"/>
  </way>
  <way id="99080587" version="5" timestamp="2011-02-10T23:10:57Z" uid="6269" user="Mueck" changeset="7250518">
    <nd ref="1146268221"/>
    <nd ref="330014692"/>
    <nd ref="15843201"/>
    <nd ref="1146295429"/>
    <nd ref="1146297046"/>
    <nd ref="27031939"/>
    <nd ref="15843202"/>
    <nd ref="1146303794"/>
    <nd ref="27031930"/>
    <nd ref="15843199"/>
    <nd ref="1146312426"/>
    <nd ref="27031957"/>
    <nd ref="271960795"/>
    <nd ref="15843197"/>
    <nd ref="15843196"/>
    <nd ref="15843194"/>
    <tag k="highway" v="primary"/>
    <tag k="name" v="Haid-und-Neu-Straße"/>
    <tag k="note" v="im SHP des NVK: I"/>
    <tag k="oneway" v="yes"/>
    <tag k="ref" v="L 560"/>
  </way>
  <way id="99080587" version="6" timestamp="2011-02-10T23:11:35Z" uid="6269" user="Mueck" changeset="7250518">
    <nd ref="1146268221"/>
    <nd ref="330014692"/>
    <nd ref="15843201"/>
    <nd ref="1146295429"/>
    <nd ref="1146297046"/>
    <nd ref="27031939"/>
    <nd ref="15843202"/>
    <nd ref="1146303794"/>
    <nd ref="27031930"/>
    <nd ref="15843199"/>
    <nd ref="1146312426"/>
    <nd ref="1146314593"/>
    <nd ref="27031957"/>
    <nd ref="271960795"/>
    <nd ref="15843197"/>
    <nd ref="15843196"/>
    <nd ref="15843194"/>
    <tag k="highway" v="primary"/>
    <tag k="name" v="Haid-und-Neu-Straße"/>
    <tag k="note" v="im SHP des NVK: I"/>
    <tag k="oneway" v="yes"/>
    <tag k="ref" v="L 560"/>
  </way>
  <way id="99080587" version="7" timestamp="2011-02-10T23:12:54Z" uid="6269" user="Mueck" changeset="7250518">
    <nd ref="1146268221"/>
    <nd ref="330014692"/>
    <nd ref="15843201"/>
    <nd ref="1146295429"/>
    <nd ref="1146297046"/>
    <nd ref="27031939"/>
    <nd ref="15843202"/>
    <nd ref="1146303794"/>
    <nd ref="27031930"/>
    <nd ref="15843199"/>
    <nd ref="1146312426"/>
    <nd ref="1146314593"/>
    <nd ref="27031957"/>
    <nd ref="1146318736"/>
    <nd ref="271960795"/>
    <nd ref="15843197"/>
    <nd ref="15843196"/>
    <nd ref="15843194"/>
    <tag k="highway" v="primary"/>
    <tag k="name" v="Haid-und-Neu-Straße"/>
    <tag k="note" v="im SHP des NVK: I"/>
    <tag k="oneway" v="yes"/>
    <tag k="ref" v="L 560"/>
  </way>
  <way id="99080587" version="8" timestamp="2011-02-10T23:13:12Z" uid="6269" user="Mueck" changeset="7250518">
    <nd ref="1146268221"/>
    <nd ref="330014692"/>
    <nd ref="15843201"/>
    <nd ref="1146295429"/>
    <nd ref="1146297046"/>
    <nd ref="27031939"/>
    <nd ref="15843202"/>
    <nd ref="1146303794"/>
    <nd ref="27031930"/>
    <nd ref="15843199"/>
    <nd ref="1146312426"/>
    <nd ref="1146314593"/>
    <nd ref="27031957"/>
    <nd ref="1146318736"/>
    <nd ref="1146319524"/>
    <nd ref="271960795"/>
    <nd ref="15843197"/>
    <nd ref="15843196"/>
    <nd ref="15843194"/>
    <tag k="highway" v="primary"/>
    <tag k="name" v="Haid-und-Neu-Straße"/>
    <tag k="note" v="im SHP des NVK: I"/>
    <tag k="oneway" v="yes"/>
    <tag k="ref" v="L 560"/>
  </way>
  <way id="99080587" version="9" timestamp="2011-02-10T23:14:06Z" uid="6269" user="Mueck" changeset="7250518">
    <nd ref="1146268221"/>
    <nd ref="330014692"/>
    <nd ref="15843201"/>
    <nd ref="1146295429"/>
    <nd ref="1146297046"/>
    <nd ref="27031939"/>
    <nd ref="15843202"/>
    <nd ref="1146303794"/>
    <nd ref="27031930"/>
    <nd ref="15843199"/>
    <nd ref="1146312426"/>
    <nd ref="1146314593"/>
    <nd ref="27031957"/>
    <nd ref="1146318736"/>
    <nd ref="1146319524"/>
    <nd ref="271960795"/>
    <nd ref="15843197"/>
    <nd ref="1146322078"/>
    <nd ref="15843196"/>
    <nd ref="15843194"/>
    <tag k="highway" v="primary"/>
    <tag k="name" v="Haid-und-Neu-Straße"/>
    <tag k="note" v="im SHP des NVK: I"/>
    <tag k="oneway" v="yes"/>
    <tag k="ref" v="L 560"/>
  </way>
  <way id="99080587" version="10" timestamp="2011-02-10T23:26:46Z" uid="6269" user="Mueck" changeset="7250518">
    <nd ref="1146268221"/>
    <nd ref="330014692"/>
    <nd ref="15843201"/>
    <nd ref="1146295429"/>
    <nd ref="1146297046"/>
    <nd ref="27031939"/>
    <nd ref="15843202"/>
    <nd ref="1146303794"/>
    <nd ref="27031930"/>
    <nd ref="15843199"/>
    <nd ref="1146312426"/>
    <nd ref="1146314593"/>
    <nd ref="27031957"/>
    <nd ref="1146318736"/>
    <nd ref="1146319524"/>
    <nd ref="271960795"/>
    <nd ref="15843197"/>
    <nd ref="1146322078"/>
    <nd ref="1146358380"/>
    <nd ref="15843196"/>
    <nd ref="15843194"/>
    <tag k="highway" v="primary"/>
    <tag k="name" v="Haid-und-Neu-Straße"/>
    <tag k="note" v="im SHP des NVK: I"/>
    <tag k="oneway" v="yes"/>
    <tag k="ref" v="L 560"/>
  </way>
</osm>
