<?xml version='1.0' encoding='UTF-8'?>
<osm version="0.6" generator="libosmium/2.20.0">
  <way id="9944064" version="7" timestamp="2010-10-07T17:11:17Z" uid="9581" user="Lobelt" changeset="5979695">
    <nd ref="81631817"/>
    <nd ref="81636654"/>
    <nd ref="81636657"/>
    <nd ref="81636658"/>
    <nd ref="81636660"/>
    <tag k="highway" v="residential"/>
    <tag k="lanes" v="1"/>
    <tag k="maxspeed" v="50"/>
    <tag k="name" v="Eisenberger Straße"/>
    <tag k="ref" v="L 1070"/>
  </way>
  <way id="9944064" version="8" timestamp="2010-10-09T17:52:03Z" uid="9581" user="Lobelt" changeset="5995507">
    <nd ref="81631817"/>
    <nd ref="81636654"/>
    <nd ref="81636657"/>
    <nd ref="81636658"/>
    <nd ref="81636660"/>
    <tag k="highway" v="tertiary"/>
    <tag k="lanes" v="1"/>
    <tag k="maxspeed" v="50"/>
    <tag k="name" v="Eisenberger Straße"/>
    <tag k="ref" v="L 1070"/>
  </way>
  <way id="9944678" version="6" timestamp="2010-04-06T23:09:55Z" uid="20587" user="balrog-kun" changeset="4350083">
    <nd ref="81641017"/>
    <nd ref="81641019"/>
    <nd ref="81641021"/>
    <nd ref="82093005"/>
    <nd ref="82093008"/>
    <nd ref="82093010"/>
    <nd ref="81599630"/>
    <tag k="highway" v="motorway_link"/>
    <tag k="name" v="East R L Thornton Ac Road South"/>
    <tag k="note" v="frontage"/>
    <tag k="oneway" v="yes"/>
    <tag k="tiger:cfcc" v="A63; A64"/>
    <tag k="tiger:county" v="Dallas, TX"/>
    <tag k="tiger:name_base" v="R L Thornton Ac"/>
    <tag k="tiger:name_direction_prefix" v="E"/>
    <tag k="tiger:name_direction_suffix" v="S"/>
    <tag k="tiger:name_type" v="Rd"/>
    <tag k="tiger:reviewed" v="no"/>
    <tag k="tiger:source" v="tiger_import_dch_v0.6_20070829"/>
    <tag k="tiger:tlid" v="102924050:102924095; 102924107:102924088"/>
  </way>
  <way id="9944824" version="10" timestamp="2007-11-19T20:21:13Z" uid="8328" user="benpre" changeset="568748">
    <nd ref="81642032"/>
    <nd ref="81645129"/>
    <nd ref="81642019"/>
    <nd ref="81642021"/>
    <nd ref="81642022"/>
    <nd ref="81642023"/>
    <nd ref="81642025"/>
    <nd ref="81642026"/>
    <nd ref="81644606"/>
    <nd ref="81642028"/>
    <nd ref="81642030"/>
    <nd ref="81644609"/>
    <nd ref="81642032"/>
    <tag k="created_by" v="Potlatch alpha"/>
    <tag k="highway" v="secondary"/>
    <tag k="name" v="Stuttgarter Straße"/>
    <tag k="ref" v="K1065"/>
    <tag k="roundabout" v="yes"/>
  </way>
</osm>
