<?xml version='1.0' encoding='UTF-8'?>
<osm version="0.6" generator="libosmium/2.20.0">
  <way id="99606192" version="2" timestamp="2011-04-27T21:53:20Z" uid="88880" user="firsttimelinux" changeset="7989869">
    <nd ref="267273151"/>
    <nd ref="1151760009"/>
    <nd ref="1151760024"/>
    <nd ref="1151760104"/>
    <tag k="highway" v="residential"/>
    <tag k="name" v="Bogenstrasse"/>
    <tag k="surface" v="paved"/>
  </way>
  <way id="99606200" version="3" timestamp="2011-04-27T21:12:07Z" uid="88880" user="firsttimelinux" changeset="7989520">
    <nd ref="296506041"/>
    <nd ref="297035775"/>
    <nd ref="1151759992"/>
    <nd ref="1151760080"/>
    <nd ref="1219383495"/>
    <nd ref="1151760134"/>
    <tag k="highway" v="residential"/>
    <tag k="name" v="Kronenstrasse"/>
    <tag k="surface" v="paved"/>
  </way>
  <way id="99606204" version="2" timestamp="2011-04-27T21:12:08Z" uid="88880" user="firsttimelinux" changeset="7989520">
    <nd ref="1151760026"/>
    <nd ref="1151760124"/>
    <nd ref="1151760014"/>
    <nd ref="1151760051"/>
    <tag k="highway" v="residential"/>
    <tag k="name" v="Gerenstrasse"/>
    <tag k="surface" v="paved"/>
  </way>
  <way id="99606208" version="4" timestamp="2011-04-20T19:01:02Z" uid="88880" user="firsttimelinux" changeset="7919122">
    <nd ref="1151760140"/>
    <nd ref="1229326257"/>
    <nd ref="380356324"/>
    <tag k="cycleway" v="opposite"/>
    <tag k="highway" v="residential"/>
    <tag k="name" v="Neugasse"/>
    <tag k="oneway" v="yes"/>
  </way>
  <way id="99606212" version="2" timestamp="2011-04-27T21:12:03Z" uid="88880" user="firsttimelinux" changeset="7989520">
    <nd ref="1151760048"/>
    <nd ref="1151760031"/>
    <nd ref="1151760060"/>
    <nd ref="1151760057"/>
    <tag k="highway" v="residential"/>
    <tag k="name" v="Trischlistrasse"/>
    <tag k="surface" v="paved"/>
  </way>
  <way id="99606214" version="2" timestamp="2011-04-27T21:12:06Z" uid="88880" user="firsttimelinux" changeset="7989520">
    <nd ref="1151760031"/>
    <nd ref="1151760085"/>
    <nd ref="1151760107"/>
    <nd ref="1151759996"/>
    <nd ref="1151760077"/>
    <nd ref="297035770"/>
    <nd ref="1151759995"/>
    <tag k="highway" v="residential"/>
    <tag k="name" v="Feuerwehrstrasse"/>
    <tag k="surface" v="paved"/>
  </way>
  <way id="99606216" version="2" timestamp="2011-04-27T21:12:05Z" uid="88880" user="firsttimelinux" changeset="7989520">
    <nd ref="1151760033"/>
    <nd ref="1151760086"/>
    <nd ref="1151760133"/>
    <nd ref="1151760068"/>
    <nd ref="1151760109"/>
    <nd ref="1151759997"/>
    <nd ref="1151760078"/>
    <nd ref="1151760122"/>
    <nd ref="1151760142"/>
    <nd ref="1151760028"/>
    <nd ref="1151760133"/>
    <tag k="highway" v="residential"/>
    <tag k="name" v="Sonnenweg"/>
    <tag k="surface" v="paved"/>
  </way>
  <way id="99606219" version="2" timestamp="2011-04-27T21:12:05Z" uid="88880" user="firsttimelinux" changeset="7989520">
    <nd ref="1151760137"/>
    <nd ref="1151760021"/>
    <nd ref="1151760029"/>
    <nd ref="1151760081"/>
    <nd ref="1151760023"/>
    <nd ref="1151760056"/>
    <nd ref="410714141"/>
    <nd ref="1151760007"/>
    <nd ref="1151760138"/>
    <nd ref="1151760082"/>
    <tag k="highway" v="residential"/>
    <tag k="name" v="Reitbahnstrasse"/>
    <tag k="surface" v="paved"/>
  </way>
</osm>
