<?xml version='1.0' encoding='UTF-8'?>
<osm version="0.6" generator="libosmium/2.20.0">
  <relation id="1074434" version="1" timestamp="2010-07-16T15:33:29Z" uid="33382" user="de_muur" changeset="5235649">
    <member type="node" ref="819455146" role=""/>
    <member type="way" ref="4843929" role=""/>
    <member type="node" ref="675825528" role=""/>
    <tag k="name" v="Gut Hoope - Ortsmitte"/>
    <tag k="network" v="lcn"/>
    <tag k="operator" v="Landkreis Diepholz"/>
    <tag k="route" v="bicycle"/>
    <tag k="type" v="route"/>
  </relation>
  <relation id="1074435" version="1" timestamp="2010-07-16T15:33:30Z" uid="33382" user="de_muur" changeset="5235649">
    <member type="node" ref="819455143" role=""/>
    <member type="way" ref="23773053" role=""/>
    <member type="node" ref="819455157" role=""/>
    <tag k="name" v="Kolonie Hoope - Syke"/>
    <tag k="network" v="lcn"/>
    <tag k="operator" v="Landkreis Diepholz"/>
    <tag k="route" v="bicycle"/>
    <tag k="type" v="route"/>
  </relation>
  <relation id="1074436" version="1" timestamp="2010-07-16T15:33:30Z" uid="33382" user="de_muur" changeset="5235649">
    <member type="node" ref="819455163" role=""/>
    <member type="way" ref="25379358" role=""/>
    <member type="node" ref="819455157" role=""/>
    <tag k="name" v="Heiligenfelde - Syke"/>
    <tag k="network" v="lcn"/>
    <tag k="operator" v="Landkreis Diepholz"/>
    <tag k="route" v="bicycle"/>
    <tag k="type" v="route"/>
  </relation>
  <relation id="1074437" version="1" timestamp="2010-07-16T15:33:30Z" uid="33382" user="de_muur" changeset="5235649">
    <member type="node" ref="819455146" role=""/>
    <member type="way" ref="24318043" role=""/>
    <member type="way" ref="26680230" role=""/>
    <member type="way" ref="67900055" role=""/>
    <member type="node" ref="819455127" role=""/>
    <tag k="name" v="Gut Hoope - Heiligenfelde"/>
    <tag k="network" v="lcn"/>
    <tag k="operator" v="Landkreis Diepholz"/>
    <tag k="route" v="bicycle"/>
    <tag k="type" v="route"/>
  </relation>
  <relation id="1074438" version="1" timestamp="2010-07-16T15:33:31Z" uid="33382" user="de_muur" changeset="5235649">
    <member type="node" ref="819455157" role=""/>
    <member type="way" ref="23773052" role=""/>
    <member type="node" ref="686205911" role=""/>
    <tag k="name" v="Heiligenfelde - Kolonie Hoope"/>
    <tag k="network" v="lcn"/>
    <tag k="operator" v="Landkreis Diepholz"/>
    <tag k="route" v="bicycle"/>
    <tag k="type" v="route"/>
  </relation>
  <relation id="1074439" version="1" timestamp="2010-07-16T15:33:31Z" uid="33382" user="de_muur" changeset="5235649">
    <member type="node" ref="686205914" role=""/>
    <member type="way" ref="25122221" role=""/>
    <member type="way" ref="67900061" role=""/>
    <member type="node" ref="819455143" role=""/>
    <tag k="name" v="Klein Bramstedt - Steimke"/>
    <tag k="network" v="lcn"/>
    <tag k="operator" v="Landkreis Diepholz"/>
    <tag k="route" v="bicycle"/>
    <tag k="type" v="route"/>
  </relation>
  <relation id="1074440" version="1" timestamp="2010-07-16T15:33:31Z" uid="33382" user="de_muur" changeset="5235649">
    <member type="node" ref="819455127" role=""/>
    <member type="way" ref="26459209" role=""/>
    <member type="node" ref="819455163" role=""/>
    <tag k="name" v="Heiligenfelde - Kolonie Hoope"/>
    <tag k="network" v="lcn"/>
    <tag k="operator" v="Landkreis Diepholz"/>
    <tag k="route" v="bicycle"/>
    <tag k="type" v="route"/>
  </relation>
  <relation id="1074797" version="1" timestamp="2010-07-17T07:09:40Z" uid="33382" user="de_muur" changeset="5239803">
    <member type="node" ref="681208761" role=""/>
    <member type="way" ref="22998839" role=""/>
    <member type="node" ref="821469655" role=""/>
    <tag k="name" v="Dahlbrügge - Holtebüttel"/>
    <tag k="network" v="lcn"/>
    <tag k="operator" v="Landkreis Verden"/>
    <tag k="route" v="bicycle"/>
    <tag k="type" v="route"/>
  </relation>
  <relation id="1074798" version="1" timestamp="2010-07-17T07:09:40Z" uid="33382" user="de_muur" changeset="5239803">
    <member type="node" ref="681208763" role=""/>
    <member type="way" ref="68175343" role=""/>
    <member type="node" ref="821469655" role=""/>
    <tag k="name" v="L 158 - Völkersen"/>
    <tag k="network" v="lcn"/>
    <tag k="operator" v="Landkreis Verden"/>
    <tag k="route" v="bicycle"/>
    <tag k="type" v="route"/>
  </relation>
  <relation id="1074806" version="1" timestamp="2010-07-17T07:32:46Z" uid="33382" user="de_muur" changeset="5240046">
    <member type="node" ref="685052276" role=""/>
    <member type="way" ref="68179732" role=""/>
    <tag k="name" v="Kirchlinteln - (Kohlenförde)"/>
    <tag k="network" v="lcn"/>
    <tag k="operator" v="Landkreis Verden"/>
    <tag k="route" v="bicycle"/>
    <tag k="type" v="route"/>
  </relation>
  <relation id="1074807" version="1" timestamp="2010-07-17T07:32:46Z" uid="33382" user="de_muur" changeset="5240046">
    <member type="node" ref="821488964" role=""/>
    <member type="way" ref="68179738" role=""/>
    <member type="way" ref="26633793" role=""/>
    <tag k="name" v="(Kirchlinteln) - Schomühlen"/>
    <tag k="network" v="lcn"/>
    <tag k="operator" v="Landkreis Verden"/>
    <tag k="route" v="bicycle"/>
    <tag k="type" v="route"/>
  </relation>
  <relation id="1074808" version="1" timestamp="2010-07-17T07:32:47Z" uid="33382" user="de_muur" changeset="5240046">
    <member type="node" ref="821488965" role=""/>
    <member type="way" ref="25725598" role=""/>
    <tag k="name" v="Kirchlinteln - (Schomühlen)"/>
    <tag k="network" v="lcn"/>
    <tag k="operator" v="Landkreis Verden"/>
    <tag k="route" v="bicycle"/>
    <tag k="type" v="route"/>
  </relation>
  <relation id="1074809" version="1" timestamp="2010-07-17T07:32:47Z" uid="33382" user="de_muur" changeset="5240046">
    <member type="node" ref="683796967" role=""/>
    <member type="way" ref="23448573" role=""/>
    <member type="node" ref="821488965" role=""/>
    <tag k="name" v="Brunsbrock - Kirchlinteln"/>
    <tag k="network" v="lcn"/>
    <tag k="operator" v="Landkreis Verden"/>
    <tag k="route" v="bicycle"/>
    <tag k="type" v="route"/>
  </relation>
  <relation id="1074812" version="1" timestamp="2010-07-17T07:43:55Z" uid="33382" user="de_muur" changeset="5240098">
    <member type="node" ref="813519295" role=""/>
    <member type="way" ref="24949030" role=""/>
    <member type="way" ref="67354294" role=""/>
    <tag k="name" v="Hoya - (Verden)"/>
    <tag k="network" v="lcn"/>
    <tag k="operator" v="Landkreis Verden"/>
    <tag k="route" v="bicycle"/>
    <tag k="type" v="route"/>
  </relation>
  <relation id="1074812" version="2" timestamp="2011-03-14T19:43:25Z" uid="33382" user="de_muur" changeset="7560096">
    <member type="node" ref="961232452" role=""/>
    <member type="way" ref="5030385" role=""/>
    <member type="way" ref="75912852" role=""/>
    <member type="way" ref="28830517" role=""/>
    <member type="way" ref="5185488" role=""/>
    <member type="way" ref="5185486" role=""/>
    <member type="way" ref="11955568" role=""/>
    <member type="node" ref="813519295" role=""/>
    <member type="way" ref="24949030" role=""/>
    <member type="way" ref="67354294" role=""/>
    <tag k="name" v="Hoya - Verden"/>
    <tag k="network" v="lcn"/>
    <tag k="operator" v="Landkreis Verden"/>
    <tag k="route" v="bicycle"/>
    <tag k="type" v="route"/>
  </relation>
  <relation id="1074813" version="1" timestamp="2010-07-17T07:43:55Z" uid="33382" user="de_muur" changeset="5240098">
    <member type="node" ref="821499330" role=""/>
    <member type="way" ref="68182623" role=""/>
    <tag k="name" v="(Hoya) - Verden"/>
    <tag k="network" v="lcn"/>
    <tag k="operator" v="Mittelweser-Touristik GmbH"/>
    <tag k="route" v="bicycle"/>
    <tag k="type" v="route"/>
  </relation>
  <relation id="1074813" version="2" timestamp="2011-03-15T20:03:38Z" uid="33382" user="de_muur" changeset="7569785">
    <member type="node" ref="821499330" role=""/>
    <member type="way" ref="68182623" role=""/>
    <tag k="name" v="Hoya - Verden"/>
    <tag k="network" v="lcn"/>
    <tag k="operator" v="Mittelweser-Touristik GmbH"/>
    <tag k="route" v="bicycle"/>
    <tag k="type" v="route"/>
  </relation>
  <relation id="1074814" version="1" timestamp="2010-07-17T07:43:55Z" uid="33382" user="de_muur" changeset="5240098">
    <member type="relation" ref="1074813" role=""/>
    <tag k="name" v="Radverkehrsnetz Landkreis Nienburg/Weser"/>
    <tag k="network" v="lcn"/>
    <tag k="operator" v="Mittelweser-Touristik GmbH"/>
    <tag k="route" v="bicycle"/>
    <tag k="type" v="network"/>
  </relation>
  <relation id="1074814" version="2" timestamp="2010-07-17T08:11:10Z" uid="33382" user="de_muur" changeset="5240256">
    <member type="relation" ref="1074813" role=""/>
    <member type="relation" ref="1074826" role=""/>
    <member type="relation" ref="1074827" role=""/>
    <tag k="name" v="Radverkehrsnetz Landkreis Nienburg/Weser"/>
    <tag k="network" v="lcn"/>
    <tag k="operator" v="Mittelweser-Touristik GmbH"/>
    <tag k="route" v="bicycle"/>
    <tag k="type" v="network"/>
  </relation>
  <relation id="1074814" version="3" timestamp="2010-07-17T15:54:47Z" uid="33382" user="de_muur" changeset="5243697">
    <member type="relation" ref="1074813" role=""/>
    <member type="relation" ref="1074826" role=""/>
    <member type="relation" ref="1074827" role=""/>
    <member type="relation" ref="1075169" role=""/>
    <tag k="name" v="Radverkehrsnetz Landkreis Nienburg/Weser"/>
    <tag k="network" v="lcn"/>
    <tag k="operator" v="Mittelweser-Touristik GmbH"/>
    <tag k="route" v="bicycle"/>
    <tag k="type" v="network"/>
  </relation>
  <relation id="1074814" version="4" timestamp="2010-07-17T16:21:02Z" uid="33382" user="de_muur" changeset="5243894">
    <member type="relation" ref="1074813" role=""/>
    <member type="relation" ref="1074826" role=""/>
    <member type="relation" ref="1074827" role=""/>
    <member type="relation" ref="1075169" role=""/>
    <member type="relation" ref="1075177" role=""/>
    <member type="relation" ref="1075178" role=""/>
    <member type="relation" ref="1075176" role=""/>
    <tag k="name" v="Radverkehrsnetz Landkreis Nienburg/Weser"/>
    <tag k="network" v="lcn"/>
    <tag k="operator" v="Mittelweser-Touristik GmbH"/>
    <tag k="route" v="bicycle"/>
    <tag k="type" v="network"/>
  </relation>
  <relation id="1074814" version="5" timestamp="2011-03-15T20:04:09Z" uid="33382" user="de_muur" changeset="7569785">
    <member type="relation" ref="1074813" role=""/>
    <member type="relation" ref="1074826" role=""/>
    <member type="relation" ref="1074827" role=""/>
    <member type="relation" ref="1075169" role=""/>
    <member type="relation" ref="1075177" role=""/>
    <member type="relation" ref="1075178" role=""/>
    <member type="relation" ref="1075176" role=""/>
    <member type="relation" ref="1476998" role=""/>
    <tag k="name" v="Radverkehrsnetz Landkreis Nienburg/Weser"/>
    <tag k="network" v="lcn"/>
    <tag k="operator" v="Mittelweser-Touristik GmbH"/>
    <tag k="route" v="bicycle"/>
    <tag k="type" v="network"/>
  </relation>
  <relation id="1074814" version="6" timestamp="2011-03-15T20:13:24Z" uid="33382" user="de_muur" changeset="7569879">
    <member type="relation" ref="1074813" role=""/>
    <member type="relation" ref="1074826" role=""/>
    <member type="relation" ref="1074827" role=""/>
    <member type="relation" ref="1075169" role=""/>
    <member type="relation" ref="1075177" role=""/>
    <member type="relation" ref="1075178" role=""/>
    <member type="relation" ref="1075176" role=""/>
    <member type="relation" ref="1476998" role=""/>
    <member type="relation" ref="1477005" role=""/>
    <member type="relation" ref="1477006" role=""/>
    <tag k="name" v="Radverkehrsnetz Landkreis Nienburg/Weser"/>
    <tag k="network" v="lcn"/>
    <tag k="operator" v="Mittelweser-Touristik GmbH"/>
    <tag k="route" v="bicycle"/>
    <tag k="type" v="network"/>
  </relation>
  <relation id="1074814" version="7" timestamp="2011-05-29T08:07:59Z" uid="33382" user="de_muur" changeset="8278278">
    <member type="relation" ref="1074813" role=""/>
    <member type="relation" ref="1074826" role=""/>
    <member type="relation" ref="1074827" role=""/>
    <member type="relation" ref="1075169" role=""/>
    <member type="relation" ref="1075177" role=""/>
    <member type="relation" ref="1075178" role=""/>
    <member type="relation" ref="1075176" role=""/>
    <member type="relation" ref="1476998" role=""/>
    <member type="relation" ref="1477005" role=""/>
    <member type="relation" ref="1477006" role=""/>
    <member type="relation" ref="1604732" role=""/>
    <tag k="name" v="Radverkehrsnetz Landkreis Nienburg/Weser"/>
    <tag k="network" v="lcn"/>
    <tag k="operator" v="Mittelweser-Touristik GmbH"/>
    <tag k="route" v="bicycle"/>
    <tag k="type" v="network"/>
  </relation>
  <relation id="1074814" version="8" timestamp="2011-05-29T16:08:16Z" uid="33382" user="de_muur" changeset="8282659">
    <member type="relation" ref="1074813" role=""/>
    <member type="relation" ref="1074826" role=""/>
    <member type="relation" ref="1074827" role=""/>
    <member type="relation" ref="1075169" role=""/>
    <member type="relation" ref="1075177" role=""/>
    <member type="relation" ref="1075178" role=""/>
    <member type="relation" ref="1075176" role=""/>
    <member type="relation" ref="1476998" role=""/>
    <member type="relation" ref="1477005" role=""/>
    <member type="relation" ref="1477006" role=""/>
    <member type="relation" ref="1604732" role=""/>
    <member type="relation" ref="1605212" role=""/>
    <tag k="name" v="Radverkehrsnetz Landkreis Nienburg/Weser"/>
    <tag k="network" v="lcn"/>
    <tag k="operator" v="Mittelweser-Touristik GmbH"/>
    <tag k="route" v="bicycle"/>
    <tag k="type" v="network"/>
  </relation>
  <relation id="1074814" version="9" timestamp="2011-05-29T16:24:02Z" uid="33382" user="de_muur" changeset="8282835">
    <member type="relation" ref="1074813" role=""/>
    <member type="relation" ref="1074826" role=""/>
    <member type="relation" ref="1074827" role=""/>
    <member type="relation" ref="1075169" role=""/>
    <member type="relation" ref="1075177" role=""/>
    <member type="relation" ref="1075178" role=""/>
    <member type="relation" ref="1075176" role=""/>
    <member type="relation" ref="1476998" role=""/>
    <member type="relation" ref="1477005" role=""/>
    <member type="relation" ref="1477006" role=""/>
    <member type="relation" ref="1604732" role=""/>
    <member type="relation" ref="1605212" role=""/>
    <member type="relation" ref="1605270" role=""/>
    <member type="relation" ref="1605268" role=""/>
    <tag k="name" v="Radverkehrsnetz Landkreis Nienburg/Weser"/>
    <tag k="network" v="lcn"/>
    <tag k="operator" v="Mittelweser-Touristik GmbH"/>
    <tag k="route" v="bicycle"/>
    <tag k="type" v="network"/>
  </relation>
  <relation id="1074814" version="10" timestamp="2011-05-30T16:07:02Z" uid="33382" user="de_muur" changeset="8293465">
    <member type="relation" ref="1074813" role=""/>
    <member type="relation" ref="1074826" role=""/>
    <member type="relation" ref="1074827" role=""/>
    <member type="relation" ref="1075169" role=""/>
    <member type="relation" ref="1075177" role=""/>
    <member type="relation" ref="1075178" role=""/>
    <member type="relation" ref="1075176" role=""/>
    <member type="relation" ref="1476998" role=""/>
    <member type="relation" ref="1477005" role=""/>
    <member type="relation" ref="1477006" role=""/>
    <member type="relation" ref="1604732" role=""/>
    <member type="relation" ref="1605212" role=""/>
    <member type="relation" ref="1605270" role=""/>
    <member type="relation" ref="1605268" role=""/>
    <member type="relation" ref="1606258" role=""/>
    <tag k="name" v="Radverkehrsnetz Landkreis Nienburg/Weser"/>
    <tag k="network" v="lcn"/>
    <tag k="operator" v="Mittelweser-Touristik GmbH"/>
    <tag k="route" v="bicycle"/>
    <tag k="type" v="network"/>
  </relation>
  <relation id="1074814" version="11" timestamp="2011-05-30T16:27:37Z" uid="33382" user="de_muur" changeset="8293655">
    <member type="relation" ref="1074813" role=""/>
    <member type="relation" ref="1074826" role=""/>
    <member type="relation" ref="1074827" role=""/>
    <member type="relation" ref="1075169" role=""/>
    <member type="relation" ref="1075177" role=""/>
    <member type="relation" ref="1075178" role=""/>
    <member type="relation" ref="1075176" role=""/>
    <member type="relation" ref="1476998" role=""/>
    <member type="relation" ref="1477005" role=""/>
    <member type="relation" ref="1477006" role=""/>
    <member type="relation" ref="1604732" role=""/>
    <member type="relation" ref="1605212" role=""/>
    <member type="relation" ref="1605270" role=""/>
    <member type="relation" ref="1605268" role=""/>
    <member type="relation" ref="1606258" role=""/>
    <member type="relation" ref="1606267" role=""/>
    <tag k="name" v="Radverkehrsnetz Landkreis Nienburg/Weser"/>
    <tag k="network" v="lcn"/>
    <tag k="operator" v="Mittelweser-Touristik GmbH"/>
    <tag k="route" v="bicycle"/>
    <tag k="type" v="network"/>
  </relation>
  <relation id="1074814" version="12" timestamp="2011-05-31T14:43:42Z" uid="33382" user="de_muur" changeset="8302223">
    <member type="relation" ref="1074813" role=""/>
    <member type="relation" ref="1074826" role=""/>
    <member type="relation" ref="1074827" role=""/>
    <member type="relation" ref="1075169" role=""/>
    <member type="relation" ref="1075177" role=""/>
    <member type="relation" ref="1075178" role=""/>
    <member type="relation" ref="1075176" role=""/>
    <member type="relation" ref="1476998" role=""/>
    <member type="relation" ref="1477005" role=""/>
    <member type="relation" ref="1477006" role=""/>
    <member type="relation" ref="1604732" role=""/>
    <member type="relation" ref="1605212" role=""/>
    <member type="relation" ref="1605270" role=""/>
    <member type="relation" ref="1605268" role=""/>
    <member type="relation" ref="1606258" role=""/>
    <member type="relation" ref="1606267" role=""/>
    <member type="relation" ref="1607403" role=""/>
    <tag k="name" v="Radverkehrsnetz Landkreis Nienburg/Weser"/>
    <tag k="network" v="lcn"/>
    <tag k="operator" v="Mittelweser-Touristik GmbH"/>
    <tag k="route" v="bicycle"/>
    <tag k="type" v="network"/>
  </relation>
  <relation id="1074814" version="13" timestamp="2011-05-31T14:49:10Z" uid="33382" user="de_muur" changeset="8302269">
    <member type="relation" ref="1074813" role=""/>
    <member type="relation" ref="1074826" role=""/>
    <member type="relation" ref="1074827" role=""/>
    <member type="relation" ref="1075169" role=""/>
    <member type="relation" ref="1075177" role=""/>
    <member type="relation" ref="1075178" role=""/>
    <member type="relation" ref="1075176" role=""/>
    <member type="relation" ref="1476998" role=""/>
    <member type="relation" ref="1477005" role=""/>
    <member type="relation" ref="1477006" role=""/>
    <member type="relation" ref="1604732" role=""/>
    <member type="relation" ref="1605212" role=""/>
    <member type="relation" ref="1605270" role=""/>
    <member type="relation" ref="1605268" role=""/>
    <member type="relation" ref="1606258" role=""/>
    <member type="relation" ref="1606267" role=""/>
    <member type="relation" ref="1607403" role=""/>
    <member type="relation" ref="1607412" role=""/>
    <tag k="name" v="Radverkehrsnetz Landkreis Nienburg/Weser"/>
    <tag k="network" v="lcn"/>
    <tag k="operator" v="Mittelweser-Touristik GmbH"/>
    <tag k="route" v="bicycle"/>
    <tag k="type" v="network"/>
  </relation>
  <relation id="1074814" version="14" timestamp="2011-05-31T14:59:00Z" uid="33382" user="de_muur" changeset="8302356">
    <member type="relation" ref="1074813" role=""/>
    <member type="relation" ref="1074826" role=""/>
    <member type="relation" ref="1074827" role=""/>
    <member type="relation" ref="1075169" role=""/>
    <member type="relation" ref="1075177" role=""/>
    <member type="relation" ref="1075178" role=""/>
    <member type="relation" ref="1075176" role=""/>
    <member type="relation" ref="1476998" role=""/>
    <member type="relation" ref="1477005" role=""/>
    <member type="relation" ref="1477006" role=""/>
    <member type="relation" ref="1604732" role=""/>
    <member type="relation" ref="1605212" role=""/>
    <member type="relation" ref="1605270" role=""/>
    <member type="relation" ref="1605268" role=""/>
    <member type="relation" ref="1606258" role=""/>
    <member type="relation" ref="1606267" role=""/>
    <member type="relation" ref="1607403" role=""/>
    <member type="relation" ref="1607412" role=""/>
    <member type="relation" ref="1607463" role=""/>
    <tag k="name" v="Radverkehrsnetz Landkreis Nienburg/Weser"/>
    <tag k="network" v="lcn"/>
    <tag k="operator" v="Mittelweser-Touristik GmbH"/>
    <tag k="route" v="bicycle"/>
    <tag k="type" v="network"/>
  </relation>
  <relation id="1074814" version="15" timestamp="2011-05-31T15:21:55Z" uid="33382" user="de_muur" changeset="8302526">
    <member type="relation" ref="1074813" role=""/>
    <member type="relation" ref="1074826" role=""/>
    <member type="relation" ref="1074827" role=""/>
    <member type="relation" ref="1075169" role=""/>
    <member type="relation" ref="1075177" role=""/>
    <member type="relation" ref="1075178" role=""/>
    <member type="relation" ref="1075176" role=""/>
    <member type="relation" ref="1476998" role=""/>
    <member type="relation" ref="1477005" role=""/>
    <member type="relation" ref="1477006" role=""/>
    <member type="relation" ref="1604732" role=""/>
    <member type="relation" ref="1605212" role=""/>
    <member type="relation" ref="1605270" role=""/>
    <member type="relation" ref="1605268" role=""/>
    <member type="relation" ref="1606258" role=""/>
    <member type="relation" ref="1606267" role=""/>
    <member type="relation" ref="1607403" role=""/>
    <member type="relation" ref="1607412" role=""/>
    <member type="relation" ref="1607463" role=""/>
    <member type="relation" ref="1607471" role=""/>
    <tag k="name" v="Radverkehrsnetz Landkreis Nienburg/Weser"/>
    <tag k="network" v="lcn"/>
    <tag k="operator" v="Mittelweser-Touristik GmbH"/>
    <tag k="route" v="bicycle"/>
    <tag k="type" v="network"/>
  </relation>
  <relation id="1074814" version="16" timestamp="2011-05-31T15:35:19Z" uid="33382" user="de_muur" changeset="8302629">
    <member type="relation" ref="1074813" role=""/>
    <member type="relation" ref="1074826" role=""/>
    <member type="relation" ref="1074827" role=""/>
    <member type="relation" ref="1075169" role=""/>
    <member type="relation" ref="1075177" role=""/>
    <member type="relation" ref="1075178" role=""/>
    <member type="relation" ref="1075176" role=""/>
    <member type="relation" ref="1476998" role=""/>
    <member type="relation" ref="1477005" role=""/>
    <member type="relation" ref="1477006" role=""/>
    <member type="relation" ref="1604732" role=""/>
    <member type="relation" ref="1605212" role=""/>
    <member type="relation" ref="1605270" role=""/>
    <member type="relation" ref="1605268" role=""/>
    <member type="relation" ref="1606258" role=""/>
    <member type="relation" ref="1606267" role=""/>
    <member type="relation" ref="1607403" role=""/>
    <member type="relation" ref="1607412" role=""/>
    <member type="relation" ref="1607463" role=""/>
    <member type="relation" ref="1607471" role=""/>
    <member type="relation" ref="1607538" role=""/>
    <tag k="name" v="Radverkehrsnetz Landkreis Nienburg/Weser"/>
    <tag k="network" v="lcn"/>
    <tag k="operator" v="Mittelweser-Touristik GmbH"/>
    <tag k="route" v="bicycle"/>
    <tag k="type" v="network"/>
  </relation>
  <relation id="1074814" version="17" timestamp="2011-05-31T15:41:18Z" uid="33382" user="de_muur" changeset="8302685">
    <member type="relation" ref="1074813" role=""/>
    <member type="relation" ref="1074826" role=""/>
    <member type="relation" ref="1074827" role=""/>
    <member type="relation" ref="1075169" role=""/>
    <member type="relation" ref="1075177" role=""/>
    <member type="relation" ref="1075178" role=""/>
    <member type="relation" ref="1075176" role=""/>
    <member type="relation" ref="1476998" role=""/>
    <member type="relation" ref="1477005" role=""/>
    <member type="relation" ref="1477006" role=""/>
    <member type="relation" ref="1604732" role=""/>
    <member type="relation" ref="1605212" role=""/>
    <member type="relation" ref="1605270" role=""/>
    <member type="relation" ref="1605268" role=""/>
    <member type="relation" ref="1606258" role=""/>
    <member type="relation" ref="1606267" role=""/>
    <member type="relation" ref="1607403" role=""/>
    <member type="relation" ref="1607412" role=""/>
    <member type="relation" ref="1607463" role=""/>
    <member type="relation" ref="1607471" role=""/>
    <member type="relation" ref="1607538" role=""/>
    <member type="relation" ref="1607541" role=""/>
    <tag k="name" v="Radverkehrsnetz Landkreis Nienburg/Weser"/>
    <tag k="network" v="lcn"/>
    <tag k="operator" v="Mittelweser-Touristik GmbH"/>
    <tag k="route" v="bicycle"/>
    <tag k="type" v="network"/>
  </relation>
  <relation id="1074814" version="18" timestamp="2011-05-31T15:44:39Z" uid="33382" user="de_muur" changeset="8302706">
    <member type="relation" ref="1074813" role=""/>
    <member type="relation" ref="1074826" role=""/>
    <member type="relation" ref="1074827" role=""/>
    <member type="relation" ref="1075169" role=""/>
    <member type="relation" ref="1075177" role=""/>
    <member type="relation" ref="1075178" role=""/>
    <member type="relation" ref="1075176" role=""/>
    <member type="relation" ref="1476998" role=""/>
    <member type="relation" ref="1477005" role=""/>
    <member type="relation" ref="1477006" role=""/>
    <member type="relation" ref="1604732" role=""/>
    <member type="relation" ref="1605212" role=""/>
    <member type="relation" ref="1605270" role=""/>
    <member type="relation" ref="1605268" role=""/>
    <member type="relation" ref="1606258" role=""/>
    <member type="relation" ref="1606267" role=""/>
    <member type="relation" ref="1607403" role=""/>
    <member type="relation" ref="1607412" role=""/>
    <member type="relation" ref="1607463" role=""/>
    <member type="relation" ref="1607471" role=""/>
    <member type="relation" ref="1607538" role=""/>
    <member type="relation" ref="1607541" role=""/>
    <member type="relation" ref="1607542" role=""/>
    <tag k="name" v="Radverkehrsnetz Landkreis Nienburg/Weser"/>
    <tag k="network" v="lcn"/>
    <tag k="operator" v="Mittelweser-Touristik GmbH"/>
    <tag k="route" v="bicycle"/>
    <tag k="type" v="network"/>
  </relation>
  <relation id="1074814" version="19" timestamp="2011-05-31T16:34:58Z" uid="33382" user="de_muur" changeset="8303066">
    <member type="relation" ref="1074813" role=""/>
    <member type="relation" ref="1074826" role=""/>
    <member type="relation" ref="1074827" role=""/>
    <member type="relation" ref="1075169" role=""/>
    <member type="relation" ref="1075177" role=""/>
    <member type="relation" ref="1075178" role=""/>
    <member type="relation" ref="1075176" role=""/>
    <member type="relation" ref="1476998" role=""/>
    <member type="relation" ref="1477005" role=""/>
    <member type="relation" ref="1477006" role=""/>
    <member type="relation" ref="1604732" role=""/>
    <member type="relation" ref="1605212" role=""/>
    <member type="relation" ref="1605270" role=""/>
    <member type="relation" ref="1605268" role=""/>
    <member type="relation" ref="1606258" role=""/>
    <member type="relation" ref="1606267" role=""/>
    <member type="relation" ref="1607403" role=""/>
    <member type="relation" ref="1607412" role=""/>
    <member type="relation" ref="1607463" role=""/>
    <member type="relation" ref="1607471" role=""/>
    <member type="relation" ref="1607538" role=""/>
    <member type="relation" ref="1607541" role=""/>
    <member type="relation" ref="1607542" role=""/>
    <member type="relation" ref="1607591" role=""/>
    <tag k="name" v="Radverkehrsnetz Landkreis Nienburg/Weser"/>
    <tag k="network" v="lcn"/>
    <tag k="operator" v="Mittelweser-Touristik GmbH"/>
    <tag k="route" v="bicycle"/>
    <tag k="type" v="network"/>
  </relation>
  <relation id="1074814" version="20" timestamp="2011-05-31T16:41:54Z" uid="33382" user="de_muur" changeset="8303132">
    <member type="relation" ref="1074813" role=""/>
    <member type="relation" ref="1074826" role=""/>
    <member type="relation" ref="1074827" role=""/>
    <member type="relation" ref="1075169" role=""/>
    <member type="relation" ref="1075177" role=""/>
    <member type="relation" ref="1075178" role=""/>
    <member type="relation" ref="1075176" role=""/>
    <member type="relation" ref="1476998" role=""/>
    <member type="relation" ref="1477005" role=""/>
    <member type="relation" ref="1477006" role=""/>
    <member type="relation" ref="1604732" role=""/>
    <member type="relation" ref="1605212" role=""/>
    <member type="relation" ref="1605270" role=""/>
    <member type="relation" ref="1605268" role=""/>
    <member type="relation" ref="1606258" role=""/>
    <member type="relation" ref="1606267" role=""/>
    <member type="relation" ref="1607403" role=""/>
    <member type="relation" ref="1607412" role=""/>
    <member type="relation" ref="1607463" role=""/>
    <member type="relation" ref="1607471" role=""/>
    <member type="relation" ref="1607538" role=""/>
    <member type="relation" ref="1607541" role=""/>
    <member type="relation" ref="1607542" role=""/>
    <member type="relation" ref="1607591" role=""/>
    <member type="relation" ref="1607600" role=""/>
    <tag k="name" v="Radverkehrsnetz Landkreis Nienburg/Weser"/>
    <tag k="network" v="lcn"/>
    <tag k="operator" v="Mittelweser-Touristik GmbH"/>
    <tag k="route" v="bicycle"/>
    <tag k="type" v="network"/>
  </relation>
  <relation id="1074814" version="21" timestamp="2011-05-31T18:54:59Z" uid="33382" user="de_muur" changeset="8304329">
    <member type="relation" ref="1074813" role=""/>
    <member type="relation" ref="1074826" role=""/>
    <member type="relation" ref="1074827" role=""/>
    <member type="relation" ref="1075169" role=""/>
    <member type="relation" ref="1075177" role=""/>
    <member type="relation" ref="1075178" role=""/>
    <member type="relation" ref="1075176" role=""/>
    <member type="relation" ref="1476998" role=""/>
    <member type="relation" ref="1477005" role=""/>
    <member type="relation" ref="1477006" role=""/>
    <member type="relation" ref="1604732" role=""/>
    <member type="relation" ref="1605212" role=""/>
    <member type="relation" ref="1605270" role=""/>
    <member type="relation" ref="1605268" role=""/>
    <member type="relation" ref="1606258" role=""/>
    <member type="relation" ref="1606267" role=""/>
    <member type="relation" ref="1607403" role=""/>
    <member type="relation" ref="1607412" role=""/>
    <member type="relation" ref="1607463" role=""/>
    <member type="relation" ref="1607471" role=""/>
    <member type="relation" ref="1607538" role=""/>
    <member type="relation" ref="1607541" role=""/>
    <member type="relation" ref="1607542" role=""/>
    <member type="relation" ref="1607591" role=""/>
    <member type="relation" ref="1607600" role=""/>
    <member type="relation" ref="1607702" role=""/>
    <tag k="name" v="Radverkehrsnetz Landkreis Nienburg/Weser"/>
    <tag k="network" v="lcn"/>
    <tag k="operator" v="Mittelweser-Touristik GmbH"/>
    <tag k="route" v="bicycle"/>
    <tag k="type" v="network"/>
  </relation>
  <relation id="1074814" version="22" timestamp="2011-05-31T19:03:29Z" uid="33382" user="de_muur" changeset="8304418">
    <member type="relation" ref="1074813" role=""/>
    <member type="relation" ref="1074826" role=""/>
    <member type="relation" ref="1074827" role=""/>
    <member type="relation" ref="1075169" role=""/>
    <member type="relation" ref="1075177" role=""/>
    <member type="relation" ref="1075178" role=""/>
    <member type="relation" ref="1075176" role=""/>
    <member type="relation" ref="1476998" role=""/>
    <member type="relation" ref="1477005" role=""/>
    <member type="relation" ref="1477006" role=""/>
    <member type="relation" ref="1604732" role=""/>
    <member type="relation" ref="1605212" role=""/>
    <member type="relation" ref="1605270" role=""/>
    <member type="relation" ref="1605268" role=""/>
    <member type="relation" ref="1606258" role=""/>
    <member type="relation" ref="1606267" role=""/>
    <member type="relation" ref="1607403" role=""/>
    <member type="relation" ref="1607412" role=""/>
    <member type="relation" ref="1607463" role=""/>
    <member type="relation" ref="1607471" role=""/>
    <member type="relation" ref="1607538" role=""/>
    <member type="relation" ref="1607541" role=""/>
    <member type="relation" ref="1607542" role=""/>
    <member type="relation" ref="1607591" role=""/>
    <member type="relation" ref="1607600" role=""/>
    <member type="relation" ref="1607702" role=""/>
    <member type="relation" ref="1607709" role=""/>
    <tag k="name" v="Radverkehrsnetz Landkreis Nienburg/Weser"/>
    <tag k="network" v="lcn"/>
    <tag k="operator" v="Mittelweser-Touristik GmbH"/>
    <tag k="route" v="bicycle"/>
    <tag k="type" v="network"/>
  </relation>
  <relation id="1074814" version="23" timestamp="2011-05-31T19:14:16Z" uid="33382" user="de_muur" changeset="8304517">
    <member type="relation" ref="1074813" role=""/>
    <member type="relation" ref="1074826" role=""/>
    <member type="relation" ref="1074827" role=""/>
    <member type="relation" ref="1075169" role=""/>
    <member type="relation" ref="1075177" role=""/>
    <member type="relation" ref="1075178" role=""/>
    <member type="relation" ref="1476998" role=""/>
    <member type="relation" ref="1477005" role=""/>
    <member type="relation" ref="1477006" role=""/>
    <member type="relation" ref="1604732" role=""/>
    <member type="relation" ref="1605212" role=""/>
    <member type="relation" ref="1605270" role=""/>
    <member type="relation" ref="1605268" role=""/>
    <member type="relation" ref="1606258" role=""/>
    <member type="relation" ref="1606267" role=""/>
    <member type="relation" ref="1607403" role=""/>
    <member type="relation" ref="1607412" role=""/>
    <member type="relation" ref="1607463" role=""/>
    <member type="relation" ref="1607471" role=""/>
    <member type="relation" ref="1607538" role=""/>
    <member type="relation" ref="1607541" role=""/>
    <member type="relation" ref="1607542" role=""/>
    <member type="relation" ref="1607591" role=""/>
    <member type="relation" ref="1607600" role=""/>
    <member type="relation" ref="1607702" role=""/>
    <member type="relation" ref="1607709" role=""/>
    <member type="relation" ref="1607722" role=""/>
    <tag k="name" v="Radverkehrsnetz Landkreis Nienburg/Weser"/>
    <tag k="network" v="lcn"/>
    <tag k="operator" v="Mittelweser-Touristik GmbH"/>
    <tag k="route" v="bicycle"/>
    <tag k="type" v="network"/>
  </relation>
  <relation id="1074814" version="24" timestamp="2011-05-31T19:23:42Z" uid="33382" user="de_muur" changeset="8304618">
    <member type="relation" ref="1074813" role=""/>
    <member type="relation" ref="1074826" role=""/>
    <member type="relation" ref="1074827" role=""/>
    <member type="relation" ref="1075169" role=""/>
    <member type="relation" ref="1075177" role=""/>
    <member type="relation" ref="1075178" role=""/>
    <member type="relation" ref="1476998" role=""/>
    <member type="relation" ref="1477005" role=""/>
    <member type="relation" ref="1477006" role=""/>
    <member type="relation" ref="1604732" role=""/>
    <member type="relation" ref="1605212" role=""/>
    <member type="relation" ref="1605270" role=""/>
    <member type="relation" ref="1605268" role=""/>
    <member type="relation" ref="1606258" role=""/>
    <member type="relation" ref="1606267" role=""/>
    <member type="relation" ref="1607403" role=""/>
    <member type="relation" ref="1607412" role=""/>
    <member type="relation" ref="1607463" role=""/>
    <member type="relation" ref="1607471" role=""/>
    <member type="relation" ref="1607538" role=""/>
    <member type="relation" ref="1607541" role=""/>
    <member type="relation" ref="1607542" role=""/>
    <member type="relation" ref="1607591" role=""/>
    <member type="relation" ref="1607600" role=""/>
    <member type="relation" ref="1607702" role=""/>
    <member type="relation" ref="1607709" role=""/>
    <member type="relation" ref="1607722" role=""/>
    <member type="relation" ref="1607732" role=""/>
    <tag k="name" v="Radverkehrsnetz Landkreis Nienburg/Weser"/>
    <tag k="network" v="lcn"/>
    <tag k="operator" v="Mittelweser-Touristik GmbH"/>
    <tag k="route" v="bicycle"/>
    <tag k="type" v="network"/>
  </relation>
  <relation id="1074826" version="1" timestamp="2010-07-17T08:11:09Z" uid="33382" user="de_muur" changeset="5240256">
    <member type="node" ref="821499330" role=""/>
    <member type="way" ref="68182624" role=""/>
    <member type="way" ref="68186645" role=""/>
    <member type="node" ref="821527360" role=""/>
    <tag k="name" v="Hoya - Verden (über L 201)"/>
    <tag k="network" v="lcn"/>
    <tag k="operator" v="Mittelweser-Touristik GmbH"/>
    <tag k="route" v="bicycle"/>
    <tag k="type" v="route"/>
  </relation>
  <relation id="1074826" version="2" timestamp="2010-09-04T19:36:00Z" uid="33382" user="de_muur" changeset="5681950">
    <member type="node" ref="821499330" role=""/>
    <member type="way" ref="68182624" role=""/>
    <member type="way" ref="68186645" role=""/>
    <member type="way" ref="75913843" role=""/>
    <member type="node" ref="821527360" role=""/>
    <tag k="name" v="Hoya - Verden (über L 201)"/>
    <tag k="network" v="lcn"/>
    <tag k="operator" v="Mittelweser-Touristik GmbH"/>
    <tag k="route" v="bicycle"/>
    <tag k="type" v="route"/>
  </relation>
  <relation id="1074827" version="1" timestamp="2010-07-17T08:11:09Z" uid="33382" user="de_muur" changeset="5240256">
    <member type="node" ref="821527360" role=""/>
    <member type="way" ref="24949027" role=""/>
    <member type="node" ref="821527372" role=""/>
    <tag k="name" v="Nienburg - Verden"/>
    <tag k="network" v="lcn"/>
    <tag k="operator" v="Mittelweser-Touristik GmbH"/>
    <tag k="route" v="bicycle"/>
    <tag k="type" v="route"/>
  </relation>
  <relation id="1074827" version="2" timestamp="2010-07-17T08:22:18Z" uid="33382" user="de_muur" changeset="5240341">
    <member type="node" ref="821527360" role=""/>
    <member type="way" ref="24949027" role=""/>
    <member type="node" ref="821527372" role=""/>
    <member type="way" ref="68186644" role=""/>
    <member type="way" ref="28124130" role=""/>
    <member type="way" ref="28123778" role=""/>
    <member type="way" ref="28123777" role=""/>
    <member type="node" ref="821536523" role=""/>
    <member type="way" ref="28123776" role=""/>
    <member type="node" ref="821536525" role=""/>
    <tag k="name" v="Nienburg - Verden"/>
    <tag k="network" v="lcn"/>
    <tag k="operator" v="Mittelweser-Touristik GmbH"/>
    <tag k="route" v="bicycle"/>
    <tag k="type" v="route"/>
  </relation>
  <relation id="1074827" version="3" timestamp="2010-07-17T15:42:26Z" uid="33382" user="de_muur" changeset="5243589">
    <member type="node" ref="821527360" role=""/>
    <member type="way" ref="24949027" role=""/>
    <member type="node" ref="821527372" role=""/>
    <member type="way" ref="68186644" role=""/>
    <member type="way" ref="28124130" role=""/>
    <member type="way" ref="28123778" role=""/>
    <member type="way" ref="28123777" role=""/>
    <member type="node" ref="821536523" role=""/>
    <member type="way" ref="28123776" role=""/>
    <member type="node" ref="821536525" role=""/>
    <member type="way" ref="68187698" role=""/>
    <member type="way" ref="14027456" role=""/>
    <member type="way" ref="28123775" role=""/>
    <member type="way" ref="24948940" role=""/>
    <member type="way" ref="23070342" role=""/>
    <member type="node" ref="821929851" role=""/>
    <tag k="name" v="Nienburg - Verden"/>
    <tag k="network" v="lcn"/>
    <tag k="operator" v="Mittelweser-Touristik GmbH"/>
    <tag k="route" v="bicycle"/>
    <tag k="type" v="route"/>
  </relation>
  <relation id="1074827" version="4" timestamp="2010-07-17T15:54:47Z" uid="33382" user="de_muur" changeset="5243697">
    <member type="node" ref="821527360" role=""/>
    <member type="way" ref="24949027" role=""/>
    <member type="node" ref="821527372" role=""/>
    <member type="way" ref="68186644" role=""/>
    <member type="way" ref="28124130" role=""/>
    <member type="way" ref="28123778" role=""/>
    <member type="way" ref="28123777" role=""/>
    <member type="node" ref="821536523" role=""/>
    <member type="way" ref="28123776" role=""/>
    <member type="node" ref="821536525" role=""/>
    <member type="way" ref="68187698" role=""/>
    <member type="way" ref="14027456" role=""/>
    <member type="way" ref="28123775" role=""/>
    <member type="way" ref="24948940" role=""/>
    <member type="way" ref="23070342" role=""/>
    <member type="node" ref="821929851" role=""/>
    <member type="way" ref="23070344" role=""/>
    <member type="node" ref="821943888" role=""/>
    <tag k="name" v="Nienburg - Verden"/>
    <tag k="network" v="lcn"/>
    <tag k="operator" v="Mittelweser-Touristik GmbH"/>
    <tag k="route" v="bicycle"/>
    <tag k="type" v="route"/>
  </relation>
  <relation id="1074827" version="5" timestamp="2010-09-04T19:36:34Z" uid="33382" user="de_muur" changeset="5681950">
    <member type="node" ref="821527360" role=""/>
    <member type="way" ref="24949027" role=""/>
    <member type="way" ref="75913845" role=""/>
    <member type="node" ref="821527372" role=""/>
    <member type="way" ref="68186644" role=""/>
    <member type="way" ref="28124130" role=""/>
    <member type="way" ref="28123778" role=""/>
    <member type="way" ref="28123777" role=""/>
    <member type="node" ref="821536523" role=""/>
    <member type="way" ref="28123776" role=""/>
    <member type="node" ref="821536525" role=""/>
    <member type="way" ref="68187698" role=""/>
    <member type="way" ref="14027456" role=""/>
    <member type="way" ref="28123775" role=""/>
    <member type="way" ref="24948940" role=""/>
    <member type="way" ref="23070342" role=""/>
    <member type="node" ref="821929851" role=""/>
    <member type="way" ref="23070344" role=""/>
    <member type="node" ref="821943888" role=""/>
    <tag k="name" v="Nienburg - Verden"/>
    <tag k="network" v="lcn"/>
    <tag k="operator" v="Mittelweser-Touristik GmbH"/>
    <tag k="route" v="bicycle"/>
    <tag k="type" v="route"/>
  </relation>
  <relation id="1074827" version="6" timestamp="2011-05-30T19:19:34Z" uid="33382" user="de_muur" changeset="8295325">
    <member type="node" ref="821527360" role=""/>
    <member type="way" ref="24949027" role=""/>
    <member type="way" ref="75913845" role=""/>
    <member type="node" ref="821527372" role=""/>
    <member type="way" ref="68186644" role=""/>
    <member type="way" ref="28124130" role=""/>
    <member type="way" ref="28123778" role=""/>
    <member type="way" ref="28123777" role=""/>
    <member type="node" ref="821536523" role=""/>
    <member type="way" ref="28123776" role=""/>
    <member type="node" ref="821536525" role=""/>
    <member type="way" ref="68187698" role=""/>
    <member type="way" ref="14027456" role=""/>
    <member type="way" ref="28123775" role=""/>
    <member type="way" ref="24948940" role=""/>
    <member type="way" ref="23070342" role=""/>
    <member type="way" ref="23070343" role=""/>
    <member type="node" ref="821929851" role=""/>
    <member type="way" ref="23070344" role=""/>
    <member type="node" ref="821943888" role=""/>
    <tag k="name" v="Nienburg - Verden"/>
    <tag k="network" v="lcn"/>
    <tag k="operator" v="Mittelweser-Touristik GmbH"/>
    <tag k="route" v="bicycle"/>
    <tag k="type" v="route"/>
  </relation>
</osm>
