<?xml version='1.0' encoding='UTF-8'?>
<osm version="0.6" generator="libosmium/2.20.0">
  <relation id="1191038" version="1" timestamp="2010-09-25T15:10:18Z" uid="33382" user="de_muur" changeset="5871734">
    <member type="node" ref="925513497" role=""/>
    <member type="way" ref="34411588" role=""/>
    <member type="node" ref="925519957" role=""/>
    <tag k="name" v="Ottersberg - Wilstedt"/>
    <tag k="network" v="lcn"/>
    <tag k="operator" v="Landkreis Verden"/>
    <tag k="route" v="bicycle"/>
    <tag k="type" v="route"/>
  </relation>
  <relation id="1191046" version="1" timestamp="2010-09-25T15:18:09Z" uid="33382" user="de_muur" changeset="5871807">
    <member type="node" ref="925113319" role=""/>
    <member type="way" ref="31910052" role=""/>
    <member type="way" ref="79231135" role=""/>
    <member type="way" ref="43136393" role=""/>
    <member type="way" ref="43136392" role=""/>
    <member type="node" ref="925522307" role=""/>
    <tag k="name" v="Buchholz - Fischerhude"/>
    <tag k="network" v="lcn"/>
    <tag k="operator" v="Landkreis Verden"/>
    <tag k="route" v="bicycle"/>
    <tag k="type" v="route"/>
  </relation>
  <relation id="1191047" version="1" timestamp="2010-09-25T15:18:10Z" uid="33382" user="de_muur" changeset="5871807">
    <member type="node" ref="925519957" role=""/>
    <member type="way" ref="32445069" role=""/>
    <member type="way" ref="31910399" role=""/>
    <member type="node" ref="925522307" role=""/>
    <tag k="name" v="Ottersberg - Wilhelmshausen"/>
    <tag k="network" v="lcn"/>
    <tag k="operator" v="Landkreis Verden"/>
    <tag k="route" v="bicycle"/>
    <tag k="type" v="route"/>
  </relation>
  <relation id="1191055" version="1" timestamp="2010-09-25T15:23:31Z" uid="33382" user="de_muur" changeset="5871859">
    <member type="node" ref="925524990" role=""/>
    <member type="way" ref="24318892" role=""/>
    <tag k="name" v="(Ottersberg) - Seebergen"/>
    <tag k="network" v="lcn"/>
    <tag k="operator" v="Landkreis Verden"/>
    <tag k="route" v="bicycle"/>
    <tag k="type" v="route"/>
  </relation>
  <relation id="1191058" version="1" timestamp="2010-09-25T15:30:26Z" uid="33382" user="de_muur" changeset="5871901">
    <member type="node" ref="925522307" role=""/>
    <member type="way" ref="31910128" role=""/>
    <member type="node" ref="925527616" role=""/>
    <tag k="name" v="Buchholz - Ottersberg"/>
    <tag k="network" v="lcn"/>
    <tag k="operator" v="Landkreis Verden"/>
    <tag k="route" v="bicycle"/>
    <tag k="type" v="route"/>
  </relation>
  <relation id="1191059" version="1" timestamp="2010-09-25T15:30:27Z" uid="33382" user="de_muur" changeset="5871901">
    <member type="node" ref="925524990" role=""/>
    <member type="way" ref="31911123" role=""/>
    <member type="way" ref="32445070" role=""/>
    <member type="way" ref="27378719" role=""/>
    <member type="way" ref="79232481" role=""/>
    <member type="node" ref="925527616" role=""/>
    <tag k="name" v="Buchholz - Fischerhude"/>
    <tag k="network" v="lcn"/>
    <tag k="operator" v="Landkreis Verden"/>
    <tag k="route" v="bicycle"/>
    <tag k="type" v="route"/>
  </relation>
  <relation id="1191093" version="1" timestamp="2010-09-25T15:46:18Z" uid="33382" user="de_muur" changeset="5872029">
    <member type="node" ref="924489980" role=""/>
    <member type="way" ref="23540877" role=""/>
    <tag k="name" v="(Fischerhude) - Rautendorf"/>
    <tag k="network" v="lcn"/>
    <tag k="operator" v="Landkreis Verden"/>
    <tag k="route" v="bicycle"/>
    <tag k="type" v="route"/>
  </relation>
  <relation id="1191094" version="1" timestamp="2010-09-25T15:46:18Z" uid="33382" user="de_muur" changeset="5872029">
    <member type="node" ref="924489980" role=""/>
    <member type="way" ref="31913303" role=""/>
    <tag k="name" v="(Fischerhude) - Quelkhorn"/>
    <tag k="network" v="lcn"/>
    <tag k="operator" v="Landkreis Verden"/>
    <tag k="route" v="bicycle"/>
    <tag k="type" v="route"/>
  </relation>
  <relation id="1191249" version="1" timestamp="2010-09-25T19:55:56Z" uid="33382" user="de_muur" changeset="5874040">
    <member type="node" ref="925519957" role=""/>
    <member type="way" ref="79176653" role=""/>
    <member type="way" ref="5321864" role=""/>
    <member type="node" ref="925754442" role=""/>
    <tag k="name" v="L 154 - Wilstedt"/>
    <tag k="network" v="lcn"/>
    <tag k="operator" v="Landkreis Verden"/>
    <tag k="route" v="bicycle"/>
    <tag k="type" v="route"/>
  </relation>
  <relation id="1191250" version="1" timestamp="2010-09-25T19:55:56Z" uid="33382" user="de_muur" changeset="5874040">
    <member type="node" ref="925527616" role=""/>
    <member type="way" ref="32856085" role=""/>
    <member type="way" ref="79264732" role=""/>
    <member type="way" ref="32856046" role=""/>
    <member type="node" ref="925754442" role=""/>
    <tag k="name" v="Wilhelmshausen - Wilstedt"/>
    <tag k="network" v="lcn"/>
    <tag k="operator" v="Landkreis Verden"/>
    <tag k="route" v="bicycle"/>
    <tag k="type" v="route"/>
  </relation>
  <relation id="1191256" version="1" timestamp="2010-09-25T20:03:40Z" uid="33382" user="de_muur" changeset="5874114">
    <member type="node" ref="925773730" role=""/>
    <member type="way" ref="42049285" role=""/>
    <member type="node" ref="925773713" role=""/>
    <tag k="name" v="Dipshorn - Tarmstedt"/>
    <tag k="network" v="lcn"/>
    <tag k="operator" v="Landkreis Rotenburg (Wümme)"/>
    <tag k="route" v="bicycle"/>
    <tag k="type" v="route"/>
  </relation>
  <relation id="1191273" version="1" timestamp="2010-09-25T20:07:38Z" uid="33382" user="de_muur" changeset="5874156">
    <member type="node" ref="370139272" role=""/>
    <member type="way" ref="42049286" role=""/>
    <member type="way" ref="32858947" role=""/>
    <member type="way" ref="32857647" role=""/>
    <member type="node" ref="925773713" role=""/>
    <tag k="name" v="Bremen - Hamburg"/>
    <tag k="network" v="lcn"/>
    <tag k="operator" v="Landkreis Rotenburg (Wümme)"/>
    <tag k="route" v="bicycle"/>
    <tag k="type" v="route"/>
  </relation>
  <relation id="1191273" version="2" timestamp="2010-09-25T20:16:19Z" uid="33382" user="de_muur" changeset="5874228">
    <member type="way" ref="79266628" role=""/>
    <member type="way" ref="37202150" role=""/>
    <member type="way" ref="32856413" role=""/>
    <member type="node" ref="370139272" role=""/>
    <member type="way" ref="42049286" role=""/>
    <member type="way" ref="32858947" role=""/>
    <member type="way" ref="32857647" role=""/>
    <member type="node" ref="925773713" role=""/>
    <tag k="name" v="Bremen - Hamburg"/>
    <tag k="network" v="lcn"/>
    <tag k="operator" v="Landkreis Rotenburg (Wümme)"/>
    <tag k="route" v="bicycle"/>
    <tag k="type" v="route"/>
  </relation>
  <relation id="1191280" version="1" timestamp="2010-09-25T20:15:42Z" uid="33382" user="de_muur" changeset="5874228">
    <member type="way" ref="32981277" role=""/>
    <member type="node" ref="925806721" role=""/>
    <tag k="name" v="Bremen - Hamburg"/>
    <tag k="network" v="lcn"/>
    <tag k="operator" v="Landkreis Verden"/>
    <tag k="route" v="bicycle"/>
    <tag k="type" v="route"/>
  </relation>
  <relation id="1191280" version="2" timestamp="2010-09-26T07:35:09Z" uid="33382" user="de_muur" changeset="5877863">
    <member type="way" ref="79299012" role=""/>
    <member type="node" ref="925806721" role=""/>
    <tag k="name" v="Bremen - Hamburg"/>
    <tag k="network" v="lcn"/>
    <tag k="operator" v="Landkreis Verden"/>
    <tag k="route" v="bicycle"/>
    <tag k="type" v="route"/>
  </relation>
  <relation id="1191281" version="1" timestamp="2010-09-25T20:15:42Z" uid="33382" user="de_muur" changeset="5874228">
    <member type="node" ref="925754442" role=""/>
    <member type="way" ref="32856436" role=""/>
    <member type="way" ref="32856437" role=""/>
    <member type="node" ref="925806721" role=""/>
    <tag k="name" v="Ottersberg - Wilhelmshausen"/>
    <tag k="network" v="lcn"/>
    <tag k="operator" v="Landkreis Verden"/>
    <tag k="route" v="bicycle"/>
    <tag k="type" v="route"/>
  </relation>
  <relation id="1191376" version="2" timestamp="2011-02-03T16:28:22Z" uid="6269" user="Mueck" changeset="7175330">
    <member type="node" ref="697217" role="via"/>
    <member type="way" ref="55969357" role="from"/>
    <member type="way" ref="30813647" role=""/>
    <tag k="restriction" v="only_left_turn"/>
    <tag k="type" v="restriction"/>
  </relation>
  <relation id="1191436" version="1" timestamp="2010-09-25T23:14:21Z" uid="16922" user="amai" changeset="5875267">
    <tag k="multipolygon" v="outer"/>
  </relation>
  <relation id="1191437" version="1" timestamp="2010-09-25T23:14:21Z" uid="16922" user="amai" changeset="5875267">
    <member type="way" ref="79289446" role="outer"/>
    <member type="way" ref="79289440" role="inner"/>
    <member type="way" ref="79289441" role="inner"/>
    <member type="way" ref="79289442" role="inner"/>
    <tag k="type" v="multipolygon"/>
  </relation>
  <relation id="1191635" version="1" timestamp="2010-09-26T07:34:51Z" uid="33382" user="de_muur" changeset="5877863">
    <member type="node" ref="925519957" role=""/>
    <member type="way" ref="25968408" role=""/>
    <member type="node" ref="926095969" role=""/>
    <tag k="name" v="Otterstedt - Quelkhorn"/>
    <tag k="network" v="lcn"/>
    <tag k="operator" v="Landkreis Verden"/>
    <tag k="route" v="bicycle"/>
    <tag k="type" v="route"/>
  </relation>
  <relation id="1191636" version="1" timestamp="2010-09-26T07:34:51Z" uid="33382" user="de_muur" changeset="5877863">
    <member type="node" ref="925806721" role=""/>
    <member type="way" ref="32981277" role=""/>
    <member type="node" ref="926095969" role=""/>
    <tag k="name" v="Bremen - Wilstedt"/>
    <tag k="network" v="lcn"/>
    <tag k="operator" v="Landkreis Verden"/>
    <tag k="route" v="bicycle"/>
    <tag k="type" v="route"/>
  </relation>
  <relation id="1191641" version="1" timestamp="2010-09-26T07:46:58Z" uid="33382" user="de_muur" changeset="5877922">
    <member type="node" ref="925513497" role=""/>
    <member type="way" ref="42050121" role=""/>
    <member type="node" ref="926117196" role=""/>
    <tag k="name" v="Fischerhude - Otterstedt"/>
    <tag k="network" v="lcn"/>
    <tag k="operator" v="Landkreis Verden"/>
    <tag k="route" v="bicycle"/>
    <tag k="type" v="route"/>
  </relation>
  <relation id="1191642" version="1" timestamp="2010-09-26T07:46:58Z" uid="33382" user="de_muur" changeset="5877922">
    <member type="node" ref="926095969" role=""/>
    <member type="way" ref="33302653" role=""/>
    <member type="node" ref="926117196" role=""/>
    <tag k="name" v="Fischerhude - Wilstedt"/>
    <tag k="network" v="lcn"/>
    <tag k="operator" v="Landkreis Verden"/>
    <tag k="route" v="bicycle"/>
    <tag k="type" v="route"/>
  </relation>
  <relation id="1191648" version="1" timestamp="2010-09-26T07:55:30Z" uid="33382" user="de_muur" changeset="5877972">
    <member type="node" ref="926117196" role=""/>
    <member type="way" ref="42050122" role=""/>
    <member type="node" ref="926138420" role=""/>
    <tag k="name" v="Buchholz - Fischerhude"/>
    <tag k="network" v="lcn"/>
    <tag k="operator" v="Landkreis Verden"/>
    <tag k="route" v="bicycle"/>
    <tag k="type" v="route"/>
  </relation>
  <relation id="1191648" version="2" timestamp="2010-09-26T08:07:13Z" uid="33382" user="de_muur" changeset="5878044">
    <member type="node" ref="926117196" role=""/>
    <member type="way" ref="42050122" role=""/>
    <member type="node" ref="926138420" role=""/>
    <member type="way" ref="31909411" role=""/>
    <member type="way" ref="38223607" role=""/>
    <member type="way" ref="31909436" role=""/>
    <member type="way" ref="31909450" role=""/>
    <member type="way" ref="27293080" role=""/>
    <member type="node" ref="924526372" role=""/>
    <tag k="name" v="Buchholz - Fischerhude"/>
    <tag k="network" v="lcn"/>
    <tag k="operator" v="Landkreis Verden"/>
    <tag k="route" v="bicycle"/>
    <tag k="type" v="route"/>
  </relation>
  <relation id="1191655" version="1" timestamp="2010-09-26T08:03:16Z" uid="33382" user="de_muur" changeset="5878026">
    <member type="node" ref="926138420" role=""/>
    <member type="way" ref="79299846" role=""/>
    <member type="node" ref="926156106" role=""/>
    <tag k="name" v="Fischerhude - Otterstedt"/>
    <tag k="network" v="lcn"/>
    <tag k="operator" v="Landkreis Verden"/>
    <tag k="route" v="bicycle"/>
    <tag k="type" v="route"/>
  </relation>
  <relation id="1191662" version="1" timestamp="2010-09-26T08:13:32Z" uid="33382" user="de_muur" changeset="5878082">
    <member type="node" ref="926156106" role=""/>
    <member type="way" ref="79301813" role=""/>
    <member type="node" ref="926165540" role=""/>
    <tag k="name" v="Fischerhude - Ottersberg"/>
    <tag k="network" v="lcn"/>
    <tag k="operator" v="Landkreis Verden"/>
    <tag k="route" v="bicycle"/>
    <tag k="type" v="route"/>
  </relation>
  <relation id="1191821" version="1" timestamp="2010-09-26T08:23:55Z" uid="33382" user="de_muur" changeset="5878148">
    <member type="node" ref="926156106" role=""/>
    <member type="way" ref="24683129" role=""/>
    <member type="way" ref="38229240" role=""/>
    <member type="node" ref="926175150" role=""/>
    <tag k="name" v="Fischerhude - Narthauen"/>
    <tag k="network" v="lcn"/>
    <tag k="operator" v="Landkreis Verden"/>
    <tag k="route" v="bicycle"/>
    <tag k="type" v="route"/>
  </relation>
  <relation id="1191821" version="2" timestamp="2010-09-26T09:28:44Z" uid="33382" user="de_muur" changeset="5878610">
    <member type="node" ref="926156106" role=""/>
    <member type="way" ref="24683129" role=""/>
    <member type="way" ref="38229240" role=""/>
    <member type="node" ref="926175150" role=""/>
    <member type="way" ref="24683130" role=""/>
    <member type="way" ref="38217893" role=""/>
    <member type="node" ref="926285586" role=""/>
    <tag k="name" v="Fischerhude - Narthauen"/>
    <tag k="network" v="lcn"/>
    <tag k="operator" v="Landkreis Verden"/>
    <tag k="route" v="bicycle"/>
    <tag k="type" v="route"/>
  </relation>
  <relation id="1191822" version="1" timestamp="2010-09-26T08:23:55Z" uid="33382" user="de_muur" changeset="5878148">
    <member type="node" ref="926165540" role=""/>
    <member type="way" ref="33302247" role=""/>
    <member type="node" ref="926175150" role=""/>
    <tag k="name" v="Narthauen - Ottersberg"/>
    <tag k="network" v="lcn"/>
    <tag k="operator" v="Landkreis Verden"/>
    <tag k="route" v="bicycle"/>
    <tag k="type" v="route"/>
  </relation>
  <relation id="1191864" version="1" timestamp="2010-09-26T09:28:41Z" uid="33382" user="de_muur" changeset="5878610">
    <member type="node" ref="926285611" role=""/>
    <member type="way" ref="79307736" role=""/>
    <tag k="name" v="Reeßum - (Steinfeld)"/>
    <tag k="network" v="lcn"/>
    <tag k="operator" v="Landkreis Verden"/>
    <tag k="route" v="bicycle"/>
    <tag k="type" v="route"/>
  </relation>
  <relation id="1191865" version="1" timestamp="2010-09-26T09:28:41Z" uid="33382" user="de_muur" changeset="5878610">
    <member type="node" ref="926095969" role=""/>
    <member type="way" ref="27378648" role=""/>
    <member type="way" ref="38891787" role=""/>
    <member type="way" ref="38891788" role=""/>
    <member type="way" ref="38891785" role=""/>
    <member type="way" ref="38902299" role=""/>
    <member type="node" ref="926285598" role=""/>
    <tag k="name" v="Fischerhude - L 132"/>
    <tag k="network" v="lcn"/>
    <tag k="operator" v="Landkreis Verden"/>
    <tag k="route" v="bicycle"/>
    <tag k="type" v="route"/>
  </relation>
  <relation id="1191866" version="1" timestamp="2010-09-26T09:28:42Z" uid="33382" user="de_muur" changeset="5878610">
    <member type="node" ref="926285586" role=""/>
    <member type="way" ref="79307741" role=""/>
    <tag k="name" v="(Ottersberg) - Steinfeld"/>
    <tag k="network" v="lcn"/>
    <tag k="operator" v="Landkreis Verden"/>
    <tag k="route" v="bicycle"/>
    <tag k="type" v="route"/>
  </relation>
  <relation id="1191867" version="1" timestamp="2010-09-26T09:28:42Z" uid="33382" user="de_muur" changeset="5878610">
    <member type="node" ref="926285598" role=""/>
    <member type="way" ref="37255179" role=""/>
    <member type="node" ref="926285611" role=""/>
    <tag k="name" v="Ottersberg - Wilstedt"/>
    <tag k="network" v="lcn"/>
    <tag k="operator" v="Landkreis Verden"/>
    <tag k="route" v="bicycle"/>
    <tag k="type" v="route"/>
  </relation>
  <relation id="1191931" version="1" timestamp="2010-09-26T09:39:15Z" uid="33382" user="de_muur" changeset="5878690">
    <member type="node" ref="926304281" role=""/>
    <member type="way" ref="24683132" role=""/>
    <member type="node" ref="926304290" role=""/>
    <tag k="name" v="Ottersberg - Steinfeld"/>
    <tag k="network" v="lcn"/>
    <tag k="operator" v="Landkreis Verden"/>
    <tag k="route" v="bicycle"/>
    <tag k="type" v="route"/>
  </relation>
  <relation id="1191932" version="1" timestamp="2010-09-26T09:39:15Z" uid="33382" user="de_muur" changeset="5878690">
    <member type="node" ref="926304290" role=""/>
    <member type="way" ref="79307737" role=""/>
    <tag k="name" v="(L 132) - Reeßum"/>
    <tag k="network" v="lcn"/>
    <tag k="operator" v="Landkreis Verden"/>
    <tag k="route" v="bicycle"/>
    <tag k="type" v="route"/>
  </relation>
  <relation id="1191933" version="1" timestamp="2010-09-26T09:39:16Z" uid="33382" user="de_muur" changeset="5878690">
    <member type="node" ref="926285586" role=""/>
    <member type="way" ref="24683131" role=""/>
    <member type="node" ref="926304281" role=""/>
    <tag k="name" v="Eckstever - Quelkhorn"/>
    <tag k="network" v="lcn"/>
    <tag k="operator" v="Landkreis Verden"/>
    <tag k="route" v="bicycle"/>
    <tag k="type" v="route"/>
  </relation>
  <relation id="1191934" version="1" timestamp="2010-09-26T09:39:17Z" uid="33382" user="de_muur" changeset="5878690">
    <member type="node" ref="926304290" role=""/>
    <member type="way" ref="5321765" role=""/>
    <tag k="name" v="(Reeßum) - Steinfeld"/>
    <tag k="network" v="lcn"/>
    <tag k="operator" v="Landkreis Verden"/>
    <tag k="route" v="bicycle"/>
    <tag k="type" v="route"/>
  </relation>
</osm>
