<?xml version='1.0' encoding='UTF-8'?>
<osm version="0.6" generator="libosmium/2.20.0">
  <relation id="1211487" version="1" timestamp="2010-10-08T13:47:49Z" uid="33382" user="de_muur" changeset="5986155">
    <member type="node" ref="941437197" role=""/>
    <member type="way" ref="26655863" role=""/>
    <member type="node" ref="941437196" role=""/>
    <tag k="name" v="Elbe-Lübeck-Kanal - Wotersen"/>
    <tag k="network" v="lcn"/>
    <tag k="operator" v="Kreis Herzogtum Lauenburg"/>
    <tag k="route" v="bicycle"/>
    <tag k="type" v="route"/>
  </relation>
  <relation id="1211575" version="1" timestamp="2010-10-08T14:31:00Z" uid="33382" user="de_muur" changeset="5986487">
    <member type="node" ref="941441802" role=""/>
    <member type="way" ref="28775454" role=""/>
    <member type="way" ref="28775482" role=""/>
    <member type="way" ref="28775449" role=""/>
    <member type="node" ref="941465686" role=""/>
    <tag k="name" v="Büchen - Schwarzenbek"/>
    <tag k="network" v="lcn"/>
    <tag k="operator" v="Kreis Herzogtum Lauenburg"/>
    <tag k="route" v="bicycle"/>
    <tag k="type" v="route"/>
  </relation>
  <relation id="1211680" version="1" timestamp="2010-10-08T14:41:01Z" uid="33382" user="de_muur" changeset="5986568">
    <member type="node" ref="809809220" role=""/>
    <member type="way" ref="36336591" role=""/>
    <member type="node" ref="941470712" role=""/>
    <tag k="name" v="Müssen - Siebeneichen"/>
    <tag k="network" v="lcn"/>
    <tag k="operator" v="Kreis Herzogtum Lauenburg"/>
    <tag k="route" v="bicycle"/>
    <tag k="type" v="route"/>
  </relation>
  <relation id="1211689" version="1" timestamp="2010-10-08T15:10:03Z" uid="33382" user="de_muur" changeset="5986806">
    <member type="node" ref="809815615" role=""/>
    <member type="way" ref="38047600" role=""/>
    <member type="way" ref="38047598" role=""/>
    <member type="way" ref="34943088" role=""/>
    <member type="node" ref="718799265" role=""/>
    <tag k="name" v="Büchen - Wotersen"/>
    <tag k="network" v="lcn"/>
    <tag k="operator" v="Kreis Herzogtum Lauenburg"/>
    <tag k="route" v="bicycle"/>
    <tag k="type" v="route"/>
  </relation>
  <relation id="1211690" version="1" timestamp="2010-10-08T15:10:03Z" uid="33382" user="de_muur" changeset="5986806">
    <member type="node" ref="941437197" role=""/>
    <member type="way" ref="37462505" role=""/>
    <member type="way" ref="37904857" role=""/>
    <member type="way" ref="38048188" role=""/>
    <member type="way" ref="37843146" role=""/>
    <member type="way" ref="25012651" role=""/>
    <member type="node" ref="941472184" role=""/>
    <tag k="name" v="Elbe-Lübeck-Kanal - Schwarzenbek"/>
    <tag k="network" v="lcn"/>
    <tag k="operator" v="Kreis Herzogtum Lauenburg"/>
    <tag k="route" v="bicycle"/>
    <tag k="type" v="route"/>
  </relation>
</osm>
