<?xml version='1.0' encoding='UTF-8'?>
<osm version="0.6" generator="libosmium/2.20.0">
  <relation id="1249187" version="1" timestamp="2010-10-31T03:12:10Z" uid="7617" user="Franc" changeset="6234803">
    <member type="way" ref="19794882" role="from"/>
    <member type="way" ref="83441757" role="to"/>
    <member type="node" ref="28362108" role="via"/>
    <tag k="restriction" v="only_left_turn"/>
    <tag k="type" v="restriction"/>
  </relation>
  <relation id="1249188" version="1" timestamp="2010-10-31T03:12:11Z" uid="7617" user="Franc" changeset="6234803">
    <member type="way" ref="4764480" role="from"/>
    <member type="way" ref="83441743" role="to"/>
    <member type="node" ref="26638242" role="via"/>
    <tag k="restriction" v="no_right_turn"/>
    <tag k="type" v="restriction"/>
  </relation>
  <relation id="1249202" version="1" timestamp="2010-10-31T04:37:32Z" uid="7617" user="Franc" changeset="6234980">
    <member type="way" ref="33067492" role="from"/>
    <member type="way" ref="48665142" role="to"/>
    <member type="node" ref="373029609" role="via"/>
    <tag k="restriction" v="no_right_turn"/>
    <tag k="type" v="restriction"/>
  </relation>
  <relation id="1249203" version="1" timestamp="2010-10-31T04:37:32Z" uid="7617" user="Franc" changeset="6234980">
    <member type="way" ref="82608684" role="from"/>
    <member type="way" ref="10199580" role="to"/>
    <member type="node" ref="13886624" role="via"/>
    <tag k="restriction" v="no_right_turn"/>
    <tag k="type" v="restriction"/>
  </relation>
  <relation id="1249204" version="1" timestamp="2010-10-31T04:37:32Z" uid="7617" user="Franc" changeset="6234980">
    <member type="way" ref="4564806" role="from"/>
    <member type="way" ref="4564805" role="to"/>
    <member type="node" ref="28782885" role="via"/>
    <tag k="restriction" v="only_left_turn"/>
    <tag k="type" v="restriction"/>
  </relation>
  <relation id="1249205" version="1" timestamp="2010-10-31T04:37:32Z" uid="7617" user="Franc" changeset="6234980">
    <member type="way" ref="35031383" role="from"/>
    <member type="way" ref="3770421" role="to"/>
    <member type="node" ref="20954567" role="via"/>
    <tag k="restriction" v="no_right_turn"/>
    <tag k="type" v="restriction"/>
  </relation>
  <relation id="1249206" version="1" timestamp="2010-10-31T04:37:33Z" uid="7617" user="Franc" changeset="6234980">
    <member type="way" ref="3190134" role="from"/>
    <member type="way" ref="2956702" role="to"/>
    <member type="node" ref="15448386" role="via"/>
    <tag k="restriction" v="no_right_turn"/>
    <tag k="type" v="restriction"/>
  </relation>
  <relation id="1249207" version="1" timestamp="2010-10-31T04:37:33Z" uid="7617" user="Franc" changeset="6234980">
    <member type="way" ref="45235356" role="from"/>
    <member type="way" ref="83442805" role="to"/>
    <member type="node" ref="574265254" role="via"/>
    <tag k="restriction" v="no_left_turn"/>
    <tag k="type" v="restriction"/>
  </relation>
  <relation id="1249288" version="1" timestamp="2010-10-31T06:59:16Z" uid="33382" user="de_muur" changeset="6235335">
    <member type="node" ref="971680120" role=""/>
    <member type="way" ref="5104421" role=""/>
    <member type="way" ref="7956909" role=""/>
    <member type="node" ref="971698675" role=""/>
    <tag k="name" v="(Verden) - Weitzmühlen"/>
    <tag k="network" v="lcn"/>
    <tag k="operator" v="Landkreis Verden"/>
    <tag k="route" v="bicycle"/>
    <tag k="type" v="route"/>
  </relation>
  <relation id="1249289" version="1" timestamp="2010-10-31T06:59:17Z" uid="33382" user="de_muur" changeset="6235335">
    <member type="node" ref="971698675" role=""/>
    <member type="way" ref="77418170" role=""/>
    <member type="way" ref="83457156" role=""/>
    <member type="node" ref="971698690" role=""/>
    <tag k="name" v="Kirchlinteln - Verden"/>
    <tag k="network" v="lcn"/>
    <tag k="operator" v="Landkreis Verden"/>
    <tag k="route" v="bicycle"/>
    <tag k="type" v="route"/>
  </relation>
  <relation id="1249289" version="2" timestamp="2010-10-31T07:11:21Z" uid="33382" user="de_muur" changeset="6235391">
    <member type="node" ref="971698675" role=""/>
    <member type="way" ref="77418170" role=""/>
    <member type="way" ref="83457156" role=""/>
    <member type="node" ref="971698690" role=""/>
    <member type="way" ref="83457157" role=""/>
    <member type="node" ref="971717144" role=""/>
    <tag k="name" v="Kirchlinteln - Verden"/>
    <tag k="network" v="lcn"/>
    <tag k="operator" v="Landkreis Verden"/>
    <tag k="route" v="bicycle"/>
    <tag k="type" v="route"/>
  </relation>
  <relation id="1249362" version="1" timestamp="2010-10-31T07:34:41Z" uid="4467" user="Rosscoe" changeset="6235526">
    <member type="way" ref="4869607" role="to"/>
    <member type="node" ref="61078394" role="via"/>
    <member type="way" ref="25606320" role="from"/>
    <tag k="restriction" v="only_left_turn"/>
    <tag k="type" v="restriction"/>
  </relation>
  <relation id="1249363" version="1" timestamp="2010-10-31T07:34:42Z" uid="4467" user="Rosscoe" changeset="6235526">
    <member type="way" ref="83461827" role="to"/>
    <member type="node" ref="61078394" role="via"/>
    <member type="way" ref="8597412" role="from"/>
    <tag k="restriction" v="only_left_turn"/>
    <tag k="type" v="restriction"/>
  </relation>
  <relation id="1249417" version="1" timestamp="2010-10-31T08:25:10Z" uid="33382" user="de_muur" changeset="6235852">
    <member type="node" ref="971804693" role=""/>
    <member type="way" ref="77381708" role=""/>
    <member type="node" ref="971804689" role=""/>
    <tag k="name" v="Luttum - Verden"/>
    <tag k="network" v="lcn"/>
    <tag k="operator" v="Landkreis Verden"/>
    <tag k="route" v="bicycle"/>
    <tag k="type" v="route"/>
  </relation>
  <relation id="1249418" version="1" timestamp="2010-10-31T08:28:40Z" uid="33382" user="de_muur" changeset="6235878">
    <member type="node" ref="971717144" role=""/>
    <member type="way" ref="83457154" role=""/>
    <member type="way" ref="83459422" role=""/>
    <member type="way" ref="83464994" role=""/>
    <tag k="name" v="(Eitze) - Kirchlinteln"/>
    <tag k="network" v="lcn"/>
    <tag k="operator" v="Landkreis Verden"/>
    <tag k="route" v="bicycle"/>
    <tag k="type" v="route"/>
  </relation>
  <relation id="1249419" version="1" timestamp="2010-10-31T08:28:41Z" uid="33382" user="de_muur" changeset="6235878">
    <member type="node" ref="971804689" role=""/>
    <member type="way" ref="83465124" role=""/>
    <tag k="name" v="(Kirchlinteln) - Luttum"/>
    <tag k="network" v="lcn"/>
    <tag k="operator" v="Landkreis Verden"/>
    <tag k="route" v="bicycle"/>
    <tag k="type" v="route"/>
  </relation>
  <relation id="1249709" version="3" timestamp="2011-04-01T17:47:53Z" uid="115477" user="wowik" changeset="7737524">
    <member type="way" ref="42084432" role="outer"/>
    <member type="way" ref="83477349" role="outer"/>
    <tag k="type" v="building"/>
  </relation>
  <relation id="1249709" version="4" timestamp="2011-05-04T14:09:30Z" uid="115477" user="wowik" changeset="8049379">
    <member type="way" ref="42084432" role="outer"/>
    <member type="way" ref="83477349" role="outer"/>
    <tag k="type" v="multipolygon"/>
  </relation>
  <relation id="1249833" version="1" timestamp="2010-10-31T13:42:41Z" uid="33382" user="de_muur" changeset="6238546">
    <member type="node" ref="971804693" role=""/>
    <member type="way" ref="83464996" role=""/>
    <member type="way" ref="83464995" role=""/>
    <member type="way" ref="5108300" role=""/>
    <member type="way" ref="5108302" role=""/>
    <member type="node" ref="972182759" role=""/>
    <tag k="name" v="Deelsen - Eitze"/>
    <tag k="network" v="lcn"/>
    <tag k="operator" v="Landkreis Verden"/>
    <tag k="route" v="bicycle"/>
    <tag k="type" v="route"/>
  </relation>
  <relation id="1249834" version="1" timestamp="2010-10-31T13:42:43Z" uid="33382" user="de_muur" changeset="6238546">
    <member type="node" ref="972182759" role=""/>
    <member type="way" ref="77381813" role=""/>
    <member type="way" ref="83489285" role=""/>
    <member type="way" ref="77428901" role=""/>
    <tag k="name" v="Deelsen - (Eitze)"/>
    <tag k="network" v="lcn"/>
    <tag k="operator" v="Landkreis Verden"/>
    <tag k="route" v="bicycle"/>
    <tag k="type" v="route"/>
  </relation>
  <relation id="1249854" version="1" timestamp="2010-10-31T13:53:44Z" uid="33382" user="de_muur" changeset="6238675">
    <member type="node" ref="971804689" role=""/>
    <member type="way" ref="7956978" role=""/>
    <member type="way" ref="83490365" role=""/>
    <member type="node" ref="972199735" role=""/>
    <tag k="name" v="Ramelsen - Verden"/>
    <tag k="network" v="lcn"/>
    <tag k="operator" v="Landkreis Verden"/>
    <tag k="route" v="bicycle"/>
    <tag k="type" v="route"/>
  </relation>
  <relation id="1249868" version="1" timestamp="2010-10-31T14:08:35Z" uid="33382" user="de_muur" changeset="6238959">
    <member type="node" ref="685061755" role=""/>
    <member type="way" ref="54357975" role=""/>
    <member type="way" ref="32638773" role=""/>
    <member type="way" ref="53589327" role=""/>
    <tag k="name" v="Groß Heins - (Verden)"/>
    <tag k="network" v="lcn"/>
    <tag k="operator" v="Landkreis Verden"/>
    <tag k="route" v="bicycle"/>
    <tag k="type" v="route"/>
  </relation>
  <relation id="1249869" version="1" timestamp="2010-10-31T14:08:37Z" uid="33382" user="de_muur" changeset="6238959">
    <member type="node" ref="972215034" role=""/>
    <member type="way" ref="16606986" role=""/>
    <member type="way" ref="16583514" role=""/>
    <member type="way" ref="77381737" role=""/>
    <member type="node" ref="972199735" role=""/>
    <tag k="name" v="Deelsen - Kirchlinteln"/>
    <tag k="network" v="lcn"/>
    <tag k="operator" v="Landkreis Verden"/>
    <tag k="route" v="bicycle"/>
    <tag k="type" v="route"/>
  </relation>
  <relation id="1249870" version="1" timestamp="2010-10-31T14:08:37Z" uid="33382" user="de_muur" changeset="6238959">
    <member type="relation" ref="1249868" role=""/>
    <member type="way" ref="16606952" role=""/>
    <member type="way" ref="77381848" role=""/>
    <member type="way" ref="77381765" role=""/>
    <member type="way" ref="77381730" role=""/>
    <member type="node" ref="972215034" role=""/>
    <tag k="name" v="Armsen - Deelsen"/>
    <tag k="network" v="lcn"/>
    <tag k="operator" v="Landkreis Verden"/>
    <tag k="route" v="bicycle"/>
    <tag k="type" v="route"/>
  </relation>
</osm>
