<?xml version='1.0' encoding='UTF-8'?>
<osm version="0.6" generator="libosmium/2.20.0">
  <relation id="1255162" version="1" timestamp="2010-11-04T07:16:07Z" uid="33382" user="de_muur" changeset="6286176">
    <member type="node" ref="972199735" role=""/>
    <member type="way" ref="32849151" role=""/>
    <member type="way" ref="77381703" role=""/>
    <member type="way" ref="77381783" role=""/>
    <member type="way" ref="77430646" role=""/>
    <member type="way" ref="29186089" role=""/>
    <member type="node" ref="976458163" role=""/>
    <tag k="name" v="Armsen - Kirchlinteln"/>
    <tag k="network" v="lcn"/>
    <tag k="operator" v="Landkreis Verden"/>
    <tag k="route" v="bicycle"/>
    <tag k="type" v="route"/>
  </relation>
  <relation id="1255163" version="1" timestamp="2010-11-04T07:22:33Z" uid="33382" user="de_muur" changeset="6286193">
    <member type="node" ref="976458163" role=""/>
    <member type="way" ref="32849153" role=""/>
    <member type="way" ref="77381825" role=""/>
    <member type="way" ref="32849155" role=""/>
    <member type="way" ref="83888408" role=""/>
    <member type="way" ref="32849154" role=""/>
    <member type="node" ref="976458415" role=""/>
    <tag k="name" v="Kirchlinteln - Neddenaverbergen"/>
    <tag k="network" v="lcn"/>
    <tag k="operator" v="Landkreis Verden"/>
    <tag k="route" v="bicycle"/>
    <tag k="type" v="route"/>
  </relation>
  <relation id="1255167" version="1" timestamp="2010-11-04T07:31:29Z" uid="33382" user="de_muur" changeset="6286226">
    <member type="node" ref="976458415" role=""/>
    <member type="way" ref="83888446" role=""/>
    <member type="way" ref="28061841" role=""/>
    <member type="way" ref="22965496" role=""/>
    <member type="node" ref="976459130" role=""/>
    <tag k="name" v="Kükenmoor - Neddenaverbergen"/>
    <tag k="network" v="lcn"/>
    <tag k="operator" v="Landkreis Verden"/>
    <tag k="route" v="bicycle"/>
    <tag k="type" v="route"/>
  </relation>
  <relation id="1255168" version="1" timestamp="2010-11-04T07:31:31Z" uid="33382" user="de_muur" changeset="6286226">
    <member type="node" ref="976459129" role=""/>
    <member type="way" ref="83888406" role=""/>
    <member type="node" ref="976459130" role=""/>
    <tag k="name" v="Eitze - Kükenmoor"/>
    <tag k="network" v="lcn"/>
    <tag k="operator" v="Landkreis Verden"/>
    <tag k="route" v="bicycle"/>
    <tag k="type" v="route"/>
  </relation>
  <relation id="1255170" version="1" timestamp="2010-11-04T07:50:47Z" uid="33382" user="de_muur" changeset="6286306">
    <member type="node" ref="976458415" role=""/>
    <member type="way" ref="28061842" role=""/>
    <member type="node" ref="976460881" role=""/>
    <tag k="name" v="Specken - Verdenermoor"/>
    <tag k="network" v="lcn"/>
    <tag k="operator" v="Landkreis Verden"/>
    <tag k="route" v="bicycle"/>
    <tag k="type" v="route"/>
  </relation>
  <relation id="1255171" version="1" timestamp="2010-11-04T07:53:43Z" uid="33382" user="de_muur" changeset="6286321">
    <member type="node" ref="976460881" role=""/>
    <member type="way" ref="22959879" role=""/>
    <member type="way" ref="22959877" role=""/>
    <member type="way" ref="22959878" role=""/>
    <member type="node" ref="976461012" role=""/>
    <tag k="name" v="Armsen - Verdenermoor"/>
    <tag k="network" v="lcn"/>
    <tag k="operator" v="Landkreis Verden"/>
    <tag k="route" v="bicycle"/>
    <tag k="type" v="route"/>
  </relation>
  <relation id="1255172" version="1" timestamp="2010-11-04T07:59:16Z" uid="33382" user="de_muur" changeset="6286346">
    <member type="node" ref="976461012" role=""/>
    <member type="way" ref="77381805" role=""/>
    <member type="way" ref="83888982" role=""/>
    <member type="node" ref="976461705" role=""/>
    <tag k="name" v="Neddenaverbergen - Verdenermoor"/>
    <tag k="network" v="lcn"/>
    <tag k="operator" v="Landkreis Verden"/>
    <tag k="route" v="bicycle"/>
    <tag k="type" v="route"/>
  </relation>
  <relation id="1255176" version="1" timestamp="2010-11-04T08:06:38Z" uid="33382" user="de_muur" changeset="6286393">
    <member type="node" ref="976461705" role=""/>
    <member type="way" ref="76281498" role=""/>
    <member type="way" ref="76281518" role=""/>
    <member type="node" ref="976462428" role=""/>
    <tag k="name" v="Armsen - Groß Heins"/>
    <tag k="network" v="lcn"/>
    <tag k="operator" v="Landkreis Verden"/>
    <tag k="route" v="bicycle"/>
    <tag k="type" v="route"/>
  </relation>
  <relation id="1255177" version="1" timestamp="2010-11-04T08:06:39Z" uid="33382" user="de_muur" changeset="6286393">
    <member type="node" ref="685052266" role=""/>
    <member type="way" ref="22959880" role=""/>
    <member type="node" ref="976462428" role=""/>
    <tag k="name" v="Groß Heins - Schomühlen"/>
    <tag k="network" v="lcn"/>
    <tag k="operator" v="Landkreis Verden"/>
    <tag k="route" v="bicycle"/>
    <tag k="type" v="route"/>
  </relation>
  <relation id="1255183" version="1" timestamp="2010-11-04T08:12:09Z" uid="33382" user="de_muur" changeset="6286412">
    <member type="node" ref="976461012" role=""/>
    <member type="way" ref="77381749" role=""/>
    <member type="way" ref="77381761" role=""/>
    <member type="way" ref="76383847" role=""/>
    <member type="node" ref="976462954" role=""/>
    <tag k="name" v="Verdenermoor - Weitzmühlen"/>
    <tag k="network" v="lcn"/>
    <tag k="operator" v="Landkreis Verden"/>
    <tag k="route" v="bicycle"/>
    <tag k="type" v="route"/>
  </relation>
  <relation id="1255184" version="1" timestamp="2010-11-04T08:16:29Z" uid="33382" user="de_muur" changeset="6286429">
    <member type="node" ref="685052266" role=""/>
    <member type="way" ref="53658727" role=""/>
    <member type="way" ref="53658728" role=""/>
    <member type="way" ref="60120871" role=""/>
    <member type="node" ref="976463400" role=""/>
    <tag k="name" v="Kirchlinteln - Kohlenförde"/>
    <tag k="network" v="lcn"/>
    <tag k="operator" v="Landkreis Verden"/>
    <tag k="route" v="bicycle"/>
    <tag k="type" v="route"/>
  </relation>
  <relation id="1255185" version="1" timestamp="2010-11-04T08:16:30Z" uid="33382" user="de_muur" changeset="6286429">
    <member type="node" ref="976462954" role=""/>
    <member type="way" ref="77381766" role=""/>
    <member type="node" ref="976463400" role=""/>
    <tag k="name" v="Kohlenförde - (Verdenermoor)"/>
    <tag k="network" v="lcn"/>
    <tag k="operator" v="Landkreis Verden"/>
    <tag k="route" v="bicycle"/>
    <tag k="type" v="route"/>
  </relation>
  <relation id="1255185" version="2" timestamp="2010-11-04T08:22:01Z" uid="33382" user="de_muur" changeset="6286456">
    <member type="node" ref="976462954" role=""/>
    <member type="way" ref="77381766" role=""/>
    <tag k="name" v="Kohlenförde - (Verdenermoor)"/>
    <tag k="network" v="lcn"/>
    <tag k="operator" v="Landkreis Verden"/>
    <tag k="route" v="bicycle"/>
    <tag k="type" v="route"/>
  </relation>
  <relation id="1255185" version="3" timestamp="2010-11-04T08:40:05Z" uid="33382" user="de_muur" changeset="6286530">
    <member type="node" ref="976462954" role=""/>
    <member type="way" ref="77381766" role=""/>
    <member type="node" ref="976463400" role=""/>
    <tag k="name" v="Kohlenförde - (Verdenermoor)"/>
    <tag k="network" v="lcn"/>
    <tag k="operator" v="Landkreis Verden"/>
    <tag k="route" v="bicycle"/>
    <tag k="type" v="route"/>
  </relation>
  <relation id="1255187" version="1" timestamp="2010-11-04T08:21:44Z" uid="33382" user="de_muur" changeset="6286456">
    <member type="node" ref="976463864" role=""/>
    <member type="way" ref="77381796" role=""/>
    <member type="way" ref="83889165" role=""/>
    <tag k="name" v="(Kirchlinteln) - Neuenförde"/>
    <tag k="network" v="lcn"/>
    <tag k="operator" v="Landkreis Verden"/>
    <tag k="route" v="bicycle"/>
    <tag k="type" v="route"/>
  </relation>
  <relation id="1255187" version="2" timestamp="2010-11-04T08:40:06Z" uid="33382" user="de_muur" changeset="6286530">
    <member type="node" ref="976463864" role=""/>
    <member type="way" ref="77381796" role=""/>
    <member type="way" ref="83889165" role=""/>
    <member type="node" ref="976463400" role=""/>
    <tag k="name" v="(Kirchlinteln) - Neuenförde"/>
    <tag k="network" v="lcn"/>
    <tag k="operator" v="Landkreis Verden"/>
    <tag k="route" v="bicycle"/>
    <tag k="type" v="route"/>
  </relation>
  <relation id="1255188" version="1" timestamp="2010-11-04T08:30:14Z" uid="33382" user="de_muur" changeset="6286494">
    <member type="node" ref="976462954" role=""/>
    <member type="way" ref="77381822" role=""/>
    <tag k="name" v="(Kükenmoor) - Weitzmühlen"/>
    <tag k="network" v="lcn"/>
    <tag k="operator" v="Landkreis Verden"/>
    <tag k="route" v="bicycle"/>
    <tag k="type" v="route"/>
  </relation>
  <relation id="1255188" version="2" timestamp="2010-11-04T08:40:09Z" uid="33382" user="de_muur" changeset="6286530">
    <member type="node" ref="976462954" role=""/>
    <member type="way" ref="77381822" role=""/>
    <member type="node" ref="976463864" role=""/>
    <tag k="name" v="(Kükenmoor) - Weitzmühlen"/>
    <tag k="network" v="lcn"/>
    <tag k="operator" v="Landkreis Verden"/>
    <tag k="route" v="bicycle"/>
    <tag k="type" v="route"/>
  </relation>
  <relation id="1255189" version="1" timestamp="2010-11-04T08:30:14Z" uid="33382" user="de_muur" changeset="6286494">
    <member type="node" ref="976465363" role=""/>
    <member type="way" ref="77381778" role=""/>
    <member type="way" ref="77381833" role=""/>
    <tag k="name" v="Kükenmoor - (Weitzmühlen)"/>
    <tag k="network" v="lcn"/>
    <tag k="operator" v="Landkreis Verden"/>
    <tag k="route" v="bicycle"/>
    <tag k="type" v="route"/>
  </relation>
  <relation id="1255189" version="2" timestamp="2010-11-04T08:40:09Z" uid="33382" user="de_muur" changeset="6286530">
    <member type="node" ref="976465363" role=""/>
    <member type="way" ref="77381778" role=""/>
    <member type="way" ref="77381833" role=""/>
    <member type="node" ref="976463864" role=""/>
    <tag k="name" v="Kükenmoor - (Weitzmühlen)"/>
    <tag k="network" v="lcn"/>
    <tag k="operator" v="Landkreis Verden"/>
    <tag k="route" v="bicycle"/>
    <tag k="type" v="route"/>
  </relation>
  <relation id="1255192" version="1" timestamp="2010-11-04T08:39:48Z" uid="33382" user="de_muur" changeset="6286530">
    <member type="node" ref="972215034" role=""/>
    <member type="way" ref="56003427" role=""/>
    <member type="node" ref="976467128" role=""/>
    <tag k="name" v="Neuenförde - Weitzmühlen"/>
    <tag k="network" v="lcn"/>
    <tag k="operator" v="Landkreis Verden"/>
    <tag k="route" v="bicycle"/>
    <tag k="type" v="route"/>
  </relation>
  <relation id="1255193" version="1" timestamp="2010-11-04T08:39:49Z" uid="33382" user="de_muur" changeset="6286530">
    <member type="node" ref="976467128" role=""/>
    <member type="way" ref="77381831" role=""/>
    <member type="way" ref="77381786" role=""/>
    <member type="way" ref="77381705" role=""/>
    <member type="node" ref="976465363" role=""/>
    <tag k="name" v="(Neuenförde) - (Weitzmühlen)"/>
    <tag k="network" v="lcn"/>
    <tag k="operator" v="Landkreis Verden"/>
    <tag k="route" v="bicycle"/>
    <tag k="type" v="route"/>
  </relation>
  <relation id="1255194" version="1" timestamp="2010-11-04T08:39:49Z" uid="33382" user="de_muur" changeset="6286530">
    <member type="node" ref="976467128" role=""/>
    <member type="way" ref="29186091" role=""/>
    <member type="way" ref="77381748" role=""/>
    <member type="way" ref="77381834" role=""/>
    <member type="way" ref="77381787" role=""/>
    <member type="way" ref="77381756" role=""/>
    <member type="node" ref="976465363" role=""/>
    <tag k="name" v="Ramelsen - Ramelsen"/>
    <tag k="network" v="lcn"/>
    <tag k="operator" v="Landkreis Verden"/>
    <tag k="route" v="bicycle"/>
    <tag k="type" v="route"/>
  </relation>
  <relation id="1255205" version="1" timestamp="2010-11-04T09:08:43Z" uid="7617" user="Franc" changeset="6286712">
    <member type="way" ref="48889999" role="street"/>
    <member type="node" ref="976472820" role="house"/>
    <member type="node" ref="976472782" role="house"/>
    <member type="node" ref="976472878" role="house"/>
    <member type="node" ref="976472853" role="house"/>
    <member type="node" ref="976472834" role="house"/>
    <member type="node" ref="976472798" role="house"/>
    <member type="node" ref="976472751" role="house"/>
    <member type="node" ref="976472863" role="house"/>
    <member type="node" ref="976472784" role="house"/>
    <member type="node" ref="976472753" role="house"/>
    <member type="node" ref="976472859" role="house"/>
    <member type="node" ref="916285558" role="house"/>
    <member type="node" ref="890193043" role="house"/>
    <tag k="name" v="Addison Road"/>
    <tag k="type" v="associatedStreet"/>
  </relation>
  <relation id="1255205" version="2" timestamp="2011-05-06T10:28:56Z" uid="7617" user="Franc" changeset="8064166">
    <member type="way" ref="48889999" role="street"/>
    <member type="node" ref="976472820" role="house"/>
    <member type="node" ref="976472782" role="house"/>
    <member type="node" ref="976472878" role="house"/>
    <member type="node" ref="976472853" role="house"/>
    <member type="node" ref="976472834" role="house"/>
    <member type="node" ref="976472798" role="house"/>
    <member type="node" ref="976472751" role="house"/>
    <member type="node" ref="976472863" role="house"/>
    <member type="node" ref="976472784" role="house"/>
    <member type="node" ref="976472753" role="house"/>
    <member type="node" ref="976472859" role="house"/>
    <member type="node" ref="916285558" role="house"/>
    <member type="node" ref="890193043" role="house"/>
    <member type="node" ref="1274135780" role="house"/>
    <member type="node" ref="1274135712" role="house"/>
    <member type="node" ref="1274135661" role="house"/>
    <member type="node" ref="858324172" role="house"/>
    <member type="node" ref="1274135696" role="house"/>
    <tag k="name" v="Addison Road"/>
    <tag k="type" v="associatedStreet"/>
  </relation>
  <relation id="1255205" version="3" timestamp="2011-05-22T09:07:34Z" uid="7617" user="Franc" changeset="8213765">
    <member type="way" ref="48889999" role="street"/>
    <member type="node" ref="976472820" role="house"/>
    <member type="node" ref="976472782" role="house"/>
    <member type="node" ref="976472878" role="house"/>
    <member type="node" ref="976472853" role="house"/>
    <member type="node" ref="976472834" role="house"/>
    <member type="node" ref="976472798" role="house"/>
    <member type="node" ref="976472751" role="house"/>
    <member type="node" ref="976472863" role="house"/>
    <member type="node" ref="976472784" role="house"/>
    <member type="node" ref="976472753" role="house"/>
    <member type="node" ref="976472859" role="house"/>
    <member type="node" ref="916285558" role="house"/>
    <member type="node" ref="890193043" role="house"/>
    <member type="node" ref="1274135780" role="house"/>
    <member type="node" ref="1274135712" role="house"/>
    <member type="node" ref="1274135661" role="house"/>
    <member type="node" ref="858324172" role="house"/>
    <member type="node" ref="1274135696" role="house"/>
    <member type="node" ref="1295823162" role="house"/>
    <member type="node" ref="1295823414" role="house"/>
    <member type="node" ref="1295823283" role="house"/>
    <member type="node" ref="1295823508" role="house"/>
    <member type="node" ref="1295823642" role="house"/>
    <member type="node" ref="1295823128" role="house"/>
    <tag k="name" v="Addison Road"/>
    <tag k="type" v="associatedStreet"/>
  </relation>
  <relation id="1255205" version="4" timestamp="2011-05-23T08:03:29Z" uid="7617" user="Franc" changeset="8223909">
    <member type="way" ref="48889999" role="street"/>
    <member type="node" ref="976472820" role="house"/>
    <member type="node" ref="976472782" role="house"/>
    <member type="node" ref="976472878" role="house"/>
    <member type="node" ref="976472853" role="house"/>
    <member type="node" ref="976472834" role="house"/>
    <member type="node" ref="976472798" role="house"/>
    <member type="node" ref="976472751" role="house"/>
    <member type="node" ref="976472863" role="house"/>
    <member type="node" ref="976472784" role="house"/>
    <member type="node" ref="976472753" role="house"/>
    <member type="node" ref="976472859" role="house"/>
    <member type="node" ref="916285558" role="house"/>
    <member type="node" ref="890193043" role="house"/>
    <member type="node" ref="1274135780" role="house"/>
    <member type="node" ref="1274135712" role="house"/>
    <member type="node" ref="1274135661" role="house"/>
    <member type="node" ref="858324172" role="house"/>
    <member type="node" ref="1274135696" role="house"/>
    <member type="node" ref="1295823162" role="house"/>
    <member type="node" ref="1295823414" role="house"/>
    <member type="node" ref="1295823283" role="house"/>
    <member type="node" ref="1295823508" role="house"/>
    <member type="node" ref="1295823642" role="house"/>
    <member type="node" ref="1295823128" role="house"/>
    <member type="node" ref="1297038716" role="house"/>
    <member type="node" ref="1297038700" role="house"/>
    <member type="node" ref="1297038705" role="house"/>
    <member type="node" ref="1297038722" role="house"/>
    <tag k="name" v="Addison Road"/>
    <tag k="type" v="associatedStreet"/>
  </relation>
  <relation id="1255218" version="1" timestamp="2010-11-04T09:30:46Z" uid="33382" user="de_muur" changeset="6286863">
    <member type="node" ref="685061744" role=""/>
    <member type="way" ref="77381755" role=""/>
    <member type="node" ref="976476092" role=""/>
    <tag k="name" v="Borstel - (Deelsen)"/>
    <tag k="network" v="lcn"/>
    <tag k="operator" v="Landkreis Verden"/>
    <tag k="route" v="bicycle"/>
    <tag k="type" v="route"/>
  </relation>
  <relation id="1255219" version="1" timestamp="2010-11-04T09:30:48Z" uid="33382" user="de_muur" changeset="6286863">
    <member type="node" ref="976476092" role=""/>
    <member type="way" ref="83890771" role=""/>
    <member type="node" ref="976476057" role=""/>
    <tag k="name" v="(Borstel) - Deelsen"/>
    <tag k="network" v="lcn"/>
    <tag k="operator" v="Landkreis Verden"/>
    <tag k="route" v="bicycle"/>
    <tag k="type" v="route"/>
  </relation>
  <relation id="1255222" version="1" timestamp="2010-11-04T09:39:21Z" uid="33382" user="de_muur" changeset="6286911">
    <member type="node" ref="976476057" role=""/>
    <member type="way" ref="35134269" role=""/>
    <member type="way" ref="23448677" role=""/>
    <member type="way" ref="23448676" role=""/>
    <member type="way" ref="35134143" role=""/>
    <member type="way" ref="35091876" role=""/>
    <member type="way" ref="35134152" role=""/>
    <member type="node" ref="976478494" role=""/>
    <tag k="name" v="Borstel - Scharnhorst"/>
    <tag k="network" v="lcn"/>
    <tag k="operator" v="Landkreis Verden"/>
    <tag k="route" v="bicycle"/>
    <tag k="type" v="route"/>
  </relation>
  <relation id="1255225" version="1" timestamp="2010-11-04T09:49:39Z" uid="33382" user="de_muur" changeset="6286983">
    <member type="node" ref="976480709" role=""/>
    <member type="way" ref="83891288" role=""/>
    <member type="way" ref="83891289" role=""/>
    <member type="way" ref="5084361" role=""/>
    <member type="node" ref="976480708" role=""/>
    <tag k="name" v="Langwedel - Uhlenmühlen"/>
    <tag k="network" v="lcn"/>
    <tag k="operator" v="Landkreis Verden"/>
    <tag k="route" v="bicycle"/>
    <tag k="type" v="route"/>
  </relation>
  <relation id="1255225" version="2" timestamp="2010-11-04T09:54:44Z" uid="33382" user="de_muur" changeset="6287017">
    <member type="node" ref="976480709" role=""/>
    <member type="way" ref="83891288" role=""/>
    <member type="way" ref="83891289" role=""/>
    <member type="way" ref="5084361" role=""/>
    <member type="node" ref="976480708" role=""/>
    <member type="way" ref="5084362" role=""/>
    <member type="way" ref="83891379" role=""/>
    <member type="way" ref="83891378" role=""/>
    <member type="node" ref="976481394" role=""/>
    <tag k="name" v="Langwedel - Uhlenmühlen"/>
    <tag k="network" v="lcn"/>
    <tag k="operator" v="Landkreis Verden"/>
    <tag k="route" v="bicycle"/>
    <tag k="type" v="route"/>
  </relation>
  <relation id="1255227" version="1" timestamp="2010-11-04T09:54:21Z" uid="33382" user="de_muur" changeset="6287017">
    <member type="node" ref="841487332" role=""/>
    <member type="way" ref="5084363" role=""/>
    <member type="node" ref="976481394" role=""/>
    <tag k="name" v="(Langwedel) - Scharnhorst"/>
    <tag k="network" v="lcn"/>
    <tag k="operator" v="Landkreis Verden"/>
    <tag k="route" v="bicycle"/>
    <tag k="type" v="route"/>
  </relation>
  <relation id="1255487" version="2" timestamp="2010-11-12T12:59:41Z" uid="30632" user="antblant" changeset="6350633">
    <member type="way" ref="84882711" role=""/>
    <member type="way" ref="65644476" role=""/>
    <member type="way" ref="18497663" role=""/>
    <member type="way" ref="65644508" role=""/>
    <member type="way" ref="65644544" role=""/>
    <member type="way" ref="65644497" role=""/>
    <member type="way" ref="65644533" role=""/>
    <member type="way" ref="65644536" role=""/>
    <member type="way" ref="65644479" role=""/>
    <member type="way" ref="65644561" role=""/>
    <member type="way" ref="29268774" role=""/>
    <member type="way" ref="39624298" role=""/>
    <member type="way" ref="39624286" role=""/>
    <member type="way" ref="39624299" role=""/>
    <member type="way" ref="68921246" role=""/>
    <member type="way" ref="68921201" role=""/>
    <member type="way" ref="39624297" role=""/>
    <member type="way" ref="39624300" role=""/>
    <member type="way" ref="39624296" role=""/>
    <member type="way" ref="39537203" role=""/>
    <member type="way" ref="39624295" role=""/>
    <member type="way" ref="39728844" role=""/>
    <member type="way" ref="64712780" role=""/>
    <member type="way" ref="39537248" role=""/>
    <member type="way" ref="39624291" role=""/>
    <member type="way" ref="39624290" role=""/>
    <member type="way" ref="39624288" role=""/>
    <member type="way" ref="39624289" role=""/>
    <member type="way" ref="39624304" role=""/>
    <member type="way" ref="39624305" role=""/>
    <member type="way" ref="40068634" role=""/>
    <member type="way" ref="40068635" role=""/>
    <member type="way" ref="39261797" role=""/>
    <member type="way" ref="40068639" role=""/>
    <member type="way" ref="30611443" role=""/>
    <member type="way" ref="30611445" role=""/>
    <member type="way" ref="30611440" role=""/>
    <member type="way" ref="30611444" role=""/>
    <member type="way" ref="30611441" role=""/>
    <member type="way" ref="30611436" role=""/>
    <member type="way" ref="30611442" role=""/>
    <member type="way" ref="30619830" role=""/>
    <member type="way" ref="41428990" role=""/>
    <member type="way" ref="41428991" role=""/>
    <member type="way" ref="69556575" role=""/>
    <member type="way" ref="41428993" role=""/>
    <member type="way" ref="41428992" role=""/>
    <member type="way" ref="41429002" role=""/>
    <member type="way" ref="41428996" role=""/>
    <member type="way" ref="41428995" role=""/>
    <member type="way" ref="41429000" role=""/>
    <member type="way" ref="41429001" role=""/>
    <member type="way" ref="41429003" role=""/>
    <member type="way" ref="51788776" role=""/>
    <member type="way" ref="51788780" role=""/>
    <member type="way" ref="51788778" role=""/>
    <member type="way" ref="18661428" role=""/>
    <member type="way" ref="51788779" role=""/>
    <member type="way" ref="18661208" role=""/>
    <member type="way" ref="18661249" role=""/>
    <member type="way" ref="18661201" role=""/>
    <member type="way" ref="18661241" role=""/>
    <member type="way" ref="69556578" role=""/>
    <member type="way" ref="18661076" role=""/>
    <member type="way" ref="18498072" role=""/>
    <member type="way" ref="18661053" role=""/>
    <member type="way" ref="18661068" role=""/>
    <member type="way" ref="18661049" role=""/>
    <member type="way" ref="41429301" role=""/>
    <member type="way" ref="41429298" role=""/>
    <member type="way" ref="41429300" role=""/>
    <member type="way" ref="41429299" role=""/>
    <member type="way" ref="69556580" role=""/>
    <member type="way" ref="69556586" role=""/>
    <member type="way" ref="69556576" role=""/>
    <member type="way" ref="29892611" role=""/>
    <member type="way" ref="69556584" role=""/>
    <member type="way" ref="29892623" role=""/>
    <member type="way" ref="29892617" role=""/>
    <member type="way" ref="18498137" role=""/>
    <member type="way" ref="69556577" role=""/>
    <member type="way" ref="29892620" role=""/>
    <member type="way" ref="69556587" role=""/>
    <member type="way" ref="39761758" role=""/>
    <member type="way" ref="69556579" role=""/>
    <member type="way" ref="19115025" role=""/>
    <member type="way" ref="18660795" role=""/>
    <member type="way" ref="18660810" role=""/>
    <member type="way" ref="63956154" role=""/>
    <member type="way" ref="18660789" role=""/>
    <member type="way" ref="66389273" role=""/>
    <member type="way" ref="39761762" role=""/>
    <member type="way" ref="66389285" role=""/>
    <member type="way" ref="66389283" role=""/>
    <member type="way" ref="39630593" role=""/>
    <member type="way" ref="4336338" role=""/>
    <member type="way" ref="18660631" role=""/>
    <member type="way" ref="48178843" role=""/>
    <member type="way" ref="18496591" role=""/>
    <member type="way" ref="39750019" role=""/>
    <member type="way" ref="39750020" role=""/>
    <member type="way" ref="48178835" role=""/>
    <member type="way" ref="48178841" role=""/>
    <member type="way" ref="48178840" role=""/>
    <member type="way" ref="48178842" role=""/>
    <member type="way" ref="18660400" role=""/>
    <member type="way" ref="18496631" role=""/>
    <member type="way" ref="18660392" role=""/>
    <member type="way" ref="18496625" role=""/>
    <member type="way" ref="39750013" role=""/>
    <member type="way" ref="39630422" role=""/>
    <member type="way" ref="39630419" role=""/>
    <member type="way" ref="39630421" role=""/>
    <member type="way" ref="39630420" role=""/>
    <member type="way" ref="40801014" role=""/>
    <member type="way" ref="40801015" role=""/>
    <member type="way" ref="40801013" role=""/>
    <member type="way" ref="40801012" role=""/>
    <member type="way" ref="40801016" role=""/>
    <member type="way" ref="40801017" role=""/>
    <member type="way" ref="40801011" role=""/>
    <member type="way" ref="40801018" role=""/>
    <member type="way" ref="31859205" role=""/>
    <member type="way" ref="18497365" role=""/>
    <member type="way" ref="31859204" role=""/>
    <member type="way" ref="18497359" role=""/>
    <member type="way" ref="39750014" role=""/>
    <member type="way" ref="18496281" role=""/>
    <member type="way" ref="39761757" role=""/>
    <member type="way" ref="39761756" role=""/>
    <member type="way" ref="18495987" role=""/>
    <member type="way" ref="18495686" role=""/>
    <member type="way" ref="83912674" role=""/>
    <member type="way" ref="83912714" role=""/>
    <member type="way" ref="83912706" role=""/>
    <member type="way" ref="83912712" role=""/>
    <member type="way" ref="18659938" role=""/>
    <member type="way" ref="18660011" role=""/>
    <member type="way" ref="18495498" role=""/>
    <tag k="name" v="Droga krajowa 86"/>
    <tag k="network" v="pl:national"/>
    <tag k="ref" v="86"/>
    <tag k="route" v="road"/>
    <tag k="type" v="route"/>
    <tag k="wikipedia" v="pl:Droga krajowa nr 86"/>
  </relation>
  <relation id="1255586" version="1" timestamp="2010-11-04T18:32:07Z" uid="30632" user="antblant" changeset="6290602">
    <member type="way" ref="39179823" role=""/>
    <member type="way" ref="39179781" role=""/>
    <member type="way" ref="39297539" role=""/>
    <member type="way" ref="65072405" role=""/>
    <member type="way" ref="39131134" role=""/>
    <member type="way" ref="65072404" role=""/>
    <member type="way" ref="39131137" role=""/>
    <member type="way" ref="28344592" role=""/>
    <member type="way" ref="51176281" role=""/>
    <member type="way" ref="51176284" role=""/>
    <member type="way" ref="51176283" role=""/>
    <member type="way" ref="51176282" role=""/>
    <member type="way" ref="28344591" role=""/>
    <member type="way" ref="28344589" role=""/>
    <member type="way" ref="28344590" role=""/>
    <member type="way" ref="39131068" role=""/>
    <member type="way" ref="28341654" role=""/>
    <member type="way" ref="39131077" role=""/>
    <member type="way" ref="28341650" role=""/>
    <member type="way" ref="28341653" role=""/>
    <member type="way" ref="28341651" role=""/>
    <member type="way" ref="28341426" role=""/>
    <member type="way" ref="71357144" role=""/>
    <member type="way" ref="28341428" role=""/>
    <tag k="name" v="Droga krajowa 18"/>
    <tag k="network" v="pl:national"/>
    <tag k="ref" v="18"/>
    <tag k="route" v="road"/>
    <tag k="type" v="route"/>
    <tag k="wikipedia" v="pl:Droga krajowa nr 18"/>
  </relation>
  <relation id="1255598" version="1" timestamp="2010-11-04T18:44:52Z" uid="30632" user="antblant" changeset="6290681">
    <member type="way" ref="65500412" role=""/>
    <member type="way" ref="66206088" role=""/>
    <member type="way" ref="83918302" role=""/>
    <member type="way" ref="65484358" role=""/>
    <member type="way" ref="65484351" role=""/>
    <member type="way" ref="65484355" role=""/>
    <member type="way" ref="66297306" role=""/>
    <member type="way" ref="66297294" role=""/>
    <member type="way" ref="24821190" role=""/>
    <member type="way" ref="24820402" role=""/>
    <member type="way" ref="24809017" role=""/>
    <member type="way" ref="24809018" role=""/>
    <member type="way" ref="24820400" role=""/>
    <member type="way" ref="24820401" role=""/>
    <member type="way" ref="7989562" role=""/>
    <member type="way" ref="7989561" role=""/>
    <member type="way" ref="7989560" role=""/>
    <member type="way" ref="7989559" role=""/>
    <member type="way" ref="24802002" role=""/>
    <member type="way" ref="24802003" role=""/>
    <member type="way" ref="24808999" role=""/>
    <member type="way" ref="24801869" role=""/>
    <member type="way" ref="24801871" role=""/>
    <member type="way" ref="24801881" role=""/>
    <member type="way" ref="24801872" role=""/>
    <member type="way" ref="24801874" role=""/>
    <member type="way" ref="24801873" role=""/>
    <tag k="name" v="Droga krajowa 84"/>
    <tag k="network" v="pl:national"/>
    <tag k="ref" v="84"/>
    <tag k="route" v="road"/>
    <tag k="type" v="route"/>
    <tag k="wikipedia" v="pl:Droga krajowa nr 84"/>
  </relation>
  <relation id="1255598" version="2" timestamp="2010-12-11T15:08:18Z" uid="23543" user="jkjk" changeset="6625321">
    <member type="way" ref="66207077" role=""/>
    <member type="way" ref="65500412" role=""/>
    <member type="way" ref="66206088" role=""/>
    <member type="way" ref="83918302" role=""/>
    <member type="way" ref="65484358" role=""/>
    <member type="way" ref="65484351" role=""/>
    <member type="way" ref="65484355" role=""/>
    <member type="way" ref="66297306" role=""/>
    <member type="way" ref="66297294" role=""/>
    <member type="way" ref="24821190" role=""/>
    <member type="way" ref="24820402" role=""/>
    <member type="way" ref="24809017" role=""/>
    <member type="way" ref="24809018" role=""/>
    <member type="way" ref="24820400" role=""/>
    <member type="way" ref="24820401" role=""/>
    <member type="way" ref="7989562" role=""/>
    <member type="way" ref="7989561" role=""/>
    <member type="way" ref="7989560" role=""/>
    <member type="way" ref="7989559" role=""/>
    <member type="way" ref="24802002" role=""/>
    <member type="way" ref="24802003" role=""/>
    <member type="way" ref="24808999" role=""/>
    <member type="way" ref="24801869" role=""/>
    <member type="way" ref="24801871" role=""/>
    <member type="way" ref="24801881" role=""/>
    <member type="way" ref="24801872" role=""/>
    <member type="way" ref="24801874" role=""/>
    <member type="way" ref="24801873" role=""/>
    <tag k="name" v="Droga krajowa 84"/>
    <tag k="network" v="pl:national"/>
    <tag k="ref" v="84"/>
    <tag k="route" v="road"/>
    <tag k="type" v="route"/>
    <tag k="wikipedia" v="pl:Droga krajowa nr 84"/>
  </relation>
  <relation id="1255621" version="1" timestamp="2010-11-04T18:57:55Z" uid="30632" user="antblant" changeset="6290781">
    <member type="way" ref="23828347" role=""/>
    <member type="way" ref="23826517" role=""/>
    <member type="way" ref="23835404" role=""/>
    <member type="way" ref="28327303" role=""/>
    <member type="way" ref="58838483" role=""/>
    <member type="way" ref="23827955" role=""/>
    <member type="way" ref="23826557" role=""/>
    <tag k="name" v="Droga krajowa 90"/>
    <tag k="network" v="pl:national"/>
    <tag k="ref" v="90"/>
    <tag k="route" v="road"/>
    <tag k="type" v="route"/>
    <tag k="wikipedia" v="pl:Droga krajowa nr 90"/>
  </relation>
  <relation id="1255768" version="1" timestamp="2010-11-04T20:56:13Z" uid="30632" user="antblant" changeset="6291669">
    <member type="way" ref="83932392" role=""/>
    <member type="way" ref="83932412" role=""/>
    <member type="way" ref="44061800" role=""/>
    <member type="way" ref="83932386" role=""/>
    <tag k="admin_level" v="8"/>
    <tag k="boundary" v="administrative"/>
    <tag k="name" v="Gmina Grzmiąca"/>
    <tag k="type" v="boundary"/>
    <tag k="wikipedia" v="pl:Gmina_Grzmiąca"/>
  </relation>
</osm>
