<?xml version='1.0' encoding='UTF-8'?>
<osm version="0.6" generator="libosmium/2.20.0">
  <relation id="1261653" version="1" timestamp="2010-11-07T16:07:11Z" uid="33382" user="de_muur" changeset="6312856">
    <tag k="description" v="Ratzeburg - Bäk - Mechower See - Mustin - Salem - Ratzeburg"/>
    <tag k="distance" v="26km"/>
    <tag k="name" v="Tour 10"/>
    <tag k="operator" v="Kreis Herzogtum Lauenburg"/>
    <tag k="ref" v="10"/>
    <tag k="route" v="bicycle"/>
    <tag k="type" v="route"/>
  </relation>
  <relation id="1261653" version="2" timestamp="2010-11-14T15:57:23Z" uid="33382" user="de_muur" changeset="6367866">
    <tag k="description" v="Ratzeburg - Bäk - Mechower See - Mustin - Salem - Ratzeburg"/>
    <tag k="distance" v="26km"/>
    <tag k="name" v="Tour 10"/>
    <tag k="network" v="lcn"/>
    <tag k="operator" v="Kreis Herzogtum Lauenburg"/>
    <tag k="ref" v="10"/>
    <tag k="route" v="bicycle"/>
    <tag k="type" v="route"/>
  </relation>
  <relation id="1261654" version="1" timestamp="2010-11-07T16:07:11Z" uid="33382" user="de_muur" changeset="6312856">
    <tag k="description" v="Salem - Seedorf - Marienstedt - Hollenbek - Sterley - Salem"/>
    <tag k="distance" v="26km"/>
    <tag k="name" v="Tour 11"/>
    <tag k="operator" v="Kreis Herzogtum Lauenburg"/>
    <tag k="ref" v="11"/>
    <tag k="route" v="bicycle"/>
    <tag k="type" v="route"/>
  </relation>
  <relation id="1261654" version="2" timestamp="2010-11-08T09:12:10Z" uid="33382" user="de_muur" changeset="6318752">
    <member type="way" ref="77677758" role=""/>
    <member type="way" ref="84526304" role=""/>
    <member type="way" ref="77677791" role=""/>
    <member type="way" ref="84526305" role=""/>
    <member type="way" ref="77677782" role=""/>
    <tag k="description" v="Salem - Seedorf - Marienstedt - Hollenbek - Sterley - Salem"/>
    <tag k="distance" v="26km"/>
    <tag k="name" v="Tour 11"/>
    <tag k="operator" v="Kreis Herzogtum Lauenburg"/>
    <tag k="ref" v="11"/>
    <tag k="route" v="bicycle"/>
    <tag k="type" v="route"/>
  </relation>
  <relation id="1261654" version="3" timestamp="2010-11-14T15:57:52Z" uid="33382" user="de_muur" changeset="6367866">
    <member type="way" ref="77677758" role=""/>
    <member type="way" ref="84526304" role=""/>
    <member type="way" ref="77677791" role=""/>
    <member type="way" ref="84526305" role=""/>
    <member type="way" ref="77677782" role=""/>
    <tag k="description" v="Salem - Seedorf - Marienstedt - Hollenbek - Sterley - Salem"/>
    <tag k="distance" v="26km"/>
    <tag k="name" v="Tour 11"/>
    <tag k="network" v="lcn"/>
    <tag k="operator" v="Kreis Herzogtum Lauenburg"/>
    <tag k="ref" v="11"/>
    <tag k="route" v="bicycle"/>
    <tag k="type" v="route"/>
  </relation>
  <relation id="1261655" version="1" timestamp="2010-11-07T16:07:12Z" uid="33382" user="de_muur" changeset="6312856">
    <tag k="description" v="Güster - Wotersen - Niendorf - Breitenfelde - Kanal - Güster"/>
    <tag k="distance" v="25km"/>
    <tag k="name" v="Tour 16"/>
    <tag k="operator" v="Kreis Herzogtum Lauenburg"/>
    <tag k="ref" v="16"/>
    <tag k="route" v="bicycle"/>
    <tag k="type" v="route"/>
  </relation>
  <relation id="1261655" version="2" timestamp="2010-11-08T09:51:32Z" uid="33382" user="de_muur" changeset="6319005">
    <member type="way" ref="57717943" role=""/>
    <member type="way" ref="25040477" role=""/>
    <member type="way" ref="8581116" role=""/>
    <member type="way" ref="34990064" role=""/>
    <member type="way" ref="57717933" role=""/>
    <member type="way" ref="66420523" role=""/>
    <tag k="description" v="Güster - Wotersen - Niendorf - Breitenfelde - Kanal - Güster"/>
    <tag k="distance" v="25km"/>
    <tag k="name" v="Tour 16"/>
    <tag k="operator" v="Kreis Herzogtum Lauenburg"/>
    <tag k="ref" v="16"/>
    <tag k="route" v="bicycle"/>
    <tag k="type" v="route"/>
  </relation>
  <relation id="1261655" version="3" timestamp="2010-11-09T07:01:59Z" uid="33382" user="de_muur" changeset="6325626">
    <member type="way" ref="57717943" role=""/>
    <member type="way" ref="25040477" role=""/>
    <member type="way" ref="8581116" role=""/>
    <member type="way" ref="34990064" role=""/>
    <member type="way" ref="57717933" role=""/>
    <member type="way" ref="57931989" role=""/>
    <member type="way" ref="57738749" role=""/>
    <member type="way" ref="8580005" role=""/>
    <member type="way" ref="25012636" role=""/>
    <member type="way" ref="37865238" role=""/>
    <member type="way" ref="37865239" role=""/>
    <member type="way" ref="34990014" role=""/>
    <member type="way" ref="34943089" role=""/>
    <member type="way" ref="35101055" role=""/>
    <member type="way" ref="34943088" role=""/>
    <member type="way" ref="34943087" role=""/>
    <member type="way" ref="34943084" role=""/>
    <member type="way" ref="25012633" role=""/>
    <member type="way" ref="24794016" role=""/>
    <member type="way" ref="66420523" role=""/>
    <tag k="description" v="Güster - Wotersen - Niendorf - Breitenfelde - Kanal - Güster"/>
    <tag k="distance" v="25km"/>
    <tag k="name" v="Tour 16"/>
    <tag k="operator" v="Kreis Herzogtum Lauenburg"/>
    <tag k="ref" v="16"/>
    <tag k="route" v="bicycle"/>
    <tag k="type" v="route"/>
  </relation>
  <relation id="1261655" version="4" timestamp="2010-11-14T15:57:32Z" uid="33382" user="de_muur" changeset="6367866">
    <member type="way" ref="57717943" role=""/>
    <member type="way" ref="25040477" role=""/>
    <member type="way" ref="8581116" role=""/>
    <member type="way" ref="34990064" role=""/>
    <member type="way" ref="57717933" role=""/>
    <member type="way" ref="57931989" role=""/>
    <member type="way" ref="57738749" role=""/>
    <member type="way" ref="8580005" role=""/>
    <member type="way" ref="25012636" role=""/>
    <member type="way" ref="37865238" role=""/>
    <member type="way" ref="37865239" role=""/>
    <member type="way" ref="34990014" role=""/>
    <member type="way" ref="34943089" role=""/>
    <member type="way" ref="35101055" role=""/>
    <member type="way" ref="34943088" role=""/>
    <member type="way" ref="34943087" role=""/>
    <member type="way" ref="34943084" role=""/>
    <member type="way" ref="25012633" role=""/>
    <member type="way" ref="24794016" role=""/>
    <member type="way" ref="66420523" role=""/>
    <tag k="description" v="Güster - Wotersen - Niendorf - Breitenfelde - Kanal - Güster"/>
    <tag k="distance" v="25km"/>
    <tag k="name" v="Tour 16"/>
    <tag k="network" v="lcn"/>
    <tag k="operator" v="Kreis Herzogtum Lauenburg"/>
    <tag k="ref" v="16"/>
    <tag k="route" v="bicycle"/>
    <tag k="type" v="route"/>
  </relation>
  <relation id="1261655" version="5" timestamp="2011-03-12T08:56:13Z" uid="33382" user="de_muur" changeset="7530777">
    <member type="way" ref="57717943" role=""/>
    <member type="way" ref="25040477" role=""/>
    <member type="way" ref="8581116" role=""/>
    <member type="way" ref="34990064" role=""/>
    <member type="way" ref="57717933" role=""/>
    <member type="way" ref="57931989" role=""/>
    <member type="way" ref="57738749" role=""/>
    <member type="way" ref="8580005" role=""/>
    <member type="way" ref="25012636" role=""/>
    <member type="way" ref="37865238" role=""/>
    <member type="way" ref="37865239" role=""/>
    <member type="way" ref="34990014" role=""/>
    <member type="way" ref="34943089" role=""/>
    <member type="way" ref="35101055" role=""/>
    <member type="way" ref="34943088" role=""/>
    <member type="way" ref="34943087" role=""/>
    <member type="way" ref="34943084" role=""/>
    <member type="way" ref="25012633" role=""/>
    <member type="way" ref="24794016" role=""/>
    <member type="way" ref="66420523" role=""/>
    <member type="way" ref="103766948" role=""/>
    <member type="way" ref="103766929" role=""/>
    <tag k="description" v="Güster - Wotersen - Niendorf - Breitenfelde - Kanal - Güster"/>
    <tag k="distance" v="25km"/>
    <tag k="name" v="Tour 16"/>
    <tag k="network" v="lcn"/>
    <tag k="operator" v="Kreis Herzogtum Lauenburg"/>
    <tag k="ref" v="16"/>
    <tag k="route" v="bicycle"/>
    <tag k="type" v="route"/>
  </relation>
  <relation id="1261655" version="6" timestamp="2011-05-06T16:28:35Z" uid="33382" user="de_muur" changeset="8066625">
    <member type="way" ref="57717943" role=""/>
    <member type="way" ref="25040477" role=""/>
    <member type="way" ref="8581116" role=""/>
    <member type="way" ref="34990064" role=""/>
    <member type="way" ref="57717933" role=""/>
    <member type="way" ref="57931989" role=""/>
    <member type="way" ref="57738749" role=""/>
    <member type="way" ref="8580005" role=""/>
    <member type="way" ref="25012636" role=""/>
    <member type="way" ref="37865238" role=""/>
    <member type="way" ref="37865239" role=""/>
    <member type="way" ref="34990014" role=""/>
    <member type="way" ref="34943089" role=""/>
    <member type="way" ref="35101055" role=""/>
    <member type="way" ref="34943088" role=""/>
    <member type="way" ref="34943087" role=""/>
    <member type="way" ref="34943084" role=""/>
    <member type="way" ref="25012633" role=""/>
    <member type="way" ref="24794016" role=""/>
    <member type="way" ref="33962938" role=""/>
    <member type="way" ref="112015116" role=""/>
    <member type="way" ref="66420523" role=""/>
    <member type="way" ref="103766948" role=""/>
    <member type="way" ref="103766929" role=""/>
    <tag k="description" v="Güster - Wotersen - Niendorf - Breitenfelde - Kanal - Güster"/>
    <tag k="distance" v="25km"/>
    <tag k="name" v="Tour 16"/>
    <tag k="network" v="lcn"/>
    <tag k="operator" v="Kreis Herzogtum Lauenburg"/>
    <tag k="ref" v="16"/>
    <tag k="route" v="bicycle"/>
    <tag k="type" v="route"/>
  </relation>
  <relation id="1261655" version="7" timestamp="2011-05-06T16:34:19Z" uid="33382" user="de_muur" changeset="8066663">
    <member type="way" ref="57717943" role=""/>
    <member type="way" ref="25040477" role=""/>
    <member type="way" ref="8581116" role=""/>
    <member type="way" ref="34990064" role=""/>
    <member type="way" ref="57717933" role=""/>
    <member type="way" ref="57931989" role=""/>
    <member type="way" ref="57738749" role=""/>
    <member type="way" ref="8580005" role=""/>
    <member type="way" ref="25012636" role=""/>
    <member type="way" ref="37865238" role=""/>
    <member type="way" ref="37865239" role=""/>
    <member type="way" ref="34990014" role=""/>
    <member type="way" ref="34943089" role=""/>
    <member type="way" ref="35101055" role=""/>
    <member type="way" ref="34943088" role=""/>
    <member type="way" ref="34943087" role=""/>
    <member type="way" ref="34943084" role=""/>
    <member type="way" ref="25012633" role=""/>
    <member type="way" ref="24794016" role=""/>
    <member type="way" ref="112015946" role=""/>
    <member type="way" ref="24436925" role=""/>
    <member type="way" ref="61985864" role=""/>
    <member type="way" ref="33962938" role=""/>
    <member type="way" ref="112015116" role=""/>
    <member type="way" ref="66420523" role=""/>
    <member type="way" ref="103766948" role=""/>
    <member type="way" ref="103766929" role=""/>
    <tag k="description" v="Güster - Wotersen - Niendorf - Breitenfelde - Kanal - Güster"/>
    <tag k="distance" v="25km"/>
    <tag k="name" v="Tour 16"/>
    <tag k="network" v="lcn"/>
    <tag k="operator" v="Kreis Herzogtum Lauenburg"/>
    <tag k="ref" v="16"/>
    <tag k="route" v="bicycle"/>
    <tag k="type" v="route"/>
  </relation>
  <relation id="1261655" version="8" timestamp="2011-05-06T19:32:25Z" uid="33382" user="de_muur" changeset="8068076">
    <member type="way" ref="57717943" role=""/>
    <member type="way" ref="25040477" role=""/>
    <member type="way" ref="8581116" role=""/>
    <member type="way" ref="34990064" role=""/>
    <member type="way" ref="57717933" role=""/>
    <member type="way" ref="57931989" role=""/>
    <member type="way" ref="57738749" role=""/>
    <member type="way" ref="8580005" role=""/>
    <member type="way" ref="25012636" role=""/>
    <member type="way" ref="37865238" role=""/>
    <member type="way" ref="37865239" role=""/>
    <member type="way" ref="34990014" role=""/>
    <member type="way" ref="34943089" role=""/>
    <member type="way" ref="35101055" role=""/>
    <member type="way" ref="34943088" role=""/>
    <member type="way" ref="34943087" role=""/>
    <member type="way" ref="34943084" role=""/>
    <member type="way" ref="25012633" role=""/>
    <member type="way" ref="24794016" role=""/>
    <member type="way" ref="27928805" role=""/>
    <member type="way" ref="24436930" role=""/>
    <member type="way" ref="112015946" role=""/>
    <member type="way" ref="24436925" role=""/>
    <member type="way" ref="61985864" role=""/>
    <member type="way" ref="33962938" role=""/>
    <member type="way" ref="112015116" role=""/>
    <member type="way" ref="66420523" role=""/>
    <member type="way" ref="103766948" role=""/>
    <member type="way" ref="103766929" role=""/>
    <tag k="description" v="Güster - Wotersen - Niendorf - Breitenfelde - Kanal - Güster"/>
    <tag k="distance" v="25km"/>
    <tag k="name" v="Tour 16"/>
    <tag k="network" v="lcn"/>
    <tag k="operator" v="Kreis Herzogtum Lauenburg"/>
    <tag k="ref" v="16"/>
    <tag k="route" v="bicycle"/>
    <tag k="type" v="route"/>
  </relation>
  <relation id="1261656" version="1" timestamp="2010-11-07T16:07:12Z" uid="33382" user="de_muur" changeset="6312856">
    <tag k="description" v="Ratzeburg - Fredeburg - Behlendorf - Berkenthin - Gr. Disnack - Ratzeburg"/>
    <tag k="distance" v="32km"/>
    <tag k="name" v="Tour 26"/>
    <tag k="operator" v="Kreis Herzogtum Lauenburg"/>
    <tag k="ref" v="26"/>
    <tag k="route" v="bicycle"/>
    <tag k="type" v="route"/>
  </relation>
  <relation id="1261656" version="2" timestamp="2010-11-14T15:57:39Z" uid="33382" user="de_muur" changeset="6367866">
    <tag k="description" v="Ratzeburg - Fredeburg - Behlendorf - Berkenthin - Gr. Disnack - Ratzeburg"/>
    <tag k="distance" v="32km"/>
    <tag k="name" v="Tour 26"/>
    <tag k="network" v="lcn"/>
    <tag k="operator" v="Kreis Herzogtum Lauenburg"/>
    <tag k="ref" v="26"/>
    <tag k="route" v="bicycle"/>
    <tag k="type" v="route"/>
  </relation>
  <relation id="1261656" version="3" timestamp="2011-04-12T18:58:11Z" uid="33382" user="de_muur" changeset="7845560">
    <member type="way" ref="37953217" role=""/>
    <member type="way" ref="108248740" role=""/>
    <tag k="description" v="Ratzeburg - Fredeburg - Behlendorf - Berkenthin - Gr. Disnack - Ratzeburg"/>
    <tag k="distance" v="32km"/>
    <tag k="name" v="Tour 26"/>
    <tag k="network" v="lcn"/>
    <tag k="operator" v="Kreis Herzogtum Lauenburg"/>
    <tag k="ref" v="26"/>
    <tag k="route" v="bicycle"/>
    <tag k="type" v="route"/>
  </relation>
  <relation id="1261656" version="4" timestamp="2011-04-13T19:58:14Z" uid="33382" user="de_muur" changeset="7855328">
    <member type="way" ref="24792866" role=""/>
    <member type="way" ref="39887830" role=""/>
    <member type="way" ref="37462507" role=""/>
    <member type="way" ref="24792867" role=""/>
    <member type="way" ref="58394599" role=""/>
    <member type="way" ref="108249640" role=""/>
    <member type="way" ref="37462483" role=""/>
    <member type="way" ref="58394593" role=""/>
    <member type="way" ref="58394611" role=""/>
    <member type="way" ref="37953217" role=""/>
    <member type="way" ref="108248740" role=""/>
    <tag k="description" v="Ratzeburg - Fredeburg - Behlendorf - Berkenthin - Gr. Disnack - Ratzeburg"/>
    <tag k="distance" v="32km"/>
    <tag k="name" v="Tour 26"/>
    <tag k="network" v="lcn"/>
    <tag k="operator" v="Kreis Herzogtum Lauenburg"/>
    <tag k="ref" v="26"/>
    <tag k="route" v="bicycle"/>
    <tag k="type" v="route"/>
  </relation>
  <relation id="1261656" version="5" timestamp="2011-04-15T18:30:24Z" uid="33382" user="de_muur" changeset="7872242">
    <member type="way" ref="108643901" role=""/>
    <member type="way" ref="47474749" role=""/>
    <member type="way" ref="24792866" role=""/>
    <member type="way" ref="39887830" role=""/>
    <member type="way" ref="37462507" role=""/>
    <member type="way" ref="24792867" role=""/>
    <member type="way" ref="58394599" role=""/>
    <member type="way" ref="108249640" role=""/>
    <member type="way" ref="37462483" role=""/>
    <member type="way" ref="58394593" role=""/>
    <member type="way" ref="58394611" role=""/>
    <member type="way" ref="37953217" role=""/>
    <member type="way" ref="108248740" role=""/>
    <tag k="description" v="Ratzeburg - Fredeburg - Behlendorf - Berkenthin - Gr. Disnack - Ratzeburg"/>
    <tag k="distance" v="32km"/>
    <tag k="name" v="Tour 26"/>
    <tag k="network" v="lcn"/>
    <tag k="operator" v="Kreis Herzogtum Lauenburg"/>
    <tag k="ref" v="26"/>
    <tag k="route" v="bicycle"/>
    <tag k="type" v="route"/>
  </relation>
  <relation id="1261657" version="1" timestamp="2010-11-07T16:07:13Z" uid="33382" user="de_muur" changeset="6312856">
    <tag k="description" v="Mölln - westl. Kanalufer - Anker - Behlendorf - Fredeburg - Mölln"/>
    <tag k="distance" v="26km"/>
    <tag k="name" v="Tour 27"/>
    <tag k="operator" v="Kreis Herzogtum Lauenburg"/>
    <tag k="ref" v="27"/>
    <tag k="route" v="bicycle"/>
    <tag k="type" v="route"/>
  </relation>
  <relation id="1261657" version="2" timestamp="2010-11-14T15:57:12Z" uid="33382" user="de_muur" changeset="6367866">
    <tag k="description" v="Mölln - westl. Kanalufer - Anker - Behlendorf - Fredeburg - Mölln"/>
    <tag k="distance" v="26km"/>
    <tag k="name" v="Tour 27"/>
    <tag k="network" v="lcn"/>
    <tag k="operator" v="Kreis Herzogtum Lauenburg"/>
    <tag k="ref" v="27"/>
    <tag k="route" v="bicycle"/>
    <tag k="type" v="route"/>
  </relation>
  <relation id="1261657" version="3" timestamp="2011-04-12T18:58:10Z" uid="33382" user="de_muur" changeset="7845560">
    <member type="way" ref="33682827" role=""/>
    <member type="way" ref="48410389" role=""/>
    <member type="way" ref="108247486" role=""/>
    <member type="way" ref="108248740" role=""/>
    <tag k="description" v="Mölln - westl. Kanalufer - Anker - Behlendorf - Fredeburg - Mölln"/>
    <tag k="distance" v="26km"/>
    <tag k="name" v="Tour 27"/>
    <tag k="network" v="lcn"/>
    <tag k="operator" v="Kreis Herzogtum Lauenburg"/>
    <tag k="ref" v="27"/>
    <tag k="route" v="bicycle"/>
    <tag k="type" v="route"/>
  </relation>
  <relation id="1261657" version="4" timestamp="2011-05-14T17:28:35Z" uid="33382" user="de_muur" changeset="8143452">
    <member type="way" ref="33682827" role=""/>
    <member type="way" ref="48410389" role=""/>
    <member type="way" ref="108247486" role=""/>
    <member type="way" ref="108248740" role=""/>
    <tag k="description" v="Mölln - westl. Kanalufer - Anker - Behlendorf - Fredeburg - Mölln"/>
    <tag k="distance" v="26km"/>
    <tag k="name" v="Tour 27"/>
    <tag k="network" v="lcn"/>
    <tag k="operator" v="Kreis Herzogtum Lauenburg"/>
    <tag k="ref" v="27"/>
    <tag k="route" v="bicycle"/>
    <tag k="type" v="route"/>
  </relation>
  <relation id="1261657" version="5" timestamp="2011-06-14T19:03:33Z" uid="33382" user="de_muur" changeset="8440636">
    <member type="way" ref="33682827" role=""/>
    <member type="way" ref="48410389" role=""/>
    <member type="way" ref="33602551" role=""/>
    <member type="way" ref="53047901" role=""/>
    <member type="way" ref="37462474" role=""/>
    <member type="way" ref="117686675" role=""/>
    <member type="way" ref="37487065" role=""/>
    <member type="way" ref="26156054" role=""/>
    <member type="way" ref="37462492" role=""/>
    <member type="way" ref="108247486" role=""/>
    <member type="way" ref="108248740" role=""/>
    <tag k="description" v="Mölln - westl. Kanalufer - Anker - Behlendorf - Fredeburg - Mölln"/>
    <tag k="distance" v="26km"/>
    <tag k="name" v="Tour 27"/>
    <tag k="network" v="lcn"/>
    <tag k="operator" v="Kreis Herzogtum Lauenburg"/>
    <tag k="ref" v="27"/>
    <tag k="route" v="bicycle"/>
    <tag k="type" v="route"/>
  </relation>
  <relation id="1261657" version="6" timestamp="2011-06-14T19:33:07Z" uid="33382" user="de_muur" changeset="8441034">
    <member type="way" ref="108248740" role=""/>
    <member type="way" ref="108247486" role=""/>
    <member type="way" ref="117705191" role=""/>
    <member type="way" ref="24639339" role=""/>
    <member type="way" ref="24639331" role=""/>
    <member type="way" ref="24974987" role=""/>
    <member type="way" ref="24974986" role=""/>
    <member type="way" ref="113253639" role=""/>
    <member type="way" ref="113253631" role=""/>
    <member type="way" ref="33682827" role=""/>
    <member type="way" ref="48410389" role=""/>
    <member type="way" ref="33602551" role=""/>
    <member type="way" ref="53047901" role=""/>
    <member type="way" ref="37462474" role=""/>
    <member type="way" ref="117686675" role=""/>
    <member type="way" ref="37487065" role=""/>
    <member type="way" ref="26156054" role=""/>
    <member type="way" ref="37462492" role=""/>
    <tag k="description" v="Mölln - westl. Kanalufer - Anker - Behlendorf - Fredeburg - Mölln"/>
    <tag k="distance" v="26km"/>
    <tag k="name" v="Tour 27"/>
    <tag k="network" v="lcn"/>
    <tag k="operator" v="Kreis Herzogtum Lauenburg"/>
    <tag k="ref" v="27"/>
    <tag k="route" v="bicycle"/>
    <tag k="type" v="route"/>
  </relation>
</osm>
