<?xml version='1.0' encoding='UTF-8'?>
<osm version="0.6" generator="libosmium/2.20.0">
  <relation id="1381039" version="1" timestamp="2011-01-18T13:46:58Z" uid="115477" user="wowik" changeset="7010580">
    <member type="way" ref="36830633" role="outer"/>
    <member type="way" ref="95644695" role="outer"/>
    <member type="way" ref="95644692" role="outer"/>
    <tag k="type" v="multipolygon"/>
  </relation>
  <relation id="1381039" version="2" timestamp="2011-02-02T12:15:26Z" uid="115477" user="wowik" changeset="7164005"/>
  <relation id="1381039" version="3" timestamp="2011-02-04T19:13:34Z" uid="115477" user="wowik" changeset="7186156"/>
  <relation id="1381107" version="1" timestamp="2011-01-18T14:23:31Z" uid="33382" user="de_muur" changeset="7010887">
    <member type="node" ref="1109046203" role=""/>
    <member type="way" ref="95655103" role=""/>
    <member type="way" ref="95532772" role=""/>
    <tag k="name" v="Kirchlinteln - (Rahnhorst)"/>
    <tag k="network" v="lcn"/>
    <tag k="operator" v="Landkreis Verden"/>
    <tag k="route" v="bicycle"/>
    <tag k="type" v="route"/>
  </relation>
  <relation id="1381108" version="1" timestamp="2011-01-18T14:23:32Z" uid="33382" user="de_muur" changeset="7010887">
    <member type="node" ref="1109046217" role=""/>
    <member type="way" ref="5898678" role=""/>
    <member type="way" ref="95655106" role=""/>
    <member type="way" ref="10621817" role=""/>
    <member type="way" ref="28323877" role=""/>
    <member type="node" ref="1109046203" role=""/>
    <tag k="name" v="Kirchlinteln - Kirchwalsede"/>
    <tag k="network" v="lcn"/>
    <tag k="operator" v="Landkreis Rotenburg (Wümme)"/>
    <tag k="route" v="bicycle"/>
    <tag k="type" v="route"/>
  </relation>
  <relation id="1381130" version="1" timestamp="2011-01-18T14:46:45Z" uid="33382" user="de_muur" changeset="7011075">
    <member type="node" ref="1109070331" role=""/>
    <member type="way" ref="24218256" role=""/>
    <member type="way" ref="95415974" role=""/>
    <member type="way" ref="24218260" role=""/>
    <member type="node" ref="1109070336" role=""/>
    <tag k="name" v="Holtum/Geest - Scharnhorst"/>
    <tag k="network" v="lcn"/>
    <tag k="operator" v="Landkreis Verden"/>
    <tag k="route" v="bicycle"/>
    <tag k="type" v="route"/>
  </relation>
  <relation id="1381131" version="1" timestamp="2011-01-18T14:46:45Z" uid="33382" user="de_muur" changeset="7011075">
    <member type="node" ref="1109070336" role=""/>
    <member type="way" ref="5898671" role=""/>
    <member type="node" ref="1107665600" role=""/>
    <tag k="name" v="Scharnhorst - Süderwalsede"/>
    <tag k="network" v="lcn"/>
    <tag k="operator" v="Landkreis Verden"/>
    <tag k="route" v="bicycle"/>
    <tag k="type" v="route"/>
  </relation>
  <relation id="1381132" version="1" timestamp="2011-01-18T14:46:46Z" uid="33382" user="de_muur" changeset="7011075">
    <member type="node" ref="1109070331" role=""/>
    <member type="way" ref="95658518" role=""/>
    <member type="way" ref="95415968" role=""/>
    <tag k="name" v="(Süderwalsede) - Walle"/>
    <tag k="network" v="lcn"/>
    <tag k="operator" v="Landkreis Verden"/>
    <tag k="route" v="bicycle"/>
    <tag k="type" v="route"/>
  </relation>
  <relation id="1381133" version="1" timestamp="2011-01-18T14:46:46Z" uid="33382" user="de_muur" changeset="7011075">
    <member type="node" ref="681240280" role=""/>
    <member type="way" ref="54357033" role=""/>
    <member type="node" ref="1109070331" role=""/>
    <tag k="name" v="Deelsen - Süderwalsede"/>
    <tag k="network" v="lcn"/>
    <tag k="operator" v="Landkreis Verden"/>
    <tag k="route" v="bicycle"/>
    <tag k="type" v="route"/>
  </relation>
  <relation id="1381139" version="1" timestamp="2011-01-18T14:54:57Z" uid="33382" user="de_muur" changeset="7011143">
    <member type="node" ref="681240270" role=""/>
    <member type="way" ref="23549059" role=""/>
    <member type="way" ref="95415977" role=""/>
    <member type="node" ref="1109077619" role=""/>
    <tag k="name" v="Ahausen - Walle"/>
    <tag k="network" v="lcn"/>
    <tag k="operator" v="Landkreis Verden"/>
    <tag k="route" v="bicycle"/>
    <tag k="type" v="route"/>
  </relation>
  <relation id="1381140" version="1" timestamp="2011-01-18T14:59:04Z" uid="33382" user="de_muur" changeset="7011174">
    <member type="node" ref="681240272" role=""/>
    <member type="way" ref="5942022" role=""/>
    <member type="node" ref="1109079931" role=""/>
    <tag k="name" v="Scharnhorst - Süderwalsede"/>
    <tag k="network" v="lcn"/>
    <tag k="operator" v="Landkreis Verden"/>
    <tag k="route" v="bicycle"/>
    <tag k="type" v="route"/>
  </relation>
  <relation id="1381141" version="1" timestamp="2011-01-18T14:59:04Z" uid="33382" user="de_muur" changeset="7011174">
    <member type="node" ref="681240269" role=""/>
    <member type="way" ref="33096864" role=""/>
    <member type="node" ref="1109079931" role=""/>
    <tag k="name" v="Scharnhorst - Völkersen"/>
    <tag k="network" v="lcn"/>
    <tag k="operator" v="Landkreis Verden"/>
    <tag k="route" v="bicycle"/>
    <tag k="type" v="route"/>
  </relation>
  <relation id="1381142" version="1" timestamp="2011-01-18T15:03:49Z" uid="33382" user="de_muur" changeset="7011215">
    <member type="node" ref="1109079931" role=""/>
    <member type="way" ref="5942030" role=""/>
    <member type="node" ref="1109085361" role=""/>
    <tag k="name" v="Scharnhorst - Wedehof"/>
    <tag k="network" v="lcn"/>
    <tag k="operator" v="Landkreis Verden"/>
    <tag k="route" v="bicycle"/>
    <tag k="type" v="route"/>
  </relation>
  <relation id="1381142" version="2" timestamp="2011-03-27T16:12:05Z" uid="33382" user="de_muur" changeset="7687811">
    <member type="node" ref="1109079931" role=""/>
    <member type="way" ref="5942030" role=""/>
    <member type="node" ref="1109085361" role=""/>
    <member type="way" ref="95659580" role=""/>
    <member type="way" ref="95414380" role=""/>
    <member type="way" ref="106109132" role=""/>
    <member type="node" ref="1221694063" role=""/>
    <tag k="name" v="Scharnhorst - Wedehof"/>
    <tag k="network" v="lcn"/>
    <tag k="operator" v="Landkreis Verden"/>
    <tag k="route" v="bicycle"/>
    <tag k="type" v="route"/>
  </relation>
  <relation id="1381150" version="1" timestamp="2011-01-18T15:12:11Z" uid="33382" user="de_muur" changeset="7011284">
    <member type="node" ref="1109085361" role=""/>
    <member type="way" ref="23549021" role=""/>
    <member type="way" ref="95414392" role=""/>
    <member type="node" ref="1109090526" role=""/>
    <tag k="name" v="Overing - Wedehof"/>
    <tag k="network" v="lcn"/>
    <tag k="operator" v="Landkreis Verden"/>
    <tag k="route" v="bicycle"/>
    <tag k="type" v="route"/>
  </relation>
  <relation id="1381158" version="1" timestamp="2011-01-18T15:20:17Z" uid="33382" user="de_muur" changeset="7011333">
    <member type="node" ref="681217507" role=""/>
    <member type="way" ref="23887527" role=""/>
    <member type="way" ref="23887526" role=""/>
    <member type="way" ref="27678930" role=""/>
    <member type="way" ref="95414385" role=""/>
    <member type="node" ref="1109097786" role=""/>
    <tag k="name" v="B 215 - Schülingen"/>
    <tag k="network" v="lcn"/>
    <tag k="operator" v="Landkreis Verden"/>
    <tag k="route" v="bicycle"/>
    <tag k="type" v="route"/>
  </relation>
  <relation id="1381159" version="1" timestamp="2011-01-18T15:20:18Z" uid="33382" user="de_muur" changeset="7011333">
    <member type="node" ref="1109090526" role=""/>
    <member type="way" ref="95660069" role=""/>
    <member type="node" ref="1109097786" role=""/>
    <tag k="name" v="Heidkrug - Verden"/>
    <tag k="network" v="lcn"/>
    <tag k="operator" v="Landkreis Verden"/>
    <tag k="route" v="bicycle"/>
    <tag k="type" v="route"/>
  </relation>
  <relation id="1381163" version="1" timestamp="2011-01-18T15:28:05Z" uid="33382" user="de_muur" changeset="7011398">
    <member type="node" ref="681240268" role=""/>
    <member type="way" ref="32638172" role=""/>
    <member type="way" ref="32638173" role=""/>
    <member type="node" ref="1109108459" role=""/>
    <tag k="name" v="Völkersen - Wedehof"/>
    <tag k="network" v="lcn"/>
    <tag k="operator" v="Landkreis Verden"/>
    <tag k="route" v="bicycle"/>
    <tag k="type" v="route"/>
  </relation>
  <relation id="1381164" version="1" timestamp="2011-01-18T15:28:05Z" uid="33382" user="de_muur" changeset="7011398">
    <member type="node" ref="1109097786" role=""/>
    <member type="way" ref="95660666" role=""/>
    <member type="node" ref="1109108459" role=""/>
    <tag k="name" v="Völkersen - Walle"/>
    <tag k="network" v="lcn"/>
    <tag k="operator" v="Landkreis Verden"/>
    <tag k="route" v="bicycle"/>
    <tag k="type" v="route"/>
  </relation>
</osm>
