<?xml version='1.0' encoding='UTF-8'?>
<osm version="0.6" generator="libosmium/2.20.0">
  <relation id="1404071" version="1" timestamp="2011-02-02T11:35:42Z" uid="115477" user="wowik" changeset="7163726">
    <member type="node" ref="1130993364" role="admin_centre"/>
    <member type="way" ref="97689308" role="outer"/>
    <tag k="admin_level" v="10"/>
    <tag k="boundary" v="administrative"/>
    <tag k="type" v="boundary"/>
  </relation>
  <relation id="1404072" version="1" timestamp="2011-02-02T11:35:42Z" uid="115477" user="wowik" changeset="7163726">
    <member type="node" ref="695256349" role="admin_centre"/>
    <member type="way" ref="97690187" role="outer"/>
    <tag k="admin_level" v="10"/>
    <tag k="boundary" v="administrative"/>
    <tag k="type" v="boundary"/>
  </relation>
  <relation id="1404073" version="1" timestamp="2011-02-02T11:35:43Z" uid="115477" user="wowik" changeset="7163726">
    <member type="node" ref="1130993266" role="admin_centre"/>
    <member type="way" ref="97689304" role="outer"/>
    <tag k="admin_level" v="10"/>
    <tag k="boundary" v="administrative"/>
    <tag k="type" v="boundary"/>
  </relation>
  <relation id="1404074" version="1" timestamp="2011-02-02T11:35:43Z" uid="115477" user="wowik" changeset="7163726">
    <member type="node" ref="631528835" role="admin_centre"/>
    <member type="way" ref="97689297" role="outer"/>
    <tag k="admin_level" v="10"/>
    <tag k="boundary" v="administrative"/>
    <tag k="type" v="boundary"/>
  </relation>
  <relation id="1404075" version="1" timestamp="2011-02-02T11:35:43Z" uid="115477" user="wowik" changeset="7163726">
    <member type="way" ref="97690188" role="outer"/>
    <member type="node" ref="631528698" role="admin_centre"/>
    <tag k="admin_level" v="10"/>
    <tag k="boundary" v="administrative"/>
    <tag k="type" v="boundary"/>
  </relation>
  <relation id="1404076" version="1" timestamp="2011-02-02T11:35:43Z" uid="115477" user="wowik" changeset="7163726">
    <member type="node" ref="1131129009" role="admin_centre"/>
    <member type="way" ref="97704342" role="outer"/>
    <tag k="admin_level" v="10"/>
    <tag k="boundary" v="administrative"/>
    <tag k="type" v="boundary"/>
  </relation>
  <relation id="1404303" version="1" timestamp="2011-02-02T15:29:51Z" uid="33382" user="de_muur" changeset="7165726">
    <member type="node" ref="775847829" role=""/>
    <member type="way" ref="60208815" role=""/>
    <tag k="name" v="Verden - (Wulmstorf)"/>
    <tag k="network" v="lcn"/>
    <tag k="operator" v="Landkreis Verden"/>
    <tag k="route" v="bicycle"/>
    <tag k="type" v="route"/>
  </relation>
  <relation id="1404308" version="1" timestamp="2011-02-02T15:38:15Z" uid="33382" user="de_muur" changeset="7165791">
    <member type="node" ref="1131396150" role=""/>
    <member type="way" ref="66116633" role=""/>
    <member type="way" ref="26966905" role=""/>
    <member type="way" ref="5030389" role=""/>
    <member type="node" ref="1132418804" role=""/>
    <tag k="name" v="Ortsmitte - Schwarme"/>
    <tag k="network" v="lcn"/>
    <tag k="operator" v="Landkreis Diepholz"/>
    <tag k="route" v="bicycle"/>
    <tag k="type" v="route"/>
  </relation>
  <relation id="1404308" version="2" timestamp="2011-02-02T15:41:05Z" uid="33382" user="de_muur" changeset="7165811">
    <member type="node" ref="1131396150" role=""/>
    <member type="way" ref="66116633" role=""/>
    <member type="way" ref="26966905" role=""/>
    <member type="way" ref="5030389" role=""/>
    <member type="node" ref="1132418804" role=""/>
    <member type="way" ref="30027473" role=""/>
    <member type="node" ref="1132423158" role=""/>
    <tag k="name" v="Ortsmitte - Schwarme"/>
    <tag k="network" v="lcn"/>
    <tag k="operator" v="Landkreis Diepholz"/>
    <tag k="route" v="bicycle"/>
    <tag k="type" v="route"/>
  </relation>
  <relation id="1404335" version="1" timestamp="2011-02-02T15:56:47Z" uid="33382" user="de_muur" changeset="7165930">
    <member type="node" ref="1132432969" role=""/>
    <member type="way" ref="33238177" role=""/>
    <member type="node" ref="1132432968" role=""/>
    <tag k="name" v="Bruchhausen-Vilsen - Martfeld"/>
    <tag k="network" v="lcn"/>
    <tag k="operator" v="Landkreis Diepholz"/>
    <tag k="route" v="bicycle"/>
    <tag k="type" v="route"/>
  </relation>
  <relation id="1404336" version="1" timestamp="2011-02-02T15:56:47Z" uid="33382" user="de_muur" changeset="7165930">
    <member type="node" ref="1132432969" role=""/>
    <member type="way" ref="33275764" role=""/>
    <member type="node" ref="1132432970" role=""/>
    <tag k="name" v="Bruchhausen-Vilsen - Ortsmitte"/>
    <tag k="network" v="lcn"/>
    <tag k="operator" v="Landkreis Diepholz"/>
    <tag k="route" v="bicycle"/>
    <tag k="type" v="route"/>
  </relation>
  <relation id="1404337" version="1" timestamp="2011-02-02T15:56:47Z" uid="33382" user="de_muur" changeset="7165930">
    <member type="node" ref="1132423158" role=""/>
    <member type="way" ref="97834682" role=""/>
    <member type="way" ref="47045567" role=""/>
    <member type="node" ref="1132432967" role=""/>
    <tag k="name" v="Bruchhausen-Vilsen - Martfeld"/>
    <tag k="network" v="lcn"/>
    <tag k="operator" v="Landkreis Diepholz"/>
    <tag k="route" v="bicycle"/>
    <tag k="type" v="route"/>
  </relation>
  <relation id="1404399" version="1" timestamp="2011-02-02T17:43:43Z" uid="115477" user="wowik" changeset="7166738">
    <member type="way" ref="33294312" role="outer"/>
    <member type="way" ref="97847879" role="inner"/>
    <tag k="type" v="multipolygon"/>
  </relation>
</osm>
