<?xml version='1.0' encoding='UTF-8'?>
<osm version="0.6" generator="libosmium/2.20.0">
  <relation id="1441003" version="1" timestamp="2011-02-22T16:14:07Z" uid="115477" user="wowik" changeset="7364783">
    <member type="node" ref="821821859" role="admin_centre"/>
    <member type="way" ref="101001848" role="outer"/>
    <tag k="admin_level" v="10"/>
    <tag k="boundary" v="administrative"/>
    <tag k="name" v="Обухово"/>
    <tag k="place" v="hamlet"/>
    <tag k="type" v="boundary"/>
  </relation>
  <relation id="1441004" version="1" timestamp="2011-02-22T16:14:07Z" uid="115477" user="wowik" changeset="7364783">
    <member type="node" ref="824117097" role="admin_centre"/>
    <member type="way" ref="101001900" role="outer"/>
    <member type="way" ref="101001932" role="outer"/>
    <member type="way" ref="101001906" role="outer"/>
    <tag k="admin_level" v="10"/>
    <tag k="boundary" v="administrative"/>
    <tag k="name" v="Захарово"/>
    <tag k="type" v="boundary"/>
  </relation>
  <relation id="1441005" version="1" timestamp="2011-02-22T16:14:07Z" uid="115477" user="wowik" changeset="7364783">
    <member type="node" ref="266187101" role="admin_centre"/>
    <member type="way" ref="101001866" role="outer"/>
    <member type="way" ref="101001854" role="outer"/>
    <member type="way" ref="101001857" role="outer"/>
    <tag k="admin_level" v="10"/>
    <tag k="boundary" v="administrative"/>
    <tag k="name" v="Старое Домкино"/>
    <tag k="place" v="hamlet"/>
    <tag k="type" v="boundary"/>
  </relation>
  <relation id="1441006" version="1" timestamp="2011-02-22T16:14:07Z" uid="115477" user="wowik" changeset="7364783">
    <member type="node" ref="457893136" role="admin_centre"/>
    <member type="way" ref="101001912" role="outer"/>
    <tag k="admin_level" v="10"/>
    <tag k="boundary" v="administrative"/>
    <tag k="name" v="Юренево"/>
    <tag k="place" v="hamlet"/>
    <tag k="type" v="boundary"/>
  </relation>
  <relation id="1441007" version="1" timestamp="2011-02-22T16:14:07Z" uid="115477" user="wowik" changeset="7364783">
    <member type="node" ref="457893132" role="admin_centre"/>
    <member type="way" ref="101001859" role="outer"/>
    <tag k="admin_level" v="10"/>
    <tag k="boundary" v="administrative"/>
    <tag k="name" v="Верханово"/>
    <tag k="place" v="hamlet"/>
    <tag k="type" v="boundary"/>
  </relation>
  <relation id="1441008" version="1" timestamp="2011-02-22T16:14:07Z" uid="115477" user="wowik" changeset="7364783">
    <member type="node" ref="821821882" role="admin_centre"/>
    <member type="way" ref="101001879" role="outer"/>
    <member type="way" ref="101001902" role="outer"/>
    <tag k="admin_level" v="10"/>
    <tag k="boundary" v="administrative"/>
    <tag k="name" v="Старое Завражье"/>
    <tag k="place" v="hamlet"/>
    <tag k="type" v="boundary"/>
  </relation>
  <relation id="1441009" version="1" timestamp="2011-02-22T16:14:08Z" uid="115477" user="wowik" changeset="7364783">
    <member type="node" ref="266193492" role="admin_centre"/>
    <member type="way" ref="101001924" role="outer"/>
    <tag k="admin_level" v="10"/>
    <tag k="boundary" v="administrative"/>
    <tag k="name" v="Мишино"/>
    <tag k="place" v="hamlet"/>
    <tag k="type" v="boundary"/>
  </relation>
  <relation id="1441010" version="1" timestamp="2011-02-22T16:14:08Z" uid="115477" user="wowik" changeset="7364783">
    <member type="node" ref="821821849" role="admin_centre"/>
    <member type="way" ref="101001926" role="outer"/>
    <tag k="admin_level" v="10"/>
    <tag k="boundary" v="administrative"/>
    <tag k="name" v="Колодкино"/>
    <tag k="place" v="hamlet"/>
    <tag k="type" v="boundary"/>
  </relation>
  <relation id="1441011" version="1" timestamp="2011-02-22T16:14:08Z" uid="115477" user="wowik" changeset="7364783">
    <member type="node" ref="821821931" role="admin_centre"/>
    <member type="way" ref="101001889" role="outer"/>
    <member type="way" ref="101001921" role="outer"/>
    <member type="way" ref="101001943" role="outer"/>
    <member type="way" ref="101001902" role="outer"/>
    <tag k="admin_level" v="10"/>
    <tag k="name" v="Юрьево"/>
    <tag k="place" v="hamlet"/>
    <tag k="type" v="boundary"/>
  </relation>
  <relation id="1441012" version="1" timestamp="2011-02-22T16:14:08Z" uid="115477" user="wowik" changeset="7364783">
    <member type="node" ref="821821850" role="admin_centre"/>
    <member type="way" ref="101001910" role="outer"/>
    <tag k="admin_level" v="10"/>
    <tag k="boundary" v="administrative"/>
    <tag k="name" v="Коровино"/>
    <tag k="place" v="hamlet"/>
    <tag k="type" v="boundary"/>
  </relation>
  <relation id="1441013" version="1" timestamp="2011-02-22T16:14:08Z" uid="115477" user="wowik" changeset="7364783">
    <member type="node" ref="821821928" role="admin_centre"/>
    <member type="way" ref="101001934" role="outer"/>
    <tag k="admin_level" v="10"/>
    <tag k="boundary" v="administrative"/>
    <tag k="name" v="Архангельское"/>
    <tag k="place" v="hamlet"/>
    <tag k="type" v="boundary"/>
  </relation>
  <relation id="1441014" version="1" timestamp="2011-02-22T16:14:09Z" uid="115477" user="wowik" changeset="7364783">
    <member type="node" ref="1154029529" role="admin_centre"/>
    <member type="way" ref="101001857" role="outer"/>
    <member type="way" ref="101001885" role="outer"/>
    <member type="way" ref="101001852" role="outer"/>
    <tag k="admin_level" v="10"/>
    <tag k="boundary" v="administrative"/>
    <tag k="name" v="Воронуха"/>
    <tag k="place" v="hamlet"/>
    <tag k="type" v="boundary"/>
  </relation>
  <relation id="1441015" version="1" timestamp="2011-02-22T16:14:09Z" uid="115477" user="wowik" changeset="7364783">
    <member type="node" ref="824117251" role="admin_centre"/>
    <member type="way" ref="101001939" role="outer"/>
    <member type="way" ref="101001932" role="outer"/>
    <member type="way" ref="101001892" role="outer"/>
    <tag k="admin_level" v="10"/>
    <tag k="boundary" v="administrative"/>
    <tag k="name" v="Уразово"/>
    <tag k="place" v="hamlet"/>
    <tag k="type" v="boundary"/>
  </relation>
  <relation id="1441016" version="1" timestamp="2011-02-22T16:14:09Z" uid="115477" user="wowik" changeset="7364783">
    <member type="node" ref="821821900" role="admin_centre"/>
    <member type="way" ref="101001884" role="outer"/>
    <member type="way" ref="101001854" role="outer"/>
    <member type="way" ref="101001885" role="outer"/>
    <tag k="admin_level" v="10"/>
    <tag k="boundary" v="administrative"/>
    <tag k="name" v="Никольское"/>
    <tag k="place" v="hamlet"/>
    <tag k="type" v="boundary"/>
  </relation>
  <relation id="1441017" version="1" timestamp="2011-02-22T16:14:09Z" uid="115477" user="wowik" changeset="7364783">
    <member type="node" ref="821821891" role="admin_centre"/>
    <member type="way" ref="101001898" role="outer"/>
    <tag k="admin_level" v="10"/>
    <tag k="boundary" v="administrative"/>
    <tag k="name" v="Новое Домкино"/>
    <tag k="place" v="hamlet"/>
    <tag k="type" v="boundary"/>
  </relation>
  <relation id="1441018" version="1" timestamp="2011-02-22T16:14:09Z" uid="115477" user="wowik" changeset="7364783">
    <member type="node" ref="821821937" role="admin_centre"/>
    <member type="way" ref="101001922" role="outer"/>
    <tag k="admin_level" v="10"/>
    <tag k="boundary" v="administrative"/>
    <tag k="name" v="Фролово"/>
    <tag k="place" v="hamlet"/>
    <tag k="type" v="boundary"/>
  </relation>
  <relation id="1441030" version="1" timestamp="2011-02-22T16:24:13Z" uid="115477" user="wowik" changeset="7364861">
    <member type="node" ref="266194332" role="admin_centre"/>
    <member type="way" ref="101004072" role="outer"/>
    <tag k="admin_level" v="10"/>
    <tag k="boundary" v="administrative"/>
    <tag k="name" v="Данилово"/>
    <tag k="place" v="hamlet"/>
    <tag k="type" v="boundary"/>
  </relation>
  <relation id="1441038" version="1" timestamp="2011-02-22T16:42:03Z" uid="115477" user="wowik" changeset="7365016">
    <member type="node" ref="821821899" role="admin_centre"/>
    <member type="way" ref="101006372" role="outer"/>
    <tag k="admin_level" v="10"/>
    <tag k="boundary" v="administrative"/>
    <tag k="name" v="Спиридово"/>
    <tag k="place" v="hamlet"/>
    <tag k="type" v="boundary"/>
  </relation>
  <relation id="1441039" version="1" timestamp="2011-02-22T16:42:03Z" uid="115477" user="wowik" changeset="7365016">
    <member type="node" ref="821821863" role="admin_centre"/>
    <member type="way" ref="101006395" role="outer"/>
    <tag k="admin_level" v="10"/>
    <tag k="boundary" v="administrative"/>
    <tag k="name" v="Кувалдино"/>
    <tag k="place" v="hamlet"/>
    <tag k="type" v="boundary"/>
  </relation>
  <relation id="1441040" version="1" timestamp="2011-02-22T16:42:04Z" uid="115477" user="wowik" changeset="7365016">
    <member type="node" ref="1166678911" role="admin_centre"/>
    <member type="way" ref="101006392" role="outer"/>
    <tag k="admin_level" v="10"/>
    <tag k="boundary" v="administrative"/>
    <tag k="name" v="Малое Токарево"/>
    <tag k="place" v="hamlet"/>
    <tag k="type" v="boundary"/>
  </relation>
  <relation id="1441041" version="1" timestamp="2011-02-22T16:42:04Z" uid="115477" user="wowik" changeset="7365016">
    <member type="node" ref="824117248" role="admin_centre"/>
    <member type="way" ref="101006387" role="outer"/>
    <tag k="admin_level" v="10"/>
    <tag k="boundary" v="administrative"/>
    <tag k="name" v="Слободка"/>
    <tag k="place" v="hamlet"/>
    <tag k="type" v="boundary"/>
  </relation>
  <relation id="1441096" version="1" timestamp="2011-02-22T18:06:02Z" uid="9581" user="Lobelt" changeset="7365778">
    <member type="way" ref="101014793" role="inner"/>
    <member type="way" ref="101014791" role="outer"/>
    <tag k="type" v="multipolygon"/>
  </relation>
  <relation id="1441117" version="1" timestamp="2011-02-22T18:35:25Z" uid="115477" user="wowik" changeset="7366008">
    <member type="node" ref="266194334" role="admin_centre"/>
    <member type="way" ref="101020572" role="outer"/>
    <tag k="admin_level" v="10"/>
    <tag k="boundary" v="administrative"/>
    <tag k="name" v="Сынково"/>
    <tag k="place" v="hamlet"/>
    <tag k="type" v="boundary"/>
  </relation>
  <relation id="1441118" version="1" timestamp="2011-02-22T18:35:26Z" uid="115477" user="wowik" changeset="7366008">
    <member type="node" ref="824116940" role="admin_centre"/>
    <member type="way" ref="101020699" role="outer"/>
    <tag k="admin_level" v="10"/>
    <tag k="boundary" v="administrative"/>
    <tag k="name" v="Красинское"/>
    <tag k="place" v="hamlet"/>
    <tag k="type" v="boundary"/>
  </relation>
  <relation id="1441119" version="1" timestamp="2011-02-22T18:35:26Z" uid="115477" user="wowik" changeset="7366008">
    <member type="node" ref="824117152" role="admin_centre"/>
    <member type="way" ref="101020874" role="outer"/>
    <tag k="admin_level" v="10"/>
    <tag k="boundary" v="administrative"/>
    <tag k="name" v="Баранниково"/>
    <tag k="place" v="hamlet"/>
    <tag k="type" v="boundary"/>
  </relation>
  <relation id="1441120" version="1" timestamp="2011-02-22T18:35:27Z" uid="115477" user="wowik" changeset="7366008">
    <member type="node" ref="824117073" role="admin_centre"/>
    <member type="way" ref="101020893" role="outer"/>
    <member type="way" ref="101020913" role="outer"/>
    <tag k="admin_level" v="10"/>
    <tag k="boundary" v="administrative"/>
    <tag k="name" v="Беотенево"/>
    <tag k="place" v="hamlet"/>
    <tag k="type" v="boundary"/>
  </relation>
  <relation id="1441121" version="1" timestamp="2011-02-22T18:35:28Z" uid="115477" user="wowik" changeset="7366008">
    <member type="node" ref="824117257" role="admin_centre"/>
    <member type="way" ref="101020842" role="outer"/>
    <tag k="admin_level" v="10"/>
    <tag k="boundary" v="administrative"/>
    <tag k="name" v="Быстрово"/>
    <tag k="place" v="hamlet"/>
    <tag k="type" v="boundary"/>
  </relation>
  <relation id="1441122" version="1" timestamp="2011-02-22T18:35:29Z" uid="115477" user="wowik" changeset="7366008">
    <member type="node" ref="821821879" role="admin_centre"/>
    <member type="way" ref="101020789" role="outer"/>
    <tag k="admin_level" v="10"/>
    <tag k="boundary" v="administrative"/>
    <tag k="name" v="Пенье"/>
    <tag k="place" v="hamlet"/>
    <tag k="type" v="boundary"/>
  </relation>
  <relation id="1441123" version="1" timestamp="2011-02-22T18:35:30Z" uid="115477" user="wowik" changeset="7366008">
    <member type="node" ref="824117249" role="admin_centre"/>
    <member type="way" ref="101020620" role="outer"/>
    <tag k="admin_level" v="10"/>
    <tag k="boundary" v="administrative"/>
    <tag k="name" v="Большая"/>
    <tag k="place" v="hamlet"/>
    <tag k="type" v="boundary"/>
  </relation>
  <relation id="1441124" version="1" timestamp="2011-02-22T18:35:30Z" uid="115477" user="wowik" changeset="7366008">
    <member type="node" ref="824117050" role="admin_centre"/>
    <member type="way" ref="101020543" role="outer"/>
    <tag k="admin_level" v="10"/>
    <tag k="boundary" v="administrative"/>
    <tag k="name" v="Трунино"/>
    <tag k="place" v="hamlet"/>
    <tag k="type" v="boundary"/>
  </relation>
  <relation id="1441125" version="1" timestamp="2011-02-22T18:35:30Z" uid="115477" user="wowik" changeset="7366008">
    <member type="node" ref="824117224" role="admin_centre"/>
    <member type="way" ref="101020913" role="outer"/>
    <member type="way" ref="101020650" role="outer"/>
    <tag k="admin_level" v="10"/>
    <tag k="boundary" v="administrative"/>
    <tag k="name" v="Трубицино"/>
    <tag k="place" v="hamlet"/>
    <tag k="type" v="boundary"/>
  </relation>
  <relation id="1441126" version="1" timestamp="2011-02-22T18:35:31Z" uid="115477" user="wowik" changeset="7366008">
    <member type="node" ref="266194482" role="admin_centre"/>
    <member type="way" ref="101020817" role="outer"/>
    <tag k="admin_level" v="10"/>
    <tag k="boundary" v="administrative"/>
    <tag k="name" v="Дулово"/>
    <tag k="place" v="hamlet"/>
    <tag k="type" v="boundary"/>
  </relation>
  <relation id="1441127" version="1" timestamp="2011-02-22T18:35:31Z" uid="115477" user="wowik" changeset="7366008">
    <member type="node" ref="824117288" role="admin_centre"/>
    <member type="way" ref="101020884" role="outer"/>
    <tag k="admin_level" v="10"/>
    <tag k="boundary" v="administrative"/>
    <tag k="name" v="Гришино"/>
    <tag k="place" v="hamlet"/>
    <tag k="type" v="boundary"/>
  </relation>
  <relation id="1441128" version="1" timestamp="2011-02-22T18:35:31Z" uid="115477" user="wowik" changeset="7366008">
    <member type="node" ref="824117079" role="admin_centre"/>
    <member type="way" ref="101020747" role="outer"/>
    <tag k="admin_level" v="10"/>
    <tag k="boundary" v="administrative"/>
    <tag k="name" v="Высоково"/>
    <tag k="place" v="hamlet"/>
    <tag k="type" v="boundary"/>
  </relation>
  <relation id="1441199" version="1" timestamp="2011-02-22T19:27:57Z" uid="115477" user="wowik" changeset="7366559">
    <member type="node" ref="659086943" role="admin_centre"/>
    <member type="way" ref="101044487" role="outer"/>
    <tag k="admin_level" v="10"/>
    <tag k="boundary" v="administrative"/>
    <tag k="name" v="Харитоново"/>
    <tag k="place" v="hamlet"/>
    <tag k="type" v="boundary"/>
  </relation>
  <relation id="1441200" version="1" timestamp="2011-02-22T19:27:58Z" uid="115477" user="wowik" changeset="7366559">
    <member type="node" ref="626051654" role="admin_centre"/>
    <member type="way" ref="101044543" role="outer"/>
    <tag k="admin_level" v="10"/>
    <tag k="boundary" v="administrative"/>
    <tag k="name" v="Осипово"/>
    <tag k="place" v="hamlet"/>
    <tag k="type" v="boundary"/>
  </relation>
  <relation id="1441201" version="1" timestamp="2011-02-22T19:27:58Z" uid="115477" user="wowik" changeset="7366559">
    <member type="node" ref="824095801" role="admin_centre"/>
    <member type="way" ref="101044449" role="outer"/>
    <tag k="admin_level" v="10"/>
    <tag k="boundary" v="administrative"/>
    <tag k="name" v="Клыпино"/>
    <tag k="place" v="hamlet"/>
    <tag k="type" v="boundary"/>
  </relation>
  <relation id="1441202" version="1" timestamp="2011-02-22T19:27:59Z" uid="115477" user="wowik" changeset="7366559">
    <member type="node" ref="582805410" role="admin_centre"/>
    <member type="way" ref="101044392" role="outer"/>
    <tag k="admin_level" v="10"/>
    <tag k="boundary" v="administrative"/>
    <tag k="name" v="Поповское"/>
    <tag k="place" v="hamlet"/>
    <tag k="type" v="boundary"/>
  </relation>
  <relation id="1441202" version="2" timestamp="2011-02-22T19:44:27Z" uid="115477" user="wowik" changeset="7366739">
    <member type="node" ref="582805410" role="admin_centre"/>
    <member type="way" ref="101044392" role="outer"/>
    <member type="way" ref="101052723" role="outer"/>
    <tag k="admin_level" v="10"/>
    <tag k="boundary" v="administrative"/>
    <tag k="name" v="Поповское"/>
    <tag k="place" v="hamlet"/>
    <tag k="type" v="boundary"/>
  </relation>
  <relation id="1441203" version="1" timestamp="2011-02-22T19:27:59Z" uid="115477" user="wowik" changeset="7366559">
    <member type="node" ref="626051573" role="admin_centre"/>
    <member type="way" ref="101044412" role="outer"/>
    <tag k="admin_level" v="10"/>
    <tag k="boundary" v="administrative"/>
    <tag k="name" v="Никольское"/>
    <tag k="place" v="hamlet"/>
    <tag k="type" v="boundary"/>
  </relation>
  <relation id="1441203" version="2" timestamp="2011-02-22T19:44:36Z" uid="115477" user="wowik" changeset="7366739">
    <member type="node" ref="626051573" role="admin_centre"/>
    <member type="way" ref="101044412" role="outer"/>
    <member type="way" ref="101052765" role="outer"/>
    <tag k="admin_level" v="10"/>
    <tag k="boundary" v="administrative"/>
    <tag k="name" v="Никольское"/>
    <tag k="place" v="hamlet"/>
    <tag k="type" v="boundary"/>
  </relation>
  <relation id="1441204" version="1" timestamp="2011-02-22T19:27:59Z" uid="115477" user="wowik" changeset="7366559">
    <member type="node" ref="659086936" role="admin_centre"/>
    <member type="way" ref="101044472" role="outer"/>
    <tag k="boundary" v="administrative"/>
    <tag k="name" v="Окулово"/>
    <tag k="place" v="hamlet"/>
    <tag k="type" v="boundary"/>
  </relation>
  <relation id="1441219" version="1" timestamp="2011-02-22T19:44:26Z" uid="115477" user="wowik" changeset="7366739">
    <member type="node" ref="582805409" role="admin_centre"/>
    <member type="way" ref="101052756" role="outer"/>
    <member type="way" ref="101052716" role="outer"/>
    <member type="way" ref="101052738" role="outer"/>
    <member type="way" ref="101052744" role="outer"/>
    <member type="way" ref="101052730" role="outer"/>
    <member type="way" ref="101044392" role="outer"/>
    <member type="way" ref="101052753" role="outer"/>
    <member type="way" ref="101052765" role="outer"/>
    <tag k="admin_level" v="10"/>
    <tag k="boundary" v="administrative"/>
    <tag k="name" v="1-е Мая"/>
    <tag k="place" v="village"/>
    <tag k="type" v="boundary"/>
  </relation>
  <relation id="1441220" version="1" timestamp="2011-02-22T19:44:26Z" uid="115477" user="wowik" changeset="7366739">
    <member type="node" ref="626051479" role="admin_centre"/>
    <member type="way" ref="101052744" role="outer"/>
    <member type="way" ref="101052720" role="outer"/>
    <tag k="admin_level" v="10"/>
    <tag k="boundary" v="administrative"/>
    <tag k="name" v="Карповское"/>
    <tag k="place" v="hamlet"/>
    <tag k="type" v="boundary"/>
  </relation>
  <relation id="1441274" version="1" timestamp="2011-02-22T20:17:41Z" uid="115477" user="wowik" changeset="7367056">
    <member type="node" ref="824095805" role="admin_centre"/>
    <member type="way" ref="101069014" role="outer"/>
    <member type="way" ref="101069010" role="outer"/>
    <tag k="admin_level" v="10"/>
    <tag k="boundary" v="administrative"/>
    <tag k="name" v="Михалиха"/>
    <tag k="place" v="hamlet"/>
    <tag k="type" v="boundary"/>
  </relation>
  <relation id="1441275" version="1" timestamp="2011-02-22T20:17:41Z" uid="115477" user="wowik" changeset="7367056">
    <member type="node" ref="1145344572" role="admin_centre"/>
    <member type="way" ref="101069010" role="outer"/>
    <member type="way" ref="101068992" role="outer"/>
    <tag k="admin_level" v="10"/>
    <tag k="boundary" v="administrative"/>
    <tag k="name" v="Говорово"/>
    <tag k="place" v="hamlet"/>
    <tag k="type" v="boundary"/>
  </relation>
  <relation id="1441276" version="1" timestamp="2011-02-22T20:17:41Z" uid="115477" user="wowik" changeset="7367056">
    <member type="node" ref="626051516" role="admin_centre"/>
    <member type="way" ref="101069003" role="outer"/>
    <tag k="admin_level" v="10"/>
    <tag k="boundary" v="administrative"/>
    <tag k="name" v="Мыслятино"/>
    <tag k="place" v="hamlet"/>
    <tag k="type" v="boundary"/>
  </relation>
</osm>
