<?xml version='1.0' encoding='UTF-8'?>
<osm version="0.6" generator="libosmium/2.20.0">
  <relation id="1473476" version="1" timestamp="2011-03-13T14:47:17Z" uid="33382" user="de_muur" changeset="7545696">
    <member type="node" ref="775845729" role=""/>
    <member type="way" ref="24638288" role=""/>
    <member type="node" ref="1200244079" role=""/>
    <tag k="name" v="Blender - Intschede"/>
    <tag k="network" v="lcn"/>
    <tag k="operator" v="Landkreis Verden"/>
    <tag k="route" v="bicycle"/>
    <tag k="type" v="route"/>
  </relation>
  <relation id="1473487" version="1" timestamp="2011-03-13T14:52:10Z" uid="33382" user="de_muur" changeset="7545782">
    <member type="node" ref="1200244079" role=""/>
    <member type="way" ref="24638291" role=""/>
    <member type="way" ref="24638289" role=""/>
    <member type="way" ref="103995983" role=""/>
    <member type="way" ref="24638287" role=""/>
    <member type="node" ref="1126430376" role=""/>
    <tag k="name" v="Blender - Wulmstorf"/>
    <tag k="network" v="lcn"/>
    <tag k="operator" v="Landkreis Verden"/>
    <tag k="route" v="bicycle"/>
    <tag k="type" v="route"/>
  </relation>
  <relation id="1473494" version="1" timestamp="2011-03-13T14:55:52Z" uid="33382" user="de_muur" changeset="7545839">
    <member type="node" ref="813496245" role=""/>
    <member type="way" ref="5184542" role=""/>
    <member type="way" ref="5184539" role=""/>
    <member type="node" ref="1126422338" role=""/>
    <tag k="name" v="Intschede - Oiste"/>
    <tag k="network" v="lcn"/>
    <tag k="operator" v="Landkreis Verden"/>
    <tag k="route" v="bicycle"/>
    <tag k="type" v="route"/>
  </relation>
  <relation id="1473497" version="1" timestamp="2011-03-13T15:01:55Z" uid="33382" user="de_muur" changeset="7545933">
    <member type="node" ref="1126422338" role=""/>
    <member type="way" ref="5184545" role=""/>
    <member type="way" ref="24650417" role=""/>
    <member type="way" ref="91761233" role=""/>
    <member type="way" ref="91761226" role=""/>
    <member type="way" ref="103997588" role=""/>
    <member type="way" ref="24638284" role=""/>
    <member type="way" ref="103997585" role=""/>
    <tag k="name" v="Einste - Intschede"/>
    <tag k="network" v="lcn"/>
    <tag k="operator" v="Landkreis Verden"/>
    <tag k="route" v="bicycle"/>
    <tag k="type" v="route"/>
  </relation>
  <relation id="1473519" version="1" timestamp="2011-03-13T15:19:01Z" uid="33382" user="de_muur" changeset="7546131">
    <member type="node" ref="1200244079" role=""/>
    <member type="way" ref="24638290" role=""/>
    <member type="way" ref="24638294" role=""/>
    <member type="way" ref="24638296" role=""/>
    <member type="node" ref="1200293085" role=""/>
    <tag k="name" v="Intschede - Kuhlenkamp"/>
    <tag k="network" v="lcn"/>
    <tag k="operator" v="Landkreis Verden"/>
    <tag k="route" v="bicycle"/>
    <tag k="type" v="route"/>
  </relation>
  <relation id="1473520" version="1" timestamp="2011-03-13T15:19:02Z" uid="33382" user="de_muur" changeset="7546131">
    <member type="node" ref="813462466" role=""/>
    <member type="way" ref="24638269" role=""/>
    <member type="way" ref="24638298" role=""/>
    <member type="way" ref="103999346" role=""/>
    <member type="way" ref="32494564" role=""/>
    <member type="node" ref="1200293085" role=""/>
    <tag k="name" v="Blender - Wulmstorf"/>
    <tag k="network" v="lcn"/>
    <tag k="operator" v="Landkreis Verden"/>
    <tag k="route" v="bicycle"/>
    <tag k="type" v="route"/>
  </relation>
  <relation id="1473521" version="1" timestamp="2011-03-13T15:19:04Z" uid="33382" user="de_muur" changeset="7546131">
    <member type="node" ref="811266659" role=""/>
    <member type="way" ref="26531059" role=""/>
    <member type="way" ref="88283303" role=""/>
    <member type="way" ref="24638278" role=""/>
    <member type="node" ref="1200293085" role=""/>
    <tag k="name" v="Hiddestorf - Wulmstorf"/>
    <tag k="network" v="lcn"/>
    <tag k="operator" v="Landkreis Verden"/>
    <tag k="route" v="bicycle"/>
    <tag k="type" v="route"/>
  </relation>
  <relation id="1473540" version="1" timestamp="2011-03-13T15:33:22Z" uid="33382" user="de_muur" changeset="7546368">
    <member type="node" ref="811266659" role=""/>
    <member type="way" ref="67172335" role=""/>
    <member type="way" ref="104003692" role=""/>
    <member type="node" ref="1200315031" role=""/>
    <tag k="name" v="Einste - Morsum"/>
    <tag k="network" v="lcn"/>
    <tag k="operator" v="Landkreis Verden"/>
    <tag k="route" v="bicycle"/>
    <tag k="type" v="route"/>
  </relation>
  <relation id="1473540" version="2" timestamp="2011-03-13T15:37:09Z" uid="33382" user="de_muur" changeset="7546428">
    <member type="node" ref="811266659" role=""/>
    <member type="way" ref="67172335" role=""/>
    <member type="way" ref="104003692" role=""/>
    <member type="node" ref="1200315031" role=""/>
    <member type="way" ref="104003686" role=""/>
    <member type="node" ref="778479659" role=""/>
    <tag k="name" v="Einste - Morsum"/>
    <tag k="network" v="lcn"/>
    <tag k="operator" v="Landkreis Verden"/>
    <tag k="route" v="bicycle"/>
    <tag k="type" v="route"/>
  </relation>
  <relation id="1473545" version="1" timestamp="2011-03-13T15:37:09Z" uid="33382" user="de_muur" changeset="7546428">
    <member type="node" ref="778479650" role=""/>
    <member type="way" ref="26531075" role=""/>
    <member type="node" ref="1200315031" role=""/>
    <tag k="name" v="Ahsen-Oetzen - Einste"/>
    <tag k="network" v="lcn"/>
    <tag k="operator" v="Landkreis Verden"/>
    <tag k="route" v="bicycle"/>
    <tag k="type" v="route"/>
  </relation>
  <relation id="1473635" version="1" timestamp="2011-03-13T16:20:02Z" uid="33382" user="de_muur" changeset="7547010">
    <member type="node" ref="1200384789" role=""/>
    <member type="way" ref="28304354" role=""/>
    <tag k="name" v="Kuhlenkamp - (Wackershausen)"/>
    <tag k="network" v="lcn"/>
    <tag k="operator" v="Landkreis Verden"/>
    <tag k="route" v="bicycle"/>
    <tag k="type" v="route"/>
  </relation>
  <relation id="1473636" version="1" timestamp="2011-03-13T16:20:02Z" uid="33382" user="de_muur" changeset="7547010">
    <member type="node" ref="854879638" role=""/>
    <member type="way" ref="88289349" role=""/>
    <member type="way" ref="88289378" role=""/>
    <member type="way" ref="28304355" role=""/>
    <member type="node" ref="1200384789" role=""/>
    <tag k="name" v="Schwarme - Thedinghausen"/>
    <tag k="network" v="lcn"/>
    <tag k="operator" v="Landkreis Diepholz"/>
    <tag k="route" v="bicycle"/>
    <tag k="type" v="route"/>
  </relation>
  <relation id="1473636" version="2" timestamp="2011-03-13T16:33:29Z" uid="33382" user="de_muur" changeset="7547154">
    <member type="node" ref="854879638" role=""/>
    <member type="way" ref="88289349" role=""/>
    <member type="way" ref="88289378" role=""/>
    <member type="way" ref="28304355" role=""/>
    <member type="node" ref="1200384789" role=""/>
    <member type="way" ref="28304356" role=""/>
    <tag k="name" v="Schwarme - Thedinghausen"/>
    <tag k="network" v="lcn"/>
    <tag k="operator" v="Landkreis Verden"/>
    <tag k="route" v="bicycle"/>
    <tag k="type" v="route"/>
  </relation>
  <relation id="1473637" version="1" timestamp="2011-03-13T16:20:04Z" uid="33382" user="de_muur" changeset="7547010">
    <member type="node" ref="695608082" role=""/>
    <member type="way" ref="28304352" role=""/>
    <tag k="name" v="(Kuhlenkamp) - Wackershausen"/>
    <tag k="network" v="lcn"/>
    <tag k="operator" v="Landkreis Verden"/>
    <tag k="route" v="bicycle"/>
    <tag k="type" v="route"/>
  </relation>
  <relation id="1473638" version="1" timestamp="2011-03-13T16:20:04Z" uid="33382" user="de_muur" changeset="7547010">
    <member type="relation" ref="1473635" role=""/>
    <member type="way" ref="28304353" role=""/>
    <tag k="name" v="Neu Morsum"/>
    <tag k="network" v="lcn"/>
    <tag k="operator" v="Landkreis Verden"/>
    <tag k="route" v="bicycle"/>
    <tag k="type" v="route"/>
  </relation>
  <relation id="1473666" version="1" timestamp="2011-03-13T16:33:24Z" uid="33382" user="de_muur" changeset="7547154">
    <member type="node" ref="1200395791" role=""/>
    <member type="way" ref="28304362" role=""/>
    <tag k="name" v="Schwarme - Thedinghausen"/>
    <tag k="network" v="lcn"/>
    <tag k="operator" v="Landkreis Diepholz"/>
    <tag k="route" v="bicycle"/>
    <tag k="type" v="route"/>
  </relation>
  <relation id="1473687" version="1" timestamp="2011-03-13T16:45:23Z" uid="33382" user="de_muur" changeset="7547317">
    <member type="node" ref="705039080" role=""/>
    <member type="node" ref="705039081" role=""/>
    <member type="node" ref="705039083" role=""/>
    <member type="way" ref="104016676" role=""/>
    <tag k="name" v="(Schwarme) - Wulmstorf"/>
    <tag k="network" v="lcn"/>
    <tag k="operator" v="Landkreis Diepholz"/>
    <tag k="route" v="bicycle"/>
    <tag k="type" v="route"/>
  </relation>
  <relation id="1473688" version="1" timestamp="2011-03-13T16:45:24Z" uid="33382" user="de_muur" changeset="7547317">
    <member type="way" ref="60208821" role=""/>
    <member type="way" ref="29455542" role=""/>
    <tag k="name" v="(Schwarme) - Wulmstorf"/>
    <tag k="network" v="lcn"/>
    <tag k="operator" v="Landkreis Verden"/>
    <tag k="route" v="bicycle"/>
    <tag k="type" v="route"/>
  </relation>
  <relation id="1473689" version="1" timestamp="2011-03-13T16:45:26Z" uid="33382" user="de_muur" changeset="7547317">
    <member type="node" ref="705039080" role=""/>
    <member type="node" ref="705039082" role=""/>
    <member type="node" ref="705039083" role=""/>
    <member type="way" ref="28322127" role=""/>
    <member type="way" ref="29402497" role=""/>
    <member type="node" ref="1200415501" role=""/>
    <tag k="name" v="Martfeld - Thedinghausen"/>
    <tag k="network" v="lcn"/>
    <tag k="operator" v="Landkreis Diepholz"/>
    <tag k="route" v="bicycle"/>
    <tag k="type" v="route"/>
  </relation>
  <relation id="1473806" version="1" timestamp="2011-03-13T18:10:59Z" uid="66036" user="h4v" changeset="7548340">
    <member type="way" ref="27144614" role="street"/>
    <member type="way" ref="104026338" role="house"/>
    <member type="node" ref="1200527263" role="house"/>
    <member type="node" ref="1200528288" role="house"/>
    <member type="way" ref="104026379" role="house"/>
    <member type="node" ref="1200527287" role="house"/>
    <member type="node" ref="1200527778" role="house"/>
    <tag k="name" v="Jarzynowa"/>
    <tag k="type" v="associatedStreet"/>
  </relation>
  <relation id="1473807" version="1" timestamp="2011-03-13T18:11:01Z" uid="66036" user="h4v" changeset="7548340">
    <member type="way" ref="104026427" role="street"/>
    <member type="way" ref="9929618" role="house"/>
    <tag k="name" v="Żeligowskiego"/>
    <tag k="type" v="associatedStreet"/>
  </relation>
  <relation id="1473807" version="2" timestamp="2011-04-15T14:44:25Z" uid="66036" user="h4v" changeset="7870218">
    <member type="way" ref="104026427" role="street"/>
    <member type="way" ref="32668017" role="house"/>
    <tag k="name" v="Żeligowskiego"/>
    <tag k="type" v="associatedStreet"/>
  </relation>
  <relation id="1473807" version="3" timestamp="2011-04-17T11:37:42Z" uid="66036" user="h4v" changeset="7885583">
    <member type="way" ref="104026427" role="street"/>
    <member type="way" ref="32668017" role="house"/>
    <member type="way" ref="108880422" role="house"/>
    <member type="node" ref="1248188396" role="house"/>
    <member type="node" ref="1248188324" role="house"/>
    <member type="way" ref="108880395" role="house"/>
    <member type="node" ref="1248188572" role="house"/>
    <member type="node" ref="1248188526" role="house"/>
    <tag k="name" v="Żeligowskiego"/>
    <tag k="type" v="associatedStreet"/>
  </relation>
  <relation id="1473807" version="4" timestamp="2011-05-18T01:14:29Z" uid="66036" user="h4v" changeset="8177376">
    <member type="way" ref="104026427" role="street"/>
    <member type="way" ref="32668017" role="house"/>
    <member type="way" ref="108880422" role="house"/>
    <member type="way" ref="113763459" role="house"/>
    <member type="node" ref="1248188396" role="house"/>
    <member type="node" ref="1248188324" role="house"/>
    <member type="way" ref="108880395" role="house"/>
    <member type="node" ref="1248188572" role="house"/>
    <member type="node" ref="1248188526" role="house"/>
    <member type="node" ref="1289645937" role="house"/>
    <member type="way" ref="104651545" role="house"/>
    <member type="node" ref="1289645980" role="house"/>
    <member type="node" ref="1289645974" role="house"/>
    <member type="way" ref="113763461" role="house"/>
    <tag k="name" v="Żeligowskiego"/>
    <tag k="type" v="associatedStreet"/>
  </relation>
  <relation id="1473925" version="1" timestamp="2011-03-13T19:30:38Z" uid="33382" user="de_muur" changeset="7549326">
    <member type="node" ref="811280110" role=""/>
    <member type="way" ref="24638283" role=""/>
    <member type="way" ref="24638282" role=""/>
    <member type="node" ref="1200615430" role=""/>
    <tag k="name" v="Jerusalem - Wulmstorf"/>
    <tag k="network" v="lcn"/>
    <tag k="operator" v="Landkreis Verden"/>
    <tag k="route" v="bicycle"/>
    <tag k="type" v="route"/>
  </relation>
  <relation id="1473933" version="1" timestamp="2011-03-13T19:36:48Z" uid="33382" user="de_muur" changeset="7549377">
    <member type="node" ref="811292834" role=""/>
    <member type="way" ref="67174350" role=""/>
    <member type="way" ref="29455508" role=""/>
    <member type="node" ref="1200615430" role=""/>
    <tag k="name" v="Blender - Jerusalem"/>
    <tag k="network" v="lcn"/>
    <tag k="operator" v="Landkreis Verden"/>
    <tag k="route" v="bicycle"/>
    <tag k="type" v="route"/>
  </relation>
  <relation id="1473941" version="1" timestamp="2011-03-13T19:45:39Z" uid="33382" user="de_muur" changeset="7549499">
    <member type="node" ref="1200415501" role=""/>
    <member type="way" ref="104016675" role=""/>
    <member type="node" ref="1200635510" role=""/>
    <tag k="name" v="Martfeld - Schwarme"/>
    <tag k="network" v="lcn"/>
    <tag k="operator" v="Landkreis Diepholz"/>
    <tag k="route" v="bicycle"/>
    <tag k="type" v="route"/>
  </relation>
  <relation id="1473941" version="2" timestamp="2011-03-14T19:34:46Z" uid="33382" user="de_muur" changeset="7560014">
    <member type="node" ref="1200415501" role=""/>
    <member type="way" ref="104016675" role=""/>
    <member type="node" ref="1200635510" role=""/>
    <member type="way" ref="24638261" role=""/>
    <member type="way" ref="24638265" role=""/>
    <member type="way" ref="104166702" role=""/>
    <member type="node" ref="1134223531" role=""/>
    <tag k="name" v="Martfeld - Schwarme"/>
    <tag k="network" v="lcn"/>
    <tag k="operator" v="Landkreis Diepholz"/>
    <tag k="route" v="bicycle"/>
    <tag k="type" v="route"/>
  </relation>
  <relation id="1473942" version="1" timestamp="2011-03-13T19:45:40Z" uid="33382" user="de_muur" changeset="7549499">
    <member type="node" ref="1200615430" role=""/>
    <member type="way" ref="104036736" role=""/>
    <member type="node" ref="1200635517" role=""/>
    <member type="way" ref="104036735" role=""/>
    <tag k="name" v="Einste - Schwarme"/>
    <tag k="network" v="lcn"/>
    <tag k="operator" v="Landkreis Verden"/>
    <tag k="route" v="bicycle"/>
    <tag k="type" v="route"/>
  </relation>
  <relation id="1473943" version="1" timestamp="2011-03-13T19:45:41Z" uid="33382" user="de_muur" changeset="7549499">
    <member type="node" ref="1200635510" role=""/>
    <member type="way" ref="5184549" role=""/>
    <tag k="name" v="Einste - Schwarme"/>
    <tag k="network" v="lcn"/>
    <tag k="operator" v="Landkreis Diepholz"/>
    <tag k="route" v="bicycle"/>
    <tag k="type" v="route"/>
  </relation>
  <relation id="1473956" version="1" timestamp="2011-03-13T19:52:52Z" uid="33382" user="de_muur" changeset="7549575">
    <member type="node" ref="1200635517" role=""/>
    <member type="way" ref="24638262" role=""/>
    <member type="way" ref="88289383" role=""/>
    <member type="way" ref="24638263" role=""/>
    <member type="way" ref="23642166" role=""/>
    <tag k="name" v="(Jerusalem) - Hustedt"/>
    <tag k="network" v="lcn"/>
    <tag k="operator" v="Landkreis Verden"/>
    <tag k="route" v="bicycle"/>
    <tag k="type" v="route"/>
  </relation>
  <relation id="1473957" version="1" timestamp="2011-03-13T19:52:53Z" uid="33382" user="de_muur" changeset="7549575">
    <member type="node" ref="1200615430" role=""/>
    <member type="way" ref="24638264" role=""/>
    <tag k="name" v="(Adolfshausen) - Hustedt"/>
    <tag k="network" v="lcn"/>
    <tag k="operator" v="Landkreis Verden"/>
    <tag k="route" v="bicycle"/>
    <tag k="type" v="route"/>
  </relation>
  <relation id="1473958" version="1" timestamp="2011-03-13T19:52:54Z" uid="33382" user="de_muur" changeset="7549575">
    <member type="node" ref="1126764097" role=""/>
    <member type="way" ref="104037135" role=""/>
    <tag k="name" v="Jerusalem - (Hustedt)"/>
    <tag k="network" v="lcn"/>
    <tag k="operator" v="Landkreis Verden"/>
    <tag k="route" v="bicycle"/>
    <tag k="type" v="route"/>
  </relation>
  <relation id="1473986" version="1" timestamp="2011-03-13T20:08:45Z" uid="33382" user="de_muur" changeset="7549737">
    <member type="node" ref="813507205" role=""/>
    <member type="way" ref="87007009" role=""/>
    <member type="way" ref="104039186" role=""/>
    <member type="node" ref="1200670827" role=""/>
    <tag k="name" v="Hustedt - Oiste"/>
    <tag k="network" v="lcn"/>
    <tag k="operator" v="Landkreis Verden"/>
    <tag k="route" v="bicycle"/>
    <tag k="type" v="route"/>
  </relation>
  <relation id="1473987" version="1" timestamp="2011-03-13T20:08:46Z" uid="33382" user="de_muur" changeset="7549737">
    <member type="node" ref="811292831" role=""/>
    <member type="way" ref="88283122" role=""/>
    <member type="way" ref="104039191" role=""/>
    <member type="way" ref="88283330" role=""/>
    <member type="way" ref="18817912" role=""/>
    <member type="node" ref="1200670827" role=""/>
    <tag k="name" v="Blender - Varste"/>
    <tag k="network" v="lcn"/>
    <tag k="operator" v="Landkreis Verden"/>
    <tag k="route" v="bicycle"/>
    <tag k="type" v="route"/>
  </relation>
  <relation id="1473987" version="2" timestamp="2011-03-14T19:30:24Z" uid="33382" user="de_muur" changeset="7559978">
    <member type="node" ref="811292831" role=""/>
    <member type="way" ref="88283122" role=""/>
    <member type="way" ref="104039191" role=""/>
    <member type="way" ref="88283330" role=""/>
    <member type="way" ref="104165794" role=""/>
    <member type="node" ref="1200670827" role=""/>
    <tag k="name" v="Blender - Varste"/>
    <tag k="network" v="lcn"/>
    <tag k="operator" v="Landkreis Verden"/>
    <tag k="route" v="bicycle"/>
    <tag k="type" v="route"/>
  </relation>
  <relation id="1473988" version="1" timestamp="2011-03-13T20:08:47Z" uid="33382" user="de_muur" changeset="7549737">
    <member type="node" ref="1126774493" role=""/>
    <member type="way" ref="11955571" role=""/>
    <member type="way" ref="88283393" role=""/>
    <member type="way" ref="88283310" role=""/>
    <member type="node" ref="1200670827" role=""/>
    <tag k="name" v="Holtum/Marsch - Varste"/>
    <tag k="network" v="lcn"/>
    <tag k="operator" v="Landkreis Verden"/>
    <tag k="route" v="bicycle"/>
    <tag k="type" v="route"/>
  </relation>
</osm>
