<?xml version='1.0' encoding='UTF-8'?>
<osm version="0.6" generator="libosmium/2.20.0">
  <relation id="1560083" version="1" timestamp="2011-04-26T20:37:52Z" uid="9581" user="Lobelt" changeset="7979500">
    <member type="way" ref="92285760" role="inner"/>
    <member type="way" ref="110451597" role="outer"/>
    <tag k="type" v="multipolygon"/>
  </relation>
  <relation id="1560617" version="1" timestamp="2011-04-27T07:29:22Z" uid="33382" user="de_muur" changeset="7982202">
    <member type="node" ref="983679661" role=""/>
    <member type="way" ref="73024025" role=""/>
    <member type="way" ref="110501772" role=""/>
    <member type="way" ref="24632480" role=""/>
    <member type="way" ref="24630604" role=""/>
    <member type="way" ref="110501768" role=""/>
    <member type="way" ref="24630624" role=""/>
    <member type="node" ref="1261829554" role=""/>
    <tag k="name" v="Hamwarde - Lauenburg/Elbe"/>
    <tag k="network" v="lcn"/>
    <tag k="operator" v="Kreis Herzogtum Lauenburg"/>
    <tag k="route" v="bicycle"/>
    <tag k="type" v="route"/>
  </relation>
  <relation id="1560622" version="1" timestamp="2011-04-27T07:33:12Z" uid="33382" user="de_muur" changeset="7982243">
    <member type="node" ref="983682847" role=""/>
    <member type="way" ref="24622132" role=""/>
    <member type="way" ref="33889277" role=""/>
    <member type="node" ref="1261829554" role=""/>
    <tag k="name" v="Geesthacht - Lütau"/>
    <tag k="network" v="lcn"/>
    <tag k="operator" v="Kreis Herzogtum Lauenburg"/>
    <tag k="route" v="bicycle"/>
    <tag k="type" v="route"/>
  </relation>
  <relation id="1560623" version="1" timestamp="2011-04-27T07:33:13Z" uid="33382" user="de_muur" changeset="7982243">
    <member type="node" ref="1212285084" role=""/>
    <member type="way" ref="45894012" role=""/>
    <member type="node" ref="1261829554" role=""/>
    <tag k="name" v="Lauenburg/Elbe - Lütau"/>
    <tag k="network" v="lcn"/>
    <tag k="operator" v="Kreis Herzogtum Lauenburg"/>
    <tag k="route" v="bicycle"/>
    <tag k="type" v="route"/>
  </relation>
</osm>
