<?xml version='1.0' encoding='UTF-8'?>
<osm version="0.6" generator="libosmium/2.20.0">
  <relation id="1561025" version="1" timestamp="2011-04-27T15:24:55Z" uid="33382" user="de_muur" changeset="7986144">
    <member type="node" ref="1259580532" role=""/>
    <member type="way" ref="40023388" role=""/>
    <member type="way" ref="26197930" role=""/>
    <member type="way" ref="26197928" role=""/>
    <member type="node" ref="1262208703" role=""/>
    <tag k="name" v="Bleckede - Lauenburg/Elbe-Zentrum"/>
    <tag k="network" v="lcn"/>
    <tag k="operator" v="Kreis Herzogtum Lauenburg"/>
    <tag k="route" v="bicycle"/>
    <tag k="type" v="route"/>
  </relation>
  <relation id="1561025" version="2" timestamp="2011-06-05T19:52:17Z" uid="33382" user="de_muur" changeset="8353494">
    <member type="node" ref="1259580532" role=""/>
    <member type="way" ref="40023388" role=""/>
    <member type="way" ref="116527395" role=""/>
    <member type="way" ref="26197930" role=""/>
    <member type="way" ref="26197928" role=""/>
    <member type="node" ref="1262208703" role=""/>
    <tag k="name" v="Bleckede - Lauenburg/Elbe-Zentrum"/>
    <tag k="network" v="lcn"/>
    <tag k="operator" v="Kreis Herzogtum Lauenburg"/>
    <tag k="route" v="bicycle"/>
    <tag k="type" v="route"/>
  </relation>
  <relation id="1561029" version="1" timestamp="2011-04-27T15:39:28Z" uid="33382" user="de_muur" changeset="7986257">
    <member type="node" ref="1259580530" role=""/>
    <member type="way" ref="104635187" role=""/>
    <member type="way" ref="45894017" role=""/>
    <member type="node" ref="1262220737" role=""/>
    <tag k="name" v="Geesthacht - Mölln"/>
    <tag k="network" v="lcn"/>
    <tag k="operator" v="Kreis Herzogtum Lauenburg"/>
    <tag k="route" v="bicycle"/>
    <tag k="type" v="route"/>
  </relation>
  <relation id="1561029" version="2" timestamp="2011-04-27T15:51:55Z" uid="33382" user="de_muur" changeset="7986357">
    <member type="node" ref="1259580530" role=""/>
    <member type="way" ref="104635187" role=""/>
    <member type="way" ref="45894017" role=""/>
    <member type="node" ref="1262220737" role=""/>
    <member type="way" ref="77475879" role=""/>
    <member type="way" ref="26162891" role=""/>
    <member type="way" ref="67257959" role=""/>
    <member type="way" ref="67257956" role=""/>
    <member type="node" ref="1262229881" role=""/>
    <tag k="name" v="Geesthacht - Mölln"/>
    <tag k="network" v="lcn"/>
    <tag k="operator" v="Kreis Herzogtum Lauenburg"/>
    <tag k="route" v="bicycle"/>
    <tag k="type" v="route"/>
  </relation>
  <relation id="1561030" version="1" timestamp="2011-04-27T15:39:28Z" uid="33382" user="de_muur" changeset="7986257">
    <member type="node" ref="1260446525" role=""/>
    <member type="way" ref="26691229" role=""/>
    <member type="way" ref="40023386" role=""/>
    <tag k="name" v="Lauenburg/Elbe-Altstadt - (Lauenburg/Elbe-Zentrum)"/>
    <tag k="network" v="lcn"/>
    <tag k="operator" v="Kreis Herzogtum Lauenburg"/>
    <tag k="route" v="bicycle"/>
    <tag k="type" v="route"/>
  </relation>
  <relation id="1561036" version="1" timestamp="2011-04-27T15:51:49Z" uid="33382" user="de_muur" changeset="7986357">
    <member type="node" ref="1260449809" role=""/>
    <member type="way" ref="26162905" role=""/>
    <member type="way" ref="35360109" role=""/>
    <member type="way" ref="35360104" role=""/>
    <member type="way" ref="26161695" role=""/>
    <member type="way" ref="110357108" role=""/>
    <member type="node" ref="1262229881" role=""/>
    <tag k="name" v="Lauenburg/Elbe-Zentrum - Lüneburg"/>
    <tag k="network" v="lcn"/>
    <tag k="operator" v="Kreis Herzogtum Lauenburg"/>
    <tag k="route" v="bicycle"/>
    <tag k="type" v="route"/>
  </relation>
  <relation id="1561036" version="2" timestamp="2011-06-05T19:52:35Z" uid="33382" user="de_muur" changeset="8353494">
    <member type="node" ref="1260449809" role=""/>
    <member type="way" ref="26162905" role=""/>
    <member type="way" ref="116527387" role=""/>
    <member type="way" ref="35360109" role=""/>
    <member type="way" ref="35360104" role=""/>
    <member type="way" ref="26161695" role=""/>
    <member type="way" ref="110357108" role=""/>
    <member type="way" ref="116527394" role=""/>
    <member type="node" ref="1262229881" role=""/>
    <tag k="name" v="Lauenburg/Elbe-Zentrum - Lüneburg"/>
    <tag k="network" v="lcn"/>
    <tag k="operator" v="Kreis Herzogtum Lauenburg"/>
    <tag k="route" v="bicycle"/>
    <tag k="type" v="route"/>
  </relation>
  <relation id="1561049" version="1" timestamp="2011-04-27T15:57:47Z" uid="33382" user="de_muur" changeset="7986420">
    <member type="node" ref="1262229881" role=""/>
    <member type="way" ref="67257964" role=""/>
    <member type="way" ref="26161688" role=""/>
    <member type="node" ref="1262234956" role=""/>
    <tag k="name" v="Geesthacht - Lauenburg/Elbe-Zentrum"/>
    <tag k="network" v="lcn"/>
    <tag k="operator" v="Kreis Herzogtum Lauenburg"/>
    <tag k="route" v="bicycle"/>
    <tag k="type" v="route"/>
  </relation>
  <relation id="1561360" version="1" timestamp="2011-04-27T21:29:13Z" uid="9581" user="Lobelt" changeset="7989682">
    <member type="way" ref="110445269" role="inner"/>
    <member type="way" ref="110588446" role="outer"/>
    <tag k="type" v="multipolygon"/>
  </relation>
</osm>
