<?xml version='1.0' encoding='UTF-8'?>
<osm version="0.6" generator="libosmium/2.20.0">
  <relation id="1581549" version="1" timestamp="2011-05-11T14:42:42Z" uid="20587" user="balrog-kun" changeset="8112959">
    <member type="way" ref="112686505" role=""/>
    <member type="way" ref="23721241" role=""/>
    <tag k="colour" v="green"/>
    <tag k="ref" v="Zielony szlak"/>
    <tag k="route" v="hiking"/>
    <tag k="type" v="route"/>
  </relation>
  <relation id="1581550" version="1" timestamp="2011-05-11T14:42:42Z" uid="20587" user="balrog-kun" changeset="8112959">
    <member type="way" ref="112686511" role=""/>
    <tag k="colour" v="yellow"/>
    <tag k="ref" v="Żółty szlak rowerowy"/>
    <tag k="route" v="bicycle"/>
    <tag k="type" v="route"/>
  </relation>
  <relation id="1581573" version="1" timestamp="2011-05-11T15:35:56Z" uid="33382" user="de_muur" changeset="8113423">
    <member type="node" ref="1279540233" role=""/>
    <member type="way" ref="61848965" role=""/>
    <member type="way" ref="112691592" role=""/>
    <member type="node" ref="1280353988" role=""/>
    <tag k="name" v="Gnarrenburg - Zeven"/>
    <tag k="network" v="lcn"/>
    <tag k="operator" v="Landkreis Rotenburg (Wümme)"/>
    <tag k="route" v="bicycle"/>
    <tag k="type" v="route"/>
  </relation>
  <relation id="1581573" version="2" timestamp="2011-05-11T15:44:53Z" uid="33382" user="de_muur" changeset="8113487">
    <member type="node" ref="1279540233" role=""/>
    <member type="way" ref="61848965" role=""/>
    <member type="way" ref="112691592" role=""/>
    <member type="node" ref="1280353988" role=""/>
    <member type="way" ref="24318974" role=""/>
    <member type="way" ref="112691898" role=""/>
    <member type="way" ref="112691895" role=""/>
    <member type="node" ref="1280359112" role=""/>
    <tag k="name" v="Gnarrenburg - Zeven"/>
    <tag k="network" v="lcn"/>
    <tag k="operator" v="Landkreis Rotenburg (Wümme)"/>
    <tag k="route" v="bicycle"/>
    <tag k="type" v="route"/>
  </relation>
  <relation id="1581573" version="3" timestamp="2011-05-11T16:46:41Z" uid="33382" user="de_muur" changeset="8113949">
    <member type="node" ref="1279540233" role=""/>
    <member type="way" ref="61848965" role=""/>
    <member type="way" ref="112691592" role=""/>
    <member type="node" ref="1280353988" role=""/>
    <member type="way" ref="24318974" role=""/>
    <member type="way" ref="112691898" role=""/>
    <member type="way" ref="112691895" role=""/>
    <member type="node" ref="1280359112" role=""/>
    <member type="way" ref="112695378" role=""/>
    <member type="node" ref="1280406898" role=""/>
    <member type="way" ref="112695377" role=""/>
    <member type="node" ref="1280406908" role=""/>
    <tag k="name" v="Gnarrenburg - Zeven"/>
    <tag k="network" v="lcn"/>
    <tag k="operator" v="Landkreis Rotenburg (Wümme)"/>
    <tag k="route" v="bicycle"/>
    <tag k="type" v="route"/>
  </relation>
  <relation id="1581602" version="1" timestamp="2011-05-11T16:08:58Z" uid="20587" user="balrog-kun" changeset="8113642">
    <member type="way" ref="49602473" role=""/>
    <tag k="network" v="euro"/>
    <tag k="ref" v="ER-8"/>
    <tag k="route" v="bicycle"/>
    <tag k="type" v="route"/>
  </relation>
  <relation id="1581602" version="2" timestamp="2011-05-11T23:54:52Z" uid="20587" user="balrog-kun" changeset="8117662">
    <member type="way" ref="112692947" role=""/>
    <member type="way" ref="34732128" role=""/>
    <member type="way" ref="112692945" role=""/>
    <tag k="network" v="euro"/>
    <tag k="ref" v="ER-8"/>
    <tag k="route" v="bicycle"/>
    <tag k="type" v="route"/>
  </relation>
  <relation id="1581602" version="3" timestamp="2011-05-12T00:23:49Z" uid="20587" user="balrog-kun" changeset="8117726">
    <member type="way" ref="112692947" role=""/>
    <member type="way" ref="34732128" role=""/>
    <member type="way" ref="112692945" role=""/>
    <member type="way" ref="112748712" role=""/>
    <member type="way" ref="112748708" role=""/>
    <member type="way" ref="112748709" role=""/>
    <member type="way" ref="40486763" role=""/>
    <member type="way" ref="112748722" role=""/>
    <tag k="network" v="euro"/>
    <tag k="ref" v="ER-8"/>
    <tag k="route" v="bicycle"/>
    <tag k="type" v="route"/>
  </relation>
  <relation id="1581602" version="4" timestamp="2011-05-12T03:06:48Z" uid="20587" user="balrog-kun" changeset="8118031">
    <member type="way" ref="112692947" role=""/>
    <member type="way" ref="112753947" role=""/>
    <member type="way" ref="112753936" role=""/>
    <member type="way" ref="112692945" role=""/>
    <member type="way" ref="112748712" role=""/>
    <member type="way" ref="112748708" role=""/>
    <member type="way" ref="112748709" role=""/>
    <member type="way" ref="40486763" role=""/>
    <member type="way" ref="112748722" role=""/>
    <member type="way" ref="112753945" role=""/>
    <member type="way" ref="40102745" role=""/>
    <member type="way" ref="112753948" role=""/>
    <member type="way" ref="112753933" role=""/>
    <member type="way" ref="55869351" role=""/>
    <tag k="network" v="euro"/>
    <tag k="ref" v="ER-8"/>
    <tag k="route" v="bicycle"/>
    <tag k="type" v="route"/>
  </relation>
  <relation id="1581602" version="5" timestamp="2011-05-15T08:18:54Z" uid="30632" user="antblant" changeset="8148748">
    <member type="way" ref="112692947" role=""/>
    <member type="way" ref="112753947" role=""/>
    <member type="way" ref="113379433" role=""/>
    <member type="way" ref="112753936" role=""/>
    <member type="way" ref="112692945" role=""/>
    <member type="way" ref="112748712" role=""/>
    <member type="way" ref="112748708" role=""/>
    <member type="way" ref="112748709" role=""/>
    <member type="way" ref="40486763" role=""/>
    <member type="way" ref="112748722" role=""/>
    <member type="way" ref="112753945" role=""/>
    <member type="way" ref="40102745" role=""/>
    <member type="way" ref="112753948" role=""/>
    <member type="way" ref="112753933" role=""/>
    <member type="way" ref="55869351" role=""/>
    <tag k="network" v="euro"/>
    <tag k="ref" v="ER-8"/>
    <tag k="route" v="bicycle"/>
    <tag k="type" v="route"/>
  </relation>
  <relation id="1581650" version="1" timestamp="2011-05-11T16:33:01Z" uid="115477" user="wowik" changeset="8113835">
    <member type="way" ref="36905733" role="outer"/>
    <member type="way" ref="112694647" role="inner"/>
    <tag k="type" v="multipolygon"/>
  </relation>
  <relation id="1581694" version="1" timestamp="2011-05-11T17:34:56Z" uid="20587" user="balrog-kun" changeset="8114383">
    <member type="way" ref="75688604" role=""/>
    <tag k="colour" v="orange"/>
    <tag k="ref" v="Pomarańczowy szlak z kropką"/>
    <tag k="route" v="horse"/>
    <tag k="type" v="route"/>
  </relation>
  <relation id="1581751" version="1" timestamp="2011-05-11T18:16:06Z" uid="33382" user="de_muur" changeset="8114813">
    <member type="node" ref="1280406908" role=""/>
    <member type="way" ref="4768291" role=""/>
    <member type="way" ref="24318988" role=""/>
    <member type="node" ref="1280483259" role=""/>
    <tag k="name" v="Gnarrenburg - Selsingen"/>
    <tag k="network" v="lcn"/>
    <tag k="operator" v="Landkreis Rotenburg (Wümme)"/>
    <tag k="route" v="bicycle"/>
    <tag k="type" v="route"/>
  </relation>
  <relation id="1581759" version="1" timestamp="2011-05-11T18:19:52Z" uid="33382" user="de_muur" changeset="8114849">
    <member type="node" ref="1280483259" role=""/>
    <member type="way" ref="112702656" role=""/>
    <member type="node" ref="1280486042" role=""/>
    <tag k="name" v="Gnarrenburg - Zeven"/>
    <tag k="network" v="lcn"/>
    <tag k="operator" v="Landkreis Rotenburg (Wümme)"/>
    <tag k="route" v="bicycle"/>
    <tag k="type" v="route"/>
  </relation>
  <relation id="1581769" version="1" timestamp="2011-05-11T18:31:26Z" uid="33382" user="de_muur" changeset="8114966">
    <member type="node" ref="1280486042" role=""/>
    <member type="way" ref="112704305" role=""/>
    <member type="node" ref="1280502045" role=""/>
    <tag k="name" v="Gnarrenburg - Selsingen"/>
    <tag k="network" v="lcn"/>
    <tag k="operator" v="Landkreis Rotenburg (Wümme)"/>
    <tag k="route" v="bicycle"/>
    <tag k="type" v="route"/>
  </relation>
  <relation id="1581807" version="1" timestamp="2011-05-11T18:59:21Z" uid="66036" user="h4v" changeset="8115250">
    <member type="way" ref="112706809" role="outer"/>
    <member type="way" ref="112706806" role="inner"/>
    <tag k="type" v="multipolygon"/>
  </relation>
  <relation id="1581893" version="1" timestamp="2011-05-11T19:33:47Z" uid="66036" user="h4v" changeset="8115641">
    <member type="way" ref="104489542" role="outer"/>
    <member type="way" ref="104489543" role="inner"/>
    <tag k="type" v="multipolygon"/>
  </relation>
</osm>
