<?xml version='1.0' encoding='UTF-8'?>
<osm version="0.6" generator="libosmium/2.20.0">
  <relation id="1617051" version="1" timestamp="2011-06-08T20:05:51Z" uid="33382" user="de_muur" changeset="8383147">
    <member type="node" ref="1316290032" role=""/>
    <member type="way" ref="116845068" role=""/>
    <member type="way" ref="24973698" role=""/>
    <member type="way" ref="24973697" role=""/>
    <member type="way" ref="116868220" role=""/>
    <member type="way" ref="39842557" role=""/>
    <member type="node" ref="1316488801" role=""/>
    <tag k="name" v="Berkenthin - Krummesse"/>
    <tag k="network" v="lcn"/>
    <tag k="operator" v="Kreis Herzogtum Lauenburg"/>
    <tag k="route" v="bicycle"/>
    <tag k="type" v="route"/>
  </relation>
  <relation id="1617062" version="1" timestamp="2011-06-08T20:16:14Z" uid="33382" user="de_muur" changeset="8383241">
    <member type="node" ref="1316488801" role=""/>
    <member type="way" ref="39842580" role=""/>
    <member type="way" ref="39842577" role=""/>
    <member type="way" ref="39842578" role=""/>
    <tag k="name" v="Berkenthin - (Krummesse)"/>
    <tag k="network" v="lcn"/>
    <tag k="operator" v="Kreis Herzogtum Lauenburg"/>
    <tag k="route" v="bicycle"/>
    <tag k="type" v="route"/>
  </relation>
  <relation id="1617063" version="1" timestamp="2011-06-08T20:16:14Z" uid="33382" user="de_muur" changeset="8383241">
    <member type="node" ref="1245906533" role=""/>
    <member type="way" ref="108637221" role=""/>
    <tag k="name" v="(Berkenthin) - Krummesse"/>
    <tag k="network" v="lcn"/>
    <tag k="operator" v="Kreis Herzogtum Lauenburg"/>
    <tag k="route" v="bicycle"/>
    <tag k="type" v="route"/>
  </relation>
</osm>
