<?xml version='1.0' encoding='UTF-8'?>
<osm version="0.6" generator="libosmium/2.20.0">
  <relation id="393144" version="3" timestamp="2010-05-17T17:11:28Z" uid="115477" user="wowik" changeset="4730549">
    <member type="way" ref="48800380" role="inner"/>
    <member type="way" ref="59474117" role="outer"/>
    <tag k="type" v="multipolygon"/>
  </relation>
  <relation id="393147" version="3" timestamp="2010-04-11T12:38:05Z" uid="9581" user="Lobelt" changeset="4392908">
    <member type="way" ref="48800424" role=""/>
    <member type="way" ref="48800422" role=""/>
    <member type="way" ref="48777974" role=""/>
    <member type="way" ref="48777972" role=""/>
    <member type="way" ref="27001171" role=""/>
    <member type="way" ref="22993260" role=""/>
    <member type="way" ref="48777962" role=""/>
    <member type="way" ref="48802975" role=""/>
    <member type="way" ref="48762366" role=""/>
    <member type="way" ref="48762365" role=""/>
    <member type="way" ref="48762363" role=""/>
    <member type="way" ref="48762361" role=""/>
    <member type="way" ref="48800418" role=""/>
    <member type="way" ref="26939238" role=""/>
    <member type="way" ref="26939237" role=""/>
    <member type="way" ref="48800429" role=""/>
    <member type="way" ref="43132723" role=""/>
    <member type="way" ref="36967948" role=""/>
    <member type="way" ref="55087341" role=""/>
    <member type="way" ref="55087342" role=""/>
    <member type="way" ref="43132708" role=""/>
    <member type="way" ref="48800428" role=""/>
    <member type="way" ref="25585303" role=""/>
    <member type="way" ref="26939137" role=""/>
    <member type="way" ref="26939157" role=""/>
    <member type="way" ref="30843102" role=""/>
    <member type="way" ref="30843107" role=""/>
    <member type="way" ref="32518367" role=""/>
    <member type="way" ref="48800420" role=""/>
    <tag k="distance" v="4 km"/>
    <tag k="name" v="NaturKraftWeg Mörlenbach"/>
    <tag k="network" v="lwn"/>
    <tag k="operator" v="Gemeinde Mörlenbach"/>
    <tag k="route" v="hiking"/>
    <tag k="symbol" v="Orange-grün-blauer Punkt mit Schriftzug NaturKarftWeg Mörlenbach"/>
    <tag k="type" v="route"/>
  </relation>
  <relation id="393360" version="1" timestamp="2010-01-24T17:10:04Z" uid="33382" user="de_muur" changeset="3703262">
    <member type="node" ref="582590670" role=""/>
    <member type="way" ref="47308664" role=""/>
    <member type="way" ref="4763199" role=""/>
    <member type="node" ref="619344721" role=""/>
    <tag k="name" v="Bassen - Osterholz"/>
    <tag k="network" v="lcn"/>
    <tag k="operator" v="Landkreis Verden"/>
    <tag k="route" v="bicycle"/>
    <tag k="type" v="route"/>
  </relation>
  <relation id="393360" version="2" timestamp="2010-11-03T15:43:01Z" uid="33382" user="de_muur" changeset="6277111">
    <member type="node" ref="582590670" role=""/>
    <member type="way" ref="47308664" role=""/>
    <member type="way" ref="83822230" role=""/>
    <member type="way" ref="4763199" role=""/>
    <member type="node" ref="619344721" role=""/>
    <tag k="name" v="Bassen - Osterholz"/>
    <tag k="network" v="lcn"/>
    <tag k="operator" v="Landkreis Verden"/>
    <tag k="route" v="bicycle"/>
    <tag k="type" v="route"/>
  </relation>
  <relation id="393361" version="1" timestamp="2010-01-24T17:10:05Z" uid="33382" user="de_muur" changeset="3703262">
    <member type="node" ref="619344721" role=""/>
    <member type="way" ref="48815714" role=""/>
    <member type="node" ref="619344726" role=""/>
    <tag k="name" v="Achim - Osterholz"/>
    <tag k="network" v="lcn"/>
    <tag k="operator" v="Landkreis Verden"/>
    <tag k="route" v="bicycle"/>
    <tag k="type" v="route"/>
  </relation>
  <relation id="393362" version="1" timestamp="2010-01-24T17:10:05Z" uid="33382" user="de_muur" changeset="3703262">
    <member type="node" ref="619344726" role=""/>
    <member type="way" ref="27401442" role=""/>
    <member type="way" ref="48815717" role=""/>
    <tag k="name" v="Achim -"/>
    <tag k="network" v="lcn"/>
    <tag k="operator" v="Landkreis Verden"/>
    <tag k="route" v="bicycle"/>
    <tag k="type" v="route"/>
  </relation>
  <relation id="393362" version="2" timestamp="2010-01-24T17:17:43Z" uid="33382" user="de_muur" changeset="3703365">
    <member type="node" ref="619344726" role=""/>
    <member type="way" ref="27401442" role=""/>
    <member type="way" ref="48815717" role=""/>
    <tag k="name" v="Achim -"/>
    <tag k="network" v="lcn"/>
    <tag k="note" v="guidepost on the other end is missing"/>
    <tag k="operator" v="Landkreis Verden"/>
    <tag k="route" v="bicycle"/>
    <tag k="type" v="route"/>
  </relation>
  <relation id="393362" version="3" timestamp="2010-03-21T08:31:08Z" uid="33382" user="de_muur" changeset="4188054">
    <member type="node" ref="619344726" role=""/>
    <member type="way" ref="27401442" role=""/>
    <member type="way" ref="48815717" role=""/>
    <tag k="name" v="Achim"/>
    <tag k="network" v="lcn"/>
    <tag k="note" v="guidepost on the other end is missing"/>
    <tag k="operator" v="Landkreis Verden"/>
    <tag k="route" v="bicycle"/>
    <tag k="type" v="route"/>
  </relation>
  <relation id="393362" version="4" timestamp="2010-11-14T16:10:29Z" uid="33382" user="de_muur" changeset="6368002">
    <member type="node" ref="619344726" role=""/>
    <member type="way" ref="27401442" role=""/>
    <member type="way" ref="48815717" role=""/>
    <member type="node" ref="988903842" role=""/>
    <member type="way" ref="27201720" role=""/>
    <member type="way" ref="27201716" role=""/>
    <member type="way" ref="27201717" role=""/>
    <member type="way" ref="27201718" role=""/>
    <member type="way" ref="23787802" role=""/>
    <member type="way" ref="23787809" role=""/>
    <member type="node" ref="582589550" role=""/>
    <tag k="name" v="Achim - Sagehorn"/>
    <tag k="network" v="lcn"/>
    <tag k="note" v="guidepost on the other end is missing"/>
    <tag k="operator" v="Landkreis Verden"/>
    <tag k="route" v="bicycle"/>
    <tag k="type" v="route"/>
  </relation>
  <relation id="393363" version="1" timestamp="2010-01-24T17:10:05Z" uid="33382" user="de_muur" changeset="3703262">
    <member type="node" ref="581995924" role=""/>
    <member type="way" ref="27416406" role=""/>
    <member type="way" ref="26960348" role=""/>
    <tag k="name" v="Sagehorn -"/>
    <tag k="network" v="lcn"/>
    <tag k="operator" v="Landkreis Verden"/>
    <tag k="route" v="bicycle"/>
    <tag k="type" v="route"/>
  </relation>
  <relation id="393363" version="2" timestamp="2010-01-24T17:17:43Z" uid="33382" user="de_muur" changeset="3703365">
    <member type="node" ref="581995924" role=""/>
    <member type="way" ref="27416406" role=""/>
    <member type="way" ref="26960348" role=""/>
    <tag k="name" v="Sagehorn -"/>
    <tag k="network" v="lcn"/>
    <tag k="note" v="guidepost on the other end is missing"/>
    <tag k="operator" v="Landkreis Verden"/>
    <tag k="route" v="bicycle"/>
    <tag k="type" v="route"/>
  </relation>
  <relation id="393363" version="3" timestamp="2010-11-14T16:10:28Z" uid="33382" user="de_muur" changeset="6368002">
    <member type="node" ref="581995924" role=""/>
    <member type="way" ref="27416406" role=""/>
    <member type="way" ref="26960348" role=""/>
    <member type="node" ref="988903842" role=""/>
    <tag k="name" v="Meyerdamm - Sagehorn"/>
    <tag k="network" v="lcn"/>
    <tag k="operator" v="Landkreis Verden"/>
    <tag k="route" v="bicycle"/>
    <tag k="type" v="route"/>
  </relation>
  <relation id="393365" version="1" timestamp="2010-01-24T17:17:41Z" uid="33382" user="de_muur" changeset="3703365">
    <member type="node" ref="582589550" role=""/>
    <member type="way" ref="23787809" role=""/>
    <member type="way" ref="27201718" role=""/>
    <member type="way" ref="27201717" role=""/>
    <member type="way" ref="27201716" role=""/>
    <member type="way" ref="27201720" role=""/>
    <tag k="name" v="Sagehorn -"/>
    <tag k="network" v="lcn"/>
    <tag k="note" v="guidepost on the other end is missing"/>
    <tag k="operator" v="Landkreis Verden"/>
    <tag k="route" v="bicycle"/>
    <tag k="type" v="route"/>
  </relation>
  <relation id="393365" version="2" timestamp="2010-01-25T11:37:56Z" uid="33382" user="de_muur" changeset="3710033">
    <member type="node" ref="582589550" role=""/>
    <member type="way" ref="23787809" role=""/>
    <member type="way" ref="27201718" role=""/>
    <member type="way" ref="23787802" role=""/>
    <member type="way" ref="27201717" role=""/>
    <member type="way" ref="27201716" role=""/>
    <member type="way" ref="27201720" role=""/>
    <tag k="name" v="Sagehorn -"/>
    <tag k="network" v="lcn"/>
    <tag k="note" v="guidepost on the other end is missing"/>
    <tag k="operator" v="Landkreis Verden"/>
    <tag k="route" v="bicycle"/>
    <tag k="type" v="route"/>
  </relation>
  <relation id="393365" version="3" timestamp="2010-11-14T16:11:15Z" uid="33382" user="de_muur" changeset="6368002"/>
  <relation id="393366" version="1" timestamp="2010-01-24T17:17:42Z" uid="33382" user="de_muur" changeset="3703365">
    <member type="node" ref="582608008" role=""/>
    <member type="way" ref="27201083" role=""/>
    <member type="way" ref="27201085" role=""/>
    <member type="node" ref="619344721" role=""/>
    <tag k="name" v="Achim - Sagehorn"/>
    <tag k="network" v="lcn"/>
    <tag k="operator" v="Landkreis Verden"/>
    <tag k="route" v="bicycle"/>
    <tag k="type" v="route"/>
  </relation>
  <relation id="393367" version="1" timestamp="2010-01-24T17:17:42Z" uid="33382" user="de_muur" changeset="3703365">
    <member type="node" ref="619344726" role=""/>
    <member type="way" ref="27384101" role=""/>
    <member type="way" ref="27430881" role=""/>
    <tag k="name" v="Fischerhude -"/>
    <tag k="network" v="lcn"/>
    <tag k="note" v="incomplete"/>
    <tag k="operator" v="Landkreis Verden"/>
    <tag k="route" v="bicycle"/>
    <tag k="type" v="route"/>
  </relation>
  <relation id="393367" version="2" timestamp="2010-03-21T08:35:25Z" uid="33382" user="de_muur" changeset="4188079">
    <member type="node" ref="619344726" role=""/>
    <member type="way" ref="27384101" role=""/>
    <member type="way" ref="27430881" role=""/>
    <member type="way" ref="27687185" role=""/>
    <member type="node" ref="671182563" role=""/>
    <tag k="name" v="Achim- Fischerhude"/>
    <tag k="network" v="lcn"/>
    <tag k="note" v="incomplete"/>
    <tag k="operator" v="Landkreis Verden"/>
    <tag k="route" v="bicycle"/>
    <tag k="type" v="route"/>
  </relation>
  <relation id="393487" version="3" timestamp="2010-04-18T17:35:05Z" uid="115477" user="wowik" changeset="4460163">
    <member type="way" ref="28601151" role=""/>
    <member type="way" ref="33093334" role=""/>
    <member type="way" ref="33093112" role=""/>
    <member type="way" ref="37803589" role=""/>
    <member type="way" ref="37803584" role=""/>
    <member type="way" ref="33093122" role=""/>
    <member type="way" ref="55825291" role=""/>
    <member type="way" ref="55825293" role=""/>
    <tag k="ref" v="Р86"/>
    <tag k="route" v="road"/>
    <tag k="type" v="route"/>
  </relation>
  <relation id="393487" version="4" timestamp="2010-04-18T18:37:31Z" uid="115477" user="wowik" changeset="4461195">
    <member type="way" ref="28601151" role=""/>
    <member type="way" ref="33093334" role=""/>
    <member type="way" ref="33093112" role=""/>
    <member type="way" ref="37803589" role=""/>
    <member type="way" ref="37803584" role=""/>
    <member type="way" ref="33093122" role=""/>
    <member type="way" ref="55825291" role=""/>
    <member type="way" ref="55825293" role=""/>
    <member type="way" ref="55837349" role=""/>
    <member type="way" ref="55837395" role=""/>
    <tag k="ref" v="Р86"/>
    <tag k="route" v="road"/>
    <tag k="type" v="route"/>
  </relation>
  <relation id="393487" version="5" timestamp="2010-04-23T14:34:02Z" uid="115477" user="wowik" changeset="4504065">
    <member type="way" ref="28601151" role=""/>
    <member type="way" ref="33093334" role=""/>
    <member type="way" ref="33093112" role=""/>
    <member type="way" ref="37803589" role=""/>
    <member type="way" ref="37803584" role=""/>
    <member type="way" ref="33093122" role=""/>
    <member type="way" ref="55825291" role=""/>
    <member type="way" ref="55825293" role=""/>
    <member type="way" ref="55837349" role=""/>
    <member type="way" ref="55837395" role=""/>
    <tag k="ref" v="Р86"/>
    <tag k="route" v="road"/>
    <tag k="type" v="route"/>
  </relation>
  <relation id="393487" version="7" timestamp="2010-07-01T09:36:24Z" uid="115477" user="wowik" changeset="5118987">
    <member type="way" ref="28601151" role=""/>
    <member type="way" ref="33093334" role=""/>
    <member type="way" ref="33093112" role=""/>
    <member type="way" ref="37803589" role=""/>
    <member type="way" ref="37803584" role=""/>
    <member type="way" ref="33093122" role=""/>
    <member type="way" ref="60574897" role=""/>
    <member type="way" ref="60574894" role=""/>
    <member type="way" ref="60574896" role=""/>
    <member type="way" ref="60574895" role=""/>
    <member type="way" ref="55825291" role=""/>
    <member type="way" ref="55825293" role=""/>
    <member type="way" ref="55837349" role=""/>
    <member type="way" ref="55837395" role=""/>
    <member type="way" ref="65277330" role=""/>
    <member type="way" ref="65277331" role=""/>
    <tag k="ref" v="Р86"/>
    <tag k="route" v="road"/>
    <tag k="type" v="route"/>
  </relation>
  <relation id="393941" version="1" timestamp="2010-01-25T09:25:21Z" uid="7617" user="Franc" changeset="3709079">
    <member type="way" ref="46418123" role="from"/>
    <member type="node" ref="26428850" role="via"/>
    <member type="way" ref="48847251" role="to"/>
    <tag k="restriction" v="no_right_turn"/>
    <tag k="type" v="restriction"/>
  </relation>
</osm>
