<?xml version='1.0' encoding='UTF-8'?>
<osm version="0.6" generator="libosmium/2.20.0">
  <relation id="455196" version="1" timestamp="2010-03-19T17:58:21Z" uid="115477" user="wowik" changeset="4172447">
    <member type="way" ref="51549794" role="from"/>
    <member type="way" ref="48495147" role="to"/>
    <member type="node" ref="616196198" role="via"/>
    <tag k="restriction" v="only_straight _on"/>
    <tag k="type" v="restriction"/>
  </relation>
  <relation id="455196" version="2" timestamp="2010-03-22T15:22:16Z" uid="115477" user="wowik" changeset="4203495">
    <member type="way" ref="48495147" role="to"/>
    <member type="node" ref="616196198" role="via"/>
    <member type="way" ref="53092610" role="from"/>
    <tag k="restriction" v="only_straight _on"/>
    <tag k="type" v="restriction"/>
  </relation>
  <relation id="455197" version="1" timestamp="2010-03-19T17:58:21Z" uid="115477" user="wowik" changeset="4172447">
    <member type="way" ref="51731900" role="from"/>
    <member type="way" ref="48495145" role="to"/>
    <member type="node" ref="616196186" role="via"/>
    <tag k="restriction" v="only_straight_on"/>
    <tag k="type" v="restriction"/>
  </relation>
  <relation id="455197" version="2" timestamp="2011-02-16T09:03:43Z" uid="115477" user="wowik" changeset="7302003">
    <member type="way" ref="48495145" role="to"/>
    <member type="node" ref="616196186" role="via"/>
    <member type="way" ref="99991615" role="from"/>
    <tag k="restriction" v="only_straight_on"/>
    <tag k="type" v="restriction"/>
  </relation>
  <relation id="455199" version="1" timestamp="2010-03-19T18:00:25Z" uid="115477" user="wowik" changeset="4172447">
    <member type="way" ref="48520354" role="from"/>
    <member type="way" ref="48520353" role="to"/>
    <member type="node" ref="61674605" role="via"/>
    <tag k="restriction" v="only_straight_on"/>
    <tag k="type" v="restriction"/>
  </relation>
  <relation id="455200" version="1" timestamp="2010-03-19T18:00:25Z" uid="115477" user="wowik" changeset="4172447">
    <member type="way" ref="48520352" role="from"/>
    <member type="way" ref="48520146" role="to"/>
    <member type="node" ref="616416533" role="via"/>
    <tag k="restriction" v="only_straight_on"/>
    <tag k="type" v="restriction"/>
  </relation>
  <relation id="455200" version="2" timestamp="2010-04-28T11:34:31Z" uid="115477" user="wowik" changeset="4548366">
    <member type="way" ref="48520352" role="from"/>
    <member type="way" ref="48520146" role="to"/>
    <member type="node" ref="616416533" role="via"/>
    <tag k="restriction" v="only_straight_on"/>
    <tag k="type" v="restriction"/>
  </relation>
  <relation id="455200" version="3" timestamp="2011-05-26T15:11:51Z" uid="115477" user="wowik" changeset="8253481">
    <member type="way" ref="48520352" role="from"/>
    <member type="way" ref="48520146" role="to"/>
    <member type="node" ref="616416533" role="via"/>
    <tag k="restriction" v="only_straight_on"/>
    <tag k="type" v="restriction"/>
  </relation>
  <relation id="455233" version="1" timestamp="2010-03-19T18:50:16Z" uid="33382" user="de_muur" changeset="4172925">
    <member type="node" ref="669889951" role=""/>
    <member type="way" ref="52825214" role=""/>
    <member type="way" ref="20918761" role=""/>
    <member type="way" ref="31277950" role=""/>
    <member type="way" ref="31277949" role=""/>
    <member type="way" ref="6244525" role=""/>
    <member type="way" ref="40294454" role=""/>
    <member type="node" ref="614837669" role=""/>
    <tag k="name" v="Achim - Bremen/Arsten"/>
    <tag k="network" v="lcn"/>
    <tag k="operator" v="Landkreis Verden"/>
    <tag k="route" v="bicycle"/>
    <tag k="type" v="route"/>
  </relation>
  <relation id="455248" version="1" timestamp="2010-03-19T18:55:11Z" uid="33382" user="de_muur" changeset="4172968">
    <member type="node" ref="669889951" role=""/>
    <member type="way" ref="47045797" role=""/>
    <member type="way" ref="52825382" role=""/>
    <member type="node" ref="669891270" role=""/>
    <tag k="name" v="Achim - Lunsen"/>
    <tag k="network" v="lcn"/>
    <tag k="operator" v="Landkreis Verden"/>
    <tag k="route" v="bicycle"/>
    <tag k="type" v="route"/>
  </relation>
  <relation id="455258" version="1" timestamp="2010-03-19T18:58:53Z" uid="33382" user="de_muur" changeset="4173013">
    <member type="node" ref="669891270" role=""/>
    <member type="way" ref="52825667" role=""/>
    <member type="node" ref="669893087" role=""/>
    <tag k="name" v="Achim - Thedinghausen"/>
    <tag k="network" v="lcn"/>
    <tag k="operator" v="Landkreis Verden"/>
    <tag k="route" v="bicycle"/>
    <tag k="type" v="route"/>
  </relation>
  <relation id="455263" version="1" timestamp="2010-03-19T19:04:46Z" uid="33382" user="de_muur" changeset="4173065">
    <member type="node" ref="669893087" role=""/>
    <member type="way" ref="25276061" role=""/>
    <member type="way" ref="24943036" role=""/>
    <member type="way" ref="24943042" role=""/>
    <member type="way" ref="33182797" role=""/>
    <member type="way" ref="6244490" role=""/>
    <member type="node" ref="669894285" role=""/>
    <tag k="name" v="Achim - Dibbersen"/>
    <tag k="network" v="lcn"/>
    <tag k="operator" v="Landkreis Verden"/>
    <tag k="route" v="bicycle"/>
    <tag k="type" v="route"/>
  </relation>
  <relation id="455263" version="2" timestamp="2010-03-27T08:09:27Z" uid="33382" user="de_muur" changeset="4244277">
    <member type="node" ref="669893087" role=""/>
    <member type="way" ref="24943036" role=""/>
    <member type="way" ref="24943042" role=""/>
    <member type="way" ref="33182797" role=""/>
    <member type="way" ref="6244490" role=""/>
    <member type="node" ref="669894285" role=""/>
    <tag k="name" v="Achim - Dibbersen"/>
    <tag k="network" v="lcn"/>
    <tag k="operator" v="Landkreis Verden"/>
    <tag k="route" v="bicycle"/>
    <tag k="type" v="route"/>
  </relation>
  <relation id="455296" version="1" timestamp="2010-03-19T19:22:27Z" uid="33382" user="de_muur" changeset="4173231">
    <member type="node" ref="669898658" role=""/>
    <member type="way" ref="23787807" role=""/>
    <member type="node" ref="669898656" role=""/>
    <tag k="name" v="Dibbersen - Dibbersen"/>
    <tag k="network" v="lcn"/>
    <tag k="operator" v="Landkreis Verden"/>
    <tag k="route" v="bicycle"/>
    <tag k="type" v="route"/>
  </relation>
  <relation id="455296" version="2" timestamp="2010-03-22T19:10:24Z" uid="33382" user="de_muur" changeset="4205719">
    <member type="way" ref="53104471" role=""/>
    <member type="node" ref="669898656" role=""/>
    <tag k="name" v="Dibbersen"/>
    <tag k="network" v="lcn"/>
    <tag k="operator" v="Landkreis Verden"/>
    <tag k="route" v="bicycle"/>
    <tag k="type" v="route"/>
  </relation>
  <relation id="455300" version="1" timestamp="2010-03-19T19:27:48Z" uid="33382" user="de_muur" changeset="4173289">
    <member type="node" ref="669898656" role=""/>
    <member type="way" ref="23787782" role=""/>
    <member type="way" ref="37767304" role=""/>
    <member type="node" ref="669900810" role=""/>
    <tag k="name" v="Dibbersen - Okel"/>
    <tag k="network" v="lcn"/>
    <tag k="operator" v="Landkreis Verden"/>
    <tag k="route" v="bicycle"/>
    <tag k="type" v="route"/>
  </relation>
  <relation id="455300" version="2" timestamp="2010-03-19T19:29:31Z" uid="33382" user="de_muur" changeset="4173305">
    <member type="node" ref="669898656" role=""/>
    <member type="way" ref="23787782" role=""/>
    <member type="way" ref="37767304" role=""/>
    <member type="node" ref="669900810" role=""/>
    <member type="way" ref="37767306" role=""/>
    <member type="way" ref="23787822" role=""/>
    <member type="node" ref="669898654" role=""/>
    <tag k="name" v="Dibbersen - Okel"/>
    <tag k="network" v="lcn"/>
    <tag k="operator" v="Landkreis Verden"/>
    <tag k="route" v="bicycle"/>
    <tag k="type" v="route"/>
  </relation>
  <relation id="455303" version="1" timestamp="2010-03-19T19:31:18Z" uid="33382" user="de_muur" changeset="4173321">
    <member type="node" ref="669898654" role=""/>
    <member type="way" ref="52826722" role=""/>
    <member type="node" ref="669898649" role=""/>
    <tag k="name" v="Okel - Thedinghausen"/>
    <tag k="network" v="lcn"/>
    <tag k="operator" v="Landkreis Verden"/>
    <tag k="route" v="bicycle"/>
    <tag k="type" v="route"/>
  </relation>
  <relation id="455303" version="2" timestamp="2010-03-25T19:46:59Z" uid="33382" user="de_muur" changeset="4232497">
    <member type="node" ref="674229039" role=""/>
    <member type="way" ref="52826721" role=""/>
    <member type="node" ref="669898654" role=""/>
    <member type="way" ref="52826722" role=""/>
    <member type="node" ref="669898649" role=""/>
    <tag k="name" v="Okel - Thedinghausen"/>
    <tag k="network" v="lcn"/>
    <tag k="operator" v="Landkreis Verden"/>
    <tag k="route" v="bicycle"/>
    <tag k="type" v="route"/>
  </relation>
  <relation id="455328" version="1" timestamp="2010-03-19T19:43:31Z" uid="33382" user="de_muur" changeset="4173449">
    <member type="node" ref="669904351" role=""/>
    <member type="way" ref="52826993" role=""/>
    <tag k="name" v="Barrien"/>
    <tag k="network" v="lcn"/>
    <tag k="operator" v="Landkreis Verden"/>
    <tag k="route" v="bicycle"/>
    <tag k="type" v="route"/>
  </relation>
  <relation id="455329" version="1" timestamp="2010-03-19T19:43:31Z" uid="33382" user="de_muur" changeset="4173449">
    <member type="node" ref="669904351" role=""/>
    <member type="way" ref="52826994" role=""/>
    <member type="node" ref="669904350" role=""/>
    <tag k="name" v="Bahlum - Heiligenbruch"/>
    <tag k="network" v="lcn"/>
    <tag k="operator" v="Landkreis Verden"/>
    <tag k="route" v="bicycle"/>
    <tag k="type" v="route"/>
  </relation>
  <relation id="455329" version="2" timestamp="2010-03-27T09:47:09Z" uid="33382" user="de_muur" changeset="4244843">
    <member type="node" ref="669904351" role=""/>
    <member type="way" ref="52826994" role=""/>
    <member type="node" ref="669904350" role=""/>
    <member type="way" ref="23413222" role=""/>
    <member type="node" ref="675617636" role=""/>
    <tag k="name" v="Bahlum - Heiligenbruch"/>
    <tag k="network" v="lcn"/>
    <tag k="operator" v="Landkreis Verden"/>
    <tag k="route" v="bicycle"/>
    <tag k="type" v="route"/>
  </relation>
  <relation id="455330" version="1" timestamp="2010-03-19T19:43:31Z" uid="33382" user="de_muur" changeset="4173449">
    <member type="node" ref="669904350" role=""/>
    <member type="way" ref="52826995" role=""/>
    <member type="node" ref="669904352" role=""/>
    <tag k="name" v="Bahlum - Felde"/>
    <tag k="network" v="lcn"/>
    <tag k="operator" v="Landkreis Verden"/>
    <tag k="route" v="bicycle"/>
    <tag k="type" v="route"/>
  </relation>
  <relation id="455388" version="3" timestamp="2011-01-27T22:29:48Z" uid="6269" user="Mueck" changeset="7108113">
    <member type="way" ref="37715279" role=""/>
    <member type="way" ref="53374678" role=""/>
    <member type="way" ref="97019267" role=""/>
    <member type="way" ref="26450649" role=""/>
    <member type="way" ref="26450648" role=""/>
    <member type="way" ref="24344852" role=""/>
    <tag k="operator" v="Landkreis Cuxhaven"/>
    <tag k="ref" v="K 64"/>
    <tag k="route" v="road"/>
    <tag k="type" v="route"/>
  </relation>
</osm>
