<?xml version='1.0' encoding='UTF-8'?>
<osm version="0.6" generator="libosmium/2.20.0">
  <relation id="533109" version="1" timestamp="2010-03-23T14:51:42Z" uid="74617" user="JohnSmith" changeset="4212728">
    <member type="way" ref="16197505" role="member"/>
    <member type="way" ref="29417120" role="member"/>
    <member type="way" ref="10950084" role="member"/>
    <member type="way" ref="10950087" role="member"/>
    <member type="way" ref="17022052" role="member"/>
    <member type="way" ref="23853949" role="member"/>
    <member type="way" ref="16202438" role="member"/>
    <member type="way" ref="29417117" role="member"/>
    <member type="way" ref="10950095" role="member"/>
    <member type="way" ref="10957201" role="member"/>
    <tag k="network" v="S"/>
    <tag k="ref" v="36"/>
    <tag k="route" v="road"/>
    <tag k="type" v="route"/>
  </relation>
  <relation id="533114" version="1" timestamp="2010-03-23T15:04:35Z" uid="74617" user="JohnSmith" changeset="4212854">
    <member type="way" ref="11608555" role="member"/>
    <member type="way" ref="44414494" role="member"/>
    <member type="way" ref="44414495" role="member"/>
    <member type="way" ref="44414492" role="member"/>
    <member type="way" ref="44414493" role="member"/>
    <member type="way" ref="11609001" role="member"/>
    <tag k="network" v="S"/>
    <tag k="ref" v="20"/>
    <tag k="route" v="road"/>
    <tag k="type" v="route"/>
  </relation>
  <relation id="533114" version="2" timestamp="2010-03-23T15:12:21Z" uid="74617" user="JohnSmith" changeset="4212934">
    <member type="way" ref="11608555" role="member"/>
    <member type="way" ref="44414494" role="member"/>
    <member type="way" ref="44414495" role="member"/>
    <member type="way" ref="44414492" role="member"/>
    <member type="way" ref="44414493" role="member"/>
    <member type="way" ref="11609001" role="member"/>
    <member type="way" ref="11641338" role="member"/>
    <member type="way" ref="10012329" role="member"/>
    <member type="way" ref="42473777" role="member"/>
    <tag k="network" v="S"/>
    <tag k="ref" v="20"/>
    <tag k="route" v="road"/>
    <tag k="type" v="route"/>
  </relation>
  <relation id="533114" version="3" timestamp="2010-05-19T03:50:24Z" uid="244897" user="M526244" changeset="4744447">
    <member type="way" ref="11608555" role="member"/>
    <member type="way" ref="44414494" role="member"/>
    <member type="way" ref="44414495" role="member"/>
    <member type="way" ref="44414492" role="member"/>
    <member type="way" ref="44414493" role="member"/>
    <member type="way" ref="11609001" role="member"/>
    <member type="way" ref="11641338" role="member"/>
    <member type="way" ref="10012329" role="member"/>
    <member type="way" ref="42473777" role="member"/>
    <member type="way" ref="10011977" role="member"/>
    <tag k="network" v="S"/>
    <tag k="ref" v="20"/>
    <tag k="route" v="road"/>
    <tag k="type" v="route"/>
  </relation>
  <relation id="533114" version="4" timestamp="2010-07-17T03:18:06Z" uid="4467" user="Rosscoe" changeset="5239050">
    <member type="way" ref="11608555" role="member"/>
    <member type="way" ref="44414494" role="member"/>
    <member type="way" ref="44414495" role="member"/>
    <member type="way" ref="68168811" role="member"/>
    <member type="way" ref="68168813" role="member"/>
    <member type="way" ref="44414492" role="member"/>
    <member type="way" ref="44414493" role="member"/>
    <member type="way" ref="11609001" role="member"/>
    <member type="way" ref="68168810" role="member"/>
    <member type="way" ref="68168812" role="member"/>
    <member type="way" ref="11641338" role="member"/>
    <member type="way" ref="10012329" role="member"/>
    <member type="way" ref="42473777" role="member"/>
    <member type="way" ref="10011977" role="member"/>
    <tag k="network" v="S"/>
    <tag k="ref" v="20"/>
    <tag k="route" v="road"/>
    <tag k="type" v="route"/>
  </relation>
  <relation id="533180" version="1" timestamp="2010-03-23T16:50:25Z" uid="115477" user="wowik" changeset="4213277">
    <member type="way" ref="52158486" role="outer"/>
    <member type="way" ref="53163891" role="inner"/>
    <tag k="type" v="multipolygon"/>
  </relation>
  <relation id="533180" version="2" timestamp="2010-10-13T09:37:34Z" uid="115477" user="wowik" changeset="6027555">
    <tag k="type" v="multipolygon"/>
  </relation>
  <relation id="533288" version="1" timestamp="2010-03-23T18:58:50Z" uid="33382" user="de_muur" changeset="4214954">
    <member type="node" ref="669904352" role=""/>
    <member type="way" ref="53172469" role=""/>
    <member type="way" ref="53172470" role=""/>
    <member type="node" ref="672853407" role=""/>
    <tag k="name" v="Emtinghausen - Sudweyhe"/>
    <tag k="network" v="lcn"/>
    <tag k="operator" v="Landkreis Verden"/>
    <tag k="route" v="bicycle"/>
    <tag k="type" v="route"/>
  </relation>
  <relation id="533289" version="1" timestamp="2010-03-23T18:58:52Z" uid="33382" user="de_muur" changeset="4214954">
    <member type="node" ref="669904352" role=""/>
    <member type="way" ref="4250338" role=""/>
    <tag k="name" v="Emtinghausen"/>
    <tag k="network" v="lcn"/>
    <tag k="operator" v="Landkreis Verden"/>
    <tag k="route" v="bicycle"/>
    <tag k="type" v="route"/>
  </relation>
  <relation id="533290" version="1" timestamp="2010-03-23T18:58:52Z" uid="33382" user="de_muur" changeset="4214954">
    <member type="node" ref="669898649" role=""/>
    <member type="way" ref="40294819" role=""/>
    <member type="way" ref="4843947" role=""/>
    <tag k="name" v="Okel"/>
    <tag k="network" v="lcn"/>
    <tag k="operator" v="Landkreis Verden"/>
    <tag k="route" v="bicycle"/>
    <tag k="type" v="route"/>
  </relation>
  <relation id="533291" version="1" timestamp="2010-03-23T19:02:35Z" uid="33382" user="de_muur" changeset="4214991">
    <member type="node" ref="672853407" role=""/>
    <member type="way" ref="53172532" role=""/>
    <member type="node" ref="672855427" role=""/>
    <tag k="name" v="Okel - Sudweyhe"/>
    <tag k="network" v="lcn"/>
    <tag k="operator" v="Landkreis Verden"/>
    <tag k="route" v="bicycle"/>
    <tag k="type" v="route"/>
  </relation>
  <relation id="533291" version="2" timestamp="2010-04-11T17:43:05Z" uid="33382" user="de_muur" changeset="4396626">
    <member type="node" ref="672853407" role=""/>
    <member type="way" ref="53172532" role=""/>
    <member type="node" ref="672855427" role=""/>
    <member type="node" ref="672855428" role=""/>
    <member type="way" ref="27043107" role=""/>
    <member type="node" ref="693343292" role=""/>
    <tag k="name" v="Okel - Sudweyhe"/>
    <tag k="network" v="lcn"/>
    <tag k="operator" v="Landkreis Verden"/>
    <tag k="route" v="bicycle"/>
    <tag k="type" v="route"/>
  </relation>
  <relation id="533294" version="1" timestamp="2010-03-23T19:08:02Z" uid="33382" user="de_muur" changeset="4215054">
    <member type="node" ref="672855427" role=""/>
    <member type="way" ref="27043073" role=""/>
    <member type="node" ref="672864958" role=""/>
    <tag k="name" v="Okel - Riede"/>
    <tag k="network" v="lcn"/>
    <tag k="operator" v="Landkreis Verden"/>
    <tag k="route" v="bicycle"/>
    <tag k="type" v="route"/>
  </relation>
  <relation id="533295" version="1" timestamp="2010-03-23T19:08:02Z" uid="33382" user="de_muur" changeset="4215054">
    <member type="node" ref="672864958" role=""/>
    <member type="way" ref="53172889" role=""/>
    <tag k="name" v="Ahausen"/>
    <tag k="network" v="lcn"/>
    <tag k="operator" v="Landkreis Verden"/>
    <tag k="route" v="bicycle"/>
    <tag k="type" v="route"/>
  </relation>
  <relation id="533295" version="2" timestamp="2010-04-11T16:48:44Z" uid="33382" user="de_muur" changeset="4395977">
    <member type="node" ref="672864958" role=""/>
    <member type="way" ref="53172889" role=""/>
    <tag k="name" v="Ahausen - (Felde)"/>
    <tag k="network" v="lcn"/>
    <tag k="operator" v="Landkreis Verden"/>
    <tag k="route" v="bicycle"/>
    <tag k="type" v="route"/>
  </relation>
  <relation id="533297" version="1" timestamp="2010-03-23T19:11:16Z" uid="33382" user="de_muur" changeset="4215084">
    <member type="node" ref="672865686" role=""/>
    <member type="way" ref="53172893" role=""/>
    <tag k="name" v="Barrien"/>
    <tag k="network" v="lcn"/>
    <tag k="operator" v="Landkreis Verden"/>
    <tag k="route" v="bicycle"/>
    <tag k="type" v="route"/>
  </relation>
  <relation id="533297" version="2" timestamp="2010-04-19T19:46:24Z" uid="33382" user="de_muur" changeset="4471594">
    <member type="node" ref="672865686" role=""/>
    <member type="way" ref="53172893" role=""/>
    <tag k="name" v="Barrien - (Donnerstedt)"/>
    <tag k="network" v="lcn"/>
    <tag k="operator" v="Landkreis Verden"/>
    <tag k="route" v="bicycle"/>
    <tag k="type" v="route"/>
  </relation>
  <relation id="533309" version="1" timestamp="2010-03-23T19:29:09Z" uid="33382" user="de_muur" changeset="4215247">
    <member type="node" ref="672865686" role=""/>
    <member type="way" ref="27788259" role=""/>
    <tag k="name" v="Thedinghausen"/>
    <tag k="network" v="lcn"/>
    <tag k="operator" v="Landkreis Verden"/>
    <tag k="route" v="bicycle"/>
    <tag k="type" v="route"/>
  </relation>
  <relation id="533309" version="2" timestamp="2010-04-19T19:46:20Z" uid="33382" user="de_muur" changeset="4471594">
    <member type="node" ref="672865686" role=""/>
    <member type="way" ref="27788259" role=""/>
    <tag k="name" v="(Emtinghausen) - Thedinghausen"/>
    <tag k="network" v="lcn"/>
    <tag k="operator" v="Landkreis Verden"/>
    <tag k="route" v="bicycle"/>
    <tag k="type" v="route"/>
  </relation>
  <relation id="533310" version="1" timestamp="2010-03-23T19:29:11Z" uid="33382" user="de_muur" changeset="4215247">
    <member type="node" ref="672871663" role=""/>
    <member type="way" ref="10996660" role=""/>
    <tag k="name" v="Felde"/>
    <tag k="network" v="lcn"/>
    <tag k="operator" v="Landkreis Verden"/>
    <tag k="route" v="bicycle"/>
    <tag k="type" v="route"/>
  </relation>
  <relation id="533310" version="2" timestamp="2010-04-19T19:46:20Z" uid="33382" user="de_muur" changeset="4471594">
    <member type="node" ref="672871663" role=""/>
    <member type="way" ref="10996660" role=""/>
    <tag k="name" v="(Donnerstedt) - Felde"/>
    <tag k="network" v="lcn"/>
    <tag k="operator" v="Landkreis Verden"/>
    <tag k="route" v="bicycle"/>
    <tag k="type" v="route"/>
  </relation>
  <relation id="533311" version="1" timestamp="2010-03-23T19:29:11Z" uid="33382" user="de_muur" changeset="4215247">
    <member type="node" ref="672871663" role=""/>
    <member type="way" ref="53175366" role=""/>
    <member type="way" ref="31030726" role=""/>
    <member type="way" ref="50737228" role=""/>
    <member type="node" ref="672871652" role=""/>
    <tag k="name" v="Oenigstedt - L 331"/>
    <tag k="network" v="lcn"/>
    <tag k="operator" v="Landkreis Verden"/>
    <tag k="route" v="bicycle"/>
    <tag k="type" v="route"/>
  </relation>
  <relation id="533312" version="1" timestamp="2010-03-23T19:29:12Z" uid="33382" user="de_muur" changeset="4215247">
    <member type="node" ref="672871652" role=""/>
    <member type="way" ref="53175368" role=""/>
    <member type="node" ref="669900810" role=""/>
    <tag k="name" v="Emtinghausen - Oenigstedt"/>
    <tag k="network" v="lcn"/>
    <tag k="operator" v="Landkreis Verden"/>
    <tag k="route" v="bicycle"/>
    <tag k="type" v="route"/>
  </relation>
  <relation id="533313" version="1" timestamp="2010-03-23T19:29:13Z" uid="33382" user="de_muur" changeset="4215247">
    <member type="node" ref="672871652" role=""/>
    <member type="way" ref="53175367" role=""/>
    <member type="way" ref="25029321" role=""/>
    <tag k="name" v="Oenigstedt"/>
    <tag k="network" v="lcn"/>
    <tag k="operator" v="Landkreis Verden"/>
    <tag k="route" v="bicycle"/>
    <tag k="type" v="route"/>
  </relation>
  <relation id="533313" version="2" timestamp="2010-04-11T16:48:51Z" uid="33382" user="de_muur" changeset="4395977">
    <member type="node" ref="672871652" role=""/>
    <member type="way" ref="53175367" role=""/>
    <tag k="name" v="Oenigstedt - (Riede)"/>
    <tag k="network" v="lcn"/>
    <tag k="operator" v="Landkreis Verden"/>
    <tag k="route" v="bicycle"/>
    <tag k="type" v="route"/>
  </relation>
  <relation id="533315" version="2" timestamp="2010-08-08T20:41:22Z" uid="17602" user="B10xyz" changeset="5437779">
    <member type="way" ref="53175865" role="outer"/>
    <member type="way" ref="53175850" role="inner"/>
    <tag k="note" v="residential building"/>
    <tag k="type" v="multipolygon"/>
  </relation>
  <relation id="533540" version="2" timestamp="2011-01-06T00:25:49Z" uid="30201" user="rrankin" changeset="6877997">
    <member type="way" ref="53084494" role="from"/>
    <member type="way" ref="53085629" role="to"/>
    <member type="node" ref="672091924" role="via"/>
    <tag k="name" v="No  Right Turn: Hume Road To Wills Crescent"/>
    <tag k="restriction" v="no_right_turn"/>
    <tag k="type" v="restriction"/>
  </relation>
  <relation id="533541" version="2" timestamp="2011-01-06T00:26:34Z" uid="30201" user="rrankin" changeset="6877997">
    <member type="way" ref="53085629" role="from"/>
    <member type="way" ref="53084494" role="to"/>
    <member type="node" ref="672091924" role="via"/>
    <tag k="name" v="No  Right Turn: Wills Crescent to HUme Road"/>
    <tag k="restriction" v="no_right_turn"/>
    <tag k="type" v="restriction"/>
  </relation>
  <relation id="533962" version="1" timestamp="2010-03-24T15:30:01Z" uid="115477" user="wowik" changeset="4221660">
    <member type="way" ref="48539391" role="inner"/>
    <member type="way" ref="38288541" role="outer"/>
    <tag k="type" v="multipolygon"/>
  </relation>
  <relation id="533962" version="2" timestamp="2011-05-18T11:40:25Z" uid="115477" user="wowik" changeset="8180249">
    <member type="way" ref="48539391" role="inner"/>
    <member type="way" ref="38288541" role="outer"/>
    <tag k="type" v="multipolygon"/>
  </relation>
</osm>
