<?xml version='1.0' encoding='UTF-8'?>
<osm version="0.6" generator="libosmium/2.20.0">
  <relation id="572150" version="1" timestamp="2010-04-23T07:03:37Z" uid="244897" user="M526244" changeset="4501041">
    <member type="way" ref="26254892" role="member"/>
    <member type="way" ref="26254907" role="member"/>
    <tag k="name" v="Mulberry Parade"/>
    <tag k="route" v="road"/>
    <tag k="type" v="route"/>
  </relation>
  <relation id="572150" version="2" timestamp="2010-04-25T14:03:30Z" uid="4467" user="Rosscoe" changeset="4521741">
    <member type="way" ref="26254892" role="member"/>
    <member type="way" ref="56265712" role="member"/>
    <member type="way" ref="56265711" role="member"/>
    <member type="way" ref="26254907" role="member"/>
    <tag k="name" v="Mulberry Parade"/>
    <tag k="route" v="road"/>
    <tag k="type" v="route"/>
  </relation>
  <relation id="572151" version="1" timestamp="2010-04-23T07:03:40Z" uid="244897" user="M526244" changeset="4501041">
    <member type="way" ref="26254907" role="member"/>
    <member type="way" ref="26254643" role="member"/>
    <member type="way" ref="26254756" role="member"/>
    <member type="way" ref="26254732" role="member"/>
    <member type="way" ref="26254738" role="member"/>
    <member type="way" ref="26254715" role="member"/>
    <tag k="name" v="Triton Parade"/>
    <tag k="route" v="road"/>
    <tag k="type" v="route"/>
  </relation>
  <relation id="572152" version="1" timestamp="2010-04-23T07:03:41Z" uid="244897" user="M526244" changeset="4501041">
    <member type="way" ref="26254976" role="member"/>
    <member type="way" ref="26254907" role="member"/>
    <tag k="name" v="Rosewater Crescent"/>
    <tag k="route" v="road"/>
    <tag k="type" v="route"/>
  </relation>
  <relation id="572153" version="1" timestamp="2010-04-23T07:03:42Z" uid="244897" user="M526244" changeset="4501041">
    <member type="way" ref="26255067" role="member"/>
    <member type="way" ref="26254907" role="member"/>
    <tag k="name" v="Admiral Crescent"/>
    <tag k="route" v="road"/>
    <tag k="type" v="route"/>
  </relation>
  <relation id="572154" version="1" timestamp="2010-04-23T07:03:42Z" uid="244897" user="M526244" changeset="4501041">
    <member type="way" ref="26254668" role="member"/>
    <member type="way" ref="26254616" role="member"/>
    <member type="way" ref="26254650" role="member"/>
    <member type="way" ref="26254715" role="member"/>
    <member type="way" ref="26254626" role="member"/>
    <member type="way" ref="26254607" role="member"/>
    <member type="way" ref="26254536" role="member"/>
    <tag k="name" v="Inland Drive"/>
    <tag k="route" v="road"/>
    <tag k="type" v="route"/>
  </relation>
  <relation id="572155" version="1" timestamp="2010-04-23T07:03:44Z" uid="244897" user="M526244" changeset="4501041">
    <member type="way" ref="26254878" role="member"/>
    <member type="way" ref="26254919" role="member"/>
    <tag k="name" v="French Street"/>
    <tag k="route" v="road"/>
    <tag k="type" v="route"/>
  </relation>
  <relation id="572456" version="1" timestamp="2010-04-23T15:52:10Z" uid="33382" user="de_muur" changeset="4504615">
    <member type="node" ref="601377802" role=""/>
    <member type="way" ref="24436959" role=""/>
    <member type="way" ref="28323753" role=""/>
    <member type="way" ref="28323755" role=""/>
    <member type="way" ref="28323756" role=""/>
    <member type="way" ref="24436973" role=""/>
    <member type="way" ref="24454320" role=""/>
    <member type="way" ref="37954896" role=""/>
    <member type="way" ref="24377871" role=""/>
    <member type="node" ref="704487738" role=""/>
    <tag k="name" v="Aumühle - Rbk-Ohe"/>
    <tag k="network" v="lcn"/>
    <tag k="operator" v="Kreis Storman"/>
    <tag k="route" v="bicycle"/>
    <tag k="type" v="route"/>
  </relation>
  <relation id="572456" version="2" timestamp="2010-08-27T08:58:20Z" uid="33382" user="de_muur" changeset="5605671">
    <member type="node" ref="601377802" role=""/>
    <member type="way" ref="24436959" role=""/>
    <member type="way" ref="28323753" role=""/>
    <member type="way" ref="28323755" role=""/>
    <member type="way" ref="28323756" role=""/>
    <member type="way" ref="24436973" role=""/>
    <member type="way" ref="24454320" role=""/>
    <member type="way" ref="37954896" role=""/>
    <member type="way" ref="24377871" role=""/>
    <member type="node" ref="704487738" role=""/>
    <tag k="name" v="Aumühle - Rbk-Ohe"/>
    <tag k="network" v="lcn"/>
    <tag k="operator" v="Kreis Stormarn"/>
    <tag k="route" v="bicycle"/>
    <tag k="type" v="route"/>
  </relation>
  <relation id="572457" version="1" timestamp="2010-04-23T15:52:20Z" uid="33382" user="de_muur" changeset="4504615">
    <member type="node" ref="704487736" role=""/>
    <member type="way" ref="37851557" role=""/>
    <tag k="name" v="(Reinbek) - Trittau"/>
    <tag k="network" v="lcn"/>
    <tag k="operator" v="Kreis Storman"/>
    <tag k="route" v="bicycle"/>
    <tag k="type" v="route"/>
  </relation>
  <relation id="572457" version="2" timestamp="2010-08-27T08:58:21Z" uid="33382" user="de_muur" changeset="5605671">
    <member type="node" ref="704487736" role=""/>
    <member type="way" ref="37851557" role=""/>
    <tag k="name" v="(Reinbek) - Trittau"/>
    <tag k="network" v="lcn"/>
    <tag k="operator" v="Kreis Stormarn"/>
    <tag k="route" v="bicycle"/>
    <tag k="type" v="route"/>
  </relation>
  <relation id="572586" version="1" timestamp="2010-04-23T19:34:44Z" uid="33382" user="de_muur" changeset="4506517">
    <member type="node" ref="704693598" role=""/>
    <member type="way" ref="24620103" role=""/>
    <member type="way" ref="56150257" role=""/>
    <member type="node" ref="704698720" role=""/>
    <tag k="name" v="Reinbek - Schwarzenbek"/>
    <tag k="network" v="lcn"/>
    <tag k="operator" v="Kreis Herzogtum Lauenburg"/>
    <tag k="route" v="bicycle"/>
    <tag k="type" v="route"/>
  </relation>
  <relation id="572587" version="1" timestamp="2010-04-23T19:34:51Z" uid="33382" user="de_muur" changeset="4506517">
    <member type="node" ref="704698720" role=""/>
    <member type="way" ref="24788482" role=""/>
    <member type="node" ref="627832765" role=""/>
    <tag k="name" v="Oedendorf - Trittau"/>
    <tag k="network" v="lcn"/>
    <tag k="operator" v="Kreis Herzogtum Lauenburg"/>
    <tag k="route" v="bicycle"/>
    <tag k="type" v="route"/>
  </relation>
  <relation id="572591" version="1" timestamp="2010-04-23T19:40:32Z" uid="33382" user="de_muur" changeset="4506576">
    <member type="node" ref="704693598" role=""/>
    <member type="way" ref="34382677" role=""/>
    <member type="way" ref="24511341" role=""/>
    <member type="way" ref="28367127" role=""/>
    <member type="way" ref="34134664" role=""/>
    <member type="node" ref="704705047" role=""/>
    <tag k="name" v="Grande - Mölln"/>
    <tag k="network" v="lcn"/>
    <tag k="operator" v="Kreis Herzogtum Lauenburg"/>
    <tag k="route" v="bicycle"/>
    <tag k="type" v="route"/>
  </relation>
  <relation id="572599" version="1" timestamp="2010-04-23T19:50:50Z" uid="33382" user="de_muur" changeset="4506675">
    <member type="node" ref="704705047" role=""/>
    <member type="way" ref="25033359" role=""/>
    <member type="way" ref="25033358" role=""/>
    <member type="node" ref="704719910" role=""/>
    <tag k="name" v="Schwarzenbek - Trittau"/>
    <tag k="network" v="lcn"/>
    <tag k="operator" v="Kreis Herzogtum Lauenburg"/>
    <tag k="route" v="bicycle"/>
    <tag k="type" v="route"/>
  </relation>
  <relation id="572600" version="1" timestamp="2010-04-23T19:50:53Z" uid="33382" user="de_muur" changeset="4506675">
    <member type="node" ref="704698720" role=""/>
    <member type="way" ref="24454311" role=""/>
    <member type="way" ref="56150875" role=""/>
    <tag k="name" v="Mölln - (Reinbek)"/>
    <tag k="network" v="lcn"/>
    <tag k="operator" v="Kreis Herzogtum Lauenburg"/>
    <tag k="route" v="bicycle"/>
    <tag k="type" v="route"/>
  </relation>
  <relation id="572601" version="1" timestamp="2010-04-23T19:50:53Z" uid="33382" user="de_muur" changeset="4506675">
    <member type="node" ref="704719910" role=""/>
    <member type="way" ref="25914777" role=""/>
    <member type="way" ref="24454306" role=""/>
    <tag k="name" v="Schwarzenbek - (Mölln)"/>
    <tag k="network" v="lcn"/>
    <tag k="operator" v="Kreis Herzogtum Lauenburg"/>
    <tag k="route" v="bicycle"/>
    <tag k="type" v="route"/>
  </relation>
  <relation id="572614" version="1" timestamp="2010-04-23T19:59:16Z" uid="59758" user="rendle" changeset="4506749">
    <member type="way" ref="56144644" role=""/>
    <tag k="name" v="Gerstekotwandeling"/>
    <tag k="network" v="lwn"/>
    <tag k="route" v="foot"/>
    <tag k="type" v="route"/>
  </relation>
  <relation id="572614" version="2" timestamp="2010-04-23T19:59:20Z" uid="59758" user="rendle" changeset="4506749">
    <member type="way" ref="56144644" role=""/>
    <member type="way" ref="56144736" role=""/>
    <tag k="name" v="Gerstekotwandeling"/>
    <tag k="network" v="lwn"/>
    <tag k="route" v="foot"/>
    <tag k="type" v="route"/>
  </relation>
  <relation id="572614" version="3" timestamp="2010-04-23T19:59:30Z" uid="59758" user="rendle" changeset="4506749">
    <member type="way" ref="56144644" role=""/>
    <member type="way" ref="56144736" role=""/>
    <member type="way" ref="56144840" role=""/>
    <tag k="name" v="Gerstekotwandeling"/>
    <tag k="network" v="lwn"/>
    <tag k="route" v="foot"/>
    <tag k="type" v="route"/>
  </relation>
  <relation id="572614" version="4" timestamp="2010-04-30T18:05:19Z" uid="59758" user="rendle" changeset="4568514">
    <member type="way" ref="56144644" role=""/>
    <member type="way" ref="56144736" role=""/>
    <member type="way" ref="56144840" role=""/>
    <member type="way" ref="57386751" role=""/>
    <tag k="name" v="Gerstekotwandeling"/>
    <tag k="network" v="lwn"/>
    <tag k="route" v="foot"/>
    <tag k="type" v="route"/>
  </relation>
  <relation id="572614" version="5" timestamp="2010-04-30T18:07:05Z" uid="59758" user="rendle" changeset="4568514">
    <member type="way" ref="56144644" role=""/>
    <member type="way" ref="56144736" role=""/>
    <member type="way" ref="56144840" role=""/>
    <member type="way" ref="57386751" role=""/>
    <member type="way" ref="57386502" role=""/>
    <tag k="name" v="Gerstekotwandeling"/>
    <tag k="network" v="lwn"/>
    <tag k="route" v="foot"/>
    <tag k="type" v="route"/>
  </relation>
  <relation id="572614" version="6" timestamp="2010-04-30T18:07:41Z" uid="59758" user="rendle" changeset="4568514">
    <member type="way" ref="56144644" role=""/>
    <member type="way" ref="56144736" role=""/>
    <member type="way" ref="56144840" role=""/>
    <member type="way" ref="57386751" role=""/>
    <member type="way" ref="57386502" role=""/>
    <member type="way" ref="57384736" role=""/>
    <tag k="name" v="Gerstekotwandeling"/>
    <tag k="network" v="lwn"/>
    <tag k="route" v="foot"/>
    <tag k="type" v="route"/>
  </relation>
  <relation id="572614" version="7" timestamp="2010-04-30T18:08:10Z" uid="59758" user="rendle" changeset="4568514">
    <member type="way" ref="56144644" role=""/>
    <member type="way" ref="56144736" role=""/>
    <member type="way" ref="56144840" role=""/>
    <member type="way" ref="57386751" role=""/>
    <member type="way" ref="57386502" role=""/>
    <member type="way" ref="57384736" role=""/>
    <member type="way" ref="57385023" role=""/>
    <tag k="name" v="Gerstekotwandeling"/>
    <tag k="network" v="lwn"/>
    <tag k="route" v="foot"/>
    <tag k="type" v="route"/>
  </relation>
  <relation id="572614" version="8" timestamp="2010-04-30T18:09:09Z" uid="59758" user="rendle" changeset="4568514">
    <member type="way" ref="56144644" role=""/>
    <member type="way" ref="56144736" role=""/>
    <member type="way" ref="56144840" role=""/>
    <member type="way" ref="57386751" role=""/>
    <member type="way" ref="57386502" role=""/>
    <member type="way" ref="57384736" role=""/>
    <member type="way" ref="57385023" role=""/>
    <member type="way" ref="57386793" role=""/>
    <tag k="name" v="Gerstekotwandeling"/>
    <tag k="network" v="lwn"/>
    <tag k="route" v="foot"/>
    <tag k="type" v="route"/>
  </relation>
  <relation id="572614" version="9" timestamp="2010-06-05T08:57:11Z" uid="59758" user="rendle" changeset="4907111">
    <member type="way" ref="56144644" role=""/>
    <member type="way" ref="56144736" role=""/>
    <member type="way" ref="56144840" role=""/>
    <member type="way" ref="57386751" role=""/>
    <member type="way" ref="57386502" role=""/>
    <member type="way" ref="57384736" role=""/>
    <member type="way" ref="57385023" role=""/>
    <member type="way" ref="57386793" role=""/>
    <member type="way" ref="61157362" role=""/>
    <tag k="name" v="Gerstekotwandeling"/>
    <tag k="network" v="lwn"/>
    <tag k="route" v="foot"/>
    <tag k="type" v="route"/>
  </relation>
  <relation id="572614" version="10" timestamp="2010-06-05T09:00:35Z" uid="59758" user="rendle" changeset="4907111">
    <member type="way" ref="56144644" role=""/>
    <member type="way" ref="56144736" role=""/>
    <member type="way" ref="56144840" role=""/>
    <member type="way" ref="57386751" role=""/>
    <member type="way" ref="57386502" role=""/>
    <member type="way" ref="57384736" role=""/>
    <member type="way" ref="57385023" role=""/>
    <member type="way" ref="57386793" role=""/>
    <member type="way" ref="61157362" role=""/>
    <member type="way" ref="61158559" role=""/>
    <tag k="name" v="Gerstekotwandeling"/>
    <tag k="network" v="lwn"/>
    <tag k="route" v="foot"/>
    <tag k="type" v="route"/>
  </relation>
  <relation id="572614" version="11" timestamp="2010-06-05T09:00:40Z" uid="59758" user="rendle" changeset="4907111">
    <member type="way" ref="56144644" role=""/>
    <member type="way" ref="56144736" role=""/>
    <member type="way" ref="56144840" role=""/>
    <member type="way" ref="57386751" role=""/>
    <member type="way" ref="57386502" role=""/>
    <member type="way" ref="57384736" role=""/>
    <member type="way" ref="57385023" role=""/>
    <member type="way" ref="57386793" role=""/>
    <member type="way" ref="61157362" role=""/>
    <member type="way" ref="61158559" role=""/>
    <member type="way" ref="27348817" role=""/>
    <tag k="name" v="Gerstekotwandeling"/>
    <tag k="network" v="lwn"/>
    <tag k="route" v="foot"/>
    <tag k="type" v="route"/>
  </relation>
  <relation id="572614" version="12" timestamp="2010-07-09T18:17:24Z" uid="59758" user="rendle" changeset="5175840">
    <member type="way" ref="56144644" role=""/>
    <member type="way" ref="56144736" role=""/>
    <member type="way" ref="56144840" role=""/>
    <member type="way" ref="57386751" role=""/>
    <member type="way" ref="57386502" role=""/>
    <member type="way" ref="57384736" role=""/>
    <member type="way" ref="57385023" role=""/>
    <member type="way" ref="57386793" role=""/>
    <member type="way" ref="61157362" role=""/>
    <member type="way" ref="61158559" role=""/>
    <member type="way" ref="27348817" role=""/>
    <member type="way" ref="66909731" role=""/>
    <tag k="name" v="Gerstekotwandeling"/>
    <tag k="network" v="lwn"/>
    <tag k="route" v="foot"/>
    <tag k="type" v="route"/>
  </relation>
  <relation id="572678" version="1" timestamp="2010-04-23T20:33:17Z" uid="33382" user="de_muur" changeset="4507184">
    <member type="node" ref="704769935" role=""/>
    <member type="way" ref="18328439" role=""/>
    <member type="way" ref="37918355" role=""/>
    <member type="way" ref="45177610" role=""/>
    <member type="node" ref="704769931" role=""/>
    <tag k="name" v="Schwarzenbek - Trittau"/>
    <tag k="network" v="lcn"/>
    <tag k="operator" v="Kreis Herzogtum Lauenburg"/>
    <tag k="route" v="bicycle"/>
    <tag k="type" v="route"/>
  </relation>
  <relation id="572679" version="1" timestamp="2010-04-23T20:33:18Z" uid="33382" user="de_muur" changeset="4507184">
    <member type="node" ref="704769926" role=""/>
    <member type="way" ref="24511340" role=""/>
    <member type="way" ref="38079551" role=""/>
    <member type="way" ref="29244247" role=""/>
    <member type="way" ref="56154498" role=""/>
    <member type="node" ref="704769935" role=""/>
    <tag k="name" v="Mölln - Reinbek"/>
    <tag k="network" v="lcn"/>
    <tag k="operator" v="Kreis Herzogtum Lauenburg"/>
    <tag k="route" v="bicycle"/>
    <tag k="type" v="route"/>
  </relation>
  <relation id="572679" version="2" timestamp="2010-08-11T15:22:42Z" uid="33382" user="de_muur" changeset="5463811">
    <member type="node" ref="704769926" role=""/>
    <member type="way" ref="24511340" role=""/>
    <member type="way" ref="38079551" role=""/>
    <member type="way" ref="29244247" role=""/>
    <member type="way" ref="56154498" role=""/>
    <member type="node" ref="704769935" role=""/>
    <member type="way" ref="29244010" role=""/>
    <member type="way" ref="34382920" role=""/>
    <member type="way" ref="8327965" role=""/>
    <member type="way" ref="29244009" role=""/>
    <member type="way" ref="4760151" role=""/>
    <member type="node" ref="854764003" role=""/>
    <tag k="name" v="Mölln - Reinbek"/>
    <tag k="network" v="lcn"/>
    <tag k="operator" v="Kreis Herzogtum Lauenburg"/>
    <tag k="route" v="bicycle"/>
    <tag k="type" v="route"/>
  </relation>
  <relation id="572680" version="1" timestamp="2010-04-23T20:33:18Z" uid="33382" user="de_muur" changeset="4507184">
    <member type="node" ref="704769935" role=""/>
    <member type="way" ref="24634681" role=""/>
    <member type="way" ref="24634680" role=""/>
    <tag k="name" v="Bad Oldesloe - Reinbek"/>
    <tag k="network" v="lcn"/>
    <tag k="operator" v="Kreis Herzogtum Lauenburg"/>
    <tag k="route" v="bicycle"/>
    <tag k="type" v="route"/>
  </relation>
  <relation id="572680" version="2" timestamp="2010-08-11T15:22:39Z" uid="33382" user="de_muur" changeset="5463811">
    <member type="node" ref="704769935" role=""/>
    <member type="way" ref="24634681" role=""/>
    <member type="way" ref="24634680" role=""/>
    <member type="way" ref="10933220" role=""/>
    <member type="node" ref="704493515" role=""/>
    <tag k="name" v="Bad Oldesloe - Reinbek"/>
    <tag k="network" v="lcn"/>
    <tag k="operator" v="Kreis Herzogtum Lauenburg"/>
    <tag k="route" v="bicycle"/>
    <tag k="type" v="route"/>
  </relation>
  <relation id="572681" version="1" timestamp="2010-04-23T20:33:18Z" uid="33382" user="de_muur" changeset="4507184">
    <member type="node" ref="704493515" role=""/>
    <member type="way" ref="10933220" role=""/>
    <tag k="name" v="Bad Oldesloe - Reinbek"/>
    <tag k="network" v="lcn"/>
    <tag k="operator" v="Kreis Storman"/>
    <tag k="route" v="bicycle"/>
    <tag k="type" v="route"/>
  </relation>
  <relation id="572681" version="2" timestamp="2010-08-11T15:22:44Z" uid="33382" user="de_muur" changeset="5463811"/>
  <relation id="572682" version="1" timestamp="2010-04-23T20:33:18Z" uid="33382" user="de_muur" changeset="4507184">
    <member type="node" ref="704705047" role=""/>
    <member type="way" ref="34382589" role=""/>
    <tag k="name" v="(Reinbek) - Trittau"/>
    <tag k="network" v="lcn"/>
    <tag k="operator" v="Kreis Herzogtum Lauenburg"/>
    <tag k="route" v="bicycle"/>
    <tag k="type" v="route"/>
  </relation>
  <relation id="572683" version="1" timestamp="2010-04-23T20:33:19Z" uid="33382" user="de_muur" changeset="4507184">
    <member type="node" ref="704769923" role=""/>
    <member type="way" ref="34382590" role=""/>
    <tag k="name" v="(Mölln) - Reinbek"/>
    <tag k="network" v="lcn"/>
    <tag k="operator" v="Kreis Herzogtum Lauenburg"/>
    <tag k="route" v="bicycle"/>
    <tag k="type" v="route"/>
  </relation>
  <relation id="572684" version="1" timestamp="2010-04-23T20:33:19Z" uid="33382" user="de_muur" changeset="4507184">
    <member type="node" ref="704769923" role=""/>
    <member type="way" ref="56154496" role=""/>
    <tag k="name" v="Mölln - (Reinbek)"/>
    <tag k="network" v="lcn"/>
    <tag k="operator" v="Kreis Herzogtum Lauenburg"/>
    <tag k="route" v="bicycle"/>
    <tag k="type" v="route"/>
  </relation>
  <relation id="572685" version="1" timestamp="2010-04-23T20:33:19Z" uid="33382" user="de_muur" changeset="4507184">
    <member type="node" ref="704719910" role=""/>
    <member type="way" ref="24454312" role=""/>
    <member type="way" ref="34134665" role=""/>
    <tag k="name" v="Mölln - (Schwarzenbek)"/>
    <tag k="network" v="lcn"/>
    <tag k="operator" v="Kreis Herzogtum Lauenburg"/>
    <tag k="route" v="bicycle"/>
    <tag k="type" v="route"/>
  </relation>
  <relation id="572747" version="1" timestamp="2010-04-23T21:23:46Z" uid="59758" user="rendle" changeset="4507518">
    <member type="way" ref="56144994" role=""/>
    <tag k="network" v="rcn"/>
    <tag k="note" v="32-37, zone Waasland"/>
    <tag k="route" v="bicycle"/>
    <tag k="type" v="route"/>
  </relation>
  <relation id="572747" version="2" timestamp="2010-04-23T21:23:55Z" uid="59758" user="rendle" changeset="4507518">
    <member type="way" ref="56144994" role=""/>
    <member type="way" ref="27348911" role=""/>
    <tag k="network" v="rcn"/>
    <tag k="note" v="32-37, zone Waasland"/>
    <tag k="route" v="bicycle"/>
    <tag k="type" v="route"/>
  </relation>
  <relation id="572747" version="3" timestamp="2010-04-23T21:24:04Z" uid="59758" user="rendle" changeset="4507518">
    <member type="way" ref="56144994" role=""/>
    <member type="way" ref="27348911" role=""/>
    <member type="way" ref="56144942" role=""/>
    <tag k="network" v="rcn"/>
    <tag k="note" v="32-37, zone Waasland"/>
    <tag k="route" v="bicycle"/>
    <tag k="type" v="route"/>
  </relation>
  <relation id="572747" version="4" timestamp="2010-06-05T08:23:07Z" uid="59758" user="rendle" changeset="4906840">
    <member type="way" ref="27348911" role=""/>
    <member type="way" ref="56144942" role=""/>
    <member type="way" ref="61157850" role=""/>
    <tag k="network" v="rcn"/>
    <tag k="note" v="32-37, zone Waasland"/>
    <tag k="route" v="bicycle"/>
    <tag k="type" v="route"/>
  </relation>
  <relation id="572747" version="5" timestamp="2010-06-05T08:23:14Z" uid="59758" user="rendle" changeset="4906840">
    <member type="way" ref="27348911" role=""/>
    <member type="way" ref="56144942" role=""/>
    <member type="way" ref="61157850" role=""/>
    <member type="way" ref="61157861" role=""/>
    <tag k="network" v="rcn"/>
    <tag k="note" v="32-37, zone Waasland"/>
    <tag k="route" v="bicycle"/>
    <tag k="type" v="route"/>
  </relation>
  <relation id="572747" version="6" timestamp="2010-06-05T08:23:19Z" uid="59758" user="rendle" changeset="4906840">
    <member type="way" ref="27348911" role=""/>
    <member type="way" ref="56144942" role=""/>
    <member type="way" ref="61157850" role=""/>
    <tag k="network" v="rcn"/>
    <tag k="note" v="32-37, zone Waasland"/>
    <tag k="route" v="bicycle"/>
    <tag k="type" v="route"/>
  </relation>
  <relation id="572747" version="7" timestamp="2010-06-05T08:36:02Z" uid="59758" user="rendle" changeset="4906926">
    <member type="way" ref="27348911" role=""/>
    <member type="way" ref="56144942" role=""/>
    <member type="way" ref="61157850" role=""/>
    <member type="way" ref="61158157" role=""/>
    <tag k="network" v="rcn"/>
    <tag k="note" v="32-37, zone Waasland"/>
    <tag k="route" v="bicycle"/>
    <tag k="type" v="route"/>
  </relation>
  <relation id="572747" version="8" timestamp="2010-06-05T08:52:14Z" uid="59758" user="rendle" changeset="4906990">
    <member type="way" ref="27348911" role=""/>
    <member type="way" ref="56144942" role=""/>
    <member type="way" ref="61157850" role=""/>
    <tag k="network" v="rcn"/>
    <tag k="note" v="32-37, zone Waasland"/>
    <tag k="route" v="bicycle"/>
    <tag k="type" v="route"/>
  </relation>
  <relation id="572747" version="9" timestamp="2010-06-05T08:59:31Z" uid="59758" user="rendle" changeset="4907111">
    <member type="way" ref="27348911" role=""/>
    <member type="way" ref="56144942" role=""/>
    <member type="way" ref="61157850" role=""/>
    <member type="way" ref="61158157" role=""/>
    <tag k="network" v="rcn"/>
    <tag k="note" v="32-37, zone Waasland"/>
    <tag k="route" v="bicycle"/>
    <tag k="type" v="route"/>
  </relation>
  <relation id="572747" version="10" timestamp="2010-06-05T09:00:10Z" uid="59758" user="rendle" changeset="4907111">
    <member type="way" ref="27348911" role=""/>
    <member type="way" ref="56144942" role=""/>
    <member type="way" ref="61157850" role=""/>
    <member type="way" ref="61158157" role=""/>
    <member type="way" ref="27348817" role=""/>
    <tag k="network" v="rcn"/>
    <tag k="note" v="32-37, zone Waasland"/>
    <tag k="route" v="bicycle"/>
    <tag k="type" v="route"/>
  </relation>
  <relation id="572747" version="11" timestamp="2010-06-05T09:00:35Z" uid="59758" user="rendle" changeset="4907111">
    <member type="way" ref="27348911" role=""/>
    <member type="way" ref="56144942" role=""/>
    <member type="way" ref="61157850" role=""/>
    <member type="way" ref="61158157" role=""/>
    <member type="way" ref="27348817" role=""/>
    <member type="way" ref="61158559" role=""/>
    <tag k="network" v="rcn"/>
    <tag k="note" v="32-37, zone Waasland"/>
    <tag k="route" v="bicycle"/>
    <tag k="type" v="route"/>
  </relation>
  <relation id="572747" version="12" timestamp="2010-06-19T09:51:39Z" uid="59758" user="rendle" changeset="5022244">
    <member type="way" ref="27348911" role=""/>
    <member type="way" ref="56144942" role=""/>
    <member type="way" ref="61157850" role=""/>
    <member type="way" ref="61158157" role=""/>
    <member type="way" ref="27348817" role=""/>
    <member type="way" ref="61158559" role=""/>
    <member type="way" ref="62198076" role=""/>
    <tag k="network" v="rcn"/>
    <tag k="note" v="32-37, zone Waasland"/>
    <tag k="route" v="bicycle"/>
    <tag k="type" v="route"/>
  </relation>
  <relation id="572747" version="13" timestamp="2010-06-19T09:51:52Z" uid="59758" user="rendle" changeset="5022244">
    <member type="way" ref="27348911" role=""/>
    <member type="way" ref="56144942" role=""/>
    <member type="way" ref="61157850" role=""/>
    <member type="way" ref="61158157" role=""/>
    <member type="way" ref="27348817" role=""/>
    <member type="way" ref="61158559" role=""/>
    <member type="way" ref="62198076" role=""/>
    <member type="way" ref="56144840" role=""/>
    <tag k="network" v="rcn"/>
    <tag k="note" v="32-37, zone Waasland"/>
    <tag k="route" v="bicycle"/>
    <tag k="type" v="route"/>
  </relation>
  <relation id="572747" version="14" timestamp="2010-06-19T09:52:02Z" uid="59758" user="rendle" changeset="5022244">
    <member type="way" ref="27348911" role=""/>
    <member type="way" ref="56144942" role=""/>
    <member type="way" ref="61157850" role=""/>
    <member type="way" ref="61158157" role=""/>
    <member type="way" ref="27348817" role=""/>
    <member type="way" ref="61158559" role=""/>
    <member type="way" ref="62198076" role=""/>
    <member type="way" ref="56144840" role=""/>
    <member type="way" ref="57384557" role=""/>
    <tag k="network" v="rcn"/>
    <tag k="note" v="32-37, zone Waasland"/>
    <tag k="route" v="bicycle"/>
    <tag k="type" v="route"/>
  </relation>
  <relation id="572747" version="15" timestamp="2010-06-19T09:52:11Z" uid="59758" user="rendle" changeset="5022244">
    <member type="way" ref="27348911" role=""/>
    <member type="way" ref="56144942" role=""/>
    <member type="way" ref="61157850" role=""/>
    <member type="way" ref="61158157" role=""/>
    <member type="way" ref="27348817" role=""/>
    <member type="way" ref="61158559" role=""/>
    <member type="way" ref="62198076" role=""/>
    <member type="way" ref="56144840" role=""/>
    <member type="way" ref="57384557" role=""/>
    <member type="way" ref="62198073" role=""/>
    <tag k="network" v="rcn"/>
    <tag k="note" v="32-37, zone Waasland"/>
    <tag k="route" v="bicycle"/>
    <tag k="type" v="route"/>
  </relation>
</osm>
