<?xml version='1.0' encoding='UTF-8'?>
<osm version="0.6" generator="libosmium/2.20.0">
  <relation id="902020" version="2" timestamp="2010-09-24T11:10:29Z" uid="16922" user="amai" changeset="5861821">
    <member type="way" ref="58047537" role="outer"/>
    <member type="way" ref="27846938" role="outer"/>
    <tag k="name" v="เกาะเกร็ด"/>
    <tag k="name:en" v="Koh Kret"/>
    <tag k="name:th" v="เกาะเกร็ด"/>
    <tag k="source" v="LandSat"/>
    <tag k="type" v="multipolygon"/>
  </relation>
  <relation id="902327" version="1" timestamp="2010-05-05T15:43:53Z" uid="33382" user="de_muur" changeset="4614075">
    <member type="node" ref="641910590" role=""/>
    <member type="way" ref="26188692" role=""/>
    <member type="way" ref="38416509" role=""/>
    <member type="way" ref="23904974" role=""/>
    <member type="way" ref="23904975" role=""/>
    <member type="way" ref="4290359" role=""/>
    <member type="way" ref="4290301" role=""/>
    <member type="way" ref="4290300" role=""/>
    <member type="way" ref="28153618" role=""/>
    <member type="node" ref="722528138" role=""/>
    <tag k="name" v="Arsten - Weserstadion"/>
    <tag k="network" v="lcn"/>
    <tag k="operator" v="Geoinformation Bremen"/>
    <tag k="route" v="bicycle"/>
    <tag k="type" v="route"/>
  </relation>
  <relation id="902328" version="1" timestamp="2010-05-05T15:43:53Z" uid="33382" user="de_muur" changeset="4614075">
    <member type="node" ref="722528138" role=""/>
    <member type="way" ref="4290298" role=""/>
    <member type="node" ref="722528130" role=""/>
    <tag k="name" v="Arsten - Centrum"/>
    <tag k="network" v="lcn"/>
    <tag k="operator" v="Geoinformation Bremen"/>
    <tag k="route" v="bicycle"/>
    <tag k="type" v="route"/>
  </relation>
  <relation id="902328" version="2" timestamp="2010-05-05T15:46:43Z" uid="33382" user="de_muur" changeset="4614094">
    <member type="node" ref="722528138" role=""/>
    <member type="way" ref="4290298" role=""/>
    <member type="node" ref="722528130" role=""/>
    <member type="way" ref="4293129" role=""/>
    <member type="node" ref="722528115" role=""/>
    <tag k="name" v="Arsten - Centrum"/>
    <tag k="network" v="lcn"/>
    <tag k="operator" v="Geoinformation Bremen"/>
    <tag k="route" v="bicycle"/>
    <tag k="type" v="route"/>
  </relation>
  <relation id="902334" version="1" timestamp="2010-05-05T15:46:28Z" uid="33382" user="de_muur" changeset="4614094">
    <member type="node" ref="722528115" role=""/>
    <member type="way" ref="28299526" role=""/>
    <member type="way" ref="32840731" role=""/>
    <member type="node" ref="722514808" role=""/>
    <tag k="name" v="Centrum - Habenhausen"/>
    <tag k="network" v="lcn"/>
    <tag k="operator" v="Geoinformation Bremen"/>
    <tag k="route" v="bicycle"/>
    <tag k="type" v="route"/>
  </relation>
  <relation id="902339" version="1" timestamp="2010-05-05T15:52:43Z" uid="33382" user="de_muur" changeset="4614130">
    <member type="node" ref="722514808" role=""/>
    <member type="way" ref="4770845" role=""/>
    <member type="node" ref="722514809" role=""/>
    <tag k="name" v="Arsten - Centrum"/>
    <tag k="network" v="lcn"/>
    <tag k="operator" v="Geoinformation Bremen"/>
    <tag k="route" v="bicycle"/>
    <tag k="type" v="route"/>
  </relation>
  <relation id="902340" version="1" timestamp="2010-05-05T15:52:51Z" uid="33382" user="de_muur" changeset="4614130">
    <member type="node" ref="722514809" role=""/>
    <member type="way" ref="4707563" role=""/>
    <member type="node" ref="722514807" role=""/>
    <member type="way" ref="4707564" role=""/>
    <member type="way" ref="58261407" role=""/>
    <member type="way" ref="58256258" role=""/>
    <member type="way" ref="24757556" role=""/>
    <member type="way" ref="24757528" role=""/>
    <member type="node" ref="721208379" role=""/>
    <member type="node" ref="721208380" role=""/>
    <tag k="name" v="Arsten - Bhf. Neustadt"/>
    <tag k="network" v="lcn"/>
    <tag k="operator" v="Geoinformation Bremen"/>
    <tag k="route" v="bicycle"/>
    <tag k="type" v="route"/>
  </relation>
  <relation id="902340" version="3" timestamp="2011-04-19T19:07:50Z" uid="33382" user="de_muur" changeset="7909681">
    <member type="node" ref="722514809" role=""/>
    <member type="way" ref="4707563" role=""/>
    <member type="way" ref="74097054" role=""/>
    <member type="node" ref="722514807" role=""/>
    <member type="way" ref="4707564" role=""/>
    <member type="way" ref="58261407" role=""/>
    <member type="way" ref="58256258" role=""/>
    <member type="way" ref="24757556" role=""/>
    <member type="way" ref="24757528" role=""/>
    <member type="node" ref="721208379" role=""/>
    <member type="node" ref="721208380" role=""/>
    <member type="way" ref="4714111" role=""/>
    <tag k="name" v="Arsten - Bhf. Neustadt"/>
    <tag k="network" v="lcn"/>
    <tag k="operator" v="Geoinformation Bremen"/>
    <tag k="route" v="bicycle"/>
    <tag k="type" v="route"/>
  </relation>
  <relation id="902353" version="1" timestamp="2010-05-05T16:12:12Z" uid="33382" user="de_muur" changeset="4614254">
    <member type="node" ref="722555567" role=""/>
    <member type="way" ref="33699046" role=""/>
    <member type="node" ref="722556822" role=""/>
    <tag k="name" v="Büchen - Geesthacht"/>
    <tag k="network" v="lcn"/>
    <tag k="operator" v="Kreis Herzogtum Lauenburg"/>
    <tag k="route" v="bicycle"/>
    <tag k="type" v="route"/>
  </relation>
  <relation id="902353" version="2" timestamp="2010-05-05T16:15:18Z" uid="33382" user="de_muur" changeset="4614283">
    <member type="node" ref="722555567" role=""/>
    <member type="way" ref="33699046" role=""/>
    <member type="node" ref="722556822" role=""/>
    <member type="way" ref="57766828" role=""/>
    <member type="way" ref="33699127" role=""/>
    <member type="way" ref="37870436" role=""/>
    <member type="way" ref="57766732" role=""/>
    <member type="way" ref="37462500" role=""/>
    <member type="node" ref="722558464" role=""/>
    <tag k="name" v="Büchen - Geesthacht"/>
    <tag k="network" v="lcn"/>
    <tag k="operator" v="Kreis Herzogtum Lauenburg"/>
    <tag k="route" v="bicycle"/>
    <tag k="type" v="route"/>
  </relation>
  <relation id="902355" version="1" timestamp="2010-05-05T16:19:11Z" uid="33382" user="de_muur" changeset="4614309">
    <member type="node" ref="722558464" role=""/>
    <member type="way" ref="25012643" role=""/>
    <member type="way" ref="57718557" role=""/>
    <member type="node" ref="722560935" role=""/>
    <tag k="name" v="Büchen-Zentrum - Geesthacht"/>
    <tag k="network" v="lcn"/>
    <tag k="operator" v="Kreis Herzogtum Lauenburg"/>
    <tag k="route" v="bicycle"/>
    <tag k="type" v="route"/>
  </relation>
  <relation id="902357" version="1" timestamp="2010-05-05T16:22:32Z" uid="33382" user="de_muur" changeset="4614333">
    <member type="node" ref="722560935" role=""/>
    <member type="way" ref="26197899" role=""/>
    <member type="node" ref="722562033" role=""/>
    <tag k="name" v="Breitenfelde - Geesthacht"/>
    <tag k="network" v="lcn"/>
    <tag k="operator" v="Kreis Herzogtum Lauenburg"/>
    <tag k="route" v="bicycle"/>
    <tag k="type" v="route"/>
  </relation>
  <relation id="902358" version="1" timestamp="2010-05-05T16:27:42Z" uid="33382" user="de_muur" changeset="4614370">
    <member type="node" ref="722562033" role=""/>
    <member type="way" ref="57718556" role=""/>
    <member type="way" ref="37462489" role=""/>
    <member type="node" ref="722563439" role=""/>
    <tag k="name" v="Büchen-Zentrum - Mölln"/>
    <tag k="network" v="lcn"/>
    <tag k="operator" v="Kreis Herzogtum Lauenburg"/>
    <tag k="route" v="bicycle"/>
    <tag k="type" v="route"/>
  </relation>
  <relation id="902359" version="1" timestamp="2010-05-05T16:27:51Z" uid="33382" user="de_muur" changeset="4614370">
    <member type="node" ref="722563439" role=""/>
    <member type="way" ref="35274910" role=""/>
    <member type="way" ref="57718555" role=""/>
    <member type="node" ref="722563440" role=""/>
    <tag k="name" v="Bahnhof - Büchen-Zentrum"/>
    <tag k="network" v="lcn"/>
    <tag k="operator" v="Kreis Herzogtum Lauenburg"/>
    <tag k="route" v="bicycle"/>
    <tag k="type" v="route"/>
  </relation>
  <relation id="902360" version="1" timestamp="2010-05-05T16:32:01Z" uid="33382" user="de_muur" changeset="4614398">
    <member type="node" ref="722563439" role=""/>
    <member type="way" ref="57718559" role=""/>
    <member type="way" ref="37462479" role=""/>
    <member type="way" ref="58263086" role=""/>
    <member type="node" ref="722569130" role=""/>
    <tag k="name" v="Büchen - Mölln"/>
    <tag k="network" v="lcn"/>
    <tag k="operator" v="Kreis Herzogtum Lauenburg"/>
    <tag k="route" v="bicycle"/>
    <tag k="type" v="route"/>
  </relation>
  <relation id="902361" version="1" timestamp="2010-05-05T16:37:53Z" uid="33382" user="de_muur" changeset="4614434">
    <member type="node" ref="722569130" role=""/>
    <member type="way" ref="26197878" role=""/>
    <member type="way" ref="26197877" role=""/>
    <member type="way" ref="58263258" role=""/>
    <member type="node" ref="722587217" role=""/>
    <tag k="name" v="Gudow - Lauenburg/Elbe"/>
    <tag k="network" v="lcn"/>
    <tag k="operator" v="Kreis Herzogtum Lauenburg"/>
    <tag k="route" v="bicycle"/>
    <tag k="type" v="route"/>
  </relation>
  <relation id="902362" version="1" timestamp="2010-05-05T16:42:31Z" uid="33382" user="de_muur" changeset="4614467">
    <member type="node" ref="722587217" role=""/>
    <member type="way" ref="57718554" role=""/>
    <member type="way" ref="57718561" role=""/>
    <member type="node" ref="722599150" role=""/>
    <tag k="name" v="Büchen - Gudow"/>
    <tag k="network" v="lcn"/>
    <tag k="operator" v="Kreis Herzogtum Lauenburg"/>
    <tag k="route" v="bicycle"/>
    <tag k="type" v="route"/>
  </relation>
  <relation id="902362" version="2" timestamp="2010-07-09T20:40:50Z" uid="33382" user="de_muur" changeset="5176909"/>
  <relation id="902629" version="1" timestamp="2010-05-05T19:01:32Z" uid="151899" user="Bikeman2000" changeset="4615714">
    <member type="way" ref="58281559" role="inner"/>
    <member type="way" ref="58281561" role="outer"/>
    <tag k="type" v="multipolygon"/>
  </relation>
</osm>
