<?xml version='1.0' encoding='UTF-8'?>
<osm version="0.6" generator="libosmium/2.20.0">
  <relation id="948890" version="5" timestamp="2010-08-07T16:45:24Z" uid="9581" user="Lobelt" changeset="5425961">
    <member type="node" ref="695845710" role="hikingmap"/>
    <member type="way" ref="28058404" role=""/>
    <member type="way" ref="28058405" role=""/>
    <member type="way" ref="56344378" role=""/>
    <member type="way" ref="61005232" role=""/>
    <member type="way" ref="60996302" role=""/>
    <member type="way" ref="34257302" role=""/>
    <member type="way" ref="71324146" role=""/>
    <member type="way" ref="60996303" role=""/>
    <member type="way" ref="28058379" role=""/>
    <member type="way" ref="60996301" role=""/>
    <member type="way" ref="57738117" role=""/>
    <member type="way" ref="28058400" role=""/>
    <tag k="description" v="Rundweg 2 am Parkplatz Am Hellklingen"/>
    <tag k="distance" v="2.8 km"/>
    <tag k="name" v="Mumbach-Weg"/>
    <tag k="network" v="lwn"/>
    <tag k="operator" v="Geo-Naturpark BergstraÃŸe-Odenwald"/>
    <tag k="osmc:symbol" v="yellow:yellow_circle::2:yellow"/>
    <tag k="ref" v="2"/>
    <tag k="route" v="hiking"/>
    <tag k="symbol" v="Gelbe 2 in gelbem Kreis"/>
    <tag k="type" v="route"/>
    <tag k="wiki:symbol" v="Yellow_2_in_yellow_circle.svg"/>
  </relation>
</osm>
